<?xml version="1.0" encoding="UTF-8"?>
<gpx version="1.1"
     creator="KMLtoGPX"
     xmlns="http://www.topografix.com/GPX/1/1">
  <metadata>
    <name>East Green Line</name>
    <desc>East Green Line</desc>
    <bounds minlat="39.30003611111111" minlon="140.7756738888889" maxlat="39.32083194444444" maxlon="140.87613611111112"/>
  </metadata>
  <trk>
    <name>East Green Line</name>
    <trkseg>
<trkpt lat="39.31509194444445" lon="140.7756738888889">
<ele>247</ele>
</trkpt>
<trkpt lat="39.31514888888889" lon="140.77581694444444">
<ele>247</ele>
</trkpt>
<trkpt lat="39.31527388888889" lon="140.77613">
<ele>246</ele>
</trkpt>
<trkpt lat="39.31544888888889" lon="140.776455">
<ele>245</ele>
</trkpt>
<trkpt lat="39.315956944444444" lon="140.7770788888889">
<ele>244</ele>
</trkpt>
<trkpt lat="39.31628194444444" lon="140.7766038888889">
<ele>247</ele>
</trkpt>
<trkpt lat="39.31670694444445" lon="140.77701694444445">
<ele>247</ele>
</trkpt>
<trkpt lat="39.316898888888886" lon="140.7772038888889">
<ele>247</ele>
</trkpt>
<trkpt lat="39.31749888888889" lon="140.77779194444443">
<ele>245</ele>
</trkpt>
<trkpt lat="39.31782305555556" lon="140.77811694444443">
<ele>247</ele>
</trkpt>
<trkpt lat="39.318665" lon="140.77894194444445">
<ele>247</ele>
</trkpt>
<trkpt lat="39.31934" lon="140.77961694444446">
<ele>248</ele>
</trkpt>
<trkpt lat="39.32002305555555" lon="140.78029194444446">
<ele>247</ele>
</trkpt>
<trkpt lat="39.32040694444444" lon="140.78069194444444">
<ele>247</ele>
</trkpt>
<trkpt lat="39.32059" lon="140.7809161111111">
<ele>246</ele>
</trkpt>
<trkpt lat="39.32069" lon="140.78122888888888">
<ele>243</ele>
</trkpt>
<trkpt lat="39.32073194444445" lon="140.78176611111112">
<ele>237</ele>
</trkpt>
<trkpt lat="39.32073694444444" lon="140.7818188888889">
<ele>237</ele>
</trkpt>
<trkpt lat="39.32073694444444" lon="140.7818188888889">
<ele>237</ele>
</trkpt>
<trkpt lat="39.32080694444444" lon="140.78247888888887">
<ele>239</ele>
</trkpt>
<trkpt lat="39.32083194444444" lon="140.7829538888889">
<ele>246</ele>
</trkpt>
<trkpt lat="39.31948194444445" lon="140.78359111111112">
<ele>255</ele>
</trkpt>
<trkpt lat="39.31923194444445" lon="140.7837411111111">
<ele>254</ele>
</trkpt>
<trkpt lat="39.31890694444444" lon="140.78394111111112">
<ele>259</ele>
</trkpt>
<trkpt lat="39.318598888888886" lon="140.78427888888888">
<ele>262</ele>
</trkpt>
<trkpt lat="39.318356944444446" lon="140.7846538888889">
<ele>264</ele>
</trkpt>
<trkpt lat="39.31789888888889" lon="140.78537888888889">
<ele>267</ele>
</trkpt>
<trkpt lat="39.31769888888889" lon="140.78572888888888">
<ele>266</ele>
</trkpt>
<trkpt lat="39.31753194444445" lon="140.78607888888888">
<ele>270</ele>
</trkpt>
<trkpt lat="39.317456944444444" lon="140.7863288888889">
<ele>275</ele>
</trkpt>
<trkpt lat="39.31713194444445" lon="140.7875788888889">
<ele>273</ele>
</trkpt>
<trkpt lat="39.31701611111111" lon="140.7880661111111">
<ele>265</ele>
</trkpt>
<trkpt lat="39.31695694444444" lon="140.7883161111111">
<ele>263</ele>
</trkpt>
<trkpt lat="39.316766111111114" lon="140.78907805555556">
<ele>262</ele>
</trkpt>
<trkpt lat="39.31669111111111" lon="140.78977805555556">
<ele>263</ele>
</trkpt>
<trkpt lat="39.31673305555555" lon="140.79227805555556">
<ele>256</ele>
</trkpt>
<trkpt lat="39.31624111111111" lon="140.79602805555555">
<ele>248</ele>
</trkpt>
<trkpt lat="39.316048888888886" lon="140.79854">
<ele>249</ele>
</trkpt>
<trkpt lat="39.31594111111111" lon="140.79920305555555">
<ele>244</ele>
</trkpt>
<trkpt lat="39.31571611111111" lon="140.79967805555555">
<ele>238</ele>
</trkpt>
<trkpt lat="39.31541611111111" lon="140.800215">
<ele>237</ele>
</trkpt>
<trkpt lat="39.31515805555556" lon="140.80057694444446">
<ele>242</ele>
</trkpt>
<trkpt lat="39.31464111111111" lon="140.80095194444445">
<ele>246</ele>
</trkpt>
<trkpt lat="39.31434111111111" lon="140.80117694444445">
<ele>247</ele>
</trkpt>
<trkpt lat="39.31404111111111" lon="140.80144">
<ele>246</ele>
</trkpt>
<trkpt lat="39.31366611111111" lon="140.80187694444444">
<ele>246</ele>
</trkpt>
<trkpt lat="39.313425" lon="140.80222694444444">
<ele>247</ele>
</trkpt>
<trkpt lat="39.31305" lon="140.80297694444445">
<ele>247</ele>
</trkpt>
<trkpt lat="39.312825" lon="140.8037138888889">
<ele>246</ele>
</trkpt>
<trkpt lat="39.31261611111111" lon="140.8041888888889">
<ele>247</ele>
</trkpt>
<trkpt lat="39.31111694444444" lon="140.80636388888888">
<ele>254</ele>
</trkpt>
<trkpt lat="39.31095" lon="140.80685194444445">
<ele>253</ele>
</trkpt>
<trkpt lat="39.310825" lon="140.80750194444445">
<ele>254</ele>
</trkpt>
<trkpt lat="39.310725" lon="140.8080388888889">
<ele>257</ele>
</trkpt>
<trkpt lat="39.310625" lon="140.8083388888889">
<ele>256</ele>
</trkpt>
<trkpt lat="39.31048305555556" lon="140.80861388888889">
<ele>253</ele>
</trkpt>
<trkpt lat="39.310408055555556" lon="140.80873888888888">
<ele>252</ele>
</trkpt>
<trkpt lat="39.310325" lon="140.80885194444446">
<ele>252</ele>
</trkpt>
<trkpt lat="39.310158888888886" lon="140.80907694444446">
<ele>254</ele>
</trkpt>
<trkpt lat="39.309958888888886" lon="140.80930111111113">
<ele>254</ele>
</trkpt>
<trkpt lat="39.30985888888889" lon="140.8094011111111">
<ele>253</ele>
</trkpt>
<trkpt lat="39.30975" lon="140.8095011111111">
<ele>253</ele>
</trkpt>
<trkpt lat="39.30951694444445" lon="140.80963888888888">
<ele>253</ele>
</trkpt>
<trkpt lat="39.309275" lon="140.80976388888888">
<ele>253</ele>
</trkpt>
<trkpt lat="39.30914194444444" lon="140.8098138888889">
<ele>255</ele>
</trkpt>
<trkpt lat="39.309016944444444" lon="140.80986388888888">
<ele>254</ele>
</trkpt>
<trkpt lat="39.30890888888889" lon="140.80990111111112">
<ele>255</ele>
</trkpt>
<trkpt lat="39.30875" lon="140.8099511111111">
<ele>253</ele>
</trkpt>
<trkpt lat="39.308625" lon="140.81000111111112">
<ele>255</ele>
</trkpt>
<trkpt lat="39.30835888888889" lon="140.8100761111111">
<ele>254</ele>
</trkpt>
<trkpt lat="39.308233888888886" lon="140.81008888888888">
<ele>254</ele>
</trkpt>
<trkpt lat="39.30798388888889" lon="140.81008888888888">
<ele>254</ele>
</trkpt>
<trkpt lat="39.30783388888889" lon="140.8100761111111">
<ele>254</ele>
</trkpt>
<trkpt lat="39.30769194444444" lon="140.8100638888889">
<ele>254</ele>
</trkpt>
<trkpt lat="39.30755888888889" lon="140.8100388888889">
<ele>255</ele>
</trkpt>
<trkpt lat="39.307425" lon="140.81001388888888">
<ele>255</ele>
</trkpt>
<trkpt lat="39.307291944444444" lon="140.81000194444445">
<ele>255</ele>
</trkpt>
<trkpt lat="39.30704194444444" lon="140.81000194444445">
<ele>256</ele>
</trkpt>
<trkpt lat="39.307008055555556" lon="140.8100088888889">
<ele>255</ele>
</trkpt>
<trkpt lat="39.307008055555556" lon="140.8100088888889">
<ele>255</ele>
</trkpt>
<trkpt lat="39.306925" lon="140.81002694444445">
<ele>255</ele>
</trkpt>
<trkpt lat="39.30670111111111" lon="140.8101388888889">
<ele>255</ele>
</trkpt>
<trkpt lat="39.30650111111111" lon="140.8102888888889">
<ele>255</ele>
</trkpt>
<trkpt lat="39.30628388888889" lon="140.81047611111111">
<ele>255</ele>
</trkpt>
<trkpt lat="39.30607611111111" lon="140.81066388888888">
<ele>253</ele>
</trkpt>
<trkpt lat="39.30596694444444" lon="140.81076388888889">
<ele>254</ele>
</trkpt>
<trkpt lat="39.305751111111114" lon="140.8109638888889">
<ele>254</ele>
</trkpt>
<trkpt lat="39.305658888888885" lon="140.8110511111111">
<ele>254</ele>
</trkpt>
<trkpt lat="39.30554194444444" lon="140.8111638888889">
<ele>253</ele>
</trkpt>
<trkpt lat="39.30545111111111" lon="140.8112888888889">
<ele>255</ele>
</trkpt>
<trkpt lat="39.30528388888889" lon="140.81156388888888">
<ele>255</ele>
</trkpt>
<trkpt lat="39.30505111111111" lon="140.8119888888889">
<ele>254</ele>
</trkpt>
<trkpt lat="39.30495888888889" lon="140.8121261111111">
<ele>254</ele>
</trkpt>
<trkpt lat="39.30487611111111" lon="140.81223888888888">
<ele>253</ele>
</trkpt>
<trkpt lat="39.304766944444445" lon="140.8123511111111">
<ele>251</ele>
</trkpt>
<trkpt lat="39.30453388888889" lon="140.8125638888889">
<ele>243</ele>
</trkpt>
<trkpt lat="39.30441694444445" lon="140.8126761111111">
<ele>243</ele>
</trkpt>
<trkpt lat="39.30424194444444" lon="140.8129638888889">
<ele>244</ele>
</trkpt>
<trkpt lat="39.304116944444445" lon="140.81330111111112">
<ele>245</ele>
</trkpt>
<trkpt lat="39.30407611111111" lon="140.8134638888889">
<ele>238</ele>
</trkpt>
<trkpt lat="39.30401694444444" lon="140.8138261111111">
<ele>236</ele>
</trkpt>
<trkpt lat="39.30400111111111" lon="140.8140138888889">
<ele>238</ele>
</trkpt>
<trkpt lat="39.30398388888889" lon="140.8142138888889">
<ele>239</ele>
</trkpt>
<trkpt lat="39.30397611111111" lon="140.81440111111112">
<ele>239</ele>
</trkpt>
<trkpt lat="39.30396694444445" lon="140.8145761111111">
<ele>239</ele>
</trkpt>
<trkpt lat="39.30396694444445" lon="140.81476388888888">
<ele>239</ele>
</trkpt>
<trkpt lat="39.30395111111111" lon="140.8151388888889">
<ele>235</ele>
</trkpt>
<trkpt lat="39.30393388888889" lon="140.8155261111111">
<ele>238</ele>
</trkpt>
<trkpt lat="39.30393388888889" lon="140.81578888888887">
<ele>240</ele>
</trkpt>
<trkpt lat="39.30393388888889" lon="140.81586388888888">
<ele>240</ele>
</trkpt>
<trkpt lat="39.303941944444446" lon="140.81626305555557">
<ele>240</ele>
</trkpt>
<trkpt lat="39.30395111111111" lon="140.81643805555555">
<ele>240</ele>
</trkpt>
<trkpt lat="39.30396694444445" lon="140.81661305555556">
<ele>240</ele>
</trkpt>
<trkpt lat="39.30398388888889" lon="140.81680111111112">
<ele>240</ele>
</trkpt>
<trkpt lat="39.30400888888889" lon="140.8169761111111">
<ele>241</ele>
</trkpt>
<trkpt lat="39.304051111111114" lon="140.8173261111111">
<ele>242</ele>
</trkpt>
<trkpt lat="39.30415111111111" lon="140.81801305555555">
<ele>245</ele>
</trkpt>
<trkpt lat="39.30416805555556" lon="140.81817611111111">
<ele>245</ele>
</trkpt>
<trkpt lat="39.30420888888889" lon="140.81847611111112">
<ele>242</ele>
</trkpt>
<trkpt lat="39.304251111111114" lon="140.8187761111111">
<ele>245</ele>
</trkpt>
<trkpt lat="39.304293055555554" lon="140.81906305555555">
<ele>243</ele>
</trkpt>
<trkpt lat="39.304341944444445" lon="140.81936305555556">
<ele>245</ele>
</trkpt>
<trkpt lat="39.30439194444445" lon="140.8196761111111">
<ele>243</ele>
</trkpt>
<trkpt lat="39.30440888888889" lon="140.81986305555554">
<ele>243</ele>
</trkpt>
<trkpt lat="39.30442611111111" lon="140.8200511111111">
<ele>244</ele>
</trkpt>
<trkpt lat="39.30444305555555" lon="140.8204511111111">
<ele>245</ele>
</trkpt>
<trkpt lat="39.304476111111114" lon="140.8213">
<ele>247</ele>
</trkpt>
<trkpt lat="39.30448388888889" lon="140.82156305555554">
<ele>246</ele>
</trkpt>
<trkpt lat="39.304493055555554" lon="140.821825">
<ele>246</ele>
</trkpt>
<trkpt lat="39.30448388888889" lon="140.82191305555557">
<ele>246</ele>
</trkpt>
<trkpt lat="39.304476111111114" lon="140.82208805555555">
<ele>246</ele>
</trkpt>
<trkpt lat="39.30446805555555" lon="140.822175">
<ele>247</ele>
</trkpt>
<trkpt lat="39.30444305555555" lon="140.82243805555555">
<ele>246</ele>
</trkpt>
<trkpt lat="39.30441805555556" lon="140.8226">
<ele>247</ele>
</trkpt>
<trkpt lat="39.304366944444446" lon="140.822825">
<ele>246</ele>
</trkpt>
<trkpt lat="39.30420888888889" lon="140.823575">
<ele>237</ele>
</trkpt>
<trkpt lat="39.30395111111111" lon="140.824725">
<ele>240</ele>
</trkpt>
<trkpt lat="39.30392611111111" lon="140.82483805555555">
<ele>241</ele>
</trkpt>
<trkpt lat="39.303868055555554" lon="140.82505">
<ele>246</ele>
</trkpt>
<trkpt lat="39.30380888888889" lon="140.825275">
<ele>251</ele>
</trkpt>
<trkpt lat="39.303643055555554" lon="140.8258">
<ele>252</ele>
</trkpt>
<trkpt lat="39.30351805555556" lon="140.82618694444446">
<ele>250</ele>
</trkpt>
<trkpt lat="39.303491944444445" lon="140.826275">
<ele>251</ele>
</trkpt>
<trkpt lat="39.303418055555554" lon="140.82651194444443">
<ele>249</ele>
</trkpt>
<trkpt lat="39.30335888888889" lon="140.826775">
<ele>248</ele>
</trkpt>
<trkpt lat="39.30329305555556" lon="140.82708694444443">
<ele>247</ele>
</trkpt>
<trkpt lat="39.30325888888889" lon="140.8272488888889">
<ele>248</ele>
</trkpt>
<trkpt lat="39.303201111111115" lon="140.82754888888888">
<ele>246</ele>
</trkpt>
<trkpt lat="39.30313388888889" lon="140.82798694444443">
<ele>248</ele>
</trkpt>
<trkpt lat="39.30314305555556" lon="140.82812388888888">
<ele>251</ele>
</trkpt>
<trkpt lat="39.30325111111111" lon="140.8286738888889">
<ele>256</ele>
</trkpt>
<trkpt lat="39.30331805555556" lon="140.82906194444445">
<ele>254</ele>
</trkpt>
<trkpt lat="39.30336805555555" lon="140.82949888888888">
<ele>256</ele>
</trkpt>
<trkpt lat="39.30350111111111" lon="140.8313738888889">
<ele>255</ele>
</trkpt>
<trkpt lat="39.303493055555556" lon="140.8318111111111">
<ele>254</ele>
</trkpt>
<trkpt lat="39.30345888888889" lon="140.83208611111112">
<ele>255</ele>
</trkpt>
<trkpt lat="39.303443055555555" lon="140.83221111111112">
<ele>252</ele>
</trkpt>
<trkpt lat="39.30343388888889" lon="140.8323488888889">
<ele>252</ele>
</trkpt>
<trkpt lat="39.303443055555555" lon="140.8324861111111">
<ele>252</ele>
</trkpt>
<trkpt lat="39.30352611111111" lon="140.8327238888889">
<ele>254</ele>
</trkpt>
<trkpt lat="39.30357611111111" lon="140.8328361111111">
<ele>257</ele>
</trkpt>
<trkpt lat="39.30365888888889" lon="140.83309888888888">
<ele>254</ele>
</trkpt>
<trkpt lat="39.303668055555555" lon="140.83323611111112">
<ele>258</ele>
</trkpt>
<trkpt lat="39.303668055555555" lon="140.8334361111111">
<ele>258</ele>
</trkpt>
<trkpt lat="39.30365111111111" lon="140.8338611111111">
<ele>257</ele>
</trkpt>
<trkpt lat="39.303693055555556" lon="140.83403611111112">
<ele>262</ele>
</trkpt>
<trkpt lat="39.303733888888885" lon="140.8341111111111">
<ele>262</ele>
</trkpt>
<trkpt lat="39.303826111111114" lon="140.8341861111111">
<ele>291</ele>
</trkpt>
<trkpt lat="39.30403388888889" lon="140.8343988888889">
<ele>293</ele>
</trkpt>
<trkpt lat="39.304143055555556" lon="140.8345488888889">
<ele>304</ele>
</trkpt>
<trkpt lat="39.30417611111111" lon="140.83468611111113">
<ele>259</ele>
</trkpt>
<trkpt lat="39.30428388888889" lon="140.83538611111112">
<ele>277</ele>
</trkpt>
<trkpt lat="39.30440111111111" lon="140.83564805555557">
<ele>273</ele>
</trkpt>
<trkpt lat="39.30488388888889" lon="140.8362111111111">
<ele>258</ele>
</trkpt>
<trkpt lat="39.30717611111111" lon="140.83776111111112">
<ele>259</ele>
</trkpt>
<trkpt lat="39.30757611111111" lon="140.83802305555557">
<ele>257</ele>
</trkpt>
<trkpt lat="39.308418055555556" lon="140.83841">
<ele>258</ele>
</trkpt>
<trkpt lat="39.308816944444445" lon="140.838735">
<ele>258</ele>
</trkpt>
<trkpt lat="39.30923388888889" lon="140.83931">
<ele>259</ele>
</trkpt>
<trkpt lat="39.30950888888889" lon="140.840135">
<ele>257</ele>
</trkpt>
<trkpt lat="39.30956694444444" lon="140.84069805555555">
<ele>258</ele>
</trkpt>
<trkpt lat="39.309668055555555" lon="140.84132194444445">
<ele>261</ele>
</trkpt>
<trkpt lat="39.30965111111111" lon="140.84161">
<ele>256</ele>
</trkpt>
<trkpt lat="39.30920888888889" lon="140.84342194444446">
<ele>254</ele>
</trkpt>
<trkpt lat="39.308993055555554" lon="140.8438588888889">
<ele>252</ele>
</trkpt>
<trkpt lat="39.30890888888889" lon="140.84410888888888">
<ele>254</ele>
</trkpt>
<trkpt lat="39.30895888888889" lon="140.84458388888888">
<ele>255</ele>
</trkpt>
<trkpt lat="39.30918388888889" lon="140.84523388888888">
<ele>258</ele>
</trkpt>
<trkpt lat="39.30920111111111" lon="140.8457588888889">
<ele>258</ele>
</trkpt>
<trkpt lat="39.30914305555556" lon="140.8461838888889">
<ele>267</ele>
</trkpt>
<trkpt lat="39.30889194444445" lon="140.8467838888889">
<ele>259</ele>
</trkpt>
<trkpt lat="39.30865111111111" lon="140.84753388888888">
<ele>252</ele>
</trkpt>
<trkpt lat="39.30849305555556" lon="140.8482338888889">
<ele>254</ele>
</trkpt>
<trkpt lat="39.30822611111111" lon="140.84953388888889">
<ele>258</ele>
</trkpt>
<trkpt lat="39.307943055555555" lon="140.8498711111111">
<ele>252</ele>
</trkpt>
<trkpt lat="39.30779305555556" lon="140.85010888888888">
<ele>254</ele>
</trkpt>
<trkpt lat="39.30768388888889" lon="140.8504088888889">
<ele>257</ele>
</trkpt>
<trkpt lat="39.30727611111111" lon="140.85204611111112">
<ele>258</ele>
</trkpt>
<trkpt lat="39.30665111111111" lon="140.85374611111112">
<ele>257</ele>
</trkpt>
<trkpt lat="39.306268055555556" lon="140.85489611111112">
<ele>257</ele>
</trkpt>
<trkpt lat="39.30587694444444" lon="140.85590805555555">
<ele>254</ele>
</trkpt>
<trkpt lat="39.30571" lon="140.856495">
<ele>255</ele>
</trkpt>
<trkpt lat="39.30565194444444" lon="140.85695805555557">
<ele>254</ele>
</trkpt>
<trkpt lat="39.305535" lon="140.85832">
<ele>255</ele>
</trkpt>
<trkpt lat="39.305368055555554" lon="140.85902">
<ele>255</ele>
</trkpt>
<trkpt lat="39.30501805555556" lon="140.860295">
<ele>258</ele>
</trkpt>
<trkpt lat="39.30497694444445" lon="140.860595">
<ele>256</ele>
</trkpt>
<trkpt lat="39.304943055555555" lon="140.86117">
<ele>255</ele>
</trkpt>
<trkpt lat="39.304901944444445" lon="140.86153194444444">
<ele>256</ele>
</trkpt>
<trkpt lat="39.30481888888889" lon="140.86188194444443">
<ele>255</ele>
</trkpt>
<trkpt lat="39.304676944444445" lon="140.86225694444445">
<ele>257</ele>
</trkpt>
<trkpt lat="39.304476944444446" lon="140.86265694444444">
<ele>255</ele>
</trkpt>
<trkpt lat="39.30421" lon="140.86312">
<ele>251</ele>
</trkpt>
<trkpt lat="39.304085" lon="140.86338194444446">
<ele>248</ele>
</trkpt>
<trkpt lat="39.30312694444444" lon="140.8653688888889">
<ele>245</ele>
</trkpt>
<trkpt lat="39.30304388888889" lon="140.86583194444444">
<ele>243</ele>
</trkpt>
<trkpt lat="39.30294388888889" lon="140.8662938888889">
<ele>241</ele>
</trkpt>
<trkpt lat="39.30291111111111" lon="140.86653194444443">
<ele>247</ele>
</trkpt>
<trkpt lat="39.30263611111111" lon="140.8685688888889">
<ele>257</ele>
</trkpt>
<trkpt lat="39.302551944444446" lon="140.8696811111111">
<ele>263</ele>
</trkpt>
<trkpt lat="39.30220194444444" lon="140.8706811111111">
<ele>269</ele>
</trkpt>
<trkpt lat="39.30179388888889" lon="140.8715188888889">
<ele>274</ele>
</trkpt>
<trkpt lat="39.30136888888889" lon="140.8723811111111">
<ele>279</ele>
</trkpt>
<trkpt lat="39.30056888888889" lon="140.87403111111112">
<ele>287</ele>
</trkpt>
<trkpt lat="39.30026111111111" lon="140.87514388888889">
<ele>285</ele>
</trkpt>
<trkpt lat="39.30023611111111" lon="140.8752438888889">
<ele>284</ele>
</trkpt>
<trkpt lat="39.30003611111111" lon="140.87606805555555">
<ele>277</ele>
</trkpt>
<trkpt lat="39.30003611111111" lon="140.87613611111112">
<ele>276</ele>
</trkpt>
    </trkseg>
  </trk>
</gpx>