<?xml version="1.0" encoding="UTF-8"?>
<gpx version="1.1"
     creator="KMLtoGPX"
     xmlns="http://www.topografix.com/GPX/1/1">
  <metadata>
    <name>Nakanoshima (Ama Town) Course</name>
    <desc>中ノ島(海士町)コース</desc>
    <bounds minlat="36.09485" minlon="133.0761061111111" maxlat="36.11087166666667" maxlon="133.12918194444444"/>
  </metadata>
  <trk>
    <name>Nakanoshima (Ama Town) Course</name>
    <trkseg>
<trkpt lat="36.104638055555554" lon="133.0772388888889">
<ele>1</ele>
</trkpt>
<trkpt lat="36.10454388888889" lon="133.07666805555556">
<ele>1</ele>
</trkpt>
<trkpt lat="36.10457805555556" lon="133.0761061111111">
<ele>5</ele>
</trkpt>
<trkpt lat="36.104393888888886" lon="133.07615611111112">
<ele>2</ele>
</trkpt>
<trkpt lat="36.10373611111111" lon="133.0764561111111">
<ele>0</ele>
</trkpt>
<trkpt lat="36.10355305555556" lon="133.07651805555557">
<ele>1</ele>
</trkpt>
<trkpt lat="36.10316111111111" lon="133.07660611111112">
<ele>0</ele>
</trkpt>
<trkpt lat="36.10274388888889" lon="133.07664305555556">
<ele>1</ele>
</trkpt>
<trkpt lat="36.10263611111111" lon="133.07666805555556">
<ele>0</ele>
</trkpt>
<trkpt lat="36.10255305555555" lon="133.07674305555557">
<ele>1</ele>
</trkpt>
<trkpt lat="36.10243611111111" lon="133.07696805555557">
<ele>0</ele>
</trkpt>
<trkpt lat="36.10177" lon="133.0782561111111">
<ele>1</ele>
</trkpt>
<trkpt lat="36.10173611111111" lon="133.0783811111111">
<ele>1</ele>
</trkpt>
<trkpt lat="36.10173611111111" lon="133.07853111111112">
<ele>1</ele>
</trkpt>
<trkpt lat="36.10180305555556" lon="133.0790311111111">
<ele>2</ele>
</trkpt>
<trkpt lat="36.101845" lon="133.0791811111111">
<ele>2</ele>
</trkpt>
<trkpt lat="36.101953055555555" lon="133.07936805555556">
<ele>3</ele>
</trkpt>
<trkpt lat="36.10236111111111" lon="133.079905">
<ele>2</ele>
</trkpt>
<trkpt lat="36.10246111111111" lon="133.08003">
<ele>2</ele>
</trkpt>
<trkpt lat="36.10250305555556" lon="133.08011805555554">
<ele>3</ele>
</trkpt>
<trkpt lat="36.10252805555555" lon="133.08024305555554">
<ele>4</ele>
</trkpt>
<trkpt lat="36.10252805555555" lon="133.08039305555556">
<ele>3</ele>
</trkpt>
<trkpt lat="36.10250305555556" lon="133.08056805555555">
<ele>2</ele>
</trkpt>
<trkpt lat="36.10232805555555" lon="133.081205">
<ele>3</ele>
</trkpt>
<trkpt lat="36.10223611111111" lon="133.08161805555557">
<ele>2</ele>
</trkpt>
<trkpt lat="36.10218611111111" lon="133.08171805555557">
<ele>2</ele>
</trkpt>
<trkpt lat="36.10207" lon="133.08183">
<ele>3</ele>
</trkpt>
<trkpt lat="36.10193611111111" lon="133.08201805555555">
<ele>5</ele>
</trkpt>
<trkpt lat="36.101911111111114" lon="133.08214305555555">
<ele>6</ele>
</trkpt>
<trkpt lat="36.10197" lon="133.08301694444444">
<ele>9</ele>
</trkpt>
<trkpt lat="36.101978055555556" lon="133.08364194444445">
<ele>17</ele>
</trkpt>
<trkpt lat="36.101845" lon="133.08409194444445">
<ele>18</ele>
</trkpt>
<trkpt lat="36.101545" lon="133.08489194444445">
<ele>18</ele>
</trkpt>
<trkpt lat="36.101503055555554" lon="133.08500694444444">
<ele>17</ele>
</trkpt>
<trkpt lat="36.101503055555554" lon="133.08500694444444">
<ele>17</ele>
</trkpt>
<trkpt lat="36.10105305555555" lon="133.08623">
<ele>0</ele>
</trkpt>
<trkpt lat="36.10062" lon="133.087455">
<ele>3</ele>
</trkpt>
<trkpt lat="36.10037" lon="133.08776694444444">
<ele>5</ele>
</trkpt>
<trkpt lat="36.100145" lon="133.08783">
<ele>6</ele>
</trkpt>
<trkpt lat="36.09983694444445" lon="133.08783">
<ele>5</ele>
</trkpt>
<trkpt lat="36.099511944444444" lon="133.08771694444445">
<ele>3</ele>
</trkpt>
<trkpt lat="36.09892" lon="133.08729305555556">
<ele>5</ele>
</trkpt>
<trkpt lat="36.09863694444444" lon="133.08701694444446">
<ele>3</ele>
</trkpt>
<trkpt lat="36.09832888888889" lon="133.08628">
<ele>8</ele>
</trkpt>
<trkpt lat="36.098286944444446" lon="133.08623">
<ele>8</ele>
</trkpt>
<trkpt lat="36.098145" lon="133.08604305555556">
<ele>9</ele>
</trkpt>
<trkpt lat="36.097836944444445" lon="133.08598">
<ele>7</ele>
</trkpt>
<trkpt lat="36.09742111111111" lon="133.08609305555555">
<ele>3</ele>
</trkpt>
<trkpt lat="36.09692888888889" lon="133.086505">
<ele>1</ele>
</trkpt>
<trkpt lat="36.09652111111111" lon="133.08708">
<ele>1</ele>
</trkpt>
<trkpt lat="36.09605388888889" lon="133.08783">
<ele>0</ele>
</trkpt>
<trkpt lat="36.09597111111111" lon="133.088005">
<ele>1</ele>
</trkpt>
<trkpt lat="36.09592111111111" lon="133.08814194444443">
<ele>1</ele>
</trkpt>
<trkpt lat="36.09589611111111" lon="133.08828">
<ele>0</ele>
</trkpt>
<trkpt lat="36.09587888888889" lon="133.08839194444445">
<ele>1</ele>
</trkpt>
<trkpt lat="36.09587111111111" lon="133.08853">
<ele>1</ele>
</trkpt>
<trkpt lat="36.09587888888889" lon="133.08869194444443">
<ele>2</ele>
</trkpt>
<trkpt lat="36.09596194444445" lon="133.08948">
<ele>0</ele>
</trkpt>
<trkpt lat="36.09600388888889" lon="133.09016694444443">
<ele>0</ele>
</trkpt>
<trkpt lat="36.09597888888889" lon="133.09053">
<ele>3</ele>
</trkpt>
<trkpt lat="36.095936944444446" lon="133.090705">
<ele>4</ele>
</trkpt>
<trkpt lat="36.09592888888889" lon="133.090755">
<ele>4</ele>
</trkpt>
<trkpt lat="36.09572111111111" lon="133.0919788888889">
<ele>4</ele>
</trkpt>
<trkpt lat="36.095596111111114" lon="133.09264194444444">
<ele>6</ele>
</trkpt>
<trkpt lat="36.09557111111111" lon="133.09284194444444">
<ele>6</ele>
</trkpt>
<trkpt lat="36.09556305555556" lon="133.09380388888889">
<ele>6</ele>
</trkpt>
<trkpt lat="36.09554611111111" lon="133.09392888888888">
<ele>6</ele>
</trkpt>
<trkpt lat="36.095528888888886" lon="133.0940288888889">
<ele>6</ele>
</trkpt>
<trkpt lat="36.095488055555556" lon="133.09414194444443">
<ele>6</ele>
</trkpt>
<trkpt lat="36.095413055555554" lon="133.09429194444445">
<ele>5</ele>
</trkpt>
<trkpt lat="36.095303888888886" lon="133.0944538888889">
<ele>5</ele>
</trkpt>
<trkpt lat="36.09492888888889" lon="133.0949038888889">
<ele>4</ele>
</trkpt>
<trkpt lat="36.09485" lon="133.0950188888889">
<ele>4</ele>
</trkpt>
<trkpt lat="36.09485" lon="133.0950188888889">
<ele>4</ele>
</trkpt>
<trkpt lat="36.09492888888889" lon="133.0949038888889">
<ele>4</ele>
</trkpt>
<trkpt lat="36.095438055555555" lon="133.0958038888889">
<ele>9</ele>
</trkpt>
<trkpt lat="36.09557111111111" lon="133.09609194444445">
<ele>8</ele>
</trkpt>
<trkpt lat="36.09570388888889" lon="133.09646694444444">
<ele>6</ele>
</trkpt>
<trkpt lat="36.09596305555556" lon="133.0969538888889">
<ele>4</ele>
</trkpt>
<trkpt lat="36.096288055555554" lon="133.09731694444446">
<ele>4</ele>
</trkpt>
<trkpt lat="36.09641305555556" lon="133.0975288888889">
<ele>6</ele>
</trkpt>
<trkpt lat="36.09650388888889" lon="133.09774194444444">
<ele>7</ele>
</trkpt>
<trkpt lat="36.09657888888889" lon="133.09791694444445">
<ele>8</ele>
</trkpt>
<trkpt lat="36.097121111111115" lon="133.09912888888888">
<ele>5</ele>
</trkpt>
<trkpt lat="36.09731305555555" lon="133.0995661111111">
<ele>5</ele>
</trkpt>
<trkpt lat="36.09739611111111" lon="133.09971611111112">
<ele>6</ele>
</trkpt>
<trkpt lat="36.09767111111111" lon="133.0999788888889">
<ele>7</ele>
</trkpt>
<trkpt lat="36.09773805555555" lon="133.1000911111111">
<ele>7</ele>
</trkpt>
<trkpt lat="36.09797888888889" lon="133.1005788888889">
<ele>8</ele>
</trkpt>
<trkpt lat="36.09802111111111" lon="133.10061611111112">
<ele>8</ele>
</trkpt>
<trkpt lat="36.098261944444445" lon="133.1006538888889">
<ele>6</ele>
</trkpt>
<trkpt lat="36.098661944444444" lon="133.10072888888888">
<ele>6</ele>
</trkpt>
<trkpt lat="36.09907111111111" lon="133.10086611111112">
<ele>5</ele>
</trkpt>
<trkpt lat="36.09920388888889" lon="133.1009288888889">
<ele>5</ele>
</trkpt>
<trkpt lat="36.09939611111111" lon="133.10105388888888">
<ele>5</ele>
</trkpt>
<trkpt lat="36.09952888888889" lon="133.1011538888889">
<ele>5</ele>
</trkpt>
<trkpt lat="36.09961305555556" lon="133.1012538888889">
<ele>5</ele>
</trkpt>
<trkpt lat="36.09966305555555" lon="133.1013911111111">
<ele>5</ele>
</trkpt>
<trkpt lat="36.099738055555555" lon="133.1019288888889">
<ele>6</ele>
</trkpt>
<trkpt lat="36.09990388888889" lon="133.1025161111111">
<ele>7</ele>
</trkpt>
<trkpt lat="36.09992888888889" lon="133.1026411111111">
<ele>7</ele>
</trkpt>
<trkpt lat="36.099938055555555" lon="133.1027411111111">
<ele>8</ele>
</trkpt>
<trkpt lat="36.09995388888889" lon="133.10297888888888">
<ele>8</ele>
</trkpt>
<trkpt lat="36.09995388888889" lon="133.10345305555555">
<ele>9</ele>
</trkpt>
<trkpt lat="36.09995388888889" lon="133.1040911111111">
<ele>13</ele>
</trkpt>
<trkpt lat="36.099963055555556" lon="133.10437805555554">
<ele>15</ele>
</trkpt>
<trkpt lat="36.10019611111111" lon="133.10481611111112">
<ele>16</ele>
</trkpt>
<trkpt lat="36.100363055555555" lon="133.10527805555554">
<ele>14</ele>
</trkpt>
<trkpt lat="36.10050388888889" lon="133.1056411111111">
<ele>11</ele>
</trkpt>
<trkpt lat="36.10080388888889" lon="133.10619111111112">
<ele>11</ele>
</trkpt>
<trkpt lat="36.10125388888889" lon="133.10686611111112">
<ele>10</ele>
</trkpt>
<trkpt lat="36.10153694444445" lon="133.10719111111112">
<ele>11</ele>
</trkpt>
<trkpt lat="36.10178805555555" lon="133.1072661111111">
<ele>13</ele>
</trkpt>
<trkpt lat="36.10220388888889" lon="133.10729111111112">
<ele>10</ele>
</trkpt>
<trkpt lat="36.10279611111111" lon="133.1073411111111">
<ele>13</ele>
</trkpt>
<trkpt lat="36.10302111111111" lon="133.10745305555557">
<ele>13</ele>
</trkpt>
<trkpt lat="36.10396194444444" lon="133.108065">
<ele>11</ele>
</trkpt>
<trkpt lat="36.10418694444444" lon="133.10809">
<ele>10</ele>
</trkpt>
<trkpt lat="36.104686944444445" lon="133.10790305555557">
<ele>9</ele>
</trkpt>
<trkpt lat="36.10525388888889" lon="133.10764">
<ele>9</ele>
</trkpt>
<trkpt lat="36.105711944444444" lon="133.107565">
<ele>10</ele>
</trkpt>
<trkpt lat="36.10586194444444" lon="133.107665">
<ele>12</ele>
</trkpt>
<trkpt lat="36.10602" lon="133.10780305555556">
<ele>12</ele>
</trkpt>
<trkpt lat="36.106345" lon="133.10820305555555">
<ele>11</ele>
</trkpt>
<trkpt lat="36.106745" lon="133.10872805555556">
<ele>13</ele>
</trkpt>
<trkpt lat="36.10680388888889" lon="133.10880305555557">
<ele>14</ele>
</trkpt>
<trkpt lat="36.10727888888889" lon="133.10975305555556">
<ele>17</ele>
</trkpt>
<trkpt lat="36.108061944444444" lon="133.111215">
<ele>16</ele>
</trkpt>
<trkpt lat="36.10865388888889" lon="133.11237805555555">
<ele>17</ele>
</trkpt>
<trkpt lat="36.108795" lon="133.11280194444444">
<ele>18</ele>
</trkpt>
<trkpt lat="36.10881194444445" lon="133.11297694444445">
<ele>18</ele>
</trkpt>
<trkpt lat="36.10886194444444" lon="133.11384">
<ele>21</ele>
</trkpt>
<trkpt lat="36.10886194444444" lon="133.11417194444445">
<ele>21</ele>
</trkpt>
<trkpt lat="36.10886194444444" lon="133.11417194444445">
<ele>21</ele>
</trkpt>
<trkpt lat="36.10886194444444" lon="133.11462694444444">
<ele>21</ele>
</trkpt>
<trkpt lat="36.108895" lon="133.11497694444444">
<ele>24</ele>
</trkpt>
<trkpt lat="36.108945" lon="133.11520194444444">
<ele>23</ele>
</trkpt>
<trkpt lat="36.10952" lon="133.1164138888889">
<ele>26</ele>
</trkpt>
<trkpt lat="36.109561944444444" lon="133.11667694444444">
<ele>26</ele>
</trkpt>
<trkpt lat="36.10955388888889" lon="133.1171388888889">
<ele>24</ele>
</trkpt>
<trkpt lat="36.109561944444444" lon="133.1173388888889">
<ele>26</ele>
</trkpt>
<trkpt lat="36.10962888888889" lon="133.11761388888888">
<ele>26</ele>
</trkpt>
<trkpt lat="36.109645" lon="133.11815194444443">
<ele>26</ele>
</trkpt>
<trkpt lat="36.109636944444446" lon="133.11835194444444">
<ele>28</ele>
</trkpt>
<trkpt lat="36.109595" lon="133.11850194444443">
<ele>28</ele>
</trkpt>
<trkpt lat="36.10955388888889" lon="133.11866388888888">
<ele>27</ele>
</trkpt>
<trkpt lat="36.10940388888889" lon="133.11897694444446">
<ele>28</ele>
</trkpt>
<trkpt lat="36.10940388888889" lon="133.1191638888889">
<ele>28</ele>
</trkpt>
<trkpt lat="36.10952888888889" lon="133.11992694444444">
<ele>33</ele>
</trkpt>
<trkpt lat="36.10954611111111" lon="133.1202638888889">
<ele>35</ele>
</trkpt>
<trkpt lat="36.10951194444444" lon="133.12043888888888">
<ele>37</ele>
</trkpt>
<trkpt lat="36.10943694444445" lon="133.12057694444445">
<ele>38</ele>
</trkpt>
<trkpt lat="36.10928694444444" lon="133.12077694444446">
<ele>40</ele>
</trkpt>
<trkpt lat="36.10852888888889" lon="133.1215388888889">
<ele>48</ele>
</trkpt>
<trkpt lat="36.10846194444444" lon="133.12167694444443">
<ele>42</ele>
</trkpt>
<trkpt lat="36.10842111111111" lon="133.12181388888888">
<ele>44</ele>
</trkpt>
<trkpt lat="36.10842111111111" lon="133.12190194444443">
<ele>44</ele>
</trkpt>
<trkpt lat="36.10847888888889" lon="133.12213888888888">
<ele>41</ele>
</trkpt>
<trkpt lat="36.108486944444444" lon="133.12236388888888">
<ele>41</ele>
</trkpt>
<trkpt lat="36.10846194444444" lon="133.1225388888889">
<ele>41</ele>
</trkpt>
<trkpt lat="36.10839611111111" lon="133.12271388888888">
<ele>42</ele>
</trkpt>
<trkpt lat="36.10832111111111" lon="133.12282611111112">
<ele>40</ele>
</trkpt>
<trkpt lat="36.10814611111111" lon="133.12296388888888">
<ele>36</ele>
</trkpt>
<trkpt lat="36.107911944444446" lon="133.12303888888889">
<ele>36</ele>
</trkpt>
<trkpt lat="36.10781305555555" lon="133.12303888888889">
<ele>36</ele>
</trkpt>
<trkpt lat="36.107686944444445" lon="133.1230138888889">
<ele>37</ele>
</trkpt>
<trkpt lat="36.10752111111111" lon="133.12293888888888">
<ele>38</ele>
</trkpt>
<trkpt lat="36.107188055555554" lon="133.12271388888888">
<ele>37</ele>
</trkpt>
<trkpt lat="36.107058888888886" lon="133.12283305555556">
<ele>37</ele>
</trkpt>
<trkpt lat="36.107058888888886" lon="133.12283305555556">
<ele>37</ele>
</trkpt>
<trkpt lat="36.10648805555556" lon="133.1233638888889">
<ele>38</ele>
</trkpt>
<trkpt lat="36.106363055555555" lon="133.1235511111111">
<ele>36</ele>
</trkpt>
<trkpt lat="36.10614611111111" lon="133.1240388888889">
<ele>34</ele>
</trkpt>
<trkpt lat="36.10612111111111" lon="133.12428888888888">
<ele>29</ele>
</trkpt>
<trkpt lat="36.106163055555555" lon="133.1244511111111">
<ele>24</ele>
</trkpt>
<trkpt lat="36.10627888888889" lon="133.12488888888888">
<ele>23</ele>
</trkpt>
<trkpt lat="36.10647111111111" lon="133.1255138888889">
<ele>27</ele>
</trkpt>
<trkpt lat="36.10654611111111" lon="133.1258761111111">
<ele>22</ele>
</trkpt>
<trkpt lat="36.10655388888889" lon="133.1260511111111">
<ele>22</ele>
</trkpt>
<trkpt lat="36.106613055555556" lon="133.12645111111112">
<ele>26</ele>
</trkpt>
<trkpt lat="36.10670388888889" lon="133.1266261111111">
<ele>24</ele>
</trkpt>
<trkpt lat="36.10680388888889" lon="133.1267388888889">
<ele>20</ele>
</trkpt>
<trkpt lat="36.10731305555556" lon="133.12727611111112">
<ele>18</ele>
</trkpt>
<trkpt lat="36.107463055555556" lon="133.12746388888888">
<ele>16</ele>
</trkpt>
<trkpt lat="36.10757888888889" lon="133.1276638888889">
<ele>14</ele>
</trkpt>
<trkpt lat="36.107821111111114" lon="133.1280888888889">
<ele>13</ele>
</trkpt>
<trkpt lat="36.10801194444444" lon="133.12837611111112">
<ele>18</ele>
</trkpt>
<trkpt lat="36.10819611111111" lon="133.1285761111111">
<ele>14</ele>
</trkpt>
<trkpt lat="36.10832888888889" lon="133.12873805555554">
<ele>13</ele>
</trkpt>
<trkpt lat="36.10852111111111" lon="133.1289011111111">
<ele>11</ele>
</trkpt>
<trkpt lat="36.109003888888886" lon="133.1288011111111">
<ele>7</ele>
</trkpt>
<trkpt lat="36.109321111111115" lon="133.12862611111112">
<ele>7</ele>
</trkpt>
<trkpt lat="36.10949611111111" lon="133.1285761111111">
<ele>9</ele>
</trkpt>
<trkpt lat="36.109588055555555" lon="133.12858805555555">
<ele>12</ele>
</trkpt>
<trkpt lat="36.10967888888889" lon="133.12862611111112">
<ele>15</ele>
</trkpt>
<trkpt lat="36.10979611111111" lon="133.12873805555554">
<ele>15</ele>
</trkpt>
<trkpt lat="36.10997888888889" lon="133.1290011111111">
<ele>11</ele>
</trkpt>
<trkpt lat="36.110036944444445" lon="133.12903805555555">
<ele>13</ele>
</trkpt>
<trkpt lat="36.11012888888889" lon="133.12903805555555">
<ele>13</ele>
</trkpt>
<trkpt lat="36.110165" lon="133.12901694444443">
<ele>14</ele>
</trkpt>
<trkpt lat="36.110165" lon="133.12901694444443">
<ele>13</ele>
</trkpt>
<trkpt lat="36.11087166666667" lon="133.12918194444444">
<ele>2</ele>
</trkpt>
<trkpt lat="36.11036305555555" lon="133.12905111111112">
<ele>10</ele>
</trkpt>
<trkpt lat="36.11034611111111" lon="133.1290011111111">
<ele>10</ele>
</trkpt>
<trkpt lat="36.11034611111111" lon="133.12883805555555">
<ele>11</ele>
</trkpt>
<trkpt lat="36.11032888888889" lon="133.12882611111112">
<ele>14</ele>
</trkpt>
<trkpt lat="36.11028694444445" lon="133.12885111111112">
<ele>14</ele>
</trkpt>
<trkpt lat="36.110213055555555" lon="133.12898805555557">
<ele>14</ele>
</trkpt>
<trkpt lat="36.11012888888889" lon="133.12903805555555">
<ele>13</ele>
</trkpt>
<trkpt lat="36.110036944444445" lon="133.12903805555555">
<ele>13</ele>
</trkpt>
<trkpt lat="36.10997888888889" lon="133.1290011111111">
<ele>11</ele>
</trkpt>
<trkpt lat="36.10979611111111" lon="133.12873805555554">
<ele>15</ele>
</trkpt>
<trkpt lat="36.10967888888889" lon="133.12862611111112">
<ele>15</ele>
</trkpt>
<trkpt lat="36.109588055555555" lon="133.12858805555555">
<ele>12</ele>
</trkpt>
<trkpt lat="36.10949611111111" lon="133.1285761111111">
<ele>9</ele>
</trkpt>
<trkpt lat="36.109321111111115" lon="133.12862611111112">
<ele>7</ele>
</trkpt>
<trkpt lat="36.109003888888886" lon="133.1288011111111">
<ele>7</ele>
</trkpt>
<trkpt lat="36.10852111111111" lon="133.1289011111111">
<ele>11</ele>
</trkpt>
<trkpt lat="36.10832888888889" lon="133.12873805555554">
<ele>13</ele>
</trkpt>
<trkpt lat="36.10819611111111" lon="133.1285761111111">
<ele>14</ele>
</trkpt>
<trkpt lat="36.10801194444444" lon="133.12837611111112">
<ele>18</ele>
</trkpt>
<trkpt lat="36.107821111111114" lon="133.1280888888889">
<ele>13</ele>
</trkpt>
<trkpt lat="36.10757888888889" lon="133.1276638888889">
<ele>14</ele>
</trkpt>
<trkpt lat="36.107463055555556" lon="133.12746388888888">
<ele>16</ele>
</trkpt>
<trkpt lat="36.10731305555556" lon="133.12727611111112">
<ele>18</ele>
</trkpt>
<trkpt lat="36.106898055555554" lon="133.12683694444445">
<ele>20</ele>
</trkpt>
<trkpt lat="36.106898055555554" lon="133.12683694444445">
<ele>20</ele>
</trkpt>
<trkpt lat="36.10680388888889" lon="133.1267388888889">
<ele>20</ele>
</trkpt>
<trkpt lat="36.10670388888889" lon="133.1266261111111">
<ele>24</ele>
</trkpt>
<trkpt lat="36.106613055555556" lon="133.12645111111112">
<ele>26</ele>
</trkpt>
<trkpt lat="36.10655388888889" lon="133.1260511111111">
<ele>22</ele>
</trkpt>
<trkpt lat="36.10654611111111" lon="133.1258761111111">
<ele>22</ele>
</trkpt>
<trkpt lat="36.10647111111111" lon="133.1255138888889">
<ele>27</ele>
</trkpt>
<trkpt lat="36.10627888888889" lon="133.12488888888888">
<ele>23</ele>
</trkpt>
<trkpt lat="36.106163055555555" lon="133.1244511111111">
<ele>24</ele>
</trkpt>
<trkpt lat="36.10612111111111" lon="133.12428888888888">
<ele>29</ele>
</trkpt>
<trkpt lat="36.10614611111111" lon="133.1240388888889">
<ele>34</ele>
</trkpt>
<trkpt lat="36.106363055555555" lon="133.1235511111111">
<ele>36</ele>
</trkpt>
<trkpt lat="36.10648805555556" lon="133.1233638888889">
<ele>38</ele>
</trkpt>
<trkpt lat="36.107188055555554" lon="133.12271388888888">
<ele>37</ele>
</trkpt>
<trkpt lat="36.10752111111111" lon="133.12293888888888">
<ele>38</ele>
</trkpt>
<trkpt lat="36.107686944444445" lon="133.1230138888889">
<ele>37</ele>
</trkpt>
<trkpt lat="36.10781305555555" lon="133.12303888888889">
<ele>36</ele>
</trkpt>
<trkpt lat="36.107911944444446" lon="133.12303888888889">
<ele>36</ele>
</trkpt>
<trkpt lat="36.10814611111111" lon="133.12296388888888">
<ele>36</ele>
</trkpt>
<trkpt lat="36.10832111111111" lon="133.12282611111112">
<ele>40</ele>
</trkpt>
<trkpt lat="36.10839611111111" lon="133.12271388888888">
<ele>42</ele>
</trkpt>
<trkpt lat="36.10846194444444" lon="133.1225388888889">
<ele>41</ele>
</trkpt>
<trkpt lat="36.108486944444444" lon="133.12236388888888">
<ele>41</ele>
</trkpt>
<trkpt lat="36.10847888888889" lon="133.12213888888888">
<ele>41</ele>
</trkpt>
<trkpt lat="36.10842111111111" lon="133.12190194444443">
<ele>44</ele>
</trkpt>
<trkpt lat="36.10842111111111" lon="133.12181388888888">
<ele>44</ele>
</trkpt>
<trkpt lat="36.10846194444444" lon="133.12167694444443">
<ele>42</ele>
</trkpt>
<trkpt lat="36.10852888888889" lon="133.1215388888889">
<ele>48</ele>
</trkpt>
<trkpt lat="36.10928694444444" lon="133.12077694444446">
<ele>40</ele>
</trkpt>
<trkpt lat="36.10943694444445" lon="133.12057694444445">
<ele>38</ele>
</trkpt>
<trkpt lat="36.10951194444444" lon="133.12043888888888">
<ele>37</ele>
</trkpt>
<trkpt lat="36.10954611111111" lon="133.1202638888889">
<ele>35</ele>
</trkpt>
<trkpt lat="36.10952888888889" lon="133.11992694444444">
<ele>33</ele>
</trkpt>
<trkpt lat="36.10940388888889" lon="133.1191638888889">
<ele>28</ele>
</trkpt>
<trkpt lat="36.10940388888889" lon="133.11897694444446">
<ele>28</ele>
</trkpt>
<trkpt lat="36.10955388888889" lon="133.11866388888888">
<ele>27</ele>
</trkpt>
<trkpt lat="36.109595" lon="133.11850194444443">
<ele>28</ele>
</trkpt>
<trkpt lat="36.109636944444446" lon="133.11835194444444">
<ele>28</ele>
</trkpt>
<trkpt lat="36.109645" lon="133.11815194444443">
<ele>26</ele>
</trkpt>
<trkpt lat="36.10962888888889" lon="133.11761388888888">
<ele>26</ele>
</trkpt>
<trkpt lat="36.109561944444444" lon="133.1173388888889">
<ele>26</ele>
</trkpt>
<trkpt lat="36.10955388888889" lon="133.1171388888889">
<ele>24</ele>
</trkpt>
<trkpt lat="36.109561944444444" lon="133.11667694444444">
<ele>26</ele>
</trkpt>
<trkpt lat="36.10952" lon="133.1164138888889">
<ele>26</ele>
</trkpt>
<trkpt lat="36.109233055555556" lon="133.1158088888889">
<ele>24</ele>
</trkpt>
<trkpt lat="36.109233055555556" lon="133.1158088888889">
<ele>24</ele>
</trkpt>
<trkpt lat="36.108945" lon="133.11520194444444">
<ele>23</ele>
</trkpt>
<trkpt lat="36.108895" lon="133.11497694444444">
<ele>24</ele>
</trkpt>
<trkpt lat="36.10886194444444" lon="133.11462694444444">
<ele>21</ele>
</trkpt>
<trkpt lat="36.10886194444444" lon="133.11384">
<ele>21</ele>
</trkpt>
<trkpt lat="36.10881194444445" lon="133.11297694444445">
<ele>18</ele>
</trkpt>
<trkpt lat="36.108795" lon="133.11280194444444">
<ele>18</ele>
</trkpt>
<trkpt lat="36.10865388888889" lon="133.11237805555555">
<ele>17</ele>
</trkpt>
<trkpt lat="36.108061944444444" lon="133.111215">
<ele>16</ele>
</trkpt>
<trkpt lat="36.10727888888889" lon="133.10975305555556">
<ele>17</ele>
</trkpt>
<trkpt lat="36.10680388888889" lon="133.10880305555557">
<ele>14</ele>
</trkpt>
<trkpt lat="36.106745" lon="133.10872805555556">
<ele>13</ele>
</trkpt>
<trkpt lat="36.106345" lon="133.10820305555555">
<ele>11</ele>
</trkpt>
<trkpt lat="36.10602" lon="133.10780305555556">
<ele>12</ele>
</trkpt>
<trkpt lat="36.10586194444444" lon="133.107665">
<ele>12</ele>
</trkpt>
<trkpt lat="36.105711944444444" lon="133.107565">
<ele>10</ele>
</trkpt>
<trkpt lat="36.10525388888889" lon="133.10764">
<ele>9</ele>
</trkpt>
<trkpt lat="36.104686944444445" lon="133.10790305555557">
<ele>9</ele>
</trkpt>
<trkpt lat="36.10418694444444" lon="133.10809">
<ele>10</ele>
</trkpt>
<trkpt lat="36.10396194444444" lon="133.108065">
<ele>11</ele>
</trkpt>
<trkpt lat="36.10302111111111" lon="133.10745305555557">
<ele>13</ele>
</trkpt>
<trkpt lat="36.10279611111111" lon="133.1073411111111">
<ele>13</ele>
</trkpt>
<trkpt lat="36.10220388888889" lon="133.10729111111112">
<ele>10</ele>
</trkpt>
<trkpt lat="36.10178805555555" lon="133.1072661111111">
<ele>13</ele>
</trkpt>
<trkpt lat="36.10153694444445" lon="133.10719111111112">
<ele>11</ele>
</trkpt>
<trkpt lat="36.10125388888889" lon="133.10686611111112">
<ele>10</ele>
</trkpt>
<trkpt lat="36.10080388888889" lon="133.10619111111112">
<ele>11</ele>
</trkpt>
<trkpt lat="36.10050388888889" lon="133.1056411111111">
<ele>11</ele>
</trkpt>
<trkpt lat="36.100363055555555" lon="133.10527805555554">
<ele>14</ele>
</trkpt>
<trkpt lat="36.10019611111111" lon="133.10481611111112">
<ele>16</ele>
</trkpt>
<trkpt lat="36.099963055555556" lon="133.10437805555554">
<ele>15</ele>
</trkpt>
<trkpt lat="36.09995388888889" lon="133.1040911111111">
<ele>13</ele>
</trkpt>
<trkpt lat="36.09995388888889" lon="133.10345305555555">
<ele>9</ele>
</trkpt>
<trkpt lat="36.09995388888889" lon="133.10297888888888">
<ele>8</ele>
</trkpt>
<trkpt lat="36.099938055555555" lon="133.1027411111111">
<ele>8</ele>
</trkpt>
<trkpt lat="36.09992888888889" lon="133.1026411111111">
<ele>7</ele>
</trkpt>
<trkpt lat="36.09990388888889" lon="133.1025161111111">
<ele>7</ele>
</trkpt>
<trkpt lat="36.099738055555555" lon="133.1019288888889">
<ele>6</ele>
</trkpt>
<trkpt lat="36.09966305555555" lon="133.1013911111111">
<ele>5</ele>
</trkpt>
<trkpt lat="36.09961305555556" lon="133.1012538888889">
<ele>5</ele>
</trkpt>
<trkpt lat="36.09952888888889" lon="133.1011538888889">
<ele>5</ele>
</trkpt>
<trkpt lat="36.09939611111111" lon="133.10105388888888">
<ele>5</ele>
</trkpt>
<trkpt lat="36.09920388888889" lon="133.1009288888889">
<ele>5</ele>
</trkpt>
<trkpt lat="36.09907111111111" lon="133.10086611111112">
<ele>5</ele>
</trkpt>
<trkpt lat="36.098661944444444" lon="133.10072888888888">
<ele>6</ele>
</trkpt>
<trkpt lat="36.098261944444445" lon="133.1006538888889">
<ele>6</ele>
</trkpt>
<trkpt lat="36.09802111111111" lon="133.10061611111112">
<ele>8</ele>
</trkpt>
<trkpt lat="36.09797888888889" lon="133.1005788888889">
<ele>8</ele>
</trkpt>
<trkpt lat="36.09773805555555" lon="133.1000911111111">
<ele>7</ele>
</trkpt>
<trkpt lat="36.09767111111111" lon="133.0999788888889">
<ele>7</ele>
</trkpt>
<trkpt lat="36.09745111111111" lon="133.0997688888889">
<ele>6</ele>
</trkpt>
<trkpt lat="36.09745111111111" lon="133.0997688888889">
<ele>6</ele>
</trkpt>
<trkpt lat="36.09739611111111" lon="133.09971611111112">
<ele>6</ele>
</trkpt>
<trkpt lat="36.09731305555555" lon="133.0995661111111">
<ele>5</ele>
</trkpt>
<trkpt lat="36.097121111111115" lon="133.09912888888888">
<ele>5</ele>
</trkpt>
<trkpt lat="36.09657888888889" lon="133.09791694444445">
<ele>8</ele>
</trkpt>
<trkpt lat="36.09650388888889" lon="133.09774194444444">
<ele>7</ele>
</trkpt>
<trkpt lat="36.09641305555556" lon="133.0975288888889">
<ele>6</ele>
</trkpt>
<trkpt lat="36.096288055555554" lon="133.09731694444446">
<ele>4</ele>
</trkpt>
<trkpt lat="36.09596305555556" lon="133.0969538888889">
<ele>4</ele>
</trkpt>
<trkpt lat="36.09570388888889" lon="133.09646694444444">
<ele>6</ele>
</trkpt>
<trkpt lat="36.09557111111111" lon="133.09609194444445">
<ele>8</ele>
</trkpt>
<trkpt lat="36.095438055555555" lon="133.0958038888889">
<ele>9</ele>
</trkpt>
<trkpt lat="36.09492888888889" lon="133.0949038888889">
<ele>4</ele>
</trkpt>
<trkpt lat="36.095303888888886" lon="133.0944538888889">
<ele>5</ele>
</trkpt>
<trkpt lat="36.095413055555554" lon="133.09429194444445">
<ele>5</ele>
</trkpt>
<trkpt lat="36.095488055555556" lon="133.09414194444443">
<ele>6</ele>
</trkpt>
<trkpt lat="36.095528888888886" lon="133.0940288888889">
<ele>6</ele>
</trkpt>
<trkpt lat="36.09554611111111" lon="133.09392888888888">
<ele>6</ele>
</trkpt>
<trkpt lat="36.09556305555556" lon="133.09380388888889">
<ele>6</ele>
</trkpt>
<trkpt lat="36.09557111111111" lon="133.09284194444444">
<ele>6</ele>
</trkpt>
<trkpt lat="36.095596111111114" lon="133.09264194444444">
<ele>6</ele>
</trkpt>
<trkpt lat="36.09572111111111" lon="133.0919788888889">
<ele>4</ele>
</trkpt>
<trkpt lat="36.09592888888889" lon="133.090755">
<ele>4</ele>
</trkpt>
<trkpt lat="36.095936944444446" lon="133.090705">
<ele>4</ele>
</trkpt>
<trkpt lat="36.09597888888889" lon="133.09053">
<ele>3</ele>
</trkpt>
<trkpt lat="36.09600388888889" lon="133.09016694444443">
<ele>0</ele>
</trkpt>
<trkpt lat="36.09596194444445" lon="133.08948">
<ele>0</ele>
</trkpt>
<trkpt lat="36.09587888888889" lon="133.08869194444443">
<ele>2</ele>
</trkpt>
<trkpt lat="36.09587111111111" lon="133.08853">
<ele>1</ele>
</trkpt>
<trkpt lat="36.09587888888889" lon="133.08839194444445">
<ele>1</ele>
</trkpt>
<trkpt lat="36.09589611111111" lon="133.08828">
<ele>0</ele>
</trkpt>
<trkpt lat="36.09592111111111" lon="133.08814194444443">
<ele>1</ele>
</trkpt>
<trkpt lat="36.09597111111111" lon="133.088005">
<ele>1</ele>
</trkpt>
<trkpt lat="36.09605388888889" lon="133.08783">
<ele>0</ele>
</trkpt>
<trkpt lat="36.09652111111111" lon="133.08708">
<ele>1</ele>
</trkpt>
<trkpt lat="36.09692888888889" lon="133.086505">
<ele>1</ele>
</trkpt>
<trkpt lat="36.09742111111111" lon="133.08609305555555">
<ele>3</ele>
</trkpt>
<trkpt lat="36.097836944444445" lon="133.08598">
<ele>7</ele>
</trkpt>
<trkpt lat="36.098145" lon="133.08604305555556">
<ele>9</ele>
</trkpt>
<trkpt lat="36.098286944444446" lon="133.08623">
<ele>8</ele>
</trkpt>
<trkpt lat="36.09832888888889" lon="133.08628">
<ele>8</ele>
</trkpt>
<trkpt lat="36.09863694444444" lon="133.08701694444446">
<ele>3</ele>
</trkpt>
<trkpt lat="36.09892" lon="133.08729305555556">
<ele>5</ele>
</trkpt>
<trkpt lat="36.099511944444444" lon="133.08771694444445">
<ele>3</ele>
</trkpt>
<trkpt lat="36.09983694444445" lon="133.08783">
<ele>5</ele>
</trkpt>
<trkpt lat="36.100145" lon="133.08783">
<ele>6</ele>
</trkpt>
<trkpt lat="36.10037" lon="133.08776694444444">
<ele>5</ele>
</trkpt>
<trkpt lat="36.10062" lon="133.087455">
<ele>3</ele>
</trkpt>
<trkpt lat="36.10105305555555" lon="133.08623">
<ele>0</ele>
</trkpt>
<trkpt lat="36.101545" lon="133.08489194444445">
<ele>18</ele>
</trkpt>
<trkpt lat="36.101845" lon="133.08409194444445">
<ele>18</ele>
</trkpt>
<trkpt lat="36.101978055555556" lon="133.08364194444445">
<ele>17</ele>
</trkpt>
<trkpt lat="36.10197" lon="133.08301694444444">
<ele>9</ele>
</trkpt>
<trkpt lat="36.101911111111114" lon="133.08214305555555">
<ele>6</ele>
</trkpt>
<trkpt lat="36.10193611111111" lon="133.08201805555555">
<ele>5</ele>
</trkpt>
<trkpt lat="36.10207" lon="133.08183">
<ele>3</ele>
</trkpt>
<trkpt lat="36.10218611111111" lon="133.08171805555557">
<ele>2</ele>
</trkpt>
<trkpt lat="36.10223611111111" lon="133.08161805555557">
<ele>2</ele>
</trkpt>
<trkpt lat="36.10232805555555" lon="133.081205">
<ele>3</ele>
</trkpt>
<trkpt lat="36.10250305555556" lon="133.08056805555555">
<ele>2</ele>
</trkpt>
<trkpt lat="36.10252805555555" lon="133.08039305555556">
<ele>3</ele>
</trkpt>
<trkpt lat="36.10252805555555" lon="133.08024305555554">
<ele>4</ele>
</trkpt>
<trkpt lat="36.10250305555556" lon="133.08011805555554">
<ele>3</ele>
</trkpt>
<trkpt lat="36.10246111111111" lon="133.08003">
<ele>2</ele>
</trkpt>
<trkpt lat="36.10236111111111" lon="133.079905">
<ele>2</ele>
</trkpt>
<trkpt lat="36.101953055555555" lon="133.07936805555556">
<ele>3</ele>
</trkpt>
<trkpt lat="36.101845" lon="133.0791811111111">
<ele>2</ele>
</trkpt>
<trkpt lat="36.10180305555556" lon="133.0790311111111">
<ele>2</ele>
</trkpt>
<trkpt lat="36.10178305555556" lon="133.07888">
<ele>2</ele>
</trkpt>
<trkpt lat="36.10178305555556" lon="133.07888">
<ele>2</ele>
</trkpt>
<trkpt lat="36.10173611111111" lon="133.07853111111112">
<ele>1</ele>
</trkpt>
<trkpt lat="36.10173611111111" lon="133.0783811111111">
<ele>1</ele>
</trkpt>
<trkpt lat="36.10177" lon="133.0782561111111">
<ele>1</ele>
</trkpt>
<trkpt lat="36.10243611111111" lon="133.07696805555557">
<ele>0</ele>
</trkpt>
<trkpt lat="36.10255305555555" lon="133.07674305555557">
<ele>1</ele>
</trkpt>
<trkpt lat="36.10263611111111" lon="133.07666805555556">
<ele>0</ele>
</trkpt>
<trkpt lat="36.10274388888889" lon="133.07664305555556">
<ele>1</ele>
</trkpt>
<trkpt lat="36.10316111111111" lon="133.07660611111112">
<ele>0</ele>
</trkpt>
<trkpt lat="36.10355305555556" lon="133.07651805555557">
<ele>1</ele>
</trkpt>
<trkpt lat="36.10373611111111" lon="133.0764561111111">
<ele>0</ele>
</trkpt>
<trkpt lat="36.104393888888886" lon="133.07615611111112">
<ele>2</ele>
</trkpt>
<trkpt lat="36.104503055555554" lon="133.0761261111111">
<ele>3</ele>
</trkpt>
<trkpt lat="36.104503055555554" lon="133.0761261111111">
<ele>3</ele>
</trkpt>
<trkpt lat="36.10457805555556" lon="133.0761061111111">
<ele>5</ele>
</trkpt>
<trkpt lat="36.10454388888889" lon="133.07666805555556">
<ele>1</ele>
</trkpt>
<trkpt lat="36.10457111111111" lon="133.07682694444443">
<ele>1</ele>
</trkpt>
    </trkseg>
  </trk>
</gpx>