<?xml version="1.0" encoding="UTF-8"?>
<gpx version="1.1"
     creator="KMLtoGPX"
     xmlns="http://www.topografix.com/GPX/1/1">
  <metadata>
    <name>Nishinoshima (Nishinoshima Town) Course</name>
    <desc>西ノ島(西ノ島町)コース</desc>
    <bounds minlat="36.078583888888886" minlon="132.9603161111111" maxlat="36.10841" maxlon="133.04079611111112"/>
  </metadata>
  <trk>
    <name>Nishinoshima (Nishinoshima Town) Course</name>
    <trkseg>
<trkpt lat="36.10827305555556" lon="133.04079">
<ele>0</ele>
</trkpt>
<trkpt lat="36.10815888888889" lon="133.04078305555555">
<ele>0</ele>
</trkpt>
<trkpt lat="36.10770888888889" lon="133.04069611111112">
<ele>3</ele>
</trkpt>
<trkpt lat="36.107618055555555" lon="133.04063305555556">
<ele>2</ele>
</trkpt>
<trkpt lat="36.10753388888889" lon="133.04053305555556">
<ele>1</ele>
</trkpt>
<trkpt lat="36.10744305555556" lon="133.04033305555555">
<ele>0</ele>
</trkpt>
<trkpt lat="36.107326111111114" lon="133.0400588888889">
<ele>0</ele>
</trkpt>
<trkpt lat="36.10724305555556" lon="133.0399211111111">
<ele>1</ele>
</trkpt>
<trkpt lat="36.10708388888889" lon="133.03977111111112">
<ele>0</ele>
</trkpt>
<trkpt lat="36.105958888888885" lon="133.0394088888889">
<ele>0</ele>
</trkpt>
<trkpt lat="36.10604305555555" lon="133.0390211111111">
<ele>1</ele>
</trkpt>
<trkpt lat="36.10607611111111" lon="133.03888388888888">
<ele>1</ele>
</trkpt>
<trkpt lat="36.10645888888889" lon="133.0380461111111">
<ele>2</ele>
</trkpt>
<trkpt lat="36.10660111111111" lon="133.0374461111111">
<ele>3</ele>
</trkpt>
<trkpt lat="36.10669305555555" lon="133.0368961111111">
<ele>4</ele>
</trkpt>
<trkpt lat="36.10680111111111" lon="133.0365338888889">
<ele>5</ele>
</trkpt>
<trkpt lat="36.106943055555554" lon="133.0360588888889">
<ele>8</ele>
</trkpt>
<trkpt lat="36.10695111111111" lon="133.03570888888888">
<ele>11</ele>
</trkpt>
<trkpt lat="36.10649305555555" lon="133.0339088888889">
<ele>20</ele>
</trkpt>
<trkpt lat="36.10648388888889" lon="133.0335961111111">
<ele>19</ele>
</trkpt>
<trkpt lat="36.10677611111111" lon="133.0326838888889">
<ele>28</ele>
</trkpt>
<trkpt lat="36.106793055555556" lon="133.03204694444443">
<ele>42</ele>
</trkpt>
<trkpt lat="36.10677611111111" lon="133.03195888888888">
<ele>44</ele>
</trkpt>
<trkpt lat="36.10675888888889" lon="133.03183388888888">
<ele>46</ele>
</trkpt>
<trkpt lat="36.10661694444445" lon="133.03128388888888">
<ele>55</ele>
</trkpt>
<trkpt lat="36.10624305555555" lon="133.0295088888889">
<ele>58</ele>
</trkpt>
<trkpt lat="36.10596805555556" lon="133.0282861111111">
<ele>56</ele>
</trkpt>
<trkpt lat="36.10596805555556" lon="133.0282861111111">
<ele>56</ele>
</trkpt>
<trkpt lat="36.105941944444446" lon="133.02817194444444">
<ele>56</ele>
</trkpt>
<trkpt lat="36.10587611111111" lon="133.02794694444444">
<ele>56</ele>
</trkpt>
<trkpt lat="36.10580888888889" lon="133.02782194444444">
<ele>54</ele>
</trkpt>
<trkpt lat="36.105626111111114" lon="133.02755888888888">
<ele>56</ele>
</trkpt>
<trkpt lat="36.10505111111111" lon="133.02692194444444">
<ele>45</ele>
</trkpt>
<trkpt lat="36.104908888888886" lon="133.02673388888888">
<ele>44</ele>
</trkpt>
<trkpt lat="36.10483388888889" lon="133.02657194444444">
<ele>45</ele>
</trkpt>
<trkpt lat="36.104683888888886" lon="133.02609694444445">
<ele>43</ele>
</trkpt>
<trkpt lat="36.10460888888889" lon="133.02596">
<ele>43</ele>
</trkpt>
<trkpt lat="36.10450888888889" lon="133.02579694444444">
<ele>40</ele>
</trkpt>
<trkpt lat="36.104168055555554" lon="133.025385">
<ele>33</ele>
</trkpt>
<trkpt lat="36.10413388888889" lon="133.02537194444446">
<ele>33</ele>
</trkpt>
<trkpt lat="36.10361805555556" lon="133.02521">
<ele>32</ele>
</trkpt>
<trkpt lat="36.10310111111111" lon="133.024935">
<ele>35</ele>
</trkpt>
<trkpt lat="36.102758888888886" lon="133.024685">
<ele>35</ele>
</trkpt>
<trkpt lat="36.10235888888889" lon="133.02437194444445">
<ele>27</ele>
</trkpt>
<trkpt lat="36.10219305555555" lon="133.02422194444443">
<ele>26</ele>
</trkpt>
<trkpt lat="36.10200888888889" lon="133.02401">
<ele>24</ele>
</trkpt>
<trkpt lat="36.10185111111111" lon="133.023585">
<ele>22</ele>
</trkpt>
<trkpt lat="36.10178388888889" lon="133.023285">
<ele>20</ele>
</trkpt>
<trkpt lat="36.10150111111111" lon="133.021285">
<ele>14</ele>
</trkpt>
<trkpt lat="36.10140111111111" lon="133.02089694444444">
<ele>14</ele>
</trkpt>
<trkpt lat="36.10130888888889" lon="133.02062305555555">
<ele>14</ele>
</trkpt>
<trkpt lat="36.10113388888889" lon="133.02026">
<ele>13</ele>
</trkpt>
<trkpt lat="36.100993055555556" lon="133.02006">
<ele>9</ele>
</trkpt>
<trkpt lat="36.10072611111111" lon="133.01969805555555">
<ele>9</ele>
</trkpt>
<trkpt lat="36.100093055555554" lon="133.01884805555557">
<ele>7</ele>
</trkpt>
<trkpt lat="36.099918055555555" lon="133.01856">
<ele>7</ele>
</trkpt>
<trkpt lat="36.09975111111111" lon="133.018235">
<ele>8</ele>
</trkpt>
<trkpt lat="36.09961805555555" lon="133.01794805555556">
<ele>7</ele>
</trkpt>
<trkpt lat="36.099293055555556" lon="133.01717305555556">
<ele>8</ele>
</trkpt>
<trkpt lat="36.09916805555556" lon="133.016835">
<ele>9</ele>
</trkpt>
<trkpt lat="36.099035" lon="133.01664805555555">
<ele>12</ele>
</trkpt>
<trkpt lat="36.09887611111111" lon="133.016535">
<ele>15</ele>
</trkpt>
<trkpt lat="36.09739305555556" lon="133.0158111111111">
<ele>17</ele>
</trkpt>
<trkpt lat="36.097051111111114" lon="133.01569805555556">
<ele>23</ele>
</trkpt>
<trkpt lat="36.09680111111111" lon="133.01567305555557">
<ele>24</ele>
</trkpt>
<trkpt lat="36.096485" lon="133.01573611111112">
<ele>24</ele>
</trkpt>
<trkpt lat="36.09606" lon="133.0158111111111">
<ele>23</ele>
</trkpt>
<trkpt lat="36.09569388888889" lon="133.015945">
<ele>23</ele>
</trkpt>
<trkpt lat="36.09569388888889" lon="133.015945">
<ele>23</ele>
</trkpt>
<trkpt lat="36.093851944444445" lon="133.01662305555556">
<ele>24</ele>
</trkpt>
<trkpt lat="36.093535" lon="133.01664805555555">
<ele>26</ele>
</trkpt>
<trkpt lat="36.093335" lon="133.01662305555556">
<ele>27</ele>
</trkpt>
<trkpt lat="36.093135" lon="133.0165111111111">
<ele>18</ele>
</trkpt>
<trkpt lat="36.09301888888889" lon="133.01637305555556">
<ele>16</ele>
</trkpt>
<trkpt lat="36.09291" lon="133.01619805555555">
<ele>17</ele>
</trkpt>
<trkpt lat="36.092818888888885" lon="133.0160111111111">
<ele>17</ele>
</trkpt>
<trkpt lat="36.092751944444444" lon="133.01569805555556">
<ele>17</ele>
</trkpt>
<trkpt lat="36.09267694444444" lon="133.0152361111111">
<ele>17</ele>
</trkpt>
<trkpt lat="36.09256888888889" lon="133.0148111111111">
<ele>17</ele>
</trkpt>
<trkpt lat="36.092578055555556" lon="133.0148475">
<ele>17</ele>
</trkpt>
<trkpt lat="36.092578055555556" lon="133.0148475">
<ele>17</ele>
</trkpt>
<trkpt lat="36.092435" lon="133.01428611111112">
<ele>19</ele>
</trkpt>
<trkpt lat="36.09231888888889" lon="133.01394805555555">
<ele>19</ele>
</trkpt>
<trkpt lat="36.09140194444444" lon="133.0113111111111">
<ele>8</ele>
</trkpt>
<trkpt lat="36.09114388888889" lon="133.01041111111113">
<ele>17</ele>
</trkpt>
<trkpt lat="36.09112694444445" lon="133.0096988888889">
<ele>27</ele>
</trkpt>
<trkpt lat="36.091135" lon="133.00918611111112">
<ele>26</ele>
</trkpt>
<trkpt lat="36.09121" lon="133.0086988888889">
<ele>25</ele>
</trkpt>
<trkpt lat="36.091485" lon="133.00803611111112">
<ele>23</ele>
</trkpt>
<trkpt lat="36.09229305555556" lon="133.0068238888889">
<ele>19</ele>
</trkpt>
<trkpt lat="36.092308055555556" lon="133.0068038888889">
<ele>16</ele>
</trkpt>
<trkpt lat="36.092308055555556" lon="133.0068038888889">
<ele>16</ele>
</trkpt>
<trkpt lat="36.092385" lon="133.00669888888888">
<ele>2</ele>
</trkpt>
<trkpt lat="36.09292666666666" lon="133.0059688888889">
<ele>0</ele>
</trkpt>
<trkpt lat="36.09292666666666" lon="133.0059688888889">
<ele>0</ele>
</trkpt>
<trkpt lat="36.09377611111111" lon="133.0048238888889">
<ele>26</ele>
</trkpt>
<trkpt lat="36.09401805555556" lon="133.0043861111111">
<ele>29</ele>
</trkpt>
<trkpt lat="36.094135" lon="133.0039111111111">
<ele>27</ele>
</trkpt>
<trkpt lat="36.094143055555556" lon="133.00328611111112">
<ele>24</ele>
</trkpt>
<trkpt lat="36.094085" lon="133.00262388888888">
<ele>18</ele>
</trkpt>
<trkpt lat="36.09391" lon="133.00168694444446">
<ele>12</ele>
</trkpt>
<trkpt lat="36.093626111111114" lon="133.0007488888889">
<ele>2</ele>
</trkpt>
<trkpt lat="36.093626111111114" lon="133.0007488888889">
<ele>2</ele>
</trkpt>
<trkpt lat="36.09361805555555" lon="133.0007238888889">
<ele>2</ele>
</trkpt>
<trkpt lat="36.09309888888889" lon="132.99907194444444">
<ele>6</ele>
</trkpt>
<trkpt lat="36.09309888888889" lon="132.99907194444444">
<ele>6</ele>
</trkpt>
<trkpt lat="36.092935" lon="132.99854888888888">
<ele>8</ele>
</trkpt>
<trkpt lat="36.09285111111111" lon="132.9983738888889">
<ele>9</ele>
</trkpt>
<trkpt lat="36.092418055555555" lon="132.9973738888889">
<ele>14</ele>
</trkpt>
<trkpt lat="36.09236805555555" lon="132.99726194444443">
<ele>15</ele>
</trkpt>
<trkpt lat="36.092335" lon="132.99717388888888">
<ele>11</ele>
</trkpt>
<trkpt lat="36.092285" lon="132.9969988888889">
<ele>6</ele>
</trkpt>
<trkpt lat="36.09225111111111" lon="132.99682388888888">
<ele>4</ele>
</trkpt>
<trkpt lat="36.092235" lon="132.99663694444445">
<ele>3</ele>
</trkpt>
<trkpt lat="36.092237222222224" lon="132.99658416666668">
<ele>3</ele>
</trkpt>
<trkpt lat="36.092236944444444" lon="132.9965838888889">
<ele>3</ele>
</trkpt>
<trkpt lat="36.092235" lon="132.99663694444445">
<ele>3</ele>
</trkpt>
<trkpt lat="36.09236805555555" lon="132.99658694444443">
<ele>3</ele>
</trkpt>
<trkpt lat="36.09266" lon="132.9965238888889">
<ele>3</ele>
</trkpt>
<trkpt lat="36.09279305555555" lon="132.9964488888889">
<ele>3</ele>
</trkpt>
<trkpt lat="36.09301" lon="132.99626194444446">
<ele>2</ele>
</trkpt>
<trkpt lat="36.09316805555556" lon="132.9960988888889">
<ele>2</ele>
</trkpt>
<trkpt lat="36.09321805555555" lon="132.99601194444443">
<ele>2</ele>
</trkpt>
<trkpt lat="36.093285" lon="132.9957038888889">
<ele>2</ele>
</trkpt>
<trkpt lat="36.093285" lon="132.9957038888889">
<ele>2</ele>
</trkpt>
<trkpt lat="36.09336805555556" lon="132.995325">
<ele>3</ele>
</trkpt>
<trkpt lat="36.093435" lon="132.994875">
<ele>3</ele>
</trkpt>
<trkpt lat="36.093443055555554" lon="132.99463694444444">
<ele>3</ele>
</trkpt>
<trkpt lat="36.09327611111111" lon="132.99425">
<ele>4</ele>
</trkpt>
<trkpt lat="36.09314305555556" lon="132.993475">
<ele>8</ele>
</trkpt>
<trkpt lat="36.09306" lon="132.993025">
<ele>4</ele>
</trkpt>
<trkpt lat="36.09306388888889" lon="132.99295305555555">
<ele>3</ele>
</trkpt>
<trkpt lat="36.09306388888889" lon="132.99295305555555">
<ele>3</ele>
</trkpt>
<trkpt lat="36.093068055555555" lon="132.992875">
<ele>3</ele>
</trkpt>
<trkpt lat="36.093293055555556" lon="132.992275">
<ele>4</ele>
</trkpt>
<trkpt lat="36.09327611111111" lon="132.99221194444445">
<ele>3</ele>
</trkpt>
<trkpt lat="36.09316805555556" lon="132.991675">
<ele>4</ele>
</trkpt>
<trkpt lat="36.09316805555556" lon="132.991425">
<ele>4</ele>
</trkpt>
<trkpt lat="36.09326" lon="132.99091305555555">
<ele>4</ele>
</trkpt>
<trkpt lat="36.09327611111111" lon="132.990675">
<ele>4</ele>
</trkpt>
<trkpt lat="36.09316805555556" lon="132.99046305555555">
<ele>3</ele>
</trkpt>
<trkpt lat="36.093035" lon="132.99015">
<ele>4</ele>
</trkpt>
<trkpt lat="36.09297611111111" lon="132.99006194444445">
<ele>4</ele>
</trkpt>
<trkpt lat="36.09281" lon="132.98995">
<ele>4</ele>
</trkpt>
<trkpt lat="36.09269305555556" lon="132.98981194444445">
<ele>3</ele>
</trkpt>
<trkpt lat="36.092593055555554" lon="132.989575">
<ele>3</ele>
</trkpt>
<trkpt lat="36.09227611111111" lon="132.989325">
<ele>3</ele>
</trkpt>
<trkpt lat="36.092235" lon="132.989275">
<ele>3</ele>
</trkpt>
<trkpt lat="36.092168055555554" lon="132.98916305555557">
<ele>5</ele>
</trkpt>
<trkpt lat="36.09211805555555" lon="132.98888805555555">
<ele>6</ele>
</trkpt>
<trkpt lat="36.09211805555555" lon="132.98866305555555">
<ele>8</ele>
</trkpt>
<trkpt lat="36.092151111111114" lon="132.988425">
<ele>8</ele>
</trkpt>
<trkpt lat="36.09221" lon="132.988225">
<ele>8</ele>
</trkpt>
<trkpt lat="36.092443055555556" lon="132.987875">
<ele>7</ele>
</trkpt>
<trkpt lat="36.092618055555555" lon="132.98763805555555">
<ele>3</ele>
</trkpt>
<trkpt lat="36.09276" lon="132.98751305555555">
<ele>1</ele>
</trkpt>
<trkpt lat="36.09328388888889" lon="132.98706305555555">
<ele>1</ele>
</trkpt>
<trkpt lat="36.09340111111111" lon="132.98693805555556">
<ele>1</ele>
</trkpt>
<trkpt lat="36.093443055555554" lon="132.98685">
<ele>0</ele>
</trkpt>
<trkpt lat="36.09345888888889" lon="132.98668805555556">
<ele>1</ele>
</trkpt>
<trkpt lat="36.093468055555554" lon="132.98633805555556">
<ele>1</ele>
</trkpt>
<trkpt lat="36.09332611111111" lon="132.98543805555556">
<ele>0</ele>
</trkpt>
<trkpt lat="36.09330888888889" lon="132.9852011111111">
<ele>1</ele>
</trkpt>
<trkpt lat="36.09331805555556" lon="132.9850011111111">
<ele>1</ele>
</trkpt>
<trkpt lat="36.093333888888885" lon="132.9849011111111">
<ele>2</ele>
</trkpt>
<trkpt lat="36.09323388888889" lon="132.98486305555556">
<ele>2</ele>
</trkpt>
<trkpt lat="36.09311805555556" lon="132.98482611111112">
<ele>1</ele>
</trkpt>
<trkpt lat="36.093068055555555" lon="132.98480111111112">
<ele>1</ele>
</trkpt>
<trkpt lat="36.09295111111111" lon="132.98468805555555">
<ele>0</ele>
</trkpt>
<trkpt lat="36.09290111111111" lon="132.9846261111111">
<ele>1</ele>
</trkpt>
<trkpt lat="36.09280805555556" lon="132.98442888888889">
<ele>0</ele>
</trkpt>
<trkpt lat="36.09280777777778" lon="132.98442944444446">
<ele>0</ele>
</trkpt>
<trkpt lat="36.092776111111114" lon="132.98436305555555">
<ele>0</ele>
</trkpt>
<trkpt lat="36.09258388888889" lon="132.9839511111111">
<ele>2</ele>
</trkpt>
<trkpt lat="36.09223388888889" lon="132.9832011111111">
<ele>3</ele>
</trkpt>
<trkpt lat="36.09208388888889" lon="132.9829261111111">
<ele>1</ele>
</trkpt>
<trkpt lat="36.091968055555554" lon="132.98277611111112">
<ele>4</ele>
</trkpt>
<trkpt lat="36.091168055555556" lon="132.98197611111112">
<ele>6</ele>
</trkpt>
<trkpt lat="36.09084305555555" lon="132.98166305555554">
<ele>6</ele>
</trkpt>
<trkpt lat="36.090735" lon="132.98163805555555">
<ele>6</ele>
</trkpt>
<trkpt lat="36.09064305555555" lon="132.98163805555555">
<ele>6</ele>
</trkpt>
<trkpt lat="36.090518055555556" lon="132.9817011111111">
<ele>6</ele>
</trkpt>
<trkpt lat="36.09032611111111" lon="132.98188805555554">
<ele>7</ele>
</trkpt>
<trkpt lat="36.09007611111111" lon="132.98210111111112">
<ele>4</ele>
</trkpt>
<trkpt lat="36.08996805555556" lon="132.98213805555557">
<ele>2</ele>
</trkpt>
<trkpt lat="36.089885" lon="132.98213805555557">
<ele>3</ele>
</trkpt>
<trkpt lat="36.089443055555556" lon="132.98187611111112">
<ele>3</ele>
</trkpt>
<trkpt lat="36.08929305555556" lon="132.9817261111111">
<ele>2</ele>
</trkpt>
<trkpt lat="36.08926805555556" lon="132.98165111111112">
<ele>4</ele>
</trkpt>
<trkpt lat="36.08924611111111" lon="132.9813188888889">
<ele>7</ele>
</trkpt>
<trkpt lat="36.08924611111111" lon="132.9813188888889">
<ele>7</ele>
</trkpt>
<trkpt lat="36.089243055555556" lon="132.9812761111111">
<ele>7</ele>
</trkpt>
<trkpt lat="36.08920111111111" lon="132.98042611111111">
<ele>6</ele>
</trkpt>
<trkpt lat="36.089135" lon="132.9799138888889">
<ele>7</ele>
</trkpt>
<trkpt lat="36.08911" lon="132.9795511111111">
<ele>5</ele>
</trkpt>
<trkpt lat="36.08901" lon="132.9793011111111">
<ele>6</ele>
</trkpt>
<trkpt lat="36.08862611111111" lon="132.97895111111112">
<ele>2</ele>
</trkpt>
<trkpt lat="36.08855111111111" lon="132.97891388888888">
<ele>1</ele>
</trkpt>
<trkpt lat="36.088518055555554" lon="132.9789011111111">
<ele>1</ele>
</trkpt>
<trkpt lat="36.088385" lon="132.97891388888888">
<ele>1</ele>
</trkpt>
<trkpt lat="36.08822694444444" lon="132.9789761111111">
<ele>1</ele>
</trkpt>
<trkpt lat="36.087626944444445" lon="132.97937611111112">
<ele>5</ele>
</trkpt>
<trkpt lat="36.08746" lon="132.9794761111111">
<ele>3</ele>
</trkpt>
<trkpt lat="36.086935" lon="132.97958888888888">
<ele>3</ele>
</trkpt>
<trkpt lat="36.08672694444444" lon="132.97958888888888">
<ele>4</ele>
</trkpt>
<trkpt lat="36.086643055555555" lon="132.97962611111112">
<ele>7</ele>
</trkpt>
<trkpt lat="36.086393055555554" lon="132.9801011111111">
<ele>6</ele>
</trkpt>
<trkpt lat="36.08626" lon="132.9802138888889">
<ele>5</ele>
</trkpt>
<trkpt lat="36.086185" lon="132.9802138888889">
<ele>5</ele>
</trkpt>
<trkpt lat="36.085735" lon="132.9799138888889">
<ele>5</ele>
</trkpt>
<trkpt lat="36.08562694444444" lon="132.9797888888889">
<ele>4</ele>
</trkpt>
<trkpt lat="36.08560194444444" lon="132.9796888888889">
<ele>6</ele>
</trkpt>
<trkpt lat="36.08560194444444" lon="132.9794388888889">
<ele>7</ele>
</trkpt>
<trkpt lat="36.08561" lon="132.9793388888889">
<ele>7</ele>
</trkpt>
<trkpt lat="36.085726944444446" lon="132.97881388888888">
<ele>7</ele>
</trkpt>
<trkpt lat="36.085726944444446" lon="132.9786638888889">
<ele>4</ele>
</trkpt>
<trkpt lat="36.08564305555556" lon="132.97825111111112">
<ele>0</ele>
</trkpt>
<trkpt lat="36.085535" lon="132.9778511111111">
<ele>4</ele>
</trkpt>
<trkpt lat="36.08549305555555" lon="132.9775388888889">
<ele>5</ele>
</trkpt>
<trkpt lat="36.08544305555556" lon="132.97700111111112">
<ele>2</ele>
</trkpt>
<trkpt lat="36.08541" lon="132.9769138888889">
<ele>3</ele>
</trkpt>
<trkpt lat="36.08526888888889" lon="132.9768138888889">
<ele>4</ele>
</trkpt>
<trkpt lat="36.08471888888889" lon="132.97643888888888">
<ele>3</ele>
</trkpt>
<trkpt lat="36.084745" lon="132.97636">
<ele>3</ele>
</trkpt>
<trkpt lat="36.084745" lon="132.97636">
<ele>3</ele>
</trkpt>
<trkpt lat="36.08490194444445" lon="132.97588888888887">
<ele>6</ele>
</trkpt>
<trkpt lat="36.08492694444445" lon="132.97570194444444">
<ele>7</ele>
</trkpt>
<trkpt lat="36.08492694444445" lon="132.9755888888889">
<ele>8</ele>
</trkpt>
<trkpt lat="36.084876944444446" lon="132.97541388888888">
<ele>8</ele>
</trkpt>
<trkpt lat="36.08471888888889" lon="132.97485194444445">
<ele>14</ele>
</trkpt>
<trkpt lat="36.08466888888889" lon="132.9744638888889">
<ele>13</ele>
</trkpt>
<trkpt lat="36.08466888888889" lon="132.97426388888888">
<ele>13</ele>
</trkpt>
<trkpt lat="36.08470194444445" lon="132.9740138888889">
<ele>14</ele>
</trkpt>
<trkpt lat="36.08481" lon="132.97357694444443">
<ele>16</ele>
</trkpt>
<trkpt lat="36.08486" lon="132.97336388888888">
<ele>19</ele>
</trkpt>
<trkpt lat="36.084893055555554" lon="132.97326388888888">
<ele>21</ele>
</trkpt>
<trkpt lat="36.084943055555556" lon="132.9731888888889">
<ele>22</ele>
</trkpt>
<trkpt lat="36.08501" lon="132.97312694444443">
<ele>24</ele>
</trkpt>
<trkpt lat="36.085093055555554" lon="132.97312694444443">
<ele>24</ele>
</trkpt>
<trkpt lat="36.08540194444444" lon="132.97325194444446">
<ele>32</ele>
</trkpt>
<trkpt lat="36.085685" lon="132.9733138888889">
<ele>34</ele>
</trkpt>
<trkpt lat="36.085726944444446" lon="132.97327694444445">
<ele>34</ele>
</trkpt>
<trkpt lat="36.085726944444446" lon="132.97315194444445">
<ele>37</ele>
</trkpt>
<trkpt lat="36.08566" lon="132.9729888888889">
<ele>43</ele>
</trkpt>
<trkpt lat="36.085368055555556" lon="132.9723888888889">
<ele>49</ele>
</trkpt>
<trkpt lat="36.08531" lon="132.9721638888889">
<ele>54</ele>
</trkpt>
<trkpt lat="36.085251944444444" lon="132.97201388888888">
<ele>55</ele>
</trkpt>
<trkpt lat="36.08519305555556" lon="132.97192694444445">
<ele>53</ele>
</trkpt>
<trkpt lat="36.08511" lon="132.9718638888889">
<ele>55</ele>
</trkpt>
<trkpt lat="36.08496805555556" lon="132.9718138888889">
<ele>55</ele>
</trkpt>
<trkpt lat="36.084893055555554" lon="132.97185194444444">
<ele>55</ele>
</trkpt>
<trkpt lat="36.08476" lon="132.97197694444444">
<ele>60</ele>
</trkpt>
<trkpt lat="36.084718055555555" lon="132.97205194444444">
<ele>62</ele>
</trkpt>
<trkpt lat="36.084635" lon="132.97235194444445">
<ele>63</ele>
</trkpt>
<trkpt lat="36.08455194444444" lon="132.9724388888889">
<ele>65</ele>
</trkpt>
<trkpt lat="36.08451" lon="132.97245194444446">
<ele>62</ele>
</trkpt>
<trkpt lat="36.084201944444445" lon="132.97248888888888">
<ele>72</ele>
</trkpt>
<trkpt lat="36.08412694444444" lon="132.9725388888889">
<ele>72</ele>
</trkpt>
<trkpt lat="36.084068888888886" lon="132.97265194444444">
<ele>74</ele>
</trkpt>
<trkpt lat="36.084026944444446" lon="132.9728388888889">
<ele>74</ele>
</trkpt>
<trkpt lat="36.084026944444446" lon="132.9730138888889">
<ele>73</ele>
</trkpt>
<trkpt lat="36.083985" lon="132.9732138888889">
<ele>76</ele>
</trkpt>
<trkpt lat="36.083935" lon="132.97330194444444">
<ele>75</ele>
</trkpt>
<trkpt lat="36.08386" lon="132.9733388888889">
<ele>74</ele>
</trkpt>
<trkpt lat="36.08379388888889" lon="132.9733388888889">
<ele>74</ele>
</trkpt>
<trkpt lat="36.08372694444444" lon="132.9733138888889">
<ele>75</ele>
</trkpt>
<trkpt lat="36.08366888888889" lon="132.9732388888889">
<ele>75</ele>
</trkpt>
<trkpt lat="36.08356" lon="132.97305194444445">
<ele>78</ele>
</trkpt>
<trkpt lat="36.08334388888889" lon="132.97267694444446">
<ele>84</ele>
</trkpt>
<trkpt lat="36.08321888888889" lon="132.97250194444445">
<ele>83</ele>
</trkpt>
<trkpt lat="36.08276" lon="132.97211388888888">
<ele>92</ele>
</trkpt>
<trkpt lat="36.08265194444444" lon="132.97205194444444">
<ele>96</ele>
</trkpt>
<trkpt lat="36.082585" lon="132.97207694444444">
<ele>96</ele>
</trkpt>
<trkpt lat="36.08249388888889" lon="132.972115">
<ele>103</ele>
</trkpt>
<trkpt lat="36.08242694444444" lon="132.9722138888889">
<ele>109</ele>
</trkpt>
<trkpt lat="36.08229388888889" lon="132.97258888888888">
<ele>105</ele>
</trkpt>
<trkpt lat="36.08216888888889" lon="132.97278888888889">
<ele>104</ele>
</trkpt>
<trkpt lat="36.08204388888889" lon="132.9728888888889">
<ele>103</ele>
</trkpt>
<trkpt lat="36.08194388888889" lon="132.9728888888889">
<ele>101</ele>
</trkpt>
<trkpt lat="36.081651944444445" lon="132.97260194444445">
<ele>105</ele>
</trkpt>
<trkpt lat="36.081493888888886" lon="132.97250194444445">
<ele>111</ele>
</trkpt>
<trkpt lat="36.081361111111114" lon="132.972515">
<ele>115</ele>
</trkpt>
<trkpt lat="36.08111111111111" lon="132.97265194444444">
<ele>117</ele>
</trkpt>
<trkpt lat="36.08078611111111" lon="132.97284">
<ele>120</ele>
</trkpt>
<trkpt lat="36.08036111111111" lon="132.97294">
<ele>124</ele>
</trkpt>
<trkpt lat="36.08026888888889" lon="132.973015">
<ele>123</ele>
</trkpt>
<trkpt lat="36.080193888888886" lon="132.973115">
<ele>127</ele>
</trkpt>
<trkpt lat="36.080151944444445" lon="132.97339">
<ele>129</ele>
</trkpt>
<trkpt lat="36.08007694444444" lon="132.9735138888889">
<ele>135</ele>
</trkpt>
<trkpt lat="36.079861111111114" lon="132.97358888888888">
<ele>142</ele>
</trkpt>
<trkpt lat="36.07969388888889" lon="132.97357694444443">
<ele>142</ele>
</trkpt>
<trkpt lat="36.07954388888889" lon="132.97349">
<ele>143</ele>
</trkpt>
<trkpt lat="36.07946888888889" lon="132.97340194444445">
<ele>146</ele>
</trkpt>
<trkpt lat="36.07933611111111" lon="132.973215">
<ele>151</ele>
</trkpt>
<trkpt lat="36.07863611111111" lon="132.97255194444443">
<ele>154</ele>
</trkpt>
<trkpt lat="36.078583888888886" lon="132.97251194444445">
<ele>154</ele>
</trkpt>
<trkpt lat="36.078583888888886" lon="132.97251111111112">
<ele>154</ele>
</trkpt>
<trkpt lat="36.07863611111111" lon="132.97255194444443">
<ele>154</ele>
</trkpt>
<trkpt lat="36.078786111111114" lon="132.97242694444444">
<ele>156</ele>
</trkpt>
<trkpt lat="36.07896888888889" lon="132.97235194444445">
<ele>160</ele>
</trkpt>
<trkpt lat="36.07902694444444" lon="132.97227694444445">
<ele>166</ele>
</trkpt>
<trkpt lat="36.07918611111111" lon="132.97199">
<ele>167</ele>
</trkpt>
<trkpt lat="36.07922694444444" lon="132.97179">
<ele>169</ele>
</trkpt>
<trkpt lat="36.07926111111111" lon="132.971215">
<ele>166</ele>
</trkpt>
<trkpt lat="36.07933611111111" lon="132.97100194444445">
<ele>168</ele>
</trkpt>
<trkpt lat="36.07942694444444" lon="132.97085194444443">
<ele>168</ele>
</trkpt>
<trkpt lat="36.079526944444446" lon="132.97079">
<ele>171</ele>
</trkpt>
<trkpt lat="36.079701944444444" lon="132.97077694444445">
<ele>173</ele>
</trkpt>
<trkpt lat="36.07981111111111" lon="132.970815">
<ele>175</ele>
</trkpt>
<trkpt lat="36.07994388888889" lon="132.970915">
<ele>175</ele>
</trkpt>
<trkpt lat="36.08031888888889" lon="132.97125194444445">
<ele>177</ele>
</trkpt>
<trkpt lat="36.08044388888889" lon="132.97130194444443">
<ele>176</ele>
</trkpt>
<trkpt lat="36.080551944444444" lon="132.971315">
<ele>175</ele>
</trkpt>
<trkpt lat="36.08066888888889" lon="132.97130194444443">
<ele>178</ele>
</trkpt>
<trkpt lat="36.080826944444446" lon="132.97122694444445">
<ele>181</ele>
</trkpt>
<trkpt lat="36.08092694444444" lon="132.97114">
<ele>183</ele>
</trkpt>
<trkpt lat="36.08116" lon="132.97090194444445">
<ele>187</ele>
</trkpt>
<trkpt lat="36.081335" lon="132.97080194444445">
<ele>189</ele>
</trkpt>
<trkpt lat="36.081485" lon="132.97074">
<ele>190</ele>
</trkpt>
<trkpt lat="36.08164388888889" lon="132.970715">
<ele>192</ele>
</trkpt>
<trkpt lat="36.08196" lon="132.97070194444444">
<ele>194</ele>
</trkpt>
<trkpt lat="36.082143888888886" lon="132.97067694444445">
<ele>197</ele>
</trkpt>
<trkpt lat="36.08235194444445" lon="132.97059">
<ele>199</ele>
</trkpt>
<trkpt lat="36.08291" lon="132.97032694444445">
<ele>206</ele>
</trkpt>
<trkpt lat="36.08307694444444" lon="132.970215">
<ele>209</ele>
</trkpt>
<trkpt lat="36.083185" lon="132.97010194444445">
<ele>211</ele>
</trkpt>
<trkpt lat="36.08329388888889" lon="132.96992694444444">
<ele>211</ele>
</trkpt>
<trkpt lat="36.083385" lon="132.969715">
<ele>215</ele>
</trkpt>
<trkpt lat="36.08342694444445" lon="132.96952694444445">
<ele>218</ele>
</trkpt>
<trkpt lat="36.08346" lon="132.96932694444445">
<ele>223</ele>
</trkpt>
<trkpt lat="36.083576944444445" lon="132.967865">
<ele>238</ele>
</trkpt>
<trkpt lat="36.083585" lon="132.96765194444444">
<ele>245</ele>
</trkpt>
<trkpt lat="36.083618055555554" lon="132.96740194444445">
<ele>247</ele>
</trkpt>
<trkpt lat="36.083668055555556" lon="132.96727694444445">
<ele>245</ele>
</trkpt>
<trkpt lat="36.08376" lon="132.96719">
<ele>244</ele>
</trkpt>
<trkpt lat="36.083885" lon="132.96714">
<ele>241</ele>
</trkpt>
<trkpt lat="36.08399305555555" lon="132.96712805555555">
<ele>240</ele>
</trkpt>
<trkpt lat="36.084293055555555" lon="132.96720305555556">
<ele>237</ele>
</trkpt>
<trkpt lat="36.08441" lon="132.96722805555555">
<ele>238</ele>
</trkpt>
<trkpt lat="36.08451" lon="132.96724">
<ele>237</ele>
</trkpt>
<trkpt lat="36.084693055555555" lon="132.96717694444445">
<ele>234</ele>
</trkpt>
<trkpt lat="36.08499305555556" lon="132.96704">
<ele>234</ele>
</trkpt>
<trkpt lat="36.085085" lon="132.966965">
<ele>236</ele>
</trkpt>
<trkpt lat="36.08515194444445" lon="132.96687805555555">
<ele>238</ele>
</trkpt>
<trkpt lat="36.08524305555556" lon="132.96670305555554">
<ele>240</ele>
</trkpt>
<trkpt lat="36.085285" lon="132.96652694444444">
<ele>236</ele>
</trkpt>
<trkpt lat="36.085285" lon="132.96634">
<ele>234</ele>
</trkpt>
<trkpt lat="36.08522694444444" lon="132.96507805555555">
<ele>236</ele>
</trkpt>
<trkpt lat="36.08526" lon="132.96489">
<ele>236</ele>
</trkpt>
<trkpt lat="36.08532611111111" lon="132.96472805555555">
<ele>235</ele>
</trkpt>
<trkpt lat="36.08541" lon="132.96457805555556">
<ele>236</ele>
</trkpt>
<trkpt lat="36.08551805555555" lon="132.964465">
<ele>235</ele>
</trkpt>
<trkpt lat="36.08589305555556" lon="132.96414">
<ele>230</ele>
</trkpt>
<trkpt lat="36.08601" lon="132.96402805555556">
<ele>228</ele>
</trkpt>
<trkpt lat="36.086135" lon="132.963865">
<ele>223</ele>
</trkpt>
<trkpt lat="36.08626805555556" lon="132.96362805555555">
<ele>216</ele>
</trkpt>
<trkpt lat="36.08632611111111" lon="132.963465">
<ele>215</ele>
</trkpt>
<trkpt lat="36.086393055555554" lon="132.96319">
<ele>212</ele>
</trkpt>
<trkpt lat="36.08671" lon="132.96200305555556">
<ele>216</ele>
</trkpt>
<trkpt lat="36.08676805555555" lon="132.96179">
<ele>217</ele>
</trkpt>
<trkpt lat="36.08711805555556" lon="132.96114111111112">
<ele>216</ele>
</trkpt>
<trkpt lat="36.08723388888889" lon="132.9608661111111">
<ele>211</ele>
</trkpt>
<trkpt lat="36.087226111111114" lon="132.96057805555554">
<ele>209</ele>
</trkpt>
<trkpt lat="36.087243055555554" lon="132.9604911111111">
<ele>208</ele>
</trkpt>
<trkpt lat="36.08728388888889" lon="132.9603911111111">
<ele>206</ele>
</trkpt>
<trkpt lat="36.08738388888889" lon="132.9603161111111">
<ele>206</ele>
</trkpt>
<trkpt lat="36.08741805555555" lon="132.9603161111111">
<ele>206</ele>
</trkpt>
<trkpt lat="36.08741805555555" lon="132.9603161111111">
<ele>206</ele>
</trkpt>
<trkpt lat="36.08745111111111" lon="132.96034111111112">
<ele>203</ele>
</trkpt>
<trkpt lat="36.08750111111111" lon="132.96042805555555">
<ele>203</ele>
</trkpt>
<trkpt lat="36.087493055555555" lon="132.9604911111111">
<ele>203</ele>
</trkpt>
<trkpt lat="36.087468055555554" lon="132.96056611111112">
<ele>204</ele>
</trkpt>
<trkpt lat="36.08739305555556" lon="132.96070305555557">
<ele>207</ele>
</trkpt>
<trkpt lat="36.08732611111111" lon="132.96080305555554">
<ele>211</ele>
</trkpt>
<trkpt lat="36.08723388888889" lon="132.9608661111111">
<ele>211</ele>
</trkpt>
<trkpt lat="36.08711805555556" lon="132.96114111111112">
<ele>216</ele>
</trkpt>
<trkpt lat="36.087020555555554" lon="132.96132194444445">
<ele>217</ele>
</trkpt>
<trkpt lat="36.087020555555554" lon="132.96132194444445">
<ele>217</ele>
</trkpt>
<trkpt lat="36.08676805555555" lon="132.96179">
<ele>217</ele>
</trkpt>
<trkpt lat="36.08671" lon="132.96200305555556">
<ele>216</ele>
</trkpt>
<trkpt lat="36.086393055555554" lon="132.96319">
<ele>212</ele>
</trkpt>
<trkpt lat="36.08632611111111" lon="132.963465">
<ele>215</ele>
</trkpt>
<trkpt lat="36.08626805555556" lon="132.96362805555555">
<ele>216</ele>
</trkpt>
<trkpt lat="36.086135" lon="132.963865">
<ele>223</ele>
</trkpt>
<trkpt lat="36.08601" lon="132.96402805555556">
<ele>228</ele>
</trkpt>
<trkpt lat="36.08589305555556" lon="132.96414">
<ele>230</ele>
</trkpt>
<trkpt lat="36.08551805555555" lon="132.964465">
<ele>235</ele>
</trkpt>
<trkpt lat="36.08541" lon="132.96457805555556">
<ele>236</ele>
</trkpt>
<trkpt lat="36.08532611111111" lon="132.96472805555555">
<ele>235</ele>
</trkpt>
<trkpt lat="36.08526" lon="132.96489">
<ele>236</ele>
</trkpt>
<trkpt lat="36.08522694444444" lon="132.96507805555555">
<ele>236</ele>
</trkpt>
<trkpt lat="36.085285" lon="132.96634">
<ele>234</ele>
</trkpt>
<trkpt lat="36.085285" lon="132.96652694444444">
<ele>236</ele>
</trkpt>
<trkpt lat="36.08524305555556" lon="132.96670305555554">
<ele>240</ele>
</trkpt>
<trkpt lat="36.08515194444445" lon="132.96687805555555">
<ele>238</ele>
</trkpt>
<trkpt lat="36.085085" lon="132.966965">
<ele>236</ele>
</trkpt>
<trkpt lat="36.08499305555556" lon="132.96704">
<ele>234</ele>
</trkpt>
<trkpt lat="36.084693055555555" lon="132.96717694444445">
<ele>234</ele>
</trkpt>
<trkpt lat="36.08451" lon="132.96724">
<ele>237</ele>
</trkpt>
<trkpt lat="36.08441" lon="132.96722805555555">
<ele>238</ele>
</trkpt>
<trkpt lat="36.084293055555555" lon="132.96720305555556">
<ele>237</ele>
</trkpt>
<trkpt lat="36.08399305555555" lon="132.96712805555555">
<ele>240</ele>
</trkpt>
<trkpt lat="36.083885" lon="132.96714">
<ele>241</ele>
</trkpt>
<trkpt lat="36.08376" lon="132.96719">
<ele>244</ele>
</trkpt>
<trkpt lat="36.083668055555556" lon="132.96727694444445">
<ele>245</ele>
</trkpt>
<trkpt lat="36.083618055555554" lon="132.96740194444445">
<ele>247</ele>
</trkpt>
<trkpt lat="36.083585" lon="132.96765194444444">
<ele>245</ele>
</trkpt>
<trkpt lat="36.083576944444445" lon="132.967865">
<ele>238</ele>
</trkpt>
<trkpt lat="36.08346" lon="132.96932694444445">
<ele>223</ele>
</trkpt>
<trkpt lat="36.08342694444445" lon="132.96952694444445">
<ele>218</ele>
</trkpt>
<trkpt lat="36.083385" lon="132.969715">
<ele>215</ele>
</trkpt>
<trkpt lat="36.08329388888889" lon="132.96992694444444">
<ele>211</ele>
</trkpt>
<trkpt lat="36.083185" lon="132.97010194444445">
<ele>211</ele>
</trkpt>
<trkpt lat="36.08307694444444" lon="132.970215">
<ele>209</ele>
</trkpt>
<trkpt lat="36.08291" lon="132.97032694444445">
<ele>206</ele>
</trkpt>
<trkpt lat="36.08235194444445" lon="132.97059">
<ele>199</ele>
</trkpt>
<trkpt lat="36.082143888888886" lon="132.97067694444445">
<ele>197</ele>
</trkpt>
<trkpt lat="36.08196" lon="132.97070194444444">
<ele>194</ele>
</trkpt>
<trkpt lat="36.08164388888889" lon="132.970715">
<ele>192</ele>
</trkpt>
<trkpt lat="36.081485" lon="132.97074">
<ele>190</ele>
</trkpt>
<trkpt lat="36.081335" lon="132.97080194444445">
<ele>189</ele>
</trkpt>
<trkpt lat="36.08116" lon="132.97090194444445">
<ele>187</ele>
</trkpt>
<trkpt lat="36.08092694444444" lon="132.97114">
<ele>183</ele>
</trkpt>
<trkpt lat="36.080826944444446" lon="132.97122694444445">
<ele>181</ele>
</trkpt>
<trkpt lat="36.08066888888889" lon="132.97130194444443">
<ele>178</ele>
</trkpt>
<trkpt lat="36.080551944444444" lon="132.971315">
<ele>175</ele>
</trkpt>
<trkpt lat="36.08044388888889" lon="132.97130194444443">
<ele>176</ele>
</trkpt>
<trkpt lat="36.08031888888889" lon="132.97125194444445">
<ele>177</ele>
</trkpt>
<trkpt lat="36.07994388888889" lon="132.970915">
<ele>175</ele>
</trkpt>
<trkpt lat="36.07981111111111" lon="132.970815">
<ele>175</ele>
</trkpt>
<trkpt lat="36.079701944444444" lon="132.97077694444445">
<ele>173</ele>
</trkpt>
<trkpt lat="36.079526944444446" lon="132.97079">
<ele>171</ele>
</trkpt>
<trkpt lat="36.07942694444444" lon="132.97085194444443">
<ele>168</ele>
</trkpt>
<trkpt lat="36.07933611111111" lon="132.97100194444445">
<ele>168</ele>
</trkpt>
<trkpt lat="36.07926111111111" lon="132.971215">
<ele>166</ele>
</trkpt>
<trkpt lat="36.07922694444444" lon="132.97179">
<ele>169</ele>
</trkpt>
<trkpt lat="36.07918611111111" lon="132.97199">
<ele>167</ele>
</trkpt>
<trkpt lat="36.07902694444444" lon="132.97227694444445">
<ele>166</ele>
</trkpt>
<trkpt lat="36.07896888888889" lon="132.97235194444445">
<ele>160</ele>
</trkpt>
<trkpt lat="36.078786111111114" lon="132.97242694444444">
<ele>156</ele>
</trkpt>
<trkpt lat="36.07863611111111" lon="132.97255194444443">
<ele>154</ele>
</trkpt>
<trkpt lat="36.07933611111111" lon="132.973215">
<ele>151</ele>
</trkpt>
<trkpt lat="36.07946888888889" lon="132.97340194444445">
<ele>146</ele>
</trkpt>
<trkpt lat="36.07954388888889" lon="132.97349">
<ele>143</ele>
</trkpt>
<trkpt lat="36.07969388888889" lon="132.97357694444443">
<ele>142</ele>
</trkpt>
<trkpt lat="36.079861111111114" lon="132.97358888888888">
<ele>142</ele>
</trkpt>
<trkpt lat="36.08007694444444" lon="132.9735138888889">
<ele>135</ele>
</trkpt>
<trkpt lat="36.080151944444445" lon="132.97339">
<ele>129</ele>
</trkpt>
<trkpt lat="36.080193888888886" lon="132.973115">
<ele>127</ele>
</trkpt>
<trkpt lat="36.08026888888889" lon="132.973015">
<ele>123</ele>
</trkpt>
<trkpt lat="36.08036111111111" lon="132.97294">
<ele>124</ele>
</trkpt>
<trkpt lat="36.08078611111111" lon="132.97284">
<ele>120</ele>
</trkpt>
<trkpt lat="36.08111111111111" lon="132.97265194444444">
<ele>117</ele>
</trkpt>
<trkpt lat="36.081361111111114" lon="132.972515">
<ele>115</ele>
</trkpt>
<trkpt lat="36.081493888888886" lon="132.97250194444445">
<ele>111</ele>
</trkpt>
<trkpt lat="36.081651944444445" lon="132.97260194444445">
<ele>105</ele>
</trkpt>
<trkpt lat="36.08194388888889" lon="132.9728888888889">
<ele>101</ele>
</trkpt>
<trkpt lat="36.08204388888889" lon="132.9728888888889">
<ele>103</ele>
</trkpt>
<trkpt lat="36.08216888888889" lon="132.97278888888889">
<ele>104</ele>
</trkpt>
<trkpt lat="36.08229388888889" lon="132.97258888888888">
<ele>105</ele>
</trkpt>
<trkpt lat="36.08242694444444" lon="132.9722138888889">
<ele>109</ele>
</trkpt>
<trkpt lat="36.08249388888889" lon="132.972115">
<ele>103</ele>
</trkpt>
<trkpt lat="36.082585" lon="132.97207694444444">
<ele>96</ele>
</trkpt>
<trkpt lat="36.08265194444444" lon="132.97205194444444">
<ele>96</ele>
</trkpt>
<trkpt lat="36.08276" lon="132.97211388888888">
<ele>92</ele>
</trkpt>
<trkpt lat="36.08321888888889" lon="132.97250194444445">
<ele>83</ele>
</trkpt>
<trkpt lat="36.08334388888889" lon="132.97267694444446">
<ele>84</ele>
</trkpt>
<trkpt lat="36.08356" lon="132.97305194444445">
<ele>78</ele>
</trkpt>
<trkpt lat="36.08366888888889" lon="132.9732388888889">
<ele>75</ele>
</trkpt>
<trkpt lat="36.08372694444444" lon="132.9733138888889">
<ele>75</ele>
</trkpt>
<trkpt lat="36.08379388888889" lon="132.9733388888889">
<ele>74</ele>
</trkpt>
<trkpt lat="36.08386" lon="132.9733388888889">
<ele>74</ele>
</trkpt>
<trkpt lat="36.083935" lon="132.97330194444444">
<ele>75</ele>
</trkpt>
<trkpt lat="36.083985" lon="132.9732138888889">
<ele>76</ele>
</trkpt>
<trkpt lat="36.084026944444446" lon="132.9730138888889">
<ele>73</ele>
</trkpt>
<trkpt lat="36.084026944444446" lon="132.9728388888889">
<ele>74</ele>
</trkpt>
<trkpt lat="36.084068888888886" lon="132.97265194444444">
<ele>74</ele>
</trkpt>
<trkpt lat="36.08412694444444" lon="132.9725388888889">
<ele>72</ele>
</trkpt>
<trkpt lat="36.084201944444445" lon="132.97248888888888">
<ele>72</ele>
</trkpt>
<trkpt lat="36.08451" lon="132.97245194444446">
<ele>62</ele>
</trkpt>
<trkpt lat="36.08455194444444" lon="132.9724388888889">
<ele>65</ele>
</trkpt>
<trkpt lat="36.084635" lon="132.97235194444445">
<ele>63</ele>
</trkpt>
<trkpt lat="36.084718055555555" lon="132.97205194444444">
<ele>62</ele>
</trkpt>
<trkpt lat="36.08476" lon="132.97197694444444">
<ele>60</ele>
</trkpt>
<trkpt lat="36.084893055555554" lon="132.97185194444444">
<ele>55</ele>
</trkpt>
<trkpt lat="36.08496805555556" lon="132.9718138888889">
<ele>55</ele>
</trkpt>
<trkpt lat="36.08511" lon="132.9718638888889">
<ele>55</ele>
</trkpt>
<trkpt lat="36.08519305555556" lon="132.97192694444445">
<ele>53</ele>
</trkpt>
<trkpt lat="36.085251944444444" lon="132.97201388888888">
<ele>55</ele>
</trkpt>
<trkpt lat="36.08531" lon="132.9721638888889">
<ele>54</ele>
</trkpt>
<trkpt lat="36.085368055555556" lon="132.9723888888889">
<ele>49</ele>
</trkpt>
<trkpt lat="36.08566" lon="132.9729888888889">
<ele>43</ele>
</trkpt>
<trkpt lat="36.085726944444446" lon="132.97315194444445">
<ele>37</ele>
</trkpt>
<trkpt lat="36.085726944444446" lon="132.97327694444445">
<ele>34</ele>
</trkpt>
<trkpt lat="36.085685" lon="132.9733138888889">
<ele>34</ele>
</trkpt>
<trkpt lat="36.08540194444444" lon="132.97325194444446">
<ele>32</ele>
</trkpt>
<trkpt lat="36.085093055555554" lon="132.97312694444443">
<ele>24</ele>
</trkpt>
<trkpt lat="36.08501" lon="132.97312694444443">
<ele>24</ele>
</trkpt>
<trkpt lat="36.084943055555556" lon="132.9731888888889">
<ele>22</ele>
</trkpt>
<trkpt lat="36.084893055555554" lon="132.97326388888888">
<ele>21</ele>
</trkpt>
<trkpt lat="36.08486" lon="132.97336388888888">
<ele>19</ele>
</trkpt>
<trkpt lat="36.08481" lon="132.97357694444443">
<ele>16</ele>
</trkpt>
<trkpt lat="36.08470194444445" lon="132.9740138888889">
<ele>14</ele>
</trkpt>
<trkpt lat="36.08466888888889" lon="132.97426388888888">
<ele>13</ele>
</trkpt>
<trkpt lat="36.08466888888889" lon="132.9744638888889">
<ele>13</ele>
</trkpt>
<trkpt lat="36.08471888888889" lon="132.97485194444445">
<ele>14</ele>
</trkpt>
<trkpt lat="36.084876944444446" lon="132.97541388888888">
<ele>8</ele>
</trkpt>
<trkpt lat="36.08492694444445" lon="132.9755888888889">
<ele>8</ele>
</trkpt>
<trkpt lat="36.08492694444445" lon="132.97570194444444">
<ele>7</ele>
</trkpt>
<trkpt lat="36.08490194444445" lon="132.97588888888887">
<ele>6</ele>
</trkpt>
<trkpt lat="36.08471888888889" lon="132.97643888888888">
<ele>3</ele>
</trkpt>
<trkpt lat="36.08526888888889" lon="132.9768138888889">
<ele>4</ele>
</trkpt>
<trkpt lat="36.08541" lon="132.9769138888889">
<ele>3</ele>
</trkpt>
<trkpt lat="36.08544305555556" lon="132.97700111111112">
<ele>2</ele>
</trkpt>
<trkpt lat="36.08549305555555" lon="132.9775388888889">
<ele>5</ele>
</trkpt>
<trkpt lat="36.085535" lon="132.9778511111111">
<ele>4</ele>
</trkpt>
<trkpt lat="36.08564305555556" lon="132.97825111111112">
<ele>0</ele>
</trkpt>
<trkpt lat="36.085726944444446" lon="132.9786638888889">
<ele>4</ele>
</trkpt>
<trkpt lat="36.085726944444446" lon="132.97881388888888">
<ele>7</ele>
</trkpt>
<trkpt lat="36.08561" lon="132.9793388888889">
<ele>7</ele>
</trkpt>
<trkpt lat="36.08560194444444" lon="132.9794388888889">
<ele>7</ele>
</trkpt>
<trkpt lat="36.08560194444444" lon="132.9796888888889">
<ele>6</ele>
</trkpt>
<trkpt lat="36.08562694444444" lon="132.9797888888889">
<ele>4</ele>
</trkpt>
<trkpt lat="36.085735" lon="132.9799138888889">
<ele>5</ele>
</trkpt>
<trkpt lat="36.08601111111111" lon="132.98009694444445">
<ele>5</ele>
</trkpt>
<trkpt lat="36.08601111111111" lon="132.98009694444445">
<ele>5</ele>
</trkpt>
<trkpt lat="36.086185" lon="132.9802138888889">
<ele>5</ele>
</trkpt>
<trkpt lat="36.08626" lon="132.9802138888889">
<ele>5</ele>
</trkpt>
<trkpt lat="36.086393055555554" lon="132.9801011111111">
<ele>6</ele>
</trkpt>
<trkpt lat="36.086643055555555" lon="132.97962611111112">
<ele>7</ele>
</trkpt>
<trkpt lat="36.08672694444444" lon="132.97958888888888">
<ele>4</ele>
</trkpt>
<trkpt lat="36.086935" lon="132.97958888888888">
<ele>3</ele>
</trkpt>
<trkpt lat="36.08746" lon="132.9794761111111">
<ele>3</ele>
</trkpt>
<trkpt lat="36.087626944444445" lon="132.97937611111112">
<ele>5</ele>
</trkpt>
<trkpt lat="36.08822694444444" lon="132.9789761111111">
<ele>1</ele>
</trkpt>
<trkpt lat="36.088385" lon="132.97891388888888">
<ele>1</ele>
</trkpt>
<trkpt lat="36.088518055555554" lon="132.9789011111111">
<ele>1</ele>
</trkpt>
<trkpt lat="36.08855111111111" lon="132.97891388888888">
<ele>1</ele>
</trkpt>
<trkpt lat="36.08862611111111" lon="132.97895111111112">
<ele>2</ele>
</trkpt>
<trkpt lat="36.08901" lon="132.9793011111111">
<ele>6</ele>
</trkpt>
<trkpt lat="36.08911" lon="132.9795511111111">
<ele>5</ele>
</trkpt>
<trkpt lat="36.089135" lon="132.9799138888889">
<ele>7</ele>
</trkpt>
<trkpt lat="36.08920111111111" lon="132.98042611111111">
<ele>6</ele>
</trkpt>
<trkpt lat="36.089243055555556" lon="132.9812761111111">
<ele>7</ele>
</trkpt>
<trkpt lat="36.08926805555556" lon="132.98165111111112">
<ele>4</ele>
</trkpt>
<trkpt lat="36.08929305555556" lon="132.9817261111111">
<ele>2</ele>
</trkpt>
<trkpt lat="36.089443055555556" lon="132.98187611111112">
<ele>3</ele>
</trkpt>
<trkpt lat="36.089885" lon="132.98213805555557">
<ele>3</ele>
</trkpt>
<trkpt lat="36.08996805555556" lon="132.98213805555557">
<ele>2</ele>
</trkpt>
<trkpt lat="36.09007611111111" lon="132.98210111111112">
<ele>4</ele>
</trkpt>
<trkpt lat="36.09032611111111" lon="132.98188805555554">
<ele>7</ele>
</trkpt>
<trkpt lat="36.090518055555556" lon="132.9817011111111">
<ele>6</ele>
</trkpt>
<trkpt lat="36.09064305555555" lon="132.98163805555555">
<ele>6</ele>
</trkpt>
<trkpt lat="36.090735" lon="132.98163805555555">
<ele>6</ele>
</trkpt>
<trkpt lat="36.09084305555555" lon="132.98166305555554">
<ele>6</ele>
</trkpt>
<trkpt lat="36.091168055555556" lon="132.98197611111112">
<ele>6</ele>
</trkpt>
<trkpt lat="36.091968055555554" lon="132.98277611111112">
<ele>4</ele>
</trkpt>
<trkpt lat="36.09208388888889" lon="132.9829261111111">
<ele>1</ele>
</trkpt>
<trkpt lat="36.09223388888889" lon="132.9832011111111">
<ele>3</ele>
</trkpt>
<trkpt lat="36.09258388888889" lon="132.9839511111111">
<ele>2</ele>
</trkpt>
<trkpt lat="36.092776111111114" lon="132.98436305555555">
<ele>0</ele>
</trkpt>
<trkpt lat="36.09290111111111" lon="132.9846261111111">
<ele>1</ele>
</trkpt>
<trkpt lat="36.09295111111111" lon="132.98468805555555">
<ele>0</ele>
</trkpt>
<trkpt lat="36.093068055555555" lon="132.98480111111112">
<ele>1</ele>
</trkpt>
<trkpt lat="36.09311805555556" lon="132.98482611111112">
<ele>1</ele>
</trkpt>
<trkpt lat="36.09323388888889" lon="132.98486305555556">
<ele>2</ele>
</trkpt>
<trkpt lat="36.093333888888885" lon="132.9849011111111">
<ele>2</ele>
</trkpt>
<trkpt lat="36.09336805555556" lon="132.98480111111112">
<ele>3</ele>
</trkpt>
<trkpt lat="36.09340111111111" lon="132.98472611111112">
<ele>3</ele>
</trkpt>
<trkpt lat="36.09345888888889" lon="132.9846261111111">
<ele>4</ele>
</trkpt>
<trkpt lat="36.093629722222225" lon="132.98441666666668">
<ele>5</ele>
</trkpt>
<trkpt lat="36.093629722222225" lon="132.98441666666668">
<ele>5</ele>
</trkpt>
<trkpt lat="36.09355111111111" lon="132.98451305555557">
<ele>4</ele>
</trkpt>
<trkpt lat="36.09370111111111" lon="132.98436305555555">
<ele>6</ele>
</trkpt>
<trkpt lat="36.093868055555554" lon="132.9842011111111">
<ele>7</ele>
</trkpt>
<trkpt lat="36.09391" lon="132.9841688888889">
<ele>8</ele>
</trkpt>
<trkpt lat="36.09391" lon="132.9841688888889">
<ele>8</ele>
</trkpt>
<trkpt lat="36.09401805555556" lon="132.98408805555556">
<ele>9</ele>
</trkpt>
<trkpt lat="36.09419305555556" lon="132.98398805555556">
<ele>12</ele>
</trkpt>
<trkpt lat="36.09449305555555" lon="132.9838761111111">
<ele>14</ele>
</trkpt>
<trkpt lat="36.094593055555556" lon="132.98381305555554">
<ele>12</ele>
</trkpt>
<trkpt lat="36.09466805555556" lon="132.98373805555556">
<ele>11</ele>
</trkpt>
<trkpt lat="36.094726111111115" lon="132.9836511111111">
<ele>12</ele>
</trkpt>
<trkpt lat="36.09475888888889" lon="132.9835261111111">
<ele>13</ele>
</trkpt>
<trkpt lat="36.094768055555555" lon="132.98336305555554">
<ele>15</ele>
</trkpt>
<trkpt lat="36.094743055555554" lon="132.9832011111111">
<ele>20</ele>
</trkpt>
<trkpt lat="36.09464194444445" lon="132.9829761111111">
<ele>23</ele>
</trkpt>
<trkpt lat="36.09453388888889" lon="132.98257611111111">
<ele>27</ele>
</trkpt>
<trkpt lat="36.09455111111111" lon="132.9822761111111">
<ele>34</ele>
</trkpt>
<trkpt lat="36.094633888888886" lon="132.98213805555557">
<ele>34</ele>
</trkpt>
<trkpt lat="36.09490111111111" lon="132.9818011111111">
<ele>34</ele>
</trkpt>
<trkpt lat="36.09495111111111" lon="132.98166305555554">
<ele>39</ele>
</trkpt>
<trkpt lat="36.095018055555556" lon="132.98113805555556">
<ele>44</ele>
</trkpt>
<trkpt lat="36.095058888888886" lon="132.98107611111112">
<ele>46</ele>
</trkpt>
<trkpt lat="36.095168055555554" lon="132.98098805555554">
<ele>46</ele>
</trkpt>
<trkpt lat="36.095368055555554" lon="132.98091305555556">
<ele>43</ele>
</trkpt>
<trkpt lat="36.09545111111111" lon="132.98085111111112">
<ele>44</ele>
</trkpt>
<trkpt lat="36.09549194444445" lon="132.98075111111112">
<ele>49</ele>
</trkpt>
<trkpt lat="36.09553388888889" lon="132.98053805555554">
<ele>57</ele>
</trkpt>
<trkpt lat="36.09565888888889" lon="132.97966305555556">
<ele>61</ele>
</trkpt>
<trkpt lat="36.09571694444445" lon="132.97925111111113">
<ele>51</ele>
</trkpt>
<trkpt lat="36.09571694444445" lon="132.97901305555555">
<ele>50</ele>
</trkpt>
<trkpt lat="36.09570111111111" lon="132.9788761111111">
<ele>50</ele>
</trkpt>
<trkpt lat="36.09514305555555" lon="132.9776011111111">
<ele>37</ele>
</trkpt>
<trkpt lat="36.09510111111111" lon="132.97745111111112">
<ele>37</ele>
</trkpt>
<trkpt lat="36.09510111111111" lon="132.97735111111112">
<ele>38</ele>
</trkpt>
<trkpt lat="36.09511805555555" lon="132.97722611111112">
<ele>36</ele>
</trkpt>
<trkpt lat="36.09529305555556" lon="132.9766011111111">
<ele>27</ele>
</trkpt>
<trkpt lat="36.09529305555556" lon="132.9763888888889">
<ele>22</ele>
</trkpt>
<trkpt lat="36.09525111111111" lon="132.9763011111111">
<ele>19</ele>
</trkpt>
<trkpt lat="36.095191944444444" lon="132.9762388888889">
<ele>23</ele>
</trkpt>
<trkpt lat="36.09486694444445" lon="132.9759011111111">
<ele>23</ele>
</trkpt>
<trkpt lat="36.09475888888889" lon="132.9757261111111">
<ele>21</ele>
</trkpt>
<trkpt lat="36.09464194444445" lon="132.9754511111111">
<ele>22</ele>
</trkpt>
<trkpt lat="36.09460111111111" lon="132.9752761111111">
<ele>19</ele>
</trkpt>
<trkpt lat="36.094633888888886" lon="132.9743138888889">
<ele>10</ele>
</trkpt>
<trkpt lat="36.09460111111111" lon="132.9742138888889">
<ele>12</ele>
</trkpt>
<trkpt lat="36.09440111111111" lon="132.9739261111111">
<ele>9</ele>
</trkpt>
<trkpt lat="36.09433388888889" lon="132.9737388888889">
<ele>12</ele>
</trkpt>
<trkpt lat="36.09430111111111" lon="132.9735261111111">
<ele>9</ele>
</trkpt>
<trkpt lat="36.094276111111114" lon="132.97280194444446">
<ele>12</ele>
</trkpt>
<trkpt lat="36.09429305555555" lon="132.9723138888889">
<ele>7</ele>
</trkpt>
<trkpt lat="36.09452611111111" lon="132.97160194444444">
<ele>6</ele>
</trkpt>
<trkpt lat="36.09455888888889" lon="132.97142694444443">
<ele>8</ele>
</trkpt>
<trkpt lat="36.09453388888889" lon="132.97100194444445">
<ele>3</ele>
</trkpt>
<trkpt lat="36.09455111111111" lon="132.97055194444445">
<ele>9</ele>
</trkpt>
<trkpt lat="36.094726111111115" lon="132.97025194444444">
<ele>11</ele>
</trkpt>
<trkpt lat="36.09486694444445" lon="132.9701388888889">
<ele>12</ele>
</trkpt>
<trkpt lat="36.09500111111111" lon="132.97005194444444">
<ele>14</ele>
</trkpt>
<trkpt lat="36.09515888888889" lon="132.9700138888889">
<ele>15</ele>
</trkpt>
<trkpt lat="36.095683888888885" lon="132.9700388888889">
<ele>11</ele>
</trkpt>
<trkpt lat="36.09600888888889" lon="132.97008888888888">
<ele>8</ele>
</trkpt>
<trkpt lat="36.096133888888886" lon="132.97007694444446">
<ele>7</ele>
</trkpt>
<trkpt lat="36.09621694444444" lon="132.97000194444445">
<ele>7</ele>
</trkpt>
<trkpt lat="36.09625111111111" lon="132.96990194444444">
<ele>8</ele>
</trkpt>
<trkpt lat="36.09625111111111" lon="132.9698138888889">
<ele>9</ele>
</trkpt>
<trkpt lat="36.09620888888889" lon="132.96965194444445">
<ele>14</ele>
</trkpt>
<trkpt lat="36.09615111111111" lon="132.96951388888888">
<ele>16</ele>
</trkpt>
<trkpt lat="36.09596694444444" lon="132.96922694444444">
<ele>13</ele>
</trkpt>
<trkpt lat="36.09576694444444" lon="132.96895194444446">
<ele>16</ele>
</trkpt>
<trkpt lat="36.09559194444444" lon="132.96860194444446">
<ele>24</ele>
</trkpt>
<trkpt lat="36.09559194444444" lon="132.96842694444445">
<ele>25</ele>
</trkpt>
<trkpt lat="36.09563388888889" lon="132.96835194444444">
<ele>25</ele>
</trkpt>
<trkpt lat="36.09615111111111" lon="132.96793888888888">
<ele>33</ele>
</trkpt>
<trkpt lat="36.09616694444444" lon="132.9678638888889">
<ele>33</ele>
</trkpt>
<trkpt lat="36.096133888888886" lon="132.96732694444444">
<ele>36</ele>
</trkpt>
<trkpt lat="36.09615111111111" lon="132.96685194444444">
<ele>44</ele>
</trkpt>
<trkpt lat="36.09613888888889" lon="132.96688083333333">
<ele>44</ele>
</trkpt>
<trkpt lat="36.09614888888889" lon="132.96688111111112">
<ele>44</ele>
</trkpt>
<trkpt lat="36.096133888888886" lon="132.96732694444444">
<ele>36</ele>
</trkpt>
<trkpt lat="36.09616694444444" lon="132.9678638888889">
<ele>33</ele>
</trkpt>
<trkpt lat="36.09615111111111" lon="132.96793888888888">
<ele>33</ele>
</trkpt>
<trkpt lat="36.09563388888889" lon="132.96835194444444">
<ele>25</ele>
</trkpt>
<trkpt lat="36.09559194444444" lon="132.96842694444445">
<ele>25</ele>
</trkpt>
<trkpt lat="36.09559194444444" lon="132.96860194444446">
<ele>24</ele>
</trkpt>
<trkpt lat="36.09576694444444" lon="132.96895194444446">
<ele>16</ele>
</trkpt>
<trkpt lat="36.09596694444444" lon="132.96922694444444">
<ele>13</ele>
</trkpt>
<trkpt lat="36.09615111111111" lon="132.96951388888888">
<ele>16</ele>
</trkpt>
<trkpt lat="36.09620888888889" lon="132.96965194444445">
<ele>14</ele>
</trkpt>
<trkpt lat="36.09625111111111" lon="132.9698138888889">
<ele>9</ele>
</trkpt>
<trkpt lat="36.09625111111111" lon="132.96990194444444">
<ele>8</ele>
</trkpt>
<trkpt lat="36.09621694444444" lon="132.97000194444445">
<ele>7</ele>
</trkpt>
<trkpt lat="36.096133888888886" lon="132.97007694444446">
<ele>7</ele>
</trkpt>
<trkpt lat="36.09600888888889" lon="132.97008888888888">
<ele>8</ele>
</trkpt>
<trkpt lat="36.095683888888885" lon="132.9700388888889">
<ele>11</ele>
</trkpt>
<trkpt lat="36.09515888888889" lon="132.9700138888889">
<ele>15</ele>
</trkpt>
<trkpt lat="36.09500111111111" lon="132.97005194444444">
<ele>14</ele>
</trkpt>
<trkpt lat="36.09486694444445" lon="132.9701388888889">
<ele>12</ele>
</trkpt>
<trkpt lat="36.094726111111115" lon="132.97025194444444">
<ele>11</ele>
</trkpt>
<trkpt lat="36.09455111111111" lon="132.97055194444445">
<ele>9</ele>
</trkpt>
<trkpt lat="36.09453388888889" lon="132.97100194444445">
<ele>3</ele>
</trkpt>
<trkpt lat="36.09455888888889" lon="132.97142694444443">
<ele>8</ele>
</trkpt>
<trkpt lat="36.09452611111111" lon="132.97160194444444">
<ele>6</ele>
</trkpt>
<trkpt lat="36.09429305555555" lon="132.9723138888889">
<ele>7</ele>
</trkpt>
<trkpt lat="36.094276111111114" lon="132.97280194444446">
<ele>12</ele>
</trkpt>
<trkpt lat="36.09430111111111" lon="132.9735261111111">
<ele>9</ele>
</trkpt>
<trkpt lat="36.09433388888889" lon="132.9737388888889">
<ele>12</ele>
</trkpt>
<trkpt lat="36.09440111111111" lon="132.9739261111111">
<ele>9</ele>
</trkpt>
<trkpt lat="36.09460111111111" lon="132.9742138888889">
<ele>12</ele>
</trkpt>
<trkpt lat="36.094633888888886" lon="132.9743138888889">
<ele>10</ele>
</trkpt>
<trkpt lat="36.09460111111111" lon="132.9752761111111">
<ele>19</ele>
</trkpt>
<trkpt lat="36.09464194444445" lon="132.9754511111111">
<ele>22</ele>
</trkpt>
<trkpt lat="36.09475888888889" lon="132.9757261111111">
<ele>21</ele>
</trkpt>
<trkpt lat="36.09486694444445" lon="132.9759011111111">
<ele>23</ele>
</trkpt>
<trkpt lat="36.095191944444444" lon="132.9762388888889">
<ele>23</ele>
</trkpt>
<trkpt lat="36.09525111111111" lon="132.9763011111111">
<ele>19</ele>
</trkpt>
<trkpt lat="36.09529305555556" lon="132.9763888888889">
<ele>22</ele>
</trkpt>
<trkpt lat="36.09529305555556" lon="132.9766011111111">
<ele>27</ele>
</trkpt>
<trkpt lat="36.09511805555555" lon="132.97722611111112">
<ele>36</ele>
</trkpt>
<trkpt lat="36.09510111111111" lon="132.97735111111112">
<ele>38</ele>
</trkpt>
<trkpt lat="36.09510111111111" lon="132.97745111111112">
<ele>37</ele>
</trkpt>
<trkpt lat="36.09514305555555" lon="132.9776011111111">
<ele>37</ele>
</trkpt>
<trkpt lat="36.09570111111111" lon="132.9788761111111">
<ele>50</ele>
</trkpt>
<trkpt lat="36.09571694444445" lon="132.97901305555555">
<ele>50</ele>
</trkpt>
<trkpt lat="36.09571694444445" lon="132.97925111111113">
<ele>51</ele>
</trkpt>
<trkpt lat="36.09565888888889" lon="132.97966305555556">
<ele>61</ele>
</trkpt>
<trkpt lat="36.09553388888889" lon="132.98053805555554">
<ele>57</ele>
</trkpt>
<trkpt lat="36.09549194444445" lon="132.98075111111112">
<ele>49</ele>
</trkpt>
<trkpt lat="36.09545111111111" lon="132.98085111111112">
<ele>44</ele>
</trkpt>
<trkpt lat="36.095368055555554" lon="132.98091305555556">
<ele>43</ele>
</trkpt>
<trkpt lat="36.095168055555554" lon="132.98098805555554">
<ele>46</ele>
</trkpt>
<trkpt lat="36.095058888888886" lon="132.98107611111112">
<ele>46</ele>
</trkpt>
<trkpt lat="36.095018055555556" lon="132.98113805555556">
<ele>44</ele>
</trkpt>
<trkpt lat="36.09495111111111" lon="132.98166305555554">
<ele>39</ele>
</trkpt>
<trkpt lat="36.09490111111111" lon="132.9818011111111">
<ele>34</ele>
</trkpt>
<trkpt lat="36.094633888888886" lon="132.98213805555557">
<ele>34</ele>
</trkpt>
<trkpt lat="36.09455111111111" lon="132.9822761111111">
<ele>34</ele>
</trkpt>
<trkpt lat="36.09453388888889" lon="132.98257611111111">
<ele>27</ele>
</trkpt>
<trkpt lat="36.09464194444445" lon="132.9829761111111">
<ele>23</ele>
</trkpt>
<trkpt lat="36.094743055555554" lon="132.9832011111111">
<ele>20</ele>
</trkpt>
<trkpt lat="36.094768055555555" lon="132.98336305555554">
<ele>15</ele>
</trkpt>
<trkpt lat="36.09475888888889" lon="132.9835261111111">
<ele>13</ele>
</trkpt>
<trkpt lat="36.094726111111115" lon="132.9836511111111">
<ele>12</ele>
</trkpt>
<trkpt lat="36.09466805555556" lon="132.98373805555556">
<ele>11</ele>
</trkpt>
<trkpt lat="36.094593055555556" lon="132.98381305555554">
<ele>12</ele>
</trkpt>
<trkpt lat="36.09449305555555" lon="132.9838761111111">
<ele>14</ele>
</trkpt>
<trkpt lat="36.09419305555556" lon="132.98398805555556">
<ele>12</ele>
</trkpt>
<trkpt lat="36.09401805555556" lon="132.98408805555556">
<ele>9</ele>
</trkpt>
<trkpt lat="36.093868055555554" lon="132.9842011111111">
<ele>7</ele>
</trkpt>
<trkpt lat="36.09370111111111" lon="132.98436305555555">
<ele>6</ele>
</trkpt>
<trkpt lat="36.09355111111111" lon="132.98451305555557">
<ele>4</ele>
</trkpt>
<trkpt lat="36.09345888888889" lon="132.9846261111111">
<ele>4</ele>
</trkpt>
<trkpt lat="36.09340111111111" lon="132.98472611111112">
<ele>3</ele>
</trkpt>
<trkpt lat="36.09336805555556" lon="132.98480111111112">
<ele>3</ele>
</trkpt>
<trkpt lat="36.093333888888885" lon="132.9849011111111">
<ele>2</ele>
</trkpt>
<trkpt lat="36.09331805555556" lon="132.9850011111111">
<ele>1</ele>
</trkpt>
<trkpt lat="36.09330888888889" lon="132.9852011111111">
<ele>1</ele>
</trkpt>
<trkpt lat="36.09332611111111" lon="132.98543805555556">
<ele>0</ele>
</trkpt>
<trkpt lat="36.093468055555554" lon="132.98633805555556">
<ele>1</ele>
</trkpt>
<trkpt lat="36.09345888888889" lon="132.98668805555556">
<ele>1</ele>
</trkpt>
<trkpt lat="36.093443055555554" lon="132.98685">
<ele>0</ele>
</trkpt>
<trkpt lat="36.09340111111111" lon="132.98693805555556">
<ele>1</ele>
</trkpt>
<trkpt lat="36.09328388888889" lon="132.98706305555555">
<ele>1</ele>
</trkpt>
<trkpt lat="36.09276" lon="132.98751305555555">
<ele>1</ele>
</trkpt>
<trkpt lat="36.092618055555555" lon="132.98763805555555">
<ele>3</ele>
</trkpt>
<trkpt lat="36.092443055555556" lon="132.987875">
<ele>7</ele>
</trkpt>
<trkpt lat="36.09221" lon="132.988225">
<ele>8</ele>
</trkpt>
<trkpt lat="36.092151111111114" lon="132.988425">
<ele>8</ele>
</trkpt>
<trkpt lat="36.09211805555555" lon="132.98866305555555">
<ele>8</ele>
</trkpt>
<trkpt lat="36.09211805555555" lon="132.98888805555555">
<ele>6</ele>
</trkpt>
<trkpt lat="36.092168055555554" lon="132.98916305555557">
<ele>5</ele>
</trkpt>
<trkpt lat="36.092235" lon="132.989275">
<ele>3</ele>
</trkpt>
<trkpt lat="36.09227611111111" lon="132.989325">
<ele>3</ele>
</trkpt>
<trkpt lat="36.092593055555554" lon="132.989575">
<ele>3</ele>
</trkpt>
<trkpt lat="36.09269305555556" lon="132.98981194444445">
<ele>3</ele>
</trkpt>
<trkpt lat="36.09281" lon="132.98995">
<ele>4</ele>
</trkpt>
<trkpt lat="36.09297611111111" lon="132.99006194444445">
<ele>4</ele>
</trkpt>
<trkpt lat="36.093035" lon="132.99015">
<ele>4</ele>
</trkpt>
<trkpt lat="36.09316805555556" lon="132.99046305555555">
<ele>3</ele>
</trkpt>
<trkpt lat="36.09327611111111" lon="132.990675">
<ele>4</ele>
</trkpt>
<trkpt lat="36.09326" lon="132.99091305555555">
<ele>4</ele>
</trkpt>
<trkpt lat="36.09316805555556" lon="132.991425">
<ele>4</ele>
</trkpt>
<trkpt lat="36.09316805555556" lon="132.991675">
<ele>4</ele>
</trkpt>
<trkpt lat="36.09327611111111" lon="132.99221194444445">
<ele>3</ele>
</trkpt>
<trkpt lat="36.093293055555556" lon="132.992275">
<ele>4</ele>
</trkpt>
<trkpt lat="36.093068055555555" lon="132.992875">
<ele>3</ele>
</trkpt>
<trkpt lat="36.09306" lon="132.993025">
<ele>4</ele>
</trkpt>
<trkpt lat="36.09314305555556" lon="132.993475">
<ele>8</ele>
</trkpt>
<trkpt lat="36.09327611111111" lon="132.99425">
<ele>4</ele>
</trkpt>
<trkpt lat="36.093443055555554" lon="132.99463694444444">
<ele>3</ele>
</trkpt>
<trkpt lat="36.093435" lon="132.994875">
<ele>3</ele>
</trkpt>
<trkpt lat="36.09336805555556" lon="132.995325">
<ele>3</ele>
</trkpt>
<trkpt lat="36.09321805555555" lon="132.99601194444443">
<ele>2</ele>
</trkpt>
<trkpt lat="36.09316805555556" lon="132.9960988888889">
<ele>2</ele>
</trkpt>
<trkpt lat="36.09301" lon="132.99626194444446">
<ele>2</ele>
</trkpt>
<trkpt lat="36.09279305555555" lon="132.9964488888889">
<ele>3</ele>
</trkpt>
<trkpt lat="36.09266" lon="132.9965238888889">
<ele>3</ele>
</trkpt>
<trkpt lat="36.09236805555555" lon="132.99658694444443">
<ele>3</ele>
</trkpt>
<trkpt lat="36.092235" lon="132.99663694444445">
<ele>3</ele>
</trkpt>
<trkpt lat="36.09225111111111" lon="132.99682388888888">
<ele>4</ele>
</trkpt>
<trkpt lat="36.092285" lon="132.9969988888889">
<ele>6</ele>
</trkpt>
<trkpt lat="36.092335" lon="132.99717388888888">
<ele>11</ele>
</trkpt>
<trkpt lat="36.09236805555555" lon="132.99726194444443">
<ele>15</ele>
</trkpt>
<trkpt lat="36.092418055555555" lon="132.9973738888889">
<ele>14</ele>
</trkpt>
<trkpt lat="36.09285111111111" lon="132.9983738888889">
<ele>9</ele>
</trkpt>
<trkpt lat="36.092935" lon="132.99854888888888">
<ele>8</ele>
</trkpt>
<trkpt lat="36.09306" lon="132.9984488888889">
<ele>7</ele>
</trkpt>
<trkpt lat="36.093201111111114" lon="132.99842388888888">
<ele>7</ele>
</trkpt>
<trkpt lat="36.09331805555556" lon="132.99843694444445">
<ele>8</ele>
</trkpt>
<trkpt lat="36.093535" lon="132.99852388888888">
<ele>8</ele>
</trkpt>
<trkpt lat="36.093651111111114" lon="132.9986238888889">
<ele>9</ele>
</trkpt>
<trkpt lat="36.09375111111111" lon="132.99878694444445">
<ele>9</ele>
</trkpt>
<trkpt lat="36.09401805555556" lon="132.99908694444446">
<ele>8</ele>
</trkpt>
<trkpt lat="36.094093055555554" lon="132.9991738888889">
<ele>8</ele>
</trkpt>
<trkpt lat="36.094143055555556" lon="132.99928694444444">
<ele>7</ele>
</trkpt>
<trkpt lat="36.094185" lon="132.99944888888888">
<ele>6</ele>
</trkpt>
<trkpt lat="36.09421805555556" lon="132.9995988888889">
<ele>6</ele>
</trkpt>
<trkpt lat="36.09421805555556" lon="132.99977388888888">
<ele>5</ele>
</trkpt>
<trkpt lat="36.09421" lon="133.00003694444445">
<ele>4</ele>
</trkpt>
<trkpt lat="36.09419305555556" lon="133.00021194444443">
<ele>4</ele>
</trkpt>
<trkpt lat="36.09412611111111" lon="133.00033694444446">
<ele>5</ele>
</trkpt>
<trkpt lat="36.09401805555556" lon="133.00043694444443">
<ele>4</ele>
</trkpt>
<trkpt lat="36.093851111111114" lon="133.00056194444446">
<ele>3</ele>
</trkpt>
<trkpt lat="36.09361805555555" lon="133.0007238888889">
<ele>2</ele>
</trkpt>
<trkpt lat="36.09294305555556" lon="133.00128694444444">
<ele>6</ele>
</trkpt>
<trkpt lat="36.09230194444444" lon="133.0018738888889">
<ele>3</ele>
</trkpt>
<trkpt lat="36.092218055555556" lon="133.0020738888889">
<ele>4</ele>
</trkpt>
<trkpt lat="36.091935" lon="133.0029238888889">
<ele>4</ele>
</trkpt>
<trkpt lat="36.09191805555555" lon="133.0030238888889">
<ele>4</ele>
</trkpt>
<trkpt lat="36.091935" lon="133.00316194444446">
<ele>3</ele>
</trkpt>
<trkpt lat="36.091985" lon="133.0032488888889">
<ele>2</ele>
</trkpt>
<trkpt lat="36.09211" lon="133.00336194444444">
<ele>2</ele>
</trkpt>
<trkpt lat="36.09321805555555" lon="133.00398611111112">
<ele>0</ele>
</trkpt>
<trkpt lat="36.09325194444445" lon="133.0040488888889">
<ele>0</ele>
</trkpt>
<trkpt lat="36.09321" lon="133.0047238888889">
<ele>4</ele>
</trkpt>
<trkpt lat="36.093226944444446" lon="133.00519888888888">
<ele>7</ele>
</trkpt>
<trkpt lat="36.093293055555556" lon="133.0052988888889">
<ele>4</ele>
</trkpt>
<trkpt lat="36.093468055555554" lon="133.00546111111112">
<ele>4</ele>
</trkpt>
<trkpt lat="36.094076111111114" lon="133.0057111111111">
<ele>3</ele>
</trkpt>
<trkpt lat="36.09415111111111" lon="133.00577388888888">
<ele>6</ele>
</trkpt>
<trkpt lat="36.094285" lon="133.0059861111111">
<ele>5</ele>
</trkpt>
<trkpt lat="36.09442611111111" lon="133.00613611111112">
<ele>3</ele>
</trkpt>
<trkpt lat="36.094453888888886" lon="133.00615805555555">
<ele>3</ele>
</trkpt>
<trkpt lat="36.094451944444444" lon="133.00616333333335">
<ele>6</ele>
</trkpt>
<trkpt lat="36.09442611111111" lon="133.00613611111112">
<ele>3</ele>
</trkpt>
<trkpt lat="36.09525111111111" lon="133.00679888888888">
<ele>3</ele>
</trkpt>
<trkpt lat="36.095393055555554" lon="133.0068361111111">
<ele>5</ele>
</trkpt>
<trkpt lat="36.09587611111111" lon="133.00691111111112">
<ele>4</ele>
</trkpt>
<trkpt lat="36.09606" lon="133.0069611111111">
<ele>6</ele>
</trkpt>
<trkpt lat="36.09661" lon="133.0073361111111">
<ele>3</ele>
</trkpt>
<trkpt lat="36.096718055555556" lon="133.00738611111112">
<ele>4</ele>
</trkpt>
<trkpt lat="36.09676805555556" lon="133.00736694444444">
<ele>3</ele>
</trkpt>
<trkpt lat="36.09676805555556" lon="133.00736694444444">
<ele>3</ele>
</trkpt>
<trkpt lat="36.096785" lon="133.00736111111112">
<ele>3</ele>
</trkpt>
<trkpt lat="36.09706805555555" lon="133.0070738888889">
<ele>2</ele>
</trkpt>
<trkpt lat="36.097143055555556" lon="133.00702388888888">
<ele>0</ele>
</trkpt>
<trkpt lat="36.09722611111111" lon="133.00702388888888">
<ele>1</ele>
</trkpt>
<trkpt lat="36.09735888888889" lon="133.0070738888889">
<ele>2</ele>
</trkpt>
<trkpt lat="36.098351111111114" lon="133.00771111111112">
<ele>5</ele>
</trkpt>
<trkpt lat="36.098593055555554" lon="133.0078611111111">
<ele>6</ele>
</trkpt>
<trkpt lat="36.098708888888886" lon="133.00793611111112">
<ele>3</ele>
</trkpt>
<trkpt lat="36.098843055555555" lon="133.00796111111111">
<ele>3</ele>
</trkpt>
<trkpt lat="36.09891805555556" lon="133.00794888888888">
<ele>2</ele>
</trkpt>
<trkpt lat="36.099018055555554" lon="133.00793611111112">
<ele>1</ele>
</trkpt>
<trkpt lat="36.099133888888886" lon="133.0078488888889">
<ele>1</ele>
</trkpt>
<trkpt lat="36.09925111111111" lon="133.0076861111111">
<ele>0</ele>
</trkpt>
<trkpt lat="36.09927611111111" lon="133.0076488888889">
<ele>1</ele>
</trkpt>
<trkpt lat="36.09937611111111" lon="133.00726111111112">
<ele>0</ele>
</trkpt>
<trkpt lat="36.099443055555554" lon="133.00714888888888">
<ele>1</ele>
</trkpt>
<trkpt lat="36.09955111111111" lon="133.00703611111112">
<ele>1</ele>
</trkpt>
<trkpt lat="36.09970111111111" lon="133.00693611111112">
<ele>1</ele>
</trkpt>
<trkpt lat="36.100076111111115" lon="133.0068488888889">
<ele>3</ele>
</trkpt>
<trkpt lat="36.10043388888889" lon="133.0067238888889">
<ele>0</ele>
</trkpt>
<trkpt lat="36.100926111111114" lon="133.0066361111111">
<ele>1</ele>
</trkpt>
<trkpt lat="36.10132611111111" lon="133.0066361111111">
<ele>3</ele>
</trkpt>
<trkpt lat="36.10160888888889" lon="133.0065988888889">
<ele>2</ele>
</trkpt>
<trkpt lat="36.102558888888886" lon="133.00659805555554">
<ele>1</ele>
</trkpt>
<trkpt lat="36.10273388888889" lon="133.00662305555556">
<ele>1</ele>
</trkpt>
<trkpt lat="36.10284194444444" lon="133.00662305555556">
<ele>1</ele>
</trkpt>
<trkpt lat="36.102916944444445" lon="133.00657305555555">
<ele>0</ele>
</trkpt>
<trkpt lat="36.10337611111111" lon="133.00607305555556">
<ele>2</ele>
</trkpt>
<trkpt lat="36.10387611111111" lon="133.0054988888889">
<ele>3</ele>
</trkpt>
<trkpt lat="36.10400888888889" lon="133.0053861111111">
<ele>2</ele>
</trkpt>
<trkpt lat="36.104126111111114" lon="133.0053111111111">
<ele>3</ele>
</trkpt>
<trkpt lat="36.10491694444445" lon="133.0049361111111">
<ele>3</ele>
</trkpt>
<trkpt lat="36.10535" lon="133.00474888888888">
<ele>3</ele>
</trkpt>
<trkpt lat="36.105975" lon="133.0043988888889">
<ele>9</ele>
</trkpt>
<trkpt lat="36.106183888888886" lon="133.00432388888888">
<ele>14</ele>
</trkpt>
<trkpt lat="36.10630888888889" lon="133.0042738888889">
<ele>14</ele>
</trkpt>
<trkpt lat="36.10645" lon="133.0042611111111">
<ele>15</ele>
</trkpt>
<trkpt lat="36.10655888888889" lon="133.0042861111111">
<ele>15</ele>
</trkpt>
<trkpt lat="36.10670888888889" lon="133.0043861111111">
<ele>13</ele>
</trkpt>
<trkpt lat="36.10689611111111" lon="133.0043861111111">
<ele>12</ele>
</trkpt>
<trkpt lat="36.10689611111111" lon="133.0043861111111">
<ele>12</ele>
</trkpt>
<trkpt lat="36.10670888888889" lon="133.0043861111111">
<ele>13</ele>
</trkpt>
<trkpt lat="36.106833888888886" lon="133.0046111111111">
<ele>8</ele>
</trkpt>
<trkpt lat="36.106875" lon="133.0047238888889">
<ele>7</ele>
</trkpt>
<trkpt lat="36.106966944444444" lon="133.00497305555555">
<ele>5</ele>
</trkpt>
<trkpt lat="36.107033888888886" lon="133.00517305555556">
<ele>8</ele>
</trkpt>
<trkpt lat="36.10708388888889" lon="133.00532305555555">
<ele>8</ele>
</trkpt>
<trkpt lat="36.10713388888889" lon="133.00557305555554">
<ele>8</ele>
</trkpt>
<trkpt lat="36.10713388888889" lon="133.00568611111112">
<ele>8</ele>
</trkpt>
<trkpt lat="36.10710888888889" lon="133.00581111111111">
<ele>8</ele>
</trkpt>
<trkpt lat="36.106991944444445" lon="133.00601111111112">
<ele>8</ele>
</trkpt>
<trkpt lat="36.106316944444444" lon="133.00674805555556">
<ele>2</ele>
</trkpt>
<trkpt lat="36.10620388888889" lon="133.00667194444443">
<ele>1</ele>
</trkpt>
<trkpt lat="36.10620388888889" lon="133.00667194444443">
<ele>1</ele>
</trkpt>
<trkpt lat="36.10581694444444" lon="133.0064111111111">
<ele>0</ele>
</trkpt>
<trkpt lat="36.10573388888889" lon="133.0063861111111">
<ele>0</ele>
</trkpt>
<trkpt lat="36.10565111111111" lon="133.0063861111111">
<ele>0</ele>
</trkpt>
<trkpt lat="36.10558388888889" lon="133.00642305555556">
<ele>0</ele>
</trkpt>
<trkpt lat="36.10503388888889" lon="133.0067861111111">
<ele>0</ele>
</trkpt>
<trkpt lat="36.10415888888889" lon="133.00739805555557">
<ele>0</ele>
</trkpt>
<trkpt lat="36.103966944444444" lon="133.0075361111111">
<ele>0</ele>
</trkpt>
<trkpt lat="36.10388388888889" lon="133.00762305555557">
<ele>0</ele>
</trkpt>
<trkpt lat="36.103833888888886" lon="133.0077861111111">
<ele>0</ele>
</trkpt>
<trkpt lat="36.10370888888889" lon="133.00847305555556">
<ele>0</ele>
</trkpt>
<trkpt lat="36.10367611111111" lon="133.00862305555555">
<ele>0</ele>
</trkpt>
<trkpt lat="36.10360111111111" lon="133.00873611111112">
<ele>0</ele>
</trkpt>
<trkpt lat="36.10325111111111" lon="133.00919805555554">
<ele>2</ele>
</trkpt>
<trkpt lat="36.10295111111111" lon="133.00929805555555">
<ele>3</ele>
</trkpt>
<trkpt lat="36.10238388888889" lon="133.0094361111111">
<ele>0</ele>
</trkpt>
<trkpt lat="36.10230111111111" lon="133.00951111111112">
<ele>0</ele>
</trkpt>
<trkpt lat="36.102201111111114" lon="133.00964805555554">
<ele>0</ele>
</trkpt>
<trkpt lat="36.101393055555555" lon="133.0109111111111">
<ele>0</ele>
</trkpt>
<trkpt lat="36.10113388888889" lon="133.0112861111111">
<ele>0</ele>
</trkpt>
<trkpt lat="36.10109305555556" lon="133.0113861111111">
<ele>0</ele>
</trkpt>
<trkpt lat="36.10109305555556" lon="133.01158611111111">
<ele>0</ele>
</trkpt>
<trkpt lat="36.10110805555556" lon="133.01166194444446">
<ele>0</ele>
</trkpt>
<trkpt lat="36.10110805555556" lon="133.01166194444446">
<ele>0</ele>
</trkpt>
<trkpt lat="36.10130888888889" lon="133.01269805555555">
<ele>3</ele>
</trkpt>
<trkpt lat="36.10069305555555" lon="133.01282305555554">
<ele>1</ele>
</trkpt>
<trkpt lat="36.09862611111111" lon="133.01319805555556">
<ele>1</ele>
</trkpt>
<trkpt lat="36.09797611111111" lon="133.01348611111112">
<ele>1</ele>
</trkpt>
<trkpt lat="36.097991944444445" lon="133.0135711111111">
<ele>1</ele>
</trkpt>
<trkpt lat="36.097991944444445" lon="133.0135711111111">
<ele>1</ele>
</trkpt>
<trkpt lat="36.09802611111111" lon="133.0137611111111">
<ele>2</ele>
</trkpt>
<trkpt lat="36.098085" lon="133.0140861111111">
<ele>3</ele>
</trkpt>
<trkpt lat="36.09816" lon="133.01419805555557">
<ele>3</ele>
</trkpt>
<trkpt lat="36.09836" lon="133.01439805555555">
<ele>4</ele>
</trkpt>
<trkpt lat="36.09840111111111" lon="133.0145361111111">
<ele>4</ele>
</trkpt>
<trkpt lat="36.09850111111111" lon="133.0149861111111">
<ele>4</ele>
</trkpt>
<trkpt lat="36.098459166666665" lon="133.01483638888888">
<ele>4</ele>
</trkpt>
<trkpt lat="36.098466944444446" lon="133.01483305555556">
<ele>4</ele>
</trkpt>
<trkpt lat="36.09850111111111" lon="133.0149861111111">
<ele>4</ele>
</trkpt>
<trkpt lat="36.098585" lon="133.01528611111112">
<ele>6</ele>
</trkpt>
<trkpt lat="36.09890111111111" lon="133.016335">
<ele>12</ele>
</trkpt>
<trkpt lat="36.09887611111111" lon="133.016535">
<ele>15</ele>
</trkpt>
<trkpt lat="36.099035" lon="133.01664805555555">
<ele>12</ele>
</trkpt>
<trkpt lat="36.09916805555556" lon="133.016835">
<ele>9</ele>
</trkpt>
<trkpt lat="36.099293055555556" lon="133.01717305555556">
<ele>8</ele>
</trkpt>
<trkpt lat="36.09961805555555" lon="133.01794805555556">
<ele>7</ele>
</trkpt>
<trkpt lat="36.09975111111111" lon="133.018235">
<ele>8</ele>
</trkpt>
<trkpt lat="36.099918055555555" lon="133.01856">
<ele>7</ele>
</trkpt>
<trkpt lat="36.100093055555554" lon="133.01884805555557">
<ele>7</ele>
</trkpt>
<trkpt lat="36.10072611111111" lon="133.01969805555555">
<ele>9</ele>
</trkpt>
<trkpt lat="36.100993055555556" lon="133.02006">
<ele>9</ele>
</trkpt>
<trkpt lat="36.10113388888889" lon="133.02026">
<ele>13</ele>
</trkpt>
<trkpt lat="36.10130888888889" lon="133.02062305555555">
<ele>14</ele>
</trkpt>
<trkpt lat="36.10140111111111" lon="133.02089694444444">
<ele>14</ele>
</trkpt>
<trkpt lat="36.10150111111111" lon="133.021285">
<ele>14</ele>
</trkpt>
<trkpt lat="36.10178388888889" lon="133.023285">
<ele>20</ele>
</trkpt>
<trkpt lat="36.10185111111111" lon="133.023585">
<ele>22</ele>
</trkpt>
<trkpt lat="36.10200888888889" lon="133.02401">
<ele>24</ele>
</trkpt>
<trkpt lat="36.10219305555555" lon="133.02422194444443">
<ele>26</ele>
</trkpt>
<trkpt lat="36.10235888888889" lon="133.02437194444445">
<ele>27</ele>
</trkpt>
<trkpt lat="36.102758888888886" lon="133.024685">
<ele>35</ele>
</trkpt>
<trkpt lat="36.10310111111111" lon="133.024935">
<ele>35</ele>
</trkpt>
<trkpt lat="36.10361805555556" lon="133.02521">
<ele>32</ele>
</trkpt>
<trkpt lat="36.10413388888889" lon="133.02537194444446">
<ele>33</ele>
</trkpt>
<trkpt lat="36.104168055555554" lon="133.025385">
<ele>33</ele>
</trkpt>
<trkpt lat="36.10450888888889" lon="133.02579694444444">
<ele>40</ele>
</trkpt>
<trkpt lat="36.10460888888889" lon="133.02596">
<ele>43</ele>
</trkpt>
<trkpt lat="36.104683888888886" lon="133.02609694444445">
<ele>43</ele>
</trkpt>
<trkpt lat="36.10483388888889" lon="133.02657194444444">
<ele>45</ele>
</trkpt>
<trkpt lat="36.104908888888886" lon="133.02673388888888">
<ele>44</ele>
</trkpt>
<trkpt lat="36.10505111111111" lon="133.02692194444444">
<ele>45</ele>
</trkpt>
<trkpt lat="36.105626111111114" lon="133.02755888888888">
<ele>56</ele>
</trkpt>
<trkpt lat="36.10580888888889" lon="133.02782194444444">
<ele>54</ele>
</trkpt>
<trkpt lat="36.10587611111111" lon="133.02794694444444">
<ele>56</ele>
</trkpt>
<trkpt lat="36.105941944444446" lon="133.02817194444444">
<ele>56</ele>
</trkpt>
<trkpt lat="36.10624305555555" lon="133.0295088888889">
<ele>58</ele>
</trkpt>
<trkpt lat="36.10661694444445" lon="133.03128388888888">
<ele>55</ele>
</trkpt>
<trkpt lat="36.10675888888889" lon="133.03183388888888">
<ele>46</ele>
</trkpt>
<trkpt lat="36.10677611111111" lon="133.03195888888888">
<ele>44</ele>
</trkpt>
<trkpt lat="36.106793055555556" lon="133.03204694444443">
<ele>42</ele>
</trkpt>
<trkpt lat="36.10677611111111" lon="133.0326838888889">
<ele>28</ele>
</trkpt>
<trkpt lat="36.10648388888889" lon="133.0335961111111">
<ele>19</ele>
</trkpt>
<trkpt lat="36.10649305555555" lon="133.0339088888889">
<ele>20</ele>
</trkpt>
<trkpt lat="36.106586944444444" lon="133.03427888888888">
<ele>18</ele>
</trkpt>
<trkpt lat="36.106586944444444" lon="133.03427888888888">
<ele>18</ele>
</trkpt>
<trkpt lat="36.10695111111111" lon="133.03570888888888">
<ele>11</ele>
</trkpt>
<trkpt lat="36.106943055555554" lon="133.0360588888889">
<ele>8</ele>
</trkpt>
<trkpt lat="36.10680111111111" lon="133.0365338888889">
<ele>5</ele>
</trkpt>
<trkpt lat="36.10669305555555" lon="133.0368961111111">
<ele>4</ele>
</trkpt>
<trkpt lat="36.10660111111111" lon="133.0374461111111">
<ele>3</ele>
</trkpt>
<trkpt lat="36.10665111111111" lon="133.0374461111111">
<ele>3</ele>
</trkpt>
<trkpt lat="36.10670805555556" lon="133.03716694444444">
<ele>3</ele>
</trkpt>
<trkpt lat="36.10670805555556" lon="133.03716694444444">
<ele>3</ele>
</trkpt>
<trkpt lat="36.10665111111111" lon="133.0374461111111">
<ele>3</ele>
</trkpt>
<trkpt lat="36.10660111111111" lon="133.0374461111111">
<ele>3</ele>
</trkpt>
<trkpt lat="36.10645888888889" lon="133.0380461111111">
<ele>2</ele>
</trkpt>
<trkpt lat="36.10607611111111" lon="133.03888388888888">
<ele>1</ele>
</trkpt>
<trkpt lat="36.10604305555555" lon="133.0390211111111">
<ele>1</ele>
</trkpt>
<trkpt lat="36.105958888888885" lon="133.0394088888889">
<ele>0</ele>
</trkpt>
<trkpt lat="36.10669194444444" lon="133.0396438888889">
<ele>0</ele>
</trkpt>
<trkpt lat="36.10669194444444" lon="133.0396438888889">
<ele>0</ele>
</trkpt>
<trkpt lat="36.10708388888889" lon="133.03977111111112">
<ele>0</ele>
</trkpt>
<trkpt lat="36.10724305555556" lon="133.0399211111111">
<ele>1</ele>
</trkpt>
<trkpt lat="36.107326111111114" lon="133.0400588888889">
<ele>0</ele>
</trkpt>
<trkpt lat="36.10744305555556" lon="133.04033305555555">
<ele>0</ele>
</trkpt>
<trkpt lat="36.10753388888889" lon="133.04053305555556">
<ele>1</ele>
</trkpt>
<trkpt lat="36.107618055555555" lon="133.04063305555556">
<ele>2</ele>
</trkpt>
<trkpt lat="36.10770888888889" lon="133.04069611111112">
<ele>3</ele>
</trkpt>
<trkpt lat="36.10815888888889" lon="133.04078305555555">
<ele>0</ele>
</trkpt>
<trkpt lat="36.10835888888889" lon="133.04079611111112">
<ele>0</ele>
</trkpt>
<trkpt lat="36.10841" lon="133.0407911111111">
<ele>0</ele>
</trkpt>
    </trkseg>
  </trk>
</gpx>