<?xml version="1.0" encoding="UTF-8"?>
<gpx version="1.1"
     creator="KMLtoGPX"
     xmlns="http://www.topografix.com/GPX/1/1">
  <metadata>
    <name>Yawata HighlandLake Hijiriko area</name>
    <desc>八幡高原・聖湖エリア</desc>
    <bounds minlat="34.63959388888889" minlon="132.16001305555557" maxlat="34.734785" maxlon="132.25035305555556"/>
  </metadata>
  <trk>
    <name>Yawata HighlandLake Hijiriko area</name>
    <trkseg>
<trkpt lat="34.70588611111111" lon="132.1867711111111">
<ele>809</ele>
</trkpt>
<trkpt lat="34.70572" lon="132.18640888888888">
<ele>809</ele>
</trkpt>
<trkpt lat="34.705553055555555" lon="132.18594611111112">
<ele>809</ele>
</trkpt>
<trkpt lat="34.70540305555556" lon="132.18535888888889">
<ele>808</ele>
</trkpt>
<trkpt lat="34.70525305555555" lon="132.1845088888889">
<ele>807</ele>
</trkpt>
<trkpt lat="34.70517805555556" lon="132.18434694444446">
<ele>807</ele>
</trkpt>
<trkpt lat="34.70505305555555" lon="132.18419694444444">
<ele>807</ele>
</trkpt>
<trkpt lat="34.704953055555556" lon="132.18407194444444">
<ele>807</ele>
</trkpt>
<trkpt lat="34.70478611111111" lon="132.18394694444444">
<ele>807</ele>
</trkpt>
<trkpt lat="34.702945" lon="132.18197194444446">
<ele>804</ele>
</trkpt>
<trkpt lat="34.70278694444445" lon="132.18177194444445">
<ele>803</ele>
</trkpt>
<trkpt lat="34.702745" lon="132.18162194444446">
<ele>803</ele>
</trkpt>
<trkpt lat="34.70241194444444" lon="132.1795588888889">
<ele>799</ele>
</trkpt>
<trkpt lat="34.702295" lon="132.17884694444444">
<ele>798</ele>
</trkpt>
<trkpt lat="34.70227805555555" lon="132.17879694444446">
<ele>798</ele>
</trkpt>
<trkpt lat="34.702086944444446" lon="132.17842194444444">
<ele>798</ele>
</trkpt>
<trkpt lat="34.70191194444445" lon="132.178135">
<ele>798</ele>
</trkpt>
<trkpt lat="34.701795" lon="132.17792194444445">
<ele>798</ele>
</trkpt>
<trkpt lat="34.70172" lon="132.17766">
<ele>798</ele>
</trkpt>
<trkpt lat="34.701595" lon="132.17717194444444">
<ele>796</ele>
</trkpt>
<trkpt lat="34.70151388888889" lon="132.17680388888888">
<ele>794</ele>
</trkpt>
<trkpt lat="34.70151388888889" lon="132.17680388888888">
<ele>794</ele>
</trkpt>
<trkpt lat="34.70106194444445" lon="132.17474694444445">
<ele>786</ele>
</trkpt>
<trkpt lat="34.70050388888889" lon="132.174485">
<ele>786</ele>
</trkpt>
<trkpt lat="34.70023694444444" lon="132.17429694444445">
<ele>786</ele>
</trkpt>
<trkpt lat="34.699936944444445" lon="132.17407305555557">
<ele>787</ele>
</trkpt>
<trkpt lat="34.699736944444446" lon="132.173935">
<ele>788</ele>
</trkpt>
<trkpt lat="34.69961194444444" lon="132.173885">
<ele>789</ele>
</trkpt>
<trkpt lat="34.69782111111111" lon="132.173835">
<ele>792</ele>
</trkpt>
<trkpt lat="34.69730388888889" lon="132.17379805555555">
<ele>789</ele>
</trkpt>
<trkpt lat="34.69714611111111" lon="132.173735">
<ele>788</ele>
</trkpt>
<trkpt lat="34.69392111111111" lon="132.17063611111112">
<ele>773</ele>
</trkpt>
<trkpt lat="34.693778888888886" lon="132.1705611111111">
<ele>774</ele>
</trkpt>
<trkpt lat="34.69300305555556" lon="132.17051388888888">
<ele>771</ele>
</trkpt>
<trkpt lat="34.69300305555556" lon="132.17051388888888">
<ele>771</ele>
</trkpt>
<trkpt lat="34.69170388888889" lon="132.17043611111112">
<ele>766</ele>
</trkpt>
<trkpt lat="34.69152111111111" lon="132.17043611111112">
<ele>766</ele>
</trkpt>
<trkpt lat="34.69137111111111" lon="132.1704861111111">
<ele>766</ele>
</trkpt>
<trkpt lat="34.69092888888889" lon="132.1707861111111">
<ele>767</ele>
</trkpt>
<trkpt lat="34.69072111111111" lon="132.17092305555556">
<ele>764</ele>
</trkpt>
<trkpt lat="34.68909611111111" lon="132.16992305555556">
<ele>759</ele>
</trkpt>
<trkpt lat="34.68882111111111" lon="132.16976111111111">
<ele>759</ele>
</trkpt>
<trkpt lat="34.68837111111111" lon="132.1694861111111">
<ele>759</ele>
</trkpt>
<trkpt lat="34.68801305555556" lon="132.16932305555557">
<ele>759</ele>
</trkpt>
<trkpt lat="34.68748" lon="132.16972305555555">
<ele>759</ele>
</trkpt>
<trkpt lat="34.68704694444445" lon="132.17027305555555">
<ele>758</ele>
</trkpt>
<trkpt lat="34.686838055555555" lon="132.1701361111111">
<ele>760</ele>
</trkpt>
<trkpt lat="34.68671305555556" lon="132.17017305555555">
<ele>760</ele>
</trkpt>
<trkpt lat="34.686155" lon="132.17049805555556">
<ele>761</ele>
</trkpt>
<trkpt lat="34.68593805555555" lon="132.1706861111111">
<ele>762</ele>
</trkpt>
<trkpt lat="34.68586" lon="132.17080305555555">
<ele>762</ele>
</trkpt>
<trkpt lat="34.68586" lon="132.17080305555555">
<ele>762</ele>
</trkpt>
<trkpt lat="34.68577194444445" lon="132.1709361111111">
<ele>762</ele>
</trkpt>
<trkpt lat="34.685696944444445" lon="132.17107305555555">
<ele>762</ele>
</trkpt>
<trkpt lat="34.685255" lon="132.1714861111111">
<ele>765</ele>
</trkpt>
<trkpt lat="34.685113055555554" lon="132.1714861111111">
<ele>765</ele>
</trkpt>
<trkpt lat="34.68441388888889" lon="132.1709611111111">
<ele>762</ele>
</trkpt>
<trkpt lat="34.68366388888889" lon="132.17031111111112">
<ele>757</ele>
</trkpt>
<trkpt lat="34.68356388888889" lon="132.17014805555556">
<ele>757</ele>
</trkpt>
<trkpt lat="34.683355" lon="132.1694861111111">
<ele>757</ele>
</trkpt>
<trkpt lat="34.68329694444444" lon="132.1693611111111">
<ele>756</ele>
</trkpt>
<trkpt lat="34.68322194444445" lon="132.16927388888888">
<ele>756</ele>
</trkpt>
<trkpt lat="34.682921944444445" lon="132.1692238888889">
<ele>760</ele>
</trkpt>
<trkpt lat="34.68273" lon="132.1690361111111">
<ele>763</ele>
</trkpt>
<trkpt lat="34.682521944444446" lon="132.1689111111111">
<ele>763</ele>
</trkpt>
<trkpt lat="34.682138888888886" lon="132.1687988888889">
<ele>761</ele>
</trkpt>
<trkpt lat="34.68201388888889" lon="132.16872388888888">
<ele>762</ele>
</trkpt>
<trkpt lat="34.68183111111111" lon="132.1684611111111">
<ele>761</ele>
</trkpt>
<trkpt lat="34.68161388888889" lon="132.16828611111112">
<ele>762</ele>
</trkpt>
<trkpt lat="34.68104694444445" lon="132.16803611111112">
<ele>763</ele>
</trkpt>
<trkpt lat="34.67881388888889" lon="132.16724888888888">
<ele>765</ele>
</trkpt>
<trkpt lat="34.67865611111111" lon="132.16712388888888">
<ele>764</ele>
</trkpt>
<trkpt lat="34.67847305555556" lon="132.16689888888888">
<ele>766</ele>
</trkpt>
<trkpt lat="34.67833888888889" lon="132.1668361111111">
<ele>764</ele>
</trkpt>
<trkpt lat="34.67814805555555" lon="132.1668361111111">
<ele>761</ele>
</trkpt>
<trkpt lat="34.67792305555555" lon="132.1668738888889">
<ele>765</ele>
</trkpt>
<trkpt lat="34.67653111111111" lon="132.1676238888889">
<ele>761</ele>
</trkpt>
<trkpt lat="34.67638888888889" lon="132.16782388888888">
<ele>762</ele>
</trkpt>
<trkpt lat="34.67640611111111" lon="132.1680988888889">
<ele>762</ele>
</trkpt>
<trkpt lat="34.67643888888889" lon="132.1682988888889">
<ele>761</ele>
</trkpt>
<trkpt lat="34.67643888888889" lon="132.1684611111111">
<ele>760</ele>
</trkpt>
<trkpt lat="34.676338888888885" lon="132.16859888888888">
<ele>760</ele>
</trkpt>
<trkpt lat="34.67621388888889" lon="132.16859888888888">
<ele>762</ele>
</trkpt>
<trkpt lat="34.67603888888889" lon="132.1684238888889">
<ele>764</ele>
</trkpt>
<trkpt lat="34.67566388888889" lon="132.16814888888888">
<ele>766</ele>
</trkpt>
<trkpt lat="34.675131111111114" lon="132.16793611111112">
<ele>768</ele>
</trkpt>
<trkpt lat="34.674573055555555" lon="132.16782388888888">
<ele>766</ele>
</trkpt>
<trkpt lat="34.67449194444445" lon="132.16774">
<ele>766</ele>
</trkpt>
<trkpt lat="34.67449194444445" lon="132.16774">
<ele>766</ele>
</trkpt>
<trkpt lat="34.67444" lon="132.16768611111112">
<ele>767</ele>
</trkpt>
<trkpt lat="34.674281111111114" lon="132.16737388888887">
<ele>766</ele>
</trkpt>
<trkpt lat="34.67404" lon="132.16703694444445">
<ele>762</ele>
</trkpt>
<trkpt lat="34.673815" lon="132.16693694444444">
<ele>763</ele>
</trkpt>
<trkpt lat="34.673473055555554" lon="132.16686194444443">
<ele>758</ele>
</trkpt>
<trkpt lat="34.67319" lon="132.1668738888889">
<ele>765</ele>
</trkpt>
<trkpt lat="34.673073055555555" lon="132.1669738888889">
<ele>766</ele>
</trkpt>
<trkpt lat="34.672865" lon="132.16731194444444">
<ele>766</ele>
</trkpt>
<trkpt lat="34.67269" lon="132.16746194444445">
<ele>769</ele>
</trkpt>
<trkpt lat="34.672565" lon="132.16746194444445">
<ele>766</ele>
</trkpt>
<trkpt lat="34.67243194444445" lon="132.1673988888889">
<ele>765</ele>
</trkpt>
<trkpt lat="34.67218305555556" lon="132.16707694444443">
<ele>764</ele>
</trkpt>
<trkpt lat="34.67218305555556" lon="132.16707694444443">
<ele>764</ele>
</trkpt>
<trkpt lat="34.672111944444445" lon="132.1669861111111">
<ele>764</ele>
</trkpt>
<trkpt lat="34.672111944444445" lon="132.1669861111111">
<ele>764</ele>
</trkpt>
<trkpt lat="34.671706944444445" lon="132.16646194444445">
<ele>763</ele>
</trkpt>
<trkpt lat="34.671465" lon="132.16603694444444">
<ele>758</ele>
</trkpt>
<trkpt lat="34.67129805555555" lon="132.16586194444446">
<ele>755</ele>
</trkpt>
<trkpt lat="34.671173055555556" lon="132.16581194444444">
<ele>753</ele>
</trkpt>
<trkpt lat="34.67109" lon="132.16577388888888">
<ele>752</ele>
</trkpt>
<trkpt lat="34.67054" lon="132.16571194444444">
<ele>753</ele>
</trkpt>
<trkpt lat="34.67044" lon="132.16586194444446">
<ele>757</ele>
</trkpt>
<trkpt lat="34.66997388888889" lon="132.1666988888889">
<ele>764</ele>
</trkpt>
<trkpt lat="34.66987388888889" lon="132.16681194444445">
<ele>767</ele>
</trkpt>
<trkpt lat="34.66965694444445" lon="132.1671738888889">
<ele>768</ele>
</trkpt>
<trkpt lat="34.669556944444444" lon="132.16722388888888">
<ele>766</ele>
</trkpt>
<trkpt lat="34.668965" lon="132.16723694444445">
<ele>761</ele>
</trkpt>
<trkpt lat="34.66880694444445" lon="132.1671738888889">
<ele>764</ele>
</trkpt>
<trkpt lat="34.668548888888886" lon="132.16688694444446">
<ele>761</ele>
</trkpt>
<trkpt lat="34.66823194444444" lon="132.1664988888889">
<ele>759</ele>
</trkpt>
<trkpt lat="34.66797388888889" lon="132.16628694444444">
<ele>764</ele>
</trkpt>
<trkpt lat="34.66775694444444" lon="132.1661488888889">
<ele>764</ele>
</trkpt>
<trkpt lat="34.66757388888889" lon="132.1660488888889">
<ele>763</ele>
</trkpt>
<trkpt lat="34.66738194444444" lon="132.16599888888888">
<ele>765</ele>
</trkpt>
<trkpt lat="34.667206944444445" lon="132.1660238888889">
<ele>762</ele>
</trkpt>
<trkpt lat="34.66705694444445" lon="132.1660738888889">
<ele>765</ele>
</trkpt>
<trkpt lat="34.66694888888889" lon="132.16623694444445">
<ele>766</ele>
</trkpt>
<trkpt lat="34.66679111111111" lon="132.16666194444446">
<ele>766</ele>
</trkpt>
<trkpt lat="34.66659888888889" lon="132.16716194444444">
<ele>774</ele>
</trkpt>
<trkpt lat="34.666356944444445" lon="132.16758694444445">
<ele>774</ele>
</trkpt>
<trkpt lat="34.66619111111111" lon="132.16768694444445">
<ele>773</ele>
</trkpt>
<trkpt lat="34.665906944444444" lon="132.16766194444443">
<ele>770</ele>
</trkpt>
<trkpt lat="34.665441111111114" lon="132.16758694444445">
<ele>767</ele>
</trkpt>
<trkpt lat="34.66522388888889" lon="132.16769888888888">
<ele>768</ele>
</trkpt>
<trkpt lat="34.66474888888889" lon="132.16802388888888">
<ele>770</ele>
</trkpt>
<trkpt lat="34.66451611111111" lon="132.16798694444444">
<ele>767</ele>
</trkpt>
<trkpt lat="34.664273888888886" lon="132.16779888888888">
<ele>767</ele>
</trkpt>
<trkpt lat="34.66409888888889" lon="132.1674988888889">
<ele>764</ele>
</trkpt>
<trkpt lat="34.66408305555556" lon="132.1674561111111">
<ele>764</ele>
</trkpt>
<trkpt lat="34.66408305555556" lon="132.1674561111111">
<ele>764</ele>
</trkpt>
<trkpt lat="34.663491111111114" lon="132.16585">
<ele>764</ele>
</trkpt>
<trkpt lat="34.663491111111114" lon="132.16543694444445">
<ele>764</ele>
</trkpt>
<trkpt lat="34.66352388888889" lon="132.16466194444445">
<ele>761</ele>
</trkpt>
<trkpt lat="34.663558055555555" lon="132.164225">
<ele>764</ele>
</trkpt>
<trkpt lat="34.66356611111111" lon="132.164025">
<ele>762</ele>
</trkpt>
<trkpt lat="34.663533055555554" lon="132.16388694444444">
<ele>758</ele>
</trkpt>
<trkpt lat="34.66336611111111" lon="132.16375">
<ele>758</ele>
</trkpt>
<trkpt lat="34.66324111111111" lon="132.163675">
<ele>758</ele>
</trkpt>
<trkpt lat="34.66285805555555" lon="132.163775">
<ele>759</ele>
</trkpt>
<trkpt lat="34.66263305555555" lon="132.16376194444445">
<ele>759</ele>
</trkpt>
<trkpt lat="34.66238305555556" lon="132.16361194444445">
<ele>760</ele>
</trkpt>
<trkpt lat="34.661858055555555" lon="132.16315">
<ele>772</ele>
</trkpt>
<trkpt lat="34.661698888888886" lon="132.16305">
<ele>772</ele>
</trkpt>
<trkpt lat="34.66151611111111" lon="132.16306194444445">
<ele>771</ele>
</trkpt>
<trkpt lat="34.66111611111111" lon="132.1635">
<ele>775</ele>
</trkpt>
<trkpt lat="34.66082388888889" lon="132.163675">
<ele>771</ele>
</trkpt>
<trkpt lat="34.66060805555556" lon="132.163675">
<ele>774</ele>
</trkpt>
<trkpt lat="34.66034888888889" lon="132.163575">
<ele>769</ele>
</trkpt>
<trkpt lat="34.66014111111111" lon="132.1636">
<ele>758</ele>
</trkpt>
<trkpt lat="34.659908055555555" lon="132.16371305555555">
<ele>763</ele>
</trkpt>
<trkpt lat="34.659708055555555" lon="132.1639">
<ele>764</ele>
</trkpt>
<trkpt lat="34.65955" lon="132.164">
<ele>767</ele>
</trkpt>
<trkpt lat="34.65934111111111" lon="132.16401305555556">
<ele>765</ele>
</trkpt>
<trkpt lat="34.65926611111111" lon="132.163925">
<ele>765</ele>
</trkpt>
<trkpt lat="34.65919111111111" lon="132.1636">
<ele>766</ele>
</trkpt>
<trkpt lat="34.6591" lon="132.16333694444444">
<ele>767</ele>
</trkpt>
<trkpt lat="34.65895" lon="132.16321194444444">
<ele>770</ele>
</trkpt>
<trkpt lat="34.65844111111111" lon="132.16306194444445">
<ele>775</ele>
</trkpt>
<trkpt lat="34.65828305555556" lon="132.16296194444445">
<ele>776</ele>
</trkpt>
<trkpt lat="34.65811611111111" lon="132.1628">
<ele>776</ele>
</trkpt>
<trkpt lat="34.657975" lon="132.162575">
<ele>775</ele>
</trkpt>
<trkpt lat="34.65785" lon="132.162325">
<ele>775</ele>
</trkpt>
<trkpt lat="34.65776611111111" lon="132.16211305555555">
<ele>768</ele>
</trkpt>
<trkpt lat="34.65779111111111" lon="132.161525">
<ele>769</ele>
</trkpt>
<trkpt lat="34.6577" lon="132.16146305555554">
<ele>765</ele>
</trkpt>
<trkpt lat="34.65735" lon="132.16146305555554">
<ele>755</ele>
</trkpt>
<trkpt lat="34.65721611111111" lon="132.1616">
<ele>759</ele>
</trkpt>
<trkpt lat="34.65708305555555" lon="132.16205">
<ele>757</ele>
</trkpt>
<trkpt lat="34.65691694444445" lon="132.16251305555556">
<ele>755</ele>
</trkpt>
<trkpt lat="34.65674194444444" lon="132.162775">
<ele>761</ele>
</trkpt>
<trkpt lat="34.656508055555555" lon="132.16305">
<ele>767</ele>
</trkpt>
<trkpt lat="34.65631694444444" lon="132.163125">
<ele>767</ele>
</trkpt>
<trkpt lat="34.655875" lon="132.1631">
<ele>772</ele>
</trkpt>
<trkpt lat="34.65570805555556" lon="132.16321305555556">
<ele>769</ele>
</trkpt>
<trkpt lat="34.65548305555556" lon="132.1633">
<ele>769</ele>
</trkpt>
<trkpt lat="34.65531694444444" lon="132.16331305555556">
<ele>768</ele>
</trkpt>
<trkpt lat="34.655141944444445" lon="132.1632">
<ele>776</ele>
</trkpt>
<trkpt lat="34.65483305555556" lon="132.16273805555556">
<ele>774</ele>
</trkpt>
<trkpt lat="34.65470805555555" lon="132.16266305555556">
<ele>777</ele>
</trkpt>
<trkpt lat="34.65443388888889" lon="132.1626">
<ele>774</ele>
</trkpt>
<trkpt lat="34.6543" lon="132.162525">
<ele>778</ele>
</trkpt>
<trkpt lat="34.65419194444444" lon="132.16228805555556">
<ele>776</ele>
</trkpt>
<trkpt lat="34.65405" lon="132.16211305555555">
<ele>773</ele>
</trkpt>
<trkpt lat="34.65385888888889" lon="132.16193805555557">
<ele>764</ele>
</trkpt>
<trkpt lat="34.653725" lon="132.161775">
<ele>766</ele>
</trkpt>
<trkpt lat="34.65355888888889" lon="132.1613">
<ele>761</ele>
</trkpt>
<trkpt lat="34.653425" lon="132.1611">
<ele>756</ele>
</trkpt>
<trkpt lat="34.65323388888889" lon="132.16076305555555">
<ele>758</ele>
</trkpt>
<trkpt lat="34.65298388888889" lon="132.16045111111112">
<ele>754</ele>
</trkpt>
<trkpt lat="34.652766944444444" lon="132.1601261111111">
<ele>753</ele>
</trkpt>
<trkpt lat="34.65266694444445" lon="132.16001305555557">
<ele>756</ele>
</trkpt>
<trkpt lat="34.652225" lon="132.16010111111112">
<ele>748</ele>
</trkpt>
<trkpt lat="34.652208888888886" lon="132.16028805555555">
<ele>756</ele>
</trkpt>
<trkpt lat="34.65225888888889" lon="132.16065111111112">
<ele>761</ele>
</trkpt>
<trkpt lat="34.6523" lon="132.1610261111111">
<ele>765</ele>
</trkpt>
<trkpt lat="34.65231694444444" lon="132.16136305555557">
<ele>766</ele>
</trkpt>
<trkpt lat="34.65230888888889" lon="132.16163805555556">
<ele>766</ele>
</trkpt>
<trkpt lat="34.65225888888889" lon="132.16191305555554">
<ele>763</ele>
</trkpt>
<trkpt lat="34.65208388888889" lon="132.16226305555554">
<ele>766</ele>
</trkpt>
<trkpt lat="34.65179194444445" lon="132.1627">
<ele>765</ele>
</trkpt>
<trkpt lat="34.65164194444444" lon="132.16305">
<ele>768</ele>
</trkpt>
<trkpt lat="34.65152611111111" lon="132.16346305555555">
<ele>764</ele>
</trkpt>
<trkpt lat="34.65150111111111" lon="132.163675">
<ele>762</ele>
</trkpt>
<trkpt lat="34.65150111111111" lon="132.163875">
<ele>764</ele>
</trkpt>
<trkpt lat="34.651541944444446" lon="132.16406305555554">
<ele>766</ele>
</trkpt>
<trkpt lat="34.65173388888889" lon="132.16453805555557">
<ele>769</ele>
</trkpt>
<trkpt lat="34.65173388888889" lon="132.16471305555555">
<ele>766</ele>
</trkpt>
<trkpt lat="34.65153388888889" lon="132.16501305555556">
<ele>765</ele>
</trkpt>
<trkpt lat="34.65156694444445" lon="132.16511305555557">
<ele>763</ele>
</trkpt>
<trkpt lat="34.65180888888889" lon="132.16543694444445">
<ele>761</ele>
</trkpt>
<trkpt lat="34.65186694444444" lon="132.16553694444445">
<ele>764</ele>
</trkpt>
<trkpt lat="34.65188388888889" lon="132.16593805555556">
<ele>766</ele>
</trkpt>
<trkpt lat="34.65175888888889" lon="132.1666">
<ele>766</ele>
</trkpt>
<trkpt lat="34.65161694444444" lon="132.16715">
<ele>764</ele>
</trkpt>
<trkpt lat="34.65150888888889" lon="132.167475">
<ele>762</ele>
</trkpt>
<trkpt lat="34.65140805555556" lon="132.16757194444443">
<ele>762</ele>
</trkpt>
<trkpt lat="34.65140805555556" lon="132.16757194444443">
<ele>762</ele>
</trkpt>
<trkpt lat="34.65139194444444" lon="132.16758694444445">
<ele>763</ele>
</trkpt>
<trkpt lat="34.651116944444446" lon="132.16785">
<ele>760</ele>
</trkpt>
<trkpt lat="34.65092611111111" lon="132.168125">
<ele>756</ele>
</trkpt>
<trkpt lat="34.650933888888886" lon="132.16826305555554">
<ele>754</ele>
</trkpt>
<trkpt lat="34.65160111111111" lon="132.16931194444444">
<ele>745</ele>
</trkpt>
<trkpt lat="34.65192611111111" lon="132.1698">
<ele>750</ele>
</trkpt>
<trkpt lat="34.652076111111114" lon="132.17005">
<ele>756</ele>
</trkpt>
<trkpt lat="34.65221694444445" lon="132.170225">
<ele>766</ele>
</trkpt>
<trkpt lat="34.652408888888885" lon="132.17035">
<ele>768</ele>
</trkpt>
<trkpt lat="34.65264194444445" lon="132.17036194444444">
<ele>766</ele>
</trkpt>
<trkpt lat="34.652766944444444" lon="132.17025">
<ele>766</ele>
</trkpt>
<trkpt lat="34.65285111111111" lon="132.16995">
<ele>765</ele>
</trkpt>
<trkpt lat="34.652966944444444" lon="132.1698">
<ele>769</ele>
</trkpt>
<trkpt lat="34.65309194444445" lon="132.16975">
<ele>768</ele>
</trkpt>
<trkpt lat="34.65332611111111" lon="132.16976194444445">
<ele>767</ele>
</trkpt>
<trkpt lat="34.65380888888889" lon="132.169875">
<ele>765</ele>
</trkpt>
<trkpt lat="34.65398388888889" lon="132.16993694444446">
<ele>765</ele>
</trkpt>
<trkpt lat="34.65424194444444" lon="132.1702">
<ele>763</ele>
</trkpt>
<trkpt lat="34.654275" lon="132.1705">
<ele>766</ele>
</trkpt>
<trkpt lat="34.65408388888889" lon="132.17123694444444">
<ele>766</ele>
</trkpt>
<trkpt lat="34.654075" lon="132.1717238888889">
<ele>766</ele>
</trkpt>
<trkpt lat="34.654116944444446" lon="132.17199888888888">
<ele>763</ele>
</trkpt>
<trkpt lat="34.65425888888889" lon="132.17244888888888">
<ele>762</ele>
</trkpt>
<trkpt lat="34.654333888888885" lon="132.17253694444443">
<ele>761</ele>
</trkpt>
<trkpt lat="34.654425" lon="132.17258694444445">
<ele>763</ele>
</trkpt>
<trkpt lat="34.65458388888889" lon="132.17253694444443">
<ele>764</ele>
</trkpt>
<trkpt lat="34.654966944444446" lon="132.17236194444445">
<ele>765</ele>
</trkpt>
<trkpt lat="34.655175" lon="132.17234888888888">
<ele>766</ele>
</trkpt>
<trkpt lat="34.655541944444444" lon="132.17261194444444">
<ele>765</ele>
</trkpt>
<trkpt lat="34.655875" lon="132.17263694444443">
<ele>765</ele>
</trkpt>
<trkpt lat="34.656258888888885" lon="132.17278694444445">
<ele>764</ele>
</trkpt>
<trkpt lat="34.656733055555556" lon="132.1730738888889">
<ele>765</ele>
</trkpt>
<trkpt lat="34.657" lon="132.1730738888889">
<ele>764</ele>
</trkpt>
<trkpt lat="34.657175" lon="132.1729488888889">
<ele>764</ele>
</trkpt>
<trkpt lat="34.65741694444444" lon="132.17293694444444">
<ele>767</ele>
</trkpt>
<trkpt lat="34.65756694444445" lon="132.17311194444446">
<ele>761</ele>
</trkpt>
<trkpt lat="34.6578" lon="132.17361194444445">
<ele>760</ele>
</trkpt>
<trkpt lat="34.657916944444445" lon="132.1737738888889">
<ele>760</ele>
</trkpt>
<trkpt lat="34.658075" lon="132.17386194444444">
<ele>764</ele>
</trkpt>
<trkpt lat="34.658118888888886" lon="132.17387694444446">
<ele>764</ele>
</trkpt>
<trkpt lat="34.658118888888886" lon="132.17387694444446">
<ele>764</ele>
</trkpt>
<trkpt lat="34.65835805555555" lon="132.17396194444444">
<ele>764</ele>
</trkpt>
<trkpt lat="34.658475" lon="132.1740988888889">
<ele>766</ele>
</trkpt>
<trkpt lat="34.65853305555556" lon="132.17426194444445">
<ele>767</ele>
</trkpt>
<trkpt lat="34.65853305555556" lon="132.17451194444445">
<ele>766</ele>
</trkpt>
<trkpt lat="34.658566944444445" lon="132.17459888888888">
<ele>763</ele>
</trkpt>
<trkpt lat="34.65868305555556" lon="132.17469888888888">
<ele>765</ele>
</trkpt>
<trkpt lat="34.659" lon="132.1748488888889">
<ele>764</ele>
</trkpt>
<trkpt lat="34.65915805555556" lon="132.1750361111111">
<ele>765</ele>
</trkpt>
<trkpt lat="34.6592" lon="132.1752361111111">
<ele>767</ele>
</trkpt>
<trkpt lat="34.659225" lon="132.1756738888889">
<ele>763</ele>
</trkpt>
<trkpt lat="34.65926611111111" lon="132.17584888888888">
<ele>764</ele>
</trkpt>
<trkpt lat="34.659425" lon="132.17608611111112">
<ele>764</ele>
</trkpt>
<trkpt lat="34.659908055555555" lon="132.17666111111112">
<ele>767</ele>
</trkpt>
<trkpt lat="34.659975" lon="132.17676111111112">
<ele>765</ele>
</trkpt>
<trkpt lat="34.66" lon="132.17686111111112">
<ele>764</ele>
</trkpt>
<trkpt lat="34.66" lon="132.1771488888889">
<ele>764</ele>
</trkpt>
<trkpt lat="34.66005" lon="132.1772861111111">
<ele>763</ele>
</trkpt>
<trkpt lat="34.66016611111111" lon="132.17732388888888">
<ele>763</ele>
</trkpt>
<trkpt lat="34.66059111111111" lon="132.17729888888888">
<ele>764</ele>
</trkpt>
<trkpt lat="34.66084111111111" lon="132.1772861111111">
<ele>765</ele>
</trkpt>
<trkpt lat="34.66105" lon="132.17733611111112">
<ele>765</ele>
</trkpt>
<trkpt lat="34.66125805555556" lon="132.17752388888889">
<ele>763</ele>
</trkpt>
<trkpt lat="34.66150805555556" lon="132.1776361111111">
<ele>762</ele>
</trkpt>
<trkpt lat="34.661675" lon="132.17778611111112">
<ele>761</ele>
</trkpt>
<trkpt lat="34.66175805555555" lon="132.1779488888889">
<ele>763</ele>
</trkpt>
<trkpt lat="34.66191611111111" lon="132.1783988888889">
<ele>766</ele>
</trkpt>
<trkpt lat="34.66202388888889" lon="132.17857388888888">
<ele>767</ele>
</trkpt>
<trkpt lat="34.662283055555555" lon="132.17884805555556">
<ele>768</ele>
</trkpt>
<trkpt lat="34.66259888888889" lon="132.17927305555557">
<ele>776</ele>
</trkpt>
<trkpt lat="34.66272388888889" lon="132.1793861111111">
<ele>775</ele>
</trkpt>
<trkpt lat="34.66284888888889" lon="132.1794361111111">
<ele>776</ele>
</trkpt>
<trkpt lat="34.66307388888889" lon="132.17946111111112">
<ele>773</ele>
</trkpt>
<trkpt lat="34.663491111111114" lon="132.17962305555557">
<ele>779</ele>
</trkpt>
<trkpt lat="34.663808055555556" lon="132.17967305555555">
<ele>779</ele>
</trkpt>
<trkpt lat="34.66404111111111" lon="132.1797361111111">
<ele>781</ele>
</trkpt>
<trkpt lat="34.664433055555556" lon="132.18012305555555">
<ele>785</ele>
</trkpt>
<trkpt lat="34.66464111111111" lon="132.1802361111111">
<ele>788</ele>
</trkpt>
<trkpt lat="34.66493305555556" lon="132.18034805555556">
<ele>789</ele>
</trkpt>
<trkpt lat="34.66513194444445" lon="132.18048611111112">
<ele>789</ele>
</trkpt>
<trkpt lat="34.665331944444446" lon="132.18062305555554">
<ele>793</ele>
</trkpt>
<trkpt lat="34.665731944444445" lon="132.18082305555555">
<ele>796</ele>
</trkpt>
<trkpt lat="34.666131944444444" lon="132.18107305555554">
<ele>798</ele>
</trkpt>
<trkpt lat="34.66634888888889" lon="132.18129805555554">
<ele>797</ele>
</trkpt>
<trkpt lat="34.666533055555554" lon="132.18147305555556">
<ele>798</ele>
</trkpt>
<trkpt lat="34.66669111111111" lon="132.18153611111111">
<ele>799</ele>
</trkpt>
<trkpt lat="34.666916111111114" lon="132.1815861111111">
<ele>802</ele>
</trkpt>
<trkpt lat="34.667473888888885" lon="132.1816611111111">
<ele>802</ele>
</trkpt>
<trkpt lat="34.66773194444445" lon="132.18177305555557">
<ele>804</ele>
</trkpt>
<trkpt lat="34.667881944444446" lon="132.18194805555555">
<ele>806</ele>
</trkpt>
<trkpt lat="34.66791611111111" lon="132.18207305555555">
<ele>807</ele>
</trkpt>
<trkpt lat="34.66791611111111" lon="132.18229805555555">
<ele>808</ele>
</trkpt>
<trkpt lat="34.66787388888889" lon="132.182535">
<ele>810</ele>
</trkpt>
<trkpt lat="34.66758194444444" lon="132.183035">
<ele>815</ele>
</trkpt>
<trkpt lat="34.66744694444444" lon="132.18335694444445">
<ele>817</ele>
</trkpt>
<trkpt lat="34.66744694444444" lon="132.18335694444445">
<ele>817</ele>
</trkpt>
<trkpt lat="34.66729888888889" lon="132.18371">
<ele>820</ele>
</trkpt>
<trkpt lat="34.66729111111111" lon="132.184185">
<ele>826</ele>
</trkpt>
<trkpt lat="34.66738194444444" lon="132.18441">
<ele>826</ele>
</trkpt>
<trkpt lat="34.66711611111111" lon="132.18479694444446">
<ele>828</ele>
</trkpt>
<trkpt lat="34.66684111111111" lon="132.18532305555556">
<ele>828</ele>
</trkpt>
<trkpt lat="34.666331944444444" lon="132.18637305555555">
<ele>828</ele>
</trkpt>
<trkpt lat="34.66617388888889" lon="132.186685">
<ele>823</ele>
</trkpt>
<trkpt lat="34.66584888888889" lon="132.18746">
<ele>809</ele>
</trkpt>
<trkpt lat="34.66538305555556" lon="132.189135">
<ele>797</ele>
</trkpt>
<trkpt lat="34.66494111111111" lon="132.19064694444444">
<ele>794</ele>
</trkpt>
<trkpt lat="34.66481611111111" lon="132.19099694444444">
<ele>788</ele>
</trkpt>
<trkpt lat="34.66412388888889" lon="132.1923588888889">
<ele>773</ele>
</trkpt>
<trkpt lat="34.66369888888889" lon="132.19298388888888">
<ele>771</ele>
</trkpt>
<trkpt lat="34.6634" lon="132.19340888888888">
<ele>771</ele>
</trkpt>
<trkpt lat="34.663091111111115" lon="132.19374694444446">
<ele>767</ele>
</trkpt>
<trkpt lat="34.66276611111111" lon="132.19397194444446">
<ele>773</ele>
</trkpt>
<trkpt lat="34.66249111111111" lon="132.19408388888888">
<ele>775</ele>
</trkpt>
<trkpt lat="34.662308055555556" lon="132.19410888888888">
<ele>777</ele>
</trkpt>
<trkpt lat="34.661625" lon="132.19409694444445">
<ele>777</ele>
</trkpt>
<trkpt lat="34.661275" lon="132.19402194444444">
<ele>769</ele>
</trkpt>
<trkpt lat="34.66086694444444" lon="132.19388388888888">
<ele>769</ele>
</trkpt>
<trkpt lat="34.66044194444444" lon="132.19367194444445">
<ele>778</ele>
</trkpt>
<trkpt lat="34.65943305555555" lon="132.1929338888889">
<ele>784</ele>
</trkpt>
<trkpt lat="34.65849194444444" lon="132.19217194444445">
<ele>785</ele>
</trkpt>
<trkpt lat="34.65801694444445" lon="132.19189694444444">
<ele>793</ele>
</trkpt>
<trkpt lat="34.65753388888889" lon="132.19167194444444">
<ele>794</ele>
</trkpt>
<trkpt lat="34.657361944444446" lon="132.1916361111111">
<ele>795</ele>
</trkpt>
<trkpt lat="34.657361944444446" lon="132.1916361111111">
<ele>795</ele>
</trkpt>
<trkpt lat="34.65711694444445" lon="132.191585">
<ele>797</ele>
</trkpt>
<trkpt lat="34.6564" lon="132.19156">
<ele>794</ele>
</trkpt>
<trkpt lat="34.6561" lon="132.191585">
<ele>795</ele>
</trkpt>
<trkpt lat="34.655875" lon="132.191585">
<ele>796</ele>
</trkpt>
<trkpt lat="34.65521694444445" lon="132.19169694444443">
<ele>805</ele>
</trkpt>
<trkpt lat="34.65466694444444" lon="132.19189694444444">
<ele>807</ele>
</trkpt>
<trkpt lat="34.65432611111111" lon="132.19206">
<ele>803</ele>
</trkpt>
<trkpt lat="34.654001111111114" lon="132.19226">
<ele>805</ele>
</trkpt>
<trkpt lat="34.653666944444446" lon="132.19252194444445">
<ele>808</ele>
</trkpt>
<trkpt lat="34.653441944444445" lon="132.19281">
<ele>811</ele>
</trkpt>
<trkpt lat="34.65325111111111" lon="132.19311">
<ele>812</ele>
</trkpt>
<trkpt lat="34.65235888888889" lon="132.19522194444446">
<ele>823</ele>
</trkpt>
<trkpt lat="34.65218388888889" lon="132.19554694444443">
<ele>822</ele>
</trkpt>
<trkpt lat="34.65197611111111" lon="132.19579694444445">
<ele>822</ele>
</trkpt>
<trkpt lat="34.65176694444445" lon="132.1959338888889">
<ele>825</ele>
</trkpt>
<trkpt lat="34.65157611111111" lon="132.19602194444445">
<ele>826</ele>
</trkpt>
<trkpt lat="34.65013388888889" lon="132.19642194444444">
<ele>834</ele>
</trkpt>
<trkpt lat="34.64986805555556" lon="132.19649694444445">
<ele>844</ele>
</trkpt>
<trkpt lat="34.64940111111111" lon="132.19668388888888">
<ele>842</ele>
</trkpt>
<trkpt lat="34.64893388888889" lon="132.19690888888888">
<ele>845</ele>
</trkpt>
<trkpt lat="34.64859305555556" lon="132.19713388888889">
<ele>852</ele>
</trkpt>
<trkpt lat="34.64810111111111" lon="132.19754694444444">
<ele>858</ele>
</trkpt>
<trkpt lat="34.64710111111111" lon="132.19867194444444">
<ele>855</ele>
</trkpt>
<trkpt lat="34.64516805555556" lon="132.20088388888888">
<ele>834</ele>
</trkpt>
<trkpt lat="34.64397694444445" lon="132.20213388888888">
<ele>825</ele>
</trkpt>
<trkpt lat="34.64254388888889" lon="132.2038088888889">
<ele>813</ele>
</trkpt>
<trkpt lat="34.64252194444445" lon="132.2038288888889">
<ele>813</ele>
</trkpt>
<trkpt lat="34.64252194444445" lon="132.2038288888889">
<ele>813</ele>
</trkpt>
<trkpt lat="34.64230194444445" lon="132.2040338888889">
<ele>813</ele>
</trkpt>
<trkpt lat="34.64186888888889" lon="132.20428388888888">
<ele>805</ele>
</trkpt>
<trkpt lat="34.64133611111111" lon="132.20453388888888">
<ele>804</ele>
</trkpt>
<trkpt lat="34.641176944444446" lon="132.2046711111111">
<ele>807</ele>
</trkpt>
<trkpt lat="34.64101888888889" lon="132.20485805555555">
<ele>806</ele>
</trkpt>
<trkpt lat="34.64077694444445" lon="132.20538305555556">
<ele>803</ele>
</trkpt>
<trkpt lat="34.64028611111111" lon="132.20702111111112">
<ele>804</ele>
</trkpt>
<trkpt lat="34.64013611111111" lon="132.20778305555555">
<ele>803</ele>
</trkpt>
<trkpt lat="34.64008611111111" lon="132.20808305555556">
<ele>800</ele>
</trkpt>
<trkpt lat="34.640076944444445" lon="132.2089711111111">
<ele>796</ele>
</trkpt>
<trkpt lat="34.640011111111114" lon="132.20928305555555">
<ele>797</ele>
</trkpt>
<trkpt lat="34.63981111111111" lon="132.20974611111112">
<ele>800</ele>
</trkpt>
<trkpt lat="34.63966111111111" lon="132.2102211111111">
<ele>806</ele>
</trkpt>
<trkpt lat="34.63959388888889" lon="132.21055805555557">
<ele>807</ele>
</trkpt>
<trkpt lat="34.63961111111111" lon="132.21095805555555">
<ele>807</ele>
</trkpt>
<trkpt lat="34.63966888888889" lon="132.21143305555555">
<ele>800</ele>
</trkpt>
<trkpt lat="34.63977694444444" lon="132.211745">
<ele>798</ele>
</trkpt>
<trkpt lat="34.639901944444446" lon="132.21197">
<ele>795</ele>
</trkpt>
<trkpt lat="34.64012805555556" lon="132.21228305555556">
<ele>793</ele>
</trkpt>
<trkpt lat="34.64041888888889" lon="132.21255805555555">
<ele>793</ele>
</trkpt>
<trkpt lat="34.64123611111111" lon="132.21317">
<ele>787</ele>
</trkpt>
<trkpt lat="34.64133611111111" lon="132.213245">
<ele>788</ele>
</trkpt>
<trkpt lat="34.64146888888889" lon="132.213395">
<ele>787</ele>
</trkpt>
<trkpt lat="34.64163611111111" lon="132.21357">
<ele>786</ele>
</trkpt>
<trkpt lat="34.64181111111111" lon="132.21388305555556">
<ele>787</ele>
</trkpt>
<trkpt lat="34.64204388888889" lon="132.21452">
<ele>778</ele>
</trkpt>
<trkpt lat="34.64216111111111" lon="132.214795">
<ele>778</ele>
</trkpt>
<trkpt lat="34.64238611111111" lon="132.21517">
<ele>776</ele>
</trkpt>
<trkpt lat="34.642901944444446" lon="132.21565694444445">
<ele>777</ele>
</trkpt>
<trkpt lat="34.64316888888889" lon="132.21602">
<ele>768</ele>
</trkpt>
<trkpt lat="34.64366888888889" lon="132.21689388888888">
<ele>763</ele>
</trkpt>
<trkpt lat="34.64388611111111" lon="132.21718194444443">
<ele>761</ele>
</trkpt>
<trkpt lat="34.64405194444444" lon="132.21696888888889">
<ele>763</ele>
</trkpt>
<trkpt lat="34.644193888888886" lon="132.21700694444445">
<ele>764</ele>
</trkpt>
<trkpt lat="34.644326944444444" lon="132.21713194444445">
<ele>763</ele>
</trkpt>
<trkpt lat="34.64446888888889" lon="132.2171438888889">
<ele>763</ele>
</trkpt>
<trkpt lat="34.64466111111111" lon="132.2172688888889">
<ele>764</ele>
</trkpt>
<trkpt lat="34.645535" lon="132.2172438888889">
<ele>768</ele>
</trkpt>
<trkpt lat="34.645876944444446" lon="132.2174188888889">
<ele>776</ele>
</trkpt>
<trkpt lat="34.646251944444444" lon="132.2174188888889">
<ele>778</ele>
</trkpt>
<trkpt lat="34.64661" lon="132.2175938888889">
<ele>776</ele>
</trkpt>
<trkpt lat="34.64669388888889" lon="132.21756888888888">
<ele>775</ele>
</trkpt>
<trkpt lat="34.64680194444445" lon="132.21743194444446">
<ele>779</ele>
</trkpt>
<trkpt lat="34.64687694444444" lon="132.21720694444446">
<ele>784</ele>
</trkpt>
<trkpt lat="34.64687694444444" lon="132.2170688888889">
<ele>784</ele>
</trkpt>
<trkpt lat="34.64671" lon="132.2166188888889">
<ele>785</ele>
</trkpt>
<trkpt lat="34.64671" lon="132.21651888888888">
<ele>785</ele>
</trkpt>
<trkpt lat="34.646768888888886" lon="132.21641888888888">
<ele>786</ele>
</trkpt>
<trkpt lat="34.64694388888889" lon="132.21640694444446">
<ele>787</ele>
</trkpt>
<trkpt lat="34.647235" lon="132.2165938888889">
<ele>785</ele>
</trkpt>
<trkpt lat="34.647385" lon="132.21660694444444">
<ele>786</ele>
</trkpt>
<trkpt lat="34.647801944444446" lon="132.21638194444444">
<ele>793</ele>
</trkpt>
<trkpt lat="34.648001944444445" lon="132.2161438888889">
<ele>795</ele>
</trkpt>
<trkpt lat="34.64811805555556" lon="132.2161438888889">
<ele>796</ele>
</trkpt>
<trkpt lat="34.64837694444444" lon="132.21621888888887">
<ele>797</ele>
</trkpt>
<trkpt lat="34.64856805555556" lon="132.21621888888887">
<ele>798</ele>
</trkpt>
<trkpt lat="34.64886" lon="132.21631888888888">
<ele>798</ele>
</trkpt>
<trkpt lat="34.648985" lon="132.21629388888888">
<ele>800</ele>
</trkpt>
<trkpt lat="34.64906" lon="132.2162438888889">
<ele>801</ele>
</trkpt>
<trkpt lat="34.64901805555556" lon="132.21618194444446">
<ele>803</ele>
</trkpt>
<trkpt lat="34.64881" lon="132.21605694444443">
<ele>802</ele>
</trkpt>
<trkpt lat="34.64859305555556" lon="132.2159188888889">
<ele>802</ele>
</trkpt>
<trkpt lat="34.648176944444444" lon="132.21586888888888">
<ele>803</ele>
</trkpt>
<trkpt lat="34.648026944444446" lon="132.21580694444444">
<ele>803</ele>
</trkpt>
<trkpt lat="34.647893055555556" lon="132.21570694444443">
<ele>805</ele>
</trkpt>
<trkpt lat="34.64791" lon="132.21562">
<ele>807</ele>
</trkpt>
<trkpt lat="34.64799305555555" lon="132.21560694444443">
<ele>807</ele>
</trkpt>
<trkpt lat="34.648135" lon="132.21560694444443">
<ele>807</ele>
</trkpt>
<trkpt lat="34.64841" lon="132.215695">
<ele>806</ele>
</trkpt>
<trkpt lat="34.64861" lon="132.215695">
<ele>806</ele>
</trkpt>
<trkpt lat="34.648718055555555" lon="132.21560694444443">
<ele>808</ele>
</trkpt>
<trkpt lat="34.648826944444444" lon="132.21543194444445">
<ele>811</ele>
</trkpt>
<trkpt lat="34.648985" lon="132.215445">
<ele>808</ele>
</trkpt>
<trkpt lat="34.649085" lon="132.21578194444444">
<ele>807</ele>
</trkpt>
<trkpt lat="34.649143055555555" lon="132.21586888888888">
<ele>809</ele>
</trkpt>
<trkpt lat="34.64931" lon="132.21588194444445">
<ele>818</ele>
</trkpt>
<trkpt lat="34.64942694444444" lon="132.2157938888889">
<ele>817</ele>
</trkpt>
<trkpt lat="34.64961" lon="132.21553194444445">
<ele>817</ele>
</trkpt>
<trkpt lat="34.649701944444445" lon="132.21545694444444">
<ele>814</ele>
</trkpt>
<trkpt lat="34.64981" lon="132.21547">
<ele>815</ele>
</trkpt>
<trkpt lat="34.64989305555556" lon="132.2155688888889">
<ele>817</ele>
</trkpt>
<trkpt lat="34.649968055555554" lon="132.21570694444443">
<ele>815</ele>
</trkpt>
<trkpt lat="34.65004305555556" lon="132.21578194444444">
<ele>817</ele>
</trkpt>
<trkpt lat="34.65010111111111" lon="132.2158938888889">
<ele>819</ele>
</trkpt>
<trkpt lat="34.65014305555555" lon="132.21605694444443">
<ele>824</ele>
</trkpt>
<trkpt lat="34.65022611111111" lon="132.21615694444444">
<ele>825</ele>
</trkpt>
<trkpt lat="34.65052611111111" lon="132.21615694444444">
<ele>825</ele>
</trkpt>
<trkpt lat="34.65065111111111" lon="132.21613194444444">
<ele>825</ele>
</trkpt>
<trkpt lat="34.65086" lon="132.2161688888889">
<ele>826</ele>
</trkpt>
<trkpt lat="34.65091805555556" lon="132.2161688888889">
<ele>824</ele>
</trkpt>
<trkpt lat="34.650985" lon="132.21613194444444">
<ele>824</ele>
</trkpt>
<trkpt lat="34.65101" lon="132.2157688888889">
<ele>834</ele>
</trkpt>
<trkpt lat="34.65106" lon="132.2156938888889">
<ele>834</ele>
</trkpt>
<trkpt lat="34.65115111111111" lon="132.2156938888889">
<ele>834</ele>
</trkpt>
<trkpt lat="34.651485" lon="132.21570694444443">
<ele>834</ele>
</trkpt>
<trkpt lat="34.65161805555555" lon="132.21560694444443">
<ele>836</ele>
</trkpt>
<trkpt lat="34.651668055555554" lon="132.21548194444443">
<ele>831</ele>
</trkpt>
<trkpt lat="34.651668055555554" lon="132.21529388888888">
<ele>832</ele>
</trkpt>
<trkpt lat="34.65156805555556" lon="132.21488194444444">
<ele>845</ele>
</trkpt>
<trkpt lat="34.651635" lon="132.21472">
<ele>846</ele>
</trkpt>
<trkpt lat="34.65176" lon="132.21465694444444">
<ele>845</ele>
</trkpt>
<trkpt lat="34.651885" lon="132.21465694444444">
<ele>848</ele>
</trkpt>
<trkpt lat="34.65201805555556" lon="132.214845">
<ele>849</ele>
</trkpt>
<trkpt lat="34.65201805555556" lon="132.214845">
<ele>849</ele>
</trkpt>
<trkpt lat="34.652118055555555" lon="132.21487">
<ele>848</ele>
</trkpt>
<trkpt lat="34.65220111111111" lon="132.21483194444446">
<ele>848</ele>
</trkpt>
<trkpt lat="34.652301111111115" lon="132.21468194444444">
<ele>847</ele>
</trkpt>
<trkpt lat="34.65250888888889" lon="132.21468194444444">
<ele>846</ele>
</trkpt>
<trkpt lat="34.65265111111111" lon="132.21457">
<ele>847</ele>
</trkpt>
<trkpt lat="34.65275888888889" lon="132.21458194444443">
<ele>847</ele>
</trkpt>
<trkpt lat="34.65288388888889" lon="132.21475694444445">
<ele>846</ele>
</trkpt>
<trkpt lat="34.65295888888889" lon="132.21480694444443">
<ele>852</ele>
</trkpt>
<trkpt lat="34.653058888888886" lon="132.21478194444444">
<ele>852</ele>
</trkpt>
<trkpt lat="34.65314305555555" lon="132.214595">
<ele>853</ele>
</trkpt>
<trkpt lat="34.653151111111114" lon="132.213795">
<ele>856</ele>
</trkpt>
<trkpt lat="34.653218055555556" lon="132.21367">
<ele>855</ele>
</trkpt>
<trkpt lat="34.65331805555556" lon="132.213595">
<ele>856</ele>
</trkpt>
<trkpt lat="34.65342611111111" lon="132.213645">
<ele>857</ele>
</trkpt>
<trkpt lat="34.65367611111111" lon="132.21413194444443">
<ele>856</ele>
</trkpt>
<trkpt lat="34.653801111111115" lon="132.21428194444445">
<ele>854</ele>
</trkpt>
<trkpt lat="34.65387611111111" lon="132.21428194444445">
<ele>854</ele>
</trkpt>
<trkpt lat="34.65394305555556" lon="132.21420694444444">
<ele>855</ele>
</trkpt>
<trkpt lat="34.65399305555555" lon="132.213995">
<ele>856</ele>
</trkpt>
<trkpt lat="34.65399305555555" lon="132.21375694444444">
<ele>856</ele>
</trkpt>
<trkpt lat="34.65395111111111" lon="132.21358194444446">
<ele>856</ele>
</trkpt>
<trkpt lat="34.65395888888889" lon="132.21325694444445">
<ele>862</ele>
</trkpt>
<trkpt lat="34.65402611111111" lon="132.21312">
<ele>862</ele>
</trkpt>
<trkpt lat="34.654091944444446" lon="132.21302">
<ele>863</ele>
</trkpt>
<trkpt lat="34.654133888888886" lon="132.21280694444445">
<ele>864</ele>
</trkpt>
<trkpt lat="34.65417611111111" lon="132.21272">
<ele>867</ele>
</trkpt>
<trkpt lat="34.65430111111111" lon="132.21258194444445">
<ele>866</ele>
</trkpt>
<trkpt lat="34.654518055555556" lon="132.21227">
<ele>877</ele>
</trkpt>
<trkpt lat="34.65464305555555" lon="132.21227">
<ele>875</ele>
</trkpt>
<trkpt lat="34.65480888888889" lon="132.21238305555556">
<ele>876</ele>
</trkpt>
<trkpt lat="34.65490888888889" lon="132.21238305555556">
<ele>877</ele>
</trkpt>
<trkpt lat="34.65546805555555" lon="132.21218194444444">
<ele>877</ele>
</trkpt>
<trkpt lat="34.65568388888889" lon="132.21215694444444">
<ele>876</ele>
</trkpt>
<trkpt lat="34.656241944444446" lon="132.212095">
<ele>866</ele>
</trkpt>
<trkpt lat="34.65678388888889" lon="132.212245">
<ele>866</ele>
</trkpt>
<trkpt lat="34.65710888888889" lon="132.212245">
<ele>863</ele>
</trkpt>
<trkpt lat="34.657333888888886" lon="132.21237">
<ele>855</ele>
</trkpt>
<trkpt lat="34.65750888888889" lon="132.212495">
<ele>854</ele>
</trkpt>
<trkpt lat="34.65752611111111" lon="132.21263194444444">
<ele>854</ele>
</trkpt>
<trkpt lat="34.65750888888889" lon="132.21283194444445">
<ele>853</ele>
</trkpt>
<trkpt lat="34.65737611111111" lon="132.21322">
<ele>848</ele>
</trkpt>
<trkpt lat="34.65737611111111" lon="132.213295">
<ele>848</ele>
</trkpt>
<trkpt lat="34.65740111111111" lon="132.213345">
<ele>848</ele>
</trkpt>
<trkpt lat="34.657491944444445" lon="132.21335694444446">
<ele>849</ele>
</trkpt>
<trkpt lat="34.65760111111111" lon="132.213195">
<ele>845</ele>
</trkpt>
<trkpt lat="34.65779194444445" lon="132.21300694444443">
<ele>846</ele>
</trkpt>
<trkpt lat="34.65801694444445" lon="132.21292">
<ele>845</ele>
</trkpt>
<trkpt lat="34.65838388888889" lon="132.21288194444443">
<ele>839</ele>
</trkpt>
<trkpt lat="34.65855111111111" lon="132.21303194444445">
<ele>844</ele>
</trkpt>
<trkpt lat="34.65865888888889" lon="132.21307">
<ele>843</ele>
</trkpt>
<trkpt lat="34.65872611111111" lon="132.21302">
<ele>846</ele>
</trkpt>
<trkpt lat="34.65872611111111" lon="132.212895">
<ele>844</ele>
</trkpt>
<trkpt lat="34.65865111111111" lon="132.21282">
<ele>839</ele>
</trkpt>
<trkpt lat="34.65829194444444" lon="132.21257">
<ele>836</ele>
</trkpt>
<trkpt lat="34.65824194444444" lon="132.212445">
<ele>836</ele>
</trkpt>
<trkpt lat="34.65825111111111" lon="132.21233194444446">
<ele>836</ele>
</trkpt>
<trkpt lat="34.65828388888889" lon="132.21223194444445">
<ele>836</ele>
</trkpt>
<trkpt lat="34.65833388888889" lon="132.21217">
<ele>834</ele>
</trkpt>
<trkpt lat="34.65840111111111" lon="132.21217">
<ele>834</ele>
</trkpt>
<trkpt lat="34.65846694444444" lon="132.21223194444445">
<ele>832</ele>
</trkpt>
<trkpt lat="34.65861694444445" lon="132.212295">
<ele>831</ele>
</trkpt>
<trkpt lat="34.65891694444444" lon="132.21227">
<ele>829</ele>
</trkpt>
<trkpt lat="34.65903388888889" lon="132.212245">
<ele>828</ele>
</trkpt>
<trkpt lat="34.65936694444444" lon="132.21190694444445">
<ele>827</ele>
</trkpt>
<trkpt lat="34.6595" lon="132.21182">
<ele>826</ele>
</trkpt>
<trkpt lat="34.659875" lon="132.21153305555555">
<ele>825</ele>
</trkpt>
<trkpt lat="34.660133888888886" lon="132.21122">
<ele>823</ele>
</trkpt>
<trkpt lat="34.6604" lon="132.210795">
<ele>819</ele>
</trkpt>
<trkpt lat="34.660675" lon="132.210195">
<ele>819</ele>
</trkpt>
<trkpt lat="34.660825" lon="132.20982">
<ele>819</ele>
</trkpt>
<trkpt lat="34.66086694444444" lon="132.20960805555555">
<ele>819</ele>
</trkpt>
<trkpt lat="34.66088388888889" lon="132.209095">
<ele>817</ele>
</trkpt>
<trkpt lat="34.66088388888889" lon="132.20793111111112">
<ele>811</ele>
</trkpt>
<trkpt lat="34.66088388888889" lon="132.20793111111112">
<ele>811</ele>
</trkpt>
<trkpt lat="34.66088388888889" lon="132.20748305555554">
<ele>809</ele>
</trkpt>
<trkpt lat="34.66065" lon="132.2059461111111">
<ele>804</ele>
</trkpt>
<trkpt lat="34.66058388888889" lon="132.20538305555556">
<ele>807</ele>
</trkpt>
<trkpt lat="34.66058388888889" lon="132.20480805555556">
<ele>803</ele>
</trkpt>
<trkpt lat="34.66068305555556" lon="132.20458305555556">
<ele>800</ele>
</trkpt>
<trkpt lat="34.660758055555554" lon="132.20419611111112">
<ele>800</ele>
</trkpt>
<trkpt lat="34.6608" lon="132.2040961111111">
<ele>798</ele>
</trkpt>
<trkpt lat="34.66085" lon="132.2039961111111">
<ele>798</ele>
</trkpt>
<trkpt lat="34.660966944444446" lon="132.20388305555556">
<ele>797</ele>
</trkpt>
<trkpt lat="34.66109194444444" lon="132.20378305555556">
<ele>796</ele>
</trkpt>
<trkpt lat="34.661475" lon="132.20360805555555">
<ele>793</ele>
</trkpt>
<trkpt lat="34.661675" lon="132.2034211111111">
<ele>796</ele>
</trkpt>
<trkpt lat="34.66218305555556" lon="132.20318305555554">
<ele>789</ele>
</trkpt>
<trkpt lat="34.66263305555555" lon="132.2031211111111">
<ele>787</ele>
</trkpt>
<trkpt lat="34.662841944444445" lon="132.20305805555554">
<ele>787</ele>
</trkpt>
<trkpt lat="34.66299194444444" lon="132.20300805555556">
<ele>786</ele>
</trkpt>
<trkpt lat="34.66323305555556" lon="132.20280805555555">
<ele>783</ele>
</trkpt>
<trkpt lat="34.663425" lon="132.20249611111112">
<ele>783</ele>
</trkpt>
<trkpt lat="34.66389111111111" lon="132.20159611111112">
<ele>781</ele>
</trkpt>
<trkpt lat="34.6642" lon="132.2009461111111">
<ele>781</ele>
</trkpt>
<trkpt lat="34.664775" lon="132.1998088888889">
<ele>776</ele>
</trkpt>
<trkpt lat="34.66520805555555" lon="132.1988961111111">
<ele>774</ele>
</trkpt>
<trkpt lat="34.66529888888889" lon="132.1984338888889">
<ele>773</ele>
</trkpt>
<trkpt lat="34.665308055555556" lon="132.1983461111111">
<ele>773</ele>
</trkpt>
<trkpt lat="34.66527388888889" lon="132.1982588888889">
<ele>773</ele>
</trkpt>
<trkpt lat="34.66527388888889" lon="132.1982088888889">
<ele>773</ele>
</trkpt>
<trkpt lat="34.665573888888886" lon="132.1985461111111">
<ele>772</ele>
</trkpt>
<trkpt lat="34.66591611111111" lon="132.19884611111112">
<ele>774</ele>
</trkpt>
<trkpt lat="34.66621611111111" lon="132.1989338888889">
<ele>780</ele>
</trkpt>
<trkpt lat="34.66656611111111" lon="132.19895888888888">
<ele>784</ele>
</trkpt>
<trkpt lat="34.66692388888889" lon="132.19885888888888">
<ele>783</ele>
</trkpt>
<trkpt lat="34.66741611111111" lon="132.19883388888888">
<ele>783</ele>
</trkpt>
<trkpt lat="34.66776611111111" lon="132.1989211111111">
<ele>784</ele>
</trkpt>
<trkpt lat="34.66826611111111" lon="132.1991338888889">
<ele>783</ele>
</trkpt>
<trkpt lat="34.66869888888889" lon="132.19920805555554">
<ele>785</ele>
</trkpt>
<trkpt lat="34.66899111111111" lon="132.1991461111111">
<ele>787</ele>
</trkpt>
<trkpt lat="34.669423888888886" lon="132.19905805555555">
<ele>793</ele>
</trkpt>
<trkpt lat="34.66967388888889" lon="132.1990461111111">
<ele>792</ele>
</trkpt>
<trkpt lat="34.66987388888889" lon="132.19908305555555">
<ele>791</ele>
</trkpt>
<trkpt lat="34.670256944444446" lon="132.19935805555556">
<ele>791</ele>
</trkpt>
<trkpt lat="34.67052388888889" lon="132.1996211111111">
<ele>789</ele>
</trkpt>
<trkpt lat="34.67073194444445" lon="132.19985805555555">
<ele>788</ele>
</trkpt>
<trkpt lat="34.67090694444445" lon="132.20013305555557">
<ele>786</ele>
</trkpt>
<trkpt lat="34.67119888888889" lon="132.20063305555556">
<ele>784</ele>
</trkpt>
<trkpt lat="34.67138194444444" lon="132.20085805555556">
<ele>785</ele>
</trkpt>
<trkpt lat="34.671481944444444" lon="132.2009711111111">
<ele>780</ele>
</trkpt>
<trkpt lat="34.671756944444446" lon="132.20124611111112">
<ele>774</ele>
</trkpt>
<trkpt lat="34.67215" lon="132.20143805555554">
<ele>774</ele>
</trkpt>
<trkpt lat="34.67215" lon="132.20143694444445">
<ele>774</ele>
</trkpt>
<trkpt lat="34.67252388888889" lon="132.2016211111111">
<ele>775</ele>
</trkpt>
<trkpt lat="34.672781944444445" lon="132.2017211111111">
<ele>777</ele>
</trkpt>
<trkpt lat="34.67307388888889" lon="132.2019711111111">
<ele>772</ele>
</trkpt>
<trkpt lat="34.674706944444445" lon="132.20332">
<ele>767</ele>
</trkpt>
<trkpt lat="34.67499" lon="132.20365805555556">
<ele>759</ele>
</trkpt>
<trkpt lat="34.67507388888889" lon="132.204045">
<ele>753</ele>
</trkpt>
<trkpt lat="34.67494" lon="132.20515805555556">
<ele>747</ele>
</trkpt>
<trkpt lat="34.67478194444445" lon="132.20633305555555">
<ele>739</ele>
</trkpt>
<trkpt lat="34.67469" lon="132.207195">
<ele>739</ele>
</trkpt>
<trkpt lat="34.67449111111111" lon="132.20830694444444">
<ele>727</ele>
</trkpt>
<trkpt lat="34.67446611111111" lon="132.20852">
<ele>728</ele>
</trkpt>
<trkpt lat="34.674481944444445" lon="132.20865694444444">
<ele>728</ele>
</trkpt>
<trkpt lat="34.67449888888889" lon="132.20878194444444">
<ele>725</ele>
</trkpt>
<trkpt lat="34.67457388888889" lon="132.20888194444444">
<ele>729</ele>
</trkpt>
<trkpt lat="34.67484888888889" lon="132.209145">
<ele>725</ele>
</trkpt>
<trkpt lat="34.67494888888889" lon="132.20925694444443">
<ele>725</ele>
</trkpt>
<trkpt lat="34.67509111111111" lon="132.20937">
<ele>726</ele>
</trkpt>
<trkpt lat="34.67525694444444" lon="132.20942">
<ele>729</ele>
</trkpt>
<trkpt lat="34.675581944444446" lon="132.20958194444444">
<ele>726</ele>
</trkpt>
<trkpt lat="34.67568194444444" lon="132.20963194444445">
<ele>727</ele>
</trkpt>
<trkpt lat="34.67584" lon="132.209695">
<ele>724</ele>
</trkpt>
<trkpt lat="34.67609888888889" lon="132.20975694444445">
<ele>724</ele>
</trkpt>
<trkpt lat="34.67634888888889" lon="132.209845">
<ele>716</ele>
</trkpt>
<trkpt lat="34.67655694444444" lon="132.20992">
<ele>713</ele>
</trkpt>
<trkpt lat="34.67669" lon="132.21005694444443">
<ele>708</ele>
</trkpt>
<trkpt lat="34.67689" lon="132.210395">
<ele>707</ele>
</trkpt>
<trkpt lat="34.67717388888889" lon="132.21075694444446">
<ele>705</ele>
</trkpt>
<trkpt lat="34.67738194444444" lon="132.21100694444445">
<ele>700</ele>
</trkpt>
<trkpt lat="34.677681944444444" lon="132.21125694444444">
<ele>697</ele>
</trkpt>
<trkpt lat="34.678106944444444" lon="132.21155694444445">
<ele>695</ele>
</trkpt>
<trkpt lat="34.67847388888889" lon="132.21175694444443">
<ele>696</ele>
</trkpt>
<trkpt lat="34.680348055555555" lon="132.21298194444444">
<ele>697</ele>
</trkpt>
<trkpt lat="34.680906944444445" lon="132.21336888888888">
<ele>692</ele>
</trkpt>
<trkpt lat="34.68118194444445" lon="132.2136188888889">
<ele>694</ele>
</trkpt>
<trkpt lat="34.68129" lon="132.21369388888888">
<ele>694</ele>
</trkpt>
<trkpt lat="34.68149805555556" lon="132.21378194444443">
<ele>695</ele>
</trkpt>
<trkpt lat="34.68220111111111" lon="132.21389694444446">
<ele>687</ele>
</trkpt>
<trkpt lat="34.68220111111111" lon="132.21389805555555">
<ele>687</ele>
</trkpt>
<trkpt lat="34.68225611111111" lon="132.21390694444443">
<ele>686</ele>
</trkpt>
<trkpt lat="34.682448055555554" lon="132.21400694444444">
<ele>687</ele>
</trkpt>
<trkpt lat="34.68277305555556" lon="132.21430694444444">
<ele>678</ele>
</trkpt>
<trkpt lat="34.683298055555554" lon="132.21468194444444">
<ele>677</ele>
</trkpt>
<trkpt lat="34.68387305555556" lon="132.21503194444443">
<ele>675</ele>
</trkpt>
<trkpt lat="34.684131111111114" lon="132.2153188888889">
<ele>678</ele>
</trkpt>
<trkpt lat="34.684223055555556" lon="132.21548194444443">
<ele>678</ele>
</trkpt>
<trkpt lat="34.68434805555555" lon="132.21575611111112">
<ele>678</ele>
</trkpt>
<trkpt lat="34.68457305555555" lon="132.2164688888889">
<ele>676</ele>
</trkpt>
<trkpt lat="34.68463111111111" lon="132.2167061111111">
<ele>675</ele>
</trkpt>
<trkpt lat="34.684648055555556" lon="132.2171938888889">
<ele>672</ele>
</trkpt>
<trkpt lat="34.68473111111111" lon="132.21756888888888">
<ele>673</ele>
</trkpt>
<trkpt lat="34.684873055555556" lon="132.21800611111112">
<ele>671</ele>
</trkpt>
<trkpt lat="34.68505611111111" lon="132.2184188888889">
<ele>674</ele>
</trkpt>
<trkpt lat="34.68519" lon="132.2186188888889">
<ele>675</ele>
</trkpt>
<trkpt lat="34.68530611111111" lon="132.2188561111111">
<ele>675</ele>
</trkpt>
<trkpt lat="34.68539805555555" lon="132.21915611111112">
<ele>668</ele>
</trkpt>
<trkpt lat="34.68554805555556" lon="132.21993111111112">
<ele>665</ele>
</trkpt>
<trkpt lat="34.686056111111114" lon="132.2204561111111">
<ele>666</ele>
</trkpt>
<trkpt lat="34.686573055555556" lon="132.22120611111112">
<ele>666</ele>
</trkpt>
<trkpt lat="34.68704805555556" lon="132.22159305555556">
<ele>668</ele>
</trkpt>
<trkpt lat="34.68752305555556" lon="132.22268111111111">
<ele>668</ele>
</trkpt>
<trkpt lat="34.688006111111115" lon="132.2249561111111">
<ele>676</ele>
</trkpt>
<trkpt lat="34.68823111111111" lon="132.22611805555556">
<ele>678</ele>
</trkpt>
<trkpt lat="34.68832305555556" lon="132.22639305555555">
<ele>679</ele>
</trkpt>
<trkpt lat="34.68845611111111" lon="132.22653111111111">
<ele>685</ele>
</trkpt>
<trkpt lat="34.688923055555556" lon="132.2262311111111">
<ele>684</ele>
</trkpt>
<trkpt lat="34.68942305555556" lon="132.2258061111111">
<ele>694</ele>
</trkpt>
<trkpt lat="34.68983111111111" lon="132.22581805555555">
<ele>696</ele>
</trkpt>
<trkpt lat="34.69083111111111" lon="132.2260811111111">
<ele>699</ele>
</trkpt>
<trkpt lat="34.69160611111111" lon="132.22638111111112">
<ele>712</ele>
</trkpt>
<trkpt lat="34.692146944444445" lon="132.22641805555557">
<ele>717</ele>
</trkpt>
<trkpt lat="34.69243888888889" lon="132.2262311111111">
<ele>714</ele>
</trkpt>
<trkpt lat="34.69271388888889" lon="132.2256561111111">
<ele>714</ele>
</trkpt>
<trkpt lat="34.69298888888889" lon="132.22504305555555">
<ele>708</ele>
</trkpt>
<trkpt lat="34.693196944444445" lon="132.22464305555556">
<ele>709</ele>
</trkpt>
<trkpt lat="34.69338888888889" lon="132.22454305555556">
<ele>706</ele>
</trkpt>
<trkpt lat="34.69347194444445" lon="132.22459305555554">
<ele>699</ele>
</trkpt>
<trkpt lat="34.69358888888889" lon="132.22476805555556">
<ele>698</ele>
</trkpt>
<trkpt lat="34.69352194444444" lon="132.22539305555554">
<ele>698</ele>
</trkpt>
<trkpt lat="34.69338888888889" lon="132.22654305555557">
<ele>697</ele>
</trkpt>
<trkpt lat="34.693421944444445" lon="132.22708">
<ele>697</ele>
</trkpt>
<trkpt lat="34.69358111111111" lon="132.22789">
<ele>688</ele>
</trkpt>
<trkpt lat="34.69358111111111" lon="132.22789">
<ele>688</ele>
</trkpt>
<trkpt lat="34.69358888888889" lon="132.22793">
<ele>687</ele>
</trkpt>
<trkpt lat="34.69385611111111" lon="132.228405">
<ele>687</ele>
</trkpt>
<trkpt lat="34.69394694444444" lon="132.22871805555556">
<ele>687</ele>
</trkpt>
<trkpt lat="34.69400611111111" lon="132.23019305555556">
<ele>686</ele>
</trkpt>
<trkpt lat="34.69437194444444" lon="132.230255">
<ele>699</ele>
</trkpt>
<trkpt lat="34.69443111111111" lon="132.23031805555556">
<ele>699</ele>
</trkpt>
<trkpt lat="34.69446388888889" lon="132.23039194444445">
<ele>699</ele>
</trkpt>
<trkpt lat="34.694446944444444" lon="132.23076694444444">
<ele>694</ele>
</trkpt>
<trkpt lat="34.69441388888889" lon="132.23094194444445">
<ele>692</ele>
</trkpt>
<trkpt lat="34.694446944444444" lon="132.23099194444444">
<ele>695</ele>
</trkpt>
<trkpt lat="34.69451388888889" lon="132.23099194444444">
<ele>695</ele>
</trkpt>
<trkpt lat="34.69465611111111" lon="132.230905">
<ele>698</ele>
</trkpt>
<trkpt lat="34.69478888888889" lon="132.23089194444444">
<ele>702</ele>
</trkpt>
<trkpt lat="34.694896944444444" lon="132.23089194444444">
<ele>704</ele>
</trkpt>
<trkpt lat="34.69503111111111" lon="132.23094194444445">
<ele>706</ele>
</trkpt>
<trkpt lat="34.69511388888889" lon="132.23094194444445">
<ele>708</ele>
</trkpt>
<trkpt lat="34.69515611111111" lon="132.23089194444444">
<ele>708</ele>
</trkpt>
<trkpt lat="34.69513111111111" lon="132.230755">
<ele>707</ele>
</trkpt>
<trkpt lat="34.69508888888889" lon="132.230655">
<ele>704</ele>
</trkpt>
<trkpt lat="34.694988888888886" lon="132.23056805555555">
<ele>702</ele>
</trkpt>
<trkpt lat="34.69495611111111" lon="132.23049194444445">
<ele>704</ele>
</trkpt>
<trkpt lat="34.69495611111111" lon="132.230405">
<ele>706</ele>
</trkpt>
<trkpt lat="34.69499694444445" lon="132.23038">
<ele>706</ele>
</trkpt>
<trkpt lat="34.695056111111114" lon="132.23038">
<ele>708</ele>
</trkpt>
<trkpt lat="34.69519694444445" lon="132.230455">
<ele>707</ele>
</trkpt>
<trkpt lat="34.69539694444445" lon="132.23063">
<ele>710</ele>
</trkpt>
<trkpt lat="34.695413888888886" lon="132.23068">
<ele>714</ele>
</trkpt>
<trkpt lat="34.69538" lon="132.23079305555555">
<ele>717</ele>
</trkpt>
<trkpt lat="34.69539694444445" lon="132.23093">
<ele>716</ele>
</trkpt>
<trkpt lat="34.69542194444445" lon="132.23106694444445">
<ele>715</ele>
</trkpt>
<trkpt lat="34.69551388888889" lon="132.23116694444445">
<ele>716</ele>
</trkpt>
<trkpt lat="34.69576388888889" lon="132.231305">
<ele>717</ele>
</trkpt>
<trkpt lat="34.69609694444444" lon="132.231405">
<ele>727</ele>
</trkpt>
<trkpt lat="34.696463888888886" lon="132.23148">
<ele>732</ele>
</trkpt>
<trkpt lat="34.69732194444445" lon="132.23153">
<ele>747</ele>
</trkpt>
<trkpt lat="34.697555" lon="132.23159305555555">
<ele>753</ele>
</trkpt>
<trkpt lat="34.698121944444445" lon="132.231855">
<ele>756</ele>
</trkpt>
<trkpt lat="34.698371944444446" lon="132.23203">
<ele>757</ele>
</trkpt>
<trkpt lat="34.69893" lon="132.23264194444445">
<ele>758</ele>
</trkpt>
<trkpt lat="34.70019611111111" lon="132.234205">
<ele>787</ele>
</trkpt>
<trkpt lat="34.70032111111111" lon="132.234305">
<ele>786</ele>
</trkpt>
<trkpt lat="34.70113" lon="132.23477888888888">
<ele>787</ele>
</trkpt>
<trkpt lat="34.70146305555556" lon="132.23519194444444">
<ele>793</ele>
</trkpt>
<trkpt lat="34.701555" lon="132.23554194444444">
<ele>793</ele>
</trkpt>
<trkpt lat="34.701788055555554" lon="132.23569194444445">
<ele>794</ele>
</trkpt>
<trkpt lat="34.70194611111111" lon="132.2358788888889">
<ele>795</ele>
</trkpt>
<trkpt lat="34.702038055555555" lon="132.23589194444443">
<ele>792</ele>
</trkpt>
<trkpt lat="34.702155" lon="132.23584194444445">
<ele>794</ele>
</trkpt>
<trkpt lat="34.70236305555556" lon="132.23560388888887">
<ele>794</ele>
</trkpt>
<trkpt lat="34.70274611111111" lon="132.23556694444446">
<ele>793</ele>
</trkpt>
<trkpt lat="34.70282888888889" lon="132.23560388888887">
<ele>794</ele>
</trkpt>
<trkpt lat="34.70287111111111" lon="132.23567888888888">
<ele>793</ele>
</trkpt>
<trkpt lat="34.70290388888889" lon="132.2359788888889">
<ele>795</ele>
</trkpt>
<trkpt lat="34.70299611111111" lon="132.23612888888889">
<ele>793</ele>
</trkpt>
<trkpt lat="34.70317111111111" lon="132.23624194444446">
<ele>795</ele>
</trkpt>
<trkpt lat="34.70339611111111" lon="132.2363038888889">
<ele>795</ele>
</trkpt>
<trkpt lat="34.703538055555555" lon="132.2363038888889">
<ele>794</ele>
</trkpt>
<trkpt lat="34.70361305555556" lon="132.2363038888889">
<ele>793</ele>
</trkpt>
<trkpt lat="34.70385388888889" lon="132.2361788888889">
<ele>796</ele>
</trkpt>
<trkpt lat="34.70411305555555" lon="132.23616694444445">
<ele>787</ele>
</trkpt>
<trkpt lat="34.70427888888889" lon="132.23621694444444">
<ele>785</ele>
</trkpt>
<trkpt lat="34.70446305555556" lon="132.2362038888889">
<ele>782</ele>
</trkpt>
<trkpt lat="34.70464611111111" lon="132.2361788888889">
<ele>782</ele>
</trkpt>
<trkpt lat="34.70488805555556" lon="132.23619194444444">
<ele>782</ele>
</trkpt>
<trkpt lat="34.70513694444445" lon="132.23626694444445">
<ele>775</ele>
</trkpt>
<trkpt lat="34.70557888888889" lon="132.2365538888889">
<ele>766</ele>
</trkpt>
<trkpt lat="34.70572888888889" lon="132.23656694444443">
<ele>762</ele>
</trkpt>
<trkpt lat="34.70602888888889" lon="132.23637888888888">
<ele>752</ele>
</trkpt>
<trkpt lat="34.70609611111111" lon="132.23639194444445">
<ele>752</ele>
</trkpt>
<trkpt lat="34.70617111111111" lon="132.23646694444443">
<ele>748</ele>
</trkpt>
<trkpt lat="34.70615388888889" lon="132.23689194444444">
<ele>743</ele>
</trkpt>
<trkpt lat="34.70622111111111" lon="132.23705388888888">
<ele>744</ele>
</trkpt>
<trkpt lat="34.70634611111111" lon="132.23715388888888">
<ele>744</ele>
</trkpt>
<trkpt lat="34.706536944444444" lon="132.23717888888888">
<ele>743</ele>
</trkpt>
<trkpt lat="34.70677888888889" lon="132.23714194444443">
<ele>734</ele>
</trkpt>
<trkpt lat="34.70728694444445" lon="132.23734194444444">
<ele>734</ele>
</trkpt>
<trkpt lat="34.70733805555555" lon="132.23749194444446">
<ele>731</ele>
</trkpt>
<trkpt lat="34.707363055555554" lon="132.2377038888889">
<ele>726</ele>
</trkpt>
<trkpt lat="34.70744611111111" lon="132.2379038888889">
<ele>718</ele>
</trkpt>
<trkpt lat="34.70757888888889" lon="132.23804194444443">
<ele>717</ele>
</trkpt>
<trkpt lat="34.70774611111111" lon="132.2381038888889">
<ele>716</ele>
</trkpt>
<trkpt lat="34.70787888888889" lon="132.23809194444445">
<ele>715</ele>
</trkpt>
<trkpt lat="34.70859611111111" lon="132.23781694444443">
<ele>705</ele>
</trkpt>
<trkpt lat="34.708821111111114" lon="132.2377788888889">
<ele>702</ele>
</trkpt>
<trkpt lat="34.70919611111111" lon="132.2377788888889">
<ele>699</ele>
</trkpt>
<trkpt lat="34.70937111111111" lon="132.23781694444443">
<ele>697</ele>
</trkpt>
<trkpt lat="34.70971194444444" lon="132.23796694444445">
<ele>694</ele>
</trkpt>
<trkpt lat="34.710236944444446" lon="132.23830388888888">
<ele>690</ele>
</trkpt>
<trkpt lat="34.711061944444445" lon="132.2389038888889">
<ele>687</ele>
</trkpt>
<trkpt lat="34.71122" lon="132.23906694444443">
<ele>687</ele>
</trkpt>
<trkpt lat="34.711395" lon="132.2392538888889">
<ele>685</ele>
</trkpt>
<trkpt lat="34.71161194444444" lon="132.23952888888888">
<ele>684</ele>
</trkpt>
<trkpt lat="34.71180388888889" lon="132.23976611111112">
<ele>682</ele>
</trkpt>
<trkpt lat="34.71187" lon="132.2399538888889">
<ele>682</ele>
</trkpt>
<trkpt lat="34.711978888888886" lon="132.2402538888889">
<ele>680</ele>
</trkpt>
<trkpt lat="34.712345" lon="132.2411161111111">
<ele>678</ele>
</trkpt>
<trkpt lat="34.712595" lon="132.2416161111111">
<ele>677</ele>
</trkpt>
<trkpt lat="34.712695" lon="132.2417538888889">
<ele>677</ele>
</trkpt>
<trkpt lat="34.712828888888886" lon="132.24180388888888">
<ele>677</ele>
</trkpt>
<trkpt lat="34.713161944444444" lon="132.2418788888889">
<ele>675</ele>
</trkpt>
<trkpt lat="34.71332" lon="132.24191611111112">
<ele>675</ele>
</trkpt>
<trkpt lat="34.714103055555555" lon="132.24206611111111">
<ele>675</ele>
</trkpt>
<trkpt lat="34.71433694444445" lon="132.24206611111111">
<ele>674</ele>
</trkpt>
<trkpt lat="34.71442" lon="132.24206611111111">
<ele>674</ele>
</trkpt>
<trkpt lat="34.714795" lon="132.2420038888889">
<ele>673</ele>
</trkpt>
<trkpt lat="34.714978055555555" lon="132.2420161111111">
<ele>673</ele>
</trkpt>
<trkpt lat="34.71535305555555" lon="132.24212888888889">
<ele>673</ele>
</trkpt>
<trkpt lat="34.71567" lon="132.2421161111111">
<ele>674</ele>
</trkpt>
<trkpt lat="34.71607" lon="132.2418411111111">
<ele>672</ele>
</trkpt>
<trkpt lat="34.716138055555554" lon="132.2418238888889">
<ele>672</ele>
</trkpt>
<trkpt lat="34.716138055555554" lon="132.2418238888889">
<ele>672</ele>
</trkpt>
<trkpt lat="34.71622" lon="132.24180388888888">
<ele>672</ele>
</trkpt>
<trkpt lat="34.716745" lon="132.24180388888888">
<ele>670</ele>
</trkpt>
<trkpt lat="34.717328055555555" lon="132.24226611111112">
<ele>668</ele>
</trkpt>
<trkpt lat="34.71752" lon="132.2423288888889">
<ele>668</ele>
</trkpt>
<trkpt lat="34.71787805555556" lon="132.24239111111112">
<ele>666</ele>
</trkpt>
<trkpt lat="34.71807805555556" lon="132.2424161111111">
<ele>666</ele>
</trkpt>
<trkpt lat="34.71848611111111" lon="132.2426411111111">
<ele>664</ele>
</trkpt>
<trkpt lat="34.71932805555556" lon="132.2432161111111">
<ele>659</ele>
</trkpt>
<trkpt lat="34.719653055555554" lon="132.24365305555557">
<ele>658</ele>
</trkpt>
<trkpt lat="34.719836111111114" lon="132.2438161111111">
<ele>658</ele>
</trkpt>
<trkpt lat="34.720078055555554" lon="132.24396611111112">
<ele>658</ele>
</trkpt>
<trkpt lat="34.72031888888889" lon="132.24402805555556">
<ele>657</ele>
</trkpt>
<trkpt lat="34.72070305555555" lon="132.24396611111112">
<ele>655</ele>
</trkpt>
<trkpt lat="34.72079388888889" lon="132.2439411111111">
<ele>655</ele>
</trkpt>
<trkpt lat="34.72105305555556" lon="132.24437805555556">
<ele>657</ele>
</trkpt>
<trkpt lat="34.72119388888889" lon="132.24476611111112">
<ele>657</ele>
</trkpt>
<trkpt lat="34.72130305555556" lon="132.24507805555555">
<ele>658</ele>
</trkpt>
<trkpt lat="34.72143611111111" lon="132.24525305555557">
<ele>658</ele>
</trkpt>
<trkpt lat="34.72166111111111" lon="132.24540305555556">
<ele>657</ele>
</trkpt>
<trkpt lat="34.72187805555556" lon="132.24540305555556">
<ele>656</ele>
</trkpt>
<trkpt lat="34.722003055555554" lon="132.24540305555556">
<ele>656</ele>
</trkpt>
<trkpt lat="34.72221888888889" lon="132.24535305555557">
<ele>656</ele>
</trkpt>
<trkpt lat="34.72236888888889" lon="132.24535305555557">
<ele>656</ele>
</trkpt>
<trkpt lat="34.72275305555556" lon="132.24555305555555">
<ele>653</ele>
</trkpt>
<trkpt lat="34.72286888888889" lon="132.24567805555554">
<ele>654</ele>
</trkpt>
<trkpt lat="34.72298611111111" lon="132.2458661111111">
<ele>654</ele>
</trkpt>
<trkpt lat="34.72361111111111" lon="132.2470661111111">
<ele>652</ele>
</trkpt>
<trkpt lat="34.72386888888889" lon="132.24749111111112">
<ele>653</ele>
</trkpt>
<trkpt lat="34.72396888888889" lon="132.24765305555556">
<ele>653</ele>
</trkpt>
<trkpt lat="34.72475305555555" lon="132.24849">
<ele>652</ele>
</trkpt>
<trkpt lat="34.72569388888889" lon="132.24972805555555">
<ele>648</ele>
</trkpt>
<trkpt lat="34.72581111111111" lon="132.24977805555557">
<ele>647</ele>
</trkpt>
<trkpt lat="34.72606888888889" lon="132.24974">
<ele>645</ele>
</trkpt>
<trkpt lat="34.72636888888889" lon="132.24967805555556">
<ele>646</ele>
</trkpt>
<trkpt lat="34.726618888888886" lon="132.25001305555554">
<ele>645</ele>
</trkpt>
<trkpt lat="34.726618888888886" lon="132.25001305555554">
<ele>645</ele>
</trkpt>
<trkpt lat="34.72676111111111" lon="132.25020305555555">
<ele>645</ele>
</trkpt>
<trkpt lat="34.72691888888889" lon="132.25035305555556">
<ele>645</ele>
</trkpt>
<trkpt lat="34.72739388888889" lon="132.25020305555555">
<ele>646</ele>
</trkpt>
<trkpt lat="34.72751111111111" lon="132.25015305555556">
<ele>646</ele>
</trkpt>
<trkpt lat="34.727601944444444" lon="132.25014">
<ele>646</ele>
</trkpt>
<trkpt lat="34.72843611111111" lon="132.25020305555555">
<ele>647</ele>
</trkpt>
<trkpt lat="34.728301944444446" lon="132.24950305555555">
<ele>649</ele>
</trkpt>
<trkpt lat="34.72804388888889" lon="132.248215">
<ele>654</ele>
</trkpt>
<trkpt lat="34.72796888888889" lon="132.24760305555554">
<ele>654</ele>
</trkpt>
<trkpt lat="34.72795194444444" lon="132.24749">
<ele>654</ele>
</trkpt>
<trkpt lat="34.72791888888889" lon="132.24730305555556">
<ele>654</ele>
</trkpt>
<trkpt lat="34.72777694444444" lon="132.24665305555556">
<ele>656</ele>
</trkpt>
<trkpt lat="34.727693888888886" lon="132.2463161111111">
<ele>656</ele>
</trkpt>
<trkpt lat="34.72763611111111" lon="132.24614111111111">
<ele>655</ele>
</trkpt>
<trkpt lat="34.72725194444445" lon="132.24500305555554">
<ele>657</ele>
</trkpt>
<trkpt lat="34.72681111111111" lon="132.2437911111111">
<ele>656</ele>
</trkpt>
<trkpt lat="34.72676888888889" lon="132.2435661111111">
<ele>655</ele>
</trkpt>
<trkpt lat="34.72676111111111" lon="132.24325305555556">
<ele>655</ele>
</trkpt>
<trkpt lat="34.72684388888889" lon="132.2429911111111">
<ele>656</ele>
</trkpt>
<trkpt lat="34.72686111111111" lon="132.24296611111112">
<ele>656</ele>
</trkpt>
<trkpt lat="34.72801" lon="132.24104111111112">
<ele>659</ele>
</trkpt>
<trkpt lat="34.72810194444445" lon="132.24087805555556">
<ele>658</ele>
</trkpt>
<trkpt lat="34.728226944444444" lon="132.24066611111112">
<ele>660</ele>
</trkpt>
<trkpt lat="34.72900194444444" lon="132.23930388888888">
<ele>662</ele>
</trkpt>
<trkpt lat="34.729185" lon="132.2390661111111">
<ele>661</ele>
</trkpt>
<trkpt lat="34.72942694444444" lon="132.23886611111112">
<ele>658</ele>
</trkpt>
<trkpt lat="34.72965194444444" lon="132.23875388888888">
<ele>659</ele>
</trkpt>
<trkpt lat="34.730493055555556" lon="132.23840388888888">
<ele>659</ele>
</trkpt>
<trkpt lat="34.73087694444445" lon="132.2382538888889">
<ele>659</ele>
</trkpt>
<trkpt lat="34.73117694444444" lon="132.2381288888889">
<ele>661</ele>
</trkpt>
<trkpt lat="34.731568055555556" lon="132.23797888888888">
<ele>662</ele>
</trkpt>
<trkpt lat="34.73176" lon="132.2379038888889">
<ele>662</ele>
</trkpt>
<trkpt lat="34.732571944444445" lon="132.23758805555556">
<ele>663</ele>
</trkpt>
<trkpt lat="34.732571944444445" lon="132.23758805555556">
<ele>663</ele>
</trkpt>
<trkpt lat="34.732951944444444" lon="132.2374411111111">
<ele>663</ele>
</trkpt>
<trkpt lat="34.733335" lon="132.23729111111112">
<ele>665</ele>
</trkpt>
<trkpt lat="34.73367611111111" lon="132.2370288888889">
<ele>666</ele>
</trkpt>
<trkpt lat="34.734785" lon="132.23557888888888">
<ele>667</ele>
</trkpt>
<trkpt lat="34.73431" lon="132.23456611111112">
<ele>666</ele>
</trkpt>
<trkpt lat="34.733885" lon="132.23367888888887">
<ele>668</ele>
</trkpt>
<trkpt lat="34.73327611111111" lon="132.23242888888888">
<ele>673</ele>
</trkpt>
<trkpt lat="34.73302611111111" lon="132.2319161111111">
<ele>674</ele>
</trkpt>
<trkpt lat="34.73300111111111" lon="132.23175388888887">
<ele>674</ele>
</trkpt>
<trkpt lat="34.73300111111111" lon="132.2306788888889">
<ele>677</ele>
</trkpt>
<trkpt lat="34.732976111111114" lon="132.2305538888889">
<ele>677</ele>
</trkpt>
<trkpt lat="34.732818055555555" lon="132.23002888888888">
<ele>678</ele>
</trkpt>
<trkpt lat="34.732385" lon="132.2292038888889">
<ele>678</ele>
</trkpt>
<trkpt lat="34.731743055555555" lon="132.2283788888889">
<ele>679</ele>
</trkpt>
<trkpt lat="34.731635" lon="132.22822888888888">
<ele>679</ele>
</trkpt>
<trkpt lat="34.73137611111111" lon="132.2278538888889">
<ele>679</ele>
</trkpt>
<trkpt lat="34.73096805555556" lon="132.22707888888888">
<ele>684</ele>
</trkpt>
<trkpt lat="34.730868055555554" lon="132.226955">
<ele>684</ele>
</trkpt>
<trkpt lat="34.73041" lon="132.22643">
<ele>685</ele>
</trkpt>
<trkpt lat="34.73034305555556" lon="132.226305">
<ele>686</ele>
</trkpt>
<trkpt lat="34.730285" lon="132.22619194444445">
<ele>685</ele>
</trkpt>
<trkpt lat="34.729576944444446" lon="132.22418">
<ele>688</ele>
</trkpt>
<trkpt lat="34.729351944444446" lon="132.22353">
<ele>693</ele>
</trkpt>
<trkpt lat="34.729185" lon="132.22313">
<ele>692</ele>
</trkpt>
<trkpt lat="34.72905194444444" lon="132.22289305555555">
<ele>693</ele>
</trkpt>
<trkpt lat="34.72893888888889" lon="132.2227538888889">
<ele>692</ele>
</trkpt>
<trkpt lat="34.72893888888889" lon="132.2227538888889">
<ele>692</ele>
</trkpt>
<trkpt lat="34.72886805555556" lon="132.22266805555554">
<ele>692</ele>
</trkpt>
<trkpt lat="34.72875194444445" lon="132.22254305555555">
<ele>694</ele>
</trkpt>
<trkpt lat="34.728076944444446" lon="132.222055">
<ele>695</ele>
</trkpt>
<trkpt lat="34.728026944444444" lon="132.22201805555557">
<ele>695</ele>
</trkpt>
<trkpt lat="34.727876944444446" lon="132.22179305555557">
<ele>694</ele>
</trkpt>
<trkpt lat="34.72776" lon="132.22146805555556">
<ele>696</ele>
</trkpt>
<trkpt lat="34.727718055555556" lon="132.221255">
<ele>698</ele>
</trkpt>
<trkpt lat="34.72759305555556" lon="132.22053">
<ele>707</ele>
</trkpt>
<trkpt lat="34.72751" lon="132.21978">
<ele>707</ele>
</trkpt>
<trkpt lat="34.727493055555556" lon="132.21929305555557">
<ele>706</ele>
</trkpt>
<trkpt lat="34.72751805555556" lon="132.21870611111112">
<ele>703</ele>
</trkpt>
<trkpt lat="34.72772694444444" lon="132.2183061111111">
<ele>705</ele>
</trkpt>
<trkpt lat="34.72777694444444" lon="132.2181811111111">
<ele>704</ele>
</trkpt>
<trkpt lat="34.727785" lon="132.2179811111111">
<ele>706</ele>
</trkpt>
<trkpt lat="34.727918055555556" lon="132.2176311111111">
<ele>708</ele>
</trkpt>
<trkpt lat="34.72796" lon="132.21741805555556">
<ele>708</ele>
</trkpt>
<trkpt lat="34.72801805555556" lon="132.21679305555554">
<ele>708</ele>
</trkpt>
<trkpt lat="34.72801805555556" lon="132.21664305555555">
<ele>706</ele>
</trkpt>
<trkpt lat="34.728035" lon="132.21630611111112">
<ele>712</ele>
</trkpt>
<trkpt lat="34.728118055555555" lon="132.21489305555556">
<ele>716</ele>
</trkpt>
<trkpt lat="34.72807611111111" lon="132.2147061111111">
<ele>717</ele>
</trkpt>
<trkpt lat="34.728085" lon="132.21454305555557">
<ele>718</ele>
</trkpt>
<trkpt lat="34.72799305555556" lon="132.2144311111111">
<ele>719</ele>
</trkpt>
<trkpt lat="34.72796" lon="132.21431805555557">
<ele>719</ele>
</trkpt>
<trkpt lat="34.72796805555556" lon="132.21395611111112">
<ele>722</ele>
</trkpt>
<trkpt lat="34.72792611111111" lon="132.21383111111112">
<ele>723</ele>
</trkpt>
<trkpt lat="34.72775111111111" lon="132.21369388888888">
<ele>726</ele>
</trkpt>
<trkpt lat="34.727668055555554" lon="132.21358111111113">
<ele>726</ele>
</trkpt>
<trkpt lat="34.72751805555556" lon="132.2123188888889">
<ele>735</ele>
</trkpt>
<trkpt lat="34.72751805555556" lon="132.2121938888889">
<ele>734</ele>
</trkpt>
<trkpt lat="34.727785" lon="132.2118438888889">
<ele>736</ele>
</trkpt>
<trkpt lat="34.72786" lon="132.2116438888889">
<ele>738</ele>
</trkpt>
<trkpt lat="34.72802611111111" lon="132.21144388888888">
<ele>740</ele>
</trkpt>
<trkpt lat="34.72806805555555" lon="132.2112688888889">
<ele>743</ele>
</trkpt>
<trkpt lat="34.728093055555554" lon="132.2109311111111">
<ele>746</ele>
</trkpt>
<trkpt lat="34.728118055555555" lon="132.2106938888889">
<ele>747</ele>
</trkpt>
<trkpt lat="34.72807611111111" lon="132.21065611111112">
<ele>748</ele>
</trkpt>
<trkpt lat="34.72792611111111" lon="132.2107311111111">
<ele>748</ele>
</trkpt>
<trkpt lat="34.72775111111111" lon="132.21090611111111">
<ele>749</ele>
</trkpt>
<trkpt lat="34.727635" lon="132.2108561111111">
<ele>751</ele>
</trkpt>
<trkpt lat="34.727535" lon="132.2106311111111">
<ele>756</ele>
</trkpt>
<trkpt lat="34.72734305555556" lon="132.21051888888888">
<ele>757</ele>
</trkpt>
<trkpt lat="34.72727611111111" lon="132.21041888888888">
<ele>756</ele>
</trkpt>
<trkpt lat="34.72722611111111" lon="132.2103811111111">
<ele>756</ele>
</trkpt>
<trkpt lat="34.72714305555556" lon="132.21041888888888">
<ele>754</ele>
</trkpt>
<trkpt lat="34.727068055555556" lon="132.2106311111111">
<ele>756</ele>
</trkpt>
<trkpt lat="34.72701" lon="132.21074388888889">
<ele>756</ele>
</trkpt>
<trkpt lat="34.72696" lon="132.21076888888888">
<ele>759</ele>
</trkpt>
<trkpt lat="34.726635" lon="132.21065611111112">
<ele>766</ele>
</trkpt>
<trkpt lat="34.72649305555556" lon="132.21066888888888">
<ele>764</ele>
</trkpt>
<trkpt lat="34.72626" lon="132.2108311111111">
<ele>763</ele>
</trkpt>
<trkpt lat="34.72597694444445" lon="132.2108438888889">
<ele>767</ele>
</trkpt>
<trkpt lat="34.725743055555554" lon="132.21089388888888">
<ele>765</ele>
</trkpt>
<trkpt lat="34.72566" lon="132.2109311111111">
<ele>765</ele>
</trkpt>
<trkpt lat="34.725676944444444" lon="132.21100611111112">
<ele>763</ele>
</trkpt>
<trkpt lat="34.726085" lon="132.21143111111112">
<ele>764</ele>
</trkpt>
<trkpt lat="34.72626805555556" lon="132.2116061111111">
<ele>766</ele>
</trkpt>
<trkpt lat="34.72629305555556" lon="132.21166888888888">
<ele>770</ele>
</trkpt>
<trkpt lat="34.72626805555556" lon="132.2117061111111">
<ele>770</ele>
</trkpt>
<trkpt lat="34.726185" lon="132.2117438888889">
<ele>773</ele>
</trkpt>
<trkpt lat="34.726151944444446" lon="132.21179388888888">
<ele>774</ele>
</trkpt>
<trkpt lat="34.72616" lon="132.2121061111111">
<ele>772</ele>
</trkpt>
<trkpt lat="34.726235" lon="132.21221888888888">
<ele>769</ele>
</trkpt>
<trkpt lat="34.726235" lon="132.2123188888889">
<ele>770</ele>
</trkpt>
<trkpt lat="34.726151944444446" lon="132.2124061111111">
<ele>774</ele>
</trkpt>
<trkpt lat="34.725785" lon="132.2123938888889">
<ele>783</ele>
</trkpt>
<trkpt lat="34.725685" lon="132.21248111111112">
<ele>783</ele>
</trkpt>
<trkpt lat="34.725451944444444" lon="132.2124938888889">
<ele>786</ele>
</trkpt>
<trkpt lat="34.72542694444444" lon="132.21256888888888">
<ele>778</ele>
</trkpt>
<trkpt lat="34.72546" lon="132.2128438888889">
<ele>773</ele>
</trkpt>
<trkpt lat="34.72544305555556" lon="132.21293111111112">
<ele>781</ele>
</trkpt>
<trkpt lat="34.72520194444444" lon="132.2131938888889">
<ele>787</ele>
</trkpt>
<trkpt lat="34.72520194444444" lon="132.2132938888889">
<ele>786</ele>
</trkpt>
<trkpt lat="34.72531" lon="132.21349388888888">
<ele>786</ele>
</trkpt>
<trkpt lat="34.725335" lon="132.21360611111112">
<ele>784</ele>
</trkpt>
<trkpt lat="34.72531" lon="132.2136561111111">
<ele>787</ele>
</trkpt>
<trkpt lat="34.72515194444444" lon="132.2136311111111">
<ele>789</ele>
</trkpt>
<trkpt lat="34.72475194444444" lon="132.2129938888889">
<ele>797</ele>
</trkpt>
<trkpt lat="34.72439305555555" lon="132.21281888888888">
<ele>796</ele>
</trkpt>
<trkpt lat="34.72430194444444" lon="132.2128438888889">
<ele>794</ele>
</trkpt>
<trkpt lat="34.724176944444444" lon="132.21304388888888">
<ele>794</ele>
</trkpt>
<trkpt lat="34.72405194444445" lon="132.2131811111111">
<ele>797</ele>
</trkpt>
<trkpt lat="34.72376888888889" lon="132.21328111111112">
<ele>798</ele>
</trkpt>
<trkpt lat="34.72369388888889" lon="132.21336888888888">
<ele>796</ele>
</trkpt>
<trkpt lat="34.72360194444445" lon="132.2138811111111">
<ele>796</ele>
</trkpt>
<trkpt lat="34.72366" lon="132.2140938888889">
<ele>800</ele>
</trkpt>
<trkpt lat="34.72356888888889" lon="132.2142188888889">
<ele>802</ele>
</trkpt>
<trkpt lat="34.723551944444445" lon="132.2143188888889">
<ele>804</ele>
</trkpt>
<trkpt lat="34.72359388888889" lon="132.2145311111111">
<ele>802</ele>
</trkpt>
<trkpt lat="34.72356888888889" lon="132.21460611111112">
<ele>802</ele>
</trkpt>
<trkpt lat="34.72350194444444" lon="132.21460611111112">
<ele>805</ele>
</trkpt>
<trkpt lat="34.72340194444445" lon="132.2144311111111">
<ele>808</ele>
</trkpt>
<trkpt lat="34.723335" lon="132.2140688888889">
<ele>806</ele>
</trkpt>
<trkpt lat="34.72317694444445" lon="132.2137938888889">
<ele>812</ele>
</trkpt>
<trkpt lat="34.72317694444445" lon="132.2136311111111">
<ele>813</ele>
</trkpt>
<trkpt lat="34.72321888888889" lon="132.2134311111111">
<ele>816</ele>
</trkpt>
<trkpt lat="34.72340194444445" lon="132.2132188888889">
<ele>814</ele>
</trkpt>
<trkpt lat="34.72341888888889" lon="132.2130688888889">
<ele>816</ele>
</trkpt>
<trkpt lat="34.723385" lon="132.21248111111112">
<ele>818</ele>
</trkpt>
<trkpt lat="34.72341" lon="132.2123811111111">
<ele>819</ele>
</trkpt>
<trkpt lat="34.72346888888889" lon="132.2122688888889">
<ele>819</ele>
</trkpt>
<trkpt lat="34.72347694444444" lon="132.2122061111111">
<ele>820</ele>
</trkpt>
<trkpt lat="34.72341888888889" lon="132.2119438888889">
<ele>823</ele>
</trkpt>
<trkpt lat="34.723435" lon="132.2118188888889">
<ele>823</ele>
</trkpt>
<trkpt lat="34.72349388888889" lon="132.21178111111112">
<ele>823</ele>
</trkpt>
<trkpt lat="34.72361" lon="132.21178111111112">
<ele>824</ele>
</trkpt>
<trkpt lat="34.723801944444446" lon="132.2118811111111">
<ele>823</ele>
</trkpt>
<trkpt lat="34.72386" lon="132.2118561111111">
<ele>823</ele>
</trkpt>
<trkpt lat="34.72386" lon="132.21179388888888">
<ele>823</ele>
</trkpt>
<trkpt lat="34.72376805555555" lon="132.2116061111111">
<ele>827</ele>
</trkpt>
<trkpt lat="34.72371805555556" lon="132.2114688888889">
<ele>825</ele>
</trkpt>
<trkpt lat="34.72366" lon="132.2112688888889">
<ele>831</ele>
</trkpt>
<trkpt lat="34.723643055555556" lon="132.2109561111111">
<ele>832</ele>
</trkpt>
<trkpt lat="34.72349305555556" lon="132.2108061111111">
<ele>833</ele>
</trkpt>
<trkpt lat="34.72336" lon="132.2105688888889">
<ele>831</ele>
</trkpt>
<trkpt lat="34.723235" lon="132.2104938888889">
<ele>832</ele>
</trkpt>
<trkpt lat="34.723101944444444" lon="132.21025694444444">
<ele>834</ele>
</trkpt>
<trkpt lat="34.72306888888889" lon="132.21013194444444">
<ele>832</ele>
</trkpt>
<trkpt lat="34.72306888888889" lon="132.2099438888889">
<ele>836</ele>
</trkpt>
<trkpt lat="34.72313111111111" lon="132.20970694444443">
<ele>836</ele>
</trkpt>
<trkpt lat="34.72313194444445" lon="132.20970694444443">
<ele>836</ele>
</trkpt>
<trkpt lat="34.723185" lon="132.20950694444446">
<ele>837</ele>
</trkpt>
<trkpt lat="34.723168055555554" lon="132.20945694444444">
<ele>837</ele>
</trkpt>
<trkpt lat="34.72311" lon="132.20945694444444">
<ele>841</ele>
</trkpt>
<trkpt lat="34.72299388888889" lon="132.20970694444443">
<ele>843</ele>
</trkpt>
<trkpt lat="34.72279388888889" lon="132.20983194444443">
<ele>843</ele>
</trkpt>
<trkpt lat="34.72276" lon="132.20990694444444">
<ele>843</ele>
</trkpt>
<trkpt lat="34.722768888888886" lon="132.2103938888889">
<ele>847</ele>
</trkpt>
<trkpt lat="34.72291888888889" lon="132.2106061111111">
<ele>842</ele>
</trkpt>
<trkpt lat="34.722951944444446" lon="132.21066888888888">
<ele>843</ele>
</trkpt>
<trkpt lat="34.72282694444444" lon="132.2110688888889">
<ele>848</ele>
</trkpt>
<trkpt lat="34.722768888888886" lon="132.21111888888888">
<ele>849</ele>
</trkpt>
<trkpt lat="34.72269388888889" lon="132.2110688888889">
<ele>849</ele>
</trkpt>
<trkpt lat="34.722735" lon="132.21078111111112">
<ele>851</ele>
</trkpt>
<trkpt lat="34.72271" lon="132.2107188888889">
<ele>851</ele>
</trkpt>
<trkpt lat="34.72237694444444" lon="132.21015694444444">
<ele>854</ele>
</trkpt>
<trkpt lat="34.722285" lon="132.20973194444446">
<ele>857</ele>
</trkpt>
<trkpt lat="34.722276944444445" lon="132.20958194444444">
<ele>857</ele>
</trkpt>
<trkpt lat="34.72237694444444" lon="132.20938194444443">
<ele>858</ele>
</trkpt>
<trkpt lat="34.72262694444444" lon="132.20908194444445">
<ele>861</ele>
</trkpt>
<trkpt lat="34.72261888888889" lon="132.20894388888888">
<ele>861</ele>
</trkpt>
<trkpt lat="34.722526944444446" lon="132.20875694444445">
<ele>861</ele>
</trkpt>
<trkpt lat="34.72206888888889" lon="132.20815694444445">
<ele>868</ele>
</trkpt>
<trkpt lat="34.72196" lon="132.20790694444443">
<ele>869</ele>
</trkpt>
<trkpt lat="34.72161888888889" lon="132.20655694444446">
<ele>865</ele>
</trkpt>
<trkpt lat="34.72149388888889" lon="132.20633194444446">
<ele>865</ele>
</trkpt>
<trkpt lat="34.721243888888885" lon="132.2059438888889">
<ele>863</ele>
</trkpt>
<trkpt lat="34.720185" lon="132.204745">
<ele>857</ele>
</trkpt>
<trkpt lat="34.71994388888889" lon="132.204545">
<ele>855</ele>
</trkpt>
<trkpt lat="34.719885" lon="132.20433194444445">
<ele>853</ele>
</trkpt>
<trkpt lat="34.71984388888889" lon="132.204145">
<ele>849</ele>
</trkpt>
<trkpt lat="34.71984388888889" lon="132.20360694444443">
<ele>848</ele>
</trkpt>
<trkpt lat="34.71961" lon="132.202995">
<ele>846</ele>
</trkpt>
<trkpt lat="34.719285" lon="132.20270694444446">
<ele>842</ele>
</trkpt>
<trkpt lat="34.71916" lon="132.20230694444444">
<ele>838</ele>
</trkpt>
<trkpt lat="34.71916" lon="132.20215694444445">
<ele>835</ele>
</trkpt>
<trkpt lat="34.71921" lon="132.20203305555555">
<ele>835</ele>
</trkpt>
<trkpt lat="34.719285" lon="132.20188305555556">
<ele>837</ele>
</trkpt>
<trkpt lat="34.719285" lon="132.20177">
<ele>837</ele>
</trkpt>
<trkpt lat="34.719235" lon="132.20170694444445">
<ele>837</ele>
</trkpt>
<trkpt lat="34.71915194444444" lon="132.201695">
<ele>836</ele>
</trkpt>
<trkpt lat="34.719051944444445" lon="132.20172">
<ele>835</ele>
</trkpt>
<trkpt lat="34.71892694444445" lon="132.20173305555556">
<ele>833</ele>
</trkpt>
<trkpt lat="34.71886" lon="132.20165805555555">
<ele>833</ele>
</trkpt>
<trkpt lat="34.718851944444445" lon="132.20152">
<ele>833</ele>
</trkpt>
<trkpt lat="34.71892694444445" lon="132.201245">
<ele>835</ele>
</trkpt>
<trkpt lat="34.71892694444445" lon="132.201045">
<ele>835</ele>
</trkpt>
<trkpt lat="34.718885" lon="132.200945">
<ele>834</ele>
</trkpt>
<trkpt lat="34.71877694444444" lon="132.20085805555556">
<ele>831</ele>
</trkpt>
<trkpt lat="34.71876888888889" lon="132.20077">
<ele>828</ele>
</trkpt>
<trkpt lat="34.718801944444444" lon="132.200695">
<ele>829</ele>
</trkpt>
<trkpt lat="34.718801944444444" lon="132.20050805555556">
<ele>829</ele>
</trkpt>
<trkpt lat="34.71871888888889" lon="132.200395">
<ele>828</ele>
</trkpt>
<trkpt lat="34.71851888888889" lon="132.20038305555556">
<ele>827</ele>
</trkpt>
<trkpt lat="34.718426944444445" lon="132.20043305555555">
<ele>826</ele>
</trkpt>
<trkpt lat="34.718335" lon="132.20043305555555">
<ele>826</ele>
</trkpt>
<trkpt lat="34.718185" lon="132.200195">
<ele>825</ele>
</trkpt>
<trkpt lat="34.718035" lon="132.200095">
<ele>825</ele>
</trkpt>
<trkpt lat="34.717935" lon="132.19998305555555">
<ele>823</ele>
</trkpt>
<trkpt lat="34.717935" lon="132.199695">
<ele>822</ele>
</trkpt>
<trkpt lat="34.717618888888886" lon="132.199145">
<ele>818</ele>
</trkpt>
<trkpt lat="34.71756888888889" lon="132.19895805555555">
<ele>817</ele>
</trkpt>
<trkpt lat="34.71751111111111" lon="132.19850805555555">
<ele>814</ele>
</trkpt>
<trkpt lat="34.71749388888889" lon="132.19768305555556">
<ele>808</ele>
</trkpt>
<trkpt lat="34.717635" lon="132.19745805555556">
<ele>807</ele>
</trkpt>
<trkpt lat="34.71764388888889" lon="132.19685805555557">
<ele>803</ele>
</trkpt>
<trkpt lat="34.71762694444445" lon="132.19673305555557">
<ele>803</ele>
</trkpt>
<trkpt lat="34.71528111111111" lon="132.19557805555556">
<ele>812</ele>
</trkpt>
<trkpt lat="34.71528111111111" lon="132.19557805555556">
<ele>812</ele>
</trkpt>
<trkpt lat="34.714911111111114" lon="132.1953961111111">
<ele>813</ele>
</trkpt>
<trkpt lat="34.71411111111111" lon="132.1950961111111">
<ele>816</ele>
</trkpt>
<trkpt lat="34.711601944444446" lon="132.1940711111111">
<ele>827</ele>
</trkpt>
<trkpt lat="34.71143611111111" lon="132.19400805555554">
<ele>827</ele>
</trkpt>
<trkpt lat="34.71113611111111" lon="132.19400805555554">
<ele>828</ele>
</trkpt>
<trkpt lat="34.71069388888889" lon="132.19409611111112">
<ele>829</ele>
</trkpt>
<trkpt lat="34.71031111111111" lon="132.19422111111112">
<ele>830</ele>
</trkpt>
<trkpt lat="34.710118888888886" lon="132.19423305555554">
<ele>832</ele>
</trkpt>
<trkpt lat="34.71001111111111" lon="132.19422111111112">
<ele>832</ele>
</trkpt>
<trkpt lat="34.70981111111111" lon="132.19399611111112">
<ele>832</ele>
</trkpt>
<trkpt lat="34.70964388888889" lon="132.19373305555555">
<ele>829</ele>
</trkpt>
<trkpt lat="34.70951888888889" lon="132.19345805555557">
<ele>826</ele>
</trkpt>
<trkpt lat="34.70951888888889" lon="132.19318305555555">
<ele>823</ele>
</trkpt>
<trkpt lat="34.709653055555556" lon="132.19268305555556">
<ele>820</ele>
</trkpt>
<trkpt lat="34.709653055555556" lon="132.19238305555555">
<ele>818</ele>
</trkpt>
<trkpt lat="34.70957805555555" lon="132.1919961111111">
<ele>819</ele>
</trkpt>
<trkpt lat="34.70941111111111" lon="132.19149611111112">
<ele>817</ele>
</trkpt>
<trkpt lat="34.70894388888889" lon="132.1904088888889">
<ele>808</ele>
</trkpt>
<trkpt lat="34.70882805555556" lon="132.19014611111112">
<ele>808</ele>
</trkpt>
<trkpt lat="34.708778055555555" lon="132.1898588888889">
<ele>808</ele>
</trkpt>
<trkpt lat="34.708618888888886" lon="132.1878088888889">
<ele>803</ele>
</trkpt>
<trkpt lat="34.70860305555556" lon="132.1869961111111">
<ele>802</ele>
</trkpt>
<trkpt lat="34.70854388888889" lon="132.1867088888889">
<ele>805</ele>
</trkpt>
<trkpt lat="34.70847805555555" lon="132.1864838888889">
<ele>805</ele>
</trkpt>
<trkpt lat="34.70826888888889" lon="132.18638388888888">
<ele>806</ele>
</trkpt>
<trkpt lat="34.707903055555555" lon="132.1863711111111">
<ele>807</ele>
</trkpt>
<trkpt lat="34.70751888888889" lon="132.1864838888889">
<ele>808</ele>
</trkpt>
<trkpt lat="34.70650305555556" lon="132.1870088888889">
<ele>817</ele>
</trkpt>
<trkpt lat="34.706378055555554" lon="132.18705888888888">
<ele>816</ele>
</trkpt>
<trkpt lat="34.70625305555556" lon="132.18707111111112">
<ele>815</ele>
</trkpt>
<trkpt lat="34.706145" lon="132.1870461111111">
<ele>813</ele>
</trkpt>
<trkpt lat="34.706095" lon="132.18701305555555">
<ele>812</ele>
</trkpt>
    </trkseg>
  </trk>
</gpx>