<?xml version="1.0" encoding="UTF-8"?>
<kml xmlns="http://www.opengis.net/kml/2.2">
  <Document>
    <name>江東区サイクリング のコピー</name>
    <description/>
    <Style id="line-0288D1-5000-normal">
      <LineStyle>
        <color>ffd18802</color>
        <width>5</width>
      </LineStyle>
    </Style>
    <Style id="line-0288D1-5000-highlight">
      <LineStyle>
        <color>ffd18802</color>
        <width>7.5</width>
      </LineStyle>
    </Style>
    <StyleMap id="line-0288D1-5000">
      <Pair>
        <key>normal</key>
        <styleUrl>#line-0288D1-5000-normal</styleUrl>
      </Pair>
      <Pair>
        <key>highlight</key>
        <styleUrl>#line-0288D1-5000-highlight</styleUrl>
      </Pair>
    </StyleMap>
    <Folder>
      <name>江東区サイクリング</name>
      <Placemark>
        <name>江東区サイクリング</name>
        <description><![CDATA[インポートしたデータに基づく統計データ<br><br>距離: 18.8 km<br>最小標高: 0 m<br>最大標高: 13 m<br>累積標高（登り）: 34 m<br>累積標高（下り）: 32 m]]></description>
        <styleUrl>#line-0288D1-5000</styleUrl>
        <LineString>
          <tessellate>1</tessellate>
          <coordinates>
            139.826000248499,35.697793291556,12
            139.82598,35.6978,11
            139.82568,35.69778,10
            139.8256,35.69782,10
            139.82559,35.69802,9
            139.82549,35.69933,7
            139.82537,35.70095,7
            139.82531,35.70178,4
            139.82537,35.70224,3
            139.825675493638,35.7042244797054,4
            139.825437258499,35.7042728438364,4
            139.82543,35.70427,4
            139.82532,35.70398,3
            139.82507,35.7034,3
            139.82505,35.7034,3
            139.82478,35.70347,3
            139.82454,35.70356,3
            139.82452,35.70364,3
            139.8242,35.70378,3
            139.82382,35.70386,4
            139.82329,35.70399,4
            139.82331,35.7043,4
            139.82303,35.70437,4
            139.82233,35.70454,3
            139.82226,35.70444,3
            139.82229,35.70448,3
            139.82173,35.70376,3
            139.82162,35.70273,0
            139.8216,35.70273,0
            139.82159,35.70273,0
            139.82118,35.70269,1
            139.82123,35.70199,4
            139.82118,35.70199,5
            139.82117,35.70199,5
            139.82077,35.70197,8
            139.82077,35.70195,8
            139.8208,35.70162,10
            139.82081,35.70149,9
            139.81942,35.7014,4
            139.8194,35.7014,4
            139.81936,35.70146,4
            139.81946,35.70147,4
            139.81947,35.70147,4
            139.82095,35.70157,11
            139.82094,35.70157,11
            139.82425,35.70173,8
            139.82424,35.70173,8
            139.82559,35.70179,4
            139.82672,35.70177,4
            139.83054,35.7017,6
            139.83271,35.70166,5
            139.83329,35.70166,6
            139.83346,35.70169,7
            139.83345,35.70169,7
            139.83364,35.70171,8
            139.83393,35.70178,9
            139.83433,35.70192,9
            139.83448,35.70199,8
            139.83484,35.70221,7
            139.83541,35.70268,4
            139.8353,35.70268,4
            139.83525,35.70271,3
            139.83491,35.70281,3
            139.8349,35.70281,3
            139.83492,35.70284,3
            139.83535,35.70287,5
            139.83534,35.70287,5
            139.83549,35.70284,6
            139.8359,35.70255,7
            139.8366,35.70208,5
            139.83659,35.70209,5
            139.8366,35.70208,4
            139.8372,35.70185,4
            139.83738,35.7018,4
            139.83778,35.70178,3
            139.83815,35.70163,3
            139.83844,35.70145,3
            139.8387,35.70133,3
            139.83901,35.70122,3
            139.83941,35.70117,3
            139.84017,35.70089,1
            139.84158,35.70038,0
            139.84177,35.70029,1
            139.84361,35.69941,3
            139.84401,35.69919,2
            139.84414,35.69911,2
            139.84438,35.69894,2
            139.84525,35.69814,3
            139.8456,35.69775,2
            139.84564,35.69766,2
            139.84589,35.69737,1
            139.84602,35.69717,1
            139.84626,35.69691,1
            139.84643,35.69673,1
            139.84668,35.69633,2
            139.84715,35.69546,1
            139.84753,35.69471,1
            139.84764,35.69442,2
            139.84781,35.69346,0
            139.84781,35.69339,0
            139.84781,35.69338,0
            139.8478,35.69323,0
            139.84773,35.69314,0
            139.84772,35.69269,0
            139.84778,35.69233,0
            139.84765,35.69129,0
            139.84757,35.69129,0
            139.84757,35.69134,0
            139.84756,35.69188,0
            139.84752,35.69188,0
            139.84746,35.69149,2
            139.84742,35.69142,2
            139.84738,35.69114,3
            139.84738,35.69113,3
            139.84736,35.69102,4
            139.8473,35.69096,4
            139.847,35.69094,4
            139.84692,35.69097,5
            139.84688,35.69104,5
            139.84686,35.6912,5
            139.84685,35.69123,5
            139.84682,35.69119,5
            139.84677,35.69095,6
            139.84672,35.69093,6
            139.84669,35.69093,6
            139.846323759565,35.6909211827535,6
            139.8463,35.69091,6
            139.84632,35.69088,6
            139.84636,35.69067,6
            139.84622,35.69066,5
            139.84621,35.69066,5
            139.84604,35.69065,5
            139.84568,35.69058,3
            139.84553,35.69058,2
            139.84552,35.69058,2
            139.84519,35.69056,1
            139.8447,35.69062,1
            139.84462,35.69062,1
            139.84461,35.69062,1
            139.8442,35.6906,2
            139.84343,35.69053,4
            139.84342,35.69053,4
            139.83967,35.69019,1
            139.83966,35.69019,1
            139.83591,35.68984,6
            139.8359,35.68984,6
            139.83427,35.68968,6
            139.83262,35.68954,5
            139.83261,35.68954,5
            139.83225,35.6895,4
            139.82975,35.68927,5
            139.82953,35.68927,5
            139.82639,35.68934,6
            139.82639,35.68933,6
            139.82639,35.68934,6
            139.82263,35.6892,7
            139.82262,35.6892,7
            139.82097,35.68913,8
            139.81929,35.68909,3
            139.81577,35.68897,6
            139.81543,35.68894,5
            139.81542,35.68894,5
            139.81361,35.68882,5
            139.81103,35.6887,6
            139.81102,35.6887,6
            139.81075,35.68868,6
            139.80963,35.68856,5
            139.80664,35.68839,7
            139.80665,35.68834,7
            139.80664,35.68839,7
            139.80356,35.68824,10
            139.80355,35.68824,10
            139.80027,35.68808,8
            139.80027,35.68807,8
            139.80039,35.68693,5
            139.80055,35.68548,9
            139.80077,35.68412,9
            139.8009,35.6829,5
            139.80099,35.68215,6
            139.80118,35.68089,4
            139.80109,35.67844,3
            139.80109,35.67843,3
            139.80106,35.67821,3
            139.80002,35.67629,6
            139.80001,35.67629,6
            139.79942,35.67515,9
            139.79931,35.67345,6
            139.79931,35.67344,6
            139.79929,35.67321,6
            139.79909,35.67248,5
            139.79906,35.67193,5
            139.79903,35.67179,5
            139.79898,35.67168,5
            139.79843,35.67081,6
            139.79842,35.67081,6
            139.79841,35.67079,6
            139.79735,35.67125,5
            139.79731,35.67127,5
            139.79737,35.67136,5
            139.7976,35.67126,5
            139.79955,35.6704,4
            139.8004,35.67003,5
            139.80052,35.66999,5
            139.80151,35.66978,8
            139.80159,35.66994,8
            139.80181,35.66988,8
            139.80201,35.67032,7
            139.80201,35.67031,7
            139.8021,35.6705,6
            139.80262,35.67242,5
            139.802707465901,35.6727741968021,4
            139.802594769361,35.6729034440991,4
            139.8026,35.67294,4
            139.80317,35.67283,5
            139.80487,35.6725,4
            139.805147014534,35.6725857107857,4
            139.80516,35.67258,4
            139.80562,35.67452,11
            139.80561,35.67452,11
            139.80566,35.67471,13
            139.8058,35.67469,14
            139.80586,35.67494,14
            139.80577,35.67497,14
            139.80574,35.675,14
            139.80579,35.67521,14
            139.80571,35.67524,14
            139.805742349763,35.6754053475114,14
            139.80678,35.67544,6
            139.80681,35.67544,5
            139.80688,35.67544,5
            139.80698,35.67618,8
            139.80697,35.67629,8
            139.807215879656,35.676303642441,7
            139.807397068004,35.6764413303832,5
            139.80739,35.67646,5
            139.8074,35.67646,5
            139.80746,35.67643,4
            139.80801,35.67645,0
            139.80799,35.67683,0
            139.80792,35.67806,4
            139.80792,35.67808,4
            139.80816,35.67803,6
            139.80826,35.67803,6
            139.80882,35.67804,7
            139.80881,35.67804,7
            139.809,35.67804,7
            139.80898,35.67822,8
            139.80894,35.67841,9
            139.80895,35.67878,11
            139.80905,35.67909,12
            139.80905,35.67908,12
            139.80911,35.67924,10
            139.80909,35.67926,10
            139.80905,35.67927,10
            139.80887,35.67924,8
            139.80886,35.67924,8
            139.80878,35.67923,7
            139.80852,35.67925,4
            139.80819,35.67931,1
            139.80804,35.67932,1
            139.80792,35.67931,1
            139.80753,35.67922,0
            139.80744,35.67921,0
            139.80743,35.67921,0
            139.80725,35.6792,0
            139.80696,35.67925,0
            139.80694,35.67926,0
            139.80687,35.68012,0
            139.80692,35.68019,0
            139.80698,35.68021,0
            139.807081449542,35.6802917487074,0
            139.809958548619,35.6804394748284,5
            139.80997,35.68044,5
            139.80983,35.68149,1
            139.81008,35.6815,2
            139.81007,35.6815,2
            139.81147,35.68156,3
            139.81145,35.68171,3
            139.81131,35.68322,5
            139.81112,35.68492,6
            139.81113,35.68492,6
            139.8106,35.6902,6
            139.81037,35.692,6
            139.81091,35.69203,6
            139.8109,35.69203,6
            139.81322,35.69216,6
            139.81321,35.69216,6
            139.81332,35.69216,7
            139.8132,35.69372,18
            139.8132,35.69374,18
            139.81556,35.69388,17
            139.81828,35.69401,16
            139.81834,35.69401,17
            139.82088,35.69414,9
            139.82212,35.69423,7
            139.82211,35.69423,7
            139.82263,35.69427,7
            139.82575,35.69445,6
            139.82574,35.69445,6
            139.82586,35.69446,6
            139.8257,35.69655,9
            139.82563,35.69751,9
            139.82546,35.69966,7
            139.82533,35.70155,7
            139.825429133711,35.7015714586719,7
            139.82563,35.69847,8
            139.82565,35.69817,8
            139.82574,35.69815,9
            139.826,35.69816,10
            139.82599,35.69816,10
            139.82601,35.69816,10
            139.82604,35.69787,11
            139.82602,35.69782,11
            139.82599,35.69781,11
          </coordinates>
        </LineString>
      </Placemark>
    </Folder>
  </Document>
</kml>
