<?xml version="1.0" encoding="UTF-8"?>
<gpx version="1.1"
     creator="KMLtoGPX"
     xmlns="http://www.topografix.com/GPX/1/1">
  <metadata>
    <name>Koto-ku Northern Walking Course 18km</name>
    <desc>Route from tabi-rin.com</desc>
    <time>2025-05-02T07:34:14.317960Z</time>
    <bounds minlat="35.66978" minlon="139.79731" maxlat="35.70454" maxlon="139.84781"/>
  </metadata>
  <trk>
    <name>Koto-ku Northern Walking Course 18km</name>
    <trkseg>
<trkpt lat="35.697793291556" lon="139.826000248499">
<ele>12</ele>
</trkpt>
<trkpt lat="35.6978" lon="139.82598">
<ele>11</ele>
</trkpt>
<trkpt lat="35.69778" lon="139.82568">
<ele>10</ele>
</trkpt>
<trkpt lat="35.69782" lon="139.8256">
<ele>10</ele>
</trkpt>
<trkpt lat="35.69802" lon="139.82559">
<ele>9</ele>
</trkpt>
<trkpt lat="35.69933" lon="139.82549">
<ele>7</ele>
</trkpt>
<trkpt lat="35.70095" lon="139.82537">
<ele>7</ele>
</trkpt>
<trkpt lat="35.70178" lon="139.82531">
<ele>4</ele>
</trkpt>
<trkpt lat="35.70224" lon="139.82537">
<ele>3</ele>
</trkpt>
<trkpt lat="35.7042244797054" lon="139.825675493638">
<ele>4</ele>
</trkpt>
<trkpt lat="35.7042728438364" lon="139.825437258499">
<ele>4</ele>
</trkpt>
<trkpt lat="35.70427" lon="139.82543">
<ele>4</ele>
</trkpt>
<trkpt lat="35.70398" lon="139.82532">
<ele>3</ele>
</trkpt>
<trkpt lat="35.7034" lon="139.82507">
<ele>3</ele>
</trkpt>
<trkpt lat="35.7034" lon="139.82505">
<ele>3</ele>
</trkpt>
<trkpt lat="35.70347" lon="139.82478">
<ele>3</ele>
</trkpt>
<trkpt lat="35.70356" lon="139.82454">
<ele>3</ele>
</trkpt>
<trkpt lat="35.70364" lon="139.82452">
<ele>3</ele>
</trkpt>
<trkpt lat="35.70378" lon="139.8242">
<ele>3</ele>
</trkpt>
<trkpt lat="35.70386" lon="139.82382">
<ele>4</ele>
</trkpt>
<trkpt lat="35.70399" lon="139.82329">
<ele>4</ele>
</trkpt>
<trkpt lat="35.7043" lon="139.82331">
<ele>4</ele>
</trkpt>
<trkpt lat="35.70437" lon="139.82303">
<ele>4</ele>
</trkpt>
<trkpt lat="35.70454" lon="139.82233">
<ele>3</ele>
</trkpt>
<trkpt lat="35.70444" lon="139.82226">
<ele>3</ele>
</trkpt>
<trkpt lat="35.70448" lon="139.82229">
<ele>3</ele>
</trkpt>
<trkpt lat="35.70376" lon="139.82173">
<ele>3</ele>
</trkpt>
<trkpt lat="35.70273" lon="139.82162">
<ele>0</ele>
</trkpt>
<trkpt lat="35.70273" lon="139.8216">
<ele>0</ele>
</trkpt>
<trkpt lat="35.70273" lon="139.82159">
<ele>0</ele>
</trkpt>
<trkpt lat="35.70269" lon="139.82118">
<ele>1</ele>
</trkpt>
<trkpt lat="35.70199" lon="139.82123">
<ele>4</ele>
</trkpt>
<trkpt lat="35.70199" lon="139.82118">
<ele>5</ele>
</trkpt>
<trkpt lat="35.70199" lon="139.82117">
<ele>5</ele>
</trkpt>
<trkpt lat="35.70197" lon="139.82077">
<ele>8</ele>
</trkpt>
<trkpt lat="35.70195" lon="139.82077">
<ele>8</ele>
</trkpt>
<trkpt lat="35.70162" lon="139.8208">
<ele>10</ele>
</trkpt>
<trkpt lat="35.70149" lon="139.82081">
<ele>9</ele>
</trkpt>
<trkpt lat="35.7014" lon="139.81942">
<ele>4</ele>
</trkpt>
<trkpt lat="35.7014" lon="139.8194">
<ele>4</ele>
</trkpt>
<trkpt lat="35.70146" lon="139.81936">
<ele>4</ele>
</trkpt>
<trkpt lat="35.70147" lon="139.81946">
<ele>4</ele>
</trkpt>
<trkpt lat="35.70147" lon="139.81947">
<ele>4</ele>
</trkpt>
<trkpt lat="35.70157" lon="139.82095">
<ele>11</ele>
</trkpt>
<trkpt lat="35.70157" lon="139.82094">
<ele>11</ele>
</trkpt>
<trkpt lat="35.70173" lon="139.82425">
<ele>8</ele>
</trkpt>
<trkpt lat="35.70173" lon="139.82424">
<ele>8</ele>
</trkpt>
<trkpt lat="35.70179" lon="139.82559">
<ele>4</ele>
</trkpt>
<trkpt lat="35.70177" lon="139.82672">
<ele>4</ele>
</trkpt>
<trkpt lat="35.7017" lon="139.83054">
<ele>6</ele>
</trkpt>
<trkpt lat="35.70166" lon="139.83271">
<ele>5</ele>
</trkpt>
<trkpt lat="35.70166" lon="139.83329">
<ele>6</ele>
</trkpt>
<trkpt lat="35.70169" lon="139.83346">
<ele>7</ele>
</trkpt>
<trkpt lat="35.70169" lon="139.83345">
<ele>7</ele>
</trkpt>
<trkpt lat="35.70171" lon="139.83364">
<ele>8</ele>
</trkpt>
<trkpt lat="35.70178" lon="139.83393">
<ele>9</ele>
</trkpt>
<trkpt lat="35.70192" lon="139.83433">
<ele>9</ele>
</trkpt>
<trkpt lat="35.70199" lon="139.83448">
<ele>8</ele>
</trkpt>
<trkpt lat="35.70221" lon="139.83484">
<ele>7</ele>
</trkpt>
<trkpt lat="35.70268" lon="139.83541">
<ele>4</ele>
</trkpt>
<trkpt lat="35.70268" lon="139.8353">
<ele>4</ele>
</trkpt>
<trkpt lat="35.70271" lon="139.83525">
<ele>3</ele>
</trkpt>
<trkpt lat="35.70281" lon="139.83491">
<ele>3</ele>
</trkpt>
<trkpt lat="35.70281" lon="139.8349">
<ele>3</ele>
</trkpt>
<trkpt lat="35.70284" lon="139.83492">
<ele>3</ele>
</trkpt>
<trkpt lat="35.70287" lon="139.83535">
<ele>5</ele>
</trkpt>
<trkpt lat="35.70287" lon="139.83534">
<ele>5</ele>
</trkpt>
<trkpt lat="35.70284" lon="139.83549">
<ele>6</ele>
</trkpt>
<trkpt lat="35.70255" lon="139.8359">
<ele>7</ele>
</trkpt>
<trkpt lat="35.70208" lon="139.8366">
<ele>5</ele>
</trkpt>
<trkpt lat="35.70209" lon="139.83659">
<ele>5</ele>
</trkpt>
<trkpt lat="35.70208" lon="139.8366">
<ele>4</ele>
</trkpt>
<trkpt lat="35.70185" lon="139.8372">
<ele>4</ele>
</trkpt>
<trkpt lat="35.7018" lon="139.83738">
<ele>4</ele>
</trkpt>
<trkpt lat="35.70178" lon="139.83778">
<ele>3</ele>
</trkpt>
<trkpt lat="35.70163" lon="139.83815">
<ele>3</ele>
</trkpt>
<trkpt lat="35.70145" lon="139.83844">
<ele>3</ele>
</trkpt>
<trkpt lat="35.70133" lon="139.8387">
<ele>3</ele>
</trkpt>
<trkpt lat="35.70122" lon="139.83901">
<ele>3</ele>
</trkpt>
<trkpt lat="35.70117" lon="139.83941">
<ele>3</ele>
</trkpt>
<trkpt lat="35.70089" lon="139.84017">
<ele>1</ele>
</trkpt>
<trkpt lat="35.70038" lon="139.84158">
<ele>0</ele>
</trkpt>
<trkpt lat="35.70029" lon="139.84177">
<ele>1</ele>
</trkpt>
<trkpt lat="35.69941" lon="139.84361">
<ele>3</ele>
</trkpt>
<trkpt lat="35.69919" lon="139.84401">
<ele>2</ele>
</trkpt>
<trkpt lat="35.69911" lon="139.84414">
<ele>2</ele>
</trkpt>
<trkpt lat="35.69894" lon="139.84438">
<ele>2</ele>
</trkpt>
<trkpt lat="35.69814" lon="139.84525">
<ele>3</ele>
</trkpt>
<trkpt lat="35.69775" lon="139.8456">
<ele>2</ele>
</trkpt>
<trkpt lat="35.69766" lon="139.84564">
<ele>2</ele>
</trkpt>
<trkpt lat="35.69737" lon="139.84589">
<ele>1</ele>
</trkpt>
<trkpt lat="35.69717" lon="139.84602">
<ele>1</ele>
</trkpt>
<trkpt lat="35.69691" lon="139.84626">
<ele>1</ele>
</trkpt>
<trkpt lat="35.69673" lon="139.84643">
<ele>1</ele>
</trkpt>
<trkpt lat="35.69633" lon="139.84668">
<ele>2</ele>
</trkpt>
<trkpt lat="35.69546" lon="139.84715">
<ele>1</ele>
</trkpt>
<trkpt lat="35.69471" lon="139.84753">
<ele>1</ele>
</trkpt>
<trkpt lat="35.69442" lon="139.84764">
<ele>2</ele>
</trkpt>
<trkpt lat="35.69346" lon="139.84781">
<ele>0</ele>
</trkpt>
<trkpt lat="35.69339" lon="139.84781">
<ele>0</ele>
</trkpt>
<trkpt lat="35.69338" lon="139.84781">
<ele>0</ele>
</trkpt>
<trkpt lat="35.69323" lon="139.8478">
<ele>0</ele>
</trkpt>
<trkpt lat="35.69314" lon="139.84773">
<ele>0</ele>
</trkpt>
<trkpt lat="35.69269" lon="139.84772">
<ele>0</ele>
</trkpt>
<trkpt lat="35.69233" lon="139.84778">
<ele>0</ele>
</trkpt>
<trkpt lat="35.69129" lon="139.84765">
<ele>0</ele>
</trkpt>
<trkpt lat="35.69129" lon="139.84757">
<ele>0</ele>
</trkpt>
<trkpt lat="35.69134" lon="139.84757">
<ele>0</ele>
</trkpt>
<trkpt lat="35.69188" lon="139.84756">
<ele>0</ele>
</trkpt>
<trkpt lat="35.69188" lon="139.84752">
<ele>0</ele>
</trkpt>
<trkpt lat="35.69149" lon="139.84746">
<ele>2</ele>
</trkpt>
<trkpt lat="35.69142" lon="139.84742">
<ele>2</ele>
</trkpt>
<trkpt lat="35.69114" lon="139.84738">
<ele>3</ele>
</trkpt>
<trkpt lat="35.69113" lon="139.84738">
<ele>3</ele>
</trkpt>
<trkpt lat="35.69102" lon="139.84736">
<ele>4</ele>
</trkpt>
<trkpt lat="35.69096" lon="139.8473">
<ele>4</ele>
</trkpt>
<trkpt lat="35.69094" lon="139.847">
<ele>4</ele>
</trkpt>
<trkpt lat="35.69097" lon="139.84692">
<ele>5</ele>
</trkpt>
<trkpt lat="35.69104" lon="139.84688">
<ele>5</ele>
</trkpt>
<trkpt lat="35.6912" lon="139.84686">
<ele>5</ele>
</trkpt>
<trkpt lat="35.69123" lon="139.84685">
<ele>5</ele>
</trkpt>
<trkpt lat="35.69119" lon="139.84682">
<ele>5</ele>
</trkpt>
<trkpt lat="35.69095" lon="139.84677">
<ele>6</ele>
</trkpt>
<trkpt lat="35.69093" lon="139.84672">
<ele>6</ele>
</trkpt>
<trkpt lat="35.69093" lon="139.84669">
<ele>6</ele>
</trkpt>
<trkpt lat="35.6909211827535" lon="139.846323759565">
<ele>6</ele>
</trkpt>
<trkpt lat="35.69091" lon="139.8463">
<ele>6</ele>
</trkpt>
<trkpt lat="35.69088" lon="139.84632">
<ele>6</ele>
</trkpt>
<trkpt lat="35.69067" lon="139.84636">
<ele>6</ele>
</trkpt>
<trkpt lat="35.69066" lon="139.84622">
<ele>5</ele>
</trkpt>
<trkpt lat="35.69066" lon="139.84621">
<ele>5</ele>
</trkpt>
<trkpt lat="35.69065" lon="139.84604">
<ele>5</ele>
</trkpt>
<trkpt lat="35.69058" lon="139.84568">
<ele>3</ele>
</trkpt>
<trkpt lat="35.69058" lon="139.84553">
<ele>2</ele>
</trkpt>
<trkpt lat="35.69058" lon="139.84552">
<ele>2</ele>
</trkpt>
<trkpt lat="35.69056" lon="139.84519">
<ele>1</ele>
</trkpt>
<trkpt lat="35.69062" lon="139.8447">
<ele>1</ele>
</trkpt>
<trkpt lat="35.69062" lon="139.84462">
<ele>1</ele>
</trkpt>
<trkpt lat="35.69062" lon="139.84461">
<ele>1</ele>
</trkpt>
<trkpt lat="35.6906" lon="139.8442">
<ele>2</ele>
</trkpt>
<trkpt lat="35.69053" lon="139.84343">
<ele>4</ele>
</trkpt>
<trkpt lat="35.69053" lon="139.84342">
<ele>4</ele>
</trkpt>
<trkpt lat="35.69019" lon="139.83967">
<ele>1</ele>
</trkpt>
<trkpt lat="35.69019" lon="139.83966">
<ele>1</ele>
</trkpt>
<trkpt lat="35.68984" lon="139.83591">
<ele>6</ele>
</trkpt>
<trkpt lat="35.68984" lon="139.8359">
<ele>6</ele>
</trkpt>
<trkpt lat="35.68968" lon="139.83427">
<ele>6</ele>
</trkpt>
<trkpt lat="35.68954" lon="139.83262">
<ele>5</ele>
</trkpt>
<trkpt lat="35.68954" lon="139.83261">
<ele>5</ele>
</trkpt>
<trkpt lat="35.6895" lon="139.83225">
<ele>4</ele>
</trkpt>
<trkpt lat="35.68927" lon="139.82975">
<ele>5</ele>
</trkpt>
<trkpt lat="35.68927" lon="139.82953">
<ele>5</ele>
</trkpt>
<trkpt lat="35.68934" lon="139.82639">
<ele>6</ele>
</trkpt>
<trkpt lat="35.68933" lon="139.82639">
<ele>6</ele>
</trkpt>
<trkpt lat="35.68934" lon="139.82639">
<ele>6</ele>
</trkpt>
<trkpt lat="35.6892" lon="139.82263">
<ele>7</ele>
</trkpt>
<trkpt lat="35.6892" lon="139.82262">
<ele>7</ele>
</trkpt>
<trkpt lat="35.68913" lon="139.82097">
<ele>8</ele>
</trkpt>
<trkpt lat="35.68909" lon="139.81929">
<ele>3</ele>
</trkpt>
<trkpt lat="35.68897" lon="139.81577">
<ele>6</ele>
</trkpt>
<trkpt lat="35.68894" lon="139.81543">
<ele>5</ele>
</trkpt>
<trkpt lat="35.68894" lon="139.81542">
<ele>5</ele>
</trkpt>
<trkpt lat="35.68882" lon="139.81361">
<ele>5</ele>
</trkpt>
<trkpt lat="35.6887" lon="139.81103">
<ele>6</ele>
</trkpt>
<trkpt lat="35.6887" lon="139.81102">
<ele>6</ele>
</trkpt>
<trkpt lat="35.68868" lon="139.81075">
<ele>6</ele>
</trkpt>
<trkpt lat="35.68856" lon="139.80963">
<ele>5</ele>
</trkpt>
<trkpt lat="35.68839" lon="139.80664">
<ele>7</ele>
</trkpt>
<trkpt lat="35.68834" lon="139.80665">
<ele>7</ele>
</trkpt>
<trkpt lat="35.68839" lon="139.80664">
<ele>7</ele>
</trkpt>
<trkpt lat="35.68824" lon="139.80356">
<ele>10</ele>
</trkpt>
<trkpt lat="35.68824" lon="139.80355">
<ele>10</ele>
</trkpt>
<trkpt lat="35.68808" lon="139.80027">
<ele>8</ele>
</trkpt>
<trkpt lat="35.68807" lon="139.80027">
<ele>8</ele>
</trkpt>
<trkpt lat="35.68693" lon="139.80039">
<ele>5</ele>
</trkpt>
<trkpt lat="35.68548" lon="139.80055">
<ele>9</ele>
</trkpt>
<trkpt lat="35.68412" lon="139.80077">
<ele>9</ele>
</trkpt>
<trkpt lat="35.6829" lon="139.8009">
<ele>5</ele>
</trkpt>
<trkpt lat="35.68215" lon="139.80099">
<ele>6</ele>
</trkpt>
<trkpt lat="35.68089" lon="139.80118">
<ele>4</ele>
</trkpt>
<trkpt lat="35.67844" lon="139.80109">
<ele>3</ele>
</trkpt>
<trkpt lat="35.67843" lon="139.80109">
<ele>3</ele>
</trkpt>
<trkpt lat="35.67821" lon="139.80106">
<ele>3</ele>
</trkpt>
<trkpt lat="35.67629" lon="139.80002">
<ele>6</ele>
</trkpt>
<trkpt lat="35.67629" lon="139.80001">
<ele>6</ele>
</trkpt>
<trkpt lat="35.67515" lon="139.79942">
<ele>9</ele>
</trkpt>
<trkpt lat="35.67345" lon="139.79931">
<ele>6</ele>
</trkpt>
<trkpt lat="35.67344" lon="139.79931">
<ele>6</ele>
</trkpt>
<trkpt lat="35.67321" lon="139.79929">
<ele>6</ele>
</trkpt>
<trkpt lat="35.67248" lon="139.79909">
<ele>5</ele>
</trkpt>
<trkpt lat="35.67193" lon="139.79906">
<ele>5</ele>
</trkpt>
<trkpt lat="35.67179" lon="139.79903">
<ele>5</ele>
</trkpt>
<trkpt lat="35.67168" lon="139.79898">
<ele>5</ele>
</trkpt>
<trkpt lat="35.67081" lon="139.79843">
<ele>6</ele>
</trkpt>
<trkpt lat="35.67081" lon="139.79842">
<ele>6</ele>
</trkpt>
<trkpt lat="35.67079" lon="139.79841">
<ele>6</ele>
</trkpt>
<trkpt lat="35.67125" lon="139.79735">
<ele>5</ele>
</trkpt>
<trkpt lat="35.67127" lon="139.79731">
<ele>5</ele>
</trkpt>
<trkpt lat="35.67136" lon="139.79737">
<ele>5</ele>
</trkpt>
<trkpt lat="35.67126" lon="139.7976">
<ele>5</ele>
</trkpt>
<trkpt lat="35.6704" lon="139.79955">
<ele>4</ele>
</trkpt>
<trkpt lat="35.67003" lon="139.8004">
<ele>5</ele>
</trkpt>
<trkpt lat="35.66999" lon="139.80052">
<ele>5</ele>
</trkpt>
<trkpt lat="35.66978" lon="139.80151">
<ele>8</ele>
</trkpt>
<trkpt lat="35.66994" lon="139.80159">
<ele>8</ele>
</trkpt>
<trkpt lat="35.66988" lon="139.80181">
<ele>8</ele>
</trkpt>
<trkpt lat="35.67032" lon="139.80201">
<ele>7</ele>
</trkpt>
<trkpt lat="35.67031" lon="139.80201">
<ele>7</ele>
</trkpt>
<trkpt lat="35.6705" lon="139.8021">
<ele>6</ele>
</trkpt>
<trkpt lat="35.67242" lon="139.80262">
<ele>5</ele>
</trkpt>
<trkpt lat="35.6727741968021" lon="139.802707465901">
<ele>4</ele>
</trkpt>
<trkpt lat="35.6729034440991" lon="139.802594769361">
<ele>4</ele>
</trkpt>
<trkpt lat="35.67294" lon="139.8026">
<ele>4</ele>
</trkpt>
<trkpt lat="35.67283" lon="139.80317">
<ele>5</ele>
</trkpt>
<trkpt lat="35.6725" lon="139.80487">
<ele>4</ele>
</trkpt>
<trkpt lat="35.6725857107857" lon="139.805147014534">
<ele>4</ele>
</trkpt>
<trkpt lat="35.67258" lon="139.80516">
<ele>4</ele>
</trkpt>
<trkpt lat="35.67452" lon="139.80562">
<ele>11</ele>
</trkpt>
<trkpt lat="35.67452" lon="139.80561">
<ele>11</ele>
</trkpt>
<trkpt lat="35.67471" lon="139.80566">
<ele>13</ele>
</trkpt>
<trkpt lat="35.67469" lon="139.8058">
<ele>14</ele>
</trkpt>
<trkpt lat="35.67494" lon="139.80586">
<ele>14</ele>
</trkpt>
<trkpt lat="35.67497" lon="139.80577">
<ele>14</ele>
</trkpt>
<trkpt lat="35.675" lon="139.80574">
<ele>14</ele>
</trkpt>
<trkpt lat="35.67521" lon="139.80579">
<ele>14</ele>
</trkpt>
<trkpt lat="35.67524" lon="139.80571">
<ele>14</ele>
</trkpt>
<trkpt lat="35.6754053475114" lon="139.805742349763">
<ele>14</ele>
</trkpt>
<trkpt lat="35.67544" lon="139.80678">
<ele>6</ele>
</trkpt>
<trkpt lat="35.67544" lon="139.80681">
<ele>5</ele>
</trkpt>
<trkpt lat="35.67544" lon="139.80688">
<ele>5</ele>
</trkpt>
<trkpt lat="35.67618" lon="139.80698">
<ele>8</ele>
</trkpt>
<trkpt lat="35.67629" lon="139.80697">
<ele>8</ele>
</trkpt>
<trkpt lat="35.676303642441" lon="139.807215879656">
<ele>7</ele>
</trkpt>
<trkpt lat="35.6764413303832" lon="139.807397068004">
<ele>5</ele>
</trkpt>
<trkpt lat="35.67646" lon="139.80739">
<ele>5</ele>
</trkpt>
<trkpt lat="35.67646" lon="139.8074">
<ele>5</ele>
</trkpt>
<trkpt lat="35.67643" lon="139.80746">
<ele>4</ele>
</trkpt>
<trkpt lat="35.67645" lon="139.80801">
<ele>0</ele>
</trkpt>
<trkpt lat="35.67683" lon="139.80799">
<ele>0</ele>
</trkpt>
<trkpt lat="35.67806" lon="139.80792">
<ele>4</ele>
</trkpt>
<trkpt lat="35.67808" lon="139.80792">
<ele>4</ele>
</trkpt>
<trkpt lat="35.67803" lon="139.80816">
<ele>6</ele>
</trkpt>
<trkpt lat="35.67803" lon="139.80826">
<ele>6</ele>
</trkpt>
<trkpt lat="35.67804" lon="139.80882">
<ele>7</ele>
</trkpt>
<trkpt lat="35.67804" lon="139.80881">
<ele>7</ele>
</trkpt>
<trkpt lat="35.67804" lon="139.809">
<ele>7</ele>
</trkpt>
<trkpt lat="35.67822" lon="139.80898">
<ele>8</ele>
</trkpt>
<trkpt lat="35.67841" lon="139.80894">
<ele>9</ele>
</trkpt>
<trkpt lat="35.67878" lon="139.80895">
<ele>11</ele>
</trkpt>
<trkpt lat="35.67909" lon="139.80905">
<ele>12</ele>
</trkpt>
<trkpt lat="35.67908" lon="139.80905">
<ele>12</ele>
</trkpt>
<trkpt lat="35.67924" lon="139.80911">
<ele>10</ele>
</trkpt>
<trkpt lat="35.67926" lon="139.80909">
<ele>10</ele>
</trkpt>
<trkpt lat="35.67927" lon="139.80905">
<ele>10</ele>
</trkpt>
<trkpt lat="35.67924" lon="139.80887">
<ele>8</ele>
</trkpt>
<trkpt lat="35.67924" lon="139.80886">
<ele>8</ele>
</trkpt>
<trkpt lat="35.67923" lon="139.80878">
<ele>7</ele>
</trkpt>
<trkpt lat="35.67925" lon="139.80852">
<ele>4</ele>
</trkpt>
<trkpt lat="35.67931" lon="139.80819">
<ele>1</ele>
</trkpt>
<trkpt lat="35.67932" lon="139.80804">
<ele>1</ele>
</trkpt>
<trkpt lat="35.67931" lon="139.80792">
<ele>1</ele>
</trkpt>
<trkpt lat="35.67922" lon="139.80753">
<ele>0</ele>
</trkpt>
<trkpt lat="35.67921" lon="139.80744">
<ele>0</ele>
</trkpt>
<trkpt lat="35.67921" lon="139.80743">
<ele>0</ele>
</trkpt>
<trkpt lat="35.6792" lon="139.80725">
<ele>0</ele>
</trkpt>
<trkpt lat="35.67925" lon="139.80696">
<ele>0</ele>
</trkpt>
<trkpt lat="35.67926" lon="139.80694">
<ele>0</ele>
</trkpt>
<trkpt lat="35.68012" lon="139.80687">
<ele>0</ele>
</trkpt>
<trkpt lat="35.68019" lon="139.80692">
<ele>0</ele>
</trkpt>
<trkpt lat="35.68021" lon="139.80698">
<ele>0</ele>
</trkpt>
<trkpt lat="35.6802917487074" lon="139.807081449542">
<ele>0</ele>
</trkpt>
<trkpt lat="35.6804394748284" lon="139.809958548619">
<ele>5</ele>
</trkpt>
<trkpt lat="35.68044" lon="139.80997">
<ele>5</ele>
</trkpt>
<trkpt lat="35.68149" lon="139.80983">
<ele>1</ele>
</trkpt>
<trkpt lat="35.6815" lon="139.81008">
<ele>2</ele>
</trkpt>
<trkpt lat="35.6815" lon="139.81007">
<ele>2</ele>
</trkpt>
<trkpt lat="35.68156" lon="139.81147">
<ele>3</ele>
</trkpt>
<trkpt lat="35.68171" lon="139.81145">
<ele>3</ele>
</trkpt>
<trkpt lat="35.68322" lon="139.81131">
<ele>5</ele>
</trkpt>
<trkpt lat="35.68492" lon="139.81112">
<ele>6</ele>
</trkpt>
<trkpt lat="35.68492" lon="139.81113">
<ele>6</ele>
</trkpt>
<trkpt lat="35.6902" lon="139.8106">
<ele>6</ele>
</trkpt>
<trkpt lat="35.692" lon="139.81037">
<ele>6</ele>
</trkpt>
<trkpt lat="35.69203" lon="139.81091">
<ele>6</ele>
</trkpt>
<trkpt lat="35.69203" lon="139.8109">
<ele>6</ele>
</trkpt>
<trkpt lat="35.69216" lon="139.81322">
<ele>6</ele>
</trkpt>
<trkpt lat="35.69216" lon="139.81321">
<ele>6</ele>
</trkpt>
<trkpt lat="35.69216" lon="139.81332">
<ele>7</ele>
</trkpt>
<trkpt lat="35.69372" lon="139.8132">
<ele>18</ele>
</trkpt>
<trkpt lat="35.69374" lon="139.8132">
<ele>18</ele>
</trkpt>
<trkpt lat="35.69388" lon="139.81556">
<ele>17</ele>
</trkpt>
<trkpt lat="35.69401" lon="139.81828">
<ele>16</ele>
</trkpt>
<trkpt lat="35.69401" lon="139.81834">
<ele>17</ele>
</trkpt>
<trkpt lat="35.69414" lon="139.82088">
<ele>9</ele>
</trkpt>
<trkpt lat="35.69423" lon="139.82212">
<ele>7</ele>
</trkpt>
<trkpt lat="35.69423" lon="139.82211">
<ele>7</ele>
</trkpt>
<trkpt lat="35.69427" lon="139.82263">
<ele>7</ele>
</trkpt>
<trkpt lat="35.69445" lon="139.82575">
<ele>6</ele>
</trkpt>
<trkpt lat="35.69445" lon="139.82574">
<ele>6</ele>
</trkpt>
<trkpt lat="35.69446" lon="139.82586">
<ele>6</ele>
</trkpt>
<trkpt lat="35.69655" lon="139.8257">
<ele>9</ele>
</trkpt>
<trkpt lat="35.69751" lon="139.82563">
<ele>9</ele>
</trkpt>
<trkpt lat="35.69966" lon="139.82546">
<ele>7</ele>
</trkpt>
<trkpt lat="35.70155" lon="139.82533">
<ele>7</ele>
</trkpt>
<trkpt lat="35.7015714586719" lon="139.825429133711">
<ele>7</ele>
</trkpt>
<trkpt lat="35.69847" lon="139.82563">
<ele>8</ele>
</trkpt>
<trkpt lat="35.69817" lon="139.82565">
<ele>8</ele>
</trkpt>
<trkpt lat="35.69815" lon="139.82574">
<ele>9</ele>
</trkpt>
<trkpt lat="35.69816" lon="139.826">
<ele>10</ele>
</trkpt>
<trkpt lat="35.69816" lon="139.82599">
<ele>10</ele>
</trkpt>
<trkpt lat="35.69816" lon="139.82601">
<ele>10</ele>
</trkpt>
<trkpt lat="35.69787" lon="139.82604">
<ele>11</ele>
</trkpt>
<trkpt lat="35.69782" lon="139.82602">
<ele>11</ele>
</trkpt>
<trkpt lat="35.69781" lon="139.82599">
<ele>11</ele>
</trkpt>
    </trkseg>
  </trk>
</gpx>