<?xml version="1.0" encoding="UTF-8"?>
<kml xmlns="http://www.opengis.net/kml/2.2" xmlns:atom="http://www.w3.org/2005/Atom">
<Document>
<name>三原山ヒルクライム大会使用コース</name>
<atom:author>
<atom:name></atom:name>
</atom:author> 
<atom:link href="https://latlonglab.yahoo.co.jp/route/watch?id=ffa7ca3ca2bec71b8f730d4fad8db03c" />
<description><![CDATA[]]></description> 
<Placemark>
<Style>
<LineStyle>
<color>99ff0000</color>
<width>6</width>
</LineStyle>
</Style>
<LineString>
<coordinates>
139.3605,34.74530305555555,57
139.36050305555557,34.74525111111111,56
139.3608911111111,34.74507611111111,59
139.36105305555554,34.74502611111111,60
139.36122805555556,34.74502611111111,62
139.36177805555556,34.74519194444444,64
139.3618911111111,34.745216944444444,65
139.36225305555556,34.74525111111111,68
139.3624911111111,34.745216944444444,68
139.3629161111111,34.745066944444446,68
139.36307805555555,34.74507611111111,68
139.36325305555556,34.74515888888889,71
139.36355305555554,34.74545111111111,74
139.36367805555557,34.74552611111111,76
139.3637911111111,34.74555888888889,78
139.36435305555557,34.74551694444445,84
139.3644911111111,34.745491944444446,85
139.36505305555556,34.74523388888889,92
139.36524111111112,34.745216944444444,91
139.3655161111111,34.745216944444444,93
139.36567805555555,34.74525111111111,95
139.3658661111111,34.74535111111111,96
139.36682805555554,34.74625888888889,107
139.36695305555557,34.74633388888889,104
139.36714,34.74635888888889,104
139.367315,34.74632611111111,107
139.367465,34.74621805555556,110
139.36757805555555,34.74607611111111,113
139.36770305555555,34.74585111111111,115
139.36780305555556,34.74575111111111,116
139.36795305555555,34.74565111111111,118
139.368115,34.74554305555556,123
139.36820305555557,34.74542611111111,124
139.36830305555554,34.74520111111111,128
139.368315,34.74496805555555,128
139.36830305555554,34.744793055555554,128
139.36805305555555,34.74442611111111,136
139.36799,34.74422611111111,134
139.368015,34.74401805555556,140
139.368115,34.74378388888889,144
139.36827805555555,34.74359305555556,144
139.36840305555555,34.74353388888889,143
139.368515,34.74353388888889,143
139.36875305555554,34.74365888888889,148
139.36919,34.743943055555555,155
139.37015305555556,34.74477611111111,164
139.370315,34.74485888888889,164
139.37055305555555,34.74489194444445,163
139.37070305555557,34.744951111111114,167
139.37094,34.74513388888889,168
139.371365,34.74555111111111,175
139.37150194444445,34.74559305555555,174
139.37162694444444,34.74556694444444,176
139.37169,34.74545888888889,179
139.37167805555555,34.74531694444445,185
139.371465,34.74489305555556,186
139.371365,34.74478388888889,184
139.37122805555555,34.74470888888889,185
139.37097805555555,34.74460111111111,183
139.37084,34.744458888888886,183
139.37077805555555,34.74431805555555,185
139.37082805555556,34.74421805555556,189
139.37095305555556,34.744193055555556,192
139.371065,34.74422611111111,192
139.371265,34.74442611111111,194
139.37140194444444,34.74451805555555,194
139.37159,34.74455888888889,194
139.37182805555557,34.74471805555556,197
139.37209,34.74495888888889,203
139.37222805555555,34.74503388888889,204
139.37257805555555,34.74510111111111,208
139.372665,34.74515888888889,208
139.37275194444445,34.745268055555556,212
139.37284,34.74532611111111,214
139.37329,34.745441944444444,219
139.37340194444445,34.74542611111111,222
139.37345305555556,34.74536805555555,225
139.37347805555555,34.745268055555556,225
139.37337805555555,34.744458888888886,233
139.37339,34.74430888888889,235
139.37345305555556,34.74421805555556,239
139.373565,34.74418388888889,243
139.373665,34.744193055555556,243
139.37387694444445,34.74437611111111,244
139.37405305555555,34.74460111111111,246
139.37417805555555,34.74482611111111,246
139.37425305555556,34.74508388888889,246
139.37425305555556,34.74535111111111,254
139.374215,34.74560888888889,250
139.37412694444444,34.745868055555555,254
139.37394,34.74614305555556,254
139.373915,34.746268055555554,254
139.37394,34.74635111111111,256
139.37404,34.74640888888889,256
139.37420194444445,34.74640888888889,257
139.37459,34.746268055555554,266
139.37469,34.74617611111111,267
139.374715,34.746051111111115,267
139.37465194444445,34.745716944444446,263
139.37467694444445,34.74557611111111,268
139.37474,34.74548388888889,271
139.37485194444446,34.74539305555555,273
139.37490194444445,34.74528388888889,275
139.37494,34.74503388888889,275
139.375015,34.744818055555555,278
139.37505194444444,34.744593055555555,283
139.37502694444444,34.74438388888889,285
139.37494,34.74418388888889,285
139.374815,34.743993055555556,284
139.374815,34.743901111111114,284
139.37484,34.74382611111111,285
139.37494,34.74377611111111,291
139.375065,34.74377611111111,294
139.37517694444443,34.74385111111111,295
139.375415,34.74438388888889,293
139.375765,34.74490888888889,305
139.37595194444444,34.74514305555556,305
139.37607694444443,34.745218055555554,307
139.37620194444443,34.74525111111111,309
139.376415,34.74530111111111,314
139.37654,34.74538388888889,315
139.37667694444445,34.745533888888886,317
139.37724,34.746518055555555,335
139.37726388888888,34.74664305555556,335
139.37725194444445,34.74675888888889,335
139.37713888888888,34.74692611111111,334
139.3770638888889,34.74708388888889,333
139.37703888888888,34.747368055555555,340
139.37702694444445,34.747551111111115,343
139.37701388888888,34.747591944444444,344
139.3769388888889,34.74790888888889,345
139.37682694444445,34.74820111111111,344
139.37675194444444,34.74836694444444,346
139.37668888888888,34.74874194444445,353
139.37668888888888,34.749026111111114,356
139.3767388888889,34.749316944444445,362
139.37682694444445,34.749476111111115,362
139.37702694444445,34.74953388888889,365
139.37713888888888,34.74952611111111,364
139.3775138888889,34.74932611111111,368
139.3778388888889,34.74910888888889,376
139.37813888888888,34.74890111111111,383
139.37830194444444,34.74881694444444,386
139.37842694444444,34.74880111111111,385
139.37862694444445,34.74885888888889,384
139.37910194444444,34.74923388888889,393
139.37927694444446,34.749316944444445,393
139.37942694444445,34.74928388888889,392
139.3795388888889,34.74912611111111,395
139.37922694444444,34.74842611111111,407
139.3789888888889,34.74820888888889,412
139.3786388888889,34.747976111111115,418
139.37852694444445,34.747841944444446,415
139.37851388888888,34.74772611111111,415
139.37860194444445,34.74733388888889,415
139.37871388888888,34.74709305555555,420
139.3789888888889,34.74670111111111,424
139.37915194444443,34.74646805555555,427
139.37920194444445,34.74627611111111,424
139.37885194444445,34.74535111111111,434
139.37882694444446,34.74516805555555,435
139.37885194444445,34.74502611111111,438
139.37906388888888,34.74467611111111,447
139.3791138888889,34.74450111111111,448
139.379115,34.74435111111111,448
139.37895194444445,34.74366805555555,454
139.378965,34.74351,455
139.379315,34.743026111111114,465
139.379415,34.74276805555556,464
139.379415,34.742643055555554,464
139.379165,34.74214305555556,464
139.37912694444444,34.74189305555556,465
139.37934,34.74144305555556,465
139.37942694444445,34.741193055555556,465
139.37935194444444,34.74111805555555,465
139.37924,34.74111805555555,463
139.37880194444443,34.741285,465
139.37867694444444,34.741276944444444,468
139.37845194444444,34.741168055555555,477
139.378265,34.74102694444444,475
139.378165,34.740901944444445,474
139.37815194444445,34.74075194444445,476
139.37819,34.740568055555556,475
139.378365,34.74016,485
139.37854,34.739601944444445,496
139.37849,34.73925194444445,496
139.378315,34.73885194444444,505
139.37820305555556,34.738576944444446,505
139.37815194444445,34.73837694444445,514
139.378115,34.73814388888889,517
139.37812805555555,34.73784388888889,517
139.37817694444445,34.73771,516
139.37825305555555,34.73766,516
139.37835305555555,34.73766,517
139.378515,34.737743888888886,519
139.37869,34.738135,526
139.37885305555557,34.738335,531
139.37910305555556,34.738501944444444,534
139.37947805555555,34.73867694444444,535
139.37982694444443,34.738818888888886,547
139.38019,34.73896888888889,546
139.38067694444445,34.73912694444444,552
139.38082694444444,34.73912694444444,554
139.38092694444444,34.739185,555
139.38096,34.73920611111111,555
</coordinates>
</LineString>
</Placemark>
</Document>
</kml>
