<?xml version="1.0" encoding="UTF-8"?>
<kml xmlns="http://www.opengis.net/kml/2.2">
  <Document>
    <name>練馬サイクリング のコピー</name>
    <description/>
    <Style id="line-0288D1-5000-normal">
      <LineStyle>
        <color>ffd18802</color>
        <width>5</width>
      </LineStyle>
    </Style>
    <Style id="line-0288D1-5000-highlight">
      <LineStyle>
        <color>ffd18802</color>
        <width>7.5</width>
      </LineStyle>
    </Style>
    <StyleMap id="line-0288D1-5000">
      <Pair>
        <key>normal</key>
        <styleUrl>#line-0288D1-5000-normal</styleUrl>
      </Pair>
      <Pair>
        <key>highlight</key>
        <styleUrl>#line-0288D1-5000-highlight</styleUrl>
      </Pair>
    </StyleMap>
    <Folder>
      <name>練馬サイクリング</name>
      <Placemark>
        <name>練馬サイクリング</name>
        <description><![CDATA[インポートしたデータに基づく統計データ<br><br>距離: 16.5 km<br>最小標高: 36 m<br>最大標高: 53 m<br>累積標高（登り）: 36 m<br>累積標高（下り）: 39 m]]></description>
        <styleUrl>#line-0288D1-5000</styleUrl>
        <LineString>
          <tessellate>1</tessellate>
          <coordinates>
            139.650886544389,35.7373839710677,51
            139.65087,35.73738,50
            139.65042,35.73817,46
            139.65034,35.73827,46
            139.65027,35.73833,46
            139.65017,35.73838,46
            139.64987,35.73847,46
            139.64929,35.73862,45
            139.64919,35.73868,45
            139.64916,35.73873,45
            139.64908,35.74038,43
            139.64907,35.74071,43
            139.64912,35.74194,43
            139.64829,35.74193,43
            139.64818,35.74203,43
            139.6482,35.74234,42
            139.64821,35.74244,42
            139.64822,35.74265,42
            139.64779,35.74268,42
            139.64772,35.74243,41
            139.64747,35.74248,40
            139.64743,35.74239,40
            139.6474,35.74225,39
            139.6465,35.74232,41
            139.64606,35.74234,43
            139.64609,35.74247,43
            139.64599,35.74261,43
            139.64477,35.74298,38
            139.64456,35.74311,37
            139.64451,35.74315,37
            139.64424,35.74324,36
            139.64402,35.74324,37
            139.64308,35.74311,41
            139.64247,35.743,41
            139.64246,35.743,41
            139.6424,35.74299,41
            139.64235,35.7432,41
            139.64231,35.74361,41
            139.64228,35.74364,41
            139.64179,35.74379,41
            139.64173,35.74372,40
            139.64161,35.74368,40
            139.64149,35.74368,40
            139.64135,35.7437,40
            139.64108,35.74371,39
            139.64097,35.74368,39
            139.64093,35.74364,39
            139.64093,35.74358,39
            139.64065,35.74358,38
            139.64065,35.74391,38
            139.64063,35.74411,37
            139.64057,35.74435,37
            139.64053,35.74434,36
            139.64016,35.74532,34
            139.64015,35.74536,34
            139.63783,35.74479,36
            139.6375,35.74472,36
            139.63723,35.74468,36
            139.63695,35.74468,36
            139.63649,35.74473,36
            139.63624,35.74478,36
            139.63459,35.74514,36
            139.63432,35.74517,36
            139.63415,35.74518,36
            139.63373,35.74517,36
            139.6335,35.74512,36
            139.63348,35.74512,36
            139.63348,35.74511,36
            139.63297,35.74499,36
            139.63251,35.74492,36
            139.63156,35.74493,35
            139.62959,35.74496,35
            139.62948,35.74496,35
            139.62939,35.74499,35
            139.62922,35.74488,35
            139.62845,35.74438,38
            139.62844,35.74438,38
            139.62749,35.74376,42
            139.62634,35.743,44
            139.62633,35.743,44
            139.62539,35.7424,45
            139.62493,35.74216,44
            139.62436,35.74179,43
            139.62439,35.74176,43
            139.62433,35.74172,43
            139.62432,35.74172,43
            139.6243,35.7417,43
            139.62427,35.74174,43
            139.62338,35.74116,42
            139.62321,35.74103,42
            139.62289,35.74078,42
            139.62174,35.73978,42
            139.62174,35.73977,42
            139.62027,35.73849,43
            139.62022,35.73851,43
            139.62004,35.7386,43
            139.6192,35.73911,43
            139.61826,35.7396,42
            139.61821,35.73955,41
            139.61808,35.73946,41
            139.61807,35.73946,41
            139.61786,35.73935,40
            139.61777,35.73932,40
            139.61617,35.73911,40
            139.61586,35.73908,40
            139.61482,35.73893,40
            139.61451,35.7389,40
            139.61351,35.73898,42
            139.6126,35.73911,43
            139.60929,35.73955,41
            139.60918,35.73958,40
            139.60877,35.73972,40
            139.60867,35.7399,40
            139.60858,35.7399,40
            139.60853,35.73999,40
            139.60858,35.7399,40
            139.60867,35.7399,40
            139.6084,35.7403,41
            139.60646,35.73978,43
            139.60628,35.73974,43
            139.60632,35.73971,43
            139.60632,35.7397,43
            139.60632,35.73969,43
            139.60632,35.73971,43
            139.60628,35.73974,43
            139.60648,35.7403,43
            139.6064,35.74035,43
            139.60628,35.74039,44
            139.60611,35.74065,44
            139.60555,35.74029,45
            139.60534,35.74026,45
            139.60527,35.74025,45
            139.60414,35.7404,44
            139.60396,35.7404,44
            139.60359,35.74036,45
            139.60344,35.74036,46
            139.60302,35.74009,49
            139.60294,35.74006,49
            139.60279,35.74003,49
            139.60237,35.73998,51
            139.60215,35.73996,52
            139.60194,35.73997,52
            139.60178,35.73997,52
            139.60144,35.73991,52
            139.60102,35.73981,52
            139.601054844168,35.7397721826118,52
            139.60105,35.73977,52
            139.60106,35.73977,52
            139.6011,35.73966,52
            139.60113,35.73964,52
            139.60127,35.73964,52
            139.60126,35.73964,52
            139.60133,35.73964,52
            139.60136,35.73962,52
            139.6014,35.7395,52
            139.60142,35.73947,53
            139.60147,35.73949,53
            139.60146,35.73949,53
            139.60166,35.73958,53
            139.60182,35.7396,53
            139.60215,35.73953,54
            139.60268,35.73936,54
            139.60293,35.73937,54
            139.6031,35.73939,53
            139.60326,35.73944,53
            139.60348,35.73953,53
            139.60368,35.73958,53
            139.60395,35.73963,53
            139.60394,35.73963,53
            139.60406,35.73965,52
            139.60451,35.73968,49
            139.60466,35.73968,48
            139.60479,35.73965,47
            139.60486,35.73962,47
            139.60517,35.73946,45
            139.60563,35.73955,43
            139.6057,35.73953,43
            139.60582,35.7396,42
            139.60618,35.73973,42
            139.60614,35.73977,42
            139.60611,35.73981,42
            139.60622,35.74004,43
            139.60624,35.74021,44
            139.60623,35.7403,44
            139.60618,35.7404,44
            139.60612,35.74045,45
            139.60607,35.74051,45
            139.60617,35.74057,45
            139.60612,35.74064,45
            139.60658,35.74072,45
            139.60661,35.74079,45
            139.60661,35.74078,45
            139.60658,35.74072,45
            139.60664,35.74071,45
            139.6068,35.74104,45
            139.60707,35.74153,46
            139.60714,35.74183,47
            139.60724,35.74181,47
            139.60723,35.74177,47
            139.60722,35.74177,47
            139.60724,35.74181,47
            139.60714,35.74183,47
            139.60717,35.74241,48
            139.6072,35.74254,48
            139.60727,35.74269,48
            139.60766,35.7433,48
            139.60776,35.74355,48
            139.60788,35.74437,46
            139.60788,35.74436,46
            139.60793,35.74481,46
            139.60795,35.74535,46
            139.60883,35.74559,44
            139.60949,35.74583,44
            139.61053,35.74623,44
            139.61055,35.74619,45
            139.61034,35.74611,45
            139.61033,35.74611,45
            139.61055,35.74619,46
            139.61053,35.74623,47
            139.61364,35.7474,45
            139.61473,35.74775,45
            139.61563,35.74812,45
            139.6162,35.74837,45
            139.61739,35.74884,44
            139.61738,35.74889,44
            139.61765,35.74899,44
            139.61764,35.74899,44
            139.61792,35.7491,44
            139.61799,35.74909,44
            139.61801,35.74918,44
            139.61811,35.74917,44
            139.61847,35.74914,44
            139.6185,35.74925,44
            139.61877,35.74923,44
            139.61884,35.74944,44
            139.6191,35.74952,44
            139.61909,35.74952,44
            139.62045,35.74985,45
            139.62206,35.75027,43
            139.6229,35.75043,44
            139.62289,35.75043,44
            139.62331,35.7505,45
            139.62347,35.75054,46
            139.624,35.75056,45
            139.62449,35.75065,42
            139.62553,35.75086,42
            139.62549,35.75095,42
            139.6254,35.75118,43
            139.62534,35.75142,43
            139.62523,35.75201,42
            139.62517,35.75218,42
            139.62502,35.7525,42
            139.62484,35.7528,41
            139.62466,35.75302,41
            139.6244,35.7533,41
            139.62435,35.75339,41
            139.62422,35.75368,41
            139.62424,35.75362,41
            139.62909,35.75368,45
            139.6291,35.75375,46
            139.62919,35.75375,46
            139.6292,35.75383,46
            139.62915,35.75391,47
            139.62914,35.75399,47
            139.62913,35.75652,49
            139.62916,35.75652,49
            139.62915,35.75652,49
            139.62902,35.75652,49
            139.62901,35.75672,51
            139.62895,35.75675,52
            139.62893,35.75703,54
            139.62893,35.75728,56
            139.62896,35.75728,56
            139.62897,35.75743,54
            139.62903,35.75746,54
            139.62897,35.75752,53
            139.62896,35.75758,52
            139.62901,35.75765,51
            139.62898,35.75779,49
            139.62904,35.75779,49
            139.62906,35.75781,48
            139.62905,35.75781,48
            139.62908,35.75783,48
            139.62908,35.75836,47
            139.62913,35.75836,47
            139.628986677914,35.7624368734163,42
            139.628798495755,35.7628496675696,42
            139.62876,35.76285,42
            139.62876,35.76284,42
            139.62863,35.76285,42
            139.62856,35.76288,42
            139.62828,35.76308,41
            139.62803,35.7633,40
            139.62801,35.76336,40
            139.62798,35.76344,40
            139.62771,35.76345,39
            139.62769,35.76403,38
            139.62761,35.76405,38
            139.62761,35.76406,38
            139.62761,35.76405,38
            139.62728,35.7641,38
            139.6268,35.76424,39
            139.62636,35.76454,41
            139.62609,35.76503,42
            139.62589,35.76575,43
            139.62576,35.76685,42
            139.62644,35.76684,42
            139.62647,35.76729,42
            139.62651,35.76747,42
            139.62668,35.76775,42
            139.62688,35.76792,43
            139.62711,35.76805,44
            139.62752,35.76818,45
            139.62751,35.76818,45
            139.62766,35.76822,45
            139.62814,35.76826,45
            139.62849,35.76819,44
            139.62864,35.76813,44
            139.62891,35.76807,42
            139.62932,35.76805,41
            139.62931,35.76817,40
            139.62973,35.76817,39
            139.63005,35.76817,38
            139.63005,35.76809,38
            139.63077,35.76809,38
            139.63095,35.76812,38
            139.63132,35.76823,38
            139.63184,35.76847,38
            139.63184,35.76846,38
            139.63391,35.76935,37
            139.63417,35.76949,37
            139.63491,35.76981,37
            139.63495,35.76976,37
            139.63508,35.76967,37
            139.63519,35.76967,37
            139.63531,35.76977,38
            139.6355,35.76975,38
            139.63545,35.76869,38
            139.63545,35.76748,38
            139.63548,35.76705,39
            139.63556,35.76635,39
            139.63538,35.76634,39
            139.63537,35.76634,39
            139.63556,35.76635,38
            139.63565,35.7656,37
            139.63573,35.76528,37
            139.63589,35.76476,38
            139.63594,35.76448,38
            139.63597,35.76434,38
            139.63592,35.76402,38
            139.63578,35.76366,37
            139.63554,35.76322,36
            139.63545,35.76293,36
            139.63542,35.76268,36
            139.63548,35.76114,36
            139.63552,35.7609,37
            139.63556,35.76075,38
            139.63557,35.76063,38
            139.63559,35.75962,39
            139.63638,35.75769,40
            139.63648,35.75751,40
            139.63659,35.75732,40
            139.63663,35.7572,40
            139.6367,35.75698,40
            139.63683,35.7563,40
            139.63709,35.75558,39
            139.6372,35.75538,39
            139.6377,35.75471,39
            139.63793,35.75436,40
            139.63861,35.75302,41
            139.63927,35.75188,42
            139.63933,35.75177,41
            139.63992,35.75154,41
            139.64045,35.75136,42
            139.63974,35.75095,42
            139.63997,35.75046,41
            139.64044,35.74945,39
            139.64051,35.74935,39
            139.64059,35.74927,39
            139.64066,35.74923,40
            139.64089,35.74914,40
            139.64218,35.74879,41
            139.64342,35.74847,41
            139.64428,35.74828,40
            139.64474,35.74821,40
            139.6457,35.74815,39
            139.64569,35.74815,39
            139.6471,35.74816,40
            139.64726,35.74815,40
            139.64749,35.74807,40
            139.64762,35.74798,39
            139.6477,35.7479,39
            139.64776,35.7478,39
            139.64778,35.74773,39
            139.64786,35.74734,39
            139.64799,35.74646,35
            139.64802,35.74607,34
            139.64804,35.74586,33
            139.64816,35.74513,35
            139.64837,35.74444,40
            139.64853,35.7441,44
            139.64854,35.74411,44
            139.64854,35.7441,44
            139.64853,35.7441,44
            139.64901,35.74318,45
            139.64912,35.74287,44
            139.64912,35.74194,43
            139.64829,35.74193,43
            139.64821,35.742,42
          </coordinates>
        </LineString>
      </Placemark>
    </Folder>
  </Document>
</kml>
