<?xml version="1.0" encoding="UTF-8"?>
<gpx version="1.1"
     creator="KMLtoGPX"
     xmlns="http://www.topografix.com/GPX/1/1">
  <metadata>
    <name>Approximately 325 km stress-free! Let's go to the top of Japan! (Day 2)</name>
    <desc>ストレスフリーで約325km！いざ・日本のてっぺんへ！（2日目）</desc>
    <bounds minlat="44.34934888888889" minlon="142.0398788888889" maxlat="44.80370194444444" maxlon="142.47564805555555"/>
  </metadata>
  <trk>
    <name>Approximately 325 km stress-free! Let's go to the top of Japan! (Day 2)</name>
    <trkseg>
<trkpt lat="44.34936" lon="142.4645561111111">
<ele>98</ele>
</trkpt>
<trkpt lat="44.34934888888889" lon="142.46397694444445">
<ele>98</ele>
</trkpt>
<trkpt lat="44.34934888888889" lon="142.4638888888889">
<ele>98</ele>
</trkpt>
<trkpt lat="44.34937388888889" lon="142.46370194444444">
<ele>98</ele>
</trkpt>
<trkpt lat="44.35051611111111" lon="142.46370194444444">
<ele>97</ele>
</trkpt>
<trkpt lat="44.35153305555556" lon="142.4636888888889">
<ele>97</ele>
</trkpt>
<trkpt lat="44.35166611111111" lon="142.4636888888889">
<ele>97</ele>
</trkpt>
<trkpt lat="44.352831944444446" lon="142.46370194444444">
<ele>97</ele>
</trkpt>
<trkpt lat="44.35399888888889" lon="142.46370194444444">
<ele>96</ele>
</trkpt>
<trkpt lat="44.35514888888889" lon="142.46370194444444">
<ele>96</ele>
</trkpt>
<trkpt lat="44.356365" lon="142.4636888888889">
<ele>96</ele>
</trkpt>
<trkpt lat="44.35644" lon="142.4636888888889">
<ele>96</ele>
</trkpt>
<trkpt lat="44.35762388888889" lon="142.4636761111111">
<ele>96</ele>
</trkpt>
<trkpt lat="44.358781944444445" lon="142.4636888888889">
<ele>96</ele>
</trkpt>
<trkpt lat="44.35995694444444" lon="142.4636761111111">
<ele>96</ele>
</trkpt>
<trkpt lat="44.361115" lon="142.4636638888889">
<ele>97</ele>
</trkpt>
<trkpt lat="44.362273055555555" lon="142.4636638888889">
<ele>97</ele>
</trkpt>
<trkpt lat="44.36242305555555" lon="142.4636638888889">
<ele>97</ele>
</trkpt>
<trkpt lat="44.36343111111111" lon="142.4636638888889">
<ele>96</ele>
</trkpt>
<trkpt lat="44.36365611111111" lon="142.4636638888889">
<ele>96</ele>
</trkpt>
<trkpt lat="44.363863888888886" lon="142.4636761111111">
<ele>96</ele>
</trkpt>
<trkpt lat="44.364023055555556" lon="142.4636888888889">
<ele>96</ele>
</trkpt>
<trkpt lat="44.36432305555556" lon="142.46376388888888">
<ele>96</ele>
</trkpt>
<trkpt lat="44.36485611111111" lon="142.46401305555557">
<ele>95</ele>
</trkpt>
<trkpt lat="44.36506388888889" lon="142.46406305555556">
<ele>95</ele>
</trkpt>
<trkpt lat="44.36531388888889" lon="142.46410111111112">
<ele>95</ele>
</trkpt>
<trkpt lat="44.36532305555556" lon="142.4642761111111">
<ele>95</ele>
</trkpt>
<trkpt lat="44.36555305555556" lon="142.46427305555557">
<ele>95</ele>
</trkpt>
<trkpt lat="44.36555305555556" lon="142.46427305555557">
<ele>95</ele>
</trkpt>
<trkpt lat="44.36628888888889" lon="142.46426305555556">
<ele>95</ele>
</trkpt>
<trkpt lat="44.36643888888889" lon="142.46416305555556">
<ele>95</ele>
</trkpt>
<trkpt lat="44.36666388888889" lon="142.46413805555557">
<ele>95</ele>
</trkpt>
<trkpt lat="44.367396944444444" lon="142.4640761111111">
<ele>93</ele>
</trkpt>
<trkpt lat="44.36778888888889" lon="142.4640511111111">
<ele>92</ele>
</trkpt>
<trkpt lat="44.36795611111111" lon="142.4640761111111">
<ele>92</ele>
</trkpt>
<trkpt lat="44.368206111111114" lon="142.4641511111111">
<ele>91</ele>
</trkpt>
<trkpt lat="44.369281111111114" lon="142.46466305555555">
<ele>90</ele>
</trkpt>
<trkpt lat="44.370221944444445" lon="142.46508805555555">
<ele>93</ele>
</trkpt>
<trkpt lat="44.370421944444445" lon="142.4651761111111">
<ele>93</ele>
</trkpt>
<trkpt lat="44.37065611111111" lon="142.46522611111112">
<ele>94</ele>
</trkpt>
<trkpt lat="44.370846944444445" lon="142.46523805555555">
<ele>94</ele>
</trkpt>
<trkpt lat="44.37117194444444" lon="142.4651511111111">
<ele>93</ele>
</trkpt>
<trkpt lat="44.37137194444445" lon="142.46503805555557">
<ele>93</ele>
</trkpt>
<trkpt lat="44.371496944444445" lon="142.46493805555556">
<ele>93</ele>
</trkpt>
<trkpt lat="44.37188" lon="142.4645761111111">
<ele>92</ele>
</trkpt>
<trkpt lat="44.372121944444444" lon="142.4643761111111">
<ele>92</ele>
</trkpt>
<trkpt lat="44.37227194444444" lon="142.46428805555556">
<ele>92</ele>
</trkpt>
<trkpt lat="44.372413888888886" lon="142.46423805555557">
<ele>91</ele>
</trkpt>
<trkpt lat="44.372746944444444" lon="142.4641761111111">
<ele>91</ele>
</trkpt>
<trkpt lat="44.37373888888889" lon="142.46416305555556">
<ele>91</ele>
</trkpt>
<trkpt lat="44.37548" lon="142.46416305555556">
<ele>91</ele>
</trkpt>
<trkpt lat="44.37592194444444" lon="142.46416305555556">
<ele>91</ele>
</trkpt>
<trkpt lat="44.376455" lon="142.46416305555556">
<ele>92</ele>
</trkpt>
<trkpt lat="44.378903888888885" lon="142.46416305555556">
<ele>92</ele>
</trkpt>
<trkpt lat="44.38075388888889" lon="142.46415">
<ele>93</ele>
</trkpt>
<trkpt lat="44.381436944444445" lon="142.46415">
<ele>94</ele>
</trkpt>
<trkpt lat="44.381436944444445" lon="142.46412388888888">
<ele>93</ele>
</trkpt>
<trkpt lat="44.381436944444445" lon="142.46412388888888">
<ele>93</ele>
</trkpt>
<trkpt lat="44.381436944444445" lon="142.46415">
<ele>94</ele>
</trkpt>
<trkpt lat="44.383961944444444" lon="142.464175">
<ele>98</ele>
</trkpt>
<trkpt lat="44.38527888888889" lon="142.464175">
<ele>96</ele>
</trkpt>
<trkpt lat="44.38572888888889" lon="142.464175">
<ele>97</ele>
</trkpt>
<trkpt lat="44.38587888888889" lon="142.464175">
<ele>97</ele>
</trkpt>
<trkpt lat="44.385978888888886" lon="142.46416194444444">
<ele>97</ele>
</trkpt>
<trkpt lat="44.38607888888889" lon="142.46411194444445">
<ele>98</ele>
</trkpt>
<trkpt lat="44.38622888888889" lon="142.46395">
<ele>98</ele>
</trkpt>
<trkpt lat="44.38627" lon="142.46385">
<ele>97</ele>
</trkpt>
<trkpt lat="44.386311944444444" lon="142.46375">
<ele>97</ele>
</trkpt>
<trkpt lat="44.38645388888889" lon="142.46336194444444">
<ele>96</ele>
</trkpt>
<trkpt lat="44.386586944444446" lon="142.4631">
<ele>95</ele>
</trkpt>
<trkpt lat="44.38666194444444" lon="142.46301194444445">
<ele>95</ele>
</trkpt>
<trkpt lat="44.38675388888889" lon="142.46296194444446">
<ele>95</ele>
</trkpt>
<trkpt lat="44.386853888888886" lon="142.462925">
<ele>95</ele>
</trkpt>
<trkpt lat="44.38811194444445" lon="142.462675">
<ele>93</ele>
</trkpt>
<trkpt lat="44.38840305555556" lon="142.462625">
<ele>93</ele>
</trkpt>
<trkpt lat="44.388686944444444" lon="142.46263694444445">
<ele>92</ele>
</trkpt>
<trkpt lat="44.389028055555556" lon="142.4627">
<ele>93</ele>
</trkpt>
<trkpt lat="44.38952805555556" lon="142.46285">
<ele>94</ele>
</trkpt>
<trkpt lat="44.390236944444446" lon="142.463175">
<ele>95</ele>
</trkpt>
<trkpt lat="44.39077" lon="142.463475">
<ele>95</ele>
</trkpt>
<trkpt lat="44.39121111111111" lon="142.46383694444444">
<ele>94</ele>
</trkpt>
<trkpt lat="44.391695" lon="142.46434888888888">
<ele>93</ele>
</trkpt>
<trkpt lat="44.39462805555556" lon="142.46796194444445">
<ele>94</ele>
</trkpt>
<trkpt lat="44.39895611111111" lon="142.47301194444444">
<ele>93</ele>
</trkpt>
<trkpt lat="44.39895611111111" lon="142.47301194444444">
<ele>93</ele>
</trkpt>
<trkpt lat="44.39991888888889" lon="142.4741361111111">
<ele>93</ele>
</trkpt>
<trkpt lat="44.40021111111111" lon="142.4743861111111">
<ele>93</ele>
</trkpt>
<trkpt lat="44.40260305555555" lon="142.47557305555554">
<ele>95</ele>
</trkpt>
<trkpt lat="44.40280194444444" lon="142.4756111111111">
<ele>95</ele>
</trkpt>
<trkpt lat="44.40449388888889" lon="142.47564805555555">
<ele>92</ele>
</trkpt>
<trkpt lat="44.40513611111111" lon="142.47542305555555">
<ele>91</ele>
</trkpt>
<trkpt lat="44.405635" lon="142.47523611111112">
<ele>91</ele>
</trkpt>
<trkpt lat="44.406351944444445" lon="142.47492305555556">
<ele>92</ele>
</trkpt>
<trkpt lat="44.407026944444446" lon="142.4745111111111">
<ele>92</ele>
</trkpt>
<trkpt lat="44.40960111111111" lon="142.47216111111112">
<ele>92</ele>
</trkpt>
<trkpt lat="44.41145111111111" lon="142.47071111111111">
<ele>94</ele>
</trkpt>
<trkpt lat="44.41188388888889" lon="142.4701861111111">
<ele>91</ele>
</trkpt>
<trkpt lat="44.41405888888889" lon="142.46706111111112">
<ele>94</ele>
</trkpt>
<trkpt lat="44.41535888888889" lon="142.46557305555555">
<ele>95</ele>
</trkpt>
<trkpt lat="44.41594194444444" lon="142.46477305555555">
<ele>94</ele>
</trkpt>
<trkpt lat="44.4162" lon="142.4643738888889">
<ele>94</ele>
</trkpt>
<trkpt lat="44.419" lon="142.4593111111111">
<ele>93</ele>
</trkpt>
<trkpt lat="44.41975" lon="142.4579488888889">
<ele>97</ele>
</trkpt>
<trkpt lat="44.41983305555556" lon="142.4577988888889">
<ele>97</ele>
</trkpt>
<trkpt lat="44.42016611111111" lon="142.4571861111111">
<ele>96</ele>
</trkpt>
<trkpt lat="44.42097388888889" lon="142.4556988888889">
<ele>92</ele>
</trkpt>
<trkpt lat="44.42131611111111" lon="142.4551111111111">
<ele>94</ele>
</trkpt>
<trkpt lat="44.421683055555555" lon="142.4544611111111">
<ele>98</ele>
</trkpt>
<trkpt lat="44.42202388888889" lon="142.4538488888889">
<ele>100</ele>
</trkpt>
<trkpt lat="44.42202388888889" lon="142.4538488888889">
<ele>100</ele>
</trkpt>
<trkpt lat="44.42437388888889" lon="142.44963694444445">
<ele>116</ele>
</trkpt>
<trkpt lat="44.42439888888889" lon="142.44958694444443">
<ele>116</ele>
</trkpt>
<trkpt lat="44.425956944444444" lon="142.44716194444445">
<ele>98</ele>
</trkpt>
<trkpt lat="44.42604" lon="142.44693694444445">
<ele>98</ele>
</trkpt>
<trkpt lat="44.42608194444445" lon="142.44666194444446">
<ele>97</ele>
</trkpt>
<trkpt lat="44.42605694444445" lon="142.44618694444443">
<ele>95</ele>
</trkpt>
<trkpt lat="44.42605694444445" lon="142.44616194444444">
<ele>95</ele>
</trkpt>
<trkpt lat="44.42587388888889" lon="142.44288694444444">
<ele>89</ele>
</trkpt>
<trkpt lat="44.425865" lon="142.44271194444445">
<ele>91</ele>
</trkpt>
<trkpt lat="44.42589" lon="142.44221194444444">
<ele>92</ele>
</trkpt>
<trkpt lat="44.42610694444444" lon="142.4419">
<ele>92</ele>
</trkpt>
<trkpt lat="44.426515" lon="142.44165">
<ele>90</ele>
</trkpt>
<trkpt lat="44.427865" lon="142.441175">
<ele>90</ele>
</trkpt>
<trkpt lat="44.42812305555555" lon="142.441">
<ele>90</ele>
</trkpt>
<trkpt lat="44.42829" lon="142.44078694444445">
<ele>90</ele>
</trkpt>
<trkpt lat="44.42838111111111" lon="142.4406">
<ele>90</ele>
</trkpt>
<trkpt lat="44.42850611111111" lon="142.44033694444445">
<ele>90</ele>
</trkpt>
<trkpt lat="44.428556111111114" lon="142.44011194444445">
<ele>90</ele>
</trkpt>
<trkpt lat="44.42930611111111" lon="142.43683694444445">
<ele>93</ele>
</trkpt>
<trkpt lat="44.43084805555556" lon="142.43013805555555">
<ele>91</ele>
</trkpt>
<trkpt lat="44.43237194444445" lon="142.4235011111111">
<ele>91</ele>
</trkpt>
<trkpt lat="44.432765" lon="142.42178694444445">
<ele>90</ele>
</trkpt>
<trkpt lat="44.432765" lon="142.42178694444445">
<ele>90</ele>
</trkpt>
<trkpt lat="44.43388888888889" lon="142.41688888888888">
<ele>87</ele>
</trkpt>
<trkpt lat="44.43861305555556" lon="142.41902611111112">
<ele>85</ele>
</trkpt>
<trkpt lat="44.43924194444445" lon="142.41630805555556">
<ele>84</ele>
</trkpt>
<trkpt lat="44.43924194444445" lon="142.41630805555556">
<ele>84</ele>
</trkpt>
<trkpt lat="44.44015388888889" lon="142.41237">
<ele>84</ele>
</trkpt>
<trkpt lat="44.44169611111111" lon="142.4057138888889">
<ele>84</ele>
</trkpt>
<trkpt lat="44.44170388888889" lon="142.40568888888887">
<ele>84</ele>
</trkpt>
<trkpt lat="44.446495" lon="142.40781388888888">
<ele>85</ele>
</trkpt>
<trkpt lat="44.44718694444445" lon="142.40813888888889">
<ele>85</ele>
</trkpt>
<trkpt lat="44.44737" lon="142.4082261111111">
<ele>84</ele>
</trkpt>
<trkpt lat="44.45070305555556" lon="142.4097261111111">
<ele>81</ele>
</trkpt>
<trkpt lat="44.45087" lon="142.4098011111111">
<ele>81</ele>
</trkpt>
<trkpt lat="44.451703055555555" lon="142.41018888888888">
<ele>83</ele>
</trkpt>
<trkpt lat="44.451836944444445" lon="142.41025">
<ele>83</ele>
</trkpt>
<trkpt lat="44.451836944444445" lon="142.4102488888889">
<ele>83</ele>
</trkpt>
<trkpt lat="44.45285305555556" lon="142.41071305555556">
<ele>83</ele>
</trkpt>
<trkpt lat="44.454303055555556" lon="142.41138805555556">
<ele>83</ele>
</trkpt>
<trkpt lat="44.45451111111111" lon="142.41158805555557">
<ele>83</ele>
</trkpt>
<trkpt lat="44.45456111111111" lon="142.41171305555557">
<ele>83</ele>
</trkpt>
<trkpt lat="44.454945" lon="142.41308805555556">
<ele>85</ele>
</trkpt>
<trkpt lat="44.45603611111111" lon="142.4125261111111">
<ele>83</ele>
</trkpt>
<trkpt lat="44.45781111111111" lon="142.41156305555555">
<ele>84</ele>
</trkpt>
<trkpt lat="44.45822694444445" lon="142.41135111111112">
<ele>84</ele>
</trkpt>
<trkpt lat="44.458378055555556" lon="142.4113011111111">
<ele>84</ele>
</trkpt>
<trkpt lat="44.45868611111111" lon="142.41118805555556">
<ele>84</ele>
</trkpt>
<trkpt lat="44.45879388888889" lon="142.41113805555557">
<ele>84</ele>
</trkpt>
<trkpt lat="44.46013611111111" lon="142.4107011111111">
<ele>80</ele>
</trkpt>
<trkpt lat="44.460301944444446" lon="142.4106261111111">
<ele>80</ele>
</trkpt>
<trkpt lat="44.460436111111115" lon="142.41052611111112">
<ele>80</ele>
</trkpt>
<trkpt lat="44.46123611111111" lon="142.4098261111111">
<ele>80</ele>
</trkpt>
<trkpt lat="44.46166111111111" lon="142.4093761111111">
<ele>79</ele>
</trkpt>
<trkpt lat="44.46186111111111" lon="142.40911305555557">
<ele>79</ele>
</trkpt>
<trkpt lat="44.46191888888889" lon="142.40898805555557">
<ele>80</ele>
</trkpt>
<trkpt lat="44.46279388888889" lon="142.4068761111111">
<ele>80</ele>
</trkpt>
<trkpt lat="44.463026944444444" lon="142.4061011111111">
<ele>80</ele>
</trkpt>
<trkpt lat="44.463501944444445" lon="142.4037011111111">
<ele>80</ele>
</trkpt>
<trkpt lat="44.46349388888889" lon="142.40305111111113">
<ele>80</ele>
</trkpt>
<trkpt lat="44.46339305555556" lon="142.4022011111111">
<ele>82</ele>
</trkpt>
<trkpt lat="44.463235" lon="142.40133805555556">
<ele>83</ele>
</trkpt>
<trkpt lat="44.46317694444444" lon="142.4011011111111">
<ele>83</ele>
</trkpt>
<trkpt lat="44.46297611111111" lon="142.4006611111111">
<ele>84</ele>
</trkpt>
<trkpt lat="44.46297694444444" lon="142.4006611111111">
<ele>84</ele>
</trkpt>
<trkpt lat="44.46292694444445" lon="142.4005511111111">
<ele>85</ele>
</trkpt>
<trkpt lat="44.46216888888889" lon="142.39888888888888">
<ele>85</ele>
</trkpt>
<trkpt lat="44.461835" lon="142.3981638888889">
<ele>86</ele>
</trkpt>
<trkpt lat="44.461526944444444" lon="142.3974888888889">
<ele>87</ele>
</trkpt>
<trkpt lat="44.46139388888889" lon="142.39718888888888">
<ele>87</ele>
</trkpt>
<trkpt lat="44.46121888888889" lon="142.3968011111111">
<ele>84</ele>
</trkpt>
<trkpt lat="44.461101944444444" lon="142.3962261111111">
<ele>83</ele>
</trkpt>
<trkpt lat="44.460701944444445" lon="142.39330194444443">
<ele>84</ele>
</trkpt>
<trkpt lat="44.460501944444445" lon="142.39208888888888">
<ele>84</ele>
</trkpt>
<trkpt lat="44.460276944444445" lon="142.39070194444446">
<ele>80</ele>
</trkpt>
<trkpt lat="44.46021" lon="142.39007694444444">
<ele>80</ele>
</trkpt>
<trkpt lat="44.460101944444446" lon="142.38787694444446">
<ele>80</ele>
</trkpt>
<trkpt lat="44.45999305555556" lon="142.38690194444445">
<ele>80</ele>
</trkpt>
<trkpt lat="44.459885" lon="142.38587694444445">
<ele>80</ele>
</trkpt>
<trkpt lat="44.45972694444445" lon="142.38372805555557">
<ele>80</ele>
</trkpt>
<trkpt lat="44.459426111111114" lon="142.37842805555556">
<ele>80</ele>
</trkpt>
<trkpt lat="44.45938388888889" lon="142.37771111111113">
<ele>80</ele>
</trkpt>
<trkpt lat="44.45938388888889" lon="142.37771111111113">
<ele>80</ele>
</trkpt>
<trkpt lat="44.45932611111111" lon="142.3767411111111">
<ele>80</ele>
</trkpt>
<trkpt lat="44.459226111111114" lon="142.37507805555555">
<ele>80</ele>
</trkpt>
<trkpt lat="44.45926" lon="142.3745911111111">
<ele>80</ele>
</trkpt>
<trkpt lat="44.459318055555556" lon="142.37420305555557">
<ele>80</ele>
</trkpt>
<trkpt lat="44.45941805555555" lon="142.37372805555555">
<ele>80</ele>
</trkpt>
<trkpt lat="44.459518055555556" lon="142.37337805555555">
<ele>80</ele>
</trkpt>
<trkpt lat="44.45988388888889" lon="142.3720661111111">
<ele>80</ele>
</trkpt>
<trkpt lat="44.460118055555554" lon="142.37144111111112">
<ele>80</ele>
</trkpt>
<trkpt lat="44.46021805555556" lon="142.37114111111111">
<ele>80</ele>
</trkpt>
<trkpt lat="44.46032611111111" lon="142.3709411111111">
<ele>80</ele>
</trkpt>
<trkpt lat="44.460393055555556" lon="142.37080305555557">
<ele>80</ele>
</trkpt>
<trkpt lat="44.46046805555556" lon="142.37066611111112">
<ele>83</ele>
</trkpt>
<trkpt lat="44.46080111111111" lon="142.37010305555555">
<ele>79</ele>
</trkpt>
<trkpt lat="44.460926111111114" lon="142.36986611111112">
<ele>80</ele>
</trkpt>
<trkpt lat="44.461151111111114" lon="142.3694911111111">
<ele>80</ele>
</trkpt>
<trkpt lat="44.46118388888889" lon="142.36942805555555">
<ele>80</ele>
</trkpt>
<trkpt lat="44.46192611111111" lon="142.36815305555555">
<ele>83</ele>
</trkpt>
<trkpt lat="44.46282611111111" lon="142.3668911111111">
<ele>85</ele>
</trkpt>
<trkpt lat="44.462918055555555" lon="142.36720305555556">
<ele>85</ele>
</trkpt>
<trkpt lat="44.462983888888886" lon="142.36745305555556">
<ele>85</ele>
</trkpt>
<trkpt lat="44.463566944444445" lon="142.36992805555556">
<ele>86</ele>
</trkpt>
<trkpt lat="44.46828388888889" lon="142.36759111111112">
<ele>87</ele>
</trkpt>
<trkpt lat="44.47020611111111" lon="142.3666561111111">
<ele>87</ele>
</trkpt>
<trkpt lat="44.47020611111111" lon="142.3666561111111">
<ele>87</ele>
</trkpt>
<trkpt lat="44.47304111111111" lon="142.36527805555556">
<ele>88</ele>
</trkpt>
<trkpt lat="44.47777388888889" lon="142.36325305555556">
<ele>88</ele>
</trkpt>
<trkpt lat="44.482531944444446" lon="142.36095305555557">
<ele>85</ele>
</trkpt>
<trkpt lat="44.48722305555555" lon="142.35872805555556">
<ele>83</ele>
</trkpt>
<trkpt lat="44.48884805555556" lon="142.35787805555555">
<ele>82</ele>
</trkpt>
<trkpt lat="44.491971944444444" lon="142.356265">
<ele>82</ele>
</trkpt>
<trkpt lat="44.49218111111111" lon="142.35615194444443">
<ele>81</ele>
</trkpt>
<trkpt lat="44.492781111111114" lon="142.355865">
<ele>82</ele>
</trkpt>
<trkpt lat="44.49493" lon="142.35479">
<ele>79</ele>
</trkpt>
<trkpt lat="44.49673" lon="142.35402694444446">
<ele>79</ele>
</trkpt>
<trkpt lat="44.49877111111111" lon="142.35300194444446">
<ele>78</ele>
</trkpt>
<trkpt lat="44.49923805555556" lon="142.35277694444446">
<ele>80</ele>
</trkpt>
<trkpt lat="44.501463055555554" lon="142.35166388888888">
<ele>82</ele>
</trkpt>
<trkpt lat="44.50232111111111" lon="142.3512388888889">
<ele>84</ele>
</trkpt>
<trkpt lat="44.50620388888889" lon="142.34938888888888">
<ele>83</ele>
</trkpt>
<trkpt lat="44.51034611111111" lon="142.34739888888888">
<ele>87</ele>
</trkpt>
<trkpt lat="44.51034611111111" lon="142.34739888888888">
<ele>87</ele>
</trkpt>
<trkpt lat="44.51088611111111" lon="142.34713888888888">
<ele>87</ele>
</trkpt>
<trkpt lat="44.51560194444444" lon="142.34486388888888">
<ele>87</ele>
</trkpt>
<trkpt lat="44.51663611111111" lon="142.34432694444445">
<ele>86</ele>
</trkpt>
<trkpt lat="44.51676888888889" lon="142.34428888888888">
<ele>86</ele>
</trkpt>
<trkpt lat="44.51690194444444" lon="142.3443388888889">
<ele>86</ele>
</trkpt>
<trkpt lat="44.51926888888889" lon="142.3461638888889">
<ele>90</ele>
</trkpt>
<trkpt lat="44.51952694444444" lon="142.3463138888889">
<ele>90</ele>
</trkpt>
<trkpt lat="44.51962694444445" lon="142.34632611111113">
<ele>90</ele>
</trkpt>
<trkpt lat="44.51974388888889" lon="142.3463138888889">
<ele>90</ele>
</trkpt>
<trkpt lat="44.51986" lon="142.34622611111112">
<ele>90</ele>
</trkpt>
<trkpt lat="44.52050194444445" lon="142.34553888888888">
<ele>91</ele>
</trkpt>
<trkpt lat="44.52071" lon="142.34533888888888">
<ele>93</ele>
</trkpt>
<trkpt lat="44.520835" lon="142.3452511111111">
<ele>94</ele>
</trkpt>
<trkpt lat="44.52094388888889" lon="142.34521388888888">
<ele>95</ele>
</trkpt>
<trkpt lat="44.52109388888889" lon="142.34521388888888">
<ele>95</ele>
</trkpt>
<trkpt lat="44.521251944444444" lon="142.3452761111111">
<ele>96</ele>
</trkpt>
<trkpt lat="44.52137694444444" lon="142.3453761111111">
<ele>96</ele>
</trkpt>
<trkpt lat="44.52225194444444" lon="142.34621388888888">
<ele>98</ele>
</trkpt>
<trkpt lat="44.52241" lon="142.3462761111111">
<ele>99</ele>
</trkpt>
<trkpt lat="44.522601944444446" lon="142.34632611111113">
<ele>100</ele>
</trkpt>
<trkpt lat="44.522776944444445" lon="142.3463138888889">
<ele>100</ele>
</trkpt>
<trkpt lat="44.52312694444444" lon="142.3462011111111">
<ele>101</ele>
</trkpt>
<trkpt lat="44.526201111111114" lon="142.34473888888888">
<ele>105</ele>
</trkpt>
<trkpt lat="44.529893055555554" lon="142.3429261111111">
<ele>106</ele>
</trkpt>
<trkpt lat="44.53002611111111" lon="142.3428761111111">
<ele>105</ele>
</trkpt>
<trkpt lat="44.53018388888889" lon="142.3428761111111">
<ele>105</ele>
</trkpt>
<trkpt lat="44.53035111111111" lon="142.3429261111111">
<ele>105</ele>
</trkpt>
<trkpt lat="44.53045111111111" lon="142.3430261111111">
<ele>105</ele>
</trkpt>
<trkpt lat="44.531483888888886" lon="142.34461305555556">
<ele>111</ele>
</trkpt>
<trkpt lat="44.53371694444444" lon="142.34590111111112">
<ele>120</ele>
</trkpt>
<trkpt lat="44.53390888888889" lon="142.34590111111112">
<ele>120</ele>
</trkpt>
<trkpt lat="44.53629194444444" lon="142.34478805555557">
<ele>120</ele>
</trkpt>
<trkpt lat="44.536633055555555" lon="142.3447261111111">
<ele>120</ele>
</trkpt>
<trkpt lat="44.536875" lon="142.34477611111112">
<ele>120</ele>
</trkpt>
<trkpt lat="44.53785388888889" lon="142.34496">
<ele>121</ele>
</trkpt>
<trkpt lat="44.53785388888889" lon="142.34496">
<ele>121</ele>
</trkpt>
<trkpt lat="44.53826611111111" lon="142.34503805555556">
<ele>121</ele>
</trkpt>
<trkpt lat="44.53876611111111" lon="142.3450261111111">
<ele>120</ele>
</trkpt>
<trkpt lat="44.538941111111114" lon="142.34477611111112">
<ele>117</ele>
</trkpt>
<trkpt lat="44.539125" lon="142.3440261111111">
<ele>116</ele>
</trkpt>
<trkpt lat="44.53926611111111" lon="142.34306305555555">
<ele>107</ele>
</trkpt>
<trkpt lat="44.53935" lon="142.34283805555555">
<ele>103</ele>
</trkpt>
<trkpt lat="44.53982388888889" lon="142.34226305555555">
<ele>102</ele>
</trkpt>
<trkpt lat="44.53990805555556" lon="142.34180111111112">
<ele>93</ele>
</trkpt>
<trkpt lat="44.53989111111111" lon="142.3414011111111">
<ele>92</ele>
</trkpt>
<trkpt lat="44.539791111111114" lon="142.3410011111111">
<ele>92</ele>
</trkpt>
<trkpt lat="44.538983055555555" lon="142.33948805555556">
<ele>86</ele>
</trkpt>
<trkpt lat="44.53869888888889" lon="142.3388011111111">
<ele>75</ele>
</trkpt>
<trkpt lat="44.53866611111111" lon="142.3386011111111">
<ele>73</ele>
</trkpt>
<trkpt lat="44.538783055555555" lon="142.33816305555555">
<ele>72</ele>
</trkpt>
<trkpt lat="44.538983055555555" lon="142.33796305555555">
<ele>71</ele>
</trkpt>
<trkpt lat="44.53919888888889" lon="142.3379011111111">
<ele>71</ele>
</trkpt>
<trkpt lat="44.54217388888889" lon="142.33766305555557">
<ele>67</ele>
</trkpt>
<trkpt lat="44.54201611111111" lon="142.33412611111112">
<ele>64</ele>
</trkpt>
<trkpt lat="44.54199111111111" lon="142.3337511111111">
<ele>64</ele>
</trkpt>
<trkpt lat="44.54197" lon="142.333245">
<ele>63</ele>
</trkpt>
<trkpt lat="44.54197" lon="142.333245">
<ele>63</ele>
</trkpt>
<trkpt lat="44.54195694444444" lon="142.3329388888889">
<ele>63</ele>
</trkpt>
<trkpt lat="44.54189111111111" lon="142.3313638888889">
<ele>62</ele>
</trkpt>
<trkpt lat="44.54175" lon="142.32803805555557">
<ele>61</ele>
</trkpt>
<trkpt lat="44.54175" lon="142.32803805555557">
<ele>59</ele>
</trkpt>
<trkpt lat="44.54319611111111" lon="142.32799444444444">
<ele>60</ele>
</trkpt>
<trkpt lat="44.54319611111111" lon="142.32799444444444">
<ele>60</ele>
</trkpt>
<trkpt lat="44.54549" lon="142.32915305555557">
<ele>59</ele>
</trkpt>
<trkpt lat="44.54549" lon="142.32915305555557">
<ele>59</ele>
</trkpt>
<trkpt lat="44.54922111111111" lon="142.33142777777778">
<ele>60</ele>
</trkpt>
<trkpt lat="44.54922111111111" lon="142.33142777777778">
<ele>60</ele>
</trkpt>
<trkpt lat="44.550628055555556" lon="142.33215722222224">
<ele>59</ele>
</trkpt>
<trkpt lat="44.550628055555556" lon="142.33215722222224">
<ele>59</ele>
</trkpt>
<trkpt lat="44.552218333333336" lon="142.3322">
<ele>60</ele>
</trkpt>
<trkpt lat="44.552218333333336" lon="142.3322">
<ele>60</ele>
</trkpt>
<trkpt lat="44.55383916666667" lon="142.33177111111112">
<ele>59</ele>
</trkpt>
<trkpt lat="44.55383916666667" lon="142.33177111111112">
<ele>59</ele>
</trkpt>
<trkpt lat="44.55573527777778" lon="142.3307411111111">
<ele>60</ele>
</trkpt>
<trkpt lat="44.55573527777778" lon="142.3307411111111">
<ele>60</ele>
</trkpt>
<trkpt lat="44.55683611111111" lon="142.32928194444443">
<ele>63</ele>
</trkpt>
<trkpt lat="44.55683611111111" lon="142.32928194444443">
<ele>63</ele>
</trkpt>
<trkpt lat="44.55735583333333" lon="142.3279513888889">
<ele>67</ele>
</trkpt>
<trkpt lat="44.55735583333333" lon="142.3279513888889">
<ele>67</ele>
</trkpt>
<trkpt lat="44.55818166666667" lon="142.32451833333334">
<ele>63</ele>
</trkpt>
<trkpt lat="44.55814888888889" lon="142.3245288888889">
<ele>63</ele>
</trkpt>
<trkpt lat="44.55806305555556" lon="142.32401305555555">
<ele>62</ele>
</trkpt>
<trkpt lat="44.558055" lon="142.3234511111111">
<ele>61</ele>
</trkpt>
<trkpt lat="44.558605" lon="142.3210261111111">
<ele>62</ele>
</trkpt>
<trkpt lat="44.55873" lon="142.3207888888889">
<ele>62</ele>
</trkpt>
<trkpt lat="44.559063055555555" lon="142.32052611111112">
<ele>62</ele>
</trkpt>
<trkpt lat="44.559288055555555" lon="142.32020111111112">
<ele>63</ele>
</trkpt>
<trkpt lat="44.559288055555555" lon="142.3200511111111">
<ele>64</ele>
</trkpt>
<trkpt lat="44.55914611111111" lon="142.3193261111111">
<ele>68</ele>
</trkpt>
<trkpt lat="44.559131111111114" lon="142.31933305555555">
<ele>68</ele>
</trkpt>
<trkpt lat="44.559131111111114" lon="142.31933305555555">
<ele>68</ele>
</trkpt>
<trkpt lat="44.55914611111111" lon="142.3193261111111">
<ele>68</ele>
</trkpt>
<trkpt lat="44.56117111111111" lon="142.31837611111112">
<ele>67</ele>
</trkpt>
<trkpt lat="44.56587" lon="142.3162011111111">
<ele>66</ele>
</trkpt>
<trkpt lat="44.57065305555555" lon="142.31397611111112">
<ele>60</ele>
</trkpt>
<trkpt lat="44.573146944444446" lon="142.31282">
<ele>62</ele>
</trkpt>
<trkpt lat="44.573146944444446" lon="142.31282">
<ele>62</ele>
</trkpt>
<trkpt lat="44.57429388888889" lon="142.3122888888889">
<ele>64</ele>
</trkpt>
<trkpt lat="44.57538611111111" lon="142.3117761111111">
<ele>61</ele>
</trkpt>
<trkpt lat="44.57584388888889" lon="142.31156388888888">
<ele>59</ele>
</trkpt>
<trkpt lat="44.57589388888889" lon="142.3115388888889">
<ele>58</ele>
</trkpt>
<trkpt lat="44.57641888888889" lon="142.3113011111111">
<ele>58</ele>
</trkpt>
<trkpt lat="44.57786" lon="142.3106261111111">
<ele>60</ele>
</trkpt>
<trkpt lat="44.58004305555556" lon="142.30955111111112">
<ele>60</ele>
</trkpt>
<trkpt lat="44.58175111111111" lon="142.3087888888889">
<ele>60</ele>
</trkpt>
<trkpt lat="44.58485888888889" lon="142.30737611111113">
<ele>61</ele>
</trkpt>
<trkpt lat="44.58564194444445" lon="142.3070138888889">
<ele>61</ele>
</trkpt>
<trkpt lat="44.58805888888889" lon="142.3058761111111">
<ele>60</ele>
</trkpt>
<trkpt lat="44.58848388888889" lon="142.3057261111111">
<ele>60</ele>
</trkpt>
<trkpt lat="44.588926111111114" lon="142.30568888888888">
<ele>60</ele>
</trkpt>
<trkpt lat="44.589283888888886" lon="142.30570111111112">
<ele>60</ele>
</trkpt>
<trkpt lat="44.58983388888889" lon="142.3059011111111">
<ele>60</ele>
</trkpt>
<trkpt lat="44.59021694444444" lon="142.3061261111111">
<ele>62</ele>
</trkpt>
<trkpt lat="44.590333888888885" lon="142.3062261111111">
<ele>59</ele>
</trkpt>
<trkpt lat="44.592933888888886" lon="142.30855111111111">
<ele>59</ele>
</trkpt>
<trkpt lat="44.59308388888889" lon="142.30868805555556">
<ele>60</ele>
</trkpt>
<trkpt lat="44.59348388888889" lon="142.3090511111111">
<ele>61</ele>
</trkpt>
<trkpt lat="44.594425" lon="142.30993805555556">
<ele>64</ele>
</trkpt>
<trkpt lat="44.59494194444444" lon="142.31033805555555">
<ele>65</ele>
</trkpt>
<trkpt lat="44.595441944444445" lon="142.31058805555554">
<ele>66</ele>
</trkpt>
<trkpt lat="44.59564388888889" lon="142.31063694444444">
<ele>66</ele>
</trkpt>
<trkpt lat="44.59564388888889" lon="142.31063694444444">
<ele>66</ele>
</trkpt>
<trkpt lat="44.5957" lon="142.31065">
<ele>67</ele>
</trkpt>
<trkpt lat="44.596175" lon="142.31068805555554">
<ele>67</ele>
</trkpt>
<trkpt lat="44.599525" lon="142.31">
<ele>67</ele>
</trkpt>
<trkpt lat="44.600883055555556" lon="142.309875">
<ele>68</ele>
</trkpt>
<trkpt lat="44.602916111111114" lon="142.31005">
<ele>68</ele>
</trkpt>
<trkpt lat="44.60349111111111" lon="142.310125">
<ele>66</ele>
</trkpt>
<trkpt lat="44.60615694444444" lon="142.31046194444446">
<ele>62</ele>
</trkpt>
<trkpt lat="44.608606944444446" lon="142.31067388888889">
<ele>63</ele>
</trkpt>
<trkpt lat="44.60893194444444" lon="142.3106488888889">
<ele>64</ele>
</trkpt>
<trkpt lat="44.609206944444445" lon="142.3106238888889">
<ele>64</ele>
</trkpt>
<trkpt lat="44.60964888888889" lon="142.31044888888889">
<ele>64</ele>
</trkpt>
<trkpt lat="44.611565" lon="142.30901194444445">
<ele>60</ele>
</trkpt>
<trkpt lat="44.61347305555555" lon="142.30748694444443">
<ele>57</ele>
</trkpt>
<trkpt lat="44.619281111111114" lon="142.3028238888889">
<ele>62</ele>
</trkpt>
<trkpt lat="44.62292194444444" lon="142.29991194444443">
<ele>61</ele>
</trkpt>
<trkpt lat="44.62493805555555" lon="142.29826194444445">
<ele>59</ele>
</trkpt>
<trkpt lat="44.625438055555556" lon="142.29756194444445">
<ele>59</ele>
</trkpt>
<trkpt lat="44.625663055555556" lon="142.29686194444446">
<ele>59</ele>
</trkpt>
<trkpt lat="44.62576305555555" lon="142.29623694444444">
<ele>59</ele>
</trkpt>
<trkpt lat="44.62573805555556" lon="142.29523694444444">
<ele>59</ele>
</trkpt>
<trkpt lat="44.62571305555556" lon="142.293975">
<ele>59</ele>
</trkpt>
<trkpt lat="44.625663055555556" lon="142.29153805555555">
<ele>60</ele>
</trkpt>
<trkpt lat="44.62568805555556" lon="142.29038805555555">
<ele>61</ele>
</trkpt>
<trkpt lat="44.62589611111111" lon="142.289075">
<ele>60</ele>
</trkpt>
<trkpt lat="44.62617111111111" lon="142.28825">
<ele>60</ele>
</trkpt>
<trkpt lat="44.62675388888889" lon="142.28728805555556">
<ele>61</ele>
</trkpt>
<trkpt lat="44.628053888888886" lon="142.28583805555556">
<ele>66</ele>
</trkpt>
<trkpt lat="44.63157" lon="142.2817">
<ele>65</ele>
</trkpt>
<trkpt lat="44.63303694444444" lon="142.27996305555556">
<ele>61</ele>
</trkpt>
<trkpt lat="44.635643888888886" lon="142.27693805555555">
<ele>68</ele>
</trkpt>
<trkpt lat="44.63598611111111" lon="142.2765511111111">
<ele>74</ele>
</trkpt>
<trkpt lat="44.63676111111111" lon="142.27561305555557">
<ele>71</ele>
</trkpt>
<trkpt lat="44.64224388888889" lon="142.26923805555555">
<ele>87</ele>
</trkpt>
<trkpt lat="44.644085" lon="142.26708805555555">
<ele>76</ele>
</trkpt>
<trkpt lat="44.64559305555556" lon="142.26540111111112">
<ele>68</ele>
</trkpt>
<trkpt lat="44.64591" lon="142.26503805555555">
<ele>62</ele>
</trkpt>
<trkpt lat="44.64637611111111" lon="142.26451305555557">
<ele>64</ele>
</trkpt>
<trkpt lat="44.64697611111111" lon="142.26408805555556">
<ele>67</ele>
</trkpt>
<trkpt lat="44.647351111111114" lon="142.26396305555556">
<ele>69</ele>
</trkpt>
<trkpt lat="44.64776805555555" lon="142.26388805555555">
<ele>71</ele>
</trkpt>
<trkpt lat="44.64819305555555" lon="142.2638761111111">
<ele>72</ele>
</trkpt>
<trkpt lat="44.64853194444444" lon="142.26389805555556">
<ele>72</ele>
</trkpt>
<trkpt lat="44.64853194444444" lon="142.26389805555556">
<ele>72</ele>
</trkpt>
<trkpt lat="44.64856805555556" lon="142.26390111111112">
<ele>72</ele>
</trkpt>
<trkpt lat="44.64892611111111" lon="142.2640011111111">
<ele>72</ele>
</trkpt>
<trkpt lat="44.64940111111111" lon="142.26427611111112">
<ele>74</ele>
</trkpt>
<trkpt lat="44.65144194444444" lon="142.266175">
<ele>90</ele>
</trkpt>
<trkpt lat="44.65517611111111" lon="142.26965">
<ele>103</ele>
</trkpt>
<trkpt lat="44.65525888888889" lon="142.269725">
<ele>103</ele>
</trkpt>
<trkpt lat="44.65705111111111" lon="142.27128694444446">
<ele>107</ele>
</trkpt>
<trkpt lat="44.657966944444446" lon="142.27198694444445">
<ele>111</ele>
</trkpt>
<trkpt lat="44.65851694444444" lon="142.27226194444444">
<ele>112</ele>
</trkpt>
<trkpt lat="44.659175" lon="142.2723988888889">
<ele>111</ele>
</trkpt>
<trkpt lat="44.659708888888886" lon="142.2723738888889">
<ele>109</ele>
</trkpt>
<trkpt lat="44.66025" lon="142.27221194444445">
<ele>108</ele>
</trkpt>
<trkpt lat="44.66075" lon="142.2719238888889">
<ele>106</ele>
</trkpt>
<trkpt lat="44.66145" lon="142.27126194444443">
<ele>100</ele>
</trkpt>
<trkpt lat="44.662058055555555" lon="142.2706738888889">
<ele>98</ele>
</trkpt>
<trkpt lat="44.662666944444446" lon="142.27004888888888">
<ele>96</ele>
</trkpt>
<trkpt lat="44.66345" lon="142.2692238888889">
<ele>89</ele>
</trkpt>
<trkpt lat="44.66425805555556" lon="142.2684988888889">
<ele>86</ele>
</trkpt>
<trkpt lat="44.665016111111115" lon="142.26813694444445">
<ele>87</ele>
</trkpt>
<trkpt lat="44.66544888888889" lon="142.26803694444445">
<ele>77</ele>
</trkpt>
<trkpt lat="44.66562388888889" lon="142.26803611111112">
<ele>76</ele>
</trkpt>
<trkpt lat="44.66608305555555" lon="142.2680488888889">
<ele>76</ele>
</trkpt>
<trkpt lat="44.66679111111111" lon="142.26823611111112">
<ele>74</ele>
</trkpt>
<trkpt lat="44.66818305555555" lon="142.2686111111111">
<ele>68</ele>
</trkpt>
<trkpt lat="44.66896611111111" lon="142.2688361111111">
<ele>66</ele>
</trkpt>
<trkpt lat="44.669291111111114" lon="142.26892388888888">
<ele>65</ele>
</trkpt>
<trkpt lat="44.67124888888889" lon="142.2695238888889">
<ele>66</ele>
</trkpt>
<trkpt lat="44.671731944444446" lon="142.2695361111111">
<ele>67</ele>
</trkpt>
<trkpt lat="44.674031944444444" lon="142.26914805555555">
<ele>61</ele>
</trkpt>
<trkpt lat="44.676048055555555" lon="142.2687611111111">
<ele>57</ele>
</trkpt>
<trkpt lat="44.67934" lon="142.2682111111111">
<ele>57</ele>
</trkpt>
<trkpt lat="44.67998111111111" lon="142.26809805555555">
<ele>54</ele>
</trkpt>
<trkpt lat="44.68283805555556" lon="142.26760805555554">
<ele>51</ele>
</trkpt>
<trkpt lat="44.68283805555556" lon="142.26760805555554">
<ele>51</ele>
</trkpt>
<trkpt lat="44.684356111111114" lon="142.26734805555554">
<ele>50</ele>
</trkpt>
<trkpt lat="44.684871944444446" lon="142.26722305555555">
<ele>46</ele>
</trkpt>
<trkpt lat="44.685496944444445" lon="142.26714805555557">
<ele>46</ele>
</trkpt>
<trkpt lat="44.68728111111111" lon="142.26682305555556">
<ele>52</ele>
</trkpt>
<trkpt lat="44.688055" lon="142.26684805555556">
<ele>49</ele>
</trkpt>
<trkpt lat="44.68868888888889" lon="142.26699805555555">
<ele>49</ele>
</trkpt>
<trkpt lat="44.689413888888886" lon="142.26737194444445">
<ele>48</ele>
</trkpt>
<trkpt lat="44.69594611111111" lon="142.2708088888889">
<ele>48</ele>
</trkpt>
<trkpt lat="44.69801805555556" lon="142.2719488888889">
<ele>54</ele>
</trkpt>
<trkpt lat="44.69801805555556" lon="142.2719488888889">
<ele>54</ele>
</trkpt>
<trkpt lat="44.699238055555554" lon="142.2726211111111">
<ele>57</ele>
</trkpt>
<trkpt lat="44.69977111111111" lon="142.27292111111112">
<ele>57</ele>
</trkpt>
<trkpt lat="44.70022888888889" lon="142.2730838888889">
<ele>57</ele>
</trkpt>
<trkpt lat="44.70901194444444" lon="142.27513305555556">
<ele>58</ele>
</trkpt>
<trkpt lat="44.709295" lon="142.27517">
<ele>59</ele>
</trkpt>
<trkpt lat="44.71078611111111" lon="142.27457">
<ele>57</ele>
</trkpt>
<trkpt lat="44.712178055555555" lon="142.27395694444445">
<ele>58</ele>
</trkpt>
<trkpt lat="44.71338611111111" lon="142.27343194444444">
<ele>59</ele>
</trkpt>
<trkpt lat="44.71829388888889" lon="142.27133194444446">
<ele>58</ele>
</trkpt>
<trkpt lat="44.71868805555555" lon="142.27116305555555">
<ele>57</ele>
</trkpt>
<trkpt lat="44.71868805555555" lon="142.27116194444446">
<ele>57</ele>
</trkpt>
<trkpt lat="44.71896" lon="142.271045">
<ele>57</ele>
</trkpt>
<trkpt lat="44.71901888888889" lon="142.27127">
<ele>58</ele>
</trkpt>
<trkpt lat="44.71916" lon="142.271395">
<ele>58</ele>
</trkpt>
<trkpt lat="44.71941" lon="142.27135694444445">
<ele>58</ele>
</trkpt>
<trkpt lat="44.72006888888889" lon="142.271095">
<ele>56</ele>
</trkpt>
<trkpt lat="44.72046888888889" lon="142.270995">
<ele>57</ele>
</trkpt>
<trkpt lat="44.720885" lon="142.270995">
<ele>55</ele>
</trkpt>
<trkpt lat="44.72130194444444" lon="142.27112">
<ele>54</ele>
</trkpt>
<trkpt lat="44.722051944444445" lon="142.271145">
<ele>52</ele>
</trkpt>
<trkpt lat="44.722085" lon="142.2719938888889">
<ele>57</ele>
</trkpt>
<trkpt lat="44.721826944444445" lon="142.2720688888889">
<ele>60</ele>
</trkpt>
<trkpt lat="44.72179194444445" lon="142.2720688888889">
<ele>60</ele>
</trkpt>
<trkpt lat="44.72179194444445" lon="142.2720688888889">
<ele>60</ele>
</trkpt>
<trkpt lat="44.721826944444445" lon="142.2720688888889">
<ele>60</ele>
</trkpt>
<trkpt lat="44.722085" lon="142.2719938888889">
<ele>57</ele>
</trkpt>
<trkpt lat="44.722051944444445" lon="142.271145">
<ele>52</ele>
</trkpt>
<trkpt lat="44.72243805555556" lon="142.27102694444446">
<ele>49</ele>
</trkpt>
<trkpt lat="44.72243805555556" lon="142.27102694444446">
<ele>49</ele>
</trkpt>
<trkpt lat="44.72271" lon="142.270945">
<ele>48</ele>
</trkpt>
<trkpt lat="44.72325194444444" lon="142.27066888888888">
<ele>46</ele>
</trkpt>
<trkpt lat="44.72356" lon="142.27044388888888">
<ele>45</ele>
</trkpt>
<trkpt lat="44.723935" lon="142.2701188888889">
<ele>43</ele>
</trkpt>
<trkpt lat="44.72496805555556" lon="142.26888194444444">
<ele>41</ele>
</trkpt>
<trkpt lat="44.72506" lon="142.26877">
<ele>41</ele>
</trkpt>
<trkpt lat="44.72666805555556" lon="142.26763194444445">
<ele>42</ele>
</trkpt>
<trkpt lat="44.7267" lon="142.26760805555554">
<ele>42</ele>
</trkpt>
<trkpt lat="44.7267" lon="142.26760805555554">
<ele>42</ele>
</trkpt>
<trkpt lat="44.72666805555556" lon="142.26763194444445">
<ele>42</ele>
</trkpt>
<trkpt lat="44.726193055555555" lon="142.26628194444444">
<ele>40</ele>
</trkpt>
<trkpt lat="44.72593388888889" lon="142.26557">
<ele>39</ele>
</trkpt>
<trkpt lat="44.72562611111111" lon="142.26470694444444">
<ele>39</ele>
</trkpt>
<trkpt lat="44.72523388888889" lon="142.26360805555555">
<ele>38</ele>
</trkpt>
<trkpt lat="44.72520111111111" lon="142.26351888888888">
<ele>38</ele>
</trkpt>
<trkpt lat="44.72520111111111" lon="142.26351805555555">
<ele>38</ele>
</trkpt>
<trkpt lat="44.72523388888889" lon="142.26360805555555">
<ele>38</ele>
</trkpt>
<trkpt lat="44.72558388888889" lon="142.26293305555555">
<ele>38</ele>
</trkpt>
<trkpt lat="44.725833888888886" lon="142.26245805555556">
<ele>38</ele>
</trkpt>
<trkpt lat="44.72600888888889" lon="142.26212">
<ele>38</ele>
</trkpt>
<trkpt lat="44.72630111111111" lon="142.261545">
<ele>38</ele>
</trkpt>
<trkpt lat="44.72652611111111" lon="142.26113305555555">
<ele>38</ele>
</trkpt>
<trkpt lat="44.72720888888889" lon="142.25985805555555">
<ele>37</ele>
</trkpt>
<trkpt lat="44.72785888888889" lon="142.25865805555554">
<ele>37</ele>
</trkpt>
<trkpt lat="44.72845" lon="142.25770805555555">
<ele>38</ele>
</trkpt>
<trkpt lat="44.72849194444444" lon="142.25760805555555">
<ele>38</ele>
</trkpt>
<trkpt lat="44.72871694444444" lon="142.25735805555556">
<ele>38</ele>
</trkpt>
<trkpt lat="44.72891694444444" lon="142.25717111111112">
<ele>38</ele>
</trkpt>
<trkpt lat="44.72884888888889" lon="142.25709194444445">
<ele>37</ele>
</trkpt>
<trkpt lat="44.72884888888889" lon="142.25709111111112">
<ele>37</ele>
</trkpt>
<trkpt lat="44.728575" lon="142.2567711111111">
<ele>37</ele>
</trkpt>
<trkpt lat="44.72845888888889" lon="142.2566961111111">
<ele>37</ele>
</trkpt>
<trkpt lat="44.728391944444446" lon="142.2565711111111">
<ele>37</ele>
</trkpt>
<trkpt lat="44.72823388888889" lon="142.25637111111112">
<ele>36</ele>
</trkpt>
<trkpt lat="44.72580111111111" lon="142.2533838888889">
<ele>40</ele>
</trkpt>
<trkpt lat="44.72572611111111" lon="142.2532961111111">
<ele>41</ele>
</trkpt>
<trkpt lat="44.72544194444445" lon="142.2529338888889">
<ele>42</ele>
</trkpt>
<trkpt lat="44.72311805555555" lon="142.25007194444444">
<ele>38</ele>
</trkpt>
<trkpt lat="44.72289305555555" lon="142.24958388888888">
<ele>38</ele>
</trkpt>
<trkpt lat="44.722591944444446" lon="142.2483588888889">
<ele>39</ele>
</trkpt>
<trkpt lat="44.72230111111111" lon="142.24699611111112">
<ele>38</ele>
</trkpt>
<trkpt lat="44.72230111111111" lon="142.24699611111112">
<ele>38</ele>
</trkpt>
<trkpt lat="44.722116944444444" lon="142.2461338888889">
<ele>37</ele>
</trkpt>
<trkpt lat="44.72195111111111" lon="142.24540888888887">
<ele>37</ele>
</trkpt>
<trkpt lat="44.72185888888889" lon="142.244535">
<ele>37</ele>
</trkpt>
<trkpt lat="44.72192611111111" lon="142.24387194444444">
<ele>37</ele>
</trkpt>
<trkpt lat="44.72208388888889" lon="142.24319694444443">
<ele>39</ele>
</trkpt>
<trkpt lat="44.7229" lon="142.24059805555555">
<ele>38</ele>
</trkpt>
<trkpt lat="44.724375" lon="142.23699805555555">
<ele>45</ele>
</trkpt>
<trkpt lat="44.72495" lon="142.235185">
<ele>45</ele>
</trkpt>
<trkpt lat="44.72594111111111" lon="142.23322305555556">
<ele>42</ele>
</trkpt>
<trkpt lat="44.726075" lon="142.23272305555557">
<ele>38</ele>
</trkpt>
<trkpt lat="44.72635805555556" lon="142.23014805555556">
<ele>38</ele>
</trkpt>
<trkpt lat="44.72638305555556" lon="142.2297111111111">
<ele>37</ele>
</trkpt>
<trkpt lat="44.72637111111111" lon="142.22954611111112">
<ele>37</ele>
</trkpt>
<trkpt lat="44.72637111111111" lon="142.22954611111112">
<ele>37</ele>
</trkpt>
<trkpt lat="44.726348888888886" lon="142.2292611111111">
<ele>37</ele>
</trkpt>
<trkpt lat="44.72617388888889" lon="142.2286611111111">
<ele>37</ele>
</trkpt>
<trkpt lat="44.725791111111114" lon="142.2278988888889">
<ele>38</ele>
</trkpt>
<trkpt lat="44.72548305555556" lon="142.22714888888888">
<ele>37</ele>
</trkpt>
<trkpt lat="44.725366111111114" lon="142.2265988888889">
<ele>37</ele>
</trkpt>
<trkpt lat="44.72529111111111" lon="142.22556111111112">
<ele>38</ele>
</trkpt>
<trkpt lat="44.72531611111111" lon="142.22439888888889">
<ele>37</ele>
</trkpt>
<trkpt lat="44.72542388888889" lon="142.22278694444444">
<ele>41</ele>
</trkpt>
<trkpt lat="44.72606611111111" lon="142.21818694444445">
<ele>40</ele>
</trkpt>
<trkpt lat="44.726216111111114" lon="142.2171238888889">
<ele>35</ele>
</trkpt>
<trkpt lat="44.72635694444445" lon="142.21611194444444">
<ele>37</ele>
</trkpt>
<trkpt lat="44.726756944444446" lon="142.214775">
<ele>39</ele>
</trkpt>
<trkpt lat="44.72700694444445" lon="142.2144">
<ele>38</ele>
</trkpt>
<trkpt lat="44.727066111111114" lon="142.21431194444443">
<ele>38</ele>
</trkpt>
<trkpt lat="44.727381944444446" lon="142.213975">
<ele>39</ele>
</trkpt>
<trkpt lat="44.72858194444444" lon="142.21313694444444">
<ele>39</ele>
</trkpt>
<trkpt lat="44.72914" lon="142.21243694444445">
<ele>39</ele>
</trkpt>
<trkpt lat="44.72959" lon="142.21165">
<ele>38</ele>
</trkpt>
<trkpt lat="44.730531944444444" lon="142.2098">
<ele>40</ele>
</trkpt>
<trkpt lat="44.731015" lon="142.20845">
<ele>40</ele>
</trkpt>
<trkpt lat="44.73125611111111" lon="142.207425">
<ele>40</ele>
</trkpt>
<trkpt lat="44.73128111111111" lon="142.20726305555556">
<ele>40</ele>
</trkpt>
<trkpt lat="44.73142305555555" lon="142.20626305555555">
<ele>38</ele>
</trkpt>
<trkpt lat="44.731988888888885" lon="142.2013938888889">
<ele>39</ele>
</trkpt>
<trkpt lat="44.73255611111111" lon="142.1965261111111">
<ele>40</ele>
</trkpt>
<trkpt lat="44.732731111111114" lon="142.19656388888887">
<ele>39</ele>
</trkpt>
<trkpt lat="44.73487194444444" lon="142.1970638888889">
<ele>34</ele>
</trkpt>
<trkpt lat="44.73490611111111" lon="142.1970761111111">
<ele>34</ele>
</trkpt>
<trkpt lat="44.737721944444445" lon="142.19770111111112">
<ele>38</ele>
</trkpt>
<trkpt lat="44.73787194444444" lon="142.1961261111111">
<ele>36</ele>
</trkpt>
<trkpt lat="44.73789611111111" lon="142.19590194444444">
<ele>36</ele>
</trkpt>
<trkpt lat="44.73789611111111" lon="142.19590194444444">
<ele>36</ele>
</trkpt>
<trkpt lat="44.73787194444444" lon="142.1961261111111">
<ele>36</ele>
</trkpt>
<trkpt lat="44.737721944444445" lon="142.19770111111112">
<ele>38</ele>
</trkpt>
<trkpt lat="44.73490611111111" lon="142.1970761111111">
<ele>34</ele>
</trkpt>
<trkpt lat="44.73487194444444" lon="142.1970638888889">
<ele>34</ele>
</trkpt>
<trkpt lat="44.732731111111114" lon="142.19656388888887">
<ele>39</ele>
</trkpt>
<trkpt lat="44.73255611111111" lon="142.1965261111111">
<ele>40</ele>
</trkpt>
<trkpt lat="44.73294805555555" lon="142.19317694444445">
<ele>40</ele>
</trkpt>
<trkpt lat="44.733173055555554" lon="142.19236388888888">
<ele>40</ele>
</trkpt>
<trkpt lat="44.733356111111114" lon="142.19205194444444">
<ele>40</ele>
</trkpt>
<trkpt lat="44.73532194444444" lon="142.1902888888889">
<ele>44</ele>
</trkpt>
<trkpt lat="44.73763805555556" lon="142.18822694444444">
<ele>52</ele>
</trkpt>
<trkpt lat="44.73816305555555" lon="142.1876388888889">
<ele>52</ele>
</trkpt>
<trkpt lat="44.73842194444445" lon="142.18710194444444">
<ele>54</ele>
</trkpt>
<trkpt lat="44.738505" lon="142.18665194444444">
<ele>54</ele>
</trkpt>
<trkpt lat="44.73844694444445" lon="142.18588888888888">
<ele>57</ele>
</trkpt>
<trkpt lat="44.73833" lon="142.18553888888889">
<ele>58</ele>
</trkpt>
<trkpt lat="44.73807194444444" lon="142.18511388888888">
<ele>58</ele>
</trkpt>
<trkpt lat="44.737721944444445" lon="142.18477694444445">
<ele>58</ele>
</trkpt>
<trkpt lat="44.73739694444444" lon="142.1844888888889">
<ele>58</ele>
</trkpt>
<trkpt lat="44.73333" lon="142.18095305555556">
<ele>34</ele>
</trkpt>
<trkpt lat="44.73269694444444" lon="142.18047805555557">
<ele>37</ele>
</trkpt>
<trkpt lat="44.72596388888889" lon="142.1781288888889">
<ele>35</ele>
</trkpt>
<trkpt lat="44.72573111111111" lon="142.17796611111112">
<ele>35</ele>
</trkpt>
<trkpt lat="44.72554805555556" lon="142.1777788888889">
<ele>36</ele>
</trkpt>
<trkpt lat="44.72506694444444" lon="142.17714388888888">
<ele>36</ele>
</trkpt>
<trkpt lat="44.72506694444444" lon="142.17714305555555">
<ele>36</ele>
</trkpt>
<trkpt lat="44.72408111111111" lon="142.1758411111111">
<ele>36</ele>
</trkpt>
<trkpt lat="44.723956111111114" lon="142.1756288888889">
<ele>36</ele>
</trkpt>
<trkpt lat="44.72391388888889" lon="142.1754161111111">
<ele>35</ele>
</trkpt>
<trkpt lat="44.72361388888889" lon="142.1735038888889">
<ele>34</ele>
</trkpt>
<trkpt lat="44.72361388888889" lon="142.17294194444443">
<ele>35</ele>
</trkpt>
<trkpt lat="44.72367305555556" lon="142.1724538888889">
<ele>34</ele>
</trkpt>
<trkpt lat="44.724646944444444" lon="142.16871694444444">
<ele>35</ele>
</trkpt>
<trkpt lat="44.725048055555554" lon="142.16706694444446">
<ele>33</ele>
</trkpt>
<trkpt lat="44.72518111111111" lon="142.16668">
<ele>33</ele>
</trkpt>
<trkpt lat="44.72534805555556" lon="142.166355">
<ele>31</ele>
</trkpt>
<trkpt lat="44.72628111111111" lon="142.16509194444444">
<ele>35</ele>
</trkpt>
<trkpt lat="44.726571944444444" lon="142.16484194444445">
<ele>34</ele>
</trkpt>
<trkpt lat="44.72690611111111" lon="142.164655">
<ele>30</ele>
</trkpt>
<trkpt lat="44.72948" lon="142.16356694444445">
<ele>35</ele>
</trkpt>
<trkpt lat="44.72987194444445" lon="142.16336694444445">
<ele>35</ele>
</trkpt>
<trkpt lat="44.73023" lon="142.16311694444445">
<ele>34</ele>
</trkpt>
<trkpt lat="44.73057194444444" lon="142.162755">
<ele>34</ele>
</trkpt>
<trkpt lat="44.730855" lon="142.16233">
<ele>34</ele>
</trkpt>
<trkpt lat="44.731096944444445" lon="142.16181694444444">
<ele>34</ele>
</trkpt>
<trkpt lat="44.73233805555556" lon="142.15849194444445">
<ele>33</ele>
</trkpt>
<trkpt lat="44.734636944444446" lon="142.15131805555555">
<ele>29</ele>
</trkpt>
<trkpt lat="44.73476194444444" lon="142.15074305555555">
<ele>28</ele>
</trkpt>
<trkpt lat="44.73482111111111" lon="142.15006805555555">
<ele>28</ele>
</trkpt>
<trkpt lat="44.73482111111111" lon="142.14770694444445">
<ele>29</ele>
</trkpt>
<trkpt lat="44.73482111111111" lon="142.14770694444445">
<ele>29</ele>
</trkpt>
<trkpt lat="44.73482111111111" lon="142.14508111111112">
<ele>30</ele>
</trkpt>
<trkpt lat="44.73476194444444" lon="142.1445938888889">
<ele>31</ele>
</trkpt>
<trkpt lat="44.73426194444444" lon="142.14218194444445">
<ele>31</ele>
</trkpt>
<trkpt lat="44.73420388888889" lon="142.1416188888889">
<ele>32</ele>
</trkpt>
<trkpt lat="44.73453694444444" lon="142.1393688888889">
<ele>33</ele>
</trkpt>
<trkpt lat="44.734653888888886" lon="142.13885694444446">
<ele>34</ele>
</trkpt>
<trkpt lat="44.73486194444445" lon="142.13838194444443">
<ele>33</ele>
</trkpt>
<trkpt lat="44.73537" lon="142.13757">
<ele>32</ele>
</trkpt>
<trkpt lat="44.73590388888889" lon="142.136845">
<ele>32</ele>
</trkpt>
<trkpt lat="44.73666194444444" lon="142.13620694444444">
<ele>33</ele>
</trkpt>
<trkpt lat="44.73730305555556" lon="142.13578194444443">
<ele>32</ele>
</trkpt>
<trkpt lat="44.737645" lon="142.13562">
<ele>33</ele>
</trkpt>
<trkpt lat="44.73963611111111" lon="142.13505694444444">
<ele>30</ele>
</trkpt>
<trkpt lat="44.74109388888889" lon="142.13450694444444">
<ele>28</ele>
</trkpt>
<trkpt lat="44.743276944444446" lon="142.1334938888889">
<ele>32</ele>
</trkpt>
<trkpt lat="44.74413611111111" lon="142.13300694444445">
<ele>34</ele>
</trkpt>
<trkpt lat="44.74449388888889" lon="142.1327188888889">
<ele>42</ele>
</trkpt>
<trkpt lat="44.74476888888889" lon="142.13240694444445">
<ele>43</ele>
</trkpt>
<trkpt lat="44.74499388888889" lon="142.13197">
<ele>45</ele>
</trkpt>
<trkpt lat="44.74739388888889" lon="142.125445">
<ele>48</ele>
</trkpt>
<trkpt lat="44.747535" lon="142.124995">
<ele>49</ele>
</trkpt>
<trkpt lat="44.747593888888886" lon="142.124645">
<ele>49</ele>
</trkpt>
<trkpt lat="44.74782694444445" lon="142.12203305555556">
<ele>46</ele>
</trkpt>
<trkpt lat="44.74781611111111" lon="142.1218911111111">
<ele>46</ele>
</trkpt>
<trkpt lat="44.74781611111111" lon="142.1218911111111">
<ele>46</ele>
</trkpt>
<trkpt lat="44.747793055555555" lon="142.1215711111111">
<ele>46</ele>
</trkpt>
<trkpt lat="44.74771" lon="142.1211461111111">
<ele>46</ele>
</trkpt>
<trkpt lat="44.74742694444444" lon="142.12004611111112">
<ele>44</ele>
</trkpt>
<trkpt lat="44.74731" lon="142.11955805555556">
<ele>39</ele>
</trkpt>
<trkpt lat="44.747235" lon="142.11935805555555">
<ele>38</ele>
</trkpt>
<trkpt lat="44.74702694444444" lon="142.11878305555555">
<ele>38</ele>
</trkpt>
<trkpt lat="44.746651944444444" lon="142.11823388888888">
<ele>38</ele>
</trkpt>
<trkpt lat="44.74586" lon="142.1175838888889">
<ele>37</ele>
</trkpt>
<trkpt lat="44.744635" lon="142.1168461111111">
<ele>37</ele>
</trkpt>
<trkpt lat="44.743785" lon="142.1164838888889">
<ele>36</ele>
</trkpt>
<trkpt lat="44.74272694444444" lon="142.11617194444443">
<ele>32</ele>
</trkpt>
<trkpt lat="44.74205194444444" lon="142.11604694444443">
<ele>34</ele>
</trkpt>
<trkpt lat="44.740611111111114" lon="142.1161338888889">
<ele>28</ele>
</trkpt>
<trkpt lat="44.74015194444444" lon="142.1162588888889">
<ele>27</ele>
</trkpt>
<trkpt lat="44.73740305555555" lon="142.11723388888888">
<ele>28</ele>
</trkpt>
<trkpt lat="44.736628055555556" lon="142.11759694444444">
<ele>33</ele>
</trkpt>
<trkpt lat="44.73601111111111" lon="142.11810888888888">
<ele>33</ele>
</trkpt>
<trkpt lat="44.73551111111111" lon="142.1185338888889">
<ele>36</ele>
</trkpt>
<trkpt lat="44.734795" lon="142.11878388888888">
<ele>37</ele>
</trkpt>
<trkpt lat="44.73410305555556" lon="142.1188588888889">
<ele>38</ele>
</trkpt>
<trkpt lat="44.733628055555556" lon="142.11877194444443">
<ele>37</ele>
</trkpt>
<trkpt lat="44.73342" lon="142.11869694444445">
<ele>37</ele>
</trkpt>
<trkpt lat="44.733203055555556" lon="142.1186088888889">
<ele>39</ele>
</trkpt>
<trkpt lat="44.73282805555556" lon="142.118435">
<ele>39</ele>
</trkpt>
<trkpt lat="44.73241194444444" lon="142.11814694444445">
<ele>38</ele>
</trkpt>
<trkpt lat="44.73187" lon="142.11772194444444">
<ele>38</ele>
</trkpt>
<trkpt lat="44.73087805555556" lon="142.116535">
<ele>36</ele>
</trkpt>
<trkpt lat="44.73038694444445" lon="142.11567194444444">
<ele>35</ele>
</trkpt>
<trkpt lat="44.72997" lon="142.11469805555555">
<ele>35</ele>
</trkpt>
<trkpt lat="44.729695" lon="142.11384805555556">
<ele>34</ele>
</trkpt>
<trkpt lat="44.729528055555555" lon="142.11307305555556">
<ele>33</ele>
</trkpt>
<trkpt lat="44.72940305555556" lon="142.11239805555556">
<ele>33</ele>
</trkpt>
<trkpt lat="44.72933694444445" lon="142.11169805555556">
<ele>32</ele>
</trkpt>
<trkpt lat="44.729353055555556" lon="142.11051111111112">
<ele>31</ele>
</trkpt>
<trkpt lat="44.72958611111111" lon="142.1083361111111">
<ele>30</ele>
</trkpt>
<trkpt lat="44.72961111111111" lon="142.1080988888889">
<ele>26</ele>
</trkpt>
<trkpt lat="44.729695" lon="142.10744888888888">
<ele>24</ele>
</trkpt>
<trkpt lat="44.729728055555555" lon="142.10688611111112">
<ele>26</ele>
</trkpt>
<trkpt lat="44.729728055555555" lon="142.1061861111111">
<ele>25</ele>
</trkpt>
<trkpt lat="44.72958611111111" lon="142.10407388888888">
<ele>24</ele>
</trkpt>
<trkpt lat="44.72957805555556" lon="142.1036488888889">
<ele>23</ele>
</trkpt>
<trkpt lat="44.72958611111111" lon="142.10347388888889">
<ele>23</ele>
</trkpt>
<trkpt lat="44.72966111111111" lon="142.10236194444445">
<ele>27</ele>
</trkpt>
<trkpt lat="44.73006888888889" lon="142.09968694444444">
<ele>24</ele>
</trkpt>
<trkpt lat="44.73023611111111" lon="142.0986988888889">
<ele>22</ele>
</trkpt>
<trkpt lat="44.730353055555554" lon="142.09813694444443">
<ele>24</ele>
</trkpt>
<trkpt lat="44.73063611111111" lon="142.09724888888888">
<ele>26</ele>
</trkpt>
<trkpt lat="44.730801944444444" lon="142.0965488888889">
<ele>24</ele>
</trkpt>
<trkpt lat="44.73101111111111" lon="142.09373694444446">
<ele>24</ele>
</trkpt>
<trkpt lat="44.730893888888886" lon="142.0921">
<ele>24</ele>
</trkpt>
<trkpt lat="44.73066111111111" lon="142.089075">
<ele>24</ele>
</trkpt>
<trkpt lat="44.73041888888889" lon="142.08595111111111">
<ele>24</ele>
</trkpt>
<trkpt lat="44.730311111111114" lon="142.0845261111111">
<ele>25</ele>
</trkpt>
<trkpt lat="44.729751944444445" lon="142.0777261111111">
<ele>23</ele>
</trkpt>
<trkpt lat="44.72909305555556" lon="142.06887694444444">
<ele>23</ele>
</trkpt>
<trkpt lat="44.72885194444444" lon="142.06562805555555">
<ele>25</ele>
</trkpt>
<trkpt lat="44.72891" lon="142.064365">
<ele>23</ele>
</trkpt>
<trkpt lat="44.728968055555555" lon="142.06385194444445">
<ele>21</ele>
</trkpt>
<trkpt lat="44.72917611111111" lon="142.06295305555557">
<ele>20</ele>
</trkpt>
<trkpt lat="44.729306111111114" lon="142.0624588888889">
<ele>23</ele>
</trkpt>
<trkpt lat="44.729306111111114" lon="142.0624588888889">
<ele>23</ele>
</trkpt>
<trkpt lat="44.729393055555555" lon="142.06212805555555">
<ele>24</ele>
</trkpt>
<trkpt lat="44.730043055555555" lon="142.0595911111111">
<ele>26</ele>
</trkpt>
<trkpt lat="44.730401111111114" lon="142.05880305555556">
<ele>26</ele>
</trkpt>
<trkpt lat="44.73075111111111" lon="142.05794111111112">
<ele>27</ele>
</trkpt>
<trkpt lat="44.731408888888886" lon="142.05545305555555">
<ele>25</ele>
</trkpt>
<trkpt lat="44.731518055555554" lon="142.05465305555555">
<ele>25</ele>
</trkpt>
<trkpt lat="44.731476111111114" lon="142.0533288888889">
<ele>26</ele>
</trkpt>
<trkpt lat="44.73130888888889" lon="142.0516411111111">
<ele>29</ele>
</trkpt>
<trkpt lat="44.73128388888889" lon="142.05114111111112">
<ele>28</ele>
</trkpt>
<trkpt lat="44.73130888888889" lon="142.05100388888889">
<ele>28</ele>
</trkpt>
<trkpt lat="44.73162611111111" lon="142.0498661111111">
<ele>25</ele>
</trkpt>
<trkpt lat="44.73173388888889" lon="142.0494161111111">
<ele>26</ele>
</trkpt>
<trkpt lat="44.732033888888886" lon="142.04854111111112">
<ele>26</ele>
</trkpt>
<trkpt lat="44.73242611111111" lon="142.04799111111112">
<ele>29</ele>
</trkpt>
<trkpt lat="44.733108888888886" lon="142.0475661111111">
<ele>30</ele>
</trkpt>
<trkpt lat="44.73399194444445" lon="142.04696611111112">
<ele>27</ele>
</trkpt>
<trkpt lat="44.73470888888889" lon="142.0462038888889">
<ele>26</ele>
</trkpt>
<trkpt lat="44.73529194444444" lon="142.04571694444445">
<ele>26</ele>
</trkpt>
<trkpt lat="44.736275" lon="142.04479194444446">
<ele>26</ele>
</trkpt>
<trkpt lat="44.73699194444445" lon="142.04377888888888">
<ele>27</ele>
</trkpt>
<trkpt lat="44.73764111111111" lon="142.0424538888889">
<ele>22</ele>
</trkpt>
<trkpt lat="44.73813305555556" lon="142.0414538888889">
<ele>20</ele>
</trkpt>
<trkpt lat="44.73871611111111" lon="142.04034194444444">
<ele>21</ele>
</trkpt>
<trkpt lat="44.739" lon="142.04009194444444">
<ele>21</ele>
</trkpt>
<trkpt lat="44.73938305555556" lon="142.0398788888889">
<ele>22</ele>
</trkpt>
<trkpt lat="44.73974111111111" lon="142.0398788888889">
<ele>22</ele>
</trkpt>
<trkpt lat="44.74009111111111" lon="142.03996694444444">
<ele>21</ele>
</trkpt>
<trkpt lat="44.74033305555555" lon="142.0401288888889">
<ele>21</ele>
</trkpt>
<trkpt lat="44.740658055555556" lon="142.04034194444444">
<ele>20</ele>
</trkpt>
<trkpt lat="44.74264111111111" lon="142.04229194444446">
<ele>25</ele>
</trkpt>
<trkpt lat="44.742733055555554" lon="142.04239194444443">
<ele>25</ele>
</trkpt>
<trkpt lat="44.74332388888889" lon="142.0429538888889">
<ele>25</ele>
</trkpt>
<trkpt lat="44.74359888888889" lon="142.0431911111111">
<ele>26</ele>
</trkpt>
<trkpt lat="44.74384111111111" lon="142.0433911111111">
<ele>25</ele>
</trkpt>
<trkpt lat="44.74449888888889" lon="142.0437661111111">
<ele>26</ele>
</trkpt>
<trkpt lat="44.745331944444445" lon="142.0439911111111">
<ele>24</ele>
</trkpt>
<trkpt lat="44.746433055555556" lon="142.04410388888888">
<ele>23</ele>
</trkpt>
<trkpt lat="44.749541111111114" lon="142.0445038888889">
<ele>27</ele>
</trkpt>
<trkpt lat="44.750915" lon="142.04482805555554">
<ele>25</ele>
</trkpt>
<trkpt lat="44.75167388888889" lon="142.04510305555556">
<ele>24</ele>
</trkpt>
<trkpt lat="44.75228194444445" lon="142.04537805555555">
<ele>24</ele>
</trkpt>
<trkpt lat="44.75262111111111" lon="142.0456111111111">
<ele>23</ele>
</trkpt>
<trkpt lat="44.75262111111111" lon="142.0456111111111">
<ele>23</ele>
</trkpt>
<trkpt lat="44.75460694444445" lon="142.04697805555554">
<ele>21</ele>
</trkpt>
<trkpt lat="44.75635694444444" lon="142.04827805555556">
<ele>20</ele>
</trkpt>
<trkpt lat="44.75964805555556" lon="142.05070194444446">
<ele>20</ele>
</trkpt>
<trkpt lat="44.76000611111111" lon="142.050965">
<ele>20</ele>
</trkpt>
<trkpt lat="44.76080611111111" lon="142.05152694444445">
<ele>20</ele>
</trkpt>
<trkpt lat="44.76086388888889" lon="142.05157694444443">
<ele>20</ele>
</trkpt>
<trkpt lat="44.76308111111111" lon="142.0532888888889">
<ele>20</ele>
</trkpt>
<trkpt lat="44.76528111111111" lon="142.0549638888889">
<ele>20</ele>
</trkpt>
<trkpt lat="44.76665611111111" lon="142.0560011111111">
<ele>20</ele>
</trkpt>
<trkpt lat="44.76963888888889" lon="142.05813805555556">
<ele>20</ele>
</trkpt>
<trkpt lat="44.771546944444445" lon="142.05951305555556">
<ele>20</ele>
</trkpt>
<trkpt lat="44.77379694444444" lon="142.061225">
<ele>20</ele>
</trkpt>
<trkpt lat="44.77398" lon="142.0613">
<ele>20</ele>
</trkpt>
<trkpt lat="44.77438" lon="142.06145">
<ele>20</ele>
</trkpt>
<trkpt lat="44.77493" lon="142.06148694444445">
<ele>20</ele>
</trkpt>
<trkpt lat="44.775455" lon="142.06143694444444">
<ele>20</ele>
</trkpt>
<trkpt lat="44.77569694444445" lon="142.06135">
<ele>20</ele>
</trkpt>
<trkpt lat="44.77636305555556" lon="142.0609">
<ele>20</ele>
</trkpt>
<trkpt lat="44.777638055555556" lon="142.05921194444446">
<ele>20</ele>
</trkpt>
<trkpt lat="44.77869611111111" lon="142.05768694444444">
<ele>20</ele>
</trkpt>
<trkpt lat="44.779113055555555" lon="142.05716305555555">
<ele>20</ele>
</trkpt>
<trkpt lat="44.779488055555554" lon="142.05685">
<ele>20</ele>
</trkpt>
<trkpt lat="44.77992888888889" lon="142.05665">
<ele>21</ele>
</trkpt>
<trkpt lat="44.78042888888889" lon="142.05668805555555">
<ele>21</ele>
</trkpt>
<trkpt lat="44.78082888888889" lon="142.056825">
<ele>24</ele>
</trkpt>
<trkpt lat="44.782736944444444" lon="142.05819888888888">
<ele>22</ele>
</trkpt>
<trkpt lat="44.78314611111111" lon="142.0586238888889">
<ele>24</ele>
</trkpt>
<trkpt lat="44.78484611111111" lon="142.0608988888889">
<ele>26</ele>
</trkpt>
<trkpt lat="44.78492111111111" lon="142.06102388888888">
<ele>25</ele>
</trkpt>
<trkpt lat="44.78501111111111" lon="142.06113">
<ele>25</ele>
</trkpt>
<trkpt lat="44.78501111111111" lon="142.06113">
<ele>25</ele>
</trkpt>
<trkpt lat="44.78567888888889" lon="142.0619111111111">
<ele>21</ele>
</trkpt>
<trkpt lat="44.786695" lon="142.0625861111111">
<ele>20</ele>
</trkpt>
<trkpt lat="44.787895" lon="142.06329888888888">
<ele>20</ele>
</trkpt>
<trkpt lat="44.78915305555556" lon="142.06398611111112">
<ele>20</ele>
</trkpt>
<trkpt lat="44.78957" lon="142.06421111111112">
<ele>20</ele>
</trkpt>
<trkpt lat="44.79336111111111" lon="142.06644805555555">
<ele>20</ele>
</trkpt>
<trkpt lat="44.794961111111114" lon="142.06732305555556">
<ele>20</ele>
</trkpt>
<trkpt lat="44.79521888888889" lon="142.06742194444445">
<ele>20</ele>
</trkpt>
<trkpt lat="44.79561888888889" lon="142.06754694444444">
<ele>20</ele>
</trkpt>
<trkpt lat="44.798426944444444" lon="142.06799694444445">
<ele>20</ele>
</trkpt>
<trkpt lat="44.79919388888889" lon="142.06804694444443">
<ele>20</ele>
</trkpt>
<trkpt lat="44.799726944444444" lon="142.06807194444445">
<ele>20</ele>
</trkpt>
<trkpt lat="44.80002694444445" lon="142.06807194444445">
<ele>20</ele>
</trkpt>
<trkpt lat="44.80159388888889" lon="142.06794694444446">
<ele>20</ele>
</trkpt>
<trkpt lat="44.80219388888889" lon="142.06783388888888">
<ele>20</ele>
</trkpt>
<trkpt lat="44.802951944444445" lon="142.0677088888889">
<ele>20</ele>
</trkpt>
<trkpt lat="44.80316" lon="142.06767194444444">
<ele>20</ele>
</trkpt>
<trkpt lat="44.80309611111111" lon="142.0671288888889">
<ele>20</ele>
</trkpt>
<trkpt lat="44.80309611111111" lon="142.0671288888889">
<ele>20</ele>
</trkpt>
<trkpt lat="44.80316" lon="142.06767194444444">
<ele>20</ele>
</trkpt>
<trkpt lat="44.80319388888889" lon="142.06797194444445">
<ele>20</ele>
</trkpt>
<trkpt lat="44.80367694444445" lon="142.0724711111111">
<ele>25</ele>
</trkpt>
<trkpt lat="44.80370194444444" lon="142.0726588888889">
<ele>25</ele>
</trkpt>
<trkpt lat="44.803401944444445" lon="142.07284611111112">
<ele>26</ele>
</trkpt>
<trkpt lat="44.80307694444444" lon="142.0728838888889">
<ele>27</ele>
</trkpt>
<trkpt lat="44.801586111111114" lon="142.0726838888889">
<ele>23</ele>
</trkpt>
<trkpt lat="44.801586111111114" lon="142.0727961111111">
<ele>24</ele>
</trkpt>
<trkpt lat="44.801586111111114" lon="142.0731461111111">
<ele>25</ele>
</trkpt>
<trkpt lat="44.801586111111114" lon="142.07328388888888">
<ele>26</ele>
</trkpt>
<trkpt lat="44.801811111111114" lon="142.07407111111112">
<ele>28</ele>
</trkpt>
<trkpt lat="44.80183611111111" lon="142.0741711111111">
<ele>28</ele>
</trkpt>
<trkpt lat="44.80184388888889" lon="142.07420888888888">
<ele>28</ele>
</trkpt>
<trkpt lat="44.80178611111111" lon="142.0757211111111">
<ele>28</ele>
</trkpt>
<trkpt lat="44.80168" lon="142.07747">
<ele>29</ele>
</trkpt>
    </trkseg>
  </trk>
</gpx>