<?xml version="1.0" encoding="UTF-8"?>
<gpx version="1.1"
     creator="KMLtoGPX"
     xmlns="http://www.topografix.com/GPX/1/1">
  <metadata>
    <name>Bibai Middle Ride 35km</name>
    <desc>美唄ミドルライド35km</desc>
    <bounds minlat="43.26282194444445" minlon="141.756945" maxlat="43.339945" maxlon="141.8582811111111"/>
  </metadata>
  <trk>
    <name>Bibai Middle Ride 35km</name>
    <trkseg>
<trkpt lat="43.33412194444445" lon="141.84914194444445">
<ele>22</ele>
</trkpt>
<trkpt lat="43.33237388888889" lon="141.84863194444443">
<ele>22</ele>
</trkpt>
<trkpt lat="43.33237388888889" lon="141.84863194444443">
<ele>22</ele>
</trkpt>
<trkpt lat="43.332323055555555" lon="141.84861694444444">
<ele>22</ele>
</trkpt>
<trkpt lat="43.33204805555555" lon="141.8493411111111">
<ele>23</ele>
</trkpt>
<trkpt lat="43.33185611111111" lon="141.8498538888889">
<ele>23</ele>
</trkpt>
<trkpt lat="43.331698055555556" lon="141.85027888888888">
<ele>23</ele>
</trkpt>
<trkpt lat="43.331606111111114" lon="141.8504788888889">
<ele>23</ele>
</trkpt>
<trkpt lat="43.33154694444445" lon="141.8506911111111">
<ele>23</ele>
</trkpt>
<trkpt lat="43.33143888888889" lon="141.8510411111111">
<ele>23</ele>
</trkpt>
<trkpt lat="43.331423055555554" lon="141.8511161111111">
<ele>23</ele>
</trkpt>
<trkpt lat="43.33135611111111" lon="141.85141611111112">
<ele>23</ele>
</trkpt>
<trkpt lat="43.33130611111111" lon="141.85172888888889">
<ele>23</ele>
</trkpt>
<trkpt lat="43.33126388888889" lon="141.8519288888889">
<ele>23</ele>
</trkpt>
<trkpt lat="43.331198055555554" lon="141.85232888888888">
<ele>23</ele>
</trkpt>
<trkpt lat="43.33074805555555" lon="141.85220388888888">
<ele>23</ele>
</trkpt>
<trkpt lat="43.33030611111111" lon="141.8520661111111">
<ele>24</ele>
</trkpt>
<trkpt lat="43.329748055555555" lon="141.8519161111111">
<ele>24</ele>
</trkpt>
<trkpt lat="43.32963888888889" lon="141.85189111111112">
<ele>24</ele>
</trkpt>
<trkpt lat="43.32942305555556" lon="141.85187888888888">
<ele>24</ele>
</trkpt>
<trkpt lat="43.32920611111111" lon="141.8519161111111">
<ele>24</ele>
</trkpt>
<trkpt lat="43.32904805555555" lon="141.85197888888888">
<ele>24</ele>
</trkpt>
<trkpt lat="43.32833111111111" lon="141.85234111111112">
<ele>24</ele>
</trkpt>
<trkpt lat="43.328223055555554" lon="141.8523911111111">
<ele>24</ele>
</trkpt>
<trkpt lat="43.327998055555554" lon="141.8524788888889">
<ele>24</ele>
</trkpt>
<trkpt lat="43.32778111111111" lon="141.85252888888888">
<ele>24</ele>
</trkpt>
<trkpt lat="43.327665" lon="141.85252888888888">
<ele>24</ele>
</trkpt>
<trkpt lat="43.32754" lon="141.8525161111111">
<ele>24</ele>
</trkpt>
<trkpt lat="43.32729" lon="141.8524788888889">
<ele>24</ele>
</trkpt>
<trkpt lat="43.32663111111111" lon="141.85232888888888">
<ele>24</ele>
</trkpt>
<trkpt lat="43.326056944444446" lon="141.8521788888889">
<ele>24</ele>
</trkpt>
<trkpt lat="43.32606305555556" lon="141.85213">
<ele>24</ele>
</trkpt>
<trkpt lat="43.32606305555556" lon="141.85213">
<ele>24</ele>
</trkpt>
<trkpt lat="43.326073055555554" lon="141.8520538888889">
<ele>24</ele>
</trkpt>
<trkpt lat="43.32614" lon="141.85165388888888">
<ele>24</ele>
</trkpt>
<trkpt lat="43.32615611111111" lon="141.85151611111112">
<ele>24</ele>
</trkpt>
<trkpt lat="43.32619805555556" lon="141.8512411111111">
<ele>24</ele>
</trkpt>
<trkpt lat="43.32623111111111" lon="141.8510038888889">
<ele>24</ele>
</trkpt>
<trkpt lat="43.32629" lon="141.8506538888889">
<ele>24</ele>
</trkpt>
<trkpt lat="43.326323055555555" lon="141.85039194444445">
<ele>24</ele>
</trkpt>
<trkpt lat="43.32654" lon="141.8490038888889">
<ele>24</ele>
</trkpt>
<trkpt lat="43.32664805555556" lon="141.8483038888889">
<ele>24</ele>
</trkpt>
<trkpt lat="43.32682305555556" lon="141.84721694444445">
<ele>21</ele>
</trkpt>
<trkpt lat="43.32689" lon="141.84679194444445">
<ele>18</ele>
</trkpt>
<trkpt lat="43.32689805555555" lon="141.84675388888888">
<ele>18</ele>
</trkpt>
<trkpt lat="43.32704" lon="141.8458288888889">
<ele>20</ele>
</trkpt>
<trkpt lat="43.327065" lon="141.84563">
<ele>20</ele>
</trkpt>
<trkpt lat="43.32724" lon="141.84449194444446">
<ele>21</ele>
</trkpt>
<trkpt lat="43.32731388888889" lon="141.84401694444443">
<ele>21</ele>
</trkpt>
<trkpt lat="43.327463888888886" lon="141.843055">
<ele>21</ele>
</trkpt>
<trkpt lat="43.32748888888889" lon="141.84291694444445">
<ele>21</ele>
</trkpt>
<trkpt lat="43.32773888888889" lon="141.84131805555555">
<ele>22</ele>
</trkpt>
<trkpt lat="43.327933055555555" lon="141.8400661111111">
<ele>22</ele>
</trkpt>
<trkpt lat="43.327933055555555" lon="141.8400661111111">
<ele>22</ele>
</trkpt>
<trkpt lat="43.32794805555555" lon="141.83996805555554">
<ele>22</ele>
</trkpt>
<trkpt lat="43.32683888888889" lon="141.839655">
<ele>22</ele>
</trkpt>
<trkpt lat="43.32127305555556" lon="141.83806805555557">
<ele>21</ele>
</trkpt>
<trkpt lat="43.32080694444444" lon="141.83794305555554">
<ele>22</ele>
</trkpt>
<trkpt lat="43.32049888888889" lon="141.8378561111111">
<ele>22</ele>
</trkpt>
<trkpt lat="43.31937388888889" lon="141.8375311111111">
<ele>21</ele>
</trkpt>
<trkpt lat="43.31899" lon="141.83741805555556">
<ele>21</ele>
</trkpt>
<trkpt lat="43.31879" lon="141.83736805555554">
<ele>21</ele>
</trkpt>
<trkpt lat="43.31759888888889" lon="141.83703111111112">
<ele>20</ele>
</trkpt>
<trkpt lat="43.31681611111111" lon="141.83680611111112">
<ele>20</ele>
</trkpt>
<trkpt lat="43.31594888888889" lon="141.83655611111112">
<ele>20</ele>
</trkpt>
<trkpt lat="43.31559111111111" lon="141.83645611111112">
<ele>21</ele>
</trkpt>
<trkpt lat="43.31479111111111" lon="141.83623111111112">
<ele>20</ele>
</trkpt>
<trkpt lat="43.31375805555555" lon="141.8359311111111">
<ele>20</ele>
</trkpt>
<trkpt lat="43.313158055555554" lon="141.83575611111112">
<ele>19</ele>
</trkpt>
<trkpt lat="43.312758055555555" lon="141.83564388888888">
<ele>20</ele>
</trkpt>
<trkpt lat="43.31164111111111" lon="141.83533111111112">
<ele>20</ele>
</trkpt>
<trkpt lat="43.310583055555554" lon="141.8350311111111">
<ele>20</ele>
</trkpt>
<trkpt lat="43.31004111111111" lon="141.83486888888888">
<ele>20</ele>
</trkpt>
<trkpt lat="43.30956694444444" lon="141.83473111111113">
<ele>20</ele>
</trkpt>
<trkpt lat="43.30895805555556" lon="141.8345438888889">
<ele>20</ele>
</trkpt>
<trkpt lat="43.30855805555556" lon="141.83443194444445">
<ele>20</ele>
</trkpt>
<trkpt lat="43.307525" lon="141.8341188888889">
<ele>21</ele>
</trkpt>
<trkpt lat="43.307325" lon="141.83405694444446">
<ele>20</ele>
</trkpt>
<trkpt lat="43.30696694444445" lon="141.83395694444445">
<ele>20</ele>
</trkpt>
<trkpt lat="43.30658388888889" lon="141.83383194444446">
<ele>20</ele>
</trkpt>
<trkpt lat="43.30591694444445" lon="141.8336438888889">
<ele>20</ele>
</trkpt>
<trkpt lat="43.305683888888886" lon="141.8335688888889">
<ele>20</ele>
</trkpt>
<trkpt lat="43.305591944444444" lon="141.83351888888888">
<ele>20</ele>
</trkpt>
<trkpt lat="43.304403055555554" lon="141.83222305555554">
<ele>19</ele>
</trkpt>
<trkpt lat="43.304403055555554" lon="141.83222305555554">
<ele>19</ele>
</trkpt>
<trkpt lat="43.304251111111114" lon="141.83205694444445">
<ele>19</ele>
</trkpt>
<trkpt lat="43.30351805555556" lon="141.83335694444443">
<ele>19</ele>
</trkpt>
<trkpt lat="43.30336805555555" lon="141.83361888888888">
<ele>19</ele>
</trkpt>
<trkpt lat="43.30271694444444" lon="141.8347688888889">
<ele>19</ele>
</trkpt>
<trkpt lat="43.302618055555556" lon="141.83493194444443">
<ele>19</ele>
</trkpt>
<trkpt lat="43.301743055555555" lon="141.83648194444444">
<ele>19</ele>
</trkpt>
<trkpt lat="43.301676111111114" lon="141.8365938888889">
<ele>19</ele>
</trkpt>
<trkpt lat="43.301476111111114" lon="141.8369438888889">
<ele>19</ele>
</trkpt>
<trkpt lat="43.30101805555555" lon="141.83773194444444">
<ele>19</ele>
</trkpt>
<trkpt lat="43.30098388888889" lon="141.83778194444446">
<ele>19</ele>
</trkpt>
<trkpt lat="43.30060111111111" lon="141.83845694444443">
<ele>19</ele>
</trkpt>
<trkpt lat="43.29937611111111" lon="141.8405688888889">
<ele>21</ele>
</trkpt>
<trkpt lat="43.299368055555554" lon="141.84058194444444">
<ele>21</ele>
</trkpt>
<trkpt lat="43.298535" lon="141.8420188888889">
<ele>22</ele>
</trkpt>
<trkpt lat="43.29826805555555" lon="141.8424811111111">
<ele>22</ele>
</trkpt>
<trkpt lat="43.29796805555556" lon="141.84300611111112">
<ele>22</ele>
</trkpt>
<trkpt lat="43.29756" lon="141.8437311111111">
<ele>22</ele>
</trkpt>
<trkpt lat="43.297043888888886" lon="141.8446188888889">
<ele>23</ele>
</trkpt>
<trkpt lat="43.29676" lon="141.8451311111111">
<ele>23</ele>
</trkpt>
<trkpt lat="43.29553611111111" lon="141.8472688888889">
<ele>25</ele>
</trkpt>
<trkpt lat="43.29549388888889" lon="141.84733111111112">
<ele>25</ele>
</trkpt>
<trkpt lat="43.29528611111111" lon="141.8477061111111">
<ele>25</ele>
</trkpt>
<trkpt lat="43.29515194444444" lon="141.8479438888889">
<ele>26</ele>
</trkpt>
<trkpt lat="43.29492805555556" lon="141.84831888888888">
<ele>26</ele>
</trkpt>
<trkpt lat="43.29455194444444" lon="141.8489811111111">
<ele>27</ele>
</trkpt>
<trkpt lat="43.293951944444444" lon="141.85005611111112">
<ele>27</ele>
</trkpt>
<trkpt lat="43.293818888888886" lon="141.85028111111112">
<ele>27</ele>
</trkpt>
<trkpt lat="43.29341888888889" lon="141.8510061111111">
<ele>31</ele>
</trkpt>
<trkpt lat="43.29277805555556" lon="141.8521188888889">
<ele>35</ele>
</trkpt>
<trkpt lat="43.29226888888889" lon="141.8530311111111">
<ele>36</ele>
</trkpt>
<trkpt lat="43.291986111111115" lon="141.85353111111112">
<ele>38</ele>
</trkpt>
<trkpt lat="43.29184388888889" lon="141.85378111111112">
<ele>38</ele>
</trkpt>
<trkpt lat="43.29167805555556" lon="141.8540688888889">
<ele>39</ele>
</trkpt>
<trkpt lat="43.29145305555556" lon="141.8544688888889">
<ele>39</ele>
</trkpt>
<trkpt lat="43.290953055555555" lon="141.85535611111112">
<ele>42</ele>
</trkpt>
<trkpt lat="43.29080305555556" lon="141.8556188888889">
<ele>43</ele>
</trkpt>
<trkpt lat="43.29047805555555" lon="141.8561811111111">
<ele>45</ele>
</trkpt>
<trkpt lat="43.28940194444444" lon="141.8580638888889">
<ele>53</ele>
</trkpt>
<trkpt lat="43.28940194444444" lon="141.8580638888889">
<ele>53</ele>
</trkpt>
<trkpt lat="43.289278055555556" lon="141.8582811111111">
<ele>54</ele>
</trkpt>
<trkpt lat="43.28552888888889" lon="141.8542438888889">
<ele>44</ele>
</trkpt>
<trkpt lat="43.285286944444444" lon="141.85398111111112">
<ele>43</ele>
</trkpt>
<trkpt lat="43.281303888888885" lon="141.84973194444444">
<ele>45</ele>
</trkpt>
<trkpt lat="43.27736" lon="141.84551305555556">
<ele>45</ele>
</trkpt>
<trkpt lat="43.27736" lon="141.84551305555556">
<ele>45</ele>
</trkpt>
<trkpt lat="43.27729611111111" lon="141.845445">
<ele>46</ele>
</trkpt>
<trkpt lat="43.27527194444444" lon="141.8490238888889">
<ele>58</ele>
</trkpt>
<trkpt lat="43.27527194444444" lon="141.8490238888889">
<ele>58</ele>
</trkpt>
<trkpt lat="43.275105" lon="141.84932">
<ele>59</ele>
</trkpt>
<trkpt lat="43.272105" lon="141.84330888888888">
<ele>42</ele>
</trkpt>
<trkpt lat="43.27169694444444" lon="141.8426961111111">
<ele>41</ele>
</trkpt>
<trkpt lat="43.270646944444444" lon="141.8413711111111">
<ele>43</ele>
</trkpt>
<trkpt lat="43.26858" lon="141.83824694444445">
<ele>36</ele>
</trkpt>
<trkpt lat="43.267355" lon="141.83619694444445">
<ele>36</ele>
</trkpt>
<trkpt lat="43.266463888888886" lon="141.83477194444444">
<ele>38</ele>
</trkpt>
<trkpt lat="43.265296944444444" lon="141.833535">
<ele>35</ele>
</trkpt>
<trkpt lat="43.26500611111111" lon="141.83312305555555">
<ele>35</ele>
</trkpt>
<trkpt lat="43.26520611111111" lon="141.83276">
<ele>34</ele>
</trkpt>
<trkpt lat="43.265388888888886" lon="141.83244805555555">
<ele>34</ele>
</trkpt>
<trkpt lat="43.265456111111114" lon="141.83231">
<ele>34</ele>
</trkpt>
<trkpt lat="43.26546388888889" lon="141.832285">
<ele>34</ele>
</trkpt>
<trkpt lat="43.26550611111111" lon="141.831985">
<ele>36</ele>
</trkpt>
<trkpt lat="43.265481111111114" lon="141.83184805555555">
<ele>37</ele>
</trkpt>
<trkpt lat="43.26543888888889" lon="141.831735">
<ele>37</ele>
</trkpt>
<trkpt lat="43.265371944444446" lon="141.83164805555555">
<ele>38</ele>
</trkpt>
<trkpt lat="43.26446388888889" lon="141.83077305555557">
<ele>39</ele>
</trkpt>
<trkpt lat="43.26439694444444" lon="141.83071">
<ele>39</ele>
</trkpt>
<trkpt lat="43.26308888888889" lon="141.8294611111111">
<ele>44</ele>
</trkpt>
<trkpt lat="43.26282194444445" lon="141.82919805555557">
<ele>43</ele>
</trkpt>
<trkpt lat="43.26284111111111" lon="141.82914888888888">
<ele>43</ele>
</trkpt>
<trkpt lat="43.26284111111111" lon="141.82914888888888">
<ele>43</ele>
</trkpt>
<trkpt lat="43.26285611111111" lon="141.8291111111111">
<ele>42</ele>
</trkpt>
<trkpt lat="43.263131111111115" lon="141.82859805555555">
<ele>36</ele>
</trkpt>
<trkpt lat="43.263263888888886" lon="141.82842305555556">
<ele>33</ele>
</trkpt>
<trkpt lat="43.263756111111114" lon="141.82789805555555">
<ele>33</ele>
</trkpt>
<trkpt lat="43.26412194444445" lon="141.8275361111111">
<ele>32</ele>
</trkpt>
<trkpt lat="43.264271944444445" lon="141.82736111111112">
<ele>32</ele>
</trkpt>
<trkpt lat="43.26439694444444" lon="141.82717305555556">
<ele>31</ele>
</trkpt>
<trkpt lat="43.264505" lon="141.82701111111112">
<ele>31</ele>
</trkpt>
<trkpt lat="43.26481388888889" lon="141.8265111111111">
<ele>31</ele>
</trkpt>
<trkpt lat="43.26548" lon="141.82542305555555">
<ele>33</ele>
</trkpt>
<trkpt lat="43.26553888888889" lon="141.8253361111111">
<ele>33</ele>
</trkpt>
<trkpt lat="43.266105" lon="141.82439805555555">
<ele>30</ele>
</trkpt>
<trkpt lat="43.26623" lon="141.82418611111112">
<ele>34</ele>
</trkpt>
<trkpt lat="43.266463055555555" lon="141.8237861111111">
<ele>34</ele>
</trkpt>
<trkpt lat="43.266805" lon="141.82319805555557">
<ele>31</ele>
</trkpt>
<trkpt lat="43.267138055555556" lon="141.8226361111111">
<ele>31</ele>
</trkpt>
<trkpt lat="43.26723805555555" lon="141.82244805555555">
<ele>30</ele>
</trkpt>
<trkpt lat="43.26734611111111" lon="141.82227305555554">
<ele>29</ele>
</trkpt>
<trkpt lat="43.267538055555555" lon="141.8219611111111">
<ele>28</ele>
</trkpt>
<trkpt lat="43.26757111111111" lon="141.82189805555555">
<ele>28</ele>
</trkpt>
<trkpt lat="43.267938055555554" lon="141.82127305555557">
<ele>26</ele>
</trkpt>
<trkpt lat="43.26797111111111" lon="141.82122305555555">
<ele>26</ele>
</trkpt>
<trkpt lat="43.26808805555556" lon="141.8210361111111">
<ele>26</ele>
</trkpt>
<trkpt lat="43.268155" lon="141.82079805555554">
<ele>26</ele>
</trkpt>
<trkpt lat="43.26822111111111" lon="141.8206238888889">
<ele>25</ele>
</trkpt>
<trkpt lat="43.268705" lon="141.81976111111112">
<ele>25</ele>
</trkpt>
<trkpt lat="43.26892888888889" lon="141.8193738888889">
<ele>24</ele>
</trkpt>
<trkpt lat="43.26896305555555" lon="141.8193238888889">
<ele>24</ele>
</trkpt>
<trkpt lat="43.26905388888889" lon="141.8191611111111">
<ele>24</ele>
</trkpt>
<trkpt lat="43.26936805555555" lon="141.81860805555556">
<ele>24</ele>
</trkpt>
<trkpt lat="43.26936805555555" lon="141.81860805555556">
<ele>24</ele>
</trkpt>
<trkpt lat="43.26942888888889" lon="141.81849888888888">
<ele>24</ele>
</trkpt>
<trkpt lat="43.26987111111111" lon="141.81772388888888">
<ele>23</ele>
</trkpt>
<trkpt lat="43.27044611111111" lon="141.81671111111112">
<ele>22</ele>
</trkpt>
<trkpt lat="43.27077888888889" lon="141.81612388888888">
<ele>22</ele>
</trkpt>
<trkpt lat="43.27099611111111" lon="141.8157361111111">
<ele>22</ele>
</trkpt>
<trkpt lat="43.27247111111111" lon="141.8132738888889">
<ele>21</ele>
</trkpt>
<trkpt lat="43.274303055555556" lon="141.8099488888889">
<ele>18</ele>
</trkpt>
<trkpt lat="43.27487" lon="141.8089238888889">
<ele>18</ele>
</trkpt>
<trkpt lat="43.276381111111114" lon="141.8047161111111">
<ele>16</ele>
</trkpt>
<trkpt lat="43.276381111111114" lon="141.8047161111111">
<ele>16</ele>
</trkpt>
<trkpt lat="43.27650305555556" lon="141.80437388888888">
<ele>16</ele>
</trkpt>
<trkpt lat="43.27914388888889" lon="141.80803694444444">
<ele>17</ele>
</trkpt>
<trkpt lat="43.28039388888889" lon="141.80967388888888">
<ele>17</ele>
</trkpt>
<trkpt lat="43.28066111111111" lon="141.8098238888889">
<ele>17</ele>
</trkpt>
<trkpt lat="43.28391" lon="141.81079888888888">
<ele>18</ele>
</trkpt>
<trkpt lat="43.28399388888889" lon="141.81082388888888">
<ele>18</ele>
</trkpt>
<trkpt lat="43.28807694444444" lon="141.8120111111111">
<ele>17</ele>
</trkpt>
<trkpt lat="43.29320111111111" lon="141.81351">
<ele>17</ele>
</trkpt>
<trkpt lat="43.29808388888889" lon="141.81490888888888">
<ele>16</ele>
</trkpt>
<trkpt lat="43.298095" lon="141.814835">
<ele>16</ele>
</trkpt>
<trkpt lat="43.298095" lon="141.814835">
<ele>16</ele>
</trkpt>
<trkpt lat="43.29808388888889" lon="141.81490888888888">
<ele>16</ele>
</trkpt>
<trkpt lat="43.300716944444446" lon="141.8156088888889">
<ele>16</ele>
</trkpt>
<trkpt lat="43.301025" lon="141.81564694444444">
<ele>15</ele>
</trkpt>
<trkpt lat="43.30146694444444" lon="141.81557194444446">
<ele>15</ele>
</trkpt>
<trkpt lat="43.3031" lon="141.8150961111111">
<ele>15</ele>
</trkpt>
<trkpt lat="43.303291944444446" lon="141.8150838888889">
<ele>15</ele>
</trkpt>
<trkpt lat="43.303475" lon="141.8151961111111">
<ele>15</ele>
</trkpt>
<trkpt lat="43.304208055555556" lon="141.8160088888889">
<ele>14</ele>
</trkpt>
<trkpt lat="43.30498305555555" lon="141.81650888888888">
<ele>14</ele>
</trkpt>
<trkpt lat="43.305525" lon="141.81673388888888">
<ele>14</ele>
</trkpt>
<trkpt lat="43.30741611111111" lon="141.81763305555555">
<ele>14</ele>
</trkpt>
<trkpt lat="43.30761305555556" lon="141.81767805555555">
<ele>14</ele>
</trkpt>
<trkpt lat="43.30761305555556" lon="141.81767805555555">
<ele>14</ele>
</trkpt>
<trkpt lat="43.30808305555556" lon="141.81778305555557">
<ele>14</ele>
</trkpt>
<trkpt lat="43.30842388888889" lon="141.81555805555556">
<ele>14</ele>
</trkpt>
<trkpt lat="43.30912388888889" lon="141.8109961111111">
<ele>14</ele>
</trkpt>
<trkpt lat="43.30947388888889" lon="141.80872194444444">
<ele>14</ele>
</trkpt>
<trkpt lat="43.31019888888889" lon="141.8040088888889">
<ele>13</ele>
</trkpt>
<trkpt lat="43.310865" lon="141.79967194444444">
<ele>13</ele>
</trkpt>
<trkpt lat="43.31122388888889" lon="141.79732305555555">
<ele>13</ele>
</trkpt>
<trkpt lat="43.311615" lon="141.794785">
<ele>13</ele>
</trkpt>
<trkpt lat="43.31239" lon="141.79002305555557">
<ele>13</ele>
</trkpt>
<trkpt lat="43.31254" lon="141.78947305555556">
<ele>12</ele>
</trkpt>
<trkpt lat="43.31279" lon="141.78877305555557">
<ele>13</ele>
</trkpt>
<trkpt lat="43.312915" lon="141.78842305555557">
<ele>13</ele>
</trkpt>
<trkpt lat="43.31297305555555" lon="141.7881111111111">
<ele>13</ele>
</trkpt>
<trkpt lat="43.31295611111111" lon="141.7874111111111">
<ele>13</ele>
</trkpt>
<trkpt lat="43.31293111111111" lon="141.7870111111111">
<ele>13</ele>
</trkpt>
<trkpt lat="43.31294805555556" lon="141.7866361111111">
<ele>13</ele>
</trkpt>
<trkpt lat="43.313365" lon="141.78386111111112">
<ele>13</ele>
</trkpt>
<trkpt lat="43.313428888888886" lon="141.78344805555557">
<ele>13</ele>
</trkpt>
<trkpt lat="43.313428888888886" lon="141.78344805555557">
<ele>13</ele>
</trkpt>
<trkpt lat="43.314413888888886" lon="141.77708694444445">
<ele>12</ele>
</trkpt>
<trkpt lat="43.31549694444445" lon="141.770125">
<ele>12</ele>
</trkpt>
<trkpt lat="43.316518055555555" lon="141.76355">
<ele>12</ele>
</trkpt>
<trkpt lat="43.31753805555555" lon="141.7569761111111">
<ele>12</ele>
</trkpt>
<trkpt lat="43.31751694444444" lon="141.756945">
<ele>12</ele>
</trkpt>
<trkpt lat="43.31751694444444" lon="141.756945">
<ele>12</ele>
</trkpt>
<trkpt lat="43.31753805555555" lon="141.7569761111111">
<ele>12</ele>
</trkpt>
<trkpt lat="43.31774611111111" lon="141.75722611111112">
<ele>12</ele>
</trkpt>
<trkpt lat="43.31829611111111" lon="141.7579761111111">
<ele>12</ele>
</trkpt>
<trkpt lat="43.318505" lon="141.7582261111111">
<ele>12</ele>
</trkpt>
<trkpt lat="43.31858805555556" lon="141.75826305555555">
<ele>12</ele>
</trkpt>
<trkpt lat="43.318955" lon="141.758325">
<ele>12</ele>
</trkpt>
<trkpt lat="43.319588055555556" lon="141.75836305555555">
<ele>13</ele>
</trkpt>
<trkpt lat="43.31977111111111" lon="141.758425">
<ele>13</ele>
</trkpt>
<trkpt lat="43.31997111111111" lon="141.75856305555556">
<ele>13</ele>
</trkpt>
<trkpt lat="43.32003805555556" lon="141.758575">
<ele>13</ele>
</trkpt>
<trkpt lat="43.320255" lon="141.75871305555555">
<ele>13</ele>
</trkpt>
<trkpt lat="43.32040388888889" lon="141.75878805555556">
<ele>13</ele>
</trkpt>
<trkpt lat="43.320571111111114" lon="141.75878805555556">
<ele>13</ele>
</trkpt>
<trkpt lat="43.320663055555556" lon="141.75871305555555">
<ele>13</ele>
</trkpt>
<trkpt lat="43.32093805555556" lon="141.75831305555556">
<ele>13</ele>
</trkpt>
<trkpt lat="43.32121305555555" lon="141.75785">
<ele>13</ele>
</trkpt>
<trkpt lat="43.32133805555556" lon="141.757725">
<ele>13</ele>
</trkpt>
<trkpt lat="43.321463055555554" lon="141.757675">
<ele>13</ele>
</trkpt>
<trkpt lat="43.32170388888889" lon="141.75763805555556">
<ele>13</ele>
</trkpt>
<trkpt lat="43.32178805555556" lon="141.75761305555557">
<ele>13</ele>
</trkpt>
<trkpt lat="43.322113055555555" lon="141.7576">
<ele>13</ele>
</trkpt>
<trkpt lat="43.322363055555556" lon="141.75768805555555">
<ele>13</ele>
</trkpt>
<trkpt lat="43.32244611111111" lon="141.75775">
<ele>13</ele>
</trkpt>
<trkpt lat="43.322588055555556" lon="141.75795">
<ele>13</ele>
</trkpt>
<trkpt lat="43.32271305555555" lon="141.75823805555555">
<ele>13</ele>
</trkpt>
<trkpt lat="43.322828888888886" lon="141.75853805555556">
<ele>13</ele>
</trkpt>
<trkpt lat="43.32299611111111" lon="141.75881305555555">
<ele>13</ele>
</trkpt>
<trkpt lat="43.32315388888889" lon="141.758925">
<ele>13</ele>
</trkpt>
<trkpt lat="43.32367111111111" lon="141.759">
<ele>13</ele>
</trkpt>
<trkpt lat="43.32393694444445" lon="141.75913805555555">
<ele>13</ele>
</trkpt>
<trkpt lat="43.32417888888889" lon="141.75938805555555">
<ele>13</ele>
</trkpt>
<trkpt lat="43.324328888888886" lon="141.759675">
<ele>13</ele>
</trkpt>
<trkpt lat="43.324463055555555" lon="141.76001305555556">
<ele>13</ele>
</trkpt>
<trkpt lat="43.32461305555555" lon="141.76101305555557">
<ele>14</ele>
</trkpt>
<trkpt lat="43.324753888888885" lon="141.76205">
<ele>14</ele>
</trkpt>
<trkpt lat="43.32479611111111" lon="141.76218694444444">
<ele>14</ele>
</trkpt>
<trkpt lat="43.324911944444445" lon="141.76233694444446">
<ele>14</ele>
</trkpt>
<trkpt lat="43.32507888888889" lon="141.762475">
<ele>13</ele>
</trkpt>
<trkpt lat="43.325588055555556" lon="141.76296194444444">
<ele>12</ele>
</trkpt>
<trkpt lat="43.32597888888889" lon="141.7633">
<ele>12</ele>
</trkpt>
<trkpt lat="43.32607888888889" lon="141.76353694444444">
<ele>12</ele>
</trkpt>
<trkpt lat="43.32608694444444" lon="141.76365">
<ele>13</ele>
</trkpt>
<trkpt lat="43.32627111111111" lon="141.7645238888889">
<ele>13</ele>
</trkpt>
<trkpt lat="43.32628694444445" lon="141.7645738888889">
<ele>13</ele>
</trkpt>
<trkpt lat="43.326346111111114" lon="141.7647738888889">
<ele>13</ele>
</trkpt>
<trkpt lat="43.32651194444445" lon="141.76523694444444">
<ele>13</ele>
</trkpt>
<trkpt lat="43.32665388888889" lon="141.76549888888889">
<ele>13</ele>
</trkpt>
<trkpt lat="43.327088055555556" lon="141.76641194444446">
<ele>13</ele>
</trkpt>
<trkpt lat="43.32724611111111" lon="141.76681194444444">
<ele>13</ele>
</trkpt>
<trkpt lat="43.32735388888889" lon="141.76706194444444">
<ele>13</ele>
</trkpt>
<trkpt lat="43.32745388888889" lon="141.76733694444445">
<ele>13</ele>
</trkpt>
<trkpt lat="43.32749611111111" lon="141.7674738888889">
<ele>13</ele>
</trkpt>
<trkpt lat="43.327553888888886" lon="141.76791194444445">
<ele>12</ele>
</trkpt>
<trkpt lat="43.32756194444445" lon="141.76816194444444">
<ele>12</ele>
</trkpt>
<trkpt lat="43.32747888888889" lon="141.76873694444444">
<ele>12</ele>
</trkpt>
<trkpt lat="43.32747111111111" lon="141.7689738888889">
<ele>13</ele>
</trkpt>
<trkpt lat="43.327553888888886" lon="141.76918694444444">
<ele>13</ele>
</trkpt>
<trkpt lat="43.32772111111111" lon="141.7694488888889">
<ele>13</ele>
</trkpt>
<trkpt lat="43.32787111111111" lon="141.76958611111112">
<ele>13</ele>
</trkpt>
<trkpt lat="43.32818694444445" lon="141.7696611111111">
<ele>13</ele>
</trkpt>
<trkpt lat="43.32912888888889" lon="141.7697861111111">
<ele>14</ele>
</trkpt>
<trkpt lat="43.32953694444444" lon="141.7698988888889">
<ele>14</ele>
</trkpt>
<trkpt lat="43.329886944444446" lon="141.77003611111112">
<ele>14</ele>
</trkpt>
<trkpt lat="43.33002888888889" lon="141.77003611111112">
<ele>14</ele>
</trkpt>
<trkpt lat="43.330311944444446" lon="141.7699988888889">
<ele>14</ele>
</trkpt>
<trkpt lat="43.33053694444445" lon="141.77004888888888">
<ele>14</ele>
</trkpt>
<trkpt lat="43.33076194444445" lon="141.77018611111112">
<ele>14</ele>
</trkpt>
<trkpt lat="43.33098694444445" lon="141.7704361111111">
<ele>14</ele>
</trkpt>
<trkpt lat="43.33103888888889" lon="141.770635">
<ele>14</ele>
</trkpt>
<trkpt lat="43.33103888888889" lon="141.770635">
<ele>14</ele>
</trkpt>
<trkpt lat="43.331095" lon="141.77084888888888">
<ele>14</ele>
</trkpt>
<trkpt lat="43.33126194444444" lon="141.7713488888889">
<ele>14</ele>
</trkpt>
<trkpt lat="43.33137888888889" lon="141.7714861111111">
<ele>14</ele>
</trkpt>
<trkpt lat="43.332095" lon="141.7717111111111">
<ele>14</ele>
</trkpt>
<trkpt lat="43.332386944444444" lon="141.77184888888888">
<ele>14</ele>
</trkpt>
<trkpt lat="43.33257" lon="141.77197388888888">
<ele>14</ele>
</trkpt>
<trkpt lat="43.332895" lon="141.7722738888889">
<ele>14</ele>
</trkpt>
<trkpt lat="43.333095" lon="141.77243611111112">
<ele>14</ele>
</trkpt>
<trkpt lat="43.33378694444445" lon="141.7729361111111">
<ele>14</ele>
</trkpt>
<trkpt lat="43.33396194444445" lon="141.77311111111112">
<ele>14</ele>
</trkpt>
<trkpt lat="43.334045" lon="141.77322305555555">
<ele>14</ele>
</trkpt>
<trkpt lat="43.334136944444445" lon="141.77352305555556">
<ele>14</ele>
</trkpt>
<trkpt lat="43.33417" lon="141.77384805555556">
<ele>14</ele>
</trkpt>
<trkpt lat="43.33427" lon="141.7740861111111">
<ele>14</ele>
</trkpt>
<trkpt lat="43.334403888888886" lon="141.77427305555557">
<ele>14</ele>
</trkpt>
<trkpt lat="43.335278055555555" lon="141.77504805555554">
<ele>14</ele>
</trkpt>
<trkpt lat="43.335411944444445" lon="141.77522305555556">
<ele>14</ele>
</trkpt>
<trkpt lat="43.33557805555556" lon="141.77551111111111">
<ele>14</ele>
</trkpt>
<trkpt lat="43.33576194444444" lon="141.77581111111112">
<ele>14</ele>
</trkpt>
<trkpt lat="43.336195" lon="141.77641111111112">
<ele>14</ele>
</trkpt>
<trkpt lat="43.336895" lon="141.7769361111111">
<ele>14</ele>
</trkpt>
<trkpt lat="43.33726194444444" lon="141.77714805555556">
<ele>14</ele>
</trkpt>
<trkpt lat="43.337403055555555" lon="141.7773611111111">
<ele>14</ele>
</trkpt>
<trkpt lat="43.337628055555555" lon="141.77788611111112">
<ele>14</ele>
</trkpt>
<trkpt lat="43.337786944444446" lon="141.77809805555555">
<ele>14</ele>
</trkpt>
<trkpt lat="43.339153055555556" lon="141.77844805555554">
<ele>14</ele>
</trkpt>
<trkpt lat="43.33927805555555" lon="141.77862305555556">
<ele>14</ele>
</trkpt>
<trkpt lat="43.339528055555554" lon="141.779585">
<ele>14</ele>
</trkpt>
<trkpt lat="43.33960305555556" lon="141.77969805555554">
<ele>14</ele>
</trkpt>
<trkpt lat="43.339795" lon="141.77981">
<ele>14</ele>
</trkpt>
<trkpt lat="43.339945" lon="141.779835">
<ele>14</ele>
</trkpt>
<trkpt lat="43.339798055555555" lon="141.780775">
<ele>14</ele>
</trkpt>
<trkpt lat="43.339798888888886" lon="141.780775">
<ele>14</ele>
</trkpt>
<trkpt lat="43.339711111111114" lon="141.781335">
<ele>14</ele>
</trkpt>
<trkpt lat="43.339245" lon="141.78437194444444">
<ele>15</ele>
</trkpt>
<trkpt lat="43.338186944444445" lon="141.7911838888889">
<ele>15</ele>
</trkpt>
<trkpt lat="43.33717111111111" lon="141.79784694444444">
<ele>16</ele>
</trkpt>
<trkpt lat="43.33613694444445" lon="141.80450888888888">
<ele>17</ele>
</trkpt>
<trkpt lat="43.33576305555555" lon="141.8067961111111">
<ele>17</ele>
</trkpt>
<trkpt lat="43.33507888888889" lon="141.81129611111112">
<ele>17</ele>
</trkpt>
<trkpt lat="43.33398805555556" lon="141.81818305555555">
<ele>17</ele>
</trkpt>
<trkpt lat="43.333655" lon="141.820245">
<ele>17</ele>
</trkpt>
<trkpt lat="43.33331305555556" lon="141.822595">
<ele>18</ele>
</trkpt>
<trkpt lat="43.33331305555556" lon="141.822845">
<ele>18</ele>
</trkpt>
<trkpt lat="43.33333" lon="141.82308194444445">
<ele>18</ele>
</trkpt>
<trkpt lat="43.333355" lon="141.82333194444445">
<ele>18</ele>
</trkpt>
<trkpt lat="43.333405" lon="141.823545">
<ele>18</ele>
</trkpt>
<trkpt lat="43.33347194444445" lon="141.82377">
<ele>18</ele>
</trkpt>
<trkpt lat="43.33356305555556" lon="141.82398194444445">
<ele>18</ele>
</trkpt>
<trkpt lat="43.33361305555555" lon="141.82408194444446">
<ele>18</ele>
</trkpt>
<trkpt lat="43.33423805555555" lon="141.82520694444443">
<ele>20</ele>
</trkpt>
<trkpt lat="43.33428" lon="141.825295">
<ele>20</ele>
</trkpt>
<trkpt lat="43.334338055555556" lon="141.82542">
<ele>20</ele>
</trkpt>
<trkpt lat="43.33442194444444" lon="141.82563194444444">
<ele>20</ele>
</trkpt>
<trkpt lat="43.33448" lon="141.825845">
<ele>20</ele>
</trkpt>
<trkpt lat="43.33452194444445" lon="141.826095">
<ele>20</ele>
</trkpt>
<trkpt lat="43.33454694444445" lon="141.82632">
<ele>20</ele>
</trkpt>
<trkpt lat="43.33454694444445" lon="141.82726888888888">
<ele>20</ele>
</trkpt>
<trkpt lat="43.334555" lon="141.8325188888889">
<ele>21</ele>
</trkpt>
<trkpt lat="43.334555" lon="141.8355061111111">
<ele>21</ele>
</trkpt>
<trkpt lat="43.334021944444444" lon="141.84004305555555">
<ele>22</ele>
</trkpt>
<trkpt lat="43.33394694444444" lon="141.84081805555556">
<ele>22</ele>
</trkpt>
<trkpt lat="43.333888888888886" lon="141.84146694444445">
<ele>21</ele>
</trkpt>
<trkpt lat="43.33387194444445" lon="141.84171694444444">
<ele>21</ele>
</trkpt>
<trkpt lat="43.333646944444446" lon="141.84411694444444">
<ele>21</ele>
</trkpt>
<trkpt lat="43.33495388888889" lon="141.8445111111111">
<ele>21</ele>
</trkpt>
<trkpt lat="43.33495388888889" lon="141.8445111111111">
<ele>21</ele>
</trkpt>
<trkpt lat="43.33501388888889" lon="141.8445288888889">
<ele>22</ele>
</trkpt>
<trkpt lat="43.33468111111111" lon="141.84666694444445">
<ele>22</ele>
</trkpt>
<trkpt lat="43.334513888888885" lon="141.8477538888889">
<ele>21</ele>
</trkpt>
<trkpt lat="43.334313055555555" lon="141.84903694444444">
<ele>22</ele>
</trkpt>
    </trkseg>
  </trk>
</gpx>