<?xml version="1.0" encoding="UTF-8"?>
<gpx version="1.1"
     creator="KMLtoGPX"
     xmlns="http://www.topografix.com/GPX/1/1">
  <metadata>
    <name>Irumu Hill Enjoyment Course</name>
    <desc>イルムの丘満喫コース</desc>
    <bounds minlat="43.671785" minlon="142.01655694444443" maxlat="43.69818305555555" maxlon="142.09838694444446"/>
  </metadata>
  <trk>
    <name>Irumu Hill Enjoyment Course</name>
    <trkseg>
<trkpt lat="43.689614444444445" lon="142.08649972222221">
<ele>125</ele>
</trkpt>
<trkpt lat="43.689574444444446" lon="142.0865275">
<ele>125</ele>
</trkpt>
<trkpt lat="43.68953416666667" lon="142.0865552777778">
<ele>125</ele>
</trkpt>
<trkpt lat="43.68949388888889" lon="142.08658305555556">
<ele>127</ele>
</trkpt>
<trkpt lat="43.68945388888889" lon="142.08661083333334">
<ele>127</ele>
</trkpt>
<trkpt lat="43.689413611111114" lon="142.0866386111111">
<ele>127</ele>
</trkpt>
<trkpt lat="43.689373333333336" lon="142.0866663888889">
<ele>127</ele>
</trkpt>
<trkpt lat="43.68933333333333" lon="142.08669416666666">
<ele>128</ele>
</trkpt>
<trkpt lat="43.68929305555555" lon="142.08672194444443">
<ele>128</ele>
</trkpt>
<trkpt lat="43.689253055555554" lon="142.0867497222222">
<ele>128</ele>
</trkpt>
<trkpt lat="43.689212777777776" lon="142.0867775">
<ele>126</ele>
</trkpt>
<trkpt lat="43.6891725" lon="142.08680527777778">
<ele>128</ele>
</trkpt>
<trkpt lat="43.6891325" lon="142.08683305555556">
<ele>128</ele>
</trkpt>
<trkpt lat="43.68909222222222" lon="142.08686083333333">
<ele>127</ele>
</trkpt>
<trkpt lat="43.689051944444444" lon="142.0868886111111">
<ele>127</ele>
</trkpt>
<trkpt lat="43.689011944444445" lon="142.08691638888888">
<ele>128</ele>
</trkpt>
<trkpt lat="43.68897166666667" lon="142.08694416666665">
<ele>128</ele>
</trkpt>
<trkpt lat="43.68893166666667" lon="142.08697194444446">
<ele>128</ele>
</trkpt>
<trkpt lat="43.688900833333335" lon="142.08699333333334">
<ele>128</ele>
</trkpt>
<trkpt lat="43.688900833333335" lon="142.08699333333334">
<ele>128</ele>
</trkpt>
<trkpt lat="43.688924722222225" lon="142.08724333333333">
<ele>132</ele>
</trkpt>
<trkpt lat="43.68894888888889" lon="142.0874936111111">
<ele>136</ele>
</trkpt>
<trkpt lat="43.68897305555556" lon="142.0877438888889">
<ele>139</ele>
</trkpt>
<trkpt lat="43.68899722222222" lon="142.0879938888889">
<ele>141</ele>
</trkpt>
<trkpt lat="43.68902111111111" lon="142.08824416666667">
<ele>144</ele>
</trkpt>
<trkpt lat="43.68904527777778" lon="142.08849416666666">
<ele>146</ele>
</trkpt>
<trkpt lat="43.68906944444444" lon="142.08874444444444">
<ele>147</ele>
</trkpt>
<trkpt lat="43.68909361111111" lon="142.08899444444444">
<ele>149</ele>
</trkpt>
<trkpt lat="43.6891175" lon="142.08924472222222">
<ele>148</ele>
</trkpt>
<trkpt lat="43.689141666666664" lon="142.0894947222222">
<ele>148</ele>
</trkpt>
<trkpt lat="43.689165833333334" lon="142.089745">
<ele>148</ele>
</trkpt>
<trkpt lat="43.689189722222224" lon="142.089995">
<ele>146</ele>
</trkpt>
<trkpt lat="43.68921388888889" lon="142.09024527777777">
<ele>145</ele>
</trkpt>
<trkpt lat="43.689238055555556" lon="142.09049555555555">
<ele>146</ele>
</trkpt>
<trkpt lat="43.689262222222226" lon="142.09074555555554">
<ele>149</ele>
</trkpt>
<trkpt lat="43.68928611111111" lon="142.09099583333332">
<ele>151</ele>
</trkpt>
<trkpt lat="43.68931027777778" lon="142.09124583333335">
<ele>155</ele>
</trkpt>
<trkpt lat="43.68933444444444" lon="142.0914961111111">
<ele>157</ele>
</trkpt>
<trkpt lat="43.68935861111111" lon="142.09174611111112">
<ele>159</ele>
</trkpt>
<trkpt lat="43.6893825" lon="142.0919963888889">
<ele>162</ele>
</trkpt>
<trkpt lat="43.68940666666666" lon="142.0922463888889">
<ele>165</ele>
</trkpt>
<trkpt lat="43.68943083333333" lon="142.09249666666668">
<ele>167</ele>
</trkpt>
<trkpt lat="43.68945472222222" lon="142.09274666666667">
<ele>169</ele>
</trkpt>
<trkpt lat="43.689478888888885" lon="142.09299694444445">
<ele>171</ele>
</trkpt>
<trkpt lat="43.689503055555555" lon="142.09324694444445">
<ele>174</ele>
</trkpt>
<trkpt lat="43.689527222222225" lon="142.09349722222223">
<ele>175</ele>
</trkpt>
<trkpt lat="43.68955111111111" lon="142.0937475">
<ele>176</ele>
</trkpt>
<trkpt lat="43.68957527777778" lon="142.0939975">
<ele>176</ele>
</trkpt>
<trkpt lat="43.68959944444445" lon="142.09424777777778">
<ele>178</ele>
</trkpt>
<trkpt lat="43.68962333333333" lon="142.09449777777778">
<ele>180</ele>
</trkpt>
<trkpt lat="43.6896475" lon="142.09474805555556">
<ele>182</ele>
</trkpt>
<trkpt lat="43.68967166666667" lon="142.09499805555555">
<ele>183</ele>
</trkpt>
<trkpt lat="43.68969583333333" lon="142.09524833333333">
<ele>185</ele>
</trkpt>
<trkpt lat="43.68971972222222" lon="142.09549833333332">
<ele>187</ele>
</trkpt>
<trkpt lat="43.68974388888889" lon="142.0957486111111">
<ele>189</ele>
</trkpt>
<trkpt lat="43.689768055555554" lon="142.0959986111111">
<ele>191</ele>
</trkpt>
<trkpt lat="43.68979222222222" lon="142.09624888888888">
<ele>194</ele>
</trkpt>
<trkpt lat="43.689816111111114" lon="142.09649916666666">
<ele>196</ele>
</trkpt>
<trkpt lat="43.689855" lon="142.09649305555556">
<ele>196</ele>
</trkpt>
<trkpt lat="43.68986" lon="142.09655">
<ele>196</ele>
</trkpt>
<trkpt lat="43.69065888888889" lon="142.09653805555556">
<ele>194</ele>
</trkpt>
<trkpt lat="43.69090111111111" lon="142.09656305555555">
<ele>195</ele>
</trkpt>
<trkpt lat="43.69110888888889" lon="142.09666305555555">
<ele>195</ele>
</trkpt>
<trkpt lat="43.69128388888889" lon="142.096775">
<ele>196</ele>
</trkpt>
<trkpt lat="43.69150888888889" lon="142.09705">
<ele>199</ele>
</trkpt>
<trkpt lat="43.69178388888889" lon="142.09756305555555">
<ele>207</ele>
</trkpt>
<trkpt lat="43.69185888888889" lon="142.097875">
<ele>208</ele>
</trkpt>
<trkpt lat="43.69190888888889" lon="142.09825">
<ele>207</ele>
</trkpt>
<trkpt lat="43.69190888888889" lon="142.09838694444446">
<ele>207</ele>
</trkpt>
<trkpt lat="43.69190888888889" lon="142.09838694444446">
<ele>207</ele>
</trkpt>
<trkpt lat="43.69190888888889" lon="142.09825">
<ele>207</ele>
</trkpt>
<trkpt lat="43.69185888888889" lon="142.097875">
<ele>208</ele>
</trkpt>
<trkpt lat="43.69178388888889" lon="142.09756305555555">
<ele>207</ele>
</trkpt>
<trkpt lat="43.69150888888889" lon="142.09705">
<ele>199</ele>
</trkpt>
<trkpt lat="43.69128388888889" lon="142.096775">
<ele>196</ele>
</trkpt>
<trkpt lat="43.69110888888889" lon="142.09666305555555">
<ele>195</ele>
</trkpt>
<trkpt lat="43.69090111111111" lon="142.09656305555555">
<ele>195</ele>
</trkpt>
<trkpt lat="43.69065888888889" lon="142.09653805555556">
<ele>194</ele>
</trkpt>
<trkpt lat="43.68986" lon="142.09655">
<ele>196</ele>
</trkpt>
<trkpt lat="43.688835" lon="142.096675">
<ele>197</ele>
</trkpt>
<trkpt lat="43.688535" lon="142.096625">
<ele>197</ele>
</trkpt>
<trkpt lat="43.68835111111111" lon="142.096475">
<ele>197</ele>
</trkpt>
<trkpt lat="43.68816805555556" lon="142.09623805555555">
<ele>197</ele>
</trkpt>
<trkpt lat="43.68797611111111" lon="142.095675">
<ele>198</ele>
</trkpt>
<trkpt lat="43.68791" lon="142.09516305555556">
<ele>194</ele>
</trkpt>
<trkpt lat="43.68785111111111" lon="142.09481305555556">
<ele>190</ele>
</trkpt>
<trkpt lat="43.68771805555556" lon="142.09345">
<ele>182</ele>
</trkpt>
<trkpt lat="43.687635" lon="142.09311305555556">
<ele>182</ele>
</trkpt>
<trkpt lat="43.68750111111111" lon="142.0928011111111">
<ele>180</ele>
</trkpt>
<trkpt lat="43.68732611111111" lon="142.0925261111111">
<ele>175</ele>
</trkpt>
<trkpt lat="43.68714305555556" lon="142.09240111111112">
<ele>176</ele>
</trkpt>
<trkpt lat="43.686993055555554" lon="142.0923511111111">
<ele>177</ele>
</trkpt>
<trkpt lat="43.686785" lon="142.09236305555555">
<ele>176</ele>
</trkpt>
<trkpt lat="43.685885" lon="142.0926511111111">
<ele>167</ele>
</trkpt>
<trkpt lat="43.68561805555556" lon="142.09258805555555">
<ele>166</ele>
</trkpt>
<trkpt lat="43.68546805555555" lon="142.0924511111111">
<ele>165</ele>
</trkpt>
<trkpt lat="43.685343055555556" lon="142.0922011111111">
<ele>162</ele>
</trkpt>
<trkpt lat="43.685293055555555" lon="142.09191305555555">
<ele>163</ele>
</trkpt>
<trkpt lat="43.68536" lon="142.0916511111111">
<ele>162</ele>
</trkpt>
<trkpt lat="43.68584305555556" lon="142.09063805555556">
<ele>156</ele>
</trkpt>
<trkpt lat="43.68586" lon="142.09021305555555">
<ele>155</ele>
</trkpt>
<trkpt lat="43.68570888888889" lon="142.08884694444444">
<ele>149</ele>
</trkpt>
<trkpt lat="43.68570888888889" lon="142.08884694444444">
<ele>149</ele>
</trkpt>
<trkpt lat="43.68570111111111" lon="142.08877611111112">
<ele>148</ele>
</trkpt>
<trkpt lat="43.68564305555556" lon="142.08828805555555">
<ele>147</ele>
</trkpt>
<trkpt lat="43.685635" lon="142.08796305555555">
<ele>146</ele>
</trkpt>
<trkpt lat="43.68566805555555" lon="142.08765111111111">
<ele>145</ele>
</trkpt>
<trkpt lat="43.68788388888889" lon="142.0832638888889">
<ele>118</ele>
</trkpt>
<trkpt lat="43.688066944444444" lon="142.0829511111111">
<ele>115</ele>
</trkpt>
<trkpt lat="43.68830111111111" lon="142.0828011111111">
<ele>115</ele>
</trkpt>
<trkpt lat="43.68865111111111" lon="142.0825761111111">
<ele>114</ele>
</trkpt>
<trkpt lat="43.68864111111111" lon="142.08246888888888">
<ele>113</ele>
</trkpt>
<trkpt lat="43.68864111111111" lon="142.08246888888888">
<ele>113</ele>
</trkpt>
<trkpt lat="43.68821805555555" lon="142.07797694444446">
<ele>98</ele>
</trkpt>
<trkpt lat="43.688158888888886" lon="142.07780194444445">
<ele>98</ele>
</trkpt>
<trkpt lat="43.688158888888886" lon="142.07780194444445">
<ele>98</ele>
</trkpt>
<trkpt lat="43.68815583333333" lon="142.07774">
<ele>98</ele>
</trkpt>
<trkpt lat="43.68815277777778" lon="142.07767805555557">
<ele>98</ele>
</trkpt>
<trkpt lat="43.68814972222222" lon="142.0776161111111">
<ele>98</ele>
</trkpt>
<trkpt lat="43.68814666666667" lon="142.07755416666666">
<ele>99</ele>
</trkpt>
<trkpt lat="43.68814638888889" lon="142.07755083333333">
<ele>99</ele>
</trkpt>
<trkpt lat="43.68814638888889" lon="142.07755083333333">
<ele>99</ele>
</trkpt>
<trkpt lat="43.688116111111114" lon="142.0775052777778">
<ele>99</ele>
</trkpt>
<trkpt lat="43.68808555555555" lon="142.07745972222222">
<ele>98</ele>
</trkpt>
<trkpt lat="43.688055" lon="142.07741416666667">
<ele>99</ele>
</trkpt>
<trkpt lat="43.688024444444444" lon="142.0773686111111">
<ele>99</ele>
</trkpt>
<trkpt lat="43.68799388888889" lon="142.07732305555555">
<ele>98</ele>
</trkpt>
<trkpt lat="43.687963333333336" lon="142.0772775">
<ele>98</ele>
</trkpt>
<trkpt lat="43.687932777777775" lon="142.07723194444443">
<ele>98</ele>
</trkpt>
<trkpt lat="43.68790222222222" lon="142.0771863888889">
<ele>99</ele>
</trkpt>
<trkpt lat="43.687871666666666" lon="142.07714083333335">
<ele>98</ele>
</trkpt>
<trkpt lat="43.68784111111111" lon="142.07709527777777">
<ele>99</ele>
</trkpt>
<trkpt lat="43.68781055555556" lon="142.07704972222223">
<ele>99</ele>
</trkpt>
<trkpt lat="43.68778" lon="142.07700416666665">
<ele>99</ele>
</trkpt>
<trkpt lat="43.68774944444444" lon="142.0769586111111">
<ele>99</ele>
</trkpt>
<trkpt lat="43.68771888888889" lon="142.07691333333332">
<ele>99</ele>
</trkpt>
<trkpt lat="43.687688333333334" lon="142.07686777777778">
<ele>99</ele>
</trkpt>
<trkpt lat="43.68765777777778" lon="142.07682222222223">
<ele>99</ele>
</trkpt>
<trkpt lat="43.687627222222225" lon="142.07677666666666">
<ele>99</ele>
</trkpt>
<trkpt lat="43.687596666666664" lon="142.07673111111112">
<ele>99</ele>
</trkpt>
<trkpt lat="43.68756638888889" lon="142.07668555555554">
<ele>99</ele>
</trkpt>
<trkpt lat="43.687535833333335" lon="142.07664">
<ele>99</ele>
</trkpt>
<trkpt lat="43.68750527777778" lon="142.07659444444445">
<ele>99</ele>
</trkpt>
<trkpt lat="43.68747472222222" lon="142.07654888888888">
<ele>99</ele>
</trkpt>
<trkpt lat="43.687444166666666" lon="142.07650333333333">
<ele>99</ele>
</trkpt>
<trkpt lat="43.68741361111111" lon="142.0764577777778">
<ele>99</ele>
</trkpt>
<trkpt lat="43.68738305555556" lon="142.07641222222222">
<ele>99</ele>
</trkpt>
<trkpt lat="43.687355277777776" lon="142.07637055555554">
<ele>99</ele>
</trkpt>
<trkpt lat="43.687355277777776" lon="142.07637055555554">
<ele>99</ele>
</trkpt>
<trkpt lat="43.68729805555556" lon="142.07637916666667">
<ele>99</ele>
</trkpt>
<trkpt lat="43.687240833333334" lon="142.0763875">
<ele>99</ele>
</trkpt>
<trkpt lat="43.68718361111111" lon="142.0763961111111">
<ele>99</ele>
</trkpt>
<trkpt lat="43.68712638888889" lon="142.07640444444445">
<ele>99</ele>
</trkpt>
<trkpt lat="43.68706944444445" lon="142.07641305555555">
<ele>99</ele>
</trkpt>
<trkpt lat="43.68701222222222" lon="142.0764213888889">
<ele>99</ele>
</trkpt>
<trkpt lat="43.686955" lon="142.07643">
<ele>99</ele>
</trkpt>
<trkpt lat="43.68689777777778" lon="142.07643833333333">
<ele>99</ele>
</trkpt>
<trkpt lat="43.686840555555555" lon="142.07644694444446">
<ele>99</ele>
</trkpt>
<trkpt lat="43.68678361111111" lon="142.07645527777777">
<ele>99</ele>
</trkpt>
<trkpt lat="43.686726388888886" lon="142.0764638888889">
<ele>99</ele>
</trkpt>
<trkpt lat="43.68666916666667" lon="142.07647222222224">
<ele>99</ele>
</trkpt>
<trkpt lat="43.686611944444444" lon="142.07648083333333">
<ele>99</ele>
</trkpt>
<trkpt lat="43.68655472222222" lon="142.07648916666668">
<ele>99</ele>
</trkpt>
<trkpt lat="43.68649777777778" lon="142.07649777777777">
<ele>99</ele>
</trkpt>
<trkpt lat="43.686440555555556" lon="142.07650611111112">
<ele>100</ele>
</trkpt>
<trkpt lat="43.68638333333333" lon="142.0765147222222">
<ele>100</ele>
</trkpt>
<trkpt lat="43.686326111111114" lon="142.07652305555555">
<ele>101</ele>
</trkpt>
<trkpt lat="43.68626888888889" lon="142.07653166666665">
<ele>101</ele>
</trkpt>
<trkpt lat="43.686211944444445" lon="142.07654">
<ele>101</ele>
</trkpt>
<trkpt lat="43.68615472222222" lon="142.07654861111112">
<ele>101</ele>
</trkpt>
<trkpt lat="43.6860975" lon="142.07655694444443">
<ele>102</ele>
</trkpt>
<trkpt lat="43.68604027777778" lon="142.07656555555556">
<ele>102</ele>
</trkpt>
<trkpt lat="43.68598305555555" lon="142.0765738888889">
<ele>103</ele>
</trkpt>
<trkpt lat="43.68592611111111" lon="142.0765825">
<ele>103</ele>
</trkpt>
<trkpt lat="43.68586888888889" lon="142.07659083333334">
<ele>104</ele>
</trkpt>
<trkpt lat="43.685811666666666" lon="142.07659944444444">
<ele>104</ele>
</trkpt>
<trkpt lat="43.68575444444444" lon="142.07660777777778">
<ele>105</ele>
</trkpt>
<trkpt lat="43.685697222222224" lon="142.07661638888888">
<ele>105</ele>
</trkpt>
<trkpt lat="43.68564027777778" lon="142.07662472222222">
<ele>106</ele>
</trkpt>
<trkpt lat="43.685583055555554" lon="142.07663333333332">
<ele>106</ele>
</trkpt>
<trkpt lat="43.68552583333334" lon="142.07664166666666">
<ele>107</ele>
</trkpt>
<trkpt lat="43.68546861111111" lon="142.0766502777778">
<ele>107</ele>
</trkpt>
<trkpt lat="43.68541138888889" lon="142.0766586111111">
<ele>108</ele>
</trkpt>
<trkpt lat="43.68535444444444" lon="142.07666722222223">
<ele>108</ele>
</trkpt>
<trkpt lat="43.685297222222225" lon="142.07667555555557">
<ele>110</ele>
</trkpt>
<trkpt lat="43.68524" lon="142.07668416666667">
<ele>110</ele>
</trkpt>
<trkpt lat="43.685182777777776" lon="142.0766925">
<ele>112</ele>
</trkpt>
<trkpt lat="43.685182777777776" lon="142.0766925">
<ele>112</ele>
</trkpt>
<trkpt lat="43.685182777777776" lon="142.0766925">
<ele>112</ele>
</trkpt>
<trkpt lat="43.685139166666666" lon="142.07667777777777">
<ele>112</ele>
</trkpt>
<trkpt lat="43.685095555555556" lon="142.07666277777778">
<ele>114</ele>
</trkpt>
<trkpt lat="43.685051944444446" lon="142.07664805555555">
<ele>114</ele>
</trkpt>
<trkpt lat="43.685008333333336" lon="142.07663333333332">
<ele>114</ele>
</trkpt>
<trkpt lat="43.68496472222222" lon="142.07661833333333">
<ele>115</ele>
</trkpt>
<trkpt lat="43.68492111111111" lon="142.07660361111112">
<ele>115</ele>
</trkpt>
<trkpt lat="43.6848775" lon="142.0765888888889">
<ele>116</ele>
</trkpt>
<trkpt lat="43.68483388888889" lon="142.0765738888889">
<ele>116</ele>
</trkpt>
<trkpt lat="43.68479027777778" lon="142.07655916666667">
<ele>116</ele>
</trkpt>
<trkpt lat="43.68474666666667" lon="142.07654444444444">
<ele>116</ele>
</trkpt>
<trkpt lat="43.68474055555556" lon="142.07654222222223">
<ele>116</ele>
</trkpt>
<trkpt lat="43.68474055555556" lon="142.07654222222223">
<ele>116</ele>
</trkpt>
<trkpt lat="43.68470611111111" lon="142.07650222222222">
<ele>116</ele>
</trkpt>
<trkpt lat="43.684671944444446" lon="142.07646222222223">
<ele>116</ele>
</trkpt>
<trkpt lat="43.6846375" lon="142.07642222222222">
<ele>116</ele>
</trkpt>
<trkpt lat="43.684603055555556" lon="142.07638222222224">
<ele>116</ele>
</trkpt>
<trkpt lat="43.68456888888889" lon="142.07634222222222">
<ele>116</ele>
</trkpt>
<trkpt lat="43.684534444444445" lon="142.0763022222222">
<ele>118</ele>
</trkpt>
<trkpt lat="43.6845" lon="142.07626222222223">
<ele>118</ele>
</trkpt>
<trkpt lat="43.684465833333334" lon="142.0762222222222">
<ele>118</ele>
</trkpt>
<trkpt lat="43.684445833333335" lon="142.07619888888888">
<ele>119</ele>
</trkpt>
<trkpt lat="43.684445833333335" lon="142.07619888888888">
<ele>119</ele>
</trkpt>
<trkpt lat="43.68442666666667" lon="142.0761427777778">
<ele>121</ele>
</trkpt>
<trkpt lat="43.68440722222222" lon="142.07608666666667">
<ele>122</ele>
</trkpt>
<trkpt lat="43.68438805555556" lon="142.07603055555555">
<ele>122</ele>
</trkpt>
<trkpt lat="43.68436888888889" lon="142.07597444444446">
<ele>122</ele>
</trkpt>
<trkpt lat="43.68434972222222" lon="142.07591833333333">
<ele>122</ele>
</trkpt>
<trkpt lat="43.684330277777775" lon="142.0758622222222">
<ele>122</ele>
</trkpt>
<trkpt lat="43.684311111111114" lon="142.07580611111112">
<ele>122</ele>
</trkpt>
<trkpt lat="43.684291944444446" lon="142.07575">
<ele>122</ele>
</trkpt>
<trkpt lat="43.68427277777778" lon="142.07569388888888">
<ele>122</ele>
</trkpt>
<trkpt lat="43.68425361111111" lon="142.07563777777779">
<ele>121</ele>
</trkpt>
<trkpt lat="43.68423416666667" lon="142.07558166666666">
<ele>121</ele>
</trkpt>
<trkpt lat="43.684215" lon="142.07552555555554">
<ele>122</ele>
</trkpt>
<trkpt lat="43.684195833333334" lon="142.07546916666666">
<ele>122</ele>
</trkpt>
<trkpt lat="43.684176666666666" lon="142.07541305555554">
<ele>121</ele>
</trkpt>
<trkpt lat="43.68416638888889" lon="142.0753836111111">
<ele>121</ele>
</trkpt>
<trkpt lat="43.68416638888889" lon="142.0753836111111">
<ele>121</ele>
</trkpt>
<trkpt lat="43.68411583333334" lon="142.07530277777778">
<ele>121</ele>
</trkpt>
<trkpt lat="43.684065277777776" lon="142.0752222222222">
<ele>122</ele>
</trkpt>
<trkpt lat="43.68401444444444" lon="142.07514138888888">
<ele>122</ele>
</trkpt>
<trkpt lat="43.68396388888889" lon="142.07506055555555">
<ele>122</ele>
</trkpt>
<trkpt lat="43.68391333333334" lon="142.07498">
<ele>121</ele>
</trkpt>
<trkpt lat="43.683862777777776" lon="142.07489916666665">
<ele>123</ele>
</trkpt>
<trkpt lat="43.68381194444444" lon="142.07481833333333">
<ele>122</ele>
</trkpt>
<trkpt lat="43.68376138888889" lon="142.0747375">
<ele>123</ele>
</trkpt>
<trkpt lat="43.683710833333336" lon="142.07465694444446">
<ele>121</ele>
</trkpt>
<trkpt lat="43.68366" lon="142.0745761111111">
<ele>123</ele>
</trkpt>
<trkpt lat="43.68360944444444" lon="142.07449527777777">
<ele>122</ele>
</trkpt>
<trkpt lat="43.68355888888889" lon="142.07441472222223">
<ele>121</ele>
</trkpt>
<trkpt lat="43.683508333333336" lon="142.0743338888889">
<ele>122</ele>
</trkpt>
<trkpt lat="43.6834575" lon="142.07425305555554">
<ele>121</ele>
</trkpt>
<trkpt lat="43.68340694444444" lon="142.0741725">
<ele>121</ele>
</trkpt>
<trkpt lat="43.68335638888889" lon="142.07409166666667">
<ele>120</ele>
</trkpt>
<trkpt lat="43.683305555555556" lon="142.07401083333335">
<ele>122</ele>
</trkpt>
<trkpt lat="43.683255" lon="142.07393027777778">
<ele>121</ele>
</trkpt>
<trkpt lat="43.68320444444444" lon="142.07384944444445">
<ele>121</ele>
</trkpt>
<trkpt lat="43.68320444444444" lon="142.07384944444445">
<ele>121</ele>
</trkpt>
<trkpt lat="43.68318138888889" lon="142.0737961111111">
<ele>121</ele>
</trkpt>
<trkpt lat="43.68315805555556" lon="142.07374277777777">
<ele>121</ele>
</trkpt>
<trkpt lat="43.683135" lon="142.0736897222222">
<ele>121</ele>
</trkpt>
<trkpt lat="43.68311194444444" lon="142.0736363888889">
<ele>120</ele>
</trkpt>
<trkpt lat="43.68308888888889" lon="142.07358305555556">
<ele>122</ele>
</trkpt>
<trkpt lat="43.68306583333333" lon="142.07352972222222">
<ele>122</ele>
</trkpt>
<trkpt lat="43.6830425" lon="142.07347666666666">
<ele>122</ele>
</trkpt>
<trkpt lat="43.68304138888889" lon="142.07347388888888">
<ele>122</ele>
</trkpt>
<trkpt lat="43.68304138888889" lon="142.07347388888888">
<ele>122</ele>
</trkpt>
<trkpt lat="43.6829375" lon="142.07349027777778">
<ele>123</ele>
</trkpt>
<trkpt lat="43.682833611111114" lon="142.07350666666667">
<ele>124</ele>
</trkpt>
<trkpt lat="43.68273" lon="142.07352305555557">
<ele>125</ele>
</trkpt>
<trkpt lat="43.68262611111111" lon="142.07353944444444">
<ele>127</ele>
</trkpt>
<trkpt lat="43.682522222222225" lon="142.07355583333333">
<ele>128</ele>
</trkpt>
<trkpt lat="43.68241833333333" lon="142.07357222222223">
<ele>130</ele>
</trkpt>
<trkpt lat="43.682314444444444" lon="142.07358861111112">
<ele>131</ele>
</trkpt>
<trkpt lat="43.68221055555556" lon="142.073605">
<ele>132</ele>
</trkpt>
<trkpt lat="43.68210666666667" lon="142.07362138888888">
<ele>133</ele>
</trkpt>
<trkpt lat="43.682002777777775" lon="142.07363805555556">
<ele>133</ele>
</trkpt>
<trkpt lat="43.68189888888889" lon="142.07365444444446">
<ele>134</ele>
</trkpt>
<trkpt lat="43.681795" lon="142.07367083333332">
<ele>136</ele>
</trkpt>
<trkpt lat="43.681691388888886" lon="142.07368722222222">
<ele>137</ele>
</trkpt>
<trkpt lat="43.6815875" lon="142.0737036111111">
<ele>138</ele>
</trkpt>
<trkpt lat="43.68148361111111" lon="142.07372">
<ele>139</ele>
</trkpt>
<trkpt lat="43.681379722222225" lon="142.07373638888888">
<ele>140</ele>
</trkpt>
<trkpt lat="43.68127583333333" lon="142.07375277777777">
<ele>141</ele>
</trkpt>
<trkpt lat="43.68117194444444" lon="142.07376916666666">
<ele>142</ele>
</trkpt>
<trkpt lat="43.681068055555556" lon="142.07378555555556">
<ele>144</ele>
</trkpt>
<trkpt lat="43.68096416666667" lon="142.07380194444445">
<ele>144</ele>
</trkpt>
<trkpt lat="43.680860277777775" lon="142.07381833333332">
<ele>145</ele>
</trkpt>
<trkpt lat="43.68075638888889" lon="142.07383472222222">
<ele>146</ele>
</trkpt>
<trkpt lat="43.68065277777778" lon="142.0738511111111">
<ele>147</ele>
</trkpt>
<trkpt lat="43.680548888888886" lon="142.0738675">
<ele>149</ele>
</trkpt>
<trkpt lat="43.680445" lon="142.0738838888889">
<ele>149</ele>
</trkpt>
<trkpt lat="43.68034111111111" lon="142.07390027777777">
<ele>151</ele>
</trkpt>
<trkpt lat="43.680237222222225" lon="142.07391666666666">
<ele>152</ele>
</trkpt>
<trkpt lat="43.68013333333333" lon="142.07393333333334">
<ele>152</ele>
</trkpt>
<trkpt lat="43.68002944444444" lon="142.0739497222222">
<ele>153</ele>
</trkpt>
<trkpt lat="43.679925555555556" lon="142.0739661111111">
<ele>154</ele>
</trkpt>
<trkpt lat="43.67982166666667" lon="142.0739825">
<ele>155</ele>
</trkpt>
<trkpt lat="43.679717777777775" lon="142.0739988888889">
<ele>155</ele>
</trkpt>
<trkpt lat="43.67961416666667" lon="142.0740152777778">
<ele>157</ele>
</trkpt>
<trkpt lat="43.67951027777778" lon="142.07403166666666">
<ele>158</ele>
</trkpt>
<trkpt lat="43.679406388888886" lon="142.07404805555555">
<ele>159</ele>
</trkpt>
<trkpt lat="43.6793025" lon="142.07406444444445">
<ele>160</ele>
</trkpt>
<trkpt lat="43.67919861111111" lon="142.07408083333334">
<ele>162</ele>
</trkpt>
<trkpt lat="43.679094722222224" lon="142.07409722222224">
<ele>163</ele>
</trkpt>
<trkpt lat="43.679094722222224" lon="142.07409722222224">
<ele>163</ele>
</trkpt>
<trkpt lat="43.679094722222224" lon="142.07409722222224">
<ele>163</ele>
</trkpt>
<trkpt lat="43.67905944444445" lon="142.07405888888889">
<ele>163</ele>
</trkpt>
<trkpt lat="43.67902388888889" lon="142.07402083333332">
<ele>163</ele>
</trkpt>
<trkpt lat="43.67898861111111" lon="142.0739825">
<ele>164</ele>
</trkpt>
<trkpt lat="43.67895305555555" lon="142.07394416666668">
<ele>164</ele>
</trkpt>
<trkpt lat="43.67891777777778" lon="142.0739061111111">
<ele>164</ele>
</trkpt>
<trkpt lat="43.6788825" lon="142.07386777777776">
<ele>165</ele>
</trkpt>
<trkpt lat="43.678846944444444" lon="142.07382972222223">
<ele>165</ele>
</trkpt>
<trkpt lat="43.67881166666667" lon="142.07379138888888">
<ele>165</ele>
</trkpt>
<trkpt lat="43.67877611111111" lon="142.07375305555556">
<ele>166</ele>
</trkpt>
<trkpt lat="43.678740833333336" lon="142.073715">
<ele>166</ele>
</trkpt>
<trkpt lat="43.67870527777778" lon="142.07367666666667">
<ele>166</ele>
</trkpt>
<trkpt lat="43.67867" lon="142.07363833333332">
<ele>166</ele>
</trkpt>
<trkpt lat="43.67863472222222" lon="142.07360027777779">
<ele>167</ele>
</trkpt>
<trkpt lat="43.678599166666665" lon="142.07356194444444">
<ele>167</ele>
</trkpt>
<trkpt lat="43.678598055555554" lon="142.07356083333335">
<ele>167</ele>
</trkpt>
<trkpt lat="43.678598055555554" lon="142.07356083333335">
<ele>167</ele>
</trkpt>
<trkpt lat="43.678574166666664" lon="142.07350833333334">
<ele>167</ele>
</trkpt>
<trkpt lat="43.67855027777778" lon="142.07345583333333">
<ele>168</ele>
</trkpt>
<trkpt lat="43.67852611111111" lon="142.07340333333335">
<ele>169</ele>
</trkpt>
<trkpt lat="43.67850222222222" lon="142.07335083333334">
<ele>169</ele>
</trkpt>
<trkpt lat="43.67847833333333" lon="142.07329833333333">
<ele>169</ele>
</trkpt>
<trkpt lat="43.67845416666667" lon="142.07324583333335">
<ele>169</ele>
</trkpt>
<trkpt lat="43.67843027777778" lon="142.07319333333334">
<ele>172</ele>
</trkpt>
<trkpt lat="43.67841194444444" lon="142.07315305555557">
<ele>172</ele>
</trkpt>
<trkpt lat="43.67841194444444" lon="142.07315305555557">
<ele>172</ele>
</trkpt>
<trkpt lat="43.67843222222222" lon="142.07309777777778">
<ele>172</ele>
</trkpt>
<trkpt lat="43.6784525" lon="142.0730425">
<ele>171</ele>
</trkpt>
<trkpt lat="43.67847305555556" lon="142.07298694444444">
<ele>172</ele>
</trkpt>
<trkpt lat="43.678493333333336" lon="142.07293166666668">
<ele>172</ele>
</trkpt>
<trkpt lat="43.678513611111114" lon="142.0728763888889">
<ele>174</ele>
</trkpt>
<trkpt lat="43.678534166666665" lon="142.07282083333334">
<ele>174</ele>
</trkpt>
<trkpt lat="43.678554444444444" lon="142.07276555555555">
<ele>175</ele>
</trkpt>
<trkpt lat="43.67857472222222" lon="142.0727102777778">
<ele>173</ele>
</trkpt>
<trkpt lat="43.678595" lon="142.072655">
<ele>175</ele>
</trkpt>
<trkpt lat="43.67861555555555" lon="142.07259944444445">
<ele>175</ele>
</trkpt>
<trkpt lat="43.67863583333333" lon="142.07254416666666">
<ele>177</ele>
</trkpt>
<trkpt lat="43.67865611111111" lon="142.0724888888889">
<ele>177</ele>
</trkpt>
<trkpt lat="43.67867666666667" lon="142.07243333333332">
<ele>177</ele>
</trkpt>
<trkpt lat="43.67869694444445" lon="142.07237805555556">
<ele>177</ele>
</trkpt>
<trkpt lat="43.678717222222225" lon="142.07232277777777">
<ele>179</ele>
</trkpt>
<trkpt lat="43.6787375" lon="142.07226722222222">
<ele>179</ele>
</trkpt>
<trkpt lat="43.678758055555555" lon="142.07221194444443">
<ele>180</ele>
</trkpt>
<trkpt lat="43.678778333333334" lon="142.07215666666667">
<ele>178</ele>
</trkpt>
<trkpt lat="43.67879861111111" lon="142.07210138888888">
<ele>180</ele>
</trkpt>
<trkpt lat="43.67881916666666" lon="142.07204583333333">
<ele>180</ele>
</trkpt>
<trkpt lat="43.67883944444444" lon="142.07199055555554">
<ele>181</ele>
</trkpt>
<trkpt lat="43.67885972222222" lon="142.07193527777778">
<ele>181</ele>
</trkpt>
<trkpt lat="43.6788775" lon="142.07188722222222">
<ele>181</ele>
</trkpt>
<trkpt lat="43.6788775" lon="142.07188722222222">
<ele>181</ele>
</trkpt>
<trkpt lat="43.6788725" lon="142.07182527777778">
<ele>181</ele>
</trkpt>
<trkpt lat="43.6788675" lon="142.07176361111112">
<ele>182</ele>
</trkpt>
<trkpt lat="43.6788625" lon="142.07170194444444">
<ele>182</ele>
</trkpt>
<trkpt lat="43.6788575" lon="142.0716402777778">
<ele>182</ele>
</trkpt>
<trkpt lat="43.67885277777778" lon="142.07157833333332">
<ele>182</ele>
</trkpt>
<trkpt lat="43.678847777777776" lon="142.07151666666667">
<ele>182</ele>
</trkpt>
<trkpt lat="43.67884277777778" lon="142.071455">
<ele>182</ele>
</trkpt>
<trkpt lat="43.67883777777778" lon="142.07139333333333">
<ele>182</ele>
</trkpt>
<trkpt lat="43.67883277777778" lon="142.07133166666668">
<ele>181</ele>
</trkpt>
<trkpt lat="43.67882777777778" lon="142.0712697222222">
<ele>181</ele>
</trkpt>
<trkpt lat="43.678822777777775" lon="142.07120805555556">
<ele>181</ele>
</trkpt>
<trkpt lat="43.67881805555555" lon="142.07114638888888">
<ele>181</ele>
</trkpt>
<trkpt lat="43.67881527777778" lon="142.07111472222223">
<ele>181</ele>
</trkpt>
<trkpt lat="43.67881527777778" lon="142.07111472222223">
<ele>181</ele>
</trkpt>
<trkpt lat="43.67877611111111" lon="142.07108416666668">
<ele>181</ele>
</trkpt>
<trkpt lat="43.678736944444445" lon="142.07105388888888">
<ele>181</ele>
</trkpt>
<trkpt lat="43.67869777777778" lon="142.07102361111112">
<ele>181</ele>
</trkpt>
<trkpt lat="43.67865861111111" lon="142.07099333333332">
<ele>180</ele>
</trkpt>
<trkpt lat="43.67861944444444" lon="142.07096277777777">
<ele>180</ele>
</trkpt>
<trkpt lat="43.678580277777776" lon="142.0709325">
<ele>180</ele>
</trkpt>
<trkpt lat="43.67854111111111" lon="142.07090222222223">
<ele>182</ele>
</trkpt>
<trkpt lat="43.67850194444444" lon="142.07087194444443">
<ele>181</ele>
</trkpt>
<trkpt lat="43.678462777777774" lon="142.07084138888888">
<ele>181</ele>
</trkpt>
<trkpt lat="43.6784275" lon="142.07081416666668">
<ele>183</ele>
</trkpt>
<trkpt lat="43.6784275" lon="142.07081416666668">
<ele>183</ele>
</trkpt>
<trkpt lat="43.678534722222224" lon="142.07079666666667">
<ele>181</ele>
</trkpt>
<trkpt lat="43.67864222222222" lon="142.07077916666665">
<ele>179</ele>
</trkpt>
<trkpt lat="43.67874972222222" lon="142.07076166666667">
<ele>177</ele>
</trkpt>
<trkpt lat="43.67885694444445" lon="142.07074416666666">
<ele>177</ele>
</trkpt>
<trkpt lat="43.678964444444446" lon="142.07072666666667">
<ele>176</ele>
</trkpt>
<trkpt lat="43.679071944444445" lon="142.07070916666666">
<ele>175</ele>
</trkpt>
<trkpt lat="43.679179166666664" lon="142.07069166666668">
<ele>174</ele>
</trkpt>
<trkpt lat="43.67928666666667" lon="142.07067416666666">
<ele>174</ele>
</trkpt>
<trkpt lat="43.67939416666667" lon="142.07065666666668">
<ele>172</ele>
</trkpt>
<trkpt lat="43.67950138888889" lon="142.07063916666667">
<ele>170</ele>
</trkpt>
<trkpt lat="43.679608888888886" lon="142.07062166666665">
<ele>168</ele>
</trkpt>
<trkpt lat="43.67971638888889" lon="142.07060416666667">
<ele>168</ele>
</trkpt>
<trkpt lat="43.67982361111111" lon="142.07058666666666">
<ele>168</ele>
</trkpt>
<trkpt lat="43.67993111111111" lon="142.07056916666667">
<ele>167</ele>
</trkpt>
<trkpt lat="43.680038333333336" lon="142.07055166666666">
<ele>165</ele>
</trkpt>
<trkpt lat="43.680145833333334" lon="142.07053416666668">
<ele>164</ele>
</trkpt>
<trkpt lat="43.68025333333333" lon="142.07051666666666">
<ele>164</ele>
</trkpt>
<trkpt lat="43.68036055555555" lon="142.07049916666668">
<ele>163</ele>
</trkpt>
<trkpt lat="43.68046805555556" lon="142.07048166666667">
<ele>161</ele>
</trkpt>
<trkpt lat="43.680575555555556" lon="142.07046416666665">
<ele>159</ele>
</trkpt>
<trkpt lat="43.680682777777776" lon="142.07044666666667">
<ele>158</ele>
</trkpt>
<trkpt lat="43.68079027777778" lon="142.07042916666666">
<ele>157</ele>
</trkpt>
<trkpt lat="43.68089777777778" lon="142.07041166666667">
<ele>156</ele>
</trkpt>
<trkpt lat="43.681005" lon="142.07039416666666">
<ele>154</ele>
</trkpt>
<trkpt lat="43.6811125" lon="142.07037666666668">
<ele>153</ele>
</trkpt>
<trkpt lat="43.68122" lon="142.07035916666666">
<ele>153</ele>
</trkpt>
<trkpt lat="43.68132722222222" lon="142.07034166666668">
<ele>152</ele>
</trkpt>
<trkpt lat="43.68143472222222" lon="142.07032416666667">
<ele>150</ele>
</trkpt>
<trkpt lat="43.68154222222222" lon="142.07030666666665">
<ele>149</ele>
</trkpt>
<trkpt lat="43.681649444444446" lon="142.07028916666667">
<ele>147</ele>
</trkpt>
<trkpt lat="43.681756944444444" lon="142.07027166666666">
<ele>146</ele>
</trkpt>
<trkpt lat="43.68186444444444" lon="142.07025416666667">
<ele>144</ele>
</trkpt>
<trkpt lat="43.68197166666667" lon="142.07023666666666">
<ele>143</ele>
</trkpt>
<trkpt lat="43.68207916666667" lon="142.07021916666667">
<ele>141</ele>
</trkpt>
<trkpt lat="43.68218638888889" lon="142.07020166666666">
<ele>139</ele>
</trkpt>
<trkpt lat="43.682293888888886" lon="142.07018416666668">
<ele>137</ele>
</trkpt>
<trkpt lat="43.68240138888889" lon="142.07016666666667">
<ele>135</ele>
</trkpt>
<trkpt lat="43.68250861111111" lon="142.0701488888889">
<ele>134</ele>
</trkpt>
<trkpt lat="43.68250861111111" lon="142.0701488888889">
<ele>134</ele>
</trkpt>
<trkpt lat="43.682497222222224" lon="142.07001527777777">
<ele>133</ele>
</trkpt>
<trkpt lat="43.68248583333333" lon="142.0698813888889">
<ele>133</ele>
</trkpt>
<trkpt lat="43.682474444444445" lon="142.0697475">
<ele>132</ele>
</trkpt>
<trkpt lat="43.68246305555556" lon="142.06961361111112">
<ele>132</ele>
</trkpt>
<trkpt lat="43.682451666666665" lon="142.06948">
<ele>131</ele>
</trkpt>
<trkpt lat="43.68244" lon="142.06934611111112">
<ele>132</ele>
</trkpt>
<trkpt lat="43.68242861111111" lon="142.06921222222223">
<ele>129</ele>
</trkpt>
<trkpt lat="43.68241722222222" lon="142.06907833333332">
<ele>129</ele>
</trkpt>
<trkpt lat="43.682405833333334" lon="142.06894444444444">
<ele>128</ele>
</trkpt>
<trkpt lat="43.68239444444445" lon="142.06881083333334">
<ele>127</ele>
</trkpt>
<trkpt lat="43.682383055555555" lon="142.06867694444443">
<ele>127</ele>
</trkpt>
<trkpt lat="43.68237138888889" lon="142.06854305555555">
<ele>127</ele>
</trkpt>
<trkpt lat="43.68236" lon="142.06840916666667">
<ele>126</ele>
</trkpt>
<trkpt lat="43.68234861111111" lon="142.06827555555554">
<ele>126</ele>
</trkpt>
<trkpt lat="43.68233722222222" lon="142.06814166666666">
<ele>126</ele>
</trkpt>
<trkpt lat="43.68232583333333" lon="142.06800777777778">
<ele>127</ele>
</trkpt>
<trkpt lat="43.682314444444444" lon="142.0678738888889">
<ele>127</ele>
</trkpt>
<trkpt lat="43.68230277777778" lon="142.06774">
<ele>127</ele>
</trkpt>
<trkpt lat="43.68229138888889" lon="142.0676063888889">
<ele>128</ele>
</trkpt>
<trkpt lat="43.68228" lon="142.0674725">
<ele>128</ele>
</trkpt>
<trkpt lat="43.68226861111111" lon="142.0673386111111">
<ele>128</ele>
</trkpt>
<trkpt lat="43.68225722222222" lon="142.06720472222221">
<ele>128</ele>
</trkpt>
<trkpt lat="43.68224583333333" lon="142.06707111111112">
<ele>129</ele>
</trkpt>
<trkpt lat="43.68223444444445" lon="142.06693722222224">
<ele>129</ele>
</trkpt>
<trkpt lat="43.68222277777778" lon="142.06680333333333">
<ele>129</ele>
</trkpt>
<trkpt lat="43.68221138888889" lon="142.06666944444444">
<ele>129</ele>
</trkpt>
<trkpt lat="43.6822" lon="142.06653555555556">
<ele>130</ele>
</trkpt>
<trkpt lat="43.68218861111111" lon="142.06640194444444">
<ele>131</ele>
</trkpt>
<trkpt lat="43.68217722222222" lon="142.06626805555555">
<ele>132</ele>
</trkpt>
<trkpt lat="43.682165833333336" lon="142.06613416666667">
<ele>133</ele>
</trkpt>
<trkpt lat="43.68215416666666" lon="142.0660002777778">
<ele>132</ele>
</trkpt>
<trkpt lat="43.68214277777778" lon="142.06586638888888">
<ele>130</ele>
</trkpt>
<trkpt lat="43.68213138888889" lon="142.06573277777778">
<ele>128</ele>
</trkpt>
<trkpt lat="43.68212" lon="142.0655988888889">
<ele>125</ele>
</trkpt>
<trkpt lat="43.68210861111111" lon="142.065465">
<ele>128</ele>
</trkpt>
<trkpt lat="43.682097222222225" lon="142.0653311111111">
<ele>125</ele>
</trkpt>
<trkpt lat="43.68208555555555" lon="142.0651975">
<ele>123</ele>
</trkpt>
<trkpt lat="43.682074166666666" lon="142.0650636111111">
<ele>122</ele>
</trkpt>
<trkpt lat="43.68203388888889" lon="142.06506611111112">
<ele>124</ele>
</trkpt>
<trkpt lat="43.68201805555555" lon="142.06451611111112">
<ele>121</ele>
</trkpt>
<trkpt lat="43.68210111111111" lon="142.0642161111111">
<ele>120</ele>
</trkpt>
<trkpt lat="43.682566944444446" lon="142.06314111111112">
<ele>117</ele>
</trkpt>
<trkpt lat="43.68259194444445" lon="142.06291611111112">
<ele>116</ele>
</trkpt>
<trkpt lat="43.68259111111111" lon="142.06287805555556">
<ele>116</ele>
</trkpt>
<trkpt lat="43.68259111111111" lon="142.06287805555556">
<ele>116</ele>
</trkpt>
<trkpt lat="43.68255888888889" lon="142.06180388888887">
<ele>112</ele>
</trkpt>
<trkpt lat="43.68245888888889" lon="142.06110388888888">
<ele>110</ele>
</trkpt>
<trkpt lat="43.68232611111111" lon="142.0605911111111">
<ele>112</ele>
</trkpt>
<trkpt lat="43.68217611111111" lon="142.06017888888888">
<ele>112</ele>
</trkpt>
<trkpt lat="43.68175111111111" lon="142.05926694444443">
<ele>113</ele>
</trkpt>
<trkpt lat="43.681601111111114" lon="142.0587788888889">
<ele>111</ele>
</trkpt>
<trkpt lat="43.68150111111111" lon="142.05834194444444">
<ele>108</ele>
</trkpt>
<trkpt lat="43.68102611111111" lon="142.05574194444443">
<ele>101</ele>
</trkpt>
<trkpt lat="43.680793055555554" lon="142.05391805555556">
<ele>95</ele>
</trkpt>
<trkpt lat="43.68067611111111" lon="142.05324194444444">
<ele>92</ele>
</trkpt>
<trkpt lat="43.68064694444445" lon="142.0531761111111">
<ele>92</ele>
</trkpt>
<trkpt lat="43.68064694444445" lon="142.0531761111111">
<ele>92</ele>
</trkpt>
<trkpt lat="43.68053388888889" lon="142.05291805555555">
<ele>91</ele>
</trkpt>
<trkpt lat="43.68008388888889" lon="142.05201805555555">
<ele>88</ele>
</trkpt>
<trkpt lat="43.67968388888889" lon="142.05048">
<ele>82</ele>
</trkpt>
<trkpt lat="43.67939194444445" lon="142.0494561111111">
<ele>79</ele>
</trkpt>
<trkpt lat="43.67939194444445" lon="142.0494561111111">
<ele>79</ele>
</trkpt>
<trkpt lat="43.67932611111111" lon="142.04936805555556">
<ele>78</ele>
</trkpt>
<trkpt lat="43.67923388888889" lon="142.04926805555556">
<ele>78</ele>
</trkpt>
<trkpt lat="43.67874194444445" lon="142.0490061111111">
<ele>78</ele>
</trkpt>
<trkpt lat="43.678626111111114" lon="142.04891805555556">
<ele>78</ele>
</trkpt>
<trkpt lat="43.67851805555556" lon="142.04873111111112">
<ele>77</ele>
</trkpt>
<trkpt lat="43.67742611111111" lon="142.04649305555554">
<ele>65</ele>
</trkpt>
<trkpt lat="43.677326111111114" lon="142.0462188888889">
<ele>65</ele>
</trkpt>
<trkpt lat="43.67725111111111" lon="142.0459561111111">
<ele>64</ele>
</trkpt>
<trkpt lat="43.67725111111111" lon="142.04579388888888">
<ele>64</ele>
</trkpt>
<trkpt lat="43.67724305555556" lon="142.0456311111111">
<ele>64</ele>
</trkpt>
<trkpt lat="43.677368055555554" lon="142.04455611111112">
<ele>62</ele>
</trkpt>
<trkpt lat="43.677393055555555" lon="142.04421888888888">
<ele>62</ele>
</trkpt>
<trkpt lat="43.677393055555555" lon="142.04421888888888">
<ele>62</ele>
</trkpt>
<trkpt lat="43.67733388888889" lon="142.04398111111112">
<ele>62</ele>
</trkpt>
<trkpt lat="43.67637611111111" lon="142.04181888888888">
<ele>65</ele>
</trkpt>
<trkpt lat="43.67600111111111" lon="142.04116888888888">
<ele>65</ele>
</trkpt>
<trkpt lat="43.67554305555556" lon="142.0406688888889">
<ele>66</ele>
</trkpt>
<trkpt lat="43.674683888888886" lon="142.03860694444444">
<ele>70</ele>
</trkpt>
<trkpt lat="43.674483888888886" lon="142.038145">
<ele>72</ele>
</trkpt>
<trkpt lat="43.67442611111111" lon="142.03782">
<ele>74</ele>
</trkpt>
<trkpt lat="43.67442805555556" lon="142.03780194444445">
<ele>74</ele>
</trkpt>
<trkpt lat="43.67442805555556" lon="142.03780194444445">
<ele>74</ele>
</trkpt>
<trkpt lat="43.674458888888886" lon="142.037545">
<ele>74</ele>
</trkpt>
<trkpt lat="43.67845888888889" lon="142.032445">
<ele>50</ele>
</trkpt>
<trkpt lat="43.678505" lon="142.0325511111111">
<ele>50</ele>
</trkpt>
<trkpt lat="43.678505" lon="142.0325511111111">
<ele>50</ele>
</trkpt>
<trkpt lat="43.67845888888889" lon="142.032445">
<ele>50</ele>
</trkpt>
<trkpt lat="43.67811694444445" lon="142.03170805555555">
<ele>50</ele>
</trkpt>
<trkpt lat="43.677816944444444" lon="142.031045">
<ele>50</ele>
</trkpt>
<trkpt lat="43.67624194444444" lon="142.02733305555554">
<ele>50</ele>
</trkpt>
<trkpt lat="43.67538388888889" lon="142.0253711111111">
<ele>48</ele>
</trkpt>
<trkpt lat="43.67510111111111" lon="142.02472111111112">
<ele>48</ele>
</trkpt>
<trkpt lat="43.674616944444445" lon="142.02359611111112">
<ele>47</ele>
</trkpt>
<trkpt lat="43.67353388888889" lon="142.0211711111111">
<ele>46</ele>
</trkpt>
<trkpt lat="43.67245888888889" lon="142.01792111111112">
<ele>44</ele>
</trkpt>
<trkpt lat="43.67230888888889" lon="142.0175461111111">
<ele>44</ele>
</trkpt>
<trkpt lat="43.671908888888886" lon="142.0167711111111">
<ele>45</ele>
</trkpt>
<trkpt lat="43.671841944444445" lon="142.01665888888888">
<ele>45</ele>
</trkpt>
<trkpt lat="43.671785" lon="142.01655694444443">
<ele>47</ele>
</trkpt>
<trkpt lat="43.671785" lon="142.01655694444443">
<ele>47</ele>
</trkpt>
<trkpt lat="43.671841944444445" lon="142.01665888888888">
<ele>45</ele>
</trkpt>
<trkpt lat="43.671908888888886" lon="142.0167711111111">
<ele>45</ele>
</trkpt>
<trkpt lat="43.67230888888889" lon="142.0175461111111">
<ele>44</ele>
</trkpt>
<trkpt lat="43.67245888888889" lon="142.01792111111112">
<ele>44</ele>
</trkpt>
<trkpt lat="43.67278611111111" lon="142.01891">
<ele>44</ele>
</trkpt>
<trkpt lat="43.67278611111111" lon="142.01891">
<ele>44</ele>
</trkpt>
<trkpt lat="43.67353388888889" lon="142.0211711111111">
<ele>46</ele>
</trkpt>
<trkpt lat="43.674616944444445" lon="142.02359611111112">
<ele>47</ele>
</trkpt>
<trkpt lat="43.67510111111111" lon="142.02472111111112">
<ele>48</ele>
</trkpt>
<trkpt lat="43.67538388888889" lon="142.0253711111111">
<ele>48</ele>
</trkpt>
<trkpt lat="43.67624194444444" lon="142.02733305555554">
<ele>50</ele>
</trkpt>
<trkpt lat="43.677816944444444" lon="142.031045">
<ele>50</ele>
</trkpt>
<trkpt lat="43.67811694444445" lon="142.03170805555555">
<ele>50</ele>
</trkpt>
<trkpt lat="43.67845888888889" lon="142.032445">
<ele>50</ele>
</trkpt>
<trkpt lat="43.679966944444445" lon="142.035895">
<ele>50</ele>
</trkpt>
<trkpt lat="43.68005" lon="142.03608194444445">
<ele>50</ele>
</trkpt>
<trkpt lat="43.681125" lon="142.03860694444444">
<ele>54</ele>
</trkpt>
<trkpt lat="43.681441944444444" lon="142.03933194444446">
<ele>55</ele>
</trkpt>
<trkpt lat="43.681533888888886" lon="142.0395438888889">
<ele>55</ele>
</trkpt>
<trkpt lat="43.683775" lon="142.0446061111111">
<ele>65</ele>
</trkpt>
<trkpt lat="43.68380805555555" lon="142.0447561111111">
<ele>65</ele>
</trkpt>
<trkpt lat="43.683975" lon="142.04506805555556">
<ele>66</ele>
</trkpt>
<trkpt lat="43.684133055555556" lon="142.04545611111112">
<ele>67</ele>
</trkpt>
<trkpt lat="43.68434194444445" lon="142.04586805555556">
<ele>68</ele>
</trkpt>
<trkpt lat="43.68438305555556" lon="142.04594305555557">
<ele>68</ele>
</trkpt>
<trkpt lat="43.68461694444444" lon="142.0462811111111">
<ele>69</ele>
</trkpt>
<trkpt lat="43.684716944444446" lon="142.0464161111111">
<ele>70</ele>
</trkpt>
<trkpt lat="43.684716944444446" lon="142.0464161111111">
<ele>70</ele>
</trkpt>
<trkpt lat="43.684783055555556" lon="142.0465061111111">
<ele>70</ele>
</trkpt>
<trkpt lat="43.684708055555554" lon="142.0466311111111">
<ele>70</ele>
</trkpt>
<trkpt lat="43.68463305555556" lon="142.0468561111111">
<ele>70</ele>
</trkpt>
<trkpt lat="43.68458305555556" lon="142.0470811111111">
<ele>71</ele>
</trkpt>
<trkpt lat="43.684558055555556" lon="142.0472061111111">
<ele>71</ele>
</trkpt>
<trkpt lat="43.68456694444444" lon="142.04734305555556">
<ele>72</ele>
</trkpt>
<trkpt lat="43.68456694444444" lon="142.04734305555556">
<ele>72</ele>
</trkpt>
<trkpt lat="43.68465" lon="142.04784305555555">
<ele>73</ele>
</trkpt>
<trkpt lat="43.68484194444444" lon="142.04906805555555">
<ele>77</ele>
</trkpt>
<trkpt lat="43.68495" lon="142.04973">
<ele>79</ele>
</trkpt>
<trkpt lat="43.684983055555556" lon="142.04994305555556">
<ele>79</ele>
</trkpt>
<trkpt lat="43.68526694444444" lon="142.05173">
<ele>81</ele>
</trkpt>
<trkpt lat="43.685275" lon="142.051805">
<ele>81</ele>
</trkpt>
<trkpt lat="43.685316944444445" lon="142.05201694444443">
<ele>81</ele>
</trkpt>
<trkpt lat="43.68553388888889" lon="142.05344194444444">
<ele>85</ele>
</trkpt>
<trkpt lat="43.68565" lon="142.05423">
<ele>89</ele>
</trkpt>
<trkpt lat="43.685716944444444" lon="142.05464194444446">
<ele>90</ele>
</trkpt>
<trkpt lat="43.685725" lon="142.05471694444444">
<ele>90</ele>
</trkpt>
<trkpt lat="43.68581694444445" lon="142.0553038888889">
<ele>91</ele>
</trkpt>
<trkpt lat="43.68587388888889" lon="142.05569111111112">
<ele>92</ele>
</trkpt>
<trkpt lat="43.68587388888889" lon="142.05569111111112">
<ele>92</ele>
</trkpt>
<trkpt lat="43.68588388888889" lon="142.0557538888889">
<ele>92</ele>
</trkpt>
<trkpt lat="43.68605888888889" lon="142.05690388888888">
<ele>94</ele>
</trkpt>
<trkpt lat="43.686075" lon="142.0569788888889">
<ele>94</ele>
</trkpt>
<trkpt lat="43.68610888888889" lon="142.05719194444444">
<ele>94</ele>
</trkpt>
<trkpt lat="43.68630888888889" lon="142.05854194444444">
<ele>96</ele>
</trkpt>
<trkpt lat="43.68633388888889" lon="142.05872888888888">
<ele>96</ele>
</trkpt>
<trkpt lat="43.68640888888889" lon="142.0590161111111">
<ele>96</ele>
</trkpt>
<trkpt lat="43.68646694444445" lon="142.05916611111113">
<ele>95</ele>
</trkpt>
<trkpt lat="43.68649194444444" lon="142.0592411111111">
<ele>94</ele>
</trkpt>
<trkpt lat="43.68715" lon="142.0604538888889">
<ele>88</ele>
</trkpt>
<trkpt lat="43.68723388888889" lon="142.0606038888889">
<ele>88</ele>
</trkpt>
<trkpt lat="43.688133055555554" lon="142.0621661111111">
<ele>89</ele>
</trkpt>
<trkpt lat="43.68839194444445" lon="142.0626038888889">
<ele>86</ele>
</trkpt>
<trkpt lat="43.688675" lon="142.0630911111111">
<ele>86</ele>
</trkpt>
<trkpt lat="43.688741944444445" lon="142.0632161111111">
<ele>86</ele>
</trkpt>
<trkpt lat="43.689283055555556" lon="142.06415305555555">
<ele>82</ele>
</trkpt>
<trkpt lat="43.689683055555555" lon="142.0648488888889">
<ele>80</ele>
</trkpt>
<trkpt lat="43.689683055555555" lon="142.0648488888889">
<ele>80</ele>
</trkpt>
<trkpt lat="43.6897" lon="142.06487805555557">
<ele>80</ele>
</trkpt>
<trkpt lat="43.689825" lon="142.06509111111112">
<ele>79</ele>
</trkpt>
<trkpt lat="43.690266944444446" lon="142.06587805555554">
<ele>75</ele>
</trkpt>
<trkpt lat="43.69043305555556" lon="142.06625305555556">
<ele>75</ele>
</trkpt>
<trkpt lat="43.69068305555555" lon="142.06666611111112">
<ele>73</ele>
</trkpt>
<trkpt lat="43.692225" lon="142.06925305555555">
<ele>64</ele>
</trkpt>
<trkpt lat="43.69253305555556" lon="142.069765">
<ele>66</ele>
</trkpt>
<trkpt lat="43.69376611111111" lon="142.07184">
<ele>71</ele>
</trkpt>
<trkpt lat="43.694075" lon="142.07234">
<ele>71</ele>
</trkpt>
<trkpt lat="43.694358055555554" lon="142.07282694444444">
<ele>71</ele>
</trkpt>
<trkpt lat="43.694808055555555" lon="142.07355194444443">
<ele>69</ele>
</trkpt>
<trkpt lat="43.694983055555554" lon="142.07391388888888">
<ele>68</ele>
</trkpt>
<trkpt lat="43.695258055555556" lon="142.0743388888889">
<ele>70</ele>
</trkpt>
<trkpt lat="43.6955" lon="142.0747388888889">
<ele>70</ele>
</trkpt>
<trkpt lat="43.69556111111111" lon="142.07484">
<ele>70</ele>
</trkpt>
<trkpt lat="43.69556111111111" lon="142.07484">
<ele>70</ele>
</trkpt>
<trkpt lat="43.69576611111111" lon="142.07517694444445">
<ele>68</ele>
</trkpt>
<trkpt lat="43.69591611111111" lon="142.0754388888889">
<ele>68</ele>
</trkpt>
<trkpt lat="43.696108055555555" lon="142.0757638888889">
<ele>69</ele>
</trkpt>
<trkpt lat="43.696333055555556" lon="142.0761388888889">
<ele>69</ele>
</trkpt>
<trkpt lat="43.696483055555554" lon="142.07638888888889">
<ele>69</ele>
</trkpt>
<trkpt lat="43.69704111111111" lon="142.07731388888888">
<ele>69</ele>
</trkpt>
<trkpt lat="43.69705" lon="142.0773388888889">
<ele>70</ele>
</trkpt>
<trkpt lat="43.69716611111111" lon="142.0775761111111">
<ele>70</ele>
</trkpt>
<trkpt lat="43.69725" lon="142.07778888888888">
<ele>70</ele>
</trkpt>
<trkpt lat="43.697275" lon="142.07786388888888">
<ele>70</ele>
</trkpt>
<trkpt lat="43.69745" lon="142.0784888888889">
<ele>70</ele>
</trkpt>
<trkpt lat="43.697541111111114" lon="142.0788261111111">
<ele>71</ele>
</trkpt>
<trkpt lat="43.697558055555554" lon="142.07890111111112">
<ele>72</ele>
</trkpt>
<trkpt lat="43.69785805555556" lon="142.0799761111111">
<ele>76</ele>
</trkpt>
<trkpt lat="43.697983055555554" lon="142.0804138888889">
<ele>77</ele>
</trkpt>
<trkpt lat="43.69818305555555" lon="142.0811138888889">
<ele>82</ele>
</trkpt>
<trkpt lat="43.698168055555556" lon="142.08112111111112">
<ele>82</ele>
</trkpt>
<trkpt lat="43.698168055555556" lon="142.08112111111112">
<ele>82</ele>
</trkpt>
<trkpt lat="43.69806527777778" lon="142.08118416666667">
<ele>82</ele>
</trkpt>
<trkpt lat="43.697962777777775" lon="142.08124722222223">
<ele>82</ele>
</trkpt>
<trkpt lat="43.69786" lon="142.0813102777778">
<ele>82</ele>
</trkpt>
<trkpt lat="43.6977575" lon="142.08137333333335">
<ele>83</ele>
</trkpt>
<trkpt lat="43.697654722222225" lon="142.08143638888887">
<ele>83</ele>
</trkpt>
<trkpt lat="43.69755222222222" lon="142.08149944444443">
<ele>84</ele>
</trkpt>
<trkpt lat="43.697449444444445" lon="142.0815625">
<ele>85</ele>
</trkpt>
<trkpt lat="43.69734694444445" lon="142.08162555555555">
<ele>85</ele>
</trkpt>
<trkpt lat="43.697244166666664" lon="142.0816886111111">
<ele>85</ele>
</trkpt>
<trkpt lat="43.69714166666667" lon="142.08175166666666">
<ele>85</ele>
</trkpt>
<trkpt lat="43.69703888888889" lon="142.08181472222222">
<ele>86</ele>
</trkpt>
<trkpt lat="43.696936388888886" lon="142.08187777777778">
<ele>86</ele>
</trkpt>
<trkpt lat="43.69683361111111" lon="142.08194083333333">
<ele>86</ele>
</trkpt>
<trkpt lat="43.69673083333333" lon="142.0820038888889">
<ele>87</ele>
</trkpt>
<trkpt lat="43.69662833333334" lon="142.08206694444445">
<ele>86</ele>
</trkpt>
<trkpt lat="43.69652555555555" lon="142.08213">
<ele>87</ele>
</trkpt>
<trkpt lat="43.696423055555556" lon="142.08219305555556">
<ele>87</ele>
</trkpt>
<trkpt lat="43.69632027777778" lon="142.08225611111112">
<ele>87</ele>
</trkpt>
<trkpt lat="43.696217777777775" lon="142.08231916666668">
<ele>87</ele>
</trkpt>
<trkpt lat="43.696115" lon="142.08238222222224">
<ele>88</ele>
</trkpt>
<trkpt lat="43.6960125" lon="142.08244527777777">
<ele>89</ele>
</trkpt>
<trkpt lat="43.695909722222225" lon="142.08250833333332">
<ele>90</ele>
</trkpt>
<trkpt lat="43.69580722222222" lon="142.08257138888888">
<ele>91</ele>
</trkpt>
<trkpt lat="43.695704444444445" lon="142.08263444444444">
<ele>91</ele>
</trkpt>
<trkpt lat="43.69560194444445" lon="142.0826975">
<ele>92</ele>
</trkpt>
<trkpt lat="43.695499166666664" lon="142.08276055555555">
<ele>91</ele>
</trkpt>
<trkpt lat="43.69539638888889" lon="142.0828236111111">
<ele>92</ele>
</trkpt>
<trkpt lat="43.69529388888889" lon="142.08288666666667">
<ele>91</ele>
</trkpt>
<trkpt lat="43.695191111111114" lon="142.08294972222222">
<ele>92</ele>
</trkpt>
<trkpt lat="43.69508861111111" lon="142.08301277777778">
<ele>92</ele>
</trkpt>
<trkpt lat="43.694985833333334" lon="142.08307583333334">
<ele>92</ele>
</trkpt>
<trkpt lat="43.69488333333334" lon="142.0831388888889">
<ele>92</ele>
</trkpt>
<trkpt lat="43.69478055555555" lon="142.08320194444445">
<ele>92</ele>
</trkpt>
<trkpt lat="43.694678055555556" lon="142.083265">
<ele>93</ele>
</trkpt>
<trkpt lat="43.69457527777778" lon="142.08332805555557">
<ele>92</ele>
</trkpt>
<trkpt lat="43.694472777777776" lon="142.0833911111111">
<ele>93</ele>
</trkpt>
<trkpt lat="43.69437" lon="142.08345416666666">
<ele>95</ele>
</trkpt>
<trkpt lat="43.6942675" lon="142.0835172222222">
<ele>96</ele>
</trkpt>
<trkpt lat="43.6942675" lon="142.0835172222222">
<ele>96</ele>
</trkpt>
<trkpt lat="43.6942675" lon="142.0835172222222">
<ele>96</ele>
</trkpt>
<trkpt lat="43.694224444444444" lon="142.0835361111111">
<ele>96</ele>
</trkpt>
<trkpt lat="43.694181666666665" lon="142.083555">
<ele>97</ele>
</trkpt>
<trkpt lat="43.69413888888889" lon="142.08357388888888">
<ele>98</ele>
</trkpt>
<trkpt lat="43.69409611111111" lon="142.08359277777777">
<ele>98</ele>
</trkpt>
<trkpt lat="43.694053333333336" lon="142.08361166666666">
<ele>98</ele>
</trkpt>
<trkpt lat="43.69401055555556" lon="142.08363055555554">
<ele>98</ele>
</trkpt>
<trkpt lat="43.69396777777778" lon="142.08364944444443">
<ele>99</ele>
</trkpt>
<trkpt lat="43.693925" lon="142.08366833333332">
<ele>99</ele>
</trkpt>
<trkpt lat="43.69388222222222" lon="142.0836872222222">
<ele>99</ele>
</trkpt>
<trkpt lat="43.69383944444444" lon="142.0837061111111">
<ele>99</ele>
</trkpt>
<trkpt lat="43.693796666666664" lon="142.083725">
<ele>99</ele>
</trkpt>
<trkpt lat="43.69375388888889" lon="142.08374388888888">
<ele>98</ele>
</trkpt>
<trkpt lat="43.693711111111114" lon="142.08376277777776">
<ele>98</ele>
</trkpt>
<trkpt lat="43.693668333333335" lon="142.08378166666665">
<ele>99</ele>
</trkpt>
<trkpt lat="43.693625555555556" lon="142.08380055555557">
<ele>98</ele>
</trkpt>
<trkpt lat="43.69358277777778" lon="142.08381944444446">
<ele>98</ele>
</trkpt>
<trkpt lat="43.69354" lon="142.08383833333335">
<ele>98</ele>
</trkpt>
<trkpt lat="43.69353805555556" lon="142.0838388888889">
<ele>98</ele>
</trkpt>
<trkpt lat="43.69353805555556" lon="142.0838388888889">
<ele>98</ele>
</trkpt>
<trkpt lat="43.69350222222222" lon="142.08387638888888">
<ele>98</ele>
</trkpt>
<trkpt lat="43.693466388888886" lon="142.0839138888889">
<ele>98</ele>
</trkpt>
<trkpt lat="43.69343055555556" lon="142.0839511111111">
<ele>98</ele>
</trkpt>
<trkpt lat="43.69339472222222" lon="142.08398861111112">
<ele>98</ele>
</trkpt>
<trkpt lat="43.69335888888889" lon="142.08402611111111">
<ele>98</ele>
</trkpt>
<trkpt lat="43.69332305555555" lon="142.08406333333335">
<ele>97</ele>
</trkpt>
<trkpt lat="43.693287222222224" lon="142.08410083333334">
<ele>97</ele>
</trkpt>
<trkpt lat="43.69325138888889" lon="142.08413833333333">
<ele>97</ele>
</trkpt>
<trkpt lat="43.693215277777774" lon="142.08417555555556">
<ele>97</ele>
</trkpt>
<trkpt lat="43.693179444444446" lon="142.08421305555555">
<ele>97</ele>
</trkpt>
<trkpt lat="43.69314361111111" lon="142.08425055555554">
<ele>97</ele>
</trkpt>
<trkpt lat="43.693107777777776" lon="142.08428777777777">
<ele>98</ele>
</trkpt>
<trkpt lat="43.69307194444445" lon="142.08432527777776">
<ele>98</ele>
</trkpt>
<trkpt lat="43.69303611111111" lon="142.08436277777778">
<ele>98</ele>
</trkpt>
<trkpt lat="43.69300027777778" lon="142.0844">
<ele>98</ele>
</trkpt>
<trkpt lat="43.69296444444444" lon="142.0844375">
<ele>98</ele>
</trkpt>
<trkpt lat="43.692928611111114" lon="142.0844747222222">
<ele>99</ele>
</trkpt>
<trkpt lat="43.69289277777778" lon="142.08451222222223">
<ele>99</ele>
</trkpt>
<trkpt lat="43.692856666666664" lon="142.08454972222222">
<ele>99</ele>
</trkpt>
<trkpt lat="43.692820833333336" lon="142.08458694444445">
<ele>99</ele>
</trkpt>
<trkpt lat="43.692785" lon="142.08462444444444">
<ele>99</ele>
</trkpt>
<trkpt lat="43.692749166666665" lon="142.08466194444443">
<ele>100</ele>
</trkpt>
<trkpt lat="43.69271333333333" lon="142.08469916666667">
<ele>101</ele>
</trkpt>
<trkpt lat="43.6926775" lon="142.08473666666666">
<ele>101</ele>
</trkpt>
<trkpt lat="43.69264166666667" lon="142.08477416666668">
<ele>102</ele>
</trkpt>
<trkpt lat="43.69260583333333" lon="142.08481138888888">
<ele>103</ele>
</trkpt>
<trkpt lat="43.692591666666665" lon="142.0848261111111">
<ele>103</ele>
</trkpt>
<trkpt lat="43.692591666666665" lon="142.0848261111111">
<ele>103</ele>
</trkpt>
<trkpt lat="43.6925475" lon="142.0848375">
<ele>104</ele>
</trkpt>
<trkpt lat="43.692503333333335" lon="142.0848488888889">
<ele>104</ele>
</trkpt>
<trkpt lat="43.692459444444445" lon="142.08486055555557">
<ele>104</ele>
</trkpt>
<trkpt lat="43.692415277777776" lon="142.08487194444444">
<ele>106</ele>
</trkpt>
<trkpt lat="43.692371111111115" lon="142.08488333333332">
<ele>106</ele>
</trkpt>
<trkpt lat="43.692326944444446" lon="142.08489472222223">
<ele>108</ele>
</trkpt>
<trkpt lat="43.69228277777778" lon="142.0849061111111">
<ele>108</ele>
</trkpt>
<trkpt lat="43.69223861111111" lon="142.08491777777778">
<ele>108</ele>
</trkpt>
<trkpt lat="43.692194444444446" lon="142.08492916666665">
<ele>109</ele>
</trkpt>
<trkpt lat="43.69215027777778" lon="142.08494055555556">
<ele>109</ele>
</trkpt>
<trkpt lat="43.69210611111111" lon="142.08495194444444">
<ele>110</ele>
</trkpt>
<trkpt lat="43.69206194444445" lon="142.08496333333332">
<ele>110</ele>
</trkpt>
<trkpt lat="43.69201777777778" lon="142.084975">
<ele>110</ele>
</trkpt>
<trkpt lat="43.69197361111111" lon="142.0849863888889">
<ele>111</ele>
</trkpt>
<trkpt lat="43.69192944444445" lon="142.08499777777777">
<ele>111</ele>
</trkpt>
<trkpt lat="43.69188527777778" lon="142.08500916666668">
<ele>112</ele>
</trkpt>
<trkpt lat="43.69184138888889" lon="142.08502055555556">
<ele>112</ele>
</trkpt>
<trkpt lat="43.69179722222222" lon="142.08503222222222">
<ele>112</ele>
</trkpt>
<trkpt lat="43.69175305555556" lon="142.0850436111111">
<ele>113</ele>
</trkpt>
<trkpt lat="43.69170888888889" lon="142.085055">
<ele>113</ele>
</trkpt>
<trkpt lat="43.69166472222222" lon="142.0850663888889">
<ele>113</ele>
</trkpt>
<trkpt lat="43.69162055555555" lon="142.08507805555556">
<ele>113</ele>
</trkpt>
<trkpt lat="43.69159888888889" lon="142.08508361111112">
<ele>113</ele>
</trkpt>
<trkpt lat="43.69159888888889" lon="142.08508361111112">
<ele>113</ele>
</trkpt>
<trkpt lat="43.69155611111111" lon="142.0851027777778">
<ele>113</ele>
</trkpt>
<trkpt lat="43.69151333333333" lon="142.08512194444444">
<ele>113</ele>
</trkpt>
<trkpt lat="43.691470555555554" lon="142.0851411111111">
<ele>113</ele>
</trkpt>
<trkpt lat="43.691428055555555" lon="142.0851602777778">
<ele>113</ele>
</trkpt>
<trkpt lat="43.691385277777776" lon="142.08517944444444">
<ele>113</ele>
</trkpt>
<trkpt lat="43.6913425" lon="142.0851988888889">
<ele>113</ele>
</trkpt>
<trkpt lat="43.69129972222222" lon="142.08521805555554">
<ele>112</ele>
</trkpt>
<trkpt lat="43.69125694444445" lon="142.08523722222222">
<ele>113</ele>
</trkpt>
<trkpt lat="43.69121444444445" lon="142.0852563888889">
<ele>112</ele>
</trkpt>
<trkpt lat="43.69117166666667" lon="142.08527555555557">
<ele>112</ele>
</trkpt>
<trkpt lat="43.69112888888889" lon="142.08529472222222">
<ele>112</ele>
</trkpt>
<trkpt lat="43.69108611111111" lon="142.0853138888889">
<ele>112</ele>
</trkpt>
<trkpt lat="43.69104333333333" lon="142.08533305555557">
<ele>112</ele>
</trkpt>
<trkpt lat="43.691000833333334" lon="142.0853525">
<ele>113</ele>
</trkpt>
<trkpt lat="43.690978055555554" lon="142.0853625">
<ele>113</ele>
</trkpt>
<trkpt lat="43.690978055555554" lon="142.0853625">
<ele>113</ele>
</trkpt>
<trkpt lat="43.690939722222225" lon="142.08539444444443">
<ele>113</ele>
</trkpt>
<trkpt lat="43.69090111111111" lon="142.0854263888889">
<ele>113</ele>
</trkpt>
<trkpt lat="43.6908625" lon="142.08545805555556">
<ele>114</ele>
</trkpt>
<trkpt lat="43.690823888888886" lon="142.08549">
<ele>114</ele>
</trkpt>
<trkpt lat="43.69078555555556" lon="142.08552194444445">
<ele>114</ele>
</trkpt>
<trkpt lat="43.69074694444444" lon="142.08555388888888">
<ele>114</ele>
</trkpt>
<trkpt lat="43.69070833333333" lon="142.08558583333334">
<ele>116</ele>
</trkpt>
<trkpt lat="43.690669722222225" lon="142.0856175">
<ele>116</ele>
</trkpt>
<trkpt lat="43.69063111111111" lon="142.08564944444444">
<ele>116</ele>
</trkpt>
<trkpt lat="43.69059277777778" lon="142.0856813888889">
<ele>118</ele>
</trkpt>
<trkpt lat="43.690554166666665" lon="142.08571333333333">
<ele>118</ele>
</trkpt>
<trkpt lat="43.69051555555556" lon="142.0857452777778">
<ele>118</ele>
</trkpt>
<trkpt lat="43.69047694444444" lon="142.08577694444443">
<ele>118</ele>
</trkpt>
<trkpt lat="43.69043861111111" lon="142.0858088888889">
<ele>120</ele>
</trkpt>
<trkpt lat="43.6904" lon="142.08584083333332">
<ele>120</ele>
</trkpt>
<trkpt lat="43.69036138888889" lon="142.08587277777778">
<ele>120</ele>
</trkpt>
<trkpt lat="43.69032277777778" lon="142.0859047222222">
<ele>120</ele>
</trkpt>
<trkpt lat="43.690284444444444" lon="142.08593638888888">
<ele>120</ele>
</trkpt>
<trkpt lat="43.690245833333336" lon="142.08596833333334">
<ele>120</ele>
</trkpt>
<trkpt lat="43.69020722222222" lon="142.08600027777777">
<ele>121</ele>
</trkpt>
<trkpt lat="43.69016861111111" lon="142.08603222222223">
<ele>121</ele>
</trkpt>
<trkpt lat="43.690130277777776" lon="142.0860638888889">
<ele>121</ele>
</trkpt>
<trkpt lat="43.69009166666667" lon="142.08609583333333">
<ele>120</ele>
</trkpt>
<trkpt lat="43.69005305555556" lon="142.0861277777778">
<ele>121</ele>
</trkpt>
<trkpt lat="43.690014444444444" lon="142.08615972222222">
<ele>121</ele>
</trkpt>
<trkpt lat="43.689975833333335" lon="142.08619166666668">
<ele>121</ele>
</trkpt>
<trkpt lat="43.6899375" lon="142.08622333333332">
<ele>122</ele>
</trkpt>
<trkpt lat="43.68989888888889" lon="142.08625527777778">
<ele>122</ele>
</trkpt>
<trkpt lat="43.689860277777775" lon="142.0862872222222">
<ele>122</ele>
</trkpt>
<trkpt lat="43.68982166666667" lon="142.08631916666667">
<ele>122</ele>
</trkpt>
<trkpt lat="43.68978333333333" lon="142.0863511111111">
<ele>123</ele>
</trkpt>
<trkpt lat="43.68974472222222" lon="142.08638277777777">
<ele>123</ele>
</trkpt>
<trkpt lat="43.689708333333336" lon="142.08641277777778">
<ele>123</ele>
</trkpt>
    </trkseg>
  </trk>
</gpx>