<?xml version="1.0" encoding="UTF-8"?>
<gpx version="1.1"
     creator="KMLtoGPX"
     xmlns="http://www.topografix.com/GPX/1/1">
  <metadata>
    <name>Kutchan Local Course</name>
    <desc>倶知安ローカルコース</desc>
    <bounds minlat="42.843606944444446" minlon="140.70132805555556" maxlat="42.93302388888889" maxlon="140.7964661111111"/>
  </metadata>
  <trk>
    <name>Kutchan Local Course</name>
    <trkseg>
<trkpt lat="42.858668055555555" lon="140.70475">
<ele>257</ele>
</trkpt>
<trkpt lat="42.858605" lon="140.704865">
<ele>256</ele>
</trkpt>
<trkpt lat="42.85937111111111" lon="140.70560194444445">
<ele>258</ele>
</trkpt>
<trkpt lat="42.85959611111111" lon="140.705815">
<ele>261</ele>
</trkpt>
<trkpt lat="42.860171111111114" lon="140.70635194444444">
<ele>255</ele>
</trkpt>
<trkpt lat="42.860855" lon="140.70700194444444">
<ele>253</ele>
</trkpt>
<trkpt lat="42.86104611111111" lon="140.7072388888889">
<ele>255</ele>
</trkpt>
<trkpt lat="42.86142111111111" lon="140.70777694444445">
<ele>253</ele>
</trkpt>
<trkpt lat="42.86197111111111" lon="140.70866388888888">
<ele>249</ele>
</trkpt>
<trkpt lat="42.86237888888889" lon="140.7092888888889">
<ele>245</ele>
</trkpt>
<trkpt lat="42.86244611111111" lon="140.70940194444444">
<ele>244</ele>
</trkpt>
<trkpt lat="42.86277888888889" lon="140.70978888888888">
<ele>240</ele>
</trkpt>
<trkpt lat="42.86355388888889" lon="140.7103261111111">
<ele>238</ele>
</trkpt>
<trkpt lat="42.863838055555554" lon="140.7105511111111">
<ele>236</ele>
</trkpt>
<trkpt lat="42.86397888888889" lon="140.71072611111111">
<ele>236</ele>
</trkpt>
<trkpt lat="42.86405388888889" lon="140.71101388888889">
<ele>236</ele>
</trkpt>
<trkpt lat="42.86402888888889" lon="140.7112388888889">
<ele>236</ele>
</trkpt>
<trkpt lat="42.864001944444446" lon="140.71140194444445">
<ele>236</ele>
</trkpt>
<trkpt lat="42.864001944444446" lon="140.71140194444445">
<ele>236</ele>
</trkpt>
<trkpt lat="42.86387111111111" lon="140.71218888888887">
<ele>234</ele>
</trkpt>
<trkpt lat="42.86384611111111" lon="140.7123261111111">
<ele>233</ele>
</trkpt>
<trkpt lat="42.86382111111111" lon="140.7127761111111">
<ele>232</ele>
</trkpt>
<trkpt lat="42.863838055555554" lon="140.7130011111111">
<ele>231</ele>
</trkpt>
<trkpt lat="42.863863055555555" lon="140.71342611111112">
<ele>230</ele>
</trkpt>
<trkpt lat="42.86395388888889" lon="140.71422611111112">
<ele>225</ele>
</trkpt>
<trkpt lat="42.86407888888889" lon="140.7146888888889">
<ele>223</ele>
</trkpt>
<trkpt lat="42.86434611111111" lon="140.7156011111111">
<ele>218</ele>
</trkpt>
<trkpt lat="42.86466305555555" lon="140.71661305555557">
<ele>217</ele>
</trkpt>
<trkpt lat="42.864705" lon="140.71678805555555">
<ele>217</ele>
</trkpt>
<trkpt lat="42.86476305555556" lon="140.7172261111111">
<ele>216</ele>
</trkpt>
<trkpt lat="42.864738055555556" lon="140.71766305555556">
<ele>215</ele>
</trkpt>
<trkpt lat="42.86469611111111" lon="140.7180011111111">
<ele>214</ele>
</trkpt>
<trkpt lat="42.86456305555556" lon="140.71843805555557">
<ele>214</ele>
</trkpt>
<trkpt lat="42.86433805555556" lon="140.7189261111111">
<ele>213</ele>
</trkpt>
<trkpt lat="42.86391305555556" lon="140.7198511111111">
<ele>211</ele>
</trkpt>
<trkpt lat="42.86372111111111" lon="140.7202761111111">
<ele>210</ele>
</trkpt>
<trkpt lat="42.86362111111111" lon="140.7206011111111">
<ele>210</ele>
</trkpt>
<trkpt lat="42.86356305555555" lon="140.72091305555554">
<ele>210</ele>
</trkpt>
<trkpt lat="42.86358" lon="140.7214011111111">
<ele>210</ele>
</trkpt>
<trkpt lat="42.86368" lon="140.72261305555554">
<ele>210</ele>
</trkpt>
<trkpt lat="42.863855" lon="140.724025">
<ele>206</ele>
</trkpt>
<trkpt lat="42.86510611111111" lon="140.72474888888888">
<ele>209</ele>
</trkpt>
<trkpt lat="42.86510611111111" lon="140.72474888888888">
<ele>209</ele>
</trkpt>
<trkpt lat="42.86571305555555" lon="140.7251">
<ele>211</ele>
</trkpt>
<trkpt lat="42.866405" lon="140.7255">
<ele>210</ele>
</trkpt>
<trkpt lat="42.86698" lon="140.72583694444444">
<ele>211</ele>
</trkpt>
<trkpt lat="42.86738" lon="140.726075">
<ele>211</ele>
</trkpt>
<trkpt lat="42.867605" lon="140.726175">
<ele>211</ele>
</trkpt>
<trkpt lat="42.86793" lon="140.72615">
<ele>211</ele>
</trkpt>
<trkpt lat="42.868338055555554" lon="140.72603694444444">
<ele>210</ele>
</trkpt>
<trkpt lat="42.868988055555555" lon="140.72561194444444">
<ele>211</ele>
</trkpt>
<trkpt lat="42.86906305555556" lon="140.72556194444445">
<ele>211</ele>
</trkpt>
<trkpt lat="42.869703888888886" lon="140.72515">
<ele>208</ele>
</trkpt>
<trkpt lat="42.869928888888886" lon="140.72503694444444">
<ele>208</ele>
</trkpt>
<trkpt lat="42.87011305555556" lon="140.725">
<ele>208</ele>
</trkpt>
<trkpt lat="42.87034611111111" lon="140.72501194444445">
<ele>205</ele>
</trkpt>
<trkpt lat="42.87056194444445" lon="140.72506194444443">
<ele>203</ele>
</trkpt>
<trkpt lat="42.87074611111111" lon="140.7251488888889">
<ele>201</ele>
</trkpt>
<trkpt lat="42.87103694444444" lon="140.72544888888888">
<ele>193</ele>
</trkpt>
<trkpt lat="42.87123694444445" lon="140.72571194444444">
<ele>191</ele>
</trkpt>
<trkpt lat="42.87222111111111" lon="140.72711194444443">
<ele>205</ele>
</trkpt>
<trkpt lat="42.87247888888889" lon="140.72747388888888">
<ele>206</ele>
</trkpt>
<trkpt lat="42.872796111111114" lon="140.7278988888889">
<ele>204</ele>
</trkpt>
<trkpt lat="42.87352888888889" lon="140.72872388888888">
<ele>202</ele>
</trkpt>
<trkpt lat="42.87377111111111" lon="140.7288738888889">
<ele>199</ele>
</trkpt>
<trkpt lat="42.87402111111111" lon="140.7289861111111">
<ele>197</ele>
</trkpt>
<trkpt lat="42.87454611111111" lon="140.72917388888888">
<ele>192</ele>
</trkpt>
<trkpt lat="42.87471194444444" lon="140.7292111111111">
<ele>184</ele>
</trkpt>
<trkpt lat="42.87488694444444" lon="140.72928611111112">
<ele>188</ele>
</trkpt>
<trkpt lat="42.87511194444444" lon="140.7294361111111">
<ele>194</ele>
</trkpt>
<trkpt lat="42.875436944444445" lon="140.72976111111112">
<ele>189</ele>
</trkpt>
<trkpt lat="42.87646194444444" lon="140.73099888888888">
<ele>188</ele>
</trkpt>
<trkpt lat="42.87766194444445" lon="140.73219805555556">
<ele>187</ele>
</trkpt>
<trkpt lat="42.87766194444445" lon="140.73219805555556">
<ele>187</ele>
</trkpt>
<trkpt lat="42.87856194444444" lon="140.73309805555556">
<ele>186</ele>
</trkpt>
<trkpt lat="42.878903888888885" lon="140.7333111111111">
<ele>188</ele>
</trkpt>
<trkpt lat="42.879286944444445" lon="140.73338611111112">
<ele>188</ele>
</trkpt>
<trkpt lat="42.88077805555555" lon="140.73357305555555">
<ele>186</ele>
</trkpt>
<trkpt lat="42.88142" lon="140.73364805555556">
<ele>185</ele>
</trkpt>
<trkpt lat="42.882378055555556" lon="140.73392305555555">
<ele>184</ele>
</trkpt>
<trkpt lat="42.884703055555555" lon="140.734535">
<ele>177</ele>
</trkpt>
<trkpt lat="42.885418888888886" lon="140.73472305555555">
<ele>178</ele>
</trkpt>
<trkpt lat="42.886003055555555" lon="140.73491">
<ele>182</ele>
</trkpt>
<trkpt lat="42.886293888888886" lon="140.735085">
<ele>185</ele>
</trkpt>
<trkpt lat="42.88651111111111" lon="140.73524694444444">
<ele>188</ele>
</trkpt>
<trkpt lat="42.88666111111111" lon="140.73541">
<ele>188</ele>
</trkpt>
<trkpt lat="42.88696111111111" lon="140.73581">
<ele>188</ele>
</trkpt>
<trkpt lat="42.88827694444444" lon="140.73784694444444">
<ele>186</ele>
</trkpt>
<trkpt lat="42.88881111111111" lon="140.7386838888889">
<ele>187</ele>
</trkpt>
<trkpt lat="42.88891888888889" lon="140.73889694444443">
<ele>187</ele>
</trkpt>
<trkpt lat="42.88905194444445" lon="140.73925888888888">
<ele>187</ele>
</trkpt>
<trkpt lat="42.88911888888889" lon="140.73959694444446">
<ele>186</ele>
</trkpt>
<trkpt lat="42.88913194444444" lon="140.7396861111111">
<ele>186</ele>
</trkpt>
<trkpt lat="42.889133055555554" lon="140.7396861111111">
<ele>186</ele>
</trkpt>
<trkpt lat="42.88931111111111" lon="140.74085888888888">
<ele>185</ele>
</trkpt>
<trkpt lat="42.88934388888889" lon="140.74112194444444">
<ele>183</ele>
</trkpt>
<trkpt lat="42.889361111111114" lon="140.74127194444443">
<ele>182</ele>
</trkpt>
<trkpt lat="42.88937694444444" lon="140.7416838888889">
<ele>179</ele>
</trkpt>
<trkpt lat="42.88936888888889" lon="140.74197194444446">
<ele>179</ele>
</trkpt>
<trkpt lat="42.88934388888889" lon="140.74300888888888">
<ele>177</ele>
</trkpt>
<trkpt lat="42.88933611111111" lon="140.7432588888889">
<ele>177</ele>
</trkpt>
<trkpt lat="42.889361111111114" lon="140.7435461111111">
<ele>177</ele>
</trkpt>
<trkpt lat="42.88941111111111" lon="140.74394611111111">
<ele>176</ele>
</trkpt>
<trkpt lat="42.88955305555555" lon="140.74469611111112">
<ele>175</ele>
</trkpt>
<trkpt lat="42.889693888888885" lon="140.74539611111112">
<ele>174</ele>
</trkpt>
<trkpt lat="42.88975305555556" lon="140.74570888888888">
<ele>174</ele>
</trkpt>
<trkpt lat="42.88980194444444" lon="140.74594611111112">
<ele>174</ele>
</trkpt>
<trkpt lat="42.889853055555555" lon="140.7463711111111">
<ele>173</ele>
</trkpt>
<trkpt lat="42.88989388888889" lon="140.7468088888889">
<ele>173</ele>
</trkpt>
<trkpt lat="42.88991111111111" lon="140.7471711111111">
<ele>172</ele>
</trkpt>
<trkpt lat="42.889901944444446" lon="140.7474711111111">
<ele>172</ele>
</trkpt>
<trkpt lat="42.88988611111111" lon="140.74785888888889">
<ele>172</ele>
</trkpt>
<trkpt lat="42.889853055555555" lon="140.74854611111112">
<ele>171</ele>
</trkpt>
<trkpt lat="42.88980194444444" lon="140.74959611111112">
<ele>170</ele>
</trkpt>
<trkpt lat="42.88975111111111" lon="140.750565">
<ele>170</ele>
</trkpt>
<trkpt lat="42.88975111111111" lon="140.750565">
<ele>170</ele>
</trkpt>
<trkpt lat="42.88973611111111" lon="140.75085805555557">
<ele>170</ele>
</trkpt>
<trkpt lat="42.88971111111111" lon="140.75158305555556">
<ele>170</ele>
</trkpt>
<trkpt lat="42.89049388888889" lon="140.75165805555557">
<ele>170</ele>
</trkpt>
<trkpt lat="42.89059388888889" lon="140.7516711111111">
<ele>170</ele>
</trkpt>
<trkpt lat="42.891643888888886" lon="140.75175805555557">
<ele>171</ele>
</trkpt>
<trkpt lat="42.89277694444444" lon="140.75187111111111">
<ele>171</ele>
</trkpt>
<trkpt lat="42.893501944444445" lon="140.7519211111111">
<ele>172</ele>
</trkpt>
<trkpt lat="42.89401111111111" lon="140.75197111111112">
<ele>172</ele>
</trkpt>
<trkpt lat="42.89416" lon="140.75198305555554">
<ele>172</ele>
</trkpt>
<trkpt lat="42.89430194444444" lon="140.7519961111111">
<ele>172</ele>
</trkpt>
<trkpt lat="42.89509388888889" lon="140.75205805555555">
<ele>173</ele>
</trkpt>
<trkpt lat="42.89640194444444" lon="140.75218305555555">
<ele>175</ele>
</trkpt>
<trkpt lat="42.896485" lon="140.75219611111112">
<ele>175</ele>
</trkpt>
<trkpt lat="42.898943055555556" lon="140.75240805555555">
<ele>175</ele>
</trkpt>
<trkpt lat="42.899751944444446" lon="140.75247">
<ele>175</ele>
</trkpt>
<trkpt lat="42.90054305555555" lon="140.75253305555555">
<ele>175</ele>
</trkpt>
<trkpt lat="42.90145111111111" lon="140.75262">
<ele>176</ele>
</trkpt>
<trkpt lat="42.902276111111114" lon="140.752695">
<ele>176</ele>
</trkpt>
<trkpt lat="42.90235111111111" lon="140.752695">
<ele>176</ele>
</trkpt>
<trkpt lat="42.90309305555556" lon="140.75277">
<ele>177</ele>
</trkpt>
<trkpt lat="42.90317611111111" lon="140.75277">
<ele>177</ele>
</trkpt>
<trkpt lat="42.903485" lon="140.7528">
<ele>177</ele>
</trkpt>
<trkpt lat="42.903485" lon="140.7528">
<ele>177</ele>
</trkpt>
<trkpt lat="42.90382611111111" lon="140.75283194444444">
<ele>177</ele>
</trkpt>
<trkpt lat="42.90396805555555" lon="140.752845">
<ele>177</ele>
</trkpt>
<trkpt lat="42.90390111111111" lon="140.75433194444443">
<ele>177</ele>
</trkpt>
<trkpt lat="42.90389305555556" lon="140.75468305555555">
<ele>177</ele>
</trkpt>
<trkpt lat="42.903868055555556" lon="140.755045">
<ele>177</ele>
</trkpt>
<trkpt lat="42.903868055555556" lon="140.755195">
<ele>177</ele>
</trkpt>
<trkpt lat="42.903818055555554" lon="140.75597">
<ele>177</ele>
</trkpt>
<trkpt lat="42.90375111111111" lon="140.75743194444445">
<ele>177</ele>
</trkpt>
<trkpt lat="42.90369305555556" lon="140.75852">
<ele>177</ele>
</trkpt>
<trkpt lat="42.90369305555556" lon="140.75860694444444">
<ele>177</ele>
</trkpt>
<trkpt lat="42.903643055555555" lon="140.759695">
<ele>177</ele>
</trkpt>
<trkpt lat="42.903576111111114" lon="140.76082">
<ele>177</ele>
</trkpt>
<trkpt lat="42.90356805555555" lon="140.761245">
<ele>177</ele>
</trkpt>
<trkpt lat="42.90350194444444" lon="140.76263194444445">
<ele>177</ele>
</trkpt>
<trkpt lat="42.90349305555556" lon="140.76283194444446">
<ele>177</ele>
</trkpt>
<trkpt lat="42.90347694444444" lon="140.76310694444444">
<ele>177</ele>
</trkpt>
<trkpt lat="42.90342694444445" lon="140.76413194444444">
<ele>177</ele>
</trkpt>
<trkpt lat="42.90331888888889" lon="140.7664938888889">
<ele>177</ele>
</trkpt>
<trkpt lat="42.90324388888889" lon="140.76795694444445">
<ele>177</ele>
</trkpt>
<trkpt lat="42.903235" lon="140.7679938888889">
<ele>177</ele>
</trkpt>
<trkpt lat="42.90322694444444" lon="140.7681938888889">
<ele>177</ele>
</trkpt>
<trkpt lat="42.903135" lon="140.76998194444445">
<ele>176</ele>
</trkpt>
<trkpt lat="42.903061111111114" lon="140.7716438888889">
<ele>176</ele>
</trkpt>
<trkpt lat="42.902993888888886" lon="140.7732938888889">
<ele>176</ele>
</trkpt>
<trkpt lat="42.90376111111111" lon="140.77335694444446">
<ele>176</ele>
</trkpt>
<trkpt lat="42.90389888888889" lon="140.77337111111112">
<ele>176</ele>
</trkpt>
<trkpt lat="42.90389888888889" lon="140.77337111111112">
<ele>176</ele>
</trkpt>
<trkpt lat="42.904376944444444" lon="140.7734188888889">
<ele>177</ele>
</trkpt>
<trkpt lat="42.90494388888889" lon="140.77346888888889">
<ele>178</ele>
</trkpt>
<trkpt lat="42.905501944444445" lon="140.7735188888889">
<ele>178</ele>
</trkpt>
<trkpt lat="42.90795194444444" lon="140.7737438888889">
<ele>185</ele>
</trkpt>
<trkpt lat="42.91097611111111" lon="140.7740061111111">
<ele>210</ele>
</trkpt>
<trkpt lat="42.91298388888889" lon="140.77418111111112">
<ele>213</ele>
</trkpt>
<trkpt lat="42.91500111111111" lon="140.7743688888889">
<ele>212</ele>
</trkpt>
<trkpt lat="42.91550111111111" lon="140.77441805555554">
<ele>211</ele>
</trkpt>
<trkpt lat="42.91800111111111" lon="140.77461805555555">
<ele>210</ele>
</trkpt>
<trkpt lat="42.919108888888886" lon="140.77473111111112">
<ele>209</ele>
</trkpt>
<trkpt lat="42.92305" lon="140.77509305555554">
<ele>203</ele>
</trkpt>
<trkpt lat="42.92635" lon="140.775455">
<ele>196</ele>
</trkpt>
<trkpt lat="42.92670805555556" lon="140.775505">
<ele>196</ele>
</trkpt>
<trkpt lat="42.92807388888889" lon="140.775655">
<ele>196</ele>
</trkpt>
<trkpt lat="42.93302388888889" lon="140.77608">
<ele>197</ele>
</trkpt>
<trkpt lat="42.932876944444445" lon="140.7790138888889">
<ele>199</ele>
</trkpt>
<trkpt lat="42.932876944444445" lon="140.7790138888889">
<ele>199</ele>
</trkpt>
<trkpt lat="42.93268305555556" lon="140.7828788888889">
<ele>203</ele>
</trkpt>
<trkpt lat="42.93239111111111" lon="140.78869111111112">
<ele>214</ele>
</trkpt>
<trkpt lat="42.93234888888889" lon="140.7897288888889">
<ele>217</ele>
</trkpt>
<trkpt lat="42.93203305555556" lon="140.7964661111111">
<ele>211</ele>
</trkpt>
<trkpt lat="42.93083611111111" lon="140.7963611111111">
<ele>210</ele>
</trkpt>
<trkpt lat="42.93083611111111" lon="140.7963611111111">
<ele>210</ele>
</trkpt>
<trkpt lat="42.92704194444445" lon="140.79602888888888">
<ele>209</ele>
</trkpt>
<trkpt lat="42.92550111111111" lon="140.7958661111111">
<ele>205</ele>
</trkpt>
<trkpt lat="42.925266944444445" lon="140.79580388888888">
<ele>205</ele>
</trkpt>
<trkpt lat="42.92505111111111" lon="140.7956661111111">
<ele>205</ele>
</trkpt>
<trkpt lat="42.92470888888889" lon="140.79526611111112">
<ele>205</ele>
</trkpt>
<trkpt lat="42.92450888888889" lon="140.79515388888888">
<ele>205</ele>
</trkpt>
<trkpt lat="42.92433388888889" lon="140.79514111111112">
<ele>204</ele>
</trkpt>
<trkpt lat="42.922893055555555" lon="140.79551694444444">
<ele>210</ele>
</trkpt>
<trkpt lat="42.92258388888889" lon="140.79554194444444">
<ele>211</ele>
</trkpt>
<trkpt lat="42.922043055555555" lon="140.7955038888889">
<ele>213</ele>
</trkpt>
<trkpt lat="42.919108888888886" lon="140.79526694444445">
<ele>214</ele>
</trkpt>
<trkpt lat="42.91697611111111" lon="140.7950538888889">
<ele>212</ele>
</trkpt>
<trkpt lat="42.91316" lon="140.7947">
<ele>211</ele>
</trkpt>
<trkpt lat="42.91316" lon="140.7947">
<ele>211</ele>
</trkpt>
<trkpt lat="42.91200194444444" lon="140.79459194444445">
<ele>210</ele>
</trkpt>
<trkpt lat="42.909526944444444" lon="140.79436694444445">
<ele>199</ele>
</trkpt>
<trkpt lat="42.907026944444446" lon="140.79414194444445">
<ele>191</ele>
</trkpt>
<trkpt lat="42.90693611111111" lon="140.79414194444445">
<ele>190</ele>
</trkpt>
<trkpt lat="42.90449388888889" lon="140.79393">
<ele>187</ele>
</trkpt>
<trkpt lat="42.901986111111114" lon="140.793705">
<ele>188</ele>
</trkpt>
<trkpt lat="42.89688694444445" lon="140.79333111111112">
<ele>183</ele>
</trkpt>
<trkpt lat="42.89197111111111" lon="140.79298111111112">
<ele>181</ele>
</trkpt>
<trkpt lat="42.89030388888889" lon="140.7928311111111">
<ele>181</ele>
</trkpt>
<trkpt lat="42.88987888888889" lon="140.7926938888889">
<ele>180</ele>
</trkpt>
<trkpt lat="42.88962111111111" lon="140.79249388888888">
<ele>180</ele>
</trkpt>
<trkpt lat="42.889403888888886" lon="140.79218111111112">
<ele>180</ele>
</trkpt>
<trkpt lat="42.889136944444445" lon="140.79171888888888">
<ele>180</ele>
</trkpt>
<trkpt lat="42.88913194444444" lon="140.79170694444446">
<ele>180</ele>
</trkpt>
<trkpt lat="42.88913194444444" lon="140.79170694444446">
<ele>180</ele>
</trkpt>
<trkpt lat="42.88850055555555" lon="140.79304666666667">
<ele>179</ele>
</trkpt>
<trkpt lat="42.88850055555555" lon="140.79304666666667">
<ele>179</ele>
</trkpt>
<trkpt lat="42.888489166666666" lon="140.79295972222224">
<ele>179</ele>
</trkpt>
<trkpt lat="42.888489166666666" lon="140.79295972222224">
<ele>179</ele>
</trkpt>
<trkpt lat="42.88893083333333" lon="140.79172861111113">
<ele>179</ele>
</trkpt>
<trkpt lat="42.88893083333333" lon="140.79172861111113">
<ele>179</ele>
</trkpt>
<trkpt lat="42.88942138888889" lon="140.79063527777777">
<ele>178</ele>
</trkpt>
<trkpt lat="42.88942138888889" lon="140.79063527777777">
<ele>178</ele>
</trkpt>
<trkpt lat="42.88984055555556" lon="140.78990972222223">
<ele>179</ele>
</trkpt>
<trkpt lat="42.88984055555556" lon="140.78990972222223">
<ele>179</ele>
</trkpt>
<trkpt lat="42.89073138888889" lon="140.78867333333332">
<ele>179</ele>
</trkpt>
<trkpt lat="42.89073138888889" lon="140.78867333333332">
<ele>179</ele>
</trkpt>
<trkpt lat="42.89140138888889" lon="140.78778444444444">
<ele>179</ele>
</trkpt>
<trkpt lat="42.89140138888889" lon="140.78778444444444">
<ele>179</ele>
</trkpt>
<trkpt lat="42.891869166666666" lon="140.78728361111112">
<ele>178</ele>
</trkpt>
<trkpt lat="42.891869166666666" lon="140.78728361111112">
<ele>178</ele>
</trkpt>
<trkpt lat="42.89255416666666" lon="140.78668083333332">
<ele>177</ele>
</trkpt>
<trkpt lat="42.89255416666666" lon="140.78668083333332">
<ele>177</ele>
</trkpt>
<trkpt lat="42.893033333333335" lon="140.78631305555555">
<ele>175</ele>
</trkpt>
<trkpt lat="42.893033333333335" lon="140.78631305555555">
<ele>175</ele>
</trkpt>
<trkpt lat="42.893433888888886" lon="140.78591444444444">
<ele>175</ele>
</trkpt>
<trkpt lat="42.893433888888886" lon="140.78591444444444">
<ele>175</ele>
</trkpt>
<trkpt lat="42.89359861111111" lon="140.7857561111111">
<ele>175</ele>
</trkpt>
<trkpt lat="42.89359861111111" lon="140.7857561111111">
<ele>175</ele>
</trkpt>
<trkpt lat="42.894081388888885" lon="140.78530138888888">
<ele>174</ele>
</trkpt>
<trkpt lat="42.894081388888885" lon="140.78530138888888">
<ele>174</ele>
</trkpt>
<trkpt lat="42.894755" lon="140.78460666666666">
<ele>174</ele>
</trkpt>
<trkpt lat="42.894755" lon="140.78460666666666">
<ele>174</ele>
</trkpt>
<trkpt lat="42.895091944444445" lon="140.78422333333333">
<ele>174</ele>
</trkpt>
<trkpt lat="42.895091944444445" lon="140.78422333333333">
<ele>174</ele>
</trkpt>
<trkpt lat="42.895496111111115" lon="140.78368694444444">
<ele>174</ele>
</trkpt>
<trkpt lat="42.895496111111115" lon="140.78368694444444">
<ele>174</ele>
</trkpt>
<trkpt lat="42.89593027777778" lon="140.78299722222224">
<ele>174</ele>
</trkpt>
<trkpt lat="42.89593027777778" lon="140.78299722222224">
<ele>174</ele>
</trkpt>
<trkpt lat="42.89631972222222" lon="140.78227694444445">
<ele>174</ele>
</trkpt>
<trkpt lat="42.89631972222222" lon="140.78227694444445">
<ele>174</ele>
</trkpt>
<trkpt lat="42.896656388888886" lon="140.78145444444445">
<ele>173</ele>
</trkpt>
<trkpt lat="42.896656388888886" lon="140.78145444444445">
<ele>173</ele>
</trkpt>
<trkpt lat="42.89721027777778" lon="140.78012083333334">
<ele>172</ele>
</trkpt>
<trkpt lat="42.89721027777778" lon="140.78012083333334">
<ele>172</ele>
</trkpt>
<trkpt lat="42.89732638888889" lon="140.77982972222222">
<ele>172</ele>
</trkpt>
<trkpt lat="42.89732638888889" lon="140.77982972222222">
<ele>172</ele>
</trkpt>
<trkpt lat="42.89761083333333" lon="140.77915027777777">
<ele>172</ele>
</trkpt>
<trkpt lat="42.89761083333333" lon="140.77915027777777">
<ele>172</ele>
</trkpt>
<trkpt lat="42.897842777777775" lon="140.77870583333333">
<ele>172</ele>
</trkpt>
<trkpt lat="42.897842777777775" lon="140.77870583333333">
<ele>172</ele>
</trkpt>
<trkpt lat="42.898516666666666" lon="140.7768461111111">
<ele>172</ele>
</trkpt>
<trkpt lat="42.898516666666666" lon="140.7768461111111">
<ele>172</ele>
</trkpt>
<trkpt lat="42.89866638888889" lon="140.77637083333335">
<ele>171</ele>
</trkpt>
<trkpt lat="42.89866638888889" lon="140.77637083333335">
<ele>171</ele>
</trkpt>
<trkpt lat="42.89895444444444" lon="140.77563027777776">
<ele>171</ele>
</trkpt>
<trkpt lat="42.89895444444444" lon="140.77563027777776">
<ele>171</ele>
</trkpt>
<trkpt lat="42.899100555555556" lon="140.77535944444443">
<ele>171</ele>
</trkpt>
<trkpt lat="42.899100555555556" lon="140.77535944444443">
<ele>171</ele>
</trkpt>
<trkpt lat="42.899119166666665" lon="140.7755025">
<ele>171</ele>
</trkpt>
<trkpt lat="42.899119166666665" lon="140.7755025">
<ele>171</ele>
</trkpt>
<trkpt lat="42.89900305555555" lon="140.77596222222223">
<ele>172</ele>
</trkpt>
<trkpt lat="42.89900305555555" lon="140.77596222222223">
<ele>172</ele>
</trkpt>
<trkpt lat="42.89892833333333" lon="140.7763197222222">
<ele>172</ele>
</trkpt>
<trkpt lat="42.89892833333333" lon="140.7763197222222">
<ele>172</ele>
</trkpt>
<trkpt lat="42.89913027777778" lon="140.77614111111112">
<ele>172</ele>
</trkpt>
<trkpt lat="42.89913027777778" lon="140.77614111111112">
<ele>172</ele>
</trkpt>
<trkpt lat="42.899295" lon="140.7759927777778">
<ele>172</ele>
</trkpt>
<trkpt lat="42.899295" lon="140.7759927777778">
<ele>172</ele>
</trkpt>
<trkpt lat="42.899545833333335" lon="140.77578861111112">
<ele>172</ele>
</trkpt>
<trkpt lat="42.899545833333335" lon="140.77578861111112">
<ele>172</ele>
</trkpt>
<trkpt lat="42.90016333333333" lon="140.77520611111112">
<ele>172</ele>
</trkpt>
<trkpt lat="42.90016333333333" lon="140.77520611111112">
<ele>172</ele>
</trkpt>
<trkpt lat="42.90020083333334" lon="140.77506305555556">
<ele>172</ele>
</trkpt>
<trkpt lat="42.90020083333334" lon="140.77506305555556">
<ele>172</ele>
</trkpt>
<trkpt lat="42.900125833333334" lon="140.77470555555556">
<ele>172</ele>
</trkpt>
<trkpt lat="42.900125833333334" lon="140.77470555555556">
<ele>172</ele>
</trkpt>
<trkpt lat="42.89981138888889" lon="140.773275">
<ele>173</ele>
</trkpt>
<trkpt lat="42.89981138888889" lon="140.773275">
<ele>173</ele>
</trkpt>
<trkpt lat="42.899680555555555" lon="140.77304">
<ele>173</ele>
</trkpt>
<trkpt lat="42.899680555555555" lon="140.77304">
<ele>173</ele>
</trkpt>
<trkpt lat="42.89966555555556" lon="140.77279472222222">
<ele>173</ele>
</trkpt>
<trkpt lat="42.89966555555556" lon="140.77279472222222">
<ele>173</ele>
</trkpt>
<trkpt lat="42.89962805555555" lon="140.77174055555557">
<ele>174</ele>
</trkpt>
<trkpt lat="42.89962805555555" lon="140.77174055555557">
<ele>174</ele>
</trkpt>
<trkpt lat="42.899588888888886" lon="140.7711725">
<ele>174</ele>
</trkpt>
<trkpt lat="42.899588888888886" lon="140.7711725">
<ele>174</ele>
</trkpt>
<trkpt lat="42.89949527777778" lon="140.77017111111113">
<ele>173</ele>
</trkpt>
<trkpt lat="42.89949527777778" lon="140.77017111111113">
<ele>173</ele>
</trkpt>
<trkpt lat="42.899251944444444" lon="140.7692413888889">
<ele>171</ele>
</trkpt>
<trkpt lat="42.899251944444444" lon="140.7692413888889">
<ele>171</ele>
</trkpt>
<trkpt lat="42.89881416666667" lon="140.76825527777777">
<ele>171</ele>
</trkpt>
<trkpt lat="42.89881416666667" lon="140.76825527777777">
<ele>171</ele>
</trkpt>
<trkpt lat="42.898159166666666" lon="140.7672386111111">
<ele>170</ele>
</trkpt>
<trkpt lat="42.898159166666666" lon="140.7672386111111">
<ele>170</ele>
</trkpt>
<trkpt lat="42.89760888888889" lon="140.7664263888889">
<ele>170</ele>
</trkpt>
<trkpt lat="42.89760888888889" lon="140.7664263888889">
<ele>170</ele>
</trkpt>
<trkpt lat="42.897085" lon="140.7656702777778">
<ele>170</ele>
</trkpt>
<trkpt lat="42.897085" lon="140.7656702777778">
<ele>170</ele>
</trkpt>
<trkpt lat="42.896725833333335" lon="140.76516944444444">
<ele>170</ele>
</trkpt>
<trkpt lat="42.896725833333335" lon="140.76516944444444">
<ele>170</ele>
</trkpt>
<trkpt lat="42.896006944444444" lon="140.76410027777777">
<ele>170</ele>
</trkpt>
<trkpt lat="42.896006944444444" lon="140.76410027777777">
<ele>170</ele>
</trkpt>
<trkpt lat="42.895318333333336" lon="140.7629661111111">
<ele>170</ele>
</trkpt>
<trkpt lat="42.895318333333336" lon="140.7629661111111">
<ele>170</ele>
</trkpt>
<trkpt lat="42.89492166666667" lon="140.76218444444444">
<ele>170</ele>
</trkpt>
<trkpt lat="42.89492166666667" lon="140.76218444444444">
<ele>170</ele>
</trkpt>
<trkpt lat="42.89414305555555" lon="140.76060055555556">
<ele>170</ele>
</trkpt>
<trkpt lat="42.89414305555555" lon="140.76060055555556">
<ele>170</ele>
</trkpt>
<trkpt lat="42.89351805555555" lon="140.7591036111111">
<ele>170</ele>
</trkpt>
<trkpt lat="42.89351805555555" lon="140.7591036111111">
<ele>170</ele>
</trkpt>
<trkpt lat="42.89321861111111" lon="140.75835777777777">
<ele>170</ele>
</trkpt>
<trkpt lat="42.89321861111111" lon="140.75835777777777">
<ele>170</ele>
</trkpt>
<trkpt lat="42.892986388888886" lon="140.75786222222223">
<ele>170</ele>
</trkpt>
<trkpt lat="42.892986388888886" lon="140.75786222222223">
<ele>170</ele>
</trkpt>
<trkpt lat="42.89270944444444" lon="140.75743305555557">
<ele>170</ele>
</trkpt>
<trkpt lat="42.89270944444444" lon="140.75743305555557">
<ele>170</ele>
</trkpt>
<trkpt lat="42.892200555555554" lon="140.75679944444445">
<ele>170</ele>
</trkpt>
<trkpt lat="42.892200555555554" lon="140.75679944444445">
<ele>170</ele>
</trkpt>
<trkpt lat="42.89173638888889" lon="140.75631916666666">
<ele>170</ele>
</trkpt>
<trkpt lat="42.89173638888889" lon="140.75631916666666">
<ele>170</ele>
</trkpt>
<trkpt lat="42.89086416666667" lon="140.7554863888889">
<ele>170</ele>
</trkpt>
<trkpt lat="42.89086416666667" lon="140.7554863888889">
<ele>170</ele>
</trkpt>
<trkpt lat="42.89022416666667" lon="140.75499083333332">
<ele>170</ele>
</trkpt>
<trkpt lat="42.89022416666667" lon="140.75499083333332">
<ele>170</ele>
</trkpt>
<trkpt lat="42.88950166666667" lon="140.7544597222222">
<ele>170</ele>
</trkpt>
<trkpt lat="42.88950166666667" lon="140.7544597222222">
<ele>170</ele>
</trkpt>
<trkpt lat="42.888756666666666" lon="140.75375444444444">
<ele>170</ele>
</trkpt>
<trkpt lat="42.888756666666666" lon="140.75375444444444">
<ele>170</ele>
</trkpt>
<trkpt lat="42.88804944444444" lon="140.75294722222222">
<ele>170</ele>
</trkpt>
<trkpt lat="42.88804944444444" lon="140.75294722222222">
<ele>170</ele>
</trkpt>
<trkpt lat="42.887570277777776" lon="140.7525488888889">
<ele>170</ele>
</trkpt>
<trkpt lat="42.887570277777776" lon="140.7525488888889">
<ele>170</ele>
</trkpt>
<trkpt lat="42.886739166666665" lon="140.7515388888889">
<ele>170</ele>
</trkpt>
<trkpt lat="42.886739166666665" lon="140.7515388888889">
<ele>170</ele>
</trkpt>
<trkpt lat="42.886365" lon="140.75080833333334">
<ele>170</ele>
</trkpt>
<trkpt lat="42.886365" lon="140.75080833333334">
<ele>170</ele>
</trkpt>
<trkpt lat="42.88582972222222" lon="140.74957194444445">
<ele>170</ele>
</trkpt>
<trkpt lat="42.88582972222222" lon="140.74957194444445">
<ele>170</ele>
</trkpt>
<trkpt lat="42.88610666666667" lon="140.74991916666667">
<ele>170</ele>
</trkpt>
<trkpt lat="42.88610666666667" lon="140.74991916666667">
<ele>170</ele>
</trkpt>
<trkpt lat="42.88577333333333" lon="140.74910694444443">
<ele>170</ele>
</trkpt>
<trkpt lat="42.88577333333333" lon="140.74910694444443">
<ele>170</ele>
</trkpt>
<trkpt lat="42.88574722222222" lon="140.74887194444443">
<ele>170</ele>
</trkpt>
<trkpt lat="42.88574722222222" lon="140.74887194444443">
<ele>170</ele>
</trkpt>
<trkpt lat="42.885870833333335" lon="140.74879027777777">
<ele>170</ele>
</trkpt>
<trkpt lat="42.885870833333335" lon="140.74879027777777">
<ele>170</ele>
</trkpt>
<trkpt lat="42.88612916666667" lon="140.7489486111111">
<ele>170</ele>
</trkpt>
<trkpt lat="42.88612916666667" lon="140.7489486111111">
<ele>170</ele>
</trkpt>
<trkpt lat="42.88659694444444" lon="140.74921944444444">
<ele>170</ele>
</trkpt>
<trkpt lat="42.88659694444444" lon="140.74921944444444">
<ele>170</ele>
</trkpt>
<trkpt lat="42.88746916666667" lon="140.74946972222222">
<ele>170</ele>
</trkpt>
<trkpt lat="42.88746916666667" lon="140.74946972222222">
<ele>170</ele>
</trkpt>
<trkpt lat="42.888622222222224" lon="140.74955138888888">
<ele>170</ele>
</trkpt>
<trkpt lat="42.888622222222224" lon="140.74955138888888">
<ele>170</ele>
</trkpt>
<trkpt lat="42.88953166666667" lon="140.74956527777778">
<ele>170</ele>
</trkpt>
<trkpt lat="42.88953166666667" lon="140.74956527777778">
<ele>170</ele>
</trkpt>
<trkpt lat="42.889775" lon="140.7496111111111">
<ele>170</ele>
</trkpt>
<trkpt lat="42.88977805555555" lon="140.7495888888889">
<ele>170</ele>
</trkpt>
<trkpt lat="42.88980194444444" lon="140.74959611111112">
<ele>170</ele>
</trkpt>
<trkpt lat="42.88973611111111" lon="140.75085805555557">
<ele>170</ele>
</trkpt>
<trkpt lat="42.88971111111111" lon="140.75158305555556">
<ele>170</ele>
</trkpt>
<trkpt lat="42.889383055555555" lon="140.7515511111111">
<ele>170</ele>
</trkpt>
<trkpt lat="42.889383055555555" lon="140.7515511111111">
<ele>170</ele>
</trkpt>
<trkpt lat="42.88908611111111" lon="140.75152111111112">
<ele>170</ele>
</trkpt>
<trkpt lat="42.888953055555554" lon="140.75150805555555">
<ele>170</ele>
</trkpt>
<trkpt lat="42.88791888888889" lon="140.75143305555557">
<ele>170</ele>
</trkpt>
<trkpt lat="42.887861111111114" lon="140.7514211111111">
<ele>170</ele>
</trkpt>
<trkpt lat="42.88686111111111" lon="140.7513461111111">
<ele>170</ele>
</trkpt>
<trkpt lat="42.88680305555555" lon="140.7513461111111">
<ele>170</ele>
</trkpt>
<trkpt lat="42.884861111111114" lon="140.75117111111112">
<ele>170</ele>
</trkpt>
<trkpt lat="42.88473611111111" lon="140.75115888888888">
<ele>170</ele>
</trkpt>
<trkpt lat="42.88387" lon="140.7511461111111">
<ele>173</ele>
</trkpt>
<trkpt lat="42.880586111111114" lon="140.75084388888888">
<ele>175</ele>
</trkpt>
<trkpt lat="42.880586111111114" lon="140.75084388888888">
<ele>175</ele>
</trkpt>
<trkpt lat="42.87885388888889" lon="140.7506838888889">
<ele>175</ele>
</trkpt>
<trkpt lat="42.87706305555555" lon="140.7505088888889">
<ele>187</ele>
</trkpt>
<trkpt lat="42.87637888888889" lon="140.75044694444443">
<ele>187</ele>
</trkpt>
<trkpt lat="42.875413055555555" lon="140.75035888888888">
<ele>195</ele>
</trkpt>
<trkpt lat="42.87470388888889" lon="140.75029694444444">
<ele>198</ele>
</trkpt>
<trkpt lat="42.873938055555556" lon="140.75022194444443">
<ele>200</ele>
</trkpt>
<trkpt lat="42.87363805555555" lon="140.75019694444444">
<ele>201</ele>
</trkpt>
<trkpt lat="42.87316305555556" lon="140.750085">
<ele>201</ele>
</trkpt>
<trkpt lat="42.87284611111111" lon="140.74997194444444">
<ele>202</ele>
</trkpt>
<trkpt lat="42.872505" lon="140.749835">
<ele>202</ele>
</trkpt>
<trkpt lat="42.87014694444444" lon="140.74871">
<ele>204</ele>
</trkpt>
<trkpt lat="42.86936388888889" lon="140.748335">
<ele>204</ele>
</trkpt>
<trkpt lat="42.86891388888889" lon="140.74812194444445">
<ele>204</ele>
</trkpt>
<trkpt lat="42.86738888888889" lon="140.74741">
<ele>206</ele>
</trkpt>
<trkpt lat="42.86630611111111" lon="140.74689805555556">
<ele>208</ele>
</trkpt>
<trkpt lat="42.86528111111111" lon="140.74637305555555">
<ele>208</ele>
</trkpt>
<trkpt lat="42.86495611111111" lon="140.74619805555557">
<ele>207</ele>
</trkpt>
<trkpt lat="42.86301388888889" lon="140.74526111111112">
<ele>214</ele>
</trkpt>
<trkpt lat="42.85884" lon="140.7432488888889">
<ele>221</ele>
</trkpt>
<trkpt lat="42.85840611111111" lon="140.7430488888889">
<ele>220</ele>
</trkpt>
<trkpt lat="42.85745694444444" lon="140.7425861111111">
<ele>221</ele>
</trkpt>
<trkpt lat="42.857306944444446" lon="140.74252388888888">
<ele>221</ele>
</trkpt>
<trkpt lat="42.856723055555555" lon="140.74217388888889">
<ele>222</ele>
</trkpt>
<trkpt lat="42.855356944444445" lon="140.74118694444445">
<ele>225</ele>
</trkpt>
<trkpt lat="42.85452305555555" lon="140.7406738888889">
<ele>229</ele>
</trkpt>
<trkpt lat="42.85377388888889" lon="140.74049888888888">
<ele>234</ele>
</trkpt>
<trkpt lat="42.850366111111114" lon="140.7397">
<ele>237</ele>
</trkpt>
<trkpt lat="42.84996611111111" lon="140.739575">
<ele>236</ele>
</trkpt>
<trkpt lat="42.84885694444444" lon="140.73881194444445">
<ele>231</ele>
</trkpt>
<trkpt lat="42.84851888888889" lon="140.738585">
<ele>231</ele>
</trkpt>
<trkpt lat="42.84851888888889" lon="140.73858388888888">
<ele>231</ele>
</trkpt>
<trkpt lat="42.84754111111111" lon="140.737925">
<ele>230</ele>
</trkpt>
<trkpt lat="42.84903805555555" lon="140.73192694444444">
<ele>222</ele>
</trkpt>
<trkpt lat="42.84903805555555" lon="140.73192694444444">
<ele>222</ele>
</trkpt>
<trkpt lat="42.849131944444444" lon="140.73155111111112">
<ele>222</ele>
</trkpt>
<trkpt lat="42.849223888888886" lon="140.73111305555557">
<ele>221</ele>
</trkpt>
<trkpt lat="42.849165" lon="140.7308011111111">
<ele>220</ele>
</trkpt>
<trkpt lat="42.84747388888889" lon="140.7284011111111">
<ele>215</ele>
</trkpt>
<trkpt lat="42.847256944444446" lon="140.72827611111111">
<ele>213</ele>
</trkpt>
<trkpt lat="42.84634888888889" lon="140.72835111111112">
<ele>206</ele>
</trkpt>
<trkpt lat="42.846215" lon="140.72823805555555">
<ele>202</ele>
</trkpt>
<trkpt lat="42.845931944444445" lon="140.7277761111111">
<ele>197</ele>
</trkpt>
<trkpt lat="42.845665" lon="140.72711388888888">
<ele>185</ele>
</trkpt>
<trkpt lat="42.845281944444444" lon="140.72642611111112">
<ele>176</ele>
</trkpt>
<trkpt lat="42.84522388888889" lon="140.72620111111112">
<ele>174</ele>
</trkpt>
<trkpt lat="42.84532388888889" lon="140.7260388888889">
<ele>172</ele>
</trkpt>
<trkpt lat="42.845565" lon="140.7259138888889">
<ele>175</ele>
</trkpt>
<trkpt lat="42.84572388888889" lon="140.72575111111112">
<ele>173</ele>
</trkpt>
<trkpt lat="42.84554888888889" lon="140.72552611111112">
<ele>169</ele>
</trkpt>
<trkpt lat="42.845365" lon="140.7254761111111">
<ele>169</ele>
</trkpt>
<trkpt lat="42.84519888888889" lon="140.72528888888888">
<ele>169</ele>
</trkpt>
<trkpt lat="42.845148888888886" lon="140.7252388888889">
<ele>169</ele>
</trkpt>
<trkpt lat="42.845106944444446" lon="140.72507611111112">
<ele>168</ele>
</trkpt>
<trkpt lat="42.845081944444445" lon="140.72497611111112">
<ele>168</ele>
</trkpt>
<trkpt lat="42.84512388888889" lon="140.7247888888889">
<ele>168</ele>
</trkpt>
<trkpt lat="42.845265" lon="140.7245888888889">
<ele>167</ele>
</trkpt>
<trkpt lat="42.845515" lon="140.7243388888889">
<ele>162</ele>
</trkpt>
<trkpt lat="42.845573888888886" lon="140.72418888888888">
<ele>159</ele>
</trkpt>
<trkpt lat="42.84567388888889" lon="140.72407611111112">
<ele>158</ele>
</trkpt>
<trkpt lat="42.845865" lon="140.72393888888888">
<ele>158</ele>
</trkpt>
<trkpt lat="42.84603194444445" lon="140.72372611111112">
<ele>155</ele>
</trkpt>
<trkpt lat="42.84609" lon="140.7235761111111">
<ele>156</ele>
</trkpt>
<trkpt lat="42.84614888888889" lon="140.7232888888889">
<ele>150</ele>
</trkpt>
<trkpt lat="42.84614" lon="140.7232138888889">
<ele>150</ele>
</trkpt>
<trkpt lat="42.846115" lon="140.7229011111111">
<ele>147</ele>
</trkpt>
<trkpt lat="42.84540694444444" lon="140.7196138888889">
<ele>161</ele>
</trkpt>
<trkpt lat="42.845373055555555" lon="140.71952694444445">
<ele>161</ele>
</trkpt>
<trkpt lat="42.84527305555556" lon="140.71931388888888">
<ele>162</ele>
</trkpt>
<trkpt lat="42.84478194444444" lon="140.71872694444446">
<ele>162</ele>
</trkpt>
<trkpt lat="42.844515" lon="140.7183638888889">
<ele>162</ele>
</trkpt>
<trkpt lat="42.844456944444445" lon="140.71825194444443">
<ele>162</ele>
</trkpt>
<trkpt lat="42.844465" lon="140.7180138888889">
<ele>162</ele>
</trkpt>
<trkpt lat="42.844498055555555" lon="140.71785194444445">
<ele>161</ele>
</trkpt>
<trkpt lat="42.844723055555555" lon="140.71736388888888">
<ele>162</ele>
</trkpt>
<trkpt lat="42.84478611111111" lon="140.7172488888889">
<ele>163</ele>
</trkpt>
<trkpt lat="42.84478611111111" lon="140.7172488888889">
<ele>163</ele>
</trkpt>
<trkpt lat="42.844973055555556" lon="140.71690194444446">
<ele>163</ele>
</trkpt>
<trkpt lat="42.84514" lon="140.71650194444445">
<ele>165</ele>
</trkpt>
<trkpt lat="42.84529" lon="140.7157388888889">
<ele>162</ele>
</trkpt>
<trkpt lat="42.84539" lon="140.71535194444445">
<ele>157</ele>
</trkpt>
<trkpt lat="42.84547305555556" lon="140.71520194444443">
<ele>157</ele>
</trkpt>
<trkpt lat="42.84617305555555" lon="140.71395194444443">
<ele>162</ele>
</trkpt>
<trkpt lat="42.84620611111111" lon="140.71380194444444">
<ele>163</ele>
</trkpt>
<trkpt lat="42.84619" lon="140.71367694444444">
<ele>165</ele>
</trkpt>
<trkpt lat="42.84610611111111" lon="140.71355194444445">
<ele>168</ele>
</trkpt>
<trkpt lat="42.846048055555556" lon="140.713515">
<ele>168</ele>
</trkpt>
<trkpt lat="42.84592305555555" lon="140.71347694444444">
<ele>167</ele>
</trkpt>
<trkpt lat="42.84552305555555" lon="140.713465">
<ele>173</ele>
</trkpt>
<trkpt lat="42.84534" lon="140.71342694444445">
<ele>176</ele>
</trkpt>
<trkpt lat="42.84519" lon="140.71335194444444">
<ele>174</ele>
</trkpt>
<trkpt lat="42.84469" lon="140.713065">
<ele>175</ele>
</trkpt>
<trkpt lat="42.844273055555554" lon="140.71274">
<ele>182</ele>
</trkpt>
<trkpt lat="42.84413194444444" lon="140.712665">
<ele>186</ele>
</trkpt>
<trkpt lat="42.843915" lon="140.71269">
<ele>185</ele>
</trkpt>
<trkpt lat="42.843806944444445" lon="140.712665">
<ele>187</ele>
</trkpt>
<trkpt lat="42.84370694444444" lon="140.71255194444444">
<ele>186</ele>
</trkpt>
<trkpt lat="42.843623055555554" lon="140.71194">
<ele>185</ele>
</trkpt>
<trkpt lat="42.843606944444446" lon="140.71167694444443">
<ele>187</ele>
</trkpt>
<trkpt lat="42.843631944444446" lon="140.71114">
<ele>192</ele>
</trkpt>
<trkpt lat="42.84365694444445" lon="140.71105194444445">
<ele>191</ele>
</trkpt>
<trkpt lat="42.84385694444445" lon="140.71070305555557">
<ele>194</ele>
</trkpt>
<trkpt lat="42.84388194444445" lon="140.71059">
<ele>194</ele>
</trkpt>
<trkpt lat="42.84392305555556" lon="140.71030305555556">
<ele>196</ele>
</trkpt>
<trkpt lat="42.84402305555555" lon="140.71010305555555">
<ele>198</ele>
</trkpt>
<trkpt lat="42.844656111111114" lon="140.70924">
<ele>201</ele>
</trkpt>
<trkpt lat="42.844656111111114" lon="140.70897805555555">
<ele>202</ele>
</trkpt>
<trkpt lat="42.844615" lon="140.708665">
<ele>204</ele>
</trkpt>
<trkpt lat="42.84440194444444" lon="140.707365">
<ele>207</ele>
</trkpt>
<trkpt lat="42.84440194444444" lon="140.707365">
<ele>207</ele>
</trkpt>
<trkpt lat="42.844273055555554" lon="140.70657805555555">
<ele>209</ele>
</trkpt>
<trkpt lat="42.84575611111111" lon="140.7058911111111">
<ele>212</ele>
</trkpt>
<trkpt lat="42.846673055555556" lon="140.70546611111112">
<ele>215</ele>
</trkpt>
<trkpt lat="42.84705611111111" lon="140.7052911111111">
<ele>216</ele>
</trkpt>
<trkpt lat="42.847496944444444" lon="140.70504111111111">
<ele>218</ele>
</trkpt>
<trkpt lat="42.84776388888889" lon="140.70482805555557">
<ele>218</ele>
</trkpt>
<trkpt lat="42.84813111111111" lon="140.70446611111112">
<ele>220</ele>
</trkpt>
<trkpt lat="42.84843111111111" lon="140.70421611111112">
<ele>221</ele>
</trkpt>
<trkpt lat="42.84873888888889" lon="140.70400305555555">
<ele>222</ele>
</trkpt>
<trkpt lat="42.84913111111111" lon="140.70386611111113">
<ele>224</ele>
</trkpt>
<trkpt lat="42.84988888888889" lon="140.70375305555555">
<ele>225</ele>
</trkpt>
<trkpt lat="42.85152194444444" lon="140.703565">
<ele>228</ele>
</trkpt>
<trkpt lat="42.85221388888889" lon="140.70342805555555">
<ele>228</ele>
</trkpt>
<trkpt lat="42.85237194444444" lon="140.70332805555555">
<ele>228</ele>
</trkpt>
<trkpt lat="42.852696944444446" lon="140.70307805555555">
<ele>228</ele>
</trkpt>
<trkpt lat="42.85297194444444" lon="140.70275305555555">
<ele>232</ele>
</trkpt>
<trkpt lat="42.85339694444444" lon="140.70212805555556">
<ele>234</ele>
</trkpt>
<trkpt lat="42.853755" lon="140.70162805555555">
<ele>235</ele>
</trkpt>
<trkpt lat="42.85391388888889" lon="140.701465">
<ele>233</ele>
</trkpt>
<trkpt lat="42.854055" lon="140.70135305555556">
<ele>233</ele>
</trkpt>
<trkpt lat="42.854405" lon="140.70132805555556">
<ele>233</ele>
</trkpt>
<trkpt lat="42.854663055555555" lon="140.70142805555557">
<ele>231</ele>
</trkpt>
<trkpt lat="42.85532194444445" lon="140.70190305555556">
<ele>243</ele>
</trkpt>
<trkpt lat="42.856321944444446" lon="140.702665">
<ele>247</ele>
</trkpt>
<trkpt lat="42.85688805555556" lon="140.703065">
<ele>249</ele>
</trkpt>
<trkpt lat="42.85733805555556" lon="140.703465">
<ele>250</ele>
</trkpt>
<trkpt lat="42.858605" lon="140.704865">
<ele>256</ele>
</trkpt>
<trkpt lat="42.858646944444445" lon="140.704905">
<ele>257</ele>
</trkpt>
    </trkseg>
  </trk>
</gpx>