<?xml version="1.0" encoding="UTF-8"?>
<gpx version="1.1"
     creator="KMLtoGPX"
     xmlns="http://www.topografix.com/GPX/1/1">
  <metadata>
    <name>OtoeIshikari River Cycling Course</name>
    <desc>音江・石狩川サイクリングコース</desc>
    <bounds minlat="43.671908888888886" minlon="142.0131461111111" maxlat="43.720863888888886" maxlon="142.0985388888889"/>
  </metadata>
  <trk>
    <name>OtoeIshikari River Cycling Course</name>
    <trkseg>
<trkpt lat="43.68958666666666" lon="142.086535">
<ele>125</ele>
</trkpt>
<trkpt lat="43.68954611111111" lon="142.08656194444444">
<ele>127</ele>
</trkpt>
<trkpt lat="43.689505555555556" lon="142.08658888888888">
<ele>127</ele>
</trkpt>
<trkpt lat="43.689465" lon="142.08661583333333">
<ele>127</ele>
</trkpt>
<trkpt lat="43.68942472222222" lon="142.0866425">
<ele>127</ele>
</trkpt>
<trkpt lat="43.68938416666666" lon="142.08666944444445">
<ele>129</ele>
</trkpt>
<trkpt lat="43.68934361111111" lon="142.0866963888889">
<ele>129</ele>
</trkpt>
<trkpt lat="43.689303333333335" lon="142.08672333333334">
<ele>128</ele>
</trkpt>
<trkpt lat="43.68926277777778" lon="142.08675027777778">
<ele>128</ele>
</trkpt>
<trkpt lat="43.68922222222222" lon="142.08677722222222">
<ele>128</ele>
</trkpt>
<trkpt lat="43.68918166666667" lon="142.08680416666667">
<ele>128</ele>
</trkpt>
<trkpt lat="43.68914138888889" lon="142.0868311111111">
<ele>128</ele>
</trkpt>
<trkpt lat="43.689100833333335" lon="142.08685805555555">
<ele>127</ele>
</trkpt>
<trkpt lat="43.68906027777778" lon="142.086885">
<ele>127</ele>
</trkpt>
<trkpt lat="43.68902" lon="142.08691194444444">
<ele>128</ele>
</trkpt>
<trkpt lat="43.68897944444444" lon="142.08693888888888">
<ele>128</ele>
</trkpt>
<trkpt lat="43.68897361111111" lon="142.0869425">
<ele>128</ele>
</trkpt>
<trkpt lat="43.688986944444444" lon="142.08694">
<ele>130</ele>
</trkpt>
<trkpt lat="43.68900111111111" lon="142.0871261111111">
<ele>131</ele>
</trkpt>
<trkpt lat="43.68962611111111" lon="142.09365">
<ele>174</ele>
</trkpt>
<trkpt lat="43.689835" lon="142.09626305555557">
<ele>194</ele>
</trkpt>
<trkpt lat="43.68985" lon="142.09644111111112">
<ele>195</ele>
</trkpt>
<trkpt lat="43.68985" lon="142.09644111111112">
<ele>195</ele>
</trkpt>
<trkpt lat="43.68986" lon="142.09655">
<ele>196</ele>
</trkpt>
<trkpt lat="43.69065888888889" lon="142.09653805555556">
<ele>194</ele>
</trkpt>
<trkpt lat="43.69090111111111" lon="142.09656305555555">
<ele>195</ele>
</trkpt>
<trkpt lat="43.69110888888889" lon="142.09666305555555">
<ele>195</ele>
</trkpt>
<trkpt lat="43.69128388888889" lon="142.096775">
<ele>196</ele>
</trkpt>
<trkpt lat="43.69150888888889" lon="142.09705">
<ele>199</ele>
</trkpt>
<trkpt lat="43.69178388888889" lon="142.09756305555555">
<ele>207</ele>
</trkpt>
<trkpt lat="43.69185888888889" lon="142.097875">
<ele>208</ele>
</trkpt>
<trkpt lat="43.69190888888889" lon="142.09825">
<ele>207</ele>
</trkpt>
<trkpt lat="43.69190888888889" lon="142.0985388888889">
<ele>207</ele>
</trkpt>
<trkpt lat="43.69190888888889" lon="142.0985388888889">
<ele>207</ele>
</trkpt>
<trkpt lat="43.69190888888889" lon="142.09825">
<ele>207</ele>
</trkpt>
<trkpt lat="43.69185888888889" lon="142.097875">
<ele>208</ele>
</trkpt>
<trkpt lat="43.69178388888889" lon="142.09756305555555">
<ele>207</ele>
</trkpt>
<trkpt lat="43.69150888888889" lon="142.09705">
<ele>199</ele>
</trkpt>
<trkpt lat="43.69128388888889" lon="142.096775">
<ele>196</ele>
</trkpt>
<trkpt lat="43.69110888888889" lon="142.09666305555555">
<ele>195</ele>
</trkpt>
<trkpt lat="43.69090111111111" lon="142.09656305555555">
<ele>195</ele>
</trkpt>
<trkpt lat="43.69065888888889" lon="142.09653805555556">
<ele>194</ele>
</trkpt>
<trkpt lat="43.68986" lon="142.09655">
<ele>196</ele>
</trkpt>
<trkpt lat="43.688835" lon="142.096675">
<ele>197</ele>
</trkpt>
<trkpt lat="43.688535" lon="142.096625">
<ele>197</ele>
</trkpt>
<trkpt lat="43.68835111111111" lon="142.096475">
<ele>197</ele>
</trkpt>
<trkpt lat="43.68829" lon="142.09639611111112">
<ele>197</ele>
</trkpt>
<trkpt lat="43.68829" lon="142.09639611111112">
<ele>197</ele>
</trkpt>
<trkpt lat="43.68816805555556" lon="142.09623805555555">
<ele>197</ele>
</trkpt>
<trkpt lat="43.68797611111111" lon="142.095675">
<ele>198</ele>
</trkpt>
<trkpt lat="43.68791" lon="142.09516305555556">
<ele>194</ele>
</trkpt>
<trkpt lat="43.68785111111111" lon="142.09481305555556">
<ele>190</ele>
</trkpt>
<trkpt lat="43.68771805555556" lon="142.09345">
<ele>182</ele>
</trkpt>
<trkpt lat="43.687635" lon="142.09311305555556">
<ele>182</ele>
</trkpt>
<trkpt lat="43.68750111111111" lon="142.0928011111111">
<ele>180</ele>
</trkpt>
<trkpt lat="43.68732611111111" lon="142.0925261111111">
<ele>175</ele>
</trkpt>
<trkpt lat="43.68714305555556" lon="142.09240111111112">
<ele>176</ele>
</trkpt>
<trkpt lat="43.686993055555554" lon="142.0923511111111">
<ele>177</ele>
</trkpt>
<trkpt lat="43.686785" lon="142.09236305555555">
<ele>176</ele>
</trkpt>
<trkpt lat="43.685885" lon="142.0926511111111">
<ele>167</ele>
</trkpt>
<trkpt lat="43.68577805555555" lon="142.092625">
<ele>167</ele>
</trkpt>
<trkpt lat="43.68577805555555" lon="142.092625">
<ele>167</ele>
</trkpt>
<trkpt lat="43.68561805555556" lon="142.09258805555555">
<ele>166</ele>
</trkpt>
<trkpt lat="43.68546805555555" lon="142.0924511111111">
<ele>165</ele>
</trkpt>
<trkpt lat="43.685343055555556" lon="142.0922011111111">
<ele>162</ele>
</trkpt>
<trkpt lat="43.685293055555555" lon="142.09191305555555">
<ele>163</ele>
</trkpt>
<trkpt lat="43.68536" lon="142.0916511111111">
<ele>162</ele>
</trkpt>
<trkpt lat="43.68584305555556" lon="142.09063805555556">
<ele>156</ele>
</trkpt>
<trkpt lat="43.68586" lon="142.09021305555555">
<ele>155</ele>
</trkpt>
<trkpt lat="43.68570111111111" lon="142.08877611111112">
<ele>148</ele>
</trkpt>
<trkpt lat="43.68564305555556" lon="142.08828805555555">
<ele>147</ele>
</trkpt>
<trkpt lat="43.685635" lon="142.08796305555555">
<ele>146</ele>
</trkpt>
<trkpt lat="43.68566805555555" lon="142.08765111111111">
<ele>145</ele>
</trkpt>
<trkpt lat="43.68596388888889" lon="142.0870661111111">
<ele>141</ele>
</trkpt>
<trkpt lat="43.68596388888889" lon="142.0870661111111">
<ele>141</ele>
</trkpt>
<trkpt lat="43.68788388888889" lon="142.0832638888889">
<ele>118</ele>
</trkpt>
<trkpt lat="43.688066944444444" lon="142.0829511111111">
<ele>115</ele>
</trkpt>
<trkpt lat="43.68830111111111" lon="142.0828011111111">
<ele>115</ele>
</trkpt>
<trkpt lat="43.68865111111111" lon="142.0825761111111">
<ele>114</ele>
</trkpt>
<trkpt lat="43.68864" lon="142.0824638888889">
<ele>113</ele>
</trkpt>
<trkpt lat="43.68864" lon="142.0824638888889">
<ele>113</ele>
</trkpt>
<trkpt lat="43.68821805555555" lon="142.07797694444446">
<ele>98</ele>
</trkpt>
<trkpt lat="43.688158888888886" lon="142.07780194444445">
<ele>98</ele>
</trkpt>
<trkpt lat="43.68752611111111" lon="142.07686388888888">
<ele>98</ele>
</trkpt>
<trkpt lat="43.68715111111111" lon="142.07640194444446">
<ele>99</ele>
</trkpt>
<trkpt lat="43.68695888888889" lon="142.07632694444445">
<ele>99</ele>
</trkpt>
<trkpt lat="43.68572611111111" lon="142.07655194444445">
<ele>106</ele>
</trkpt>
<trkpt lat="43.685026111111114" lon="142.07662694444446">
<ele>114</ele>
</trkpt>
<trkpt lat="43.68483388888889" lon="142.0766138888889">
<ele>116</ele>
</trkpt>
<trkpt lat="43.68463388888889" lon="142.07645194444444">
<ele>117</ele>
</trkpt>
<trkpt lat="43.68445888888889" lon="142.07612694444444">
<ele>119</ele>
</trkpt>
<trkpt lat="43.68410111111111" lon="142.075215">
<ele>122</ele>
</trkpt>
<trkpt lat="43.683951111111114" lon="142.07500194444444">
<ele>123</ele>
</trkpt>
<trkpt lat="43.68331527777778" lon="142.07400083333334">
<ele>122</ele>
</trkpt>
<trkpt lat="43.68331611111111" lon="142.074">
<ele>121</ele>
</trkpt>
<trkpt lat="43.68313388888889" lon="142.073715">
<ele>121</ele>
</trkpt>
<trkpt lat="43.68306805555556" lon="142.07354">
<ele>122</ele>
</trkpt>
<trkpt lat="43.679251944444445" lon="142.07412805555555">
<ele>161</ele>
</trkpt>
<trkpt lat="43.678585" lon="142.07350194444444">
<ele>167</ele>
</trkpt>
<trkpt lat="43.678401944444445" lon="142.073065">
<ele>172</ele>
</trkpt>
<trkpt lat="43.678621944444444" lon="142.07252194444445">
<ele>176</ele>
</trkpt>
<trkpt lat="43.678621944444444" lon="142.07252194444445">
<ele>176</ele>
</trkpt>
<trkpt lat="43.678935" lon="142.07175305555555">
<ele>181</ele>
</trkpt>
<trkpt lat="43.67881805555555" lon="142.071165">
<ele>181</ele>
</trkpt>
<trkpt lat="43.67872694444444" lon="142.071015">
<ele>181</ele>
</trkpt>
<trkpt lat="43.678418055555554" lon="142.070815">
<ele>183</ele>
</trkpt>
<trkpt lat="43.67855194444444" lon="142.07074">
<ele>181</ele>
</trkpt>
<trkpt lat="43.679543055555555" lon="142.070615">
<ele>170</ele>
</trkpt>
<trkpt lat="43.68009305555555" lon="142.0705211111111">
<ele>163</ele>
</trkpt>
<trkpt lat="43.68009305555555" lon="142.0705211111111">
<ele>163</ele>
</trkpt>
<trkpt lat="43.682518055555555" lon="142.07010305555556">
<ele>133</ele>
</trkpt>
<trkpt lat="43.682431944444446" lon="142.06926305555555">
<ele>132</ele>
</trkpt>
<trkpt lat="43.682431666666666" lon="142.06926333333334">
<ele>130</ele>
</trkpt>
<trkpt lat="43.682183888888886" lon="142.06685305555555">
<ele>129</ele>
</trkpt>
<trkpt lat="43.682051111111114" lon="142.0655911111111">
<ele>130</ele>
</trkpt>
<trkpt lat="43.68204305555555" lon="142.06535305555556">
<ele>126</ele>
</trkpt>
<trkpt lat="43.68201805555555" lon="142.06451611111112">
<ele>121</ele>
</trkpt>
<trkpt lat="43.68210111111111" lon="142.0642161111111">
<ele>120</ele>
</trkpt>
<trkpt lat="43.682566944444446" lon="142.06314111111112">
<ele>117</ele>
</trkpt>
<trkpt lat="43.68258" lon="142.06302888888888">
<ele>117</ele>
</trkpt>
<trkpt lat="43.68258" lon="142.06302888888888">
<ele>117</ele>
</trkpt>
<trkpt lat="43.68259194444445" lon="142.06291611111112">
<ele>116</ele>
</trkpt>
<trkpt lat="43.68255888888889" lon="142.06180388888887">
<ele>112</ele>
</trkpt>
<trkpt lat="43.68245888888889" lon="142.06110388888888">
<ele>110</ele>
</trkpt>
<trkpt lat="43.68232611111111" lon="142.0605911111111">
<ele>112</ele>
</trkpt>
<trkpt lat="43.68217611111111" lon="142.06017888888888">
<ele>112</ele>
</trkpt>
<trkpt lat="43.68175111111111" lon="142.05926694444443">
<ele>113</ele>
</trkpt>
<trkpt lat="43.681601111111114" lon="142.0587788888889">
<ele>111</ele>
</trkpt>
<trkpt lat="43.68150111111111" lon="142.05834194444444">
<ele>108</ele>
</trkpt>
<trkpt lat="43.68102611111111" lon="142.05574194444443">
<ele>101</ele>
</trkpt>
<trkpt lat="43.680793055555554" lon="142.05391805555556">
<ele>95</ele>
</trkpt>
<trkpt lat="43.680813055555554" lon="142.0539311111111">
<ele>95</ele>
</trkpt>
<trkpt lat="43.680813055555554" lon="142.0539311111111">
<ele>95</ele>
</trkpt>
<trkpt lat="43.680793055555554" lon="142.05391805555556">
<ele>95</ele>
</trkpt>
<trkpt lat="43.68067611111111" lon="142.05324194444444">
<ele>92</ele>
</trkpt>
<trkpt lat="43.68053388888889" lon="142.05291805555555">
<ele>91</ele>
</trkpt>
<trkpt lat="43.68008388888889" lon="142.05201805555555">
<ele>88</ele>
</trkpt>
<trkpt lat="43.67968388888889" lon="142.05048">
<ele>82</ele>
</trkpt>
<trkpt lat="43.67939194444445" lon="142.0494561111111">
<ele>79</ele>
</trkpt>
<trkpt lat="43.67937805555555" lon="142.0494361111111">
<ele>79</ele>
</trkpt>
<trkpt lat="43.67937805555555" lon="142.0494361111111">
<ele>79</ele>
</trkpt>
<trkpt lat="43.679340555555555" lon="142.04940166666665">
<ele>79</ele>
</trkpt>
<trkpt lat="43.67930333333333" lon="142.04936722222223">
<ele>78</ele>
</trkpt>
<trkpt lat="43.67926583333333" lon="142.04933277777778">
<ele>78</ele>
</trkpt>
<trkpt lat="43.679228611111114" lon="142.04929833333333">
<ele>78</ele>
</trkpt>
<trkpt lat="43.67919111111111" lon="142.0492638888889">
<ele>77</ele>
</trkpt>
<trkpt lat="43.67915388888889" lon="142.04922944444445">
<ele>77</ele>
</trkpt>
<trkpt lat="43.679116388888886" lon="142.049195">
<ele>77</ele>
</trkpt>
<trkpt lat="43.67907916666667" lon="142.04916055555555">
<ele>76</ele>
</trkpt>
<trkpt lat="43.67904166666667" lon="142.04912611111112">
<ele>76</ele>
</trkpt>
<trkpt lat="43.679004166666665" lon="142.04909166666667">
<ele>76</ele>
</trkpt>
<trkpt lat="43.67896694444445" lon="142.04905722222222">
<ele>76</ele>
</trkpt>
<trkpt lat="43.67892944444444" lon="142.04902277777776">
<ele>76</ele>
</trkpt>
<trkpt lat="43.678892222222224" lon="142.04898833333334">
<ele>75</ele>
</trkpt>
<trkpt lat="43.67885472222222" lon="142.0489538888889">
<ele>76</ele>
</trkpt>
<trkpt lat="43.6788175" lon="142.04891944444444">
<ele>76</ele>
</trkpt>
<trkpt lat="43.67878" lon="142.048885">
<ele>76</ele>
</trkpt>
<trkpt lat="43.67874277777778" lon="142.04885055555556">
<ele>76</ele>
</trkpt>
<trkpt lat="43.67870527777778" lon="142.0488161111111">
<ele>76</ele>
</trkpt>
<trkpt lat="43.678669722222224" lon="142.04878333333335">
<ele>76</ele>
</trkpt>
<trkpt lat="43.678669722222224" lon="142.04878333333335">
<ele>76</ele>
</trkpt>
<trkpt lat="43.678644722222224" lon="142.04872305555554">
<ele>76</ele>
</trkpt>
<trkpt lat="43.67861944444444" lon="142.0486625">
<ele>76</ele>
</trkpt>
<trkpt lat="43.67859444444444" lon="142.04860222222223">
<ele>76</ele>
</trkpt>
<trkpt lat="43.67856916666667" lon="142.04854166666667">
<ele>75</ele>
</trkpt>
<trkpt lat="43.67854416666667" lon="142.0484813888889">
<ele>76</ele>
</trkpt>
<trkpt lat="43.67851916666667" lon="142.04842083333332">
<ele>75</ele>
</trkpt>
<trkpt lat="43.67849388888889" lon="142.04836055555555">
<ele>75</ele>
</trkpt>
<trkpt lat="43.67846888888889" lon="142.0483">
<ele>75</ele>
</trkpt>
<trkpt lat="43.67844361111111" lon="142.04823972222223">
<ele>75</ele>
</trkpt>
<trkpt lat="43.67841861111111" lon="142.04817916666667">
<ele>75</ele>
</trkpt>
<trkpt lat="43.67839361111111" lon="142.0481186111111">
<ele>75</ele>
</trkpt>
<trkpt lat="43.67836833333333" lon="142.04805833333333">
<ele>74</ele>
</trkpt>
<trkpt lat="43.67834333333333" lon="142.04799777777777">
<ele>73</ele>
</trkpt>
<trkpt lat="43.67831805555556" lon="142.0479375">
<ele>74</ele>
</trkpt>
<trkpt lat="43.67829305555556" lon="142.04787694444445">
<ele>73</ele>
</trkpt>
<trkpt lat="43.678267777777776" lon="142.04781666666668">
<ele>73</ele>
</trkpt>
<trkpt lat="43.678242777777776" lon="142.0477561111111">
<ele>73</ele>
</trkpt>
<trkpt lat="43.678217777777775" lon="142.04769583333334">
<ele>73</ele>
</trkpt>
<trkpt lat="43.6781925" lon="142.04763527777777">
<ele>73</ele>
</trkpt>
<trkpt lat="43.6781675" lon="142.047575">
<ele>73</ele>
</trkpt>
<trkpt lat="43.67814222222222" lon="142.04751444444443">
<ele>72</ele>
</trkpt>
<trkpt lat="43.67811722222222" lon="142.04745416666665">
<ele>72</ele>
</trkpt>
<trkpt lat="43.67809222222222" lon="142.04739361111112">
<ele>71</ele>
</trkpt>
<trkpt lat="43.678066944444446" lon="142.04733333333334">
<ele>70</ele>
</trkpt>
<trkpt lat="43.678041944444445" lon="142.04727277777778">
<ele>70</ele>
</trkpt>
<trkpt lat="43.678016666666664" lon="142.0472125">
<ele>70</ele>
</trkpt>
<trkpt lat="43.677991666666664" lon="142.04715194444444">
<ele>69</ele>
</trkpt>
<trkpt lat="43.67796638888889" lon="142.04709166666666">
<ele>68</ele>
</trkpt>
<trkpt lat="43.67794138888889" lon="142.04703111111112">
<ele>68</ele>
</trkpt>
<trkpt lat="43.67791638888889" lon="142.04697083333335">
<ele>68</ele>
</trkpt>
<trkpt lat="43.67789111111111" lon="142.04691027777778">
<ele>68</ele>
</trkpt>
<trkpt lat="43.67786611111111" lon="142.04685">
<ele>67</ele>
</trkpt>
<trkpt lat="43.677840833333335" lon="142.04678944444444">
<ele>67</ele>
</trkpt>
<trkpt lat="43.677815833333334" lon="142.04672916666667">
<ele>66</ele>
</trkpt>
<trkpt lat="43.67779083333333" lon="142.0466686111111">
<ele>66</ele>
</trkpt>
<trkpt lat="43.67776555555555" lon="142.04660833333332">
<ele>66</ele>
</trkpt>
<trkpt lat="43.67774055555556" lon="142.0465477777778">
<ele>65</ele>
</trkpt>
<trkpt lat="43.67771527777778" lon="142.0464875">
<ele>65</ele>
</trkpt>
<trkpt lat="43.67771527777778" lon="142.0464875">
<ele>65</ele>
</trkpt>
<trkpt lat="43.677683611111114" lon="142.0464436111111">
<ele>65</ele>
</trkpt>
<trkpt lat="43.67765194444444" lon="142.04639944444443">
<ele>65</ele>
</trkpt>
<trkpt lat="43.67762027777778" lon="142.04635555555555">
<ele>65</ele>
</trkpt>
<trkpt lat="43.67758861111111" lon="142.04631138888888">
<ele>64</ele>
</trkpt>
<trkpt lat="43.67755694444445" lon="142.0462675">
<ele>64</ele>
</trkpt>
<trkpt lat="43.677525277777775" lon="142.04622333333333">
<ele>65</ele>
</trkpt>
<trkpt lat="43.67749333333333" lon="142.04617944444445">
<ele>64</ele>
</trkpt>
<trkpt lat="43.677461666666666" lon="142.04613527777778">
<ele>64</ele>
</trkpt>
<trkpt lat="43.677456666666664" lon="142.04612833333334">
<ele>64</ele>
</trkpt>
<trkpt lat="43.677456666666664" lon="142.04612833333334">
<ele>64</ele>
</trkpt>
<trkpt lat="43.677443333333336" lon="142.04606916666665">
<ele>64</ele>
</trkpt>
<trkpt lat="43.67742972222222" lon="142.04601">
<ele>64</ele>
</trkpt>
<trkpt lat="43.677416388888886" lon="142.04595055555555">
<ele>64</ele>
</trkpt>
<trkpt lat="43.67740277777778" lon="142.0458913888889">
<ele>64</ele>
</trkpt>
<trkpt lat="43.677389444444444" lon="142.04583222222223">
<ele>64</ele>
</trkpt>
<trkpt lat="43.677375833333336" lon="142.04577277777778">
<ele>64</ele>
</trkpt>
<trkpt lat="43.6773625" lon="142.0457136111111">
<ele>64</ele>
</trkpt>
<trkpt lat="43.677348888888886" lon="142.04565444444444">
<ele>64</ele>
</trkpt>
<trkpt lat="43.67733583333333" lon="142.0455975">
<ele>64</ele>
</trkpt>
<trkpt lat="43.67733583333333" lon="142.0455975">
<ele>64</ele>
</trkpt>
<trkpt lat="43.67734138888889" lon="142.04552416666667">
<ele>62</ele>
</trkpt>
<trkpt lat="43.677346666666665" lon="142.0454511111111">
<ele>62</ele>
</trkpt>
<trkpt lat="43.677352222222225" lon="142.04537805555555">
<ele>62</ele>
</trkpt>
<trkpt lat="43.6773575" lon="142.045305">
<ele>62</ele>
</trkpt>
<trkpt lat="43.67736305555555" lon="142.04523194444445">
<ele>62</ele>
</trkpt>
<trkpt lat="43.677368333333334" lon="142.0451588888889">
<ele>62</ele>
</trkpt>
<trkpt lat="43.67737388888889" lon="142.04508583333333">
<ele>62</ele>
</trkpt>
<trkpt lat="43.67737916666667" lon="142.04501277777777">
<ele>61</ele>
</trkpt>
<trkpt lat="43.67738472222222" lon="142.04493944444445">
<ele>61</ele>
</trkpt>
<trkpt lat="43.67739" lon="142.0448663888889">
<ele>61</ele>
</trkpt>
<trkpt lat="43.67739527777778" lon="142.04479333333333">
<ele>61</ele>
</trkpt>
<trkpt lat="43.67740083333333" lon="142.04472027777777">
<ele>61</ele>
</trkpt>
<trkpt lat="43.67740611111111" lon="142.0446472222222">
<ele>61</ele>
</trkpt>
<trkpt lat="43.677411666666664" lon="142.04457416666668">
<ele>61</ele>
</trkpt>
<trkpt lat="43.677416944444445" lon="142.04450111111112">
<ele>61</ele>
</trkpt>
<trkpt lat="43.6774225" lon="142.04442777777777">
<ele>61</ele>
</trkpt>
<trkpt lat="43.67742777777778" lon="142.0443547222222">
<ele>61</ele>
</trkpt>
<trkpt lat="43.67743333333333" lon="142.04428166666668">
<ele>61</ele>
</trkpt>
<trkpt lat="43.677438611111114" lon="142.04420861111112">
<ele>61</ele>
</trkpt>
<trkpt lat="43.677438611111114" lon="142.04420861111112">
<ele>61</ele>
</trkpt>
<trkpt lat="43.67741" lon="142.04414416666665">
<ele>61</ele>
</trkpt>
<trkpt lat="43.67738138888889" lon="142.04407972222222">
<ele>61</ele>
</trkpt>
<trkpt lat="43.67735277777778" lon="142.04401555555555">
<ele>61</ele>
</trkpt>
<trkpt lat="43.677324166666665" lon="142.0439511111111">
<ele>62</ele>
</trkpt>
<trkpt lat="43.67729583333333" lon="142.04388666666668">
<ele>62</ele>
</trkpt>
<trkpt lat="43.67726722222222" lon="142.04382222222222">
<ele>62</ele>
</trkpt>
<trkpt lat="43.677238611111115" lon="142.04375805555554">
<ele>62</ele>
</trkpt>
<trkpt lat="43.67721" lon="142.0436936111111">
<ele>62</ele>
</trkpt>
<trkpt lat="43.67718138888889" lon="142.04362916666668">
<ele>62</ele>
</trkpt>
<trkpt lat="43.67715277777778" lon="142.043565">
<ele>62</ele>
</trkpt>
<trkpt lat="43.677124166666665" lon="142.04350055555557">
<ele>62</ele>
</trkpt>
<trkpt lat="43.67709555555555" lon="142.0434361111111">
<ele>63</ele>
</trkpt>
<trkpt lat="43.67706694444445" lon="142.04337166666667">
<ele>63</ele>
</trkpt>
<trkpt lat="43.677038333333336" lon="142.0433075">
<ele>63</ele>
</trkpt>
<trkpt lat="43.67700972222222" lon="142.04324305555556">
<ele>63</ele>
</trkpt>
<trkpt lat="43.67698111111111" lon="142.0431786111111">
<ele>63</ele>
</trkpt>
<trkpt lat="43.67695277777778" lon="142.04311416666667">
<ele>63</ele>
</trkpt>
<trkpt lat="43.676924166666666" lon="142.04305">
<ele>63</ele>
</trkpt>
<trkpt lat="43.676895555555554" lon="142.04298555555556">
<ele>63</ele>
</trkpt>
<trkpt lat="43.67686694444444" lon="142.0429211111111">
<ele>64</ele>
</trkpt>
<trkpt lat="43.676838333333336" lon="142.04285666666667">
<ele>64</ele>
</trkpt>
<trkpt lat="43.676809722222224" lon="142.0427925">
<ele>64</ele>
</trkpt>
<trkpt lat="43.67678111111111" lon="142.04272805555556">
<ele>64</ele>
</trkpt>
<trkpt lat="43.6767525" lon="142.04266361111112">
<ele>64</ele>
</trkpt>
<trkpt lat="43.67672388888889" lon="142.04259916666666">
<ele>64</ele>
</trkpt>
<trkpt lat="43.676695277777775" lon="142.042535">
<ele>64</ele>
</trkpt>
<trkpt lat="43.67666666666667" lon="142.04247055555555">
<ele>64</ele>
</trkpt>
<trkpt lat="43.67663805555556" lon="142.04240611111112">
<ele>64</ele>
</trkpt>
<trkpt lat="43.676609722222224" lon="142.04234166666666">
<ele>64</ele>
</trkpt>
<trkpt lat="43.67658111111111" lon="142.0422775">
<ele>64</ele>
</trkpt>
<trkpt lat="43.6765525" lon="142.04221305555555">
<ele>65</ele>
</trkpt>
<trkpt lat="43.67652388888889" lon="142.04214861111112">
<ele>65</ele>
</trkpt>
<trkpt lat="43.676495277777775" lon="142.04208416666665">
<ele>65</ele>
</trkpt>
<trkpt lat="43.67646666666667" lon="142.04202">
<ele>65</ele>
</trkpt>
<trkpt lat="43.67643805555556" lon="142.04195555555555">
<ele>65</ele>
</trkpt>
<trkpt lat="43.676409444444445" lon="142.0418911111111">
<ele>65</ele>
</trkpt>
<trkpt lat="43.67638083333333" lon="142.04182666666668">
<ele>65</ele>
</trkpt>
<trkpt lat="43.67635222222222" lon="142.0417625">
<ele>65</ele>
</trkpt>
<trkpt lat="43.67635222222222" lon="142.0417625">
<ele>65</ele>
</trkpt>
<trkpt lat="43.67635222222222" lon="142.0417625">
<ele>65</ele>
</trkpt>
<trkpt lat="43.67632722222222" lon="142.04171083333333">
<ele>65</ele>
</trkpt>
<trkpt lat="43.67630194444445" lon="142.04165944444443">
<ele>65</ele>
</trkpt>
<trkpt lat="43.676276944444446" lon="142.04160805555554">
<ele>65</ele>
</trkpt>
<trkpt lat="43.676251944444445" lon="142.0415563888889">
<ele>65</ele>
</trkpt>
<trkpt lat="43.676226666666665" lon="142.041505">
<ele>65</ele>
</trkpt>
<trkpt lat="43.676201666666664" lon="142.0414536111111">
<ele>65</ele>
</trkpt>
<trkpt lat="43.67617638888889" lon="142.04140194444443">
<ele>65</ele>
</trkpt>
<trkpt lat="43.67615138888889" lon="142.04135055555557">
<ele>65</ele>
</trkpt>
<trkpt lat="43.67612638888889" lon="142.04129916666668">
<ele>65</ele>
</trkpt>
<trkpt lat="43.67610111111111" lon="142.0412475">
<ele>65</ele>
</trkpt>
<trkpt lat="43.67607611111111" lon="142.0411961111111">
<ele>65</ele>
</trkpt>
<trkpt lat="43.676050833333335" lon="142.04114444444446">
<ele>65</ele>
</trkpt>
<trkpt lat="43.676025833333334" lon="142.04109305555556">
<ele>64</ele>
</trkpt>
<trkpt lat="43.67600083333333" lon="142.04104166666667">
<ele>64</ele>
</trkpt>
<trkpt lat="43.67597555555555" lon="142.04099">
<ele>64</ele>
</trkpt>
<trkpt lat="43.67595055555555" lon="142.0409386111111">
<ele>64</ele>
</trkpt>
<trkpt lat="43.67592527777778" lon="142.0408872222222">
<ele>64</ele>
</trkpt>
<trkpt lat="43.67590222222222" lon="142.04083972222222">
<ele>64</ele>
</trkpt>
<trkpt lat="43.67590222222222" lon="142.04083972222222">
<ele>64</ele>
</trkpt>
<trkpt lat="43.67586722222222" lon="142.04080083333332">
<ele>64</ele>
</trkpt>
<trkpt lat="43.67583222222222" lon="142.0407622222222">
<ele>64</ele>
</trkpt>
<trkpt lat="43.67579694444444" lon="142.04072333333335">
<ele>64</ele>
</trkpt>
<trkpt lat="43.675761944444446" lon="142.04068444444445">
<ele>64</ele>
</trkpt>
<trkpt lat="43.67572694444444" lon="142.04064583333334">
<ele>65</ele>
</trkpt>
<trkpt lat="43.675691666666665" lon="142.04060694444445">
<ele>65</ele>
</trkpt>
<trkpt lat="43.67565666666667" lon="142.04056805555555">
<ele>65</ele>
</trkpt>
<trkpt lat="43.675621666666665" lon="142.04052944444445">
<ele>65</ele>
</trkpt>
<trkpt lat="43.67558666666667" lon="142.04049055555555">
<ele>65</ele>
</trkpt>
<trkpt lat="43.67555138888889" lon="142.04045166666666">
<ele>66</ele>
</trkpt>
<trkpt lat="43.67551638888889" lon="142.04041305555555">
<ele>66</ele>
</trkpt>
<trkpt lat="43.67548138888889" lon="142.04037416666668">
<ele>66</ele>
</trkpt>
<trkpt lat="43.675446388888886" lon="142.04033527777779">
<ele>66</ele>
</trkpt>
<trkpt lat="43.67541111111111" lon="142.04029666666668">
<ele>66</ele>
</trkpt>
<trkpt lat="43.67537611111111" lon="142.04025777777778">
<ele>66</ele>
</trkpt>
<trkpt lat="43.67534111111111" lon="142.0402188888889">
<ele>66</ele>
</trkpt>
<trkpt lat="43.67530611111111" lon="142.04018027777778">
<ele>67</ele>
</trkpt>
<trkpt lat="43.67528138888889" lon="142.04015305555555">
<ele>67</ele>
</trkpt>
<trkpt lat="43.67528138888889" lon="142.04015305555555">
<ele>67</ele>
</trkpt>
<trkpt lat="43.675241944444444" lon="142.04005722222223">
<ele>67</ele>
</trkpt>
<trkpt lat="43.67520277777778" lon="142.03996138888888">
<ele>68</ele>
</trkpt>
<trkpt lat="43.67516333333333" lon="142.03986555555556">
<ele>68</ele>
</trkpt>
<trkpt lat="43.67512416666667" lon="142.03976972222222">
<ele>68</ele>
</trkpt>
<trkpt lat="43.67508472222222" lon="142.0396738888889">
<ele>68</ele>
</trkpt>
<trkpt lat="43.675045555555556" lon="142.03957833333334">
<ele>68</ele>
</trkpt>
<trkpt lat="43.67500611111111" lon="142.0394825">
<ele>68</ele>
</trkpt>
<trkpt lat="43.67496694444444" lon="142.03938666666667">
<ele>68</ele>
</trkpt>
<trkpt lat="43.6749275" lon="142.03929083333333">
<ele>69</ele>
</trkpt>
<trkpt lat="43.674888333333335" lon="142.039195">
<ele>69</ele>
</trkpt>
<trkpt lat="43.67484888888889" lon="142.03909916666666">
<ele>69</ele>
</trkpt>
<trkpt lat="43.67480972222222" lon="142.03900333333334">
<ele>69</ele>
</trkpt>
<trkpt lat="43.674770277777775" lon="142.0389075">
<ele>69</ele>
</trkpt>
<trkpt lat="43.674731111111115" lon="142.03881166666667">
<ele>69</ele>
</trkpt>
<trkpt lat="43.67469166666667" lon="142.03871583333333">
<ele>70</ele>
</trkpt>
<trkpt lat="43.6746525" lon="142.03862027777777">
<ele>71</ele>
</trkpt>
<trkpt lat="43.674613055555554" lon="142.03852444444445">
<ele>71</ele>
</trkpt>
<trkpt lat="43.67457388888889" lon="142.0384286111111">
<ele>71</ele>
</trkpt>
<trkpt lat="43.67453444444445" lon="142.03833277777778">
<ele>72</ele>
</trkpt>
<trkpt lat="43.67453444444445" lon="142.03833277777778">
<ele>72</ele>
</trkpt>
<trkpt lat="43.67453444444445" lon="142.03833277777778">
<ele>72</ele>
</trkpt>
<trkpt lat="43.67451666666667" lon="142.03827583333333">
<ele>72</ele>
</trkpt>
<trkpt lat="43.67449888888889" lon="142.03821861111112">
<ele>72</ele>
</trkpt>
<trkpt lat="43.67448111111111" lon="142.03816166666667">
<ele>72</ele>
</trkpt>
<trkpt lat="43.674463333333335" lon="142.03810472222222">
<ele>72</ele>
</trkpt>
<trkpt lat="43.67444555555556" lon="142.0380475">
<ele>72</ele>
</trkpt>
<trkpt lat="43.67442777777778" lon="142.03799055555555">
<ele>74</ele>
</trkpt>
<trkpt lat="43.67441361111111" lon="142.03794583333334">
<ele>74</ele>
</trkpt>
<trkpt lat="43.67441361111111" lon="142.03794583333334">
<ele>74</ele>
</trkpt>
<trkpt lat="43.674419722222225" lon="142.03788416666666">
<ele>74</ele>
</trkpt>
<trkpt lat="43.67442583333333" lon="142.0378227777778">
<ele>74</ele>
</trkpt>
<trkpt lat="43.67443166666666" lon="142.0377611111111">
<ele>74</ele>
</trkpt>
<trkpt lat="43.674437777777776" lon="142.03769944444446">
<ele>74</ele>
</trkpt>
<trkpt lat="43.674443333333336" lon="142.0376425">
<ele>74</ele>
</trkpt>
<trkpt lat="43.674443333333336" lon="142.0376425">
<ele>75</ele>
</trkpt>
<trkpt lat="43.674549444444445" lon="142.03750583333334">
<ele>74</ele>
</trkpt>
<trkpt lat="43.67465583333333" lon="142.03736916666668">
<ele>73</ele>
</trkpt>
<trkpt lat="43.67476194444444" lon="142.0372325">
<ele>73</ele>
</trkpt>
<trkpt lat="43.67486805555556" lon="142.03709583333332">
<ele>73</ele>
</trkpt>
<trkpt lat="43.674974444444445" lon="142.03695916666666">
<ele>73</ele>
</trkpt>
<trkpt lat="43.67508055555555" lon="142.0368225">
<ele>72</ele>
</trkpt>
<trkpt lat="43.67518666666667" lon="142.03668611111112">
<ele>72</ele>
</trkpt>
<trkpt lat="43.67529277777778" lon="142.03654944444443">
<ele>71</ele>
</trkpt>
<trkpt lat="43.675399166666665" lon="142.03641277777777">
<ele>69</ele>
</trkpt>
<trkpt lat="43.67550527777778" lon="142.0362761111111">
<ele>68</ele>
</trkpt>
<trkpt lat="43.67561138888889" lon="142.03613944444444">
<ele>67</ele>
</trkpt>
<trkpt lat="43.6757175" lon="142.03600277777778">
<ele>67</ele>
</trkpt>
<trkpt lat="43.675823888888885" lon="142.03586611111112">
<ele>67</ele>
</trkpt>
<trkpt lat="43.67593" lon="142.03572944444446">
<ele>66</ele>
</trkpt>
<trkpt lat="43.67603611111111" lon="142.03559277777777">
<ele>66</ele>
</trkpt>
<trkpt lat="43.676142222222225" lon="142.0354561111111">
<ele>65</ele>
</trkpt>
<trkpt lat="43.67624861111111" lon="142.03531944444444">
<ele>64</ele>
</trkpt>
<trkpt lat="43.67635472222222" lon="142.03518277777778">
<ele>63</ele>
</trkpt>
<trkpt lat="43.67646083333333" lon="142.03504611111111">
<ele>62</ele>
</trkpt>
<trkpt lat="43.676567222222225" lon="142.03490944444445">
<ele>61</ele>
</trkpt>
<trkpt lat="43.67667333333333" lon="142.0347727777778">
<ele>59</ele>
</trkpt>
<trkpt lat="43.67677944444444" lon="142.0346361111111">
<ele>59</ele>
</trkpt>
<trkpt lat="43.67688555555556" lon="142.03449944444444">
<ele>58</ele>
</trkpt>
<trkpt lat="43.676991944444445" lon="142.03436277777777">
<ele>58</ele>
</trkpt>
<trkpt lat="43.677098055555554" lon="142.0342263888889">
<ele>58</ele>
</trkpt>
<trkpt lat="43.67720416666667" lon="142.03408972222223">
<ele>57</ele>
</trkpt>
<trkpt lat="43.67731027777778" lon="142.03395305555554">
<ele>56</ele>
</trkpt>
<trkpt lat="43.677416666666666" lon="142.03381638888888">
<ele>54</ele>
</trkpt>
<trkpt lat="43.677522777777774" lon="142.03367972222222">
<ele>54</ele>
</trkpt>
<trkpt lat="43.67762888888889" lon="142.03354305555555">
<ele>53</ele>
</trkpt>
<trkpt lat="43.677735" lon="142.0334063888889">
<ele>53</ele>
</trkpt>
<trkpt lat="43.677841388888886" lon="142.03326972222223">
<ele>53</ele>
</trkpt>
<trkpt lat="43.6779475" lon="142.03313305555557">
<ele>52</ele>
</trkpt>
<trkpt lat="43.67805361111111" lon="142.03299638888888">
<ele>52</ele>
</trkpt>
<trkpt lat="43.67815972222222" lon="142.0328597222222">
<ele>51</ele>
</trkpt>
<trkpt lat="43.678266111111114" lon="142.03272305555555">
<ele>51</ele>
</trkpt>
<trkpt lat="43.67837222222222" lon="142.0325863888889">
<ele>50</ele>
</trkpt>
<trkpt lat="43.67847833333333" lon="142.03244972222222">
<ele>50</ele>
</trkpt>
<trkpt lat="43.67846611111111" lon="142.03246">
<ele>50</ele>
</trkpt>
<trkpt lat="43.67845888888889" lon="142.032445">
<ele>50</ele>
</trkpt>
<trkpt lat="43.67811694444445" lon="142.03170805555555">
<ele>50</ele>
</trkpt>
<trkpt lat="43.677816944444444" lon="142.031045">
<ele>50</ele>
</trkpt>
<trkpt lat="43.67624194444444" lon="142.02733305555554">
<ele>50</ele>
</trkpt>
<trkpt lat="43.67538388888889" lon="142.0253711111111">
<ele>48</ele>
</trkpt>
<trkpt lat="43.67510111111111" lon="142.02472111111112">
<ele>48</ele>
</trkpt>
<trkpt lat="43.674616944444445" lon="142.02359611111112">
<ele>47</ele>
</trkpt>
<trkpt lat="43.67353388888889" lon="142.0211711111111">
<ele>46</ele>
</trkpt>
<trkpt lat="43.67245888888889" lon="142.01792111111112">
<ele>44</ele>
</trkpt>
<trkpt lat="43.67230888888889" lon="142.0175461111111">
<ele>44</ele>
</trkpt>
<trkpt lat="43.671908888888886" lon="142.0167711111111">
<ele>45</ele>
</trkpt>
<trkpt lat="43.67225388888889" lon="142.0161838888889">
<ele>44</ele>
</trkpt>
<trkpt lat="43.67225388888889" lon="142.0161838888889">
<ele>44</ele>
</trkpt>
<trkpt lat="43.67259194444444" lon="142.0156088888889">
<ele>44</ele>
</trkpt>
<trkpt lat="43.67304194444444" lon="142.01512194444445">
<ele>44</ele>
</trkpt>
<trkpt lat="43.673276111111115" lon="142.01494694444443">
<ele>44</ele>
</trkpt>
<trkpt lat="43.67349194444444" lon="142.01484694444446">
<ele>42</ele>
</trkpt>
<trkpt lat="43.67805805555555" lon="142.0132338888889">
<ele>41</ele>
</trkpt>
<trkpt lat="43.67814111111111" lon="142.0132088888889">
<ele>41</ele>
</trkpt>
<trkpt lat="43.67829111111111" lon="142.0131461111111">
<ele>41</ele>
</trkpt>
<trkpt lat="43.678365" lon="142.0139788888889">
<ele>41</ele>
</trkpt>
<trkpt lat="43.678365" lon="142.0139788888889">
<ele>41</ele>
</trkpt>
<trkpt lat="43.67839111111111" lon="142.01428388888888">
<ele>41</ele>
</trkpt>
<trkpt lat="43.67855" lon="142.01530888888888">
<ele>41</ele>
</trkpt>
<trkpt lat="43.67875" lon="142.0161711111111">
<ele>41</ele>
</trkpt>
<trkpt lat="43.679158055555554" lon="142.0174211111111">
<ele>40</ele>
</trkpt>
<trkpt lat="43.679608055555555" lon="142.01839611111112">
<ele>40</ele>
</trkpt>
<trkpt lat="43.67994111111111" lon="142.0188838888889">
<ele>40</ele>
</trkpt>
<trkpt lat="43.68115805555556" lon="142.0203711111111">
<ele>41</ele>
</trkpt>
<trkpt lat="43.68209111111111" lon="142.0212961111111">
<ele>42</ele>
</trkpt>
<trkpt lat="43.68288305555556" lon="142.02199611111112">
<ele>42</ele>
</trkpt>
<trkpt lat="43.68351611111111" lon="142.02250805555556">
<ele>41</ele>
</trkpt>
<trkpt lat="43.68432388888889" lon="142.02302111111112">
<ele>41</ele>
</trkpt>
<trkpt lat="43.68513305555555" lon="142.02340805555556">
<ele>41</ele>
</trkpt>
<trkpt lat="43.68561611111111" lon="142.02358305555555">
<ele>42</ele>
</trkpt>
<trkpt lat="43.686123888888886" lon="142.02372">
<ele>43</ele>
</trkpt>
<trkpt lat="43.68669111111111" lon="142.023845">
<ele>45</ele>
</trkpt>
<trkpt lat="43.68752388888889" lon="142.023845">
<ele>45</ele>
</trkpt>
<trkpt lat="43.68846611111111" lon="142.02380805555555">
<ele>45</ele>
</trkpt>
<trkpt lat="43.68978194444445" lon="142.02347">
<ele>45</ele>
</trkpt>
<trkpt lat="43.69040694444445" lon="142.02323305555555">
<ele>45</ele>
</trkpt>
<trkpt lat="43.69105694444445" lon="142.02290805555555">
<ele>45</ele>
</trkpt>
<trkpt lat="43.69130694444444" lon="142.02278305555555">
<ele>45</ele>
</trkpt>
<trkpt lat="43.691765" lon="142.02260805555557">
<ele>45</ele>
</trkpt>
<trkpt lat="43.692215" lon="142.02253305555556">
<ele>45</ele>
</trkpt>
<trkpt lat="43.69231111111111" lon="142.0225388888889">
<ele>45</ele>
</trkpt>
<trkpt lat="43.69231111111111" lon="142.0225388888889">
<ele>45</ele>
</trkpt>
<trkpt lat="43.692615" lon="142.02255805555555">
<ele>45</ele>
</trkpt>
<trkpt lat="43.69298194444445" lon="142.02270694444445">
<ele>45</ele>
</trkpt>
<trkpt lat="43.693356111111115" lon="142.02300805555555">
<ele>45</ele>
</trkpt>
<trkpt lat="43.693623055555555" lon="142.02340694444445">
<ele>45</ele>
</trkpt>
<trkpt lat="43.69390611111111" lon="142.02400805555556">
<ele>45</ele>
</trkpt>
<trkpt lat="43.69441611111111" lon="142.025375">
<ele>45</ele>
</trkpt>
<trkpt lat="43.69441611111111" lon="142.025375">
<ele>45</ele>
</trkpt>
<trkpt lat="43.69443944444444" lon="142.02542805555555">
<ele>45</ele>
</trkpt>
<trkpt lat="43.69446305555556" lon="142.02548083333335">
<ele>45</ele>
</trkpt>
<trkpt lat="43.69448638888889" lon="142.0255338888889">
<ele>45</ele>
</trkpt>
<trkpt lat="43.69451" lon="142.02558694444446">
<ele>46</ele>
</trkpt>
<trkpt lat="43.69453333333333" lon="142.02564">
<ele>46</ele>
</trkpt>
<trkpt lat="43.69455694444444" lon="142.02569277777778">
<ele>46</ele>
</trkpt>
<trkpt lat="43.694580277777774" lon="142.02574583333333">
<ele>46</ele>
</trkpt>
<trkpt lat="43.69460388888889" lon="142.0257988888889">
<ele>46</ele>
</trkpt>
<trkpt lat="43.69462722222222" lon="142.02585166666665">
<ele>46</ele>
</trkpt>
<trkpt lat="43.694650833333334" lon="142.02590472222224">
<ele>46</ele>
</trkpt>
<trkpt lat="43.694674166666665" lon="142.0259577777778">
<ele>46</ele>
</trkpt>
<trkpt lat="43.6946975" lon="142.02601055555556">
<ele>46</ele>
</trkpt>
<trkpt lat="43.694721111111114" lon="142.0260636111111">
<ele>46</ele>
</trkpt>
<trkpt lat="43.694721666666666" lon="142.026065">
<ele>46</ele>
</trkpt>
<trkpt lat="43.694721666666666" lon="142.026065">
<ele>46</ele>
</trkpt>
<trkpt lat="43.694685" lon="142.02602916666666">
<ele>46</ele>
</trkpt>
<trkpt lat="43.69464861111111" lon="142.02599305555555">
<ele>46</ele>
</trkpt>
<trkpt lat="43.694611944444446" lon="142.02595722222222">
<ele>46</ele>
</trkpt>
<trkpt lat="43.69457527777778" lon="142.0259211111111">
<ele>46</ele>
</trkpt>
<trkpt lat="43.69453861111111" lon="142.02588527777777">
<ele>46</ele>
</trkpt>
<trkpt lat="43.69450194444445" lon="142.02584916666666">
<ele>46</ele>
</trkpt>
<trkpt lat="43.69446527777778" lon="142.02581305555555">
<ele>46</ele>
</trkpt>
<trkpt lat="43.694428888888886" lon="142.02577722222222">
<ele>45</ele>
</trkpt>
<trkpt lat="43.694426944444444" lon="142.02577527777777">
<ele>45</ele>
</trkpt>
<trkpt lat="43.694426944444444" lon="142.02577527777777">
<ele>45</ele>
</trkpt>
<trkpt lat="43.69445277777778" lon="142.0258263888889">
<ele>46</ele>
</trkpt>
<trkpt lat="43.694478333333336" lon="142.02587722222222">
<ele>46</ele>
</trkpt>
<trkpt lat="43.69450416666667" lon="142.02592805555557">
<ele>46</ele>
</trkpt>
<trkpt lat="43.69453" lon="142.0259788888889">
<ele>46</ele>
</trkpt>
<trkpt lat="43.69455583333333" lon="142.02602972222223">
<ele>46</ele>
</trkpt>
<trkpt lat="43.69458138888889" lon="142.02608083333334">
<ele>46</ele>
</trkpt>
<trkpt lat="43.694607222222224" lon="142.02613166666666">
<ele>46</ele>
</trkpt>
<trkpt lat="43.694633055555556" lon="142.0261825">
<ele>46</ele>
</trkpt>
<trkpt lat="43.69465888888889" lon="142.02623333333332">
<ele>46</ele>
</trkpt>
<trkpt lat="43.69468444444445" lon="142.02628416666667">
<ele>46</ele>
</trkpt>
<trkpt lat="43.69471027777778" lon="142.02633527777778">
<ele>46</ele>
</trkpt>
<trkpt lat="43.69473611111111" lon="142.02638611111112">
<ele>46</ele>
</trkpt>
<trkpt lat="43.694761666666665" lon="142.02643694444444">
<ele>46</ele>
</trkpt>
<trkpt lat="43.6947875" lon="142.0264877777778">
<ele>46</ele>
</trkpt>
<trkpt lat="43.694813333333336" lon="142.0265388888889">
<ele>46</ele>
</trkpt>
<trkpt lat="43.69483916666667" lon="142.0265897222222">
<ele>46</ele>
</trkpt>
<trkpt lat="43.69486472222222" lon="142.02664055555556">
<ele>46</ele>
</trkpt>
<trkpt lat="43.69489055555555" lon="142.02669138888888">
<ele>47</ele>
</trkpt>
<trkpt lat="43.69491638888889" lon="142.02674222222223">
<ele>47</ele>
</trkpt>
<trkpt lat="43.694942222222224" lon="142.02679333333333">
<ele>47</ele>
</trkpt>
<trkpt lat="43.69496777777778" lon="142.02684416666668">
<ele>47</ele>
</trkpt>
<trkpt lat="43.69499361111111" lon="142.026895">
<ele>47</ele>
</trkpt>
<trkpt lat="43.69501944444445" lon="142.02694583333334">
<ele>47</ele>
</trkpt>
<trkpt lat="43.69502416666667" lon="142.02695555555556">
<ele>47</ele>
</trkpt>
<trkpt lat="43.69502416666667" lon="142.02695555555556">
<ele>47</ele>
</trkpt>
<trkpt lat="43.695053888888886" lon="142.0270025">
<ele>47</ele>
</trkpt>
<trkpt lat="43.695083333333336" lon="142.02704916666667">
<ele>47</ele>
</trkpt>
<trkpt lat="43.69511277777778" lon="142.02709611111112">
<ele>47</ele>
</trkpt>
<trkpt lat="43.69514222222222" lon="142.02714277777778">
<ele>47</ele>
</trkpt>
<trkpt lat="43.69517166666667" lon="142.02718972222223">
<ele>47</ele>
</trkpt>
<trkpt lat="43.69520138888889" lon="142.02723666666665">
<ele>47</ele>
</trkpt>
<trkpt lat="43.69523083333333" lon="142.02728333333334">
<ele>48</ele>
</trkpt>
<trkpt lat="43.69526027777778" lon="142.02733027777776">
<ele>48</ele>
</trkpt>
<trkpt lat="43.69528972222222" lon="142.02737694444446">
<ele>47</ele>
</trkpt>
<trkpt lat="43.69531944444444" lon="142.02742388888888">
<ele>47</ele>
</trkpt>
<trkpt lat="43.69534888888889" lon="142.02747083333333">
<ele>48</ele>
</trkpt>
<trkpt lat="43.69537833333333" lon="142.0275175">
<ele>48</ele>
</trkpt>
<trkpt lat="43.69540777777778" lon="142.02756444444444">
<ele>48</ele>
</trkpt>
<trkpt lat="43.6954375" lon="142.0276111111111">
<ele>48</ele>
</trkpt>
<trkpt lat="43.69546694444445" lon="142.02765805555555">
<ele>48</ele>
</trkpt>
<trkpt lat="43.69549638888889" lon="142.0277047222222">
<ele>48</ele>
</trkpt>
<trkpt lat="43.695525833333335" lon="142.02775166666666">
<ele>48</ele>
</trkpt>
<trkpt lat="43.69555555555556" lon="142.0277986111111">
<ele>48</ele>
</trkpt>
<trkpt lat="43.695585" lon="142.02784527777777">
<ele>48</ele>
</trkpt>
<trkpt lat="43.695614444444445" lon="142.02789222222222">
<ele>48</ele>
</trkpt>
<trkpt lat="43.69564388888889" lon="142.02793888888888">
<ele>48</ele>
</trkpt>
<trkpt lat="43.69567361111111" lon="142.02798583333333">
<ele>49</ele>
</trkpt>
<trkpt lat="43.695703055555555" lon="142.02803277777778">
<ele>48</ele>
</trkpt>
<trkpt lat="43.6957325" lon="142.02807944444444">
<ele>48</ele>
</trkpt>
<trkpt lat="43.69576111111111" lon="142.028125">
<ele>48</ele>
</trkpt>
<trkpt lat="43.69576111111111" lon="142.028125">
<ele>48</ele>
</trkpt>
<trkpt lat="43.695795" lon="142.02816583333333">
<ele>49</ele>
</trkpt>
<trkpt lat="43.69582888888889" lon="142.02820694444443">
<ele>49</ele>
</trkpt>
<trkpt lat="43.6958625" lon="142.02824777777778">
<ele>49</ele>
</trkpt>
<trkpt lat="43.69589638888889" lon="142.02828861111112">
<ele>49</ele>
</trkpt>
<trkpt lat="43.69593027777778" lon="142.02832944444444">
<ele>49</ele>
</trkpt>
<trkpt lat="43.69596388888889" lon="142.02837055555557">
<ele>49</ele>
</trkpt>
<trkpt lat="43.69599777777778" lon="142.02841138888888">
<ele>49</ele>
</trkpt>
<trkpt lat="43.69603166666667" lon="142.02845222222223">
<ele>49</ele>
</trkpt>
<trkpt lat="43.69606527777778" lon="142.02849305555554">
<ele>49</ele>
</trkpt>
<trkpt lat="43.69609916666667" lon="142.02853416666667">
<ele>49</ele>
</trkpt>
<trkpt lat="43.696133055555556" lon="142.028575">
<ele>49</ele>
</trkpt>
<trkpt lat="43.69616694444444" lon="142.02861583333333">
<ele>49</ele>
</trkpt>
<trkpt lat="43.696200555555556" lon="142.02865666666668">
<ele>49</ele>
</trkpt>
<trkpt lat="43.69623444444444" lon="142.02869777777778">
<ele>48</ele>
</trkpt>
<trkpt lat="43.696268333333336" lon="142.02873861111112">
<ele>48</ele>
</trkpt>
<trkpt lat="43.69630194444444" lon="142.02877944444444">
<ele>48</ele>
</trkpt>
<trkpt lat="43.696335833333336" lon="142.02882055555557">
<ele>48</ele>
</trkpt>
<trkpt lat="43.69636972222222" lon="142.02886138888888">
<ele>48</ele>
</trkpt>
<trkpt lat="43.696403333333336" lon="142.02890222222223">
<ele>48</ele>
</trkpt>
<trkpt lat="43.69643722222222" lon="142.02894305555554">
<ele>48</ele>
</trkpt>
<trkpt lat="43.69647111111111" lon="142.02898416666667">
<ele>48</ele>
</trkpt>
<trkpt lat="43.69650472222222" lon="142.029025">
<ele>48</ele>
</trkpt>
<trkpt lat="43.69653861111111" lon="142.02906583333333">
<ele>48</ele>
</trkpt>
<trkpt lat="43.6965725" lon="142.02910666666668">
<ele>48</ele>
</trkpt>
<trkpt lat="43.69660611111111" lon="142.02914777777778">
<ele>48</ele>
</trkpt>
<trkpt lat="43.69663" lon="142.02917638888889">
<ele>48</ele>
</trkpt>
<trkpt lat="43.69663" lon="142.02917638888889">
<ele>48</ele>
</trkpt>
<trkpt lat="43.696667222222224" lon="142.02921111111112">
<ele>47</ele>
</trkpt>
<trkpt lat="43.69670472222222" lon="142.02924555555555">
<ele>47</ele>
</trkpt>
<trkpt lat="43.69674194444445" lon="142.02928">
<ele>47</ele>
</trkpt>
<trkpt lat="43.696779166666666" lon="142.0293147222222">
<ele>47</ele>
</trkpt>
<trkpt lat="43.69681666666666" lon="142.02934916666666">
<ele>47</ele>
</trkpt>
<trkpt lat="43.69685388888889" lon="142.0293838888889">
<ele>47</ele>
</trkpt>
<trkpt lat="43.696891111111114" lon="142.02941833333333">
<ele>47</ele>
</trkpt>
<trkpt lat="43.69692861111111" lon="142.02945277777778">
<ele>47</ele>
</trkpt>
<trkpt lat="43.69696583333333" lon="142.0294875">
<ele>47</ele>
</trkpt>
<trkpt lat="43.697003333333335" lon="142.02952194444444">
<ele>47</ele>
</trkpt>
<trkpt lat="43.69704055555555" lon="142.02955666666668">
<ele>46</ele>
</trkpt>
<trkpt lat="43.69707777777778" lon="142.0295911111111">
<ele>46</ele>
</trkpt>
<trkpt lat="43.697115277777776" lon="142.02962583333334">
<ele>46</ele>
</trkpt>
<trkpt lat="43.6971525" lon="142.02966027777777">
<ele>46</ele>
</trkpt>
<trkpt lat="43.69718972222222" lon="142.02969472222222">
<ele>46</ele>
</trkpt>
<trkpt lat="43.697227222222224" lon="142.02972944444446">
<ele>46</ele>
</trkpt>
<trkpt lat="43.69726444444444" lon="142.02976388888888">
<ele>46</ele>
</trkpt>
<trkpt lat="43.69730166666667" lon="142.02979861111112">
<ele>46</ele>
</trkpt>
<trkpt lat="43.697339166666666" lon="142.02983305555554">
<ele>46</ele>
</trkpt>
<trkpt lat="43.69737638888889" lon="142.02986777777778">
<ele>46</ele>
</trkpt>
<trkpt lat="43.69741388888889" lon="142.02990222222223">
<ele>46</ele>
</trkpt>
<trkpt lat="43.697451111111114" lon="142.02993666666666">
<ele>46</ele>
</trkpt>
<trkpt lat="43.69748833333333" lon="142.0299713888889">
<ele>46</ele>
</trkpt>
<trkpt lat="43.69752583333333" lon="142.03000583333332">
<ele>45</ele>
</trkpt>
<trkpt lat="43.69754527777778" lon="142.03002388888888">
<ele>45</ele>
</trkpt>
<trkpt lat="43.69754527777778" lon="142.03002388888888">
<ele>45</ele>
</trkpt>
<trkpt lat="43.697586944444446" lon="142.0300475">
<ele>45</ele>
</trkpt>
<trkpt lat="43.697628611111114" lon="142.03007083333333">
<ele>45</ele>
</trkpt>
<trkpt lat="43.69767" lon="142.03009416666666">
<ele>45</ele>
</trkpt>
<trkpt lat="43.69771166666666" lon="142.0301175">
<ele>45</ele>
</trkpt>
<trkpt lat="43.69775333333333" lon="142.0301411111111">
<ele>45</ele>
</trkpt>
<trkpt lat="43.697795" lon="142.03016444444444">
<ele>45</ele>
</trkpt>
<trkpt lat="43.69783666666667" lon="142.03018777777777">
<ele>45</ele>
</trkpt>
<trkpt lat="43.697878055555556" lon="142.0302113888889">
<ele>45</ele>
</trkpt>
<trkpt lat="43.697919722222224" lon="142.03023472222222">
<ele>45</ele>
</trkpt>
<trkpt lat="43.69796138888889" lon="142.03025805555555">
<ele>45</ele>
</trkpt>
<trkpt lat="43.69800305555555" lon="142.03028138888888">
<ele>45</ele>
</trkpt>
<trkpt lat="43.69804444444444" lon="142.030305">
<ele>45</ele>
</trkpt>
<trkpt lat="43.69808611111111" lon="142.03032833333333">
<ele>45</ele>
</trkpt>
<trkpt lat="43.69812777777778" lon="142.03035166666666">
<ele>45</ele>
</trkpt>
<trkpt lat="43.698169444444446" lon="142.030375">
<ele>45</ele>
</trkpt>
<trkpt lat="43.698211111111114" lon="142.0303986111111">
<ele>45</ele>
</trkpt>
<trkpt lat="43.6982525" lon="142.03042194444444">
<ele>45</ele>
</trkpt>
<trkpt lat="43.69829416666666" lon="142.03044527777777">
<ele>45</ele>
</trkpt>
<trkpt lat="43.69833583333333" lon="142.0304688888889">
<ele>45</ele>
</trkpt>
<trkpt lat="43.6983775" lon="142.03049222222222">
<ele>45</ele>
</trkpt>
<trkpt lat="43.69841888888889" lon="142.03051555555555">
<ele>45</ele>
</trkpt>
<trkpt lat="43.698460555555556" lon="142.03053888888888">
<ele>45</ele>
</trkpt>
<trkpt lat="43.698460555555556" lon="142.03053888888888">
<ele>45</ele>
</trkpt>
<trkpt lat="43.698504444444445" lon="142.0305525">
<ele>45</ele>
</trkpt>
<trkpt lat="43.698548333333335" lon="142.0305661111111">
<ele>45</ele>
</trkpt>
<trkpt lat="43.698591944444445" lon="142.03057972222223">
<ele>45</ele>
</trkpt>
<trkpt lat="43.698635833333334" lon="142.03059333333334">
<ele>45</ele>
</trkpt>
<trkpt lat="43.698679722222224" lon="142.03060722222222">
<ele>45</ele>
</trkpt>
<trkpt lat="43.69872361111111" lon="142.03062083333333">
<ele>45</ele>
</trkpt>
<trkpt lat="43.6987675" lon="142.03063444444444">
<ele>45</ele>
</trkpt>
<trkpt lat="43.69881111111111" lon="142.03064805555556">
<ele>45</ele>
</trkpt>
<trkpt lat="43.698855" lon="142.03066166666667">
<ele>45</ele>
</trkpt>
<trkpt lat="43.69889888888889" lon="142.0306752777778">
<ele>45</ele>
</trkpt>
<trkpt lat="43.69894277777778" lon="142.03068888888887">
<ele>45</ele>
</trkpt>
<trkpt lat="43.69898638888889" lon="142.0307025">
<ele>45</ele>
</trkpt>
<trkpt lat="43.69903027777778" lon="142.0307161111111">
<ele>45</ele>
</trkpt>
<trkpt lat="43.69907416666667" lon="142.03072972222222">
<ele>45</ele>
</trkpt>
<trkpt lat="43.69911805555556" lon="142.03074333333333">
<ele>45</ele>
</trkpt>
<trkpt lat="43.699150833333334" lon="142.03075361111112">
<ele>45</ele>
</trkpt>
<trkpt lat="43.699150833333334" lon="142.03075361111112">
<ele>45</ele>
</trkpt>
<trkpt lat="43.699195277777775" lon="142.03076388888888">
<ele>45</ele>
</trkpt>
<trkpt lat="43.699239444444444" lon="142.0307738888889">
<ele>45</ele>
</trkpt>
<trkpt lat="43.699283888888885" lon="142.03078416666668">
<ele>45</ele>
</trkpt>
<trkpt lat="43.699328055555554" lon="142.03079444444444">
<ele>45</ele>
</trkpt>
<trkpt lat="43.6993725" lon="142.03080472222223">
<ele>45</ele>
</trkpt>
<trkpt lat="43.699416666666664" lon="142.03081472222223">
<ele>45</ele>
</trkpt>
<trkpt lat="43.69946111111111" lon="142.030825">
<ele>45</ele>
</trkpt>
<trkpt lat="43.699505277777774" lon="142.03083527777778">
<ele>45</ele>
</trkpt>
<trkpt lat="43.69954972222222" lon="142.03084555555554">
<ele>45</ele>
</trkpt>
<trkpt lat="43.69959388888889" lon="142.03085555555555">
<ele>45</ele>
</trkpt>
<trkpt lat="43.69963833333333" lon="142.03086583333334">
<ele>45</ele>
</trkpt>
<trkpt lat="43.6996825" lon="142.0308761111111">
<ele>45</ele>
</trkpt>
<trkpt lat="43.69972694444444" lon="142.0308863888889">
<ele>45</ele>
</trkpt>
<trkpt lat="43.69977111111111" lon="142.03089666666668">
<ele>45</ele>
</trkpt>
<trkpt lat="43.69981555555555" lon="142.03090666666668">
<ele>45</ele>
</trkpt>
<trkpt lat="43.69984916666667" lon="142.03091444444445">
<ele>45</ele>
</trkpt>
<trkpt lat="43.69984916666667" lon="142.03091444444445">
<ele>45</ele>
</trkpt>
<trkpt lat="43.69989388888889" lon="142.03091444444445">
<ele>45</ele>
</trkpt>
<trkpt lat="43.69993888888889" lon="142.03091444444445">
<ele>45</ele>
</trkpt>
<trkpt lat="43.69998388888889" lon="142.03091444444445">
<ele>45</ele>
</trkpt>
<trkpt lat="43.70002861111111" lon="142.03091444444445">
<ele>45</ele>
</trkpt>
<trkpt lat="43.70007361111111" lon="142.03091444444445">
<ele>45</ele>
</trkpt>
<trkpt lat="43.70011861111111" lon="142.03091444444445">
<ele>45</ele>
</trkpt>
<trkpt lat="43.700163333333336" lon="142.03091444444445">
<ele>45</ele>
</trkpt>
<trkpt lat="43.700208333333336" lon="142.03091444444445">
<ele>45</ele>
</trkpt>
<trkpt lat="43.700253333333336" lon="142.03091444444445">
<ele>45</ele>
</trkpt>
<trkpt lat="43.700298333333336" lon="142.03091444444445">
<ele>45</ele>
</trkpt>
<trkpt lat="43.70034305555556" lon="142.03091444444445">
<ele>45</ele>
</trkpt>
<trkpt lat="43.70038805555556" lon="142.03091444444445">
<ele>45</ele>
</trkpt>
<trkpt lat="43.70043305555556" lon="142.03091444444445">
<ele>45</ele>
</trkpt>
<trkpt lat="43.70047777777778" lon="142.03091444444445">
<ele>45</ele>
</trkpt>
<trkpt lat="43.70052277777778" lon="142.03091444444445">
<ele>45</ele>
</trkpt>
<trkpt lat="43.700562777777776" lon="142.03091444444445">
<ele>45</ele>
</trkpt>
<trkpt lat="43.700562777777776" lon="142.03091444444445">
<ele>45</ele>
</trkpt>
<trkpt lat="43.7006075" lon="142.03090805555556">
<ele>45</ele>
</trkpt>
<trkpt lat="43.7006525" lon="142.03090138888888">
<ele>45</ele>
</trkpt>
<trkpt lat="43.7006975" lon="142.030895">
<ele>45</ele>
</trkpt>
<trkpt lat="43.700742222222225" lon="142.03088861111112">
<ele>45</ele>
</trkpt>
<trkpt lat="43.700787222222225" lon="142.03088194444445">
<ele>45</ele>
</trkpt>
<trkpt lat="43.700832222222225" lon="142.03087555555555">
<ele>45</ele>
</trkpt>
<trkpt lat="43.700876944444445" lon="142.03086916666666">
<ele>45</ele>
</trkpt>
<trkpt lat="43.700921944444445" lon="142.0308625">
<ele>45</ele>
</trkpt>
<trkpt lat="43.700966944444446" lon="142.03085611111112">
<ele>45</ele>
</trkpt>
<trkpt lat="43.701011666666666" lon="142.03084944444444">
<ele>45</ele>
</trkpt>
<trkpt lat="43.701056666666666" lon="142.03084305555555">
<ele>45</ele>
</trkpt>
<trkpt lat="43.70110138888889" lon="142.03083666666666">
<ele>45</ele>
</trkpt>
<trkpt lat="43.70114638888889" lon="142.03083">
<ele>45</ele>
</trkpt>
<trkpt lat="43.70119138888889" lon="142.03082361111112">
<ele>45</ele>
</trkpt>
<trkpt lat="43.70123611111111" lon="142.03081722222223">
<ele>45</ele>
</trkpt>
<trkpt lat="43.70128111111111" lon="142.03081055555555">
<ele>45</ele>
</trkpt>
<trkpt lat="43.70132611111111" lon="142.03080416666666">
<ele>45</ele>
</trkpt>
<trkpt lat="43.701370833333335" lon="142.0307975">
<ele>45</ele>
</trkpt>
<trkpt lat="43.701415833333336" lon="142.0307911111111">
<ele>45</ele>
</trkpt>
<trkpt lat="43.701460833333336" lon="142.03078472222222">
<ele>45</ele>
</trkpt>
<trkpt lat="43.701505555555556" lon="142.03077805555554">
<ele>45</ele>
</trkpt>
<trkpt lat="43.701550555555556" lon="142.03077166666668">
<ele>45</ele>
</trkpt>
<trkpt lat="43.701595555555556" lon="142.030765">
<ele>45</ele>
</trkpt>
<trkpt lat="43.70164027777778" lon="142.0307586111111">
<ele>45</ele>
</trkpt>
<trkpt lat="43.70168527777778" lon="142.03075222222222">
<ele>45</ele>
</trkpt>
<trkpt lat="43.70173027777778" lon="142.03074555555557">
<ele>45</ele>
</trkpt>
<trkpt lat="43.701775" lon="142.03073916666668">
<ele>45</ele>
</trkpt>
<trkpt lat="43.70182" lon="142.03073277777779">
<ele>45</ele>
</trkpt>
<trkpt lat="43.701865" lon="142.0307261111111">
<ele>45</ele>
</trkpt>
<trkpt lat="43.701909722222226" lon="142.03071972222222">
<ele>45</ele>
</trkpt>
<trkpt lat="43.701954722222226" lon="142.03071305555557">
<ele>45</ele>
</trkpt>
<trkpt lat="43.70199972222222" lon="142.03070666666667">
<ele>45</ele>
</trkpt>
<trkpt lat="43.70204444444445" lon="142.03070027777778">
<ele>45</ele>
</trkpt>
<trkpt lat="43.70208944444445" lon="142.0306936111111">
<ele>45</ele>
</trkpt>
<trkpt lat="43.70213444444445" lon="142.0306872222222">
<ele>45</ele>
</trkpt>
<trkpt lat="43.70217916666667" lon="142.03068083333332">
<ele>45</ele>
</trkpt>
<trkpt lat="43.70222416666667" lon="142.03067416666667">
<ele>45</ele>
</trkpt>
<trkpt lat="43.70226916666667" lon="142.03066777777778">
<ele>45</ele>
</trkpt>
<trkpt lat="43.70226916666667" lon="142.03066777777778">
<ele>45</ele>
</trkpt>
<trkpt lat="43.70226916666667" lon="142.03066777777778">
<ele>45</ele>
</trkpt>
<trkpt lat="43.70231361111111" lon="142.03066055555556">
<ele>45</ele>
</trkpt>
<trkpt lat="43.702358333333336" lon="142.03065333333333">
<ele>45</ele>
</trkpt>
<trkpt lat="43.70240277777778" lon="142.0306461111111">
<ele>45</ele>
</trkpt>
<trkpt lat="43.7024475" lon="142.0306388888889">
<ele>45</ele>
</trkpt>
<trkpt lat="43.70249222222222" lon="142.03063166666666">
<ele>45</ele>
</trkpt>
<trkpt lat="43.70253666666667" lon="142.03062444444444">
<ele>45</ele>
</trkpt>
<trkpt lat="43.70258138888889" lon="142.03061722222222">
<ele>45</ele>
</trkpt>
<trkpt lat="43.702625833333336" lon="142.03061">
<ele>45</ele>
</trkpt>
<trkpt lat="43.70267055555556" lon="142.03060277777777">
<ele>45</ele>
</trkpt>
<trkpt lat="43.70271527777778" lon="142.03059555555555">
<ele>45</ele>
</trkpt>
<trkpt lat="43.702759722222225" lon="142.03058833333333">
<ele>45</ele>
</trkpt>
<trkpt lat="43.702804444444446" lon="142.0305811111111">
<ele>45</ele>
</trkpt>
<trkpt lat="43.70284888888889" lon="142.03057388888888">
<ele>45</ele>
</trkpt>
<trkpt lat="43.70289361111111" lon="142.03056666666666">
<ele>45</ele>
</trkpt>
<trkpt lat="43.702938333333336" lon="142.03055944444444">
<ele>45</ele>
</trkpt>
<trkpt lat="43.70298277777778" lon="142.0305522222222">
<ele>45</ele>
</trkpt>
<trkpt lat="43.7030275" lon="142.030545">
<ele>45</ele>
</trkpt>
<trkpt lat="43.703071944444446" lon="142.03053777777777">
<ele>45</ele>
</trkpt>
<trkpt lat="43.703116666666666" lon="142.03053055555554">
<ele>45</ele>
</trkpt>
<trkpt lat="43.70316138888889" lon="142.03052333333332">
<ele>45</ele>
</trkpt>
<trkpt lat="43.703205833333335" lon="142.0305161111111">
<ele>45</ele>
</trkpt>
<trkpt lat="43.703250555555556" lon="142.03050888888887">
<ele>45</ele>
</trkpt>
<trkpt lat="43.703295" lon="142.03050166666668">
<ele>45</ele>
</trkpt>
<trkpt lat="43.703339722222225" lon="142.03049444444446">
<ele>45</ele>
</trkpt>
<trkpt lat="43.703384444444445" lon="142.03048722222223">
<ele>45</ele>
</trkpt>
<trkpt lat="43.70342888888889" lon="142.03048">
<ele>45</ele>
</trkpt>
<trkpt lat="43.703473611111114" lon="142.0304727777778">
<ele>45</ele>
</trkpt>
<trkpt lat="43.703518055555556" lon="142.03046555555557">
<ele>45</ele>
</trkpt>
<trkpt lat="43.703562777777776" lon="142.03045833333334">
<ele>45</ele>
</trkpt>
<trkpt lat="43.7036075" lon="142.03045111111112">
<ele>45</ele>
</trkpt>
<trkpt lat="43.703651944444445" lon="142.0304438888889">
<ele>45</ele>
</trkpt>
<trkpt lat="43.703696666666666" lon="142.03043666666667">
<ele>45</ele>
</trkpt>
<trkpt lat="43.70372722222222" lon="142.03043166666666">
<ele>45</ele>
</trkpt>
<trkpt lat="43.70372722222222" lon="142.03043166666666">
<ele>45</ele>
</trkpt>
<trkpt lat="43.70377222222222" lon="142.0304311111111">
<ele>45</ele>
</trkpt>
<trkpt lat="43.70381694444445" lon="142.03043055555557">
<ele>45</ele>
</trkpt>
<trkpt lat="43.70386194444445" lon="142.0304297222222">
<ele>45</ele>
</trkpt>
<trkpt lat="43.70390694444445" lon="142.03042916666666">
<ele>45</ele>
</trkpt>
<trkpt lat="43.70395194444445" lon="142.03042861111112">
<ele>45</ele>
</trkpt>
<trkpt lat="43.70399666666667" lon="142.03042805555555">
<ele>45</ele>
</trkpt>
<trkpt lat="43.70404166666667" lon="142.03042722222222">
<ele>45</ele>
</trkpt>
<trkpt lat="43.70408666666667" lon="142.03042666666667">
<ele>45</ele>
</trkpt>
<trkpt lat="43.70413138888889" lon="142.0304261111111">
<ele>45</ele>
</trkpt>
<trkpt lat="43.70417638888889" lon="142.03042555555555">
<ele>45</ele>
</trkpt>
<trkpt lat="43.70422138888889" lon="142.03042472222222">
<ele>45</ele>
</trkpt>
<trkpt lat="43.70426611111111" lon="142.03042416666668">
<ele>45</ele>
</trkpt>
<trkpt lat="43.70431111111111" lon="142.0304236111111">
<ele>45</ele>
</trkpt>
<trkpt lat="43.70435611111111" lon="142.03042305555556">
<ele>45</ele>
</trkpt>
<trkpt lat="43.70440083333333" lon="142.0304225">
<ele>45</ele>
</trkpt>
<trkpt lat="43.70444583333333" lon="142.03042166666665">
<ele>45</ele>
</trkpt>
<trkpt lat="43.70449083333333" lon="142.0304211111111">
<ele>45</ele>
</trkpt>
<trkpt lat="43.704502777777776" lon="142.03042083333332">
<ele>45</ele>
</trkpt>
<trkpt lat="43.704502777777776" lon="142.03042083333332">
<ele>45</ele>
</trkpt>
<trkpt lat="43.704546944444445" lon="142.03043222222223">
<ele>45</ele>
</trkpt>
<trkpt lat="43.704591111111114" lon="142.0304436111111">
<ele>45</ele>
</trkpt>
<trkpt lat="43.704635277777776" lon="142.030455">
<ele>45</ele>
</trkpt>
<trkpt lat="43.704679444444444" lon="142.0304663888889">
<ele>45</ele>
</trkpt>
<trkpt lat="43.70472361111111" lon="142.03047777777778">
<ele>45</ele>
</trkpt>
<trkpt lat="43.704767777777775" lon="142.03048916666665">
<ele>45</ele>
</trkpt>
<trkpt lat="43.704811944444444" lon="142.03050055555556">
<ele>45</ele>
</trkpt>
<trkpt lat="43.70485611111111" lon="142.03051194444444">
<ele>45</ele>
</trkpt>
<trkpt lat="43.704900277777774" lon="142.03052333333332">
<ele>45</ele>
</trkpt>
<trkpt lat="43.70494444444444" lon="142.03053472222223">
<ele>45</ele>
</trkpt>
<trkpt lat="43.70496055555556" lon="142.03053888888888">
<ele>45</ele>
</trkpt>
<trkpt lat="43.70496055555556" lon="142.03053888888888">
<ele>45</ele>
</trkpt>
<trkpt lat="43.70500027777778" lon="142.03056777777778">
<ele>45</ele>
</trkpt>
<trkpt lat="43.70504" lon="142.03059638888888">
<ele>45</ele>
</trkpt>
<trkpt lat="43.70508" lon="142.03062527777777">
<ele>45</ele>
</trkpt>
<trkpt lat="43.70511972222222" lon="142.03065416666666">
<ele>45</ele>
</trkpt>
<trkpt lat="43.70515944444445" lon="142.03068277777777">
<ele>45</ele>
</trkpt>
<trkpt lat="43.705199444444446" lon="142.03071166666666">
<ele>45</ele>
</trkpt>
<trkpt lat="43.705239166666665" lon="142.03074027777777">
<ele>45</ele>
</trkpt>
<trkpt lat="43.70527888888889" lon="142.03076916666666">
<ele>45</ele>
</trkpt>
<trkpt lat="43.70531861111111" lon="142.03079777777776">
<ele>45</ele>
</trkpt>
<trkpt lat="43.70535861111111" lon="142.03082666666666">
<ele>45</ele>
</trkpt>
<trkpt lat="43.705398333333335" lon="142.03085555555555">
<ele>45</ele>
</trkpt>
<trkpt lat="43.705438055555554" lon="142.03088416666668">
<ele>45</ele>
</trkpt>
<trkpt lat="43.70547805555555" lon="142.03091305555554">
<ele>45</ele>
</trkpt>
<trkpt lat="43.70548" lon="142.03091444444445">
<ele>45</ele>
</trkpt>
<trkpt lat="43.70548" lon="142.03091444444445">
<ele>45</ele>
</trkpt>
<trkpt lat="43.70551722222222" lon="142.03094916666666">
<ele>45</ele>
</trkpt>
<trkpt lat="43.705554722222224" lon="142.0309838888889">
<ele>45</ele>
</trkpt>
<trkpt lat="43.70559194444444" lon="142.0310186111111">
<ele>45</ele>
</trkpt>
<trkpt lat="43.70562916666667" lon="142.03105333333335">
<ele>45</ele>
</trkpt>
<trkpt lat="43.705666388888886" lon="142.03108805555556">
<ele>45</ele>
</trkpt>
<trkpt lat="43.70570361111111" lon="142.03112277777777">
<ele>45</ele>
</trkpt>
<trkpt lat="43.70574083333333" lon="142.0311575">
<ele>45</ele>
</trkpt>
<trkpt lat="43.705778055555555" lon="142.03119222222222">
<ele>45</ele>
</trkpt>
<trkpt lat="43.70581527777778" lon="142.03122694444446">
<ele>45</ele>
</trkpt>
<trkpt lat="43.70583694444444" lon="142.03124722222222">
<ele>45</ele>
</trkpt>
<trkpt lat="43.70583694444444" lon="142.03124722222222">
<ele>45</ele>
</trkpt>
<trkpt lat="43.705867222222224" lon="142.03129305555555">
<ele>45</ele>
</trkpt>
<trkpt lat="43.7058975" lon="142.03133888888888">
<ele>45</ele>
</trkpt>
<trkpt lat="43.70592777777778" lon="142.0313847222222">
<ele>45</ele>
</trkpt>
<trkpt lat="43.705958055555556" lon="142.03143055555554">
<ele>45</ele>
</trkpt>
<trkpt lat="43.70598833333333" lon="142.03147638888888">
<ele>45</ele>
</trkpt>
<trkpt lat="43.70601861111111" lon="142.0315225">
<ele>45</ele>
</trkpt>
<trkpt lat="43.70604888888889" lon="142.03156833333333">
<ele>45</ele>
</trkpt>
<trkpt lat="43.70607916666667" lon="142.03161416666666">
<ele>45</ele>
</trkpt>
<trkpt lat="43.706109444444444" lon="142.03166">
<ele>45</ele>
</trkpt>
<trkpt lat="43.706139722222225" lon="142.03170583333332">
<ele>45</ele>
</trkpt>
<trkpt lat="43.70617" lon="142.03175194444444">
<ele>45</ele>
</trkpt>
<trkpt lat="43.706200277777775" lon="142.03179777777777">
<ele>45</ele>
</trkpt>
<trkpt lat="43.70623055555556" lon="142.0318436111111">
<ele>45</ele>
</trkpt>
<trkpt lat="43.70626083333333" lon="142.03188944444443">
<ele>45</ele>
</trkpt>
<trkpt lat="43.70629111111111" lon="142.0319352777778">
<ele>45</ele>
</trkpt>
<trkpt lat="43.70632138888889" lon="142.03198111111112">
<ele>45</ele>
</trkpt>
<trkpt lat="43.70635166666667" lon="142.0320272222222">
<ele>45</ele>
</trkpt>
<trkpt lat="43.706381944444445" lon="142.03207305555554">
<ele>45</ele>
</trkpt>
<trkpt lat="43.70641222222222" lon="142.0321188888889">
<ele>45</ele>
</trkpt>
<trkpt lat="43.7064425" lon="142.03216472222223">
<ele>45</ele>
</trkpt>
<trkpt lat="43.706472777777776" lon="142.03221055555557">
<ele>45</ele>
</trkpt>
<trkpt lat="43.70650305555556" lon="142.03225666666665">
<ele>45</ele>
</trkpt>
<trkpt lat="43.70653333333333" lon="142.0323025">
<ele>45</ele>
</trkpt>
<trkpt lat="43.706563611111115" lon="142.03234833333335">
<ele>45</ele>
</trkpt>
<trkpt lat="43.70659388888889" lon="142.03239416666668">
<ele>45</ele>
</trkpt>
<trkpt lat="43.706624166666664" lon="142.03244">
<ele>45</ele>
</trkpt>
<trkpt lat="43.706654444444446" lon="142.0324861111111">
<ele>45</ele>
</trkpt>
<trkpt lat="43.70668472222222" lon="142.03253194444446">
<ele>45</ele>
</trkpt>
<trkpt lat="43.706715" lon="142.0325777777778">
<ele>45</ele>
</trkpt>
<trkpt lat="43.70674555555556" lon="142.03262361111112">
<ele>45</ele>
</trkpt>
<trkpt lat="43.70677583333333" lon="142.03266944444445">
<ele>45</ele>
</trkpt>
<trkpt lat="43.70680611111111" lon="142.03271527777778">
<ele>45</ele>
</trkpt>
<trkpt lat="43.70681416666667" lon="142.03272777777778">
<ele>45</ele>
</trkpt>
<trkpt lat="43.70681416666667" lon="142.03272777777778">
<ele>45</ele>
</trkpt>
<trkpt lat="43.70684555555555" lon="142.03277194444445">
<ele>45</ele>
</trkpt>
<trkpt lat="43.706877222222225" lon="142.03281611111112">
<ele>45</ele>
</trkpt>
<trkpt lat="43.70690861111111" lon="142.0328602777778">
<ele>45</ele>
</trkpt>
<trkpt lat="43.706940277777775" lon="142.0329047222222">
<ele>45</ele>
</trkpt>
<trkpt lat="43.70697166666667" lon="142.03294888888888">
<ele>45</ele>
</trkpt>
<trkpt lat="43.70700333333333" lon="142.03299305555555">
<ele>45</ele>
</trkpt>
<trkpt lat="43.707034722222225" lon="142.0330375">
<ele>45</ele>
</trkpt>
<trkpt lat="43.70706638888889" lon="142.03308166666667">
<ele>45</ele>
</trkpt>
<trkpt lat="43.707097777777776" lon="142.03312583333334">
<ele>45</ele>
</trkpt>
<trkpt lat="43.70712944444445" lon="142.03317027777777">
<ele>45</ele>
</trkpt>
<trkpt lat="43.70716083333333" lon="142.03321444444444">
<ele>45</ele>
</trkpt>
<trkpt lat="43.7071925" lon="142.0332586111111">
<ele>44</ele>
</trkpt>
<trkpt lat="43.70722388888889" lon="142.03330305555556">
<ele>45</ele>
</trkpt>
<trkpt lat="43.707255555555555" lon="142.03334722222223">
<ele>45</ele>
</trkpt>
<trkpt lat="43.70728694444445" lon="142.0333913888889">
<ele>45</ele>
</trkpt>
<trkpt lat="43.70731861111111" lon="142.03343555555554">
<ele>45</ele>
</trkpt>
<trkpt lat="43.70734916666667" lon="142.03347861111112">
<ele>45</ele>
</trkpt>
<trkpt lat="43.70734916666667" lon="142.03347861111112">
<ele>45</ele>
</trkpt>
<trkpt lat="43.707389722222224" lon="142.03350527777778">
<ele>45</ele>
</trkpt>
<trkpt lat="43.707430555555554" lon="142.03353194444443">
<ele>45</ele>
</trkpt>
<trkpt lat="43.70747111111111" lon="142.03355833333333">
<ele>45</ele>
</trkpt>
<trkpt lat="43.70751166666667" lon="142.033585">
<ele>45</ele>
</trkpt>
<trkpt lat="43.70755222222222" lon="142.03361166666667">
<ele>45</ele>
</trkpt>
<trkpt lat="43.707592777777776" lon="142.03363805555554">
<ele>45</ele>
</trkpt>
<trkpt lat="43.707633333333334" lon="142.03366472222223">
<ele>45</ele>
</trkpt>
<trkpt lat="43.70767416666666" lon="142.03369138888888">
<ele>45</ele>
</trkpt>
<trkpt lat="43.70771472222222" lon="142.03371777777778">
<ele>45</ele>
</trkpt>
<trkpt lat="43.70775527777778" lon="142.03374444444444">
<ele>45</ele>
</trkpt>
<trkpt lat="43.707795833333336" lon="142.03377111111112">
<ele>45</ele>
</trkpt>
<trkpt lat="43.707836388888886" lon="142.0337975">
<ele>45</ele>
</trkpt>
<trkpt lat="43.70787694444444" lon="142.03382416666668">
<ele>45</ele>
</trkpt>
<trkpt lat="43.70791777777778" lon="142.03385083333333">
<ele>45</ele>
</trkpt>
<trkpt lat="43.70795833333333" lon="142.03387722222223">
<ele>45</ele>
</trkpt>
<trkpt lat="43.70799888888889" lon="142.0339038888889">
<ele>45</ele>
</trkpt>
<trkpt lat="43.708039444444445" lon="142.03393055555554">
<ele>45</ele>
</trkpt>
<trkpt lat="43.70807055555556" lon="142.03395083333334">
<ele>45</ele>
</trkpt>
<trkpt lat="43.70807055555556" lon="142.03395083333334">
<ele>45</ele>
</trkpt>
<trkpt lat="43.70810027777778" lon="142.0339972222222">
<ele>45</ele>
</trkpt>
<trkpt lat="43.70813" lon="142.0340438888889">
<ele>45</ele>
</trkpt>
<trkpt lat="43.70815972222222" lon="142.03409027777778">
<ele>45</ele>
</trkpt>
<trkpt lat="43.70818944444444" lon="142.03413694444444">
<ele>45</ele>
</trkpt>
<trkpt lat="43.708219444444445" lon="142.03418333333335">
<ele>45</ele>
</trkpt>
<trkpt lat="43.70824916666667" lon="142.03423">
<ele>45</ele>
</trkpt>
<trkpt lat="43.70827888888889" lon="142.03427638888888">
<ele>45</ele>
</trkpt>
<trkpt lat="43.708308611111114" lon="142.03432305555555">
<ele>45</ele>
</trkpt>
<trkpt lat="43.70833833333333" lon="142.03436944444445">
<ele>45</ele>
</trkpt>
<trkpt lat="43.70836805555555" lon="142.0344161111111">
<ele>45</ele>
</trkpt>
<trkpt lat="43.708398055555556" lon="142.0344625">
<ele>45</ele>
</trkpt>
<trkpt lat="43.70842777777778" lon="142.03450916666668">
<ele>45</ele>
</trkpt>
<trkpt lat="43.7084575" lon="142.03455555555556">
<ele>45</ele>
</trkpt>
<trkpt lat="43.708487222222224" lon="142.03460222222222">
<ele>45</ele>
</trkpt>
<trkpt lat="43.70851694444445" lon="142.03464861111112">
<ele>45</ele>
</trkpt>
<trkpt lat="43.70854666666666" lon="142.0346952777778">
<ele>45</ele>
</trkpt>
<trkpt lat="43.708576388888886" lon="142.03474194444445">
<ele>45</ele>
</trkpt>
<trkpt lat="43.70860638888889" lon="142.03478833333332">
<ele>45</ele>
</trkpt>
<trkpt lat="43.70863611111111" lon="142.034835">
<ele>45</ele>
</trkpt>
<trkpt lat="43.708665833333335" lon="142.0348813888889">
<ele>45</ele>
</trkpt>
<trkpt lat="43.70869555555556" lon="142.03492805555555">
<ele>45</ele>
</trkpt>
<trkpt lat="43.70872527777778" lon="142.03497444444446">
<ele>45</ele>
</trkpt>
<trkpt lat="43.708755" lon="142.03502111111112">
<ele>45</ele>
</trkpt>
<trkpt lat="43.708785" lon="142.0350675">
<ele>45</ele>
</trkpt>
<trkpt lat="43.70881472222222" lon="142.03511416666666">
<ele>45</ele>
</trkpt>
<trkpt lat="43.708844444444445" lon="142.03516055555556">
<ele>45</ele>
</trkpt>
<trkpt lat="43.70887416666667" lon="142.03520722222223">
<ele>45</ele>
</trkpt>
<trkpt lat="43.70890388888889" lon="142.0352536111111">
<ele>45</ele>
</trkpt>
<trkpt lat="43.708933611111114" lon="142.03530027777776">
<ele>45</ele>
</trkpt>
<trkpt lat="43.70896333333334" lon="142.03534666666667">
<ele>45</ele>
</trkpt>
<trkpt lat="43.70899333333333" lon="142.03539333333333">
<ele>45</ele>
</trkpt>
<trkpt lat="43.709023055555555" lon="142.03543972222224">
<ele>45</ele>
</trkpt>
<trkpt lat="43.709024444444445" lon="142.03544194444444">
<ele>45</ele>
</trkpt>
<trkpt lat="43.709024444444445" lon="142.03544194444444">
<ele>45</ele>
</trkpt>
<trkpt lat="43.70906611111111" lon="142.035465">
<ele>45</ele>
</trkpt>
<trkpt lat="43.70910777777778" lon="142.03548833333332">
<ele>45</ele>
</trkpt>
<trkpt lat="43.70914944444444" lon="142.0355113888889">
<ele>45</ele>
</trkpt>
<trkpt lat="43.70919111111111" lon="142.03553444444444">
<ele>45</ele>
</trkpt>
<trkpt lat="43.70923305555556" lon="142.0355575">
<ele>45</ele>
</trkpt>
<trkpt lat="43.70925722222222" lon="142.03557083333334">
<ele>45</ele>
</trkpt>
<trkpt lat="43.70925722222222" lon="142.03557083333334">
<ele>45</ele>
</trkpt>
<trkpt lat="43.709294444444446" lon="142.0355363888889">
<ele>45</ele>
</trkpt>
<trkpt lat="43.70933194444444" lon="142.03550194444443">
<ele>45</ele>
</trkpt>
<trkpt lat="43.70936916666667" lon="142.0354675">
<ele>45</ele>
</trkpt>
<trkpt lat="43.70937333333333" lon="142.0354636111111">
<ele>45</ele>
</trkpt>
<trkpt lat="43.70937305555555" lon="142.0354561111111">
<ele>45</ele>
</trkpt>
<trkpt lat="43.70939694444444" lon="142.0354561111111">
<ele>45</ele>
</trkpt>
<trkpt lat="43.709405" lon="142.03541805555557">
<ele>45</ele>
</trkpt>
<trkpt lat="43.70943" lon="142.03538111111112">
<ele>45</ele>
</trkpt>
<trkpt lat="43.71048805555556" lon="142.0343311111111">
<ele>46</ele>
</trkpt>
<trkpt lat="43.710588055555554" lon="142.03426805555554">
<ele>46</ele>
</trkpt>
<trkpt lat="43.71059611111111" lon="142.03429194444445">
<ele>46</ele>
</trkpt>
<trkpt lat="43.71059611111111" lon="142.03429194444445">
<ele>46</ele>
</trkpt>
<trkpt lat="43.710588055555554" lon="142.03426805555554">
<ele>46</ele>
</trkpt>
<trkpt lat="43.71071305555556" lon="142.03419305555556">
<ele>46</ele>
</trkpt>
<trkpt lat="43.711288055555556" lon="142.03386805555556">
<ele>47</ele>
</trkpt>
<trkpt lat="43.712113055555555" lon="142.0333811111111">
<ele>47</ele>
</trkpt>
<trkpt lat="43.71258805555556" lon="142.03311805555555">
<ele>47</ele>
</trkpt>
<trkpt lat="43.71272694444445" lon="142.0335511111111">
<ele>47</ele>
</trkpt>
<trkpt lat="43.71272694444445" lon="142.0335511111111">
<ele>47</ele>
</trkpt>
<trkpt lat="43.712788055555556" lon="142.03374305555556">
<ele>47</ele>
</trkpt>
<trkpt lat="43.712988055555556" lon="142.03436805555555">
<ele>47</ele>
</trkpt>
<trkpt lat="43.71344611111111" lon="142.03578">
<ele>48</ele>
</trkpt>
<trkpt lat="43.713613055555555" lon="142.03633">
<ele>49</ele>
</trkpt>
<trkpt lat="43.71389611111111" lon="142.03721694444445">
<ele>49</ele>
</trkpt>
<trkpt lat="43.71393805555556" lon="142.037355">
<ele>49</ele>
</trkpt>
<trkpt lat="43.71403" lon="142.03764194444443">
<ele>49</ele>
</trkpt>
<trkpt lat="43.714555" lon="142.03941694444444">
<ele>49</ele>
</trkpt>
<trkpt lat="43.71478" lon="142.04014194444446">
<ele>49</ele>
</trkpt>
<trkpt lat="43.71478611111111" lon="142.0401611111111">
<ele>49</ele>
</trkpt>
<trkpt lat="43.71478611111111" lon="142.0401611111111">
<ele>49</ele>
</trkpt>
<trkpt lat="43.71478" lon="142.04014194444446">
<ele>49</ele>
</trkpt>
<trkpt lat="43.71549611111111" lon="142.03970388888888">
<ele>49</ele>
</trkpt>
<trkpt lat="43.715563055555556" lon="142.03966694444443">
<ele>50</ele>
</trkpt>
<trkpt lat="43.716188055555556" lon="142.03929194444444">
<ele>49</ele>
</trkpt>
<trkpt lat="43.71653805555555" lon="142.0390788888889">
<ele>50</ele>
</trkpt>
<trkpt lat="43.71687111111111" lon="142.0388788888889">
<ele>50</ele>
</trkpt>
<trkpt lat="43.71718805555555" lon="142.03870388888888">
<ele>50</ele>
</trkpt>
<trkpt lat="43.71760388888889" lon="142.03844194444446">
<ele>50</ele>
</trkpt>
<trkpt lat="43.71767805555555" lon="142.03867888888888">
<ele>50</ele>
</trkpt>
<trkpt lat="43.71767694444444" lon="142.03867888888888">
<ele>50</ele>
</trkpt>
<trkpt lat="43.71805388888889" lon="142.0399038888889">
<ele>50</ele>
</trkpt>
<trkpt lat="43.71852888888889" lon="142.0413788888889">
<ele>50</ele>
</trkpt>
<trkpt lat="43.71895194444444" lon="142.0427361111111">
<ele>50</ele>
</trkpt>
<trkpt lat="43.71895194444444" lon="142.0427361111111">
<ele>50</ele>
</trkpt>
<trkpt lat="43.71899611111111" lon="142.04287888888888">
<ele>50</ele>
</trkpt>
<trkpt lat="43.71972888888889" lon="142.0424538888889">
<ele>50</ele>
</trkpt>
<trkpt lat="43.720413055555554" lon="142.0420288888889">
<ele>50</ele>
</trkpt>
<trkpt lat="43.72047111111111" lon="142.04195388888888">
<ele>50</ele>
</trkpt>
<trkpt lat="43.72061305555555" lon="142.0418788888889">
<ele>50</ele>
</trkpt>
<trkpt lat="43.72065388888889" lon="142.04174111111112">
<ele>50</ele>
</trkpt>
<trkpt lat="43.72077888888889" lon="142.0416788888889">
<ele>50</ele>
</trkpt>
<trkpt lat="43.720838055555554" lon="142.0417038888889">
<ele>50</ele>
</trkpt>
<trkpt lat="43.720863888888886" lon="142.04178611111112">
<ele>50</ele>
</trkpt>
<trkpt lat="43.720863888888886" lon="142.04178611111112">
<ele>50</ele>
</trkpt>
<trkpt lat="43.720838055555554" lon="142.0417038888889">
<ele>50</ele>
</trkpt>
<trkpt lat="43.72077888888889" lon="142.0416788888889">
<ele>50</ele>
</trkpt>
<trkpt lat="43.72065388888889" lon="142.04174111111112">
<ele>50</ele>
</trkpt>
<trkpt lat="43.72061305555555" lon="142.0418788888889">
<ele>50</ele>
</trkpt>
<trkpt lat="43.72047111111111" lon="142.04195388888888">
<ele>50</ele>
</trkpt>
<trkpt lat="43.720413055555554" lon="142.0420288888889">
<ele>50</ele>
</trkpt>
<trkpt lat="43.719883055555556" lon="142.04235805555555">
<ele>50</ele>
</trkpt>
<trkpt lat="43.719883055555556" lon="142.04235805555555">
<ele>50</ele>
</trkpt>
<trkpt lat="43.71972888888889" lon="142.0424538888889">
<ele>50</ele>
</trkpt>
<trkpt lat="43.71899611111111" lon="142.04287888888888">
<ele>50</ele>
</trkpt>
<trkpt lat="43.718271111111115" lon="142.0433038888889">
<ele>50</ele>
</trkpt>
<trkpt lat="43.71757888888889" lon="142.0437161111111">
<ele>50</ele>
</trkpt>
<trkpt lat="43.71738388888889" lon="142.043835">
<ele>50</ele>
</trkpt>
<trkpt lat="43.71738388888889" lon="142.043835">
<ele>50</ele>
</trkpt>
<trkpt lat="43.716878888888886" lon="142.04414111111112">
<ele>50</ele>
</trkpt>
<trkpt lat="43.716205" lon="142.04456611111112">
<ele>50</ele>
</trkpt>
<trkpt lat="43.715563055555556" lon="142.0450661111111">
<ele>50</ele>
</trkpt>
<trkpt lat="43.715471111111114" lon="142.04514111111112">
<ele>50</ele>
</trkpt>
<trkpt lat="43.71542111111111" lon="142.0451911111111">
<ele>50</ele>
</trkpt>
<trkpt lat="43.715046111111114" lon="142.0455038888889">
<ele>50</ele>
</trkpt>
<trkpt lat="43.71263805555556" lon="142.04752888888888">
<ele>50</ele>
</trkpt>
<trkpt lat="43.71189694444445" lon="142.0481538888889">
<ele>50</ele>
</trkpt>
<trkpt lat="43.71168888888889" lon="142.04831611111112">
<ele>50</ele>
</trkpt>
<trkpt lat="43.711646944444446" lon="142.0483538888889">
<ele>50</ele>
</trkpt>
<trkpt lat="43.71127194444445" lon="142.0486911111111">
<ele>51</ele>
</trkpt>
<trkpt lat="43.71092194444444" lon="142.0490661111111">
<ele>51</ele>
</trkpt>
<trkpt lat="43.71086388888889" lon="142.04911611111112">
<ele>51</ele>
</trkpt>
<trkpt lat="43.71078888888889" lon="142.04920388888888">
<ele>51</ele>
</trkpt>
<trkpt lat="43.709921944444446" lon="142.05047888888888">
<ele>51</ele>
</trkpt>
<trkpt lat="43.708956111111114" lon="142.05194111111112">
<ele>51</ele>
</trkpt>
<trkpt lat="43.70890611111111" lon="142.0520161111111">
<ele>51</ele>
</trkpt>
<trkpt lat="43.70835611111111" lon="142.05286611111111">
<ele>52</ele>
</trkpt>
<trkpt lat="43.70829805555555" lon="142.05295388888888">
<ele>52</ele>
</trkpt>
<trkpt lat="43.70826" lon="142.05302194444445">
<ele>52</ele>
</trkpt>
<trkpt lat="43.70826" lon="142.05302194444445">
<ele>52</ele>
</trkpt>
<trkpt lat="43.708148055555554" lon="142.0532288888889">
<ele>52</ele>
</trkpt>
<trkpt lat="43.70806388888889" lon="142.05339111111113">
<ele>52</ele>
</trkpt>
<trkpt lat="43.707923055555554" lon="142.0537161111111">
<ele>52</ele>
</trkpt>
<trkpt lat="43.70731388888889" lon="142.05552805555556">
<ele>53</ele>
</trkpt>
<trkpt lat="43.70728111111111" lon="142.0556161111111">
<ele>53</ele>
</trkpt>
<trkpt lat="43.70670611111111" lon="142.0573161111111">
<ele>55</ele>
</trkpt>
<trkpt lat="43.70626388888889" lon="142.05864111111111">
<ele>55</ele>
</trkpt>
<trkpt lat="43.70603111111111" lon="142.05932805555557">
<ele>55</ele>
</trkpt>
<trkpt lat="43.70578111111111" lon="142.0600411111111">
<ele>55</ele>
</trkpt>
<trkpt lat="43.70558111111111" lon="142.0606911111111">
<ele>55</ele>
</trkpt>
<trkpt lat="43.705365" lon="142.06127805555556">
<ele>55</ele>
</trkpt>
<trkpt lat="43.70523111111111" lon="142.061615">
<ele>55</ele>
</trkpt>
<trkpt lat="43.70514" lon="142.06182805555557">
<ele>55</ele>
</trkpt>
<trkpt lat="43.704548055555556" lon="142.06294">
<ele>55</ele>
</trkpt>
<trkpt lat="43.70402305555555" lon="142.063915">
<ele>55</ele>
</trkpt>
<trkpt lat="43.70337305555555" lon="142.06512694444444">
<ele>55</ele>
</trkpt>
<trkpt lat="43.703315" lon="142.06525305555556">
<ele>55</ele>
</trkpt>
<trkpt lat="43.703265" lon="142.06534">
<ele>55</ele>
</trkpt>
<trkpt lat="43.702931944444444" lon="142.06592694444444">
<ele>55</ele>
</trkpt>
<trkpt lat="43.70264" lon="142.066365">
<ele>55</ele>
</trkpt>
<trkpt lat="43.70254888888889" lon="142.06647805555556">
<ele>55</ele>
</trkpt>
<trkpt lat="43.70239888888889" lon="142.06665305555555">
<ele>55</ele>
</trkpt>
<trkpt lat="43.70220694444444" lon="142.066865">
<ele>55</ele>
</trkpt>
<trkpt lat="43.70207388888889" lon="142.06702694444445">
<ele>55</ele>
</trkpt>
<trkpt lat="43.70174" lon="142.06740194444444">
<ele>55</ele>
</trkpt>
<trkpt lat="43.70142388888889" lon="142.067765">
<ele>55</ele>
</trkpt>
<trkpt lat="43.70049111111111" lon="142.06882694444445">
<ele>55</ele>
</trkpt>
<trkpt lat="43.699581944444446" lon="142.06984">
<ele>56</ele>
</trkpt>
<trkpt lat="43.69920694444444" lon="142.0702588888889">
<ele>56</ele>
</trkpt>
<trkpt lat="43.69920694444444" lon="142.0702588888889">
<ele>56</ele>
</trkpt>
<trkpt lat="43.69889888888889" lon="142.07060194444443">
<ele>56</ele>
</trkpt>
<trkpt lat="43.698748888888886" lon="142.070815">
<ele>56</ele>
</trkpt>
<trkpt lat="43.69864888888889" lon="142.07094">
<ele>56</ele>
</trkpt>
<trkpt lat="43.69854111111111" lon="142.07107694444446">
<ele>55</ele>
</trkpt>
<trkpt lat="43.69809111111111" lon="142.07165194444445">
<ele>56</ele>
</trkpt>
<trkpt lat="43.69745805555556" lon="142.07242694444443">
<ele>59</ele>
</trkpt>
<trkpt lat="43.697208055555556" lon="142.0727388888889">
<ele>62</ele>
</trkpt>
<trkpt lat="43.69691611111111" lon="142.07311388888888">
<ele>64</ele>
</trkpt>
<trkpt lat="43.696283055555554" lon="142.07390194444446">
<ele>67</ele>
</trkpt>
<trkpt lat="43.69562805555555" lon="142.07460194444445">
<ele>70</ele>
</trkpt>
<trkpt lat="43.69562805555555" lon="142.07460194444445">
<ele>70</ele>
</trkpt>
<trkpt lat="43.6955" lon="142.0747388888889">
<ele>70</ele>
</trkpt>
<trkpt lat="43.69576611111111" lon="142.07517694444445">
<ele>68</ele>
</trkpt>
<trkpt lat="43.69591611111111" lon="142.0754388888889">
<ele>68</ele>
</trkpt>
<trkpt lat="43.696108055555555" lon="142.0757638888889">
<ele>69</ele>
</trkpt>
<trkpt lat="43.696333055555556" lon="142.0761388888889">
<ele>69</ele>
</trkpt>
<trkpt lat="43.696483055555554" lon="142.07638888888889">
<ele>69</ele>
</trkpt>
<trkpt lat="43.69704111111111" lon="142.07731388888888">
<ele>69</ele>
</trkpt>
<trkpt lat="43.69705" lon="142.0773388888889">
<ele>70</ele>
</trkpt>
<trkpt lat="43.69716611111111" lon="142.0775761111111">
<ele>70</ele>
</trkpt>
<trkpt lat="43.69725" lon="142.07778888888888">
<ele>70</ele>
</trkpt>
<trkpt lat="43.697275" lon="142.07786388888888">
<ele>70</ele>
</trkpt>
<trkpt lat="43.69745" lon="142.0784888888889">
<ele>70</ele>
</trkpt>
<trkpt lat="43.697541111111114" lon="142.0788261111111">
<ele>71</ele>
</trkpt>
<trkpt lat="43.697558055555554" lon="142.07890111111112">
<ele>72</ele>
</trkpt>
<trkpt lat="43.69785805555556" lon="142.0799761111111">
<ele>76</ele>
</trkpt>
<trkpt lat="43.697983055555554" lon="142.0804138888889">
<ele>77</ele>
</trkpt>
<trkpt lat="43.69818305555555" lon="142.0811138888889">
<ele>82</ele>
</trkpt>
<trkpt lat="43.69785" lon="142.08127611111112">
<ele>82</ele>
</trkpt>
<trkpt lat="43.69747111111111" lon="142.08146888888888">
<ele>84</ele>
</trkpt>
<trkpt lat="43.69747111111111" lon="142.08146888888888">
<ele>84</ele>
</trkpt>
<trkpt lat="43.69745805555556" lon="142.0814761111111">
<ele>84</ele>
</trkpt>
<trkpt lat="43.69658305555556" lon="142.0820138888889">
<ele>87</ele>
</trkpt>
<trkpt lat="43.696283055555554" lon="142.08218888888888">
<ele>86</ele>
</trkpt>
<trkpt lat="43.69555805555556" lon="142.08262611111113">
<ele>91</ele>
</trkpt>
<trkpt lat="43.69545" lon="142.0826888888889">
<ele>92</ele>
</trkpt>
<trkpt lat="43.694975" lon="142.08300111111112">
<ele>92</ele>
</trkpt>
<trkpt lat="43.69475888888889" lon="142.0831511111111">
<ele>92</ele>
</trkpt>
<trkpt lat="43.694541111111114" lon="142.08326305555556">
<ele>93</ele>
</trkpt>
<trkpt lat="43.694541111111114" lon="142.08326305555556">
<ele>93</ele>
</trkpt>
<trkpt lat="43.69425" lon="142.08341388888888">
<ele>95</ele>
</trkpt>
<trkpt lat="43.694125" lon="142.0834888888889">
<ele>97</ele>
</trkpt>
<trkpt lat="43.69368388888889" lon="142.0838261111111">
<ele>99</ele>
</trkpt>
<trkpt lat="43.69290111111111" lon="142.08433888888888">
<ele>98</ele>
</trkpt>
<trkpt lat="43.69254194444444" lon="142.08455111111113">
<ele>101</ele>
</trkpt>
<trkpt lat="43.69242694444444" lon="142.08459805555555">
<ele>103</ele>
</trkpt>
<trkpt lat="43.69242694444444" lon="142.08459805555555">
<ele>103</ele>
</trkpt>
<trkpt lat="43.69180111111111" lon="142.0848511111111">
<ele>112</ele>
</trkpt>
<trkpt lat="43.69145888888889" lon="142.0849638888889">
<ele>111</ele>
</trkpt>
<trkpt lat="43.69116694444445" lon="142.0851011111111">
<ele>110</ele>
</trkpt>
<trkpt lat="43.69080888888889" lon="142.0854011111111">
<ele>113</ele>
</trkpt>
<trkpt lat="43.69064111111111" lon="142.08559194444445">
<ele>117</ele>
</trkpt>
<trkpt lat="43.69064111111111" lon="142.08559194444445">
<ele>117</ele>
</trkpt>
<trkpt lat="43.69056805555555" lon="142.0856761111111">
<ele>118</ele>
</trkpt>
<trkpt lat="43.69022611111111" lon="142.08602611111112">
<ele>121</ele>
</trkpt>
<trkpt lat="43.689703888888886" lon="142.0865311111111">
<ele>126</ele>
</trkpt>
    </trkseg>
  </trk>
</gpx>