<?xml version="1.0" encoding="UTF-8"?>
<gpx version="1.1"
     creator="KMLtoGPX"
     xmlns="http://www.topografix.com/GPX/1/1">
  <metadata>
    <name>Samani course</name>
    <desc>様似コース</desc>
    <bounds minlat="42.10530694444444" minlon="142.87912305555557" maxlat="42.243046944444444" maxlon="143.0089861111111"/>
  </metadata>
  <trk>
    <name>Samani course</name>
    <trkseg>
<trkpt lat="42.10982194444444" lon="142.98573194444444">
<ele>71</ele>
</trkpt>
<trkpt lat="42.10874805555556" lon="142.98515805555556">
<ele>63</ele>
</trkpt>
<trkpt lat="42.10825694444444" lon="142.98503305555556">
<ele>58</ele>
</trkpt>
<trkpt lat="42.10762388888889" lon="142.98498305555555">
<ele>47</ele>
</trkpt>
<trkpt lat="42.10747388888889" lon="142.98509611111112">
<ele>46</ele>
</trkpt>
<trkpt lat="42.106865" lon="142.98484611111112">
<ele>42</ele>
</trkpt>
<trkpt lat="42.10669" lon="142.98462111111112">
<ele>41</ele>
</trkpt>
<trkpt lat="42.10622388888889" lon="142.98333305555556">
<ele>38</ele>
</trkpt>
<trkpt lat="42.105556944444444" lon="142.98137111111112">
<ele>36</ele>
</trkpt>
<trkpt lat="42.10539" lon="142.9807211111111">
<ele>35</ele>
</trkpt>
<trkpt lat="42.105315" lon="142.98035805555557">
<ele>34</ele>
</trkpt>
<trkpt lat="42.10530694444444" lon="142.9801461111111">
<ele>35</ele>
</trkpt>
<trkpt lat="42.105315" lon="142.97988305555555">
<ele>35</ele>
</trkpt>
<trkpt lat="42.10539" lon="142.97954611111112">
<ele>29</ele>
</trkpt>
<trkpt lat="42.10547388888889" lon="142.97930888888888">
<ele>28</ele>
</trkpt>
<trkpt lat="42.10557305555555" lon="142.9791088888889">
<ele>28</ele>
</trkpt>
<trkpt lat="42.10569805555556" lon="142.9789088888889">
<ele>28</ele>
</trkpt>
<trkpt lat="42.10619805555555" lon="142.97828388888888">
<ele>22</ele>
</trkpt>
<trkpt lat="42.106323055555556" lon="142.9780961111111">
<ele>20</ele>
</trkpt>
<trkpt lat="42.106415" lon="142.97794611111112">
<ele>19</ele>
</trkpt>
<trkpt lat="42.106498055555555" lon="142.9776838888889">
<ele>18</ele>
</trkpt>
<trkpt lat="42.10654" lon="142.9774088888889">
<ele>17</ele>
</trkpt>
<trkpt lat="42.10655694444444" lon="142.9772211111111">
<ele>17</ele>
</trkpt>
<trkpt lat="42.10654" lon="142.9769588888889">
<ele>15</ele>
</trkpt>
<trkpt lat="42.106498055555555" lon="142.9766338888889">
<ele>13</ele>
</trkpt>
<trkpt lat="42.10613194444444" lon="142.9753961111111">
<ele>4</ele>
</trkpt>
<trkpt lat="42.10667888888889" lon="142.97509194444444">
<ele>4</ele>
</trkpt>
<trkpt lat="42.10667888888889" lon="142.97509194444444">
<ele>4</ele>
</trkpt>
<trkpt lat="42.10687305555555" lon="142.9749838888889">
<ele>4</ele>
</trkpt>
<trkpt lat="42.10808111111111" lon="142.9736088888889">
<ele>4</ele>
</trkpt>
<trkpt lat="42.10933888888889" lon="142.9720461111111">
<ele>6</ele>
</trkpt>
<trkpt lat="42.109363888888886" lon="142.9720461111111">
<ele>6</ele>
</trkpt>
<trkpt lat="42.10942305555555" lon="142.9719838888889">
<ele>4</ele>
</trkpt>
<trkpt lat="42.11010611111111" lon="142.97138388888888">
<ele>1</ele>
</trkpt>
<trkpt lat="42.11028888888889" lon="142.9712461111111">
<ele>3</ele>
</trkpt>
<trkpt lat="42.110638888888886" lon="142.9708961111111">
<ele>3</ele>
</trkpt>
<trkpt lat="42.111198055555555" lon="142.9700838888889">
<ele>0</ele>
</trkpt>
<trkpt lat="42.112046944444444" lon="142.9687088888889">
<ele>1</ele>
</trkpt>
<trkpt lat="42.11228888888889" lon="142.9684211111111">
<ele>0</ele>
</trkpt>
<trkpt lat="42.112496944444445" lon="142.96822111111112">
<ele>0</ele>
</trkpt>
<trkpt lat="42.11280611111111" lon="142.96800888888887">
<ele>1</ele>
</trkpt>
<trkpt lat="42.113306111111115" lon="142.9677338888889">
<ele>0</ele>
</trkpt>
<trkpt lat="42.11378888888889" lon="142.9675838888889">
<ele>2</ele>
</trkpt>
<trkpt lat="42.114405" lon="142.9674588888889">
<ele>1</ele>
</trkpt>
<trkpt lat="42.116121944444444" lon="142.96740888888888">
<ele>1</ele>
</trkpt>
<trkpt lat="42.11638" lon="142.9673838888889">
<ele>3</ele>
</trkpt>
<trkpt lat="42.11664694444445" lon="142.96732111111112">
<ele>2</ele>
</trkpt>
<trkpt lat="42.11687194444445" lon="142.96718388888888">
<ele>3</ele>
</trkpt>
<trkpt lat="42.117263055555554" lon="142.96684611111112">
<ele>4</ele>
</trkpt>
<trkpt lat="42.11768" lon="142.9663711111111">
<ele>5</ele>
</trkpt>
<trkpt lat="42.11863805555556" lon="142.9648711111111">
<ele>6</ele>
</trkpt>
<trkpt lat="42.11902111111111" lon="142.96403388888888">
<ele>2</ele>
</trkpt>
<trkpt lat="42.11932111111111" lon="142.9631588888889">
<ele>6</ele>
</trkpt>
<trkpt lat="42.11955388888889" lon="142.9621961111111">
<ele>2</ele>
</trkpt>
<trkpt lat="42.11967888888889" lon="142.96187111111112">
<ele>3</ele>
</trkpt>
<trkpt lat="42.119863055555555" lon="142.96152111111113">
<ele>2</ele>
</trkpt>
<trkpt lat="42.12047111111111" lon="142.96040888888888">
<ele>7</ele>
</trkpt>
<trkpt lat="42.12072111111111" lon="142.9599088888889">
<ele>3</ele>
</trkpt>
<trkpt lat="42.12082111111111" lon="142.95969694444443">
<ele>3</ele>
</trkpt>
<trkpt lat="42.12097111111111" lon="142.95929694444445">
<ele>1</ele>
</trkpt>
<trkpt lat="42.12119611111111" lon="142.95869694444445">
<ele>4</ele>
</trkpt>
<trkpt lat="42.12167888888889" lon="142.9571588888889">
<ele>5</ele>
</trkpt>
<trkpt lat="42.121786944444445" lon="142.95682194444444">
<ele>6</ele>
</trkpt>
<trkpt lat="42.122078888888886" lon="142.95559694444444">
<ele>4</ele>
</trkpt>
<trkpt lat="42.12197111111111" lon="142.95434694444444">
<ele>3</ele>
</trkpt>
<trkpt lat="42.122011944444445" lon="142.95360888888888">
<ele>7</ele>
</trkpt>
<trkpt lat="42.12240388888889" lon="142.951035">
<ele>4</ele>
</trkpt>
<trkpt lat="42.12262" lon="142.949485">
<ele>4</ele>
</trkpt>
<trkpt lat="42.122845" lon="142.94719805555556">
<ele>7</ele>
</trkpt>
<trkpt lat="42.12300305555556" lon="142.94517194444444">
<ele>8</ele>
</trkpt>
<trkpt lat="42.123086944444445" lon="142.944885">
<ele>6</ele>
</trkpt>
<trkpt lat="42.12328888888889" lon="142.9444061111111">
<ele>6</ele>
</trkpt>
<trkpt lat="42.12328888888889" lon="142.9444061111111">
<ele>6</ele>
</trkpt>
<trkpt lat="42.12363694444444" lon="142.943585">
<ele>7</ele>
</trkpt>
<trkpt lat="42.12390305555556" lon="142.94322305555556">
<ele>9</ele>
</trkpt>
<trkpt lat="42.12441111111111" lon="142.942835">
<ele>4</ele>
</trkpt>
<trkpt lat="42.12477805555555" lon="142.94266">
<ele>4</ele>
</trkpt>
<trkpt lat="42.12511111111111" lon="142.94252305555557">
<ele>4</ele>
</trkpt>
<trkpt lat="42.125395" lon="142.942235">
<ele>5</ele>
</trkpt>
<trkpt lat="42.12547" lon="142.94187305555556">
<ele>4</ele>
</trkpt>
<trkpt lat="42.12563611111111" lon="142.94102305555555">
<ele>4</ele>
</trkpt>
<trkpt lat="42.12573611111111" lon="142.94049805555557">
<ele>5</ele>
</trkpt>
<trkpt lat="42.125753055555556" lon="142.94041">
<ele>5</ele>
</trkpt>
<trkpt lat="42.12600305555556" lon="142.93912305555557">
<ele>4</ele>
</trkpt>
<trkpt lat="42.12616111111111" lon="142.93836">
<ele>5</ele>
</trkpt>
<trkpt lat="42.12636888888889" lon="142.93729805555554">
<ele>5</ele>
</trkpt>
<trkpt lat="42.12665194444445" lon="142.9358611111111">
<ele>5</ele>
</trkpt>
<trkpt lat="42.12676111111111" lon="142.93529805555556">
<ele>5</ele>
</trkpt>
<trkpt lat="42.12685194444445" lon="142.9348361111111">
<ele>5</ele>
</trkpt>
<trkpt lat="42.126978055555554" lon="142.93417305555556">
<ele>5</ele>
</trkpt>
<trkpt lat="42.12708611111111" lon="142.93364805555555">
<ele>5</ele>
</trkpt>
<trkpt lat="42.12721111111111" lon="142.93299805555554">
<ele>6</ele>
</trkpt>
<trkpt lat="42.127226944444445" lon="142.9329361111111">
<ele>6</ele>
</trkpt>
<trkpt lat="42.12740194444444" lon="142.93206111111112">
<ele>6</ele>
</trkpt>
<trkpt lat="42.12743611111111" lon="142.9318861111111">
<ele>6</ele>
</trkpt>
<trkpt lat="42.12756111111111" lon="142.9312361111111">
<ele>6</ele>
</trkpt>
<trkpt lat="42.12782694444444" lon="142.9297361111111">
<ele>5</ele>
</trkpt>
<trkpt lat="42.12786" lon="142.92957388888888">
<ele>5</ele>
</trkpt>
<trkpt lat="42.127985" lon="142.9288861111111">
<ele>5</ele>
</trkpt>
<trkpt lat="42.12800194444444" lon="142.92877388888888">
<ele>6</ele>
</trkpt>
<trkpt lat="42.12819388888889" lon="142.9279238888889">
<ele>7</ele>
</trkpt>
<trkpt lat="42.12820194444444" lon="142.9276361111111">
<ele>7</ele>
</trkpt>
<trkpt lat="42.128135" lon="142.92729888888888">
<ele>7</ele>
</trkpt>
<trkpt lat="42.127985" lon="142.9269111111111">
<ele>7</ele>
</trkpt>
<trkpt lat="42.127876944444445" lon="142.9267361111111">
<ele>8</ele>
</trkpt>
<trkpt lat="42.12685194444445" lon="142.9255738888889">
<ele>9</ele>
</trkpt>
<trkpt lat="42.126285" lon="142.92458694444446">
<ele>8</ele>
</trkpt>
<trkpt lat="42.126185" lon="142.9241738888889">
<ele>8</ele>
</trkpt>
<trkpt lat="42.12611888888889" lon="142.92369888888888">
<ele>8</ele>
</trkpt>
<trkpt lat="42.12611888888889" lon="142.9230488888889">
<ele>8</ele>
</trkpt>
<trkpt lat="42.126176944444445" lon="142.92257388888888">
<ele>9</ele>
</trkpt>
<trkpt lat="42.12627694444444" lon="142.9221738888889">
<ele>9</ele>
</trkpt>
<trkpt lat="42.12641" lon="142.9218488888889">
<ele>8</ele>
</trkpt>
<trkpt lat="42.12661" lon="142.9214738888889">
<ele>9</ele>
</trkpt>
<trkpt lat="42.127026944444445" lon="142.9209488888889">
<ele>8</ele>
</trkpt>
<trkpt lat="42.12746805555555" lon="142.92052388888888">
<ele>8</ele>
</trkpt>
<trkpt lat="42.12761805555556" lon="142.92038694444443">
<ele>8</ele>
</trkpt>
<trkpt lat="42.127768055555556" lon="142.92023694444444">
<ele>8</ele>
</trkpt>
<trkpt lat="42.128101944444445" lon="142.91978694444444">
<ele>7</ele>
</trkpt>
<trkpt lat="42.12824305555556" lon="142.91949888888888">
<ele>7</ele>
</trkpt>
<trkpt lat="42.12849305555556" lon="142.91891194444443">
<ele>7</ele>
</trkpt>
<trkpt lat="42.12872611111111" lon="142.9180738888889">
<ele>7</ele>
</trkpt>
<trkpt lat="42.12902611111111" lon="142.9170738888889">
<ele>7</ele>
</trkpt>
<trkpt lat="42.12925111111111" lon="142.9164238888889">
<ele>8</ele>
</trkpt>
<trkpt lat="42.129466944444445" lon="142.9156438888889">
<ele>8</ele>
</trkpt>
<trkpt lat="42.129466944444445" lon="142.9156438888889">
<ele>8</ele>
</trkpt>
<trkpt lat="42.12963388888889" lon="142.91503694444444">
<ele>9</ele>
</trkpt>
<trkpt lat="42.12998388888889" lon="142.91405">
<ele>8</ele>
</trkpt>
<trkpt lat="42.13092611111111" lon="142.912625">
<ele>8</ele>
</trkpt>
<trkpt lat="42.131726111111114" lon="142.91175">
<ele>8</ele>
</trkpt>
<trkpt lat="42.13248388888889" lon="142.91113694444445">
<ele>5</ele>
</trkpt>
<trkpt lat="42.13274194444445" lon="142.9109">
<ele>5</ele>
</trkpt>
<trkpt lat="42.13287611111111" lon="142.91073694444444">
<ele>7</ele>
</trkpt>
<trkpt lat="42.13304194444444" lon="142.910525">
<ele>8</ele>
</trkpt>
<trkpt lat="42.13320111111111" lon="142.91026194444444">
<ele>8</ele>
</trkpt>
<trkpt lat="42.13369194444444" lon="142.90935">
<ele>9</ele>
</trkpt>
<trkpt lat="42.13373388888889" lon="142.909275">
<ele>8</ele>
</trkpt>
<trkpt lat="42.13377611111111" lon="142.90918694444446">
<ele>8</ele>
</trkpt>
<trkpt lat="42.13386611111111" lon="142.909005">
<ele>8</ele>
</trkpt>
<trkpt lat="42.13386611111111" lon="142.909005">
<ele>8</ele>
</trkpt>
<trkpt lat="42.13377611111111" lon="142.90918694444446">
<ele>8</ele>
</trkpt>
<trkpt lat="42.13373388888889" lon="142.909275">
<ele>8</ele>
</trkpt>
<trkpt lat="42.13369194444444" lon="142.90935">
<ele>9</ele>
</trkpt>
<trkpt lat="42.13388388888889" lon="142.90946194444444">
<ele>9</ele>
</trkpt>
<trkpt lat="42.13768388888889" lon="142.91173694444444">
<ele>8</ele>
</trkpt>
<trkpt lat="42.1389" lon="142.91249888888888">
<ele>8</ele>
</trkpt>
<trkpt lat="42.138958055555555" lon="142.91253694444444">
<ele>8</ele>
</trkpt>
<trkpt lat="42.144041111111115" lon="142.9156988888889">
<ele>9</ele>
</trkpt>
<trkpt lat="42.14425" lon="142.915825">
<ele>8</ele>
</trkpt>
<trkpt lat="42.14425" lon="142.915825">
<ele>8</ele>
</trkpt>
<trkpt lat="42.14769888888889" lon="142.91792305555555">
<ele>7</ele>
</trkpt>
<trkpt lat="42.14782388888889" lon="142.91793611111112">
<ele>7</ele>
</trkpt>
<trkpt lat="42.147998888888885" lon="142.9178861111111">
<ele>7</ele>
</trkpt>
<trkpt lat="42.148158055555555" lon="142.91777305555556">
<ele>6</ele>
</trkpt>
<trkpt lat="42.148423888888885" lon="142.9175361111111">
<ele>6</ele>
</trkpt>
<trkpt lat="42.14901611111111" lon="142.9170611111111">
<ele>9</ele>
</trkpt>
<trkpt lat="42.14979888888889" lon="142.918235">
<ele>7</ele>
</trkpt>
<trkpt lat="42.15190805555556" lon="142.92131">
<ele>15</ele>
</trkpt>
<trkpt lat="42.15241611111111" lon="142.92201">
<ele>16</ele>
</trkpt>
<trkpt lat="42.15299888888889" lon="142.922535">
<ele>15</ele>
</trkpt>
<trkpt lat="42.15326611111111" lon="142.92279694444446">
<ele>14</ele>
</trkpt>
<trkpt lat="42.15339111111111" lon="142.922885">
<ele>15</ele>
</trkpt>
<trkpt lat="42.15369888888889" lon="142.92317194444445">
<ele>15</ele>
</trkpt>
<trkpt lat="42.15391611111111" lon="142.92344694444444">
<ele>16</ele>
</trkpt>
<trkpt lat="42.153956944444445" lon="142.92356">
<ele>15</ele>
</trkpt>
<trkpt lat="42.15403194444445" lon="142.92380888888889">
<ele>16</ele>
</trkpt>
<trkpt lat="42.15423194444445" lon="142.92452194444445">
<ele>17</ele>
</trkpt>
<trkpt lat="42.15426388888889" lon="142.924595">
<ele>17</ele>
</trkpt>
<trkpt lat="42.15426388888889" lon="142.924595">
<ele>17</ele>
</trkpt>
<trkpt lat="42.15437388888889" lon="142.92484694444445">
<ele>17</ele>
</trkpt>
<trkpt lat="42.15453194444444" lon="142.9250088888889">
<ele>16</ele>
</trkpt>
<trkpt lat="42.15469888888889" lon="142.92512194444444">
<ele>17</ele>
</trkpt>
<trkpt lat="42.157181944444446" lon="142.9266838888889">
<ele>17</ele>
</trkpt>
<trkpt lat="42.15804888888889" lon="142.92722111111112">
<ele>18</ele>
</trkpt>
<trkpt lat="42.158165" lon="142.92723388888888">
<ele>18</ele>
</trkpt>
<trkpt lat="42.158315" lon="142.92723388888888">
<ele>18</ele>
</trkpt>
<trkpt lat="42.161548055555556" lon="142.9269711111111">
<ele>18</ele>
</trkpt>
<trkpt lat="42.16169" lon="142.9287461111111">
<ele>19</ele>
</trkpt>
<trkpt lat="42.161681944444446" lon="142.9293338888889">
<ele>23</ele>
</trkpt>
<trkpt lat="42.16157305555556" lon="142.9300961111111">
<ele>23</ele>
</trkpt>
<trkpt lat="42.161256944444446" lon="142.93135805555556">
<ele>33</ele>
</trkpt>
<trkpt lat="42.16095694444444" lon="142.9325961111111">
<ele>44</ele>
</trkpt>
<trkpt lat="42.16069" lon="142.93359611111111">
<ele>46</ele>
</trkpt>
<trkpt lat="42.160623888888885" lon="142.93380805555555">
<ele>46</ele>
</trkpt>
<trkpt lat="42.16045694444445" lon="142.9340961111111">
<ele>45</ele>
</trkpt>
<trkpt lat="42.16019111111111" lon="142.93438305555554">
<ele>39</ele>
</trkpt>
<trkpt lat="42.16012388888889" lon="142.93443305555556">
<ele>39</ele>
</trkpt>
<trkpt lat="42.15934111111111" lon="142.9351961111111">
<ele>35</ele>
</trkpt>
<trkpt lat="42.15918194444444" lon="142.93540805555557">
<ele>33</ele>
</trkpt>
<trkpt lat="42.15907388888889" lon="142.93563305555554">
<ele>33</ele>
</trkpt>
<trkpt lat="42.15894888888889" lon="142.93595805555555">
<ele>29</ele>
</trkpt>
<trkpt lat="42.15792388888889" lon="142.93858305555557">
<ele>26</ele>
</trkpt>
<trkpt lat="42.157848888888886" lon="142.9388711111111">
<ele>26</ele>
</trkpt>
<trkpt lat="42.157741111111115" lon="142.93965805555555">
<ele>22</ele>
</trkpt>
<trkpt lat="42.157738055555555" lon="142.9396788888889">
<ele>22</ele>
</trkpt>
<trkpt lat="42.157738055555555" lon="142.9396788888889">
<ele>22</ele>
</trkpt>
<trkpt lat="42.157648888888886" lon="142.94024611111112">
<ele>19</ele>
</trkpt>
<trkpt lat="42.15741611111111" lon="142.940895">
<ele>18</ele>
</trkpt>
<trkpt lat="42.15639111111111" lon="142.94338305555556">
<ele>15</ele>
</trkpt>
<trkpt lat="42.15739111111111" lon="142.94458194444445">
<ele>15</ele>
</trkpt>
<trkpt lat="42.15936611111111" lon="142.94670694444446">
<ele>16</ele>
</trkpt>
<trkpt lat="42.15979111111111" lon="142.94712">
<ele>17</ele>
</trkpt>
<trkpt lat="42.16090805555555" lon="142.94790694444444">
<ele>19</ele>
</trkpt>
<trkpt lat="42.16179888888889" lon="142.9484938888889">
<ele>20</ele>
</trkpt>
<trkpt lat="42.16387388888889" lon="142.94944388888888">
<ele>21</ele>
</trkpt>
<trkpt lat="42.164498888888886" lon="142.94979388888888">
<ele>20</ele>
</trkpt>
<trkpt lat="42.16486305555556" lon="142.95005694444444">
<ele>20</ele>
</trkpt>
<trkpt lat="42.16486305555556" lon="142.95005694444444">
<ele>20</ele>
</trkpt>
<trkpt lat="42.16538194444445" lon="142.9504311111111">
<ele>20</ele>
</trkpt>
<trkpt lat="42.16588194444444" lon="142.95068111111112">
<ele>20</ele>
</trkpt>
<trkpt lat="42.166981944444444" lon="142.9512938888889">
<ele>22</ele>
</trkpt>
<trkpt lat="42.16676611111111" lon="142.9516438888889">
<ele>21</ele>
</trkpt>
<trkpt lat="42.16627388888889" lon="142.95238111111112">
<ele>19</ele>
</trkpt>
<trkpt lat="42.166198888888886" lon="142.95249388888888">
<ele>19</ele>
</trkpt>
<trkpt lat="42.16447388888889" lon="142.9551811111111">
<ele>22</ele>
</trkpt>
<trkpt lat="42.164503055555556" lon="142.95518694444445">
<ele>22</ele>
</trkpt>
<trkpt lat="42.164503055555556" lon="142.95518805555557">
<ele>22</ele>
</trkpt>
<trkpt lat="42.16806611111111" lon="142.95601805555555">
<ele>24</ele>
</trkpt>
<trkpt lat="42.168531944444446" lon="142.9561561111111">
<ele>24</ele>
</trkpt>
<trkpt lat="42.16881611111111" lon="142.9563061111111">
<ele>24</ele>
</trkpt>
<trkpt lat="42.169265" lon="142.9565561111111">
<ele>24</ele>
</trkpt>
<trkpt lat="42.170515" lon="142.95774305555557">
<ele>26</ele>
</trkpt>
<trkpt lat="42.17134" lon="142.95849305555555">
<ele>27</ele>
</trkpt>
<trkpt lat="42.173665" lon="142.960555">
<ele>30</ele>
</trkpt>
<trkpt lat="42.17389" lon="142.960805">
<ele>30</ele>
</trkpt>
<trkpt lat="42.17399" lon="142.96096805555555">
<ele>30</ele>
</trkpt>
<trkpt lat="42.17407305555555" lon="142.96114194444445">
<ele>30</ele>
</trkpt>
<trkpt lat="42.174148055555555" lon="142.96138">
<ele>30</ele>
</trkpt>
<trkpt lat="42.174365" lon="142.96243">
<ele>36</ele>
</trkpt>
<trkpt lat="42.174915" lon="142.96526694444444">
<ele>38</ele>
</trkpt>
<trkpt lat="42.17590694444444" lon="142.97031611111112">
<ele>46</ele>
</trkpt>
<trkpt lat="42.17593194444444" lon="142.97072888888889">
<ele>46</ele>
</trkpt>
<trkpt lat="42.17545694444444" lon="142.9745661111111">
<ele>49</ele>
</trkpt>
<trkpt lat="42.175423888888886" lon="142.97529111111112">
<ele>50</ele>
</trkpt>
<trkpt lat="42.17561611111111" lon="142.97957805555555">
<ele>56</ele>
</trkpt>
<trkpt lat="42.17561611111111" lon="142.9807911111111">
<ele>60</ele>
</trkpt>
<trkpt lat="42.17556611111111" lon="142.98174111111112">
<ele>66</ele>
</trkpt>
<trkpt lat="42.17551611111111" lon="142.98212805555556">
<ele>65</ele>
</trkpt>
<trkpt lat="42.17540694444445" lon="142.98250305555555">
<ele>66</ele>
</trkpt>
<trkpt lat="42.17484888888889" lon="142.9840411111111">
<ele>65</ele>
</trkpt>
<trkpt lat="42.17482388888889" lon="142.98414111111111">
<ele>66</ele>
</trkpt>
<trkpt lat="42.17481611111111" lon="142.98455305555555">
<ele>67</ele>
</trkpt>
<trkpt lat="42.17486611111111" lon="142.98502805555555">
<ele>73</ele>
</trkpt>
<trkpt lat="42.174883055555554" lon="142.985465">
<ele>76</ele>
</trkpt>
<trkpt lat="42.17483194444444" lon="142.98589">
<ele>74</ele>
</trkpt>
<trkpt lat="42.17479111111111" lon="142.98609">
<ele>75</ele>
</trkpt>
<trkpt lat="42.17459111111111" lon="142.98697805555557">
<ele>81</ele>
</trkpt>
<trkpt lat="42.17452388888889" lon="142.987315">
<ele>84</ele>
</trkpt>
<trkpt lat="42.17437388888889" lon="142.987765">
<ele>85</ele>
</trkpt>
<trkpt lat="42.17404888888889" lon="142.98827805555555">
<ele>91</ele>
</trkpt>
<trkpt lat="42.17382388888889" lon="142.98870305555556">
<ele>93</ele>
</trkpt>
<trkpt lat="42.17379888888889" lon="142.98879">
<ele>92</ele>
</trkpt>
<trkpt lat="42.17378305555555" lon="142.98894">
<ele>92</ele>
</trkpt>
<trkpt lat="42.17388305555556" lon="142.98952805555555">
<ele>97</ele>
</trkpt>
<trkpt lat="42.17396611111111" lon="142.989815">
<ele>97</ele>
</trkpt>
<trkpt lat="42.17409888888889" lon="142.99007805555556">
<ele>97</ele>
</trkpt>
<trkpt lat="42.17429111111111" lon="142.99029">
<ele>97</ele>
</trkpt>
<trkpt lat="42.17438305555556" lon="142.99034">
<ele>98</ele>
</trkpt>
<trkpt lat="42.17453305555556" lon="142.99037694444445">
<ele>97</ele>
</trkpt>
<trkpt lat="42.17471611111111" lon="142.99030194444444">
<ele>97</ele>
</trkpt>
<trkpt lat="42.17495805555556" lon="142.990015">
<ele>103</ele>
</trkpt>
<trkpt lat="42.17512388888889" lon="142.98965305555555">
<ele>114</ele>
</trkpt>
<trkpt lat="42.17537388888889" lon="142.989265">
<ele>115</ele>
</trkpt>
<trkpt lat="42.17547388888889" lon="142.98917694444444">
<ele>117</ele>
</trkpt>
<trkpt lat="42.17557388888889" lon="142.989165">
<ele>117</ele>
</trkpt>
<trkpt lat="42.17568305555555" lon="142.989215">
<ele>114</ele>
</trkpt>
<trkpt lat="42.17576611111111" lon="142.98932805555555">
<ele>115</ele>
</trkpt>
<trkpt lat="42.17579888888889" lon="142.98950305555556">
<ele>117</ele>
</trkpt>
<trkpt lat="42.17576611111111" lon="142.98967694444445">
<ele>118</ele>
</trkpt>
<trkpt lat="42.17572388888889" lon="142.98984">
<ele>118</ele>
</trkpt>
<trkpt lat="42.17565805555556" lon="142.990065">
<ele>123</ele>
</trkpt>
<trkpt lat="42.17564888888889" lon="142.99034">
<ele>125</ele>
</trkpt>
<trkpt lat="42.17565805555556" lon="142.990465">
<ele>126</ele>
</trkpt>
<trkpt lat="42.17587388888889" lon="142.99094">
<ele>132</ele>
</trkpt>
<trkpt lat="42.17670694444445" lon="142.9924638888889">
<ele>147</ele>
</trkpt>
<trkpt lat="42.17679111111111" lon="142.9927138888889">
<ele>148</ele>
</trkpt>
<trkpt lat="42.17684888888889" lon="142.99307694444445">
<ele>146</ele>
</trkpt>
<trkpt lat="42.17689111111111" lon="142.9932388888889">
<ele>153</ele>
</trkpt>
<trkpt lat="42.177008055555554" lon="142.99386388888888">
<ele>160</ele>
</trkpt>
<trkpt lat="42.17707388888889" lon="142.99433888888888">
<ele>158</ele>
</trkpt>
<trkpt lat="42.177191111111114" lon="142.9947138888889">
<ele>157</ele>
</trkpt>
<trkpt lat="42.177616111111114" lon="142.9953888888889">
<ele>153</ele>
</trkpt>
<trkpt lat="42.17771611111111" lon="142.99565194444443">
<ele>151</ele>
</trkpt>
<trkpt lat="42.177858055555554" lon="142.99622694444443">
<ele>147</ele>
</trkpt>
<trkpt lat="42.17822388888889" lon="142.9977511111111">
<ele>138</ele>
</trkpt>
<trkpt lat="42.17854111111111" lon="142.9982138888889">
<ele>136</ele>
</trkpt>
<trkpt lat="42.17909888888889" lon="142.9986888888889">
<ele>129</ele>
</trkpt>
<trkpt lat="42.17949111111111" lon="142.99896388888888">
<ele>126</ele>
</trkpt>
<trkpt lat="42.17968305555556" lon="142.9990511111111">
<ele>125</ele>
</trkpt>
<trkpt lat="42.18014111111111" lon="142.99918888888888">
<ele>121</ele>
</trkpt>
<trkpt lat="42.180616111111114" lon="142.9991261111111">
<ele>111</ele>
</trkpt>
<trkpt lat="42.18091611111111" lon="142.9990138888889">
<ele>111</ele>
</trkpt>
<trkpt lat="42.181111111111115" lon="142.9989688888889">
<ele>110</ele>
</trkpt>
<trkpt lat="42.181111111111115" lon="142.9989688888889">
<ele>110</ele>
</trkpt>
<trkpt lat="42.18329888888889" lon="142.9984761111111">
<ele>99</ele>
</trkpt>
<trkpt lat="42.18454888888889" lon="142.99827611111112">
<ele>94</ele>
</trkpt>
<trkpt lat="42.184965" lon="142.99821305555557">
<ele>93</ele>
</trkpt>
<trkpt lat="42.185165" lon="142.99817611111112">
<ele>95</ele>
</trkpt>
<trkpt lat="42.18788111111111" lon="142.9977511111111">
<ele>98</ele>
</trkpt>
<trkpt lat="42.18814" lon="142.99766305555556">
<ele>93</ele>
</trkpt>
<trkpt lat="42.18918111111111" lon="142.99681305555555">
<ele>98</ele>
</trkpt>
<trkpt lat="42.189798055555556" lon="142.9962261111111">
<ele>98</ele>
</trkpt>
<trkpt lat="42.190798055555554" lon="142.99528805555556">
<ele>95</ele>
</trkpt>
<trkpt lat="42.19100611111111" lon="142.99522611111112">
<ele>95</ele>
</trkpt>
<trkpt lat="42.19130611111111" lon="142.99523805555555">
<ele>92</ele>
</trkpt>
<trkpt lat="42.19173888888889" lon="142.9953261111111">
<ele>86</ele>
</trkpt>
<trkpt lat="42.19193111111111" lon="142.99541305555556">
<ele>84</ele>
</trkpt>
<trkpt lat="42.19223111111111" lon="142.99561305555557">
<ele>85</ele>
</trkpt>
<trkpt lat="42.192371944444446" lon="142.99578805555555">
<ele>86</ele>
</trkpt>
<trkpt lat="42.19242194444445" lon="142.99616305555554">
<ele>86</ele>
</trkpt>
<trkpt lat="42.192413888888886" lon="142.9962261111111">
<ele>87</ele>
</trkpt>
<trkpt lat="42.19263111111111" lon="142.9985">
<ele>93</ele>
</trkpt>
<trkpt lat="42.19271388888889" lon="142.99903805555556">
<ele>94</ele>
</trkpt>
<trkpt lat="42.19300611111111" lon="142.99966305555554">
<ele>94</ele>
</trkpt>
<trkpt lat="42.19323888888889" lon="142.999975">
<ele>95</ele>
</trkpt>
<trkpt lat="42.19443111111111" lon="143.00153805555556">
<ele>102</ele>
</trkpt>
<trkpt lat="42.19536388888889" lon="143.0029">
<ele>104</ele>
</trkpt>
<trkpt lat="42.19648111111111" lon="143.0044488888889">
<ele>113</ele>
</trkpt>
<trkpt lat="42.19708111111111" lon="143.00522388888888">
<ele>110</ele>
</trkpt>
<trkpt lat="42.19728111111111" lon="143.00536194444445">
<ele>111</ele>
</trkpt>
<trkpt lat="42.19739694444444" lon="143.00543694444445">
<ele>111</ele>
</trkpt>
<trkpt lat="42.19781388888889" lon="143.00544888888888">
<ele>110</ele>
</trkpt>
<trkpt lat="42.19811388888889" lon="143.0053738888889">
<ele>112</ele>
</trkpt>
<trkpt lat="42.19914694444444" lon="143.00531194444446">
<ele>119</ele>
</trkpt>
<trkpt lat="42.19931388888889" lon="143.0053738888889">
<ele>121</ele>
</trkpt>
<trkpt lat="42.19957194444444" lon="143.00548694444444">
<ele>123</ele>
</trkpt>
<trkpt lat="42.20083" lon="143.00646111111112">
<ele>121</ele>
</trkpt>
<trkpt lat="42.20113" lon="143.0065488888889">
<ele>124</ele>
</trkpt>
<trkpt lat="42.20163" lon="143.0065111111111">
<ele>124</ele>
</trkpt>
<trkpt lat="42.20303" lon="143.00636111111112">
<ele>123</ele>
</trkpt>
<trkpt lat="42.20348" lon="143.00634888888888">
<ele>123</ele>
</trkpt>
<trkpt lat="42.203855" lon="143.0063861111111">
<ele>123</ele>
</trkpt>
<trkpt lat="42.20428" lon="143.0065488888889">
<ele>123</ele>
</trkpt>
<trkpt lat="42.204905" lon="143.0068738888889">
<ele>125</ele>
</trkpt>
<trkpt lat="42.20652111111111" lon="143.00779805555555">
<ele>121</ele>
</trkpt>
<trkpt lat="42.20822888888889" lon="143.00867305555556">
<ele>125</ele>
</trkpt>
<trkpt lat="42.20847888888889" lon="143.0087611111111">
<ele>126</ele>
</trkpt>
<trkpt lat="42.20894611111111" lon="143.00886111111112">
<ele>127</ele>
</trkpt>
<trkpt lat="42.21012888888889" lon="143.00894805555555">
<ele>138</ele>
</trkpt>
<trkpt lat="42.21082888888889" lon="143.0089861111111">
<ele>142</ele>
</trkpt>
<trkpt lat="42.21118805555555" lon="143.0089361111111">
<ele>145</ele>
</trkpt>
<trkpt lat="42.211461944444444" lon="143.00877305555557">
<ele>147</ele>
</trkpt>
<trkpt lat="42.21170388888889" lon="143.0084361111111">
<ele>149</ele>
</trkpt>
<trkpt lat="42.21190388888889" lon="143.00771111111112">
<ele>151</ele>
</trkpt>
<trkpt lat="42.21199611111111" lon="143.00737305555555">
<ele>150</ele>
</trkpt>
<trkpt lat="42.212336944444445" lon="143.00659805555554">
<ele>144</ele>
</trkpt>
<trkpt lat="42.21263694444445" lon="143.00619805555556">
<ele>149</ele>
</trkpt>
<trkpt lat="42.21295388888889" lon="143.0059861111111">
<ele>153</ele>
</trkpt>
<trkpt lat="42.213395" lon="143.00587305555555">
<ele>153</ele>
</trkpt>
<trkpt lat="42.21393694444444" lon="143.00588611111112">
<ele>156</ele>
</trkpt>
<trkpt lat="42.21481194444444" lon="143.00607305555556">
<ele>156</ele>
</trkpt>
<trkpt lat="42.21545305555556" lon="143.00613611111112">
<ele>156</ele>
</trkpt>
<trkpt lat="42.21577" lon="143.0059861111111">
<ele>157</ele>
</trkpt>
<trkpt lat="42.215986944444445" lon="143.00567305555555">
<ele>158</ele>
</trkpt>
<trkpt lat="42.216228055555554" lon="143.00499805555555">
<ele>162</ele>
</trkpt>
<trkpt lat="42.21632805555556" lon="143.00443611111112">
<ele>164</ele>
</trkpt>
<trkpt lat="42.21651111111111" lon="143.00279805555556">
<ele>168</ele>
</trkpt>
<trkpt lat="42.216695" lon="143.0020111111111">
<ele>173</ele>
</trkpt>
<trkpt lat="42.217145" lon="143.0010111111111">
<ele>174</ele>
</trkpt>
<trkpt lat="42.21788611111111" lon="142.99964805555555">
<ele>179</ele>
</trkpt>
<trkpt lat="42.21858611111111" lon="142.9981488888889">
<ele>195</ele>
</trkpt>
<trkpt lat="42.219228055555554" lon="142.99683611111112">
<ele>199</ele>
</trkpt>
<trkpt lat="42.21928611111111" lon="142.99673611111112">
<ele>199</ele>
</trkpt>
<trkpt lat="42.219611111111114" lon="142.9963488888889">
<ele>196</ele>
</trkpt>
<trkpt lat="42.21986888888889" lon="142.9962238888889">
<ele>193</ele>
</trkpt>
<trkpt lat="42.22001888888889" lon="142.99617388888888">
<ele>190</ele>
</trkpt>
<trkpt lat="42.22037805555556" lon="142.9961361111111">
<ele>189</ele>
</trkpt>
<trkpt lat="42.22129388888889" lon="142.9960988888889">
<ele>187</ele>
</trkpt>
<trkpt lat="42.221986111111114" lon="142.99604888888888">
<ele>184</ele>
</trkpt>
<trkpt lat="42.22235194444445" lon="142.99596111111111">
<ele>179</ele>
</trkpt>
<trkpt lat="42.222636111111115" lon="142.99581111111112">
<ele>178</ele>
</trkpt>
<trkpt lat="42.22286888888889" lon="142.99559805555555">
<ele>177</ele>
</trkpt>
<trkpt lat="42.223101944444444" lon="142.99529805555557">
<ele>176</ele>
</trkpt>
<trkpt lat="42.22327694444444" lon="142.9949861111111">
<ele>174</ele>
</trkpt>
<trkpt lat="42.22341888888889" lon="142.9945361111111">
<ele>173</ele>
</trkpt>
<trkpt lat="42.223485" lon="142.9941861111111">
<ele>173</ele>
</trkpt>
<trkpt lat="42.22349388888889" lon="142.9937238888889">
<ele>172</ele>
</trkpt>
<trkpt lat="42.22346888888889" lon="142.9933111111111">
<ele>172</ele>
</trkpt>
<trkpt lat="42.22311888888889" lon="142.9915611111111">
<ele>168</ele>
</trkpt>
<trkpt lat="42.22309111111111" lon="142.9913711111111">
<ele>168</ele>
</trkpt>
<trkpt lat="42.22309111111111" lon="142.9913711111111">
<ele>168</ele>
</trkpt>
<trkpt lat="42.22305194444444" lon="142.9910988888889">
<ele>168</ele>
</trkpt>
<trkpt lat="42.22305194444444" lon="142.99059888888888">
<ele>168</ele>
</trkpt>
<trkpt lat="42.22311" lon="142.99026111111112">
<ele>168</ele>
</trkpt>
<trkpt lat="42.22440111111111" lon="142.98439888888888">
<ele>157</ele>
</trkpt>
<trkpt lat="42.22452611111111" lon="142.98371194444445">
<ele>158</ele>
</trkpt>
<trkpt lat="42.22461805555555" lon="142.98301194444446">
<ele>158</ele>
</trkpt>
<trkpt lat="42.22476" lon="142.9812">
<ele>158</ele>
</trkpt>
<trkpt lat="42.224868055555554" lon="142.97921194444444">
<ele>155</ele>
</trkpt>
<trkpt lat="42.224851111111114" lon="142.97781194444445">
<ele>154</ele>
</trkpt>
<trkpt lat="42.22481805555555" lon="142.97746305555555">
<ele>154</ele>
</trkpt>
<trkpt lat="42.224718055555556" lon="142.977075">
<ele>152</ele>
</trkpt>
<trkpt lat="42.22459305555556" lon="142.97678805555555">
<ele>151</ele>
</trkpt>
<trkpt lat="42.22369305555556" lon="142.97568805555557">
<ele>145</ele>
</trkpt>
<trkpt lat="42.22362611111111" lon="142.975575">
<ele>143</ele>
</trkpt>
<trkpt lat="42.22356805555555" lon="142.975425">
<ele>144</ele>
</trkpt>
<trkpt lat="42.223535" lon="142.97491305555556">
<ele>138</ele>
</trkpt>
<trkpt lat="42.223708888888886" lon="142.9726761111111">
<ele>137</ele>
</trkpt>
<trkpt lat="42.22383388888889" lon="142.9714261111111">
<ele>133</ele>
</trkpt>
<trkpt lat="42.223868055555556" lon="142.9713011111111">
<ele>132</ele>
</trkpt>
<trkpt lat="42.224043055555555" lon="142.9708261111111">
<ele>133</ele>
</trkpt>
<trkpt lat="42.22415888888889" lon="142.97057611111111">
<ele>133</ele>
</trkpt>
<trkpt lat="42.22430888888889" lon="142.97020111111112">
<ele>132</ele>
</trkpt>
<trkpt lat="42.22467611111111" lon="142.96930111111112">
<ele>132</ele>
</trkpt>
<trkpt lat="42.22472611111111" lon="142.9691511111111">
<ele>131</ele>
</trkpt>
<trkpt lat="42.22484305555555" lon="142.96852611111112">
<ele>131</ele>
</trkpt>
<trkpt lat="42.22495888888889" lon="142.9671261111111">
<ele>128</ele>
</trkpt>
<trkpt lat="42.22504305555555" lon="142.9661011111111">
<ele>128</ele>
</trkpt>
<trkpt lat="42.22505888888889" lon="142.9657638888889">
<ele>128</ele>
</trkpt>
<trkpt lat="42.22502611111111" lon="142.9655138888889">
<ele>128</ele>
</trkpt>
<trkpt lat="42.22470111111111" lon="142.96373888888888">
<ele>129</ele>
</trkpt>
<trkpt lat="42.22430111111111" lon="142.9621388888889">
<ele>125</ele>
</trkpt>
<trkpt lat="42.22422611111111" lon="142.9618888888889">
<ele>127</ele>
</trkpt>
<trkpt lat="42.22411694444445" lon="142.9616388888889">
<ele>126</ele>
</trkpt>
<trkpt lat="42.22390111111111" lon="142.9611888888889">
<ele>118</ele>
</trkpt>
<trkpt lat="42.22387611111111" lon="142.96110194444444">
<ele>115</ele>
</trkpt>
<trkpt lat="42.223841944444445" lon="142.96078888888889">
<ele>116</ele>
</trkpt>
<trkpt lat="42.22396694444444" lon="142.9598638888889">
<ele>115</ele>
</trkpt>
<trkpt lat="42.224001111111114" lon="142.95956388888888">
<ele>118</ele>
</trkpt>
<trkpt lat="42.223908888888886" lon="142.95842694444445">
<ele>117</ele>
</trkpt>
<trkpt lat="42.22375111111111" lon="142.956215">
<ele>115</ele>
</trkpt>
<trkpt lat="42.223641944444445" lon="142.95487694444444">
<ele>110</ele>
</trkpt>
<trkpt lat="42.22362611111111" lon="142.95375194444443">
<ele>107</ele>
</trkpt>
<trkpt lat="42.223683888888885" lon="142.953215">
<ele>105</ele>
</trkpt>
<trkpt lat="42.22376694444444" lon="142.95289">
<ele>104</ele>
</trkpt>
<trkpt lat="42.22403388888889" lon="142.952115">
<ele>98</ele>
</trkpt>
<trkpt lat="42.224125" lon="142.95169">
<ele>103</ele>
</trkpt>
<trkpt lat="42.22415888888889" lon="142.95157805555556">
<ele>104</ele>
</trkpt>
<trkpt lat="42.22425" lon="142.951265">
<ele>106</ele>
</trkpt>
<trkpt lat="42.22436694444445" lon="142.95102805555555">
<ele>107</ele>
</trkpt>
<trkpt lat="42.22484194444444" lon="142.95010305555556">
<ele>97</ele>
</trkpt>
<trkpt lat="42.22500888888889" lon="142.94977805555556">
<ele>93</ele>
</trkpt>
<trkpt lat="42.225275" lon="142.94937805555554">
<ele>92</ele>
</trkpt>
<trkpt lat="42.22575805555555" lon="142.94882805555557">
<ele>90</ele>
</trkpt>
<trkpt lat="42.22716611111111" lon="142.94749">
<ele>90</ele>
</trkpt>
<trkpt lat="42.22734111111111" lon="142.94815194444445">
<ele>83</ele>
</trkpt>
<trkpt lat="42.228075" lon="142.94977805555556">
<ele>90</ele>
</trkpt>
<trkpt lat="42.22841611111111" lon="142.95055194444444">
<ele>92</ele>
</trkpt>
<trkpt lat="42.22855805555555" lon="142.95087694444445">
<ele>93</ele>
</trkpt>
<trkpt lat="42.22864111111111" lon="142.95102694444444">
<ele>93</ele>
</trkpt>
<trkpt lat="42.228775" lon="142.95125194444444">
<ele>94</ele>
</trkpt>
<trkpt lat="42.229" lon="142.95157694444444">
<ele>95</ele>
</trkpt>
<trkpt lat="42.22935" lon="142.95190194444444">
<ele>97</ele>
</trkpt>
<trkpt lat="42.23054111111111" lon="142.95300805555556">
<ele>103</ele>
</trkpt>
<trkpt lat="42.23054111111111" lon="142.95300805555556">
<ele>103</ele>
</trkpt>
<trkpt lat="42.230575" lon="142.9530388888889">
<ele>103</ele>
</trkpt>
<trkpt lat="42.231366111111114" lon="142.9537388888889">
<ele>108</ele>
</trkpt>
<trkpt lat="42.23179888888889" lon="142.95422694444446">
<ele>111</ele>
</trkpt>
<trkpt lat="42.23539111111111" lon="142.95397694444443">
<ele>122</ele>
</trkpt>
<trkpt lat="42.23601611111111" lon="142.95392611111112">
<ele>126</ele>
</trkpt>
<trkpt lat="42.23614888888889" lon="142.9537388888889">
<ele>126</ele>
</trkpt>
<trkpt lat="42.23622388888889" lon="142.95333888888888">
<ele>125</ele>
</trkpt>
<trkpt lat="42.236156944444446" lon="142.95255194444445">
<ele>126</ele>
</trkpt>
<trkpt lat="42.23619111111111" lon="142.95196388888888">
<ele>125</ele>
</trkpt>
<trkpt lat="42.23640694444445" lon="142.95095194444445">
<ele>138</ele>
</trkpt>
<trkpt lat="42.23657388888889" lon="142.94995194444445">
<ele>137</ele>
</trkpt>
<trkpt lat="42.23668194444444" lon="142.94900194444443">
<ele>137</ele>
</trkpt>
<trkpt lat="42.23665694444445" lon="142.94820194444443">
<ele>129</ele>
</trkpt>
<trkpt lat="42.23659" lon="142.947015">
<ele>122</ele>
</trkpt>
<trkpt lat="42.23663194444445" lon="142.94669">
<ele>119</ele>
</trkpt>
<trkpt lat="42.237465" lon="142.94439">
<ele>109</ele>
</trkpt>
<trkpt lat="42.23793194444445" lon="142.942565">
<ele>105</ele>
</trkpt>
<trkpt lat="42.237965" lon="142.94241194444444">
<ele>104</ele>
</trkpt>
<trkpt lat="42.237965" lon="142.94241194444444">
<ele>104</ele>
</trkpt>
<trkpt lat="42.23810611111111" lon="142.941765">
<ele>98</ele>
</trkpt>
<trkpt lat="42.23833111111111" lon="142.94122694444445">
<ele>97</ele>
</trkpt>
<trkpt lat="42.238523055555554" lon="142.94077694444445">
<ele>95</ele>
</trkpt>
<trkpt lat="42.238573055555555" lon="142.94042694444445">
<ele>92</ele>
</trkpt>
<trkpt lat="42.23855611111111" lon="142.93982805555555">
<ele>95</ele>
</trkpt>
<trkpt lat="42.23869" lon="142.93939">
<ele>94</ele>
</trkpt>
<trkpt lat="42.23916388888889" lon="142.93842805555556">
<ele>89</ele>
</trkpt>
<trkpt lat="42.239423055555555" lon="142.93765305555556">
<ele>88</ele>
</trkpt>
<trkpt lat="42.23952305555556" lon="142.93702805555554">
<ele>86</ele>
</trkpt>
<trkpt lat="42.23970611111111" lon="142.93645305555555">
<ele>81</ele>
</trkpt>
<trkpt lat="42.23985611111111" lon="142.93610305555555">
<ele>82</ele>
</trkpt>
<trkpt lat="42.24010611111111" lon="142.93567805555554">
<ele>84</ele>
</trkpt>
<trkpt lat="42.24025611111111" lon="142.9352911111111">
<ele>83</ele>
</trkpt>
<trkpt lat="42.24030611111111" lon="142.93496611111112">
<ele>80</ele>
</trkpt>
<trkpt lat="42.24025611111111" lon="142.93392805555555">
<ele>77</ele>
</trkpt>
<trkpt lat="42.24028888888889" lon="142.9336661111111">
<ele>78</ele>
</trkpt>
<trkpt lat="42.24041388888889" lon="142.93307805555557">
<ele>77</ele>
</trkpt>
<trkpt lat="42.240546944444446" lon="142.93277805555556">
<ele>77</ele>
</trkpt>
<trkpt lat="42.24068888888889" lon="142.93262805555557">
<ele>76</ele>
</trkpt>
<trkpt lat="42.24259694444444" lon="142.9309661111111">
<ele>68</ele>
</trkpt>
<trkpt lat="42.24273888888889" lon="142.93077805555555">
<ele>67</ele>
</trkpt>
<trkpt lat="42.242821944444444" lon="142.93056611111112">
<ele>67</ele>
</trkpt>
<trkpt lat="42.24292194444445" lon="142.92985305555555">
<ele>64</ele>
</trkpt>
<trkpt lat="42.243046944444444" lon="142.92910305555554">
<ele>63</ele>
</trkpt>
<trkpt lat="42.24303888888889" lon="142.92885305555555">
<ele>63</ele>
</trkpt>
<trkpt lat="42.24297194444444" lon="142.9285911111111">
<ele>63</ele>
</trkpt>
<trkpt lat="42.242855" lon="142.92837805555556">
<ele>64</ele>
</trkpt>
<trkpt lat="42.24263888888889" lon="142.92809111111112">
<ele>66</ele>
</trkpt>
<trkpt lat="42.24158111111111" lon="142.9269788888889">
<ele>64</ele>
</trkpt>
<trkpt lat="42.24125611111111" lon="142.9265661111111">
<ele>66</ele>
</trkpt>
<trkpt lat="42.24104694444444" lon="142.9261788888889">
<ele>64</ele>
</trkpt>
<trkpt lat="42.24068888888889" lon="142.92522888888888">
<ele>62</ele>
</trkpt>
<trkpt lat="42.24053111111111" lon="142.9248661111111">
<ele>62</ele>
</trkpt>
<trkpt lat="42.23973888888889" lon="142.92342888888888">
<ele>65</ele>
</trkpt>
<trkpt lat="42.23954694444444" lon="142.92285388888888">
<ele>65</ele>
</trkpt>
<trkpt lat="42.239175" lon="142.9213388888889">
<ele>59</ele>
</trkpt>
<trkpt lat="42.239176111111114" lon="142.9213388888889">
<ele>59</ele>
</trkpt>
<trkpt lat="42.23916388888889" lon="142.92129194444445">
<ele>59</ele>
</trkpt>
<trkpt lat="42.23887194444445" lon="142.9190538888889">
<ele>57</ele>
</trkpt>
<trkpt lat="42.23880611111111" lon="142.91876694444446">
<ele>56</ele>
</trkpt>
<trkpt lat="42.23808888888889" lon="142.91714194444444">
<ele>57</ele>
</trkpt>
<trkpt lat="42.237896944444444" lon="142.916855">
<ele>53</ele>
</trkpt>
<trkpt lat="42.23698888888889" lon="142.91574194444445">
<ele>54</ele>
</trkpt>
<trkpt lat="42.23673111111111" lon="142.91539194444445">
<ele>55</ele>
</trkpt>
<trkpt lat="42.23657194444444" lon="142.91516694444445">
<ele>55</ele>
</trkpt>
<trkpt lat="42.23643888888889" lon="142.914905">
<ele>57</ele>
</trkpt>
<trkpt lat="42.23637194444444" lon="142.914655">
<ele>53</ele>
</trkpt>
<trkpt lat="42.23608111111111" lon="142.91376694444443">
<ele>53</ele>
</trkpt>
<trkpt lat="42.23592194444444" lon="142.91346694444445">
<ele>54</ele>
</trkpt>
<trkpt lat="42.23516388888889" lon="142.91248">
<ele>55</ele>
</trkpt>
<trkpt lat="42.23498111111111" lon="142.91231805555555">
<ele>54</ele>
</trkpt>
<trkpt lat="42.234231111111114" lon="142.91193">
<ele>53</ele>
</trkpt>
<trkpt lat="42.234006111111114" lon="142.91189305555557">
<ele>54</ele>
</trkpt>
<trkpt lat="42.23386388888889" lon="142.91191805555556">
<ele>54</ele>
</trkpt>
<trkpt lat="42.23373111111111" lon="142.91201805555556">
<ele>54</ele>
</trkpt>
<trkpt lat="42.23298888888889" lon="142.91294305555556">
<ele>54</ele>
</trkpt>
<trkpt lat="42.232798055555556" lon="142.91324305555557">
<ele>56</ele>
</trkpt>
<trkpt lat="42.23272305555555" lon="142.913405">
<ele>56</ele>
</trkpt>
<trkpt lat="42.23244805555556" lon="142.914205">
<ele>57</ele>
</trkpt>
<trkpt lat="42.232306111111114" lon="142.914355">
<ele>54</ele>
</trkpt>
<trkpt lat="42.23206388888889" lon="142.91446805555555">
<ele>52</ele>
</trkpt>
<trkpt lat="42.23059" lon="142.91483">
<ele>58</ele>
</trkpt>
<trkpt lat="42.23048111111111" lon="142.91388">
<ele>53</ele>
</trkpt>
<trkpt lat="42.23047305555556" lon="142.91344305555555">
<ele>53</ele>
</trkpt>
<trkpt lat="42.230515" lon="142.91306805555556">
<ele>53</ele>
</trkpt>
<trkpt lat="42.230615" lon="142.9127311111111">
<ele>50</ele>
</trkpt>
<trkpt lat="42.23074" lon="142.91243111111112">
<ele>49</ele>
</trkpt>
<trkpt lat="42.23175611111111" lon="142.91094305555555">
<ele>49</ele>
</trkpt>
<trkpt lat="42.23191388888889" lon="142.91066805555556">
<ele>48</ele>
</trkpt>
<trkpt lat="42.232013888888886" lon="142.91031805555556">
<ele>49</ele>
</trkpt>
<trkpt lat="42.23204805555556" lon="142.90996805555557">
<ele>48</ele>
</trkpt>
<trkpt lat="42.23200611111111" lon="142.90961805555557">
<ele>49</ele>
</trkpt>
<trkpt lat="42.23186388888889" lon="142.9093311111111">
<ele>48</ele>
</trkpt>
<trkpt lat="42.23160611111111" lon="142.90904305555554">
<ele>49</ele>
</trkpt>
<trkpt lat="42.22794" lon="142.90619388888888">
<ele>42</ele>
</trkpt>
<trkpt lat="42.227673055555556" lon="142.90586888888888">
<ele>41</ele>
</trkpt>
<trkpt lat="42.22743111111111" lon="142.90540611111112">
<ele>44</ele>
</trkpt>
<trkpt lat="42.227265" lon="142.9048811111111">
<ele>42</ele>
</trkpt>
<trkpt lat="42.22712305555556" lon="142.9042938888889">
<ele>40</ele>
</trkpt>
<trkpt lat="42.22700611111111" lon="142.9039688888889">
<ele>41</ele>
</trkpt>
<trkpt lat="42.226815" lon="142.9035561111111">
<ele>42</ele>
</trkpt>
<trkpt lat="42.22639" lon="142.90285694444444">
<ele>42</ele>
</trkpt>
<trkpt lat="42.223965" lon="142.8992438888889">
<ele>39</ele>
</trkpt>
<trkpt lat="42.22348111111111" lon="142.89865111111112">
<ele>39</ele>
</trkpt>
<trkpt lat="42.22348111111111" lon="142.89865111111112">
<ele>39</ele>
</trkpt>
<trkpt lat="42.223465" lon="142.89863194444445">
<ele>39</ele>
</trkpt>
<trkpt lat="42.21933194444444" lon="142.89435805555556">
<ele>46</ele>
</trkpt>
<trkpt lat="42.21914" lon="142.894195">
<ele>47</ele>
</trkpt>
<trkpt lat="42.218865" lon="142.89403305555555">
<ele>46</ele>
</trkpt>
<trkpt lat="42.21859" lon="142.89400805555556">
<ele>47</ele>
</trkpt>
<trkpt lat="42.21830694444444" lon="142.89403305555555">
<ele>46</ele>
</trkpt>
<trkpt lat="42.21605805555556" lon="142.89455805555556">
<ele>46</ele>
</trkpt>
<trkpt lat="42.21561611111111" lon="142.89465805555557">
<ele>51</ele>
</trkpt>
<trkpt lat="42.21414111111111" lon="142.89509611111112">
<ele>52</ele>
</trkpt>
<trkpt lat="42.21391611111111" lon="142.89518305555555">
<ele>52</ele>
</trkpt>
<trkpt lat="42.21375805555556" lon="142.8952711111111">
<ele>52</ele>
</trkpt>
<trkpt lat="42.21304111111111" lon="142.89588305555554">
<ele>52</ele>
</trkpt>
<trkpt lat="42.21284888888889" lon="142.89599611111112">
<ele>52</ele>
</trkpt>
<trkpt lat="42.21261611111111" lon="142.89603305555556">
<ele>52</ele>
</trkpt>
<trkpt lat="42.211025" lon="142.8961211111111">
<ele>52</ele>
</trkpt>
<trkpt lat="42.21053305555556" lon="142.89608305555555">
<ele>48</ele>
</trkpt>
<trkpt lat="42.2102" lon="142.89595805555555">
<ele>46</ele>
</trkpt>
<trkpt lat="42.209875" lon="142.89573305555555">
<ele>43</ele>
</trkpt>
<trkpt lat="42.209583055555555" lon="142.89542111111112">
<ele>42</ele>
</trkpt>
<trkpt lat="42.2094" lon="142.89510805555557">
<ele>41</ele>
</trkpt>
<trkpt lat="42.20815805555556" lon="142.8926211111111">
<ele>30</ele>
</trkpt>
<trkpt lat="42.20731694444444" lon="142.89089611111112">
<ele>29</ele>
</trkpt>
<trkpt lat="42.20708305555556" lon="142.89054611111112">
<ele>29</ele>
</trkpt>
<trkpt lat="42.205866944444445" lon="142.88907194444445">
<ele>27</ele>
</trkpt>
<trkpt lat="42.205483055555554" lon="142.8886838888889">
<ele>27</ele>
</trkpt>
<trkpt lat="42.204125" lon="142.88783388888888">
<ele>27</ele>
</trkpt>
<trkpt lat="42.2038" lon="142.88770888888888">
<ele>27</ele>
</trkpt>
<trkpt lat="42.20344194444444" lon="142.8876338888889">
<ele>27</ele>
</trkpt>
<trkpt lat="42.20131694444444" lon="142.88738388888888">
<ele>25</ele>
</trkpt>
<trkpt lat="42.20108388888889" lon="142.88737194444445">
<ele>25</ele>
</trkpt>
<trkpt lat="42.20088388888889" lon="142.88732194444444">
<ele>25</ele>
</trkpt>
<trkpt lat="42.200783888888886" lon="142.88725888888888">
<ele>25</ele>
</trkpt>
<trkpt lat="42.20063388888889" lon="142.88717194444445">
<ele>25</ele>
</trkpt>
<trkpt lat="42.19847611111111" lon="142.88489694444445">
<ele>23</ele>
</trkpt>
<trkpt lat="42.19618388888889" lon="142.88234805555555">
<ele>21</ele>
</trkpt>
<trkpt lat="42.19440888888889" lon="142.88019805555555">
<ele>20</ele>
</trkpt>
<trkpt lat="42.193468055555556" lon="142.87912305555557">
<ele>20</ele>
</trkpt>
<trkpt lat="42.19260111111111" lon="142.88146111111112">
<ele>20</ele>
</trkpt>
<trkpt lat="42.19156805555556" lon="142.88394805555555">
<ele>24</ele>
</trkpt>
<trkpt lat="42.19142611111111" lon="142.88427305555555">
<ele>25</ele>
</trkpt>
<trkpt lat="42.191318055555556" lon="142.88444805555557">
<ele>25</ele>
</trkpt>
<trkpt lat="42.190893055555556" lon="142.8850361111111">
<ele>26</ele>
</trkpt>
<trkpt lat="42.190401944444446" lon="142.88602305555557">
<ele>28</ele>
</trkpt>
<trkpt lat="42.18823611111111" lon="142.89029694444446">
<ele>35</ele>
</trkpt>
<trkpt lat="42.18788611111111" lon="142.89092194444444">
<ele>37</ele>
</trkpt>
<trkpt lat="42.18631111111111" lon="142.89304694444445">
<ele>45</ele>
</trkpt>
<trkpt lat="42.18598611111111" lon="142.893535">
<ele>45</ele>
</trkpt>
<trkpt lat="42.185853055555555" lon="142.89389694444444">
<ele>48</ele>
</trkpt>
<trkpt lat="42.18559388888889" lon="142.89482194444443">
<ele>49</ele>
</trkpt>
<trkpt lat="42.18535305555555" lon="142.89527194444443">
<ele>53</ele>
</trkpt>
<trkpt lat="42.18504388888889" lon="142.895585">
<ele>64</ele>
</trkpt>
<trkpt lat="42.18476888888889" lon="142.89577194444445">
<ele>68</ele>
</trkpt>
<trkpt lat="42.18411888888889" lon="142.89591">
<ele>67</ele>
</trkpt>
<trkpt lat="42.18377805555556" lon="142.89591">
<ele>72</ele>
</trkpt>
<trkpt lat="42.183593888888886" lon="142.89584694444446">
<ele>74</ele>
</trkpt>
<trkpt lat="42.183278055555554" lon="142.89567194444444">
<ele>81</ele>
</trkpt>
<trkpt lat="42.18316111111111" lon="142.89564694444445">
<ele>81</ele>
</trkpt>
<trkpt lat="42.183011111111114" lon="142.89569805555556">
<ele>84</ele>
</trkpt>
<trkpt lat="42.18262" lon="142.896035">
<ele>77</ele>
</trkpt>
<trkpt lat="42.18241111111111" lon="142.896085">
<ele>76</ele>
</trkpt>
<trkpt lat="42.18213611111111" lon="142.896085">
<ele>76</ele>
</trkpt>
<trkpt lat="42.181978055555554" lon="142.89614694444444">
<ele>76</ele>
</trkpt>
<trkpt lat="42.181935" lon="142.89619694444445">
<ele>75</ele>
</trkpt>
<trkpt lat="42.181935" lon="142.89619694444445">
<ele>75</ele>
</trkpt>
<trkpt lat="42.18187" lon="142.89627194444444">
<ele>75</ele>
</trkpt>
<trkpt lat="42.18147" lon="142.896885">
<ele>72</ele>
</trkpt>
<trkpt lat="42.180903055555554" lon="142.89742194444443">
<ele>62</ele>
</trkpt>
<trkpt lat="42.180753055555556" lon="142.89764805555555">
<ele>63</ele>
</trkpt>
<trkpt lat="42.180703055555554" lon="142.89784694444444">
<ele>61</ele>
</trkpt>
<trkpt lat="42.18081194444444" lon="142.90001">
<ele>57</ele>
</trkpt>
<trkpt lat="42.18080305555556" lon="142.90037194444446">
<ele>57</ele>
</trkpt>
<trkpt lat="42.180745" lon="142.900635">
<ele>57</ele>
</trkpt>
<trkpt lat="42.18061194444444" lon="142.9009338888889">
<ele>57</ele>
</trkpt>
<trkpt lat="42.17962888888889" lon="142.90367194444445">
<ele>47</ele>
</trkpt>
<trkpt lat="42.17950388888889" lon="142.90390888888888">
<ele>47</ele>
</trkpt>
<trkpt lat="42.17767888888889" lon="142.90619694444445">
<ele>41</ele>
</trkpt>
<trkpt lat="42.17655388888889" lon="142.9073588888889">
<ele>39</ele>
</trkpt>
<trkpt lat="42.17545388888889" lon="142.90840888888889">
<ele>38</ele>
</trkpt>
<trkpt lat="42.17512111111111" lon="142.9085838888889">
<ele>38</ele>
</trkpt>
<trkpt lat="42.17429611111111" lon="142.9088088888889">
<ele>37</ele>
</trkpt>
<trkpt lat="42.174013055555555" lon="142.90892194444444">
<ele>37</ele>
</trkpt>
<trkpt lat="42.17303" lon="142.90958388888887">
<ele>34</ele>
</trkpt>
<trkpt lat="42.17254611111111" lon="142.90989694444445">
<ele>34</ele>
</trkpt>
<trkpt lat="42.17192111111111" lon="142.91009694444443">
<ele>34</ele>
</trkpt>
<trkpt lat="42.171413055555554" lon="142.91019694444444">
<ele>32</ele>
</trkpt>
<trkpt lat="42.16968" lon="142.91044694444443">
<ele>29</ele>
</trkpt>
<trkpt lat="42.169263055555554" lon="142.9105088888889">
<ele>29</ele>
</trkpt>
<trkpt lat="42.16897194444444" lon="142.91054694444443">
<ele>29</ele>
</trkpt>
<trkpt lat="42.16703" lon="142.91089694444443">
<ele>27</ele>
</trkpt>
<trkpt lat="42.16588111111111" lon="142.91131">
<ele>27</ele>
</trkpt>
<trkpt lat="42.16479694444445" lon="142.91179694444443">
<ele>26</ele>
</trkpt>
<trkpt lat="42.16119805555556" lon="142.91206">
<ele>22</ele>
</trkpt>
<trkpt lat="42.15690611111111" lon="142.91084805555556">
<ele>17</ele>
</trkpt>
<trkpt lat="42.15594" lon="142.9106111111111">
<ele>18</ele>
</trkpt>
<trkpt lat="42.155498055555555" lon="142.91059805555557">
<ele>18</ele>
</trkpt>
<trkpt lat="42.155315" lon="142.9107111111111">
<ele>18</ele>
</trkpt>
<trkpt lat="42.155123055555556" lon="142.9109361111111">
<ele>17</ele>
</trkpt>
<trkpt lat="42.15474" lon="142.91152305555556">
<ele>15</ele>
</trkpt>
<trkpt lat="42.15454" lon="142.91184805555557">
<ele>15</ele>
</trkpt>
<trkpt lat="42.15403194444445" lon="142.9126611111111">
<ele>18</ele>
</trkpt>
<trkpt lat="42.152665" lon="142.91387305555557">
<ele>13</ele>
</trkpt>
<trkpt lat="42.150331944444446" lon="142.91588611111112">
<ele>9</ele>
</trkpt>
<trkpt lat="42.14901611111111" lon="142.9170611111111">
<ele>9</ele>
</trkpt>
<trkpt lat="42.148423888888885" lon="142.9175361111111">
<ele>6</ele>
</trkpt>
<trkpt lat="42.148158055555555" lon="142.91777305555556">
<ele>6</ele>
</trkpt>
<trkpt lat="42.147998888888885" lon="142.9178861111111">
<ele>7</ele>
</trkpt>
<trkpt lat="42.14782388888889" lon="142.91793611111112">
<ele>7</ele>
</trkpt>
<trkpt lat="42.14769888888889" lon="142.91792305555555">
<ele>7</ele>
</trkpt>
<trkpt lat="42.144041111111115" lon="142.9156988888889">
<ele>9</ele>
</trkpt>
<trkpt lat="42.14141" lon="142.91406194444446">
<ele>8</ele>
</trkpt>
<trkpt lat="42.14141" lon="142.91406194444446">
<ele>8</ele>
</trkpt>
<trkpt lat="42.138958055555555" lon="142.91253694444444">
<ele>8</ele>
</trkpt>
<trkpt lat="42.1389" lon="142.91249888888888">
<ele>8</ele>
</trkpt>
<trkpt lat="42.13768388888889" lon="142.91173694444444">
<ele>8</ele>
</trkpt>
<trkpt lat="42.13388388888889" lon="142.90946194444444">
<ele>9</ele>
</trkpt>
<trkpt lat="42.13369194444444" lon="142.90935">
<ele>9</ele>
</trkpt>
<trkpt lat="42.13320111111111" lon="142.91026194444444">
<ele>8</ele>
</trkpt>
<trkpt lat="42.13304194444444" lon="142.910525">
<ele>8</ele>
</trkpt>
<trkpt lat="42.13287611111111" lon="142.91073694444444">
<ele>7</ele>
</trkpt>
<trkpt lat="42.13274194444445" lon="142.9109">
<ele>5</ele>
</trkpt>
<trkpt lat="42.13248388888889" lon="142.91113694444445">
<ele>5</ele>
</trkpt>
<trkpt lat="42.13310888888889" lon="142.91171194444445">
<ele>8</ele>
</trkpt>
<trkpt lat="42.13355111111111" lon="142.912175">
<ele>8</ele>
</trkpt>
<trkpt lat="42.13381694444445" lon="142.9125738888889">
<ele>14</ele>
</trkpt>
<trkpt lat="42.13392611111111" lon="142.91301194444443">
<ele>21</ele>
</trkpt>
<trkpt lat="42.13400111111111" lon="142.91352388888888">
<ele>22</ele>
</trkpt>
<trkpt lat="42.13392611111111" lon="142.91404888888889">
<ele>20</ele>
</trkpt>
<trkpt lat="42.13377611111111" lon="142.9145988888889">
<ele>24</ele>
</trkpt>
<trkpt lat="42.133468055555554" lon="142.91501194444444">
<ele>35</ele>
</trkpt>
<trkpt lat="42.13281694444444" lon="142.91564888888888">
<ele>50</ele>
</trkpt>
<trkpt lat="42.13278388888889" lon="142.91567388888888">
<ele>50</ele>
</trkpt>
<trkpt lat="42.132535" lon="142.91595">
<ele>52</ele>
</trkpt>
<trkpt lat="42.132535" lon="142.91595">
<ele>52</ele>
</trkpt>
<trkpt lat="42.132466944444445" lon="142.9160238888889">
<ele>52</ele>
</trkpt>
<trkpt lat="42.13218388888889" lon="142.91653694444443">
<ele>53</ele>
</trkpt>
<trkpt lat="42.13203388888889" lon="142.91696194444444">
<ele>52</ele>
</trkpt>
<trkpt lat="42.131968055555554" lon="142.91751194444444">
<ele>53</ele>
</trkpt>
<trkpt lat="42.13186805555556" lon="142.9181988888889">
<ele>53</ele>
</trkpt>
<trkpt lat="42.13180888888889" lon="142.91868694444443">
<ele>53</ele>
</trkpt>
<trkpt lat="42.13169305555556" lon="142.9190988888889">
<ele>53</ele>
</trkpt>
<trkpt lat="42.13166805555556" lon="142.9194738888889">
<ele>53</ele>
</trkpt>
<trkpt lat="42.13144305555556" lon="142.9199238888889">
<ele>51</ele>
</trkpt>
<trkpt lat="42.13115111111111" lon="142.9204488888889">
<ele>54</ele>
</trkpt>
<trkpt lat="42.13061" lon="142.9210238888889">
<ele>55</ele>
</trkpt>
<trkpt lat="42.12997611111111" lon="142.92158694444444">
<ele>51</ele>
</trkpt>
<trkpt lat="42.129418055555554" lon="142.92189888888888">
<ele>54</ele>
</trkpt>
<trkpt lat="42.12910194444444" lon="142.92208694444443">
<ele>51</ele>
</trkpt>
<trkpt lat="42.12882694444444" lon="142.9221988888889">
<ele>50</ele>
</trkpt>
<trkpt lat="42.128393055555556" lon="142.92232388888888">
<ele>48</ele>
</trkpt>
<trkpt lat="42.128135" lon="142.92236194444445">
<ele>47</ele>
</trkpt>
<trkpt lat="42.12786805555555" lon="142.9224738888889">
<ele>46</ele>
</trkpt>
<trkpt lat="42.127735" lon="142.9226238888889">
<ele>46</ele>
</trkpt>
<trkpt lat="42.12764305555555" lon="142.9228738888889">
<ele>45</ele>
</trkpt>
<trkpt lat="42.127635" lon="142.92313694444445">
<ele>43</ele>
</trkpt>
<trkpt lat="42.12769388888889" lon="142.92333694444446">
<ele>42</ele>
</trkpt>
<trkpt lat="42.12786805555555" lon="142.92356194444446">
<ele>41</ele>
</trkpt>
<trkpt lat="42.12815194444445" lon="142.9238611111111">
<ele>40</ele>
</trkpt>
<trkpt lat="42.12824305555556" lon="142.92404888888888">
<ele>36</ele>
</trkpt>
<trkpt lat="42.12826805555556" lon="142.9242111111111">
<ele>34</ele>
</trkpt>
<trkpt lat="42.12826805555556" lon="142.92436111111112">
<ele>30</ele>
</trkpt>
<trkpt lat="42.12824305555556" lon="142.92448611111112">
<ele>29</ele>
</trkpt>
<trkpt lat="42.12811888888889" lon="142.9247611111111">
<ele>32</ele>
</trkpt>
<trkpt lat="42.12782111111111" lon="142.9254738888889">
<ele>24</ele>
</trkpt>
<trkpt lat="42.12782111111111" lon="142.92547305555556">
<ele>24</ele>
</trkpt>
<trkpt lat="42.12781" lon="142.92549888888888">
<ele>24</ele>
</trkpt>
<trkpt lat="42.12776888888889" lon="142.92574888888888">
<ele>19</ele>
</trkpt>
<trkpt lat="42.12776888888889" lon="142.9260361111111">
<ele>14</ele>
</trkpt>
<trkpt lat="42.12780194444444" lon="142.92621111111112">
<ele>16</ele>
</trkpt>
<trkpt lat="42.127901944444446" lon="142.9263611111111">
<ele>9</ele>
</trkpt>
<trkpt lat="42.12806" lon="142.92652388888888">
<ele>9</ele>
</trkpt>
<trkpt lat="42.12851888888889" lon="142.9268988888889">
<ele>9</ele>
</trkpt>
<trkpt lat="42.12857694444445" lon="142.92699888888887">
<ele>9</ele>
</trkpt>
<trkpt lat="42.12860194444445" lon="142.92708611111112">
<ele>9</ele>
</trkpt>
<trkpt lat="42.12861888888889" lon="142.9272611111111">
<ele>9</ele>
</trkpt>
<trkpt lat="42.128535" lon="142.9274611111111">
<ele>8</ele>
</trkpt>
<trkpt lat="42.12846888888889" lon="142.92753611111112">
<ele>8</ele>
</trkpt>
<trkpt lat="42.12837694444445" lon="142.9275738888889">
<ele>8</ele>
</trkpt>
<trkpt lat="42.12820194444444" lon="142.9276361111111">
<ele>7</ele>
</trkpt>
<trkpt lat="42.12819388888889" lon="142.9279238888889">
<ele>7</ele>
</trkpt>
<trkpt lat="42.12800194444444" lon="142.92877388888888">
<ele>6</ele>
</trkpt>
<trkpt lat="42.127985" lon="142.9288861111111">
<ele>5</ele>
</trkpt>
<trkpt lat="42.12786" lon="142.92957388888888">
<ele>5</ele>
</trkpt>
<trkpt lat="42.12782694444444" lon="142.9297361111111">
<ele>5</ele>
</trkpt>
<trkpt lat="42.12756111111111" lon="142.9312361111111">
<ele>6</ele>
</trkpt>
<trkpt lat="42.12743611111111" lon="142.9318861111111">
<ele>6</ele>
</trkpt>
<trkpt lat="42.12740194444444" lon="142.93206111111112">
<ele>6</ele>
</trkpt>
<trkpt lat="42.127226944444445" lon="142.9329361111111">
<ele>6</ele>
</trkpt>
<trkpt lat="42.12721111111111" lon="142.93299805555554">
<ele>6</ele>
</trkpt>
<trkpt lat="42.12708611111111" lon="142.93364805555555">
<ele>5</ele>
</trkpt>
<trkpt lat="42.126978055555554" lon="142.93417305555556">
<ele>5</ele>
</trkpt>
<trkpt lat="42.12685194444445" lon="142.9348361111111">
<ele>5</ele>
</trkpt>
<trkpt lat="42.12676111111111" lon="142.93529805555556">
<ele>5</ele>
</trkpt>
<trkpt lat="42.12665194444445" lon="142.9358611111111">
<ele>5</ele>
</trkpt>
<trkpt lat="42.12636888888889" lon="142.93729805555554">
<ele>5</ele>
</trkpt>
<trkpt lat="42.12616111111111" lon="142.93836">
<ele>5</ele>
</trkpt>
<trkpt lat="42.12600305555556" lon="142.93912305555557">
<ele>4</ele>
</trkpt>
<trkpt lat="42.125753055555556" lon="142.94041">
<ele>5</ele>
</trkpt>
<trkpt lat="42.12573611111111" lon="142.94049805555557">
<ele>5</ele>
</trkpt>
<trkpt lat="42.12563611111111" lon="142.94102305555555">
<ele>4</ele>
</trkpt>
<trkpt lat="42.12547" lon="142.94187305555556">
<ele>4</ele>
</trkpt>
<trkpt lat="42.125395" lon="142.942235">
<ele>5</ele>
</trkpt>
<trkpt lat="42.12511111111111" lon="142.94252305555557">
<ele>4</ele>
</trkpt>
<trkpt lat="42.12477805555555" lon="142.94266">
<ele>4</ele>
</trkpt>
<trkpt lat="42.12468611111111" lon="142.942335">
<ele>2</ele>
</trkpt>
<trkpt lat="42.12468611111111" lon="142.94222305555556">
<ele>1</ele>
</trkpt>
<trkpt lat="42.12468611111111" lon="142.94222305555556">
<ele>1</ele>
</trkpt>
<trkpt lat="42.12468611111111" lon="142.942335">
<ele>2</ele>
</trkpt>
<trkpt lat="42.12477805555555" lon="142.94266">
<ele>4</ele>
</trkpt>
<trkpt lat="42.12441111111111" lon="142.942835">
<ele>4</ele>
</trkpt>
<trkpt lat="42.12390305555556" lon="142.94322305555556">
<ele>9</ele>
</trkpt>
<trkpt lat="42.12363694444444" lon="142.943585">
<ele>7</ele>
</trkpt>
<trkpt lat="42.123086944444445" lon="142.944885">
<ele>6</ele>
</trkpt>
<trkpt lat="42.12300305555556" lon="142.94517194444444">
<ele>8</ele>
</trkpt>
<trkpt lat="42.122845" lon="142.94719805555556">
<ele>7</ele>
</trkpt>
<trkpt lat="42.12262" lon="142.949485">
<ele>4</ele>
</trkpt>
<trkpt lat="42.12240388888889" lon="142.951035">
<ele>4</ele>
</trkpt>
<trkpt lat="42.122011944444445" lon="142.95360888888888">
<ele>7</ele>
</trkpt>
<trkpt lat="42.12197111111111" lon="142.95434694444444">
<ele>3</ele>
</trkpt>
<trkpt lat="42.122078888888886" lon="142.95559694444444">
<ele>4</ele>
</trkpt>
<trkpt lat="42.121786944444445" lon="142.95682194444444">
<ele>6</ele>
</trkpt>
<trkpt lat="42.12167888888889" lon="142.9571588888889">
<ele>5</ele>
</trkpt>
<trkpt lat="42.12119611111111" lon="142.95869694444445">
<ele>4</ele>
</trkpt>
<trkpt lat="42.12097111111111" lon="142.95929694444445">
<ele>1</ele>
</trkpt>
<trkpt lat="42.12082111111111" lon="142.95969694444443">
<ele>3</ele>
</trkpt>
<trkpt lat="42.12072111111111" lon="142.9599088888889">
<ele>3</ele>
</trkpt>
<trkpt lat="42.12047111111111" lon="142.96040888888888">
<ele>7</ele>
</trkpt>
<trkpt lat="42.119863055555555" lon="142.96152111111113">
<ele>2</ele>
</trkpt>
<trkpt lat="42.11967888888889" lon="142.96187111111112">
<ele>3</ele>
</trkpt>
<trkpt lat="42.11955388888889" lon="142.9621961111111">
<ele>2</ele>
</trkpt>
<trkpt lat="42.11932111111111" lon="142.9631588888889">
<ele>6</ele>
</trkpt>
<trkpt lat="42.11902111111111" lon="142.96403388888888">
<ele>2</ele>
</trkpt>
<trkpt lat="42.11863805555556" lon="142.9648711111111">
<ele>6</ele>
</trkpt>
<trkpt lat="42.11768" lon="142.9663711111111">
<ele>5</ele>
</trkpt>
<trkpt lat="42.117263055555554" lon="142.96684611111112">
<ele>4</ele>
</trkpt>
<trkpt lat="42.11687194444445" lon="142.96718388888888">
<ele>3</ele>
</trkpt>
<trkpt lat="42.11664694444445" lon="142.96732111111112">
<ele>2</ele>
</trkpt>
<trkpt lat="42.11638" lon="142.9673838888889">
<ele>3</ele>
</trkpt>
<trkpt lat="42.116121944444444" lon="142.96740888888888">
<ele>1</ele>
</trkpt>
<trkpt lat="42.114405" lon="142.9674588888889">
<ele>1</ele>
</trkpt>
<trkpt lat="42.11378888888889" lon="142.9675838888889">
<ele>2</ele>
</trkpt>
<trkpt lat="42.113306111111115" lon="142.9677338888889">
<ele>0</ele>
</trkpt>
<trkpt lat="42.11280611111111" lon="142.96800888888887">
<ele>1</ele>
</trkpt>
<trkpt lat="42.112496944444445" lon="142.96822111111112">
<ele>0</ele>
</trkpt>
<trkpt lat="42.11228888888889" lon="142.9684211111111">
<ele>0</ele>
</trkpt>
<trkpt lat="42.112046944444444" lon="142.9687088888889">
<ele>1</ele>
</trkpt>
<trkpt lat="42.111198055555555" lon="142.9700838888889">
<ele>0</ele>
</trkpt>
<trkpt lat="42.110638888888886" lon="142.9708961111111">
<ele>3</ele>
</trkpt>
<trkpt lat="42.11028888888889" lon="142.9712461111111">
<ele>3</ele>
</trkpt>
<trkpt lat="42.11010611111111" lon="142.97138388888888">
<ele>1</ele>
</trkpt>
<trkpt lat="42.10942305555555" lon="142.9719838888889">
<ele>4</ele>
</trkpt>
<trkpt lat="42.109363888888886" lon="142.9720461111111">
<ele>6</ele>
</trkpt>
<trkpt lat="42.10933888888889" lon="142.9720461111111">
<ele>6</ele>
</trkpt>
<trkpt lat="42.10808111111111" lon="142.9736088888889">
<ele>4</ele>
</trkpt>
<trkpt lat="42.10687305555555" lon="142.9749838888889">
<ele>4</ele>
</trkpt>
<trkpt lat="42.10613194444444" lon="142.9753961111111">
<ele>4</ele>
</trkpt>
<trkpt lat="42.106498055555555" lon="142.9766338888889">
<ele>13</ele>
</trkpt>
<trkpt lat="42.10654" lon="142.9769588888889">
<ele>15</ele>
</trkpt>
<trkpt lat="42.10655694444444" lon="142.9772211111111">
<ele>17</ele>
</trkpt>
<trkpt lat="42.10654" lon="142.9774088888889">
<ele>17</ele>
</trkpt>
<trkpt lat="42.106498055555555" lon="142.9776838888889">
<ele>18</ele>
</trkpt>
<trkpt lat="42.106415" lon="142.97794611111112">
<ele>19</ele>
</trkpt>
<trkpt lat="42.106323055555556" lon="142.9780961111111">
<ele>20</ele>
</trkpt>
<trkpt lat="42.10619805555555" lon="142.97828388888888">
<ele>22</ele>
</trkpt>
<trkpt lat="42.10569805555556" lon="142.9789088888889">
<ele>28</ele>
</trkpt>
<trkpt lat="42.10557305555555" lon="142.9791088888889">
<ele>28</ele>
</trkpt>
<trkpt lat="42.10547388888889" lon="142.97930888888888">
<ele>28</ele>
</trkpt>
<trkpt lat="42.10539" lon="142.97954611111112">
<ele>29</ele>
</trkpt>
<trkpt lat="42.105315" lon="142.97988305555555">
<ele>35</ele>
</trkpt>
<trkpt lat="42.10530694444444" lon="142.9801461111111">
<ele>35</ele>
</trkpt>
<trkpt lat="42.105315" lon="142.98035805555557">
<ele>34</ele>
</trkpt>
<trkpt lat="42.10539" lon="142.9807211111111">
<ele>35</ele>
</trkpt>
<trkpt lat="42.105556944444444" lon="142.98137111111112">
<ele>36</ele>
</trkpt>
<trkpt lat="42.10591194444444" lon="142.982415">
<ele>37</ele>
</trkpt>
<trkpt lat="42.10591194444444" lon="142.982415">
<ele>37</ele>
</trkpt>
<trkpt lat="42.10622388888889" lon="142.98333305555556">
<ele>38</ele>
</trkpt>
<trkpt lat="42.10669" lon="142.98462111111112">
<ele>41</ele>
</trkpt>
<trkpt lat="42.106865" lon="142.98484611111112">
<ele>42</ele>
</trkpt>
<trkpt lat="42.10747388888889" lon="142.98509611111112">
<ele>46</ele>
</trkpt>
<trkpt lat="42.10762388888889" lon="142.98498305555555">
<ele>47</ele>
</trkpt>
<trkpt lat="42.10825694444444" lon="142.98503305555556">
<ele>58</ele>
</trkpt>
<trkpt lat="42.108558888888886" lon="142.98511">
<ele>61</ele>
</trkpt>
<trkpt lat="42.108558888888886" lon="142.9851088888889">
<ele>61</ele>
</trkpt>
<trkpt lat="42.10874805555556" lon="142.98515805555556">
<ele>63</ele>
</trkpt>
<trkpt lat="42.109501944444446" lon="142.9855611111111">
<ele>69</ele>
</trkpt>
    </trkseg>
  </trk>
</gpx>