<?xml version="1.0" encoding="UTF-8"?>
<gpx version="1.1"
     creator="KMLtoGPX"
     xmlns="http://www.topografix.com/GPX/1/1">
  <metadata>
    <name>Toyoura Hill Climb Challenge Course</name>
    <desc>豊浦ヒルクライムチャレンジコース</desc>
    <bounds minlat="42.57668694444445" minlon="140.720505" maxlat="42.66723888888889" maxlon="140.83990194444445"/>
  </metadata>
  <trk>
    <name>Toyoura Hill Climb Challenge Course</name>
    <trkseg>
<trkpt lat="42.577623055555556" lon="140.72289694444444">
<ele>60</ele>
</trkpt>
<trkpt lat="42.57668694444445" lon="140.72341805555556">
<ele>65</ele>
</trkpt>
<trkpt lat="42.57680305555556" lon="140.72381805555557">
<ele>69</ele>
</trkpt>
<trkpt lat="42.576903055555555" lon="140.7239311111111">
<ele>70</ele>
</trkpt>
<trkpt lat="42.57702805555556" lon="140.7239561111111">
<ele>73</ele>
</trkpt>
<trkpt lat="42.57716194444444" lon="140.72389305555555">
<ele>74</ele>
</trkpt>
<trkpt lat="42.577745" lon="140.7232561111111">
<ele>72</ele>
</trkpt>
<trkpt lat="42.57802" lon="140.72306805555556">
<ele>71</ele>
</trkpt>
<trkpt lat="42.578403055555555" lon="140.72288111111112">
<ele>71</ele>
</trkpt>
<trkpt lat="42.57866611111111" lon="140.72277805555555">
<ele>71</ele>
</trkpt>
<trkpt lat="42.57866611111111" lon="140.72277805555555">
<ele>71</ele>
</trkpt>
<trkpt lat="42.57888611111111" lon="140.72269305555557">
<ele>71</ele>
</trkpt>
<trkpt lat="42.57913611111111" lon="140.72264305555555">
<ele>70</ele>
</trkpt>
<trkpt lat="42.57938611111111" lon="140.72265611111112">
<ele>70</ele>
</trkpt>
<trkpt lat="42.57960305555556" lon="140.7227311111111">
<ele>71</ele>
</trkpt>
<trkpt lat="42.57982805555555" lon="140.72288111111112">
<ele>74</ele>
</trkpt>
<trkpt lat="42.58001111111111" lon="140.72311805555555">
<ele>76</ele>
</trkpt>
<trkpt lat="42.58052" lon="140.72419305555556">
<ele>75</ele>
</trkpt>
<trkpt lat="42.580728055555554" lon="140.72453">
<ele>73</ele>
</trkpt>
<trkpt lat="42.58083611111111" lon="140.724655">
<ele>73</ele>
</trkpt>
<trkpt lat="42.58141888888889" lon="140.72509305555556">
<ele>78</ele>
</trkpt>
<trkpt lat="42.581653055555556" lon="140.72526805555555">
<ele>86</ele>
</trkpt>
<trkpt lat="42.58191111111111" lon="140.72556805555556">
<ele>85</ele>
</trkpt>
<trkpt lat="42.58206111111111" lon="140.725805">
<ele>86</ele>
</trkpt>
<trkpt lat="42.582453055555554" lon="140.72658">
<ele>84</ele>
</trkpt>
<trkpt lat="42.58257805555556" lon="140.726805">
<ele>84</ele>
</trkpt>
<trkpt lat="42.582695" lon="140.726955">
<ele>83</ele>
</trkpt>
<trkpt lat="42.58280305555556" lon="140.72704305555555">
<ele>82</ele>
</trkpt>
<trkpt lat="42.58303611111111" lon="140.72718">
<ele>82</ele>
</trkpt>
<trkpt lat="42.58323611111111" lon="140.72726694444444">
<ele>85</ele>
</trkpt>
<trkpt lat="42.583418888888886" lon="140.72731694444445">
<ele>85</ele>
</trkpt>
<trkpt lat="42.58361111111111" lon="140.72734194444445">
<ele>88</ele>
</trkpt>
<trkpt lat="42.58381888888889" lon="140.72734194444445">
<ele>93</ele>
</trkpt>
<trkpt lat="42.58383611111111" lon="140.72734194444445">
<ele>93</ele>
</trkpt>
<trkpt lat="42.58387805555556" lon="140.72733">
<ele>94</ele>
</trkpt>
<trkpt lat="42.58412805555555" lon="140.72724194444444">
<ele>97</ele>
</trkpt>
<trkpt lat="42.58581111111111" lon="140.72653">
<ele>111</ele>
</trkpt>
<trkpt lat="42.585951944444446" lon="140.72646805555556">
<ele>112</ele>
</trkpt>
<trkpt lat="42.58665194444445" lon="140.7262">
<ele>114</ele>
</trkpt>
<trkpt lat="42.58665194444445" lon="140.7262">
<ele>114</ele>
</trkpt>
<trkpt lat="42.586801944444446" lon="140.72614194444444">
<ele>115</ele>
</trkpt>
<trkpt lat="42.587026944444446" lon="140.726005">
<ele>123</ele>
</trkpt>
<trkpt lat="42.58723611111111" lon="140.725755">
<ele>123</ele>
</trkpt>
<trkpt lat="42.587685" lon="140.72476694444444">
<ele>124</ele>
</trkpt>
<trkpt lat="42.58786" lon="140.72451694444445">
<ele>124</ele>
</trkpt>
<trkpt lat="42.58806" lon="140.72438">
<ele>127</ele>
</trkpt>
<trkpt lat="42.58829388888889" lon="140.72441805555556">
<ele>132</ele>
</trkpt>
<trkpt lat="42.588476944444444" lon="140.72453">
<ele>133</ele>
</trkpt>
<trkpt lat="42.58887694444444" lon="140.725055">
<ele>137</ele>
</trkpt>
<trkpt lat="42.58907694444444" lon="140.725205">
<ele>139</ele>
</trkpt>
<trkpt lat="42.58926" lon="140.72524194444443">
<ele>144</ele>
</trkpt>
<trkpt lat="42.58936888888889" lon="140.725255">
<ele>144</ele>
</trkpt>
<trkpt lat="42.58950194444444" lon="140.72524194444443">
<ele>144</ele>
</trkpt>
<trkpt lat="42.58964388888889" lon="140.725205">
<ele>143</ele>
</trkpt>
<trkpt lat="42.592018055555556" lon="140.72343">
<ele>161</ele>
</trkpt>
<trkpt lat="42.59224305555556" lon="140.72314194444445">
<ele>171</ele>
</trkpt>
<trkpt lat="42.59230111111111" lon="140.72284305555556">
<ele>173</ele>
</trkpt>
<trkpt lat="42.59227611111111" lon="140.72256694444445">
<ele>173</ele>
</trkpt>
<trkpt lat="42.59217611111111" lon="140.722355">
<ele>175</ele>
</trkpt>
<trkpt lat="42.59200111111111" lon="140.72219305555555">
<ele>181</ele>
</trkpt>
<trkpt lat="42.591385" lon="140.72198">
<ele>185</ele>
</trkpt>
<trkpt lat="42.591185" lon="140.72186805555555">
<ele>187</ele>
</trkpt>
<trkpt lat="42.59104305555555" lon="140.72168">
<ele>188</ele>
</trkpt>
<trkpt lat="42.59097611111111" lon="140.72143">
<ele>196</ele>
</trkpt>
<trkpt lat="42.59096805555556" lon="140.72116805555555">
<ele>194</ele>
</trkpt>
<trkpt lat="42.591085" lon="140.72091805555556">
<ele>191</ele>
</trkpt>
<trkpt lat="42.591285" lon="140.72078">
<ele>193</ele>
</trkpt>
<trkpt lat="42.59161" lon="140.72079305555556">
<ele>194</ele>
</trkpt>
<trkpt lat="42.59190111111111" lon="140.72086694444445">
<ele>202</ele>
</trkpt>
<trkpt lat="42.592933888888886" lon="140.72123">
<ele>208</ele>
</trkpt>
<trkpt lat="42.59312611111111" lon="140.72123">
<ele>212</ele>
</trkpt>
<trkpt lat="42.59334305555556" lon="140.72116805555555">
<ele>215</ele>
</trkpt>
<trkpt lat="42.59433388888889" lon="140.72059194444444">
<ele>225</ele>
</trkpt>
<trkpt lat="42.59466694444444" lon="140.720505">
<ele>222</ele>
</trkpt>
<trkpt lat="42.59498388888889" lon="140.720555">
<ele>222</ele>
</trkpt>
<trkpt lat="42.59522611111111" lon="140.72061694444446">
<ele>222</ele>
</trkpt>
<trkpt lat="42.59542611111111" lon="140.720705">
<ele>222</ele>
</trkpt>
<trkpt lat="42.59655111111111" lon="140.72151694444443">
<ele>232</ele>
</trkpt>
<trkpt lat="42.59750888888889" lon="140.72210388888888">
<ele>231</ele>
</trkpt>
<trkpt lat="42.59766805555556" lon="140.72216694444444">
<ele>230</ele>
</trkpt>
<trkpt lat="42.60024194444444" lon="140.72326694444445">
<ele>227</ele>
</trkpt>
<trkpt lat="42.60106694444445" lon="140.72369194444445">
<ele>227</ele>
</trkpt>
<trkpt lat="42.60156694444444" lon="140.7240038888889">
<ele>226</ele>
</trkpt>
<trkpt lat="42.6047" lon="140.72630388888888">
<ele>218</ele>
</trkpt>
<trkpt lat="42.60505888888889" lon="140.72664111111112">
<ele>222</ele>
</trkpt>
<trkpt lat="42.60525888888889" lon="140.72682805555556">
<ele>227</ele>
</trkpt>
<trkpt lat="42.605475" lon="140.72707805555555">
<ele>230</ele>
</trkpt>
<trkpt lat="42.60564194444444" lon="140.72731611111112">
<ele>232</ele>
</trkpt>
<trkpt lat="42.606425" lon="140.72832805555555">
<ele>240</ele>
</trkpt>
<trkpt lat="42.6068" lon="140.72862805555556">
<ele>240</ele>
</trkpt>
<trkpt lat="42.60704194444445" lon="140.72867805555555">
<ele>241</ele>
</trkpt>
<trkpt lat="42.60736694444444" lon="140.7287161111111">
<ele>240</ele>
</trkpt>
<trkpt lat="42.60779194444444" lon="140.72860305555557">
<ele>239</ele>
</trkpt>
<trkpt lat="42.60864194444444" lon="140.72821611111112">
<ele>234</ele>
</trkpt>
<trkpt lat="42.60913305555555" lon="140.7280411111111">
<ele>233</ele>
</trkpt>
<trkpt lat="42.609791944444446" lon="140.72794">
<ele>233</ele>
</trkpt>
<trkpt lat="42.61053305555556" lon="140.72795305555556">
<ele>235</ele>
</trkpt>
<trkpt lat="42.61096611111111" lon="140.72809">
<ele>236</ele>
</trkpt>
<trkpt lat="42.611291111111115" lon="140.728265">
<ele>237</ele>
</trkpt>
<trkpt lat="42.61188305555556" lon="140.72870305555554">
<ele>237</ele>
</trkpt>
<trkpt lat="42.61245" lon="140.72940194444445">
<ele>235</ele>
</trkpt>
<trkpt lat="42.612875" lon="140.73024">
<ele>238</ele>
</trkpt>
<trkpt lat="42.613458055555554" lon="140.73247694444444">
<ele>235</ele>
</trkpt>
<trkpt lat="42.61354194444444" lon="140.7327161111111">
<ele>234</ele>
</trkpt>
<trkpt lat="42.61354194444444" lon="140.7327161111111">
<ele>234</ele>
</trkpt>
<trkpt lat="42.613925" lon="140.73380194444445">
<ele>232</ele>
</trkpt>
<trkpt lat="42.61405805555555" lon="140.73402694444445">
<ele>233</ele>
</trkpt>
<trkpt lat="42.61354111111111" lon="140.73422694444446">
<ele>240</ele>
</trkpt>
<trkpt lat="42.612583055555554" lon="140.73442694444444">
<ele>253</ele>
</trkpt>
<trkpt lat="42.611691944444445" lon="140.73464">
<ele>258</ele>
</trkpt>
<trkpt lat="42.611225" lon="140.73457694444446">
<ele>259</ele>
</trkpt>
<trkpt lat="42.610866944444446" lon="140.73449">
<ele>271</ele>
</trkpt>
<trkpt lat="42.610591944444444" lon="140.73439">
<ele>275</ele>
</trkpt>
<trkpt lat="42.610458055555554" lon="140.73437694444445">
<ele>276</ele>
</trkpt>
<trkpt lat="42.610275" lon="140.73440194444444">
<ele>277</ele>
</trkpt>
<trkpt lat="42.61014194444444" lon="140.73445305555555">
<ele>278</ele>
</trkpt>
<trkpt lat="42.610016944444446" lon="140.73454">
<ele>278</ele>
</trkpt>
<trkpt lat="42.60991694444444" lon="140.73464">
<ele>277</ele>
</trkpt>
<trkpt lat="42.609825" lon="140.734765">
<ele>277</ele>
</trkpt>
<trkpt lat="42.60969194444444" lon="140.735015">
<ele>278</ele>
</trkpt>
<trkpt lat="42.60943388888889" lon="140.73569">
<ele>297</ele>
</trkpt>
<trkpt lat="42.60929194444444" lon="140.736165">
<ele>301</ele>
</trkpt>
<trkpt lat="42.6092" lon="140.73632694444444">
<ele>303</ele>
</trkpt>
<trkpt lat="42.60906694444444" lon="140.73644">
<ele>305</ele>
</trkpt>
<trkpt lat="42.60873388888889" lon="140.736465">
<ele>308</ele>
</trkpt>
<trkpt lat="42.60821694444444" lon="140.736515">
<ele>310</ele>
</trkpt>
<trkpt lat="42.60805888888889" lon="140.73647805555555">
<ele>310</ele>
</trkpt>
<trkpt lat="42.60772611111111" lon="140.736365">
<ele>311</ele>
</trkpt>
<trkpt lat="42.60747611111111" lon="140.736315">
<ele>313</ele>
</trkpt>
<trkpt lat="42.60727611111111" lon="140.73630194444445">
<ele>312</ele>
</trkpt>
<trkpt lat="42.60686694444444" lon="140.73637805555555">
<ele>309</ele>
</trkpt>
<trkpt lat="42.60665111111111" lon="140.736465">
<ele>308</ele>
</trkpt>
<trkpt lat="42.606476111111114" lon="140.73665194444445">
<ele>308</ele>
</trkpt>
<trkpt lat="42.60366805555555" lon="140.74040194444444">
<ele>323</ele>
</trkpt>
<trkpt lat="42.60337611111111" lon="140.74074">
<ele>325</ele>
</trkpt>
<trkpt lat="42.60315111111111" lon="140.74092694444445">
<ele>328</ele>
</trkpt>
<trkpt lat="42.60260111111111" lon="140.74124">
<ele>339</ele>
</trkpt>
<trkpt lat="42.601576944444446" lon="140.741765">
<ele>356</ele>
</trkpt>
<trkpt lat="42.59925111111111" lon="140.74283194444445">
<ele>384</ele>
</trkpt>
<trkpt lat="42.59925111111111" lon="140.74283194444445">
<ele>384</ele>
</trkpt>
<trkpt lat="42.59863611111111" lon="140.743115">
<ele>391</ele>
</trkpt>
<trkpt lat="42.59856888888889" lon="140.743415">
<ele>393</ele>
</trkpt>
<trkpt lat="42.598526944444444" lon="140.744215">
<ele>400</ele>
</trkpt>
<trkpt lat="42.59886888888889" lon="140.744965">
<ele>414</ele>
</trkpt>
<trkpt lat="42.59898611111111" lon="140.74529">
<ele>421</ele>
</trkpt>
<trkpt lat="42.59898611111111" lon="140.74565194444443">
<ele>426</ele>
</trkpt>
<trkpt lat="42.59898611111111" lon="140.74639">
<ele>432</ele>
</trkpt>
<trkpt lat="42.59899388888889" lon="140.746715">
<ele>434</ele>
</trkpt>
<trkpt lat="42.59891888888889" lon="140.7479888888889">
<ele>441</ele>
</trkpt>
<trkpt lat="42.59889388888889" lon="140.74940194444446">
<ele>457</ele>
</trkpt>
<trkpt lat="42.59885305555556" lon="140.74940194444446">
<ele>458</ele>
</trkpt>
<trkpt lat="42.59879388888889" lon="140.74935194444444">
<ele>458</ele>
</trkpt>
<trkpt lat="42.598753055555555" lon="140.7492638888889">
<ele>459</ele>
</trkpt>
<trkpt lat="42.59864388888889" lon="140.74875194444445">
<ele>462</ele>
</trkpt>
<trkpt lat="42.59861111111111" lon="140.7486888888889">
<ele>462</ele>
</trkpt>
<trkpt lat="42.59856888888889" lon="140.7486638888889">
<ele>461</ele>
</trkpt>
<trkpt lat="42.59853611111111" lon="140.7486888888889">
<ele>462</ele>
</trkpt>
<trkpt lat="42.59851888888889" lon="140.74875194444445">
<ele>462</ele>
</trkpt>
<trkpt lat="42.59837805555556" lon="140.74953888888888">
<ele>473</ele>
</trkpt>
<trkpt lat="42.59836888888889" lon="140.75018194444445">
<ele>479</ele>
</trkpt>
<trkpt lat="42.59836888888889" lon="140.75018194444445">
<ele>479</ele>
</trkpt>
<trkpt lat="42.59836111111111" lon="140.7507138888889">
<ele>483</ele>
</trkpt>
<trkpt lat="42.598353055555556" lon="140.75156388888888">
<ele>492</ele>
</trkpt>
<trkpt lat="42.59838611111111" lon="140.75250111111112">
<ele>501</ele>
</trkpt>
<trkpt lat="42.597903055555555" lon="140.75340111111112">
<ele>513</ele>
</trkpt>
<trkpt lat="42.597811944444445" lon="140.7535761111111">
<ele>515</ele>
</trkpt>
<trkpt lat="42.59740305555555" lon="140.7543261111111">
<ele>527</ele>
</trkpt>
<trkpt lat="42.59728694444444" lon="140.7545638888889">
<ele>525</ele>
</trkpt>
<trkpt lat="42.59707" lon="140.75506388888888">
<ele>527</ele>
</trkpt>
<trkpt lat="42.59708694444444" lon="140.7558511111111">
<ele>533</ele>
</trkpt>
<trkpt lat="42.59705388888889" lon="140.75590111111111">
<ele>533</ele>
</trkpt>
<trkpt lat="42.596945" lon="140.75598888888888">
<ele>536</ele>
</trkpt>
<trkpt lat="42.597045" lon="140.7562388888889">
<ele>535</ele>
</trkpt>
<trkpt lat="42.59720388888889" lon="140.75653805555555">
<ele>530</ele>
</trkpt>
<trkpt lat="42.597395" lon="140.75676305555555">
<ele>526</ele>
</trkpt>
<trkpt lat="42.597636944444446" lon="140.75696305555556">
<ele>526</ele>
</trkpt>
<trkpt lat="42.598011944444444" lon="140.75708805555556">
<ele>523</ele>
</trkpt>
<trkpt lat="42.59882805555556" lon="140.7572761111111">
<ele>514</ele>
</trkpt>
<trkpt lat="42.599136944444446" lon="140.75743805555555">
<ele>512</ele>
</trkpt>
<trkpt lat="42.59932" lon="140.75758805555554">
<ele>513</ele>
</trkpt>
<trkpt lat="42.59947" lon="140.75790111111112">
<ele>512</ele>
</trkpt>
<trkpt lat="42.59955305555555" lon="140.75818805555556">
<ele>513</ele>
</trkpt>
<trkpt lat="42.59955305555555" lon="140.7585761111111">
<ele>509</ele>
</trkpt>
<trkpt lat="42.59950305555556" lon="140.75906305555554">
<ele>508</ele>
</trkpt>
<trkpt lat="42.599511944444444" lon="140.7594761111111">
<ele>505</ele>
</trkpt>
<trkpt lat="42.599595" lon="140.75968805555556">
<ele>503</ele>
</trkpt>
<trkpt lat="42.59972" lon="140.7598">
<ele>501</ele>
</trkpt>
<trkpt lat="42.599895" lon="140.75983805555555">
<ele>497</ele>
</trkpt>
<trkpt lat="42.60007" lon="140.75978805555556">
<ele>497</ele>
</trkpt>
<trkpt lat="42.60023611111111" lon="140.759625">
<ele>496</ele>
</trkpt>
<trkpt lat="42.60031111111111" lon="140.7594">
<ele>496</ele>
</trkpt>
<trkpt lat="42.60040305555555" lon="140.75905">
<ele>496</ele>
</trkpt>
<trkpt lat="42.60055305555556" lon="140.75861805555556">
<ele>497</ele>
</trkpt>
<trkpt lat="42.60055305555556" lon="140.75861805555556">
<ele>497</ele>
</trkpt>
<trkpt lat="42.60040305555555" lon="140.75905">
<ele>496</ele>
</trkpt>
<trkpt lat="42.60031111111111" lon="140.7594">
<ele>496</ele>
</trkpt>
<trkpt lat="42.600545" lon="140.759325">
<ele>499</ele>
</trkpt>
<trkpt lat="42.60068611111111" lon="140.759125">
<ele>500</ele>
</trkpt>
<trkpt lat="42.60100305555556" lon="140.758625">
<ele>498</ele>
</trkpt>
<trkpt lat="42.60120305555556" lon="140.7584261111111">
<ele>496</ele>
</trkpt>
<trkpt lat="42.60154388888889" lon="140.75827611111112">
<ele>491</ele>
</trkpt>
<trkpt lat="42.60191888888889" lon="140.7582">
<ele>485</ele>
</trkpt>
<trkpt lat="42.60214388888889" lon="140.7582">
<ele>483</ele>
</trkpt>
<trkpt lat="42.60226111111111" lon="140.758275">
<ele>482</ele>
</trkpt>
<trkpt lat="42.60234388888889" lon="140.75838805555554">
<ele>480</ele>
</trkpt>
<trkpt lat="42.60246111111111" lon="140.758775">
<ele>476</ele>
</trkpt>
<trkpt lat="42.60254388888889" lon="140.75971305555555">
<ele>474</ele>
</trkpt>
<trkpt lat="42.60254388888889" lon="140.76001305555556">
<ele>474</ele>
</trkpt>
<trkpt lat="42.60248611111111" lon="140.76025">
<ele>473</ele>
</trkpt>
<trkpt lat="42.60225305555556" lon="140.76095">
<ele>461</ele>
</trkpt>
<trkpt lat="42.60226111111111" lon="140.761175">
<ele>457</ele>
</trkpt>
<trkpt lat="42.602403055555556" lon="140.76141305555555">
<ele>454</ele>
</trkpt>
<trkpt lat="42.60263611111111" lon="140.76156194444445">
<ele>453</ele>
</trkpt>
<trkpt lat="42.60326111111111" lon="140.7618">
<ele>445</ele>
</trkpt>
<trkpt lat="42.60343611111111" lon="140.76195">
<ele>445</ele>
</trkpt>
<trkpt lat="42.604551944444445" lon="140.76318694444444">
<ele>429</ele>
</trkpt>
<trkpt lat="42.60471888888889" lon="140.76331194444444">
<ele>425</ele>
</trkpt>
<trkpt lat="42.60483611111111" lon="140.76331194444444">
<ele>426</ele>
</trkpt>
<trkpt lat="42.60506111111111" lon="140.763125">
<ele>427</ele>
</trkpt>
<trkpt lat="42.605626944444445" lon="140.76361194444445">
<ele>419</ele>
</trkpt>
<trkpt lat="42.60671" lon="140.76436194444443">
<ele>415</ele>
</trkpt>
<trkpt lat="42.60686888888889" lon="140.7645238888889">
<ele>415</ele>
</trkpt>
<trkpt lat="42.609635" lon="140.76764888888889">
<ele>411</ele>
</trkpt>
<trkpt lat="42.60989305555555" lon="140.7680738888889">
<ele>412</ele>
</trkpt>
<trkpt lat="42.61007611111111" lon="140.7686361111111">
<ele>411</ele>
</trkpt>
<trkpt lat="42.61017611111111" lon="140.76913611111112">
<ele>410</ele>
</trkpt>
<trkpt lat="42.610218055555556" lon="140.7695611111111">
<ele>405</ele>
</trkpt>
<trkpt lat="42.61022694444444" lon="140.7700738888889">
<ele>402</ele>
</trkpt>
<trkpt lat="42.610076944444444" lon="140.77143611111111">
<ele>397</ele>
</trkpt>
<trkpt lat="42.61011805555555" lon="140.77187388888888">
<ele>396</ele>
</trkpt>
<trkpt lat="42.61026805555556" lon="140.77229888888888">
<ele>396</ele>
</trkpt>
<trkpt lat="42.610585" lon="140.7726238888889">
<ele>395</ele>
</trkpt>
<trkpt lat="42.610935" lon="140.7727238888889">
<ele>393</ele>
</trkpt>
<trkpt lat="42.611668055555555" lon="140.77253611111112">
<ele>381</ele>
</trkpt>
<trkpt lat="42.61201" lon="140.7725738888889">
<ele>375</ele>
</trkpt>
<trkpt lat="42.61226805555555" lon="140.77276111111112">
<ele>374</ele>
</trkpt>
<trkpt lat="42.61251" lon="140.77301111111112">
<ele>374</ele>
</trkpt>
<trkpt lat="42.61331805555555" lon="140.77484805555557">
<ele>376</ele>
</trkpt>
<trkpt lat="42.61347611111111" lon="140.77539805555554">
<ele>377</ele>
</trkpt>
<trkpt lat="42.61349305555556" lon="140.77577305555556">
<ele>376</ele>
</trkpt>
<trkpt lat="42.61349694444444" lon="140.77646805555557">
<ele>372</ele>
</trkpt>
<trkpt lat="42.61349694444444" lon="140.77646805555557">
<ele>372</ele>
</trkpt>
<trkpt lat="42.613535" lon="140.783785">
<ele>338</ele>
</trkpt>
<trkpt lat="42.61356" lon="140.78429694444443">
<ele>332</ele>
</trkpt>
<trkpt lat="42.61371" lon="140.784835">
<ele>335</ele>
</trkpt>
<trkpt lat="42.613926944444444" lon="140.785235">
<ele>337</ele>
</trkpt>
<trkpt lat="42.614785" lon="140.78614694444445">
<ele>336</ele>
</trkpt>
<trkpt lat="42.61451805555556" lon="140.786485">
<ele>337</ele>
</trkpt>
<trkpt lat="42.615835" lon="140.7882088888889">
<ele>331</ele>
</trkpt>
<trkpt lat="42.615948055555556" lon="140.78834805555556">
<ele>330</ele>
</trkpt>
<trkpt lat="42.615948055555556" lon="140.7883488888889">
<ele>330</ele>
</trkpt>
<trkpt lat="42.61649305555556" lon="140.78902194444444">
<ele>329</ele>
</trkpt>
<trkpt lat="42.617135" lon="140.7898588888889">
<ele>325</ele>
</trkpt>
<trkpt lat="42.61855111111111" lon="140.79158388888888">
<ele>320</ele>
</trkpt>
<trkpt lat="42.62179305555556" lon="140.79465805555554">
<ele>311</ele>
</trkpt>
<trkpt lat="42.62426694444444" lon="140.79698305555556">
<ele>300</ele>
</trkpt>
<trkpt lat="42.625591944444444" lon="140.79823305555556">
<ele>297</ele>
</trkpt>
<trkpt lat="42.62616694444444" lon="140.79872">
<ele>299</ele>
</trkpt>
<trkpt lat="42.62675" lon="140.79907">
<ele>297</ele>
</trkpt>
<trkpt lat="42.62739194444445" lon="140.79930694444445">
<ele>295</ele>
</trkpt>
<trkpt lat="42.63366611111111" lon="140.80103194444445">
<ele>276</ele>
</trkpt>
<trkpt lat="42.63707388888889" lon="140.80195694444444">
<ele>270</ele>
</trkpt>
<trkpt lat="42.6424" lon="140.80339194444446">
<ele>261</ele>
</trkpt>
<trkpt lat="42.6424" lon="140.80339194444446">
<ele>261</ele>
</trkpt>
<trkpt lat="42.64282305555555" lon="140.80350611111112">
<ele>260</ele>
</trkpt>
<trkpt lat="42.64274805555556" lon="140.8041311111111">
<ele>260</ele>
</trkpt>
<trkpt lat="42.64274805555556" lon="140.8043561111111">
<ele>260</ele>
</trkpt>
<trkpt lat="42.64279" lon="140.80454305555557">
<ele>260</ele>
</trkpt>
<trkpt lat="42.64289" lon="140.80473111111112">
<ele>258</ele>
</trkpt>
<trkpt lat="42.643015" lon="140.80488111111111">
<ele>257</ele>
</trkpt>
<trkpt lat="42.64319" lon="140.80501805555556">
<ele>254</ele>
</trkpt>
<trkpt lat="42.643465" lon="140.80519305555555">
<ele>253</ele>
</trkpt>
<trkpt lat="42.64407305555556" lon="140.8056061111111">
<ele>244</ele>
</trkpt>
<trkpt lat="42.644281944444444" lon="140.80575611111112">
<ele>245</ele>
</trkpt>
<trkpt lat="42.64468194444444" lon="140.80610611111112">
<ele>248</ele>
</trkpt>
<trkpt lat="42.646115" lon="140.80756805555555">
<ele>235</ele>
</trkpt>
<trkpt lat="42.64634" lon="140.807805">
<ele>237</ele>
</trkpt>
<trkpt lat="42.646715" lon="140.80828">
<ele>226</ele>
</trkpt>
<trkpt lat="42.64699805555556" lon="140.808805">
<ele>210</ele>
</trkpt>
<trkpt lat="42.647123055555554" lon="140.80911694444444">
<ele>220</ele>
</trkpt>
<trkpt lat="42.64724805555556" lon="140.80946805555556">
<ele>227</ele>
</trkpt>
<trkpt lat="42.64729611111111" lon="140.8096338888889">
<ele>226</ele>
</trkpt>
<trkpt lat="42.64729611111111" lon="140.8096338888889">
<ele>226</ele>
</trkpt>
<trkpt lat="42.64767305555556" lon="140.810955">
<ele>216</ele>
</trkpt>
<trkpt lat="42.64773111111111" lon="140.811205">
<ele>215</ele>
</trkpt>
<trkpt lat="42.647765" lon="140.81141694444443">
<ele>215</ele>
</trkpt>
<trkpt lat="42.647765" lon="140.81166694444445">
<ele>209</ele>
</trkpt>
<trkpt lat="42.64768111111111" lon="140.81213">
<ele>208</ele>
</trkpt>
<trkpt lat="42.64760694444445" lon="140.812305">
<ele>206</ele>
</trkpt>
<trkpt lat="42.647506944444444" lon="140.81249194444445">
<ele>205</ele>
</trkpt>
<trkpt lat="42.647373055555555" lon="140.81268">
<ele>203</ele>
</trkpt>
<trkpt lat="42.647215" lon="140.81284194444444">
<ele>197</ele>
</trkpt>
<trkpt lat="42.646515" lon="140.813405">
<ele>196</ele>
</trkpt>
<trkpt lat="42.646231944444445" lon="140.81366694444444">
<ele>196</ele>
</trkpt>
<trkpt lat="42.64608194444445" lon="140.81386694444444">
<ele>195</ele>
</trkpt>
<trkpt lat="42.646056944444446" lon="140.81391694444446">
<ele>196</ele>
</trkpt>
<trkpt lat="42.64597388888889" lon="140.814055">
<ele>197</ele>
</trkpt>
<trkpt lat="42.645915" lon="140.81428">
<ele>198</ele>
</trkpt>
<trkpt lat="42.645915" lon="140.814505">
<ele>198</ele>
</trkpt>
<trkpt lat="42.64594888888889" lon="140.81476694444444">
<ele>197</ele>
</trkpt>
<trkpt lat="42.64599888888889" lon="140.81493">
<ele>197</ele>
</trkpt>
<trkpt lat="42.64619" lon="140.8152538888889">
<ele>193</ele>
</trkpt>
<trkpt lat="42.64632388888889" lon="140.81536694444443">
<ele>192</ele>
</trkpt>
<trkpt lat="42.646465" lon="140.81544194444444">
<ele>187</ele>
</trkpt>
<trkpt lat="42.64664" lon="140.8154538888889">
<ele>183</ele>
</trkpt>
<trkpt lat="42.64679" lon="140.81544194444444">
<ele>183</ele>
</trkpt>
<trkpt lat="42.646915" lon="140.81539194444446">
<ele>184</ele>
</trkpt>
<trkpt lat="42.647165" lon="140.81516694444446">
<ele>183</ele>
</trkpt>
<trkpt lat="42.64769805555556" lon="140.81454194444444">
<ele>182</ele>
</trkpt>
<trkpt lat="42.647848055555556" lon="140.81439194444445">
<ele>178</ele>
</trkpt>
<trkpt lat="42.64799" lon="140.8143038888889">
<ele>179</ele>
</trkpt>
<trkpt lat="42.64814" lon="140.81425388888889">
<ele>177</ele>
</trkpt>
<trkpt lat="42.64850694444444" lon="140.81425388888889">
<ele>178</ele>
</trkpt>
<trkpt lat="42.648965" lon="140.81440388888888">
<ele>175</ele>
</trkpt>
<trkpt lat="42.64928111111111" lon="140.81460388888888">
<ele>169</ele>
</trkpt>
<trkpt lat="42.64955611111111" lon="140.8149288888889">
<ele>166</ele>
</trkpt>
<trkpt lat="42.64978111111111" lon="140.81541694444445">
<ele>165</ele>
</trkpt>
<trkpt lat="42.649906111111115" lon="140.8159038888889">
<ele>160</ele>
</trkpt>
<trkpt lat="42.649923055555554" lon="140.81632888888888">
<ele>158</ele>
</trkpt>
<trkpt lat="42.64985611111111" lon="140.81676694444445">
<ele>154</ele>
</trkpt>
<trkpt lat="42.64967305555555" lon="140.8172538888889">
<ele>151</ele>
</trkpt>
<trkpt lat="42.64644888888889" lon="140.82221611111112">
<ele>124</ele>
</trkpt>
<trkpt lat="42.64609" lon="140.822755">
<ele>119</ele>
</trkpt>
<trkpt lat="42.64609" lon="140.822755">
<ele>119</ele>
</trkpt>
<trkpt lat="42.64569888888889" lon="140.82334111111112">
<ele>114</ele>
</trkpt>
<trkpt lat="42.645558055555554" lon="140.8236038888889">
<ele>113</ele>
</trkpt>
<trkpt lat="42.64549111111111" lon="140.82389111111112">
<ele>111</ele>
</trkpt>
<trkpt lat="42.64549111111111" lon="140.8239911111111">
<ele>111</ele>
</trkpt>
<trkpt lat="42.64549111111111" lon="140.8241788888889">
<ele>109</ele>
</trkpt>
<trkpt lat="42.64554888888889" lon="140.8244038888889">
<ele>106</ele>
</trkpt>
<trkpt lat="42.64565694444445" lon="140.8246038888889">
<ele>105</ele>
</trkpt>
<trkpt lat="42.64582388888889" lon="140.82470388888888">
<ele>102</ele>
</trkpt>
<trkpt lat="42.64612388888889" lon="140.8247661111111">
<ele>100</ele>
</trkpt>
<trkpt lat="42.64661611111111" lon="140.82481611111112">
<ele>99</ele>
</trkpt>
<trkpt lat="42.64669888888889" lon="140.8248538888889">
<ele>99</ele>
</trkpt>
<trkpt lat="42.64687388888889" lon="140.8249661111111">
<ele>99</ele>
</trkpt>
<trkpt lat="42.647016111111114" lon="140.8251788888889">
<ele>99</ele>
</trkpt>
<trkpt lat="42.64707388888889" lon="140.82535388888888">
<ele>99</ele>
</trkpt>
<trkpt lat="42.64711611111111" lon="140.8256411111111">
<ele>98</ele>
</trkpt>
<trkpt lat="42.64709888888889" lon="140.8259038888889">
<ele>96</ele>
</trkpt>
<trkpt lat="42.64699111111111" lon="140.8262411111111">
<ele>94</ele>
</trkpt>
<trkpt lat="42.646366111111114" lon="140.8270411111111">
<ele>89</ele>
</trkpt>
<trkpt lat="42.64572388888889" lon="140.82785388888888">
<ele>89</ele>
</trkpt>
<trkpt lat="42.64461611111111" lon="140.8292538888889">
<ele>88</ele>
</trkpt>
<trkpt lat="42.64498611111111" lon="140.82973194444443">
<ele>88</ele>
</trkpt>
<trkpt lat="42.64498611111111" lon="140.82973194444443">
<ele>88</ele>
</trkpt>
<trkpt lat="42.646008055555555" lon="140.83105305555554">
<ele>89</ele>
</trkpt>
<trkpt lat="42.64689888888889" lon="140.83220305555557">
<ele>89</ele>
</trkpt>
<trkpt lat="42.64731611111111" lon="140.83272805555555">
<ele>88</ele>
</trkpt>
<trkpt lat="42.64782388888889" lon="140.8333911111111">
<ele>88</ele>
</trkpt>
<trkpt lat="42.648356944444444" lon="140.83407805555555">
<ele>88</ele>
</trkpt>
<trkpt lat="42.64913305555555" lon="140.83351611111112">
<ele>89</ele>
</trkpt>
<trkpt lat="42.649256944444446" lon="140.83341611111112">
<ele>90</ele>
</trkpt>
<trkpt lat="42.64949388888889" lon="140.83324611111112">
<ele>91</ele>
</trkpt>
<trkpt lat="42.64949388888889" lon="140.83324611111112">
<ele>91</ele>
</trkpt>
<trkpt lat="42.650373888888886" lon="140.83261611111112">
<ele>96</ele>
</trkpt>
<trkpt lat="42.65043194444444" lon="140.8325661111111">
<ele>96</ele>
</trkpt>
<trkpt lat="42.65148194444444" lon="140.83182805555555">
<ele>101</ele>
</trkpt>
<trkpt lat="42.65202388888889" lon="140.8314411111111">
<ele>105</ele>
</trkpt>
<trkpt lat="42.65250694444445" lon="140.83122805555556">
<ele>107</ele>
</trkpt>
<trkpt lat="42.65363194444444" lon="140.83087805555556">
<ele>119</ele>
</trkpt>
<trkpt lat="42.65417305555555" lon="140.83059111111112">
<ele>119</ele>
</trkpt>
<trkpt lat="42.65477305555556" lon="140.83020305555556">
<ele>122</ele>
</trkpt>
<trkpt lat="42.655065" lon="140.8298411111111">
<ele>128</ele>
</trkpt>
<trkpt lat="42.655665" lon="140.82889111111112">
<ele>128</ele>
</trkpt>
<trkpt lat="42.65604805555556" lon="140.82844111111112">
<ele>129</ele>
</trkpt>
<trkpt lat="42.65627305555556" lon="140.82827805555556">
<ele>129</ele>
</trkpt>
<trkpt lat="42.656531111111114" lon="140.82817805555555">
<ele>135</ele>
</trkpt>
<trkpt lat="42.656998055555555" lon="140.8281411111111">
<ele>136</ele>
</trkpt>
<trkpt lat="42.65811388888889" lon="140.82834111111111">
<ele>144</ele>
</trkpt>
<trkpt lat="42.658473055555554" lon="140.82825305555556">
<ele>148</ele>
</trkpt>
<trkpt lat="42.658723055555555" lon="140.82809111111112">
<ele>151</ele>
</trkpt>
<trkpt lat="42.65893888888889" lon="140.82772805555555">
<ele>152</ele>
</trkpt>
<trkpt lat="42.65899805555556" lon="140.82740305555555">
<ele>152</ele>
</trkpt>
<trkpt lat="42.659081111111114" lon="140.82575305555557">
<ele>166</ele>
</trkpt>
<trkpt lat="42.65913888888889" lon="140.82516611111112">
<ele>169</ele>
</trkpt>
<trkpt lat="42.65922305555556" lon="140.8248661111111">
<ele>172</ele>
</trkpt>
<trkpt lat="42.65933111111111" lon="140.8246161111111">
<ele>171</ele>
</trkpt>
<trkpt lat="42.65952305555555" lon="140.82435305555555">
<ele>173</ele>
</trkpt>
<trkpt lat="42.65973888888889" lon="140.82420305555556">
<ele>172</ele>
</trkpt>
<trkpt lat="42.66003111111111" lon="140.82407805555556">
<ele>176</ele>
</trkpt>
<trkpt lat="42.66033111111111" lon="140.8240661111111">
<ele>182</ele>
</trkpt>
<trkpt lat="42.660606111111115" lon="140.8241661111111">
<ele>183</ele>
</trkpt>
<trkpt lat="42.660848055555554" lon="140.8243161111111">
<ele>184</ele>
</trkpt>
<trkpt lat="42.66105611111111" lon="140.8245411111111">
<ele>187</ele>
</trkpt>
<trkpt lat="42.66122305555555" lon="140.8248661111111">
<ele>189</ele>
</trkpt>
<trkpt lat="42.662213888888886" lon="140.82859">
<ele>202</ele>
</trkpt>
<trkpt lat="42.66225611111111" lon="140.82889">
<ele>205</ele>
</trkpt>
<trkpt lat="42.662213888888886" lon="140.829565">
<ele>217</ele>
</trkpt>
<trkpt lat="42.662146944444444" lon="140.82997805555556">
<ele>217</ele>
</trkpt>
<trkpt lat="42.662013888888886" lon="140.83032805555555">
<ele>216</ele>
</trkpt>
<trkpt lat="42.66178111111111" lon="140.83070305555555">
<ele>219</ele>
</trkpt>
<trkpt lat="42.66155611111111" lon="140.83094">
<ele>219</ele>
</trkpt>
<trkpt lat="42.66130611111111" lon="140.83112805555555">
<ele>216</ele>
</trkpt>
<trkpt lat="42.66113111111111" lon="140.83120305555556">
<ele>215</ele>
</trkpt>
<trkpt lat="42.66018888888889" lon="140.831565">
<ele>222</ele>
</trkpt>
<trkpt lat="42.66003888888889" lon="140.83177805555556">
<ele>223</ele>
</trkpt>
<trkpt lat="42.659956111111114" lon="140.832015">
<ele>223</ele>
</trkpt>
<trkpt lat="42.65994111111111" lon="140.83228">
<ele>224</ele>
</trkpt>
<trkpt lat="42.65994111111111" lon="140.83228">
<ele>224</ele>
</trkpt>
<trkpt lat="42.65993888888889" lon="140.832315">
<ele>225</ele>
</trkpt>
<trkpt lat="42.659998055555555" lon="140.83252805555554">
<ele>225</ele>
</trkpt>
<trkpt lat="42.66014805555555" lon="140.83274">
<ele>225</ele>
</trkpt>
<trkpt lat="42.661363888888886" lon="140.83329">
<ele>237</ele>
</trkpt>
<trkpt lat="42.661656111111114" lon="140.83349">
<ele>235</ele>
</trkpt>
<trkpt lat="42.66177305555556" lon="140.83364">
<ele>235</ele>
</trkpt>
<trkpt lat="42.66183888888889" lon="140.83385305555555">
<ele>239</ele>
</trkpt>
<trkpt lat="42.66193111111111" lon="140.83485305555556">
<ele>243</ele>
</trkpt>
<trkpt lat="42.66199805555556" lon="140.83520305555555">
<ele>243</ele>
</trkpt>
<trkpt lat="42.662081111111114" lon="140.83545305555555">
<ele>252</ele>
</trkpt>
<trkpt lat="42.66249805555555" lon="140.83602805555554">
<ele>254</ele>
</trkpt>
<trkpt lat="42.66256388888889" lon="140.83632805555555">
<ele>256</ele>
</trkpt>
<trkpt lat="42.662573055555555" lon="140.836665">
<ele>257</ele>
</trkpt>
<trkpt lat="42.66246388888889" lon="140.83710194444444">
<ele>260</ele>
</trkpt>
<trkpt lat="42.66176388888889" lon="140.838865">
<ele>272</ele>
</trkpt>
<trkpt lat="42.66170611111111" lon="140.83909">
<ele>274</ele>
</trkpt>
<trkpt lat="42.66171388888889" lon="140.83932694444445">
<ele>275</ele>
</trkpt>
<trkpt lat="42.66175611111111" lon="140.83955194444445">
<ele>275</ele>
</trkpt>
<trkpt lat="42.66188888888889" lon="140.83975194444446">
<ele>278</ele>
</trkpt>
<trkpt lat="42.662106111111115" lon="140.83990194444445">
<ele>278</ele>
</trkpt>
<trkpt lat="42.66233888888889" lon="140.83990194444445">
<ele>285</ele>
</trkpt>
<trkpt lat="42.66326388888889" lon="140.83960194444444">
<ele>287</ele>
</trkpt>
<trkpt lat="42.66378888888889" lon="140.83940194444443">
<ele>284</ele>
</trkpt>
<trkpt lat="42.666871944444445" lon="140.8381638888889">
<ele>278</ele>
</trkpt>
<trkpt lat="42.66723888888889" lon="140.8380138888889">
<ele>274</ele>
</trkpt>
<trkpt lat="42.66718111111111" lon="140.83775194444445">
<ele>272</ele>
</trkpt>
<trkpt lat="42.66703111111111" lon="140.8372388888889">
<ele>271</ele>
</trkpt>
<trkpt lat="42.66686388888889" lon="140.8368888888889">
<ele>277</ele>
</trkpt>
<trkpt lat="42.66668888888889" lon="140.83664">
<ele>277</ele>
</trkpt>
<trkpt lat="42.66629694444445" lon="140.83610805555554">
<ele>278</ele>
</trkpt>
<trkpt lat="42.66629694444445" lon="140.83610805555554">
<ele>278</ele>
</trkpt>
<trkpt lat="42.66538888888889" lon="140.83487694444443">
<ele>281</ele>
</trkpt>
<trkpt lat="42.665171944444445" lon="140.83445194444445">
<ele>282</ele>
</trkpt>
<trkpt lat="42.66496388888889" lon="140.83380194444445">
<ele>282</ele>
</trkpt>
<trkpt lat="42.66448111111111" lon="140.83087805555556">
<ele>275</ele>
</trkpt>
<trkpt lat="42.66438888888889" lon="140.82979">
<ele>274</ele>
</trkpt>
<trkpt lat="42.664363888888886" lon="140.828915">
<ele>274</ele>
</trkpt>
<trkpt lat="42.66493" lon="140.82237805555556">
<ele>270</ele>
</trkpt>
<trkpt lat="42.664946944444445" lon="140.82176611111112">
<ele>270</ele>
</trkpt>
<trkpt lat="42.664905" lon="140.82096611111112">
<ele>270</ele>
</trkpt>
<trkpt lat="42.664788888888886" lon="140.81977805555556">
<ele>269</ele>
</trkpt>
<trkpt lat="42.66459694444445" lon="140.81842805555556">
<ele>269</ele>
</trkpt>
<trkpt lat="42.664055" lon="140.8146538888889">
<ele>267</ele>
</trkpt>
<trkpt lat="42.66388" lon="140.8136288888889">
<ele>267</ele>
</trkpt>
<trkpt lat="42.663713055555554" lon="140.8131911111111">
<ele>267</ele>
</trkpt>
<trkpt lat="42.663455" lon="140.8127661111111">
<ele>266</ele>
</trkpt>
<trkpt lat="42.663305" lon="140.8126038888889">
<ele>265</ele>
</trkpt>
<trkpt lat="42.66314694444444" lon="140.81246611111112">
<ele>265</ele>
</trkpt>
<trkpt lat="42.663088055555555" lon="140.8124238888889">
<ele>265</ele>
</trkpt>
<trkpt lat="42.663088055555555" lon="140.8124238888889">
<ele>265</ele>
</trkpt>
<trkpt lat="42.662955" lon="140.81232888888889">
<ele>265</ele>
</trkpt>
<trkpt lat="42.66278805555555" lon="140.81224111111112">
<ele>264</ele>
</trkpt>
<trkpt lat="42.66263" lon="140.8121661111111">
<ele>263</ele>
</trkpt>
<trkpt lat="42.662638055555554" lon="140.8117411111111">
<ele>265</ele>
</trkpt>
<trkpt lat="42.662605" lon="140.8116038888889">
<ele>265</ele>
</trkpt>
<trkpt lat="42.662555" lon="140.81146611111112">
<ele>265</ele>
</trkpt>
<trkpt lat="42.66247194444444" lon="140.81131694444446">
<ele>265</ele>
</trkpt>
<trkpt lat="42.66233805555556" lon="140.8110788888889">
<ele>265</ele>
</trkpt>
<trkpt lat="42.66193805555555" lon="140.81040388888889">
<ele>262</ele>
</trkpt>
<trkpt lat="42.66153805555555" lon="140.80972888888888">
<ele>261</ele>
</trkpt>
<trkpt lat="42.66023805555555" lon="140.8074538888889">
<ele>261</ele>
</trkpt>
<trkpt lat="42.657556944444444" lon="140.80296694444445">
<ele>259</ele>
</trkpt>
<trkpt lat="42.657556944444444" lon="140.80296694444445">
<ele>259</ele>
</trkpt>
<trkpt lat="42.657355" lon="140.80263">
<ele>259</ele>
</trkpt>
<trkpt lat="42.65729694444445" lon="140.80253">
<ele>259</ele>
</trkpt>
<trkpt lat="42.65636305555556" lon="140.80098">
<ele>255</ele>
</trkpt>
<trkpt lat="42.655946944444445" lon="140.80033">
<ele>255</ele>
</trkpt>
<trkpt lat="42.655771944444446" lon="140.800105">
<ele>255</ele>
</trkpt>
<trkpt lat="42.653996944444444" lon="140.79799305555557">
<ele>251</ele>
</trkpt>
<trkpt lat="42.653796944444444" lon="140.79774305555554">
<ele>249</ele>
</trkpt>
<trkpt lat="42.65358888888889" lon="140.7974561111111">
<ele>245</ele>
</trkpt>
<trkpt lat="42.65318888888889" lon="140.7966561111111">
<ele>241</ele>
</trkpt>
<trkpt lat="42.65223888888889" lon="140.79480611111111">
<ele>251</ele>
</trkpt>
<trkpt lat="42.652096944444445" lon="140.7946061111111">
<ele>252</ele>
</trkpt>
<trkpt lat="42.65193" lon="140.79444388888888">
<ele>253</ele>
</trkpt>
<trkpt lat="42.651696944444446" lon="140.79434388888887">
<ele>254</ele>
</trkpt>
<trkpt lat="42.65120611111111" lon="140.79419388888888">
<ele>252</ele>
</trkpt>
<trkpt lat="42.65028888888889" lon="140.79386888888888">
<ele>247</ele>
</trkpt>
<trkpt lat="42.64986388888889" lon="140.79354388888888">
<ele>245</ele>
</trkpt>
<trkpt lat="42.648806111111114" lon="140.79232805555554">
<ele>243</ele>
</trkpt>
<trkpt lat="42.648806111111114" lon="140.79232805555554">
<ele>243</ele>
</trkpt>
<trkpt lat="42.648113888888886" lon="140.79153194444444">
<ele>242</ele>
</trkpt>
<trkpt lat="42.64776388888889" lon="140.79120694444444">
<ele>243</ele>
</trkpt>
<trkpt lat="42.647438888888885" lon="140.79093194444445">
<ele>245</ele>
</trkpt>
<trkpt lat="42.64720611111111" lon="140.79080694444445">
<ele>247</ele>
</trkpt>
<trkpt lat="42.64298888888889" lon="140.78975805555555">
<ele>255</ele>
</trkpt>
<trkpt lat="42.63501611111111" lon="140.78765805555557">
<ele>269</ele>
</trkpt>
<trkpt lat="42.63372388888889" lon="140.78727111111112">
<ele>273</ele>
</trkpt>
<trkpt lat="42.63349888888889" lon="140.78700805555556">
<ele>274</ele>
</trkpt>
<trkpt lat="42.63309111111111" lon="140.78617111111112">
<ele>276</ele>
</trkpt>
<trkpt lat="42.63244111111111" lon="140.7847211111111">
<ele>277</ele>
</trkpt>
<trkpt lat="42.63200694444444" lon="140.7839338888889">
<ele>278</ele>
</trkpt>
<trkpt lat="42.63198888888889" lon="140.7839038888889">
<ele>278</ele>
</trkpt>
<trkpt lat="42.63198888888889" lon="140.7839038888889">
<ele>278</ele>
</trkpt>
<trkpt lat="42.631931944444446" lon="140.7838088888889">
<ele>279</ele>
</trkpt>
<trkpt lat="42.63138305555555" lon="140.7828088888889">
<ele>275</ele>
</trkpt>
<trkpt lat="42.630606944444445" lon="140.7813338888889">
<ele>275</ele>
</trkpt>
<trkpt lat="42.63021611111111" lon="140.78035888888888">
<ele>276</ele>
</trkpt>
<trkpt lat="42.62989888888889" lon="140.77969694444445">
<ele>276</ele>
</trkpt>
<trkpt lat="42.62956611111111" lon="140.77917194444444">
<ele>280</ele>
</trkpt>
<trkpt lat="42.62862388888889" lon="140.77769694444444">
<ele>279</ele>
</trkpt>
<trkpt lat="42.62836611111111" lon="140.77734694444445">
<ele>278</ele>
</trkpt>
<trkpt lat="42.62750805555556" lon="140.77611">
<ele>274</ele>
</trkpt>
<trkpt lat="42.627183055555555" lon="140.77554694444444">
<ele>271</ele>
</trkpt>
<trkpt lat="42.62689888888889" lon="140.77501">
<ele>270</ele>
</trkpt>
<trkpt lat="42.62669888888889" lon="140.77444805555555">
<ele>272</ele>
</trkpt>
<trkpt lat="42.62619111111111" lon="140.77209805555555">
<ele>278</ele>
</trkpt>
<trkpt lat="42.62605805555555" lon="140.77154805555554">
<ele>276</ele>
</trkpt>
<trkpt lat="42.62591611111111" lon="140.77114805555556">
<ele>277</ele>
</trkpt>
<trkpt lat="42.62578194444445" lon="140.77084805555555">
<ele>276</ele>
</trkpt>
<trkpt lat="42.62557388888889" lon="140.77059805555555">
<ele>276</ele>
</trkpt>
<trkpt lat="42.62507388888889" lon="140.7702111111111">
<ele>280</ele>
</trkpt>
<trkpt lat="42.624633055555556" lon="140.76996694444443">
<ele>281</ele>
</trkpt>
<trkpt lat="42.624633055555556" lon="140.76996694444443">
<ele>281</ele>
</trkpt>
<trkpt lat="42.62267388888889" lon="140.7688861111111">
<ele>284</ele>
</trkpt>
<trkpt lat="42.62209111111111" lon="140.7686111111111">
<ele>284</ele>
</trkpt>
<trkpt lat="42.62048305555555" lon="140.76826111111112">
<ele>291</ele>
</trkpt>
<trkpt lat="42.619658055555554" lon="140.76809805555555">
<ele>291</ele>
</trkpt>
<trkpt lat="42.6192" lon="140.7679361111111">
<ele>294</ele>
</trkpt>
<trkpt lat="42.618925" lon="140.7677111111111">
<ele>294</ele>
</trkpt>
<trkpt lat="42.618525" lon="140.76723611111112">
<ele>292</ele>
</trkpt>
<trkpt lat="42.61825805555556" lon="140.76674888888888">
<ele>290</ele>
</trkpt>
<trkpt lat="42.618116944444445" lon="140.7663488888889">
<ele>292</ele>
</trkpt>
<trkpt lat="42.618025" lon="140.7658361111111">
<ele>294</ele>
</trkpt>
<trkpt lat="42.618025" lon="140.76369888888888">
<ele>285</ele>
</trkpt>
<trkpt lat="42.617983055555555" lon="140.7630988888889">
<ele>281</ele>
</trkpt>
<trkpt lat="42.6175" lon="140.7608988888889">
<ele>283</ele>
</trkpt>
<trkpt lat="42.617475" lon="140.76077388888888">
<ele>281</ele>
</trkpt>
<trkpt lat="42.61675" lon="140.7570988888889">
<ele>278</ele>
</trkpt>
<trkpt lat="42.616463055555556" lon="140.75568">
<ele>279</ele>
</trkpt>
<trkpt lat="42.616463055555556" lon="140.75568">
<ele>279</ele>
</trkpt>
<trkpt lat="42.61635805555556" lon="140.75516194444444">
<ele>279</ele>
</trkpt>
<trkpt lat="42.61629194444444" lon="140.75483694444443">
<ele>279</ele>
</trkpt>
<trkpt lat="42.61545805555556" lon="140.75073805555556">
<ele>257</ele>
</trkpt>
<trkpt lat="42.615366944444446" lon="140.74991305555557">
<ele>250</ele>
</trkpt>
<trkpt lat="42.61539194444445" lon="140.74850111111112">
<ele>245</ele>
</trkpt>
<trkpt lat="42.615433055555556" lon="140.7479261111111">
<ele>246</ele>
</trkpt>
<trkpt lat="42.615525" lon="140.74638805555554">
<ele>247</ele>
</trkpt>
<trkpt lat="42.61550805555556" lon="140.74556305555555">
<ele>249</ele>
</trkpt>
<trkpt lat="42.61546611111111" lon="140.74526305555557">
<ele>248</ele>
</trkpt>
<trkpt lat="42.61536611111111" lon="140.7449511111111">
<ele>247</ele>
</trkpt>
<trkpt lat="42.615158055555554" lon="140.74458805555557">
<ele>246</ele>
</trkpt>
<trkpt lat="42.61496694444445" lon="140.74436305555557">
<ele>245</ele>
</trkpt>
<trkpt lat="42.614758055555555" lon="140.74418805555555">
<ele>243</ele>
</trkpt>
<trkpt lat="42.61324194444445" lon="140.7435638888889">
<ele>240</ele>
</trkpt>
<trkpt lat="42.6129" lon="140.7433638888889">
<ele>241</ele>
</trkpt>
<trkpt lat="42.61258388888889" lon="140.74310111111112">
<ele>240</ele>
</trkpt>
<trkpt lat="42.6123" lon="140.7426761111111">
<ele>241</ele>
</trkpt>
<trkpt lat="42.612183888888886" lon="140.7421261111111">
<ele>242</ele>
</trkpt>
<trkpt lat="42.61215888888889" lon="140.7417011111111">
<ele>240</ele>
</trkpt>
<trkpt lat="42.61224194444444" lon="140.74116388888888">
<ele>232</ele>
</trkpt>
<trkpt lat="42.612383055555554" lon="140.74081388888888">
<ele>230</ele>
</trkpt>
<trkpt lat="42.612725" lon="140.74022694444446">
<ele>235</ele>
</trkpt>
<trkpt lat="42.613925" lon="140.73880194444445">
<ele>247</ele>
</trkpt>
<trkpt lat="42.61414111111111" lon="140.73853888888888">
<ele>246</ele>
</trkpt>
<trkpt lat="42.61455" lon="140.73796388888888">
<ele>247</ele>
</trkpt>
<trkpt lat="42.614758055555555" lon="140.7374388888889">
<ele>247</ele>
</trkpt>
<trkpt lat="42.61485805555556" lon="140.73710194444445">
<ele>248</ele>
</trkpt>
<trkpt lat="42.614916111111114" lon="140.73675194444445">
<ele>246</ele>
</trkpt>
<trkpt lat="42.614916111111114" lon="140.7362388888889">
<ele>246</ele>
</trkpt>
<trkpt lat="42.61485" lon="140.73562694444445">
<ele>245</ele>
</trkpt>
<trkpt lat="42.61474111111111" lon="140.73516388888888">
<ele>241</ele>
</trkpt>
<trkpt lat="42.61463305555556" lon="140.73495194444445">
<ele>239</ele>
</trkpt>
<trkpt lat="42.61405805555555" lon="140.73402694444445">
<ele>233</ele>
</trkpt>
<trkpt lat="42.613925" lon="140.73380194444445">
<ele>232</ele>
</trkpt>
<trkpt lat="42.613458055555554" lon="140.73247694444444">
<ele>235</ele>
</trkpt>
<trkpt lat="42.61293888888889" lon="140.73048694444444">
<ele>237</ele>
</trkpt>
<trkpt lat="42.61293888888889" lon="140.7304861111111">
<ele>237</ele>
</trkpt>
<trkpt lat="42.612875" lon="140.73024">
<ele>238</ele>
</trkpt>
<trkpt lat="42.61245" lon="140.72940194444445">
<ele>235</ele>
</trkpt>
<trkpt lat="42.61188305555556" lon="140.72870305555554">
<ele>237</ele>
</trkpt>
<trkpt lat="42.611291111111115" lon="140.728265">
<ele>237</ele>
</trkpt>
<trkpt lat="42.61096611111111" lon="140.72809">
<ele>236</ele>
</trkpt>
<trkpt lat="42.61053305555556" lon="140.72795305555556">
<ele>235</ele>
</trkpt>
<trkpt lat="42.609791944444446" lon="140.72794">
<ele>233</ele>
</trkpt>
<trkpt lat="42.60913305555555" lon="140.7280411111111">
<ele>233</ele>
</trkpt>
<trkpt lat="42.60864194444444" lon="140.72821611111112">
<ele>234</ele>
</trkpt>
<trkpt lat="42.60779194444444" lon="140.72860305555557">
<ele>239</ele>
</trkpt>
<trkpt lat="42.60736694444444" lon="140.7287161111111">
<ele>240</ele>
</trkpt>
<trkpt lat="42.60704194444445" lon="140.72867805555555">
<ele>241</ele>
</trkpt>
<trkpt lat="42.6068" lon="140.72862805555556">
<ele>240</ele>
</trkpt>
<trkpt lat="42.606425" lon="140.72832805555555">
<ele>240</ele>
</trkpt>
<trkpt lat="42.60564194444444" lon="140.72731611111112">
<ele>232</ele>
</trkpt>
<trkpt lat="42.605475" lon="140.72707805555555">
<ele>230</ele>
</trkpt>
<trkpt lat="42.60525888888889" lon="140.72682805555556">
<ele>227</ele>
</trkpt>
<trkpt lat="42.60505888888889" lon="140.72664111111112">
<ele>222</ele>
</trkpt>
<trkpt lat="42.6047" lon="140.72630388888888">
<ele>218</ele>
</trkpt>
<trkpt lat="42.60156694444444" lon="140.7240038888889">
<ele>226</ele>
</trkpt>
<trkpt lat="42.60106694444445" lon="140.72369194444445">
<ele>227</ele>
</trkpt>
<trkpt lat="42.60024194444444" lon="140.72326694444445">
<ele>227</ele>
</trkpt>
<trkpt lat="42.59961194444445" lon="140.72299694444445">
<ele>228</ele>
</trkpt>
<trkpt lat="42.59961194444445" lon="140.72299694444445">
<ele>228</ele>
</trkpt>
<trkpt lat="42.59766805555556" lon="140.72216694444444">
<ele>230</ele>
</trkpt>
<trkpt lat="42.59750888888889" lon="140.72210388888888">
<ele>231</ele>
</trkpt>
<trkpt lat="42.59655111111111" lon="140.72151694444443">
<ele>232</ele>
</trkpt>
<trkpt lat="42.59542611111111" lon="140.720705">
<ele>222</ele>
</trkpt>
<trkpt lat="42.59522611111111" lon="140.72061694444446">
<ele>222</ele>
</trkpt>
<trkpt lat="42.59498388888889" lon="140.720555">
<ele>222</ele>
</trkpt>
<trkpt lat="42.59466694444444" lon="140.720505">
<ele>222</ele>
</trkpt>
<trkpt lat="42.59433388888889" lon="140.72059194444444">
<ele>225</ele>
</trkpt>
<trkpt lat="42.59334305555556" lon="140.72116805555555">
<ele>215</ele>
</trkpt>
<trkpt lat="42.59312611111111" lon="140.72123">
<ele>212</ele>
</trkpt>
<trkpt lat="42.592933888888886" lon="140.72123">
<ele>208</ele>
</trkpt>
<trkpt lat="42.59190111111111" lon="140.72086694444445">
<ele>202</ele>
</trkpt>
<trkpt lat="42.59161" lon="140.72079305555556">
<ele>194</ele>
</trkpt>
<trkpt lat="42.591285" lon="140.72078">
<ele>193</ele>
</trkpt>
<trkpt lat="42.591085" lon="140.72091805555556">
<ele>191</ele>
</trkpt>
<trkpt lat="42.59096805555556" lon="140.72116805555555">
<ele>194</ele>
</trkpt>
<trkpt lat="42.59097611111111" lon="140.72143">
<ele>196</ele>
</trkpt>
<trkpt lat="42.59104305555555" lon="140.72168">
<ele>188</ele>
</trkpt>
<trkpt lat="42.591185" lon="140.72186805555555">
<ele>187</ele>
</trkpt>
<trkpt lat="42.591385" lon="140.72198">
<ele>185</ele>
</trkpt>
<trkpt lat="42.59200111111111" lon="140.72219305555555">
<ele>181</ele>
</trkpt>
<trkpt lat="42.59217611111111" lon="140.722355">
<ele>175</ele>
</trkpt>
<trkpt lat="42.59227611111111" lon="140.72256694444445">
<ele>173</ele>
</trkpt>
<trkpt lat="42.59230111111111" lon="140.72284305555556">
<ele>173</ele>
</trkpt>
<trkpt lat="42.59224305555556" lon="140.72314194444445">
<ele>171</ele>
</trkpt>
<trkpt lat="42.592018055555556" lon="140.72343">
<ele>161</ele>
</trkpt>
<trkpt lat="42.58964388888889" lon="140.725205">
<ele>143</ele>
</trkpt>
<trkpt lat="42.58950194444444" lon="140.72524194444443">
<ele>144</ele>
</trkpt>
<trkpt lat="42.58936888888889" lon="140.725255">
<ele>144</ele>
</trkpt>
<trkpt lat="42.58926" lon="140.72524194444443">
<ele>144</ele>
</trkpt>
<trkpt lat="42.58907694444444" lon="140.725205">
<ele>139</ele>
</trkpt>
<trkpt lat="42.58887694444444" lon="140.725055">
<ele>137</ele>
</trkpt>
<trkpt lat="42.588476944444444" lon="140.72453">
<ele>133</ele>
</trkpt>
<trkpt lat="42.58829388888889" lon="140.72441805555556">
<ele>132</ele>
</trkpt>
<trkpt lat="42.58806" lon="140.72438">
<ele>127</ele>
</trkpt>
<trkpt lat="42.58786" lon="140.72451694444445">
<ele>124</ele>
</trkpt>
<trkpt lat="42.587685" lon="140.72476694444444">
<ele>124</ele>
</trkpt>
<trkpt lat="42.58723611111111" lon="140.725755">
<ele>123</ele>
</trkpt>
<trkpt lat="42.587026944444446" lon="140.726005">
<ele>123</ele>
</trkpt>
<trkpt lat="42.586801944444446" lon="140.72614194444444">
<ele>115</ele>
</trkpt>
<trkpt lat="42.585951944444446" lon="140.72646805555556">
<ele>112</ele>
</trkpt>
<trkpt lat="42.58581111111111" lon="140.72653">
<ele>111</ele>
</trkpt>
<trkpt lat="42.58427888888889" lon="140.72717805555556">
<ele>98</ele>
</trkpt>
<trkpt lat="42.58427888888889" lon="140.72717805555556">
<ele>98</ele>
</trkpt>
<trkpt lat="42.58412805555555" lon="140.72724194444444">
<ele>97</ele>
</trkpt>
<trkpt lat="42.58387805555556" lon="140.72733">
<ele>94</ele>
</trkpt>
<trkpt lat="42.58383611111111" lon="140.72734194444445">
<ele>93</ele>
</trkpt>
<trkpt lat="42.58381888888889" lon="140.72734194444445">
<ele>93</ele>
</trkpt>
<trkpt lat="42.58361111111111" lon="140.72734194444445">
<ele>88</ele>
</trkpt>
<trkpt lat="42.583418888888886" lon="140.72731694444445">
<ele>85</ele>
</trkpt>
<trkpt lat="42.58323611111111" lon="140.72726694444444">
<ele>85</ele>
</trkpt>
<trkpt lat="42.58303611111111" lon="140.72718">
<ele>82</ele>
</trkpt>
<trkpt lat="42.58280305555556" lon="140.72704305555555">
<ele>82</ele>
</trkpt>
<trkpt lat="42.582695" lon="140.726955">
<ele>83</ele>
</trkpt>
<trkpt lat="42.58257805555556" lon="140.726805">
<ele>84</ele>
</trkpt>
<trkpt lat="42.582453055555554" lon="140.72658">
<ele>84</ele>
</trkpt>
<trkpt lat="42.58206111111111" lon="140.725805">
<ele>86</ele>
</trkpt>
<trkpt lat="42.58191111111111" lon="140.72556805555556">
<ele>85</ele>
</trkpt>
<trkpt lat="42.581653055555556" lon="140.72526805555555">
<ele>86</ele>
</trkpt>
<trkpt lat="42.58141888888889" lon="140.72509305555556">
<ele>78</ele>
</trkpt>
<trkpt lat="42.58083611111111" lon="140.724655">
<ele>73</ele>
</trkpt>
<trkpt lat="42.580728055555554" lon="140.72453">
<ele>73</ele>
</trkpt>
<trkpt lat="42.58052" lon="140.72419305555556">
<ele>75</ele>
</trkpt>
<trkpt lat="42.58001111111111" lon="140.72311805555555">
<ele>76</ele>
</trkpt>
<trkpt lat="42.57982805555555" lon="140.72288111111112">
<ele>74</ele>
</trkpt>
<trkpt lat="42.57960305555556" lon="140.7227311111111">
<ele>71</ele>
</trkpt>
<trkpt lat="42.57938611111111" lon="140.72265611111112">
<ele>70</ele>
</trkpt>
<trkpt lat="42.57913611111111" lon="140.72264305555555">
<ele>70</ele>
</trkpt>
<trkpt lat="42.57888611111111" lon="140.72269305555557">
<ele>71</ele>
</trkpt>
<trkpt lat="42.578403055555555" lon="140.72288111111112">
<ele>71</ele>
</trkpt>
<trkpt lat="42.57802" lon="140.72306805555556">
<ele>71</ele>
</trkpt>
<trkpt lat="42.577745" lon="140.7232561111111">
<ele>72</ele>
</trkpt>
<trkpt lat="42.577375" lon="140.72366">
<ele>73</ele>
</trkpt>
<trkpt lat="42.577375" lon="140.72366">
<ele>73</ele>
</trkpt>
<trkpt lat="42.57716194444444" lon="140.72389305555555">
<ele>74</ele>
</trkpt>
<trkpt lat="42.57702805555556" lon="140.7239561111111">
<ele>73</ele>
</trkpt>
<trkpt lat="42.576903055555555" lon="140.7239311111111">
<ele>70</ele>
</trkpt>
<trkpt lat="42.57680305555556" lon="140.72381805555557">
<ele>69</ele>
</trkpt>
<trkpt lat="42.57668694444445" lon="140.72341805555556">
<ele>65</ele>
</trkpt>
<trkpt lat="42.57806111111111" lon="140.72265194444444">
<ele>58</ele>
</trkpt>
    </trkseg>
  </trk>
</gpx>