<?xml version="1.0" encoding="UTF-8"?>
<gpx version="1.1"
     creator="KMLtoGPX"
     xmlns="http://www.topografix.com/GPX/1/1">
  <metadata>
    <name>Cycling on the Oigawa Railway from Kadode Station</name>
    <desc>門出駅から大井川鐡道で輪行サイクリング</desc>
    <bounds minlat="34.85048" minlon="138.07588" maxlat="34.95965" maxlon="138.1201"/>
  </metadata>
  <trk>
    <name>Cycling on the Oigawa Railway from Kadode Station</name>
    <trkseg>
<trkpt lat="34.9407" lon="138.07757">
<ele>143.9</ele>
</trkpt>
<trkpt lat="34.94079" lon="138.07728">
<ele>144.0</ele>
</trkpt>
<trkpt lat="34.94088" lon="138.07694">
<ele>144.1</ele>
</trkpt>
<trkpt lat="34.9409" lon="138.07687">
<ele>144.1</ele>
</trkpt>
<trkpt lat="34.94099" lon="138.07653">
<ele>144.3</ele>
</trkpt>
<trkpt lat="34.94102" lon="138.07639">
<ele>144.5</ele>
</trkpt>
<trkpt lat="34.94107" lon="138.07622">
<ele>144.7</ele>
</trkpt>
<trkpt lat="34.9411" lon="138.0761">
<ele>144.8</ele>
</trkpt>
<trkpt lat="34.94111" lon="138.07602">
<ele>144.9</ele>
</trkpt>
<trkpt lat="34.94122" lon="138.07602">
<ele>144.9</ele>
</trkpt>
<trkpt lat="34.94131" lon="138.07601">
<ele>144.9</ele>
</trkpt>
<trkpt lat="34.94147" lon="138.076">
<ele>145.0</ele>
</trkpt>
<trkpt lat="34.9418" lon="138.07598">
<ele>145.2</ele>
</trkpt>
<trkpt lat="34.94222" lon="138.07595">
<ele>145.7</ele>
</trkpt>
<trkpt lat="34.94258" lon="138.07593">
<ele>146.2</ele>
</trkpt>
<trkpt lat="34.94305" lon="138.07591">
<ele>147.4</ele>
</trkpt>
<trkpt lat="34.94334" lon="138.07588">
<ele>148.1</ele>
</trkpt>
<trkpt lat="34.94334" lon="138.07588">
<ele>148.1</ele>
</trkpt>
<trkpt lat="34.94336" lon="138.07598">
<ele>148.3</ele>
</trkpt>
<trkpt lat="34.9434" lon="138.07613">
<ele>148.8</ele>
</trkpt>
<trkpt lat="34.94343" lon="138.07629">
<ele>149.3</ele>
</trkpt>
<trkpt lat="34.94349" lon="138.07659">
<ele>150.7</ele>
</trkpt>
<trkpt lat="34.94352" lon="138.07671">
<ele>151.3</ele>
</trkpt>
<trkpt lat="34.94354" lon="138.07684">
<ele>151.7</ele>
</trkpt>
<trkpt lat="34.94357" lon="138.07696">
<ele>152.3</ele>
</trkpt>
<trkpt lat="34.94357" lon="138.07699">
<ele>152.4</ele>
</trkpt>
<trkpt lat="34.94358" lon="138.07701">
<ele>152.6</ele>
</trkpt>
<trkpt lat="34.94358" lon="138.07703">
<ele>152.6</ele>
</trkpt>
<trkpt lat="34.94358" lon="138.07707">
<ele>152.7</ele>
</trkpt>
<trkpt lat="34.94359" lon="138.07712">
<ele>152.9</ele>
</trkpt>
<trkpt lat="34.94359" lon="138.07716">
<ele>153.0</ele>
</trkpt>
<trkpt lat="34.94358" lon="138.0773">
<ele>153.1</ele>
</trkpt>
<trkpt lat="34.94357" lon="138.07753">
<ele>153.4</ele>
</trkpt>
<trkpt lat="34.94356" lon="138.07763">
<ele>153.7</ele>
</trkpt>
<trkpt lat="34.94356" lon="138.07768">
<ele>153.9</ele>
</trkpt>
<trkpt lat="34.94355" lon="138.07777">
<ele>154.1</ele>
</trkpt>
<trkpt lat="34.94354" lon="138.07783">
<ele>154.2</ele>
</trkpt>
<trkpt lat="34.94353" lon="138.07791">
<ele>154.4</ele>
</trkpt>
<trkpt lat="34.94351" lon="138.07798">
<ele>154.3</ele>
</trkpt>
<trkpt lat="34.94346" lon="138.07811">
<ele>153.8</ele>
</trkpt>
<trkpt lat="34.94339" lon="138.07833">
<ele>153.2</ele>
</trkpt>
<trkpt lat="34.94337" lon="138.07842">
<ele>152.8</ele>
</trkpt>
<trkpt lat="34.94336" lon="138.07848">
<ele>152.6</ele>
</trkpt>
<trkpt lat="34.94334" lon="138.07855">
<ele>152.2</ele>
</trkpt>
<trkpt lat="34.94334" lon="138.07859">
<ele>152.2</ele>
</trkpt>
<trkpt lat="34.94333" lon="138.07864">
<ele>152.0</ele>
</trkpt>
<trkpt lat="34.94332" lon="138.07871">
<ele>151.9</ele>
</trkpt>
<trkpt lat="34.94332" lon="138.07884">
<ele>151.9</ele>
</trkpt>
<trkpt lat="34.94332" lon="138.07897">
<ele>151.9</ele>
</trkpt>
<trkpt lat="34.94333" lon="138.07938">
<ele>152.2</ele>
</trkpt>
<trkpt lat="34.94333" lon="138.07944">
<ele>152.3</ele>
</trkpt>
<trkpt lat="34.94332" lon="138.07956">
<ele>152.3</ele>
</trkpt>
<trkpt lat="34.94331" lon="138.07966">
<ele>152.4</ele>
</trkpt>
<trkpt lat="34.94331" lon="138.07972">
<ele>152.4</ele>
</trkpt>
<trkpt lat="34.9433" lon="138.07978">
<ele>152.4</ele>
</trkpt>
<trkpt lat="34.94329" lon="138.07984">
<ele>152.4</ele>
</trkpt>
<trkpt lat="34.94328" lon="138.07985">
<ele>152.3</ele>
</trkpt>
<trkpt lat="34.94327" lon="138.07992">
<ele>152.2</ele>
</trkpt>
<trkpt lat="34.94324" lon="138.08002">
<ele>151.8</ele>
</trkpt>
<trkpt lat="34.94321" lon="138.0801">
<ele>150.9</ele>
</trkpt>
<trkpt lat="34.94318" lon="138.0802">
<ele>150.7</ele>
</trkpt>
<trkpt lat="34.94316" lon="138.08025">
<ele>150.6</ele>
</trkpt>
<trkpt lat="34.94315" lon="138.08027">
<ele>150.6</ele>
</trkpt>
<trkpt lat="34.94314" lon="138.08031">
<ele>150.5</ele>
</trkpt>
<trkpt lat="34.94312" lon="138.08035">
<ele>150.5</ele>
</trkpt>
<trkpt lat="34.94311" lon="138.08037">
<ele>150.4</ele>
</trkpt>
<trkpt lat="34.9431" lon="138.0804">
<ele>150.4</ele>
</trkpt>
<trkpt lat="34.943" lon="138.0806">
<ele>150.0</ele>
</trkpt>
<trkpt lat="34.94297" lon="138.08069">
<ele>149.9</ele>
</trkpt>
<trkpt lat="34.94294" lon="138.08076">
<ele>149.8</ele>
</trkpt>
<trkpt lat="34.94246" lon="138.08185">
<ele>148.0</ele>
</trkpt>
<trkpt lat="34.94238" lon="138.08203">
<ele>147.7</ele>
</trkpt>
<trkpt lat="34.94238" lon="138.08204">
<ele>147.7</ele>
</trkpt>
<trkpt lat="34.94221" lon="138.08243">
<ele>147.0</ele>
</trkpt>
<trkpt lat="34.94219" lon="138.08248">
<ele>147.0</ele>
</trkpt>
<trkpt lat="34.94206" lon="138.08278">
<ele>146.5</ele>
</trkpt>
<trkpt lat="34.94195" lon="138.08301">
<ele>146.1</ele>
</trkpt>
<trkpt lat="34.94195" lon="138.08302">
<ele>146.1</ele>
</trkpt>
<trkpt lat="34.94188" lon="138.08319">
<ele>145.8</ele>
</trkpt>
<trkpt lat="34.94182" lon="138.08332">
<ele>145.6</ele>
</trkpt>
<trkpt lat="34.94179" lon="138.0834">
<ele>145.5</ele>
</trkpt>
<trkpt lat="34.94169" lon="138.08362">
<ele>145.1</ele>
</trkpt>
<trkpt lat="34.94166" lon="138.08368">
<ele>145.0</ele>
</trkpt>
<trkpt lat="34.9416" lon="138.08383">
<ele>144.8</ele>
</trkpt>
<trkpt lat="34.94153" lon="138.08398">
<ele>145.4</ele>
</trkpt>
<trkpt lat="34.94149" lon="138.08408">
<ele>145.7</ele>
</trkpt>
<trkpt lat="34.94148" lon="138.0841">
<ele>145.8</ele>
</trkpt>
<trkpt lat="34.94143" lon="138.08423">
<ele>146.0</ele>
</trkpt>
<trkpt lat="34.94136" lon="138.08444">
<ele>146.1</ele>
</trkpt>
<trkpt lat="34.94135" lon="138.0845">
<ele>146.2</ele>
</trkpt>
<trkpt lat="34.94133" lon="138.0846">
<ele>146.2</ele>
</trkpt>
<trkpt lat="34.94131" lon="138.08472">
<ele>146.3</ele>
</trkpt>
<trkpt lat="34.94131" lon="138.08475">
<ele>146.3</ele>
</trkpt>
<trkpt lat="34.9413" lon="138.08485">
<ele>146.4</ele>
</trkpt>
<trkpt lat="34.94129" lon="138.08498">
<ele>146.4</ele>
</trkpt>
<trkpt lat="34.94129" lon="138.08512">
<ele>146.8</ele>
</trkpt>
<trkpt lat="34.9413" lon="138.0852">
<ele>147.1</ele>
</trkpt>
<trkpt lat="34.9413" lon="138.08534">
<ele>147.5</ele>
</trkpt>
<trkpt lat="34.94132" lon="138.08545">
<ele>147.8</ele>
</trkpt>
<trkpt lat="34.94133" lon="138.08554">
<ele>148.0</ele>
</trkpt>
<trkpt lat="34.94136" lon="138.08566">
<ele>148.1</ele>
</trkpt>
<trkpt lat="34.94139" lon="138.08582">
<ele>148.3</ele>
</trkpt>
<trkpt lat="34.94143" lon="138.08594">
<ele>148.6</ele>
</trkpt>
<trkpt lat="34.94144" lon="138.08596">
<ele>148.7</ele>
</trkpt>
<trkpt lat="34.94153" lon="138.08618">
<ele>148.7</ele>
</trkpt>
<trkpt lat="34.94155" lon="138.08622">
<ele>148.6</ele>
</trkpt>
<trkpt lat="34.94161" lon="138.08637">
<ele>148.2</ele>
</trkpt>
<trkpt lat="34.94167" lon="138.0865">
<ele>147.6</ele>
</trkpt>
<trkpt lat="34.94174" lon="138.08662">
<ele>147.6</ele>
</trkpt>
<trkpt lat="34.94179" lon="138.08671">
<ele>148.0</ele>
</trkpt>
<trkpt lat="34.94187" lon="138.0868">
<ele>148.4</ele>
</trkpt>
<trkpt lat="34.9419" lon="138.08684">
<ele>148.6</ele>
</trkpt>
<trkpt lat="34.94195" lon="138.0869">
<ele>148.8</ele>
</trkpt>
<trkpt lat="34.94204" lon="138.08698">
<ele>148.9</ele>
</trkpt>
<trkpt lat="34.94204" lon="138.08699">
<ele>148.9</ele>
</trkpt>
<trkpt lat="34.94214" lon="138.08706">
<ele>148.7</ele>
</trkpt>
<trkpt lat="34.94222" lon="138.08712">
<ele>148.4</ele>
</trkpt>
<trkpt lat="34.94238" lon="138.08723">
<ele>147.5</ele>
</trkpt>
<trkpt lat="34.94248" lon="138.08731">
<ele>146.7</ele>
</trkpt>
<trkpt lat="34.94251" lon="138.08731">
<ele>146.5</ele>
</trkpt>
<trkpt lat="34.94261" lon="138.08737">
<ele>146.6</ele>
</trkpt>
<trkpt lat="34.94267" lon="138.08741">
<ele>146.6</ele>
</trkpt>
<trkpt lat="34.94271" lon="138.08744">
<ele>146.6</ele>
</trkpt>
<trkpt lat="34.94291" lon="138.08757">
<ele>146.6</ele>
</trkpt>
<trkpt lat="34.94304" lon="138.08766">
<ele>146.7</ele>
</trkpt>
<trkpt lat="34.94305" lon="138.08767">
<ele>146.7</ele>
</trkpt>
<trkpt lat="34.94316" lon="138.08774">
<ele>146.7</ele>
</trkpt>
<trkpt lat="34.94336" lon="138.08787">
<ele>146.9</ele>
</trkpt>
<trkpt lat="34.94352" lon="138.08797">
<ele>147.0</ele>
</trkpt>
<trkpt lat="34.94368" lon="138.08807">
<ele>147.1</ele>
</trkpt>
<trkpt lat="34.94387" lon="138.08817">
<ele>147.1</ele>
</trkpt>
<trkpt lat="34.94406" lon="138.08825">
<ele>147.0</ele>
</trkpt>
<trkpt lat="34.94414" lon="138.08829">
<ele>147.0</ele>
</trkpt>
<trkpt lat="34.94435" lon="138.08839">
<ele>147.1</ele>
</trkpt>
<trkpt lat="34.9452" lon="138.08879">
<ele>146.9</ele>
</trkpt>
<trkpt lat="34.94532" lon="138.08885">
<ele>146.9</ele>
</trkpt>
<trkpt lat="34.94553" lon="138.08894">
<ele>146.8</ele>
</trkpt>
<trkpt lat="34.94591" lon="138.08911">
<ele>147.2</ele>
</trkpt>
<trkpt lat="34.94606" lon="138.08918">
<ele>147.6</ele>
</trkpt>
<trkpt lat="34.94614" lon="138.0892">
<ele>148.0</ele>
</trkpt>
<trkpt lat="34.94617" lon="138.08922">
<ele>148.2</ele>
</trkpt>
<trkpt lat="34.94629" lon="138.08924">
<ele>148.6</ele>
</trkpt>
<trkpt lat="34.9464" lon="138.08926">
<ele>149.1</ele>
</trkpt>
<trkpt lat="34.94643" lon="138.08926">
<ele>149.2</ele>
</trkpt>
<trkpt lat="34.94675" lon="138.08928">
<ele>150.2</ele>
</trkpt>
<trkpt lat="34.94699" lon="138.08926">
<ele>150.0</ele>
</trkpt>
<trkpt lat="34.94736" lon="138.08925">
<ele>150.0</ele>
</trkpt>
<trkpt lat="34.94834" lon="138.08921">
<ele>152.4</ele>
</trkpt>
<trkpt lat="34.94855" lon="138.08921">
<ele>152.4</ele>
</trkpt>
<trkpt lat="34.9487" lon="138.0892">
<ele>152.1</ele>
</trkpt>
<trkpt lat="34.94883" lon="138.08921">
<ele>152.4</ele>
</trkpt>
<trkpt lat="34.94884" lon="138.08921">
<ele>152.4</ele>
</trkpt>
<trkpt lat="34.94898" lon="138.08923">
<ele>153.1</ele>
</trkpt>
<trkpt lat="34.94906" lon="138.08925">
<ele>153.7</ele>
</trkpt>
<trkpt lat="34.94909" lon="138.08926">
<ele>154.0</ele>
</trkpt>
<trkpt lat="34.94914" lon="138.08928">
<ele>154.7</ele>
</trkpt>
<trkpt lat="34.94918" lon="138.08931">
<ele>155.5</ele>
</trkpt>
<trkpt lat="34.94927" lon="138.08937">
<ele>156.2</ele>
</trkpt>
<trkpt lat="34.94929" lon="138.08939">
<ele>156.6</ele>
</trkpt>
<trkpt lat="34.94933" lon="138.08943">
<ele>157.2</ele>
</trkpt>
<trkpt lat="34.94941" lon="138.08952">
<ele>158.4</ele>
</trkpt>
<trkpt lat="34.9495" lon="138.08965">
<ele>160.1</ele>
</trkpt>
<trkpt lat="34.94956" lon="138.08974">
<ele>161.1</ele>
</trkpt>
<trkpt lat="34.94962" lon="138.08985">
<ele>162.2</ele>
</trkpt>
<trkpt lat="34.94973" lon="138.09003">
<ele>163.5</ele>
</trkpt>
<trkpt lat="34.94982" lon="138.09017">
<ele>166.1</ele>
</trkpt>
<trkpt lat="34.94984" lon="138.0902">
<ele>166.6</ele>
</trkpt>
<trkpt lat="34.9499" lon="138.09028">
<ele>168.0</ele>
</trkpt>
<trkpt lat="34.94993" lon="138.09032">
<ele>168.7</ele>
</trkpt>
<trkpt lat="34.94996" lon="138.09036">
<ele>169.4</ele>
</trkpt>
<trkpt lat="34.95" lon="138.0904">
<ele>169.9</ele>
</trkpt>
<trkpt lat="34.95003" lon="138.09043">
<ele>170.2</ele>
</trkpt>
<trkpt lat="34.9501" lon="138.0905">
<ele>170.9</ele>
</trkpt>
<trkpt lat="34.95022" lon="138.09061">
<ele>171.0</ele>
</trkpt>
<trkpt lat="34.95037" lon="138.09073">
<ele>169.8</ele>
</trkpt>
<trkpt lat="34.95051" lon="138.09084">
<ele>167.9</ele>
</trkpt>
<trkpt lat="34.9507" lon="138.09098">
<ele>165.8</ele>
</trkpt>
<trkpt lat="34.95082" lon="138.09107">
<ele>164.7</ele>
</trkpt>
<trkpt lat="34.95101" lon="138.09122">
<ele>166.6</ele>
</trkpt>
<trkpt lat="34.95109" lon="138.09128">
<ele>167.3</ele>
</trkpt>
<trkpt lat="34.95136" lon="138.09149">
<ele>169.0</ele>
</trkpt>
<trkpt lat="34.95162" lon="138.09169">
<ele>169.8</ele>
</trkpt>
<trkpt lat="34.95184" lon="138.09186">
<ele>172.4</ele>
</trkpt>
<trkpt lat="34.95192" lon="138.09192">
<ele>173.4</ele>
</trkpt>
<trkpt lat="34.95215" lon="138.0921">
<ele>176.4</ele>
</trkpt>
<trkpt lat="34.95231" lon="138.09223">
<ele>178.6</ele>
</trkpt>
<trkpt lat="34.95238" lon="138.09228">
<ele>179.3</ele>
</trkpt>
<trkpt lat="34.95245" lon="138.09232">
<ele>179.7</ele>
</trkpt>
<trkpt lat="34.95248" lon="138.09234">
<ele>179.9</ele>
</trkpt>
<trkpt lat="34.95251" lon="138.09235">
<ele>179.9</ele>
</trkpt>
<trkpt lat="34.95252" lon="138.09236">
<ele>180.1</ele>
</trkpt>
<trkpt lat="34.95259" lon="138.09237">
<ele>179.9</ele>
</trkpt>
<trkpt lat="34.95272" lon="138.09239">
<ele>179.4</ele>
</trkpt>
<trkpt lat="34.95279" lon="138.09239">
<ele>178.8</ele>
</trkpt>
<trkpt lat="34.95281" lon="138.09239">
<ele>178.7</ele>
</trkpt>
<trkpt lat="34.95289" lon="138.09238">
<ele>177.6</ele>
</trkpt>
<trkpt lat="34.95309" lon="138.09234">
<ele>174.5</ele>
</trkpt>
<trkpt lat="34.95321" lon="138.09231">
<ele>172.5</ele>
</trkpt>
<trkpt lat="34.95329" lon="138.09231">
<ele>171.8</ele>
</trkpt>
<trkpt lat="34.95337" lon="138.09232">
<ele>171.1</ele>
</trkpt>
<trkpt lat="34.95339" lon="138.09232">
<ele>170.7</ele>
</trkpt>
<trkpt lat="34.95343" lon="138.09233">
<ele>170.3</ele>
</trkpt>
<trkpt lat="34.9535" lon="138.09235">
<ele>169.6</ele>
</trkpt>
<trkpt lat="34.95354" lon="138.09238">
<ele>169.8</ele>
</trkpt>
<trkpt lat="34.95356" lon="138.09239">
<ele>169.7</ele>
</trkpt>
<trkpt lat="34.95358" lon="138.09241">
<ele>170.0</ele>
</trkpt>
<trkpt lat="34.95363" lon="138.09244">
<ele>169.8</ele>
</trkpt>
<trkpt lat="34.95367" lon="138.09248">
<ele>170.2</ele>
</trkpt>
<trkpt lat="34.95371" lon="138.09251">
<ele>170.3</ele>
</trkpt>
<trkpt lat="34.95377" lon="138.09257">
<ele>171.9</ele>
</trkpt>
<trkpt lat="34.95384" lon="138.09266">
<ele>174.5</ele>
</trkpt>
<trkpt lat="34.9539" lon="138.09272">
<ele>175.9</ele>
</trkpt>
<trkpt lat="34.95405" lon="138.09286">
<ele>178.5</ele>
</trkpt>
<trkpt lat="34.95418" lon="138.09298">
<ele>180.4</ele>
</trkpt>
<trkpt lat="34.95422" lon="138.09301">
<ele>180.7</ele>
</trkpt>
<trkpt lat="34.95428" lon="138.09305">
<ele>180.8</ele>
</trkpt>
<trkpt lat="34.95436" lon="138.0931">
<ele>180.8</ele>
</trkpt>
<trkpt lat="34.95452" lon="138.09319">
<ele>179.9</ele>
</trkpt>
<trkpt lat="34.95465" lon="138.09326">
<ele>178.8</ele>
</trkpt>
<trkpt lat="34.95473" lon="138.0933">
<ele>177.9</ele>
</trkpt>
<trkpt lat="34.9548" lon="138.09333">
<ele>176.9</ele>
</trkpt>
<trkpt lat="34.95485" lon="138.09334">
<ele>175.9</ele>
</trkpt>
<trkpt lat="34.9549" lon="138.09335">
<ele>175.1</ele>
</trkpt>
<trkpt lat="34.95497" lon="138.09336">
<ele>173.7</ele>
</trkpt>
<trkpt lat="34.95507" lon="138.09338">
<ele>174.1</ele>
</trkpt>
<trkpt lat="34.95518" lon="138.09338">
<ele>174.1</ele>
</trkpt>
<trkpt lat="34.95527" lon="138.09337">
<ele>173.4</ele>
</trkpt>
<trkpt lat="34.95579" lon="138.0933">
<ele>170.0</ele>
</trkpt>
<trkpt lat="34.95585" lon="138.09329">
<ele>169.9</ele>
</trkpt>
<trkpt lat="34.9559" lon="138.09328">
<ele>170.0</ele>
</trkpt>
<trkpt lat="34.95594" lon="138.09326">
<ele>169.8</ele>
</trkpt>
<trkpt lat="34.95604" lon="138.09323">
<ele>169.8</ele>
</trkpt>
<trkpt lat="34.9561" lon="138.0932">
<ele>169.4</ele>
</trkpt>
<trkpt lat="34.95614" lon="138.09319">
<ele>169.5</ele>
</trkpt>
<trkpt lat="34.95621" lon="138.09316">
<ele>169.1</ele>
</trkpt>
<trkpt lat="34.95629" lon="138.09312">
<ele>168.6</ele>
</trkpt>
<trkpt lat="34.95637" lon="138.09307">
<ele>167.6</ele>
</trkpt>
<trkpt lat="34.95641" lon="138.09305">
<ele>167.3</ele>
</trkpt>
<trkpt lat="34.95659" lon="138.09293">
<ele>164.9</ele>
</trkpt>
<trkpt lat="34.95674" lon="138.09282">
<ele>162.8</ele>
</trkpt>
<trkpt lat="34.95694" lon="138.09269">
<ele>161.5</ele>
</trkpt>
<trkpt lat="34.95696" lon="138.09267">
<ele>161.2</ele>
</trkpt>
<trkpt lat="34.95709" lon="138.0926">
<ele>161.1</ele>
</trkpt>
<trkpt lat="34.95727" lon="138.09251">
<ele>161.4</ele>
</trkpt>
<trkpt lat="34.9573" lon="138.09249">
<ele>161.5</ele>
</trkpt>
<trkpt lat="34.95745" lon="138.09241">
<ele>162.3</ele>
</trkpt>
<trkpt lat="34.95759" lon="138.09232">
<ele>161.8</ele>
</trkpt>
<trkpt lat="34.95766" lon="138.09228">
<ele>161.4</ele>
</trkpt>
<trkpt lat="34.95774" lon="138.09221">
<ele>160.5</ele>
</trkpt>
<trkpt lat="34.95789" lon="138.09207">
<ele>158.5</ele>
</trkpt>
<trkpt lat="34.95793" lon="138.09204">
<ele>158.2</ele>
</trkpt>
<trkpt lat="34.95803" lon="138.09194">
<ele>156.7</ele>
</trkpt>
<trkpt lat="34.9582" lon="138.09179">
<ele>154.7</ele>
</trkpt>
<trkpt lat="34.95832" lon="138.09168">
<ele>153.2</ele>
</trkpt>
<trkpt lat="34.95847" lon="138.09155">
<ele>153.3</ele>
</trkpt>
<trkpt lat="34.95869" lon="138.09135">
<ele>153.5</ele>
</trkpt>
<trkpt lat="34.95876" lon="138.09128">
<ele>153.5</ele>
</trkpt>
<trkpt lat="34.95884" lon="138.09121">
<ele>153.4</ele>
</trkpt>
<trkpt lat="34.95912" lon="138.09095">
<ele>152.7</ele>
</trkpt>
<trkpt lat="34.95931" lon="138.09079">
<ele>152.3</ele>
</trkpt>
<trkpt lat="34.95936" lon="138.09073">
<ele>152.4</ele>
</trkpt>
<trkpt lat="34.95951" lon="138.0906">
<ele>152.5</ele>
</trkpt>
<trkpt lat="34.95965" lon="138.09047">
<ele>152.4</ele>
</trkpt>
<trkpt lat="34.95951" lon="138.0906">
<ele>152.5</ele>
</trkpt>
<trkpt lat="34.95936" lon="138.09073">
<ele>152.4</ele>
</trkpt>
<trkpt lat="34.95931" lon="138.09079">
<ele>152.3</ele>
</trkpt>
<trkpt lat="34.95912" lon="138.09095">
<ele>152.7</ele>
</trkpt>
<trkpt lat="34.95884" lon="138.09121">
<ele>153.4</ele>
</trkpt>
<trkpt lat="34.95876" lon="138.09128">
<ele>153.5</ele>
</trkpt>
<trkpt lat="34.95869" lon="138.09135">
<ele>153.5</ele>
</trkpt>
<trkpt lat="34.95847" lon="138.09155">
<ele>153.3</ele>
</trkpt>
<trkpt lat="34.95832" lon="138.09168">
<ele>153.2</ele>
</trkpt>
<trkpt lat="34.9582" lon="138.09179">
<ele>154.7</ele>
</trkpt>
<trkpt lat="34.95803" lon="138.09194">
<ele>156.7</ele>
</trkpt>
<trkpt lat="34.95793" lon="138.09204">
<ele>158.2</ele>
</trkpt>
<trkpt lat="34.95789" lon="138.09207">
<ele>158.5</ele>
</trkpt>
<trkpt lat="34.95774" lon="138.09221">
<ele>160.5</ele>
</trkpt>
<trkpt lat="34.95766" lon="138.09228">
<ele>161.4</ele>
</trkpt>
<trkpt lat="34.95759" lon="138.09232">
<ele>161.8</ele>
</trkpt>
<trkpt lat="34.95745" lon="138.09241">
<ele>162.3</ele>
</trkpt>
<trkpt lat="34.9573" lon="138.09249">
<ele>161.5</ele>
</trkpt>
<trkpt lat="34.95727" lon="138.09251">
<ele>161.4</ele>
</trkpt>
<trkpt lat="34.95709" lon="138.0926">
<ele>161.1</ele>
</trkpt>
<trkpt lat="34.95696" lon="138.09267">
<ele>161.2</ele>
</trkpt>
<trkpt lat="34.95694" lon="138.09269">
<ele>161.5</ele>
</trkpt>
<trkpt lat="34.95674" lon="138.09282">
<ele>162.8</ele>
</trkpt>
<trkpt lat="34.95659" lon="138.09293">
<ele>164.9</ele>
</trkpt>
<trkpt lat="34.95641" lon="138.09305">
<ele>167.3</ele>
</trkpt>
<trkpt lat="34.95637" lon="138.09307">
<ele>167.6</ele>
</trkpt>
<trkpt lat="34.95629" lon="138.09312">
<ele>168.6</ele>
</trkpt>
<trkpt lat="34.95621" lon="138.09316">
<ele>169.1</ele>
</trkpt>
<trkpt lat="34.95614" lon="138.09319">
<ele>169.5</ele>
</trkpt>
<trkpt lat="34.9561" lon="138.0932">
<ele>169.4</ele>
</trkpt>
<trkpt lat="34.95604" lon="138.09323">
<ele>169.8</ele>
</trkpt>
<trkpt lat="34.95594" lon="138.09326">
<ele>169.8</ele>
</trkpt>
<trkpt lat="34.9559" lon="138.09328">
<ele>170.0</ele>
</trkpt>
<trkpt lat="34.95585" lon="138.09329">
<ele>169.9</ele>
</trkpt>
<trkpt lat="34.95579" lon="138.0933">
<ele>170.0</ele>
</trkpt>
<trkpt lat="34.95527" lon="138.09337">
<ele>173.4</ele>
</trkpt>
<trkpt lat="34.95518" lon="138.09338">
<ele>174.1</ele>
</trkpt>
<trkpt lat="34.95507" lon="138.09338">
<ele>174.1</ele>
</trkpt>
<trkpt lat="34.95497" lon="138.09336">
<ele>173.7</ele>
</trkpt>
<trkpt lat="34.9549" lon="138.09335">
<ele>175.1</ele>
</trkpt>
<trkpt lat="34.95485" lon="138.09334">
<ele>175.9</ele>
</trkpt>
<trkpt lat="34.9548" lon="138.09333">
<ele>176.9</ele>
</trkpt>
<trkpt lat="34.95473" lon="138.0933">
<ele>177.9</ele>
</trkpt>
<trkpt lat="34.95465" lon="138.09326">
<ele>178.8</ele>
</trkpt>
<trkpt lat="34.95452" lon="138.09319">
<ele>179.9</ele>
</trkpt>
<trkpt lat="34.95436" lon="138.0931">
<ele>180.8</ele>
</trkpt>
<trkpt lat="34.95428" lon="138.09305">
<ele>180.8</ele>
</trkpt>
<trkpt lat="34.95422" lon="138.09301">
<ele>180.7</ele>
</trkpt>
<trkpt lat="34.95418" lon="138.09298">
<ele>180.4</ele>
</trkpt>
<trkpt lat="34.95405" lon="138.09286">
<ele>178.5</ele>
</trkpt>
<trkpt lat="34.9539" lon="138.09272">
<ele>175.9</ele>
</trkpt>
<trkpt lat="34.95384" lon="138.09266">
<ele>174.5</ele>
</trkpt>
<trkpt lat="34.95377" lon="138.09257">
<ele>171.9</ele>
</trkpt>
<trkpt lat="34.95371" lon="138.09251">
<ele>170.3</ele>
</trkpt>
<trkpt lat="34.95367" lon="138.09248">
<ele>170.2</ele>
</trkpt>
<trkpt lat="34.95363" lon="138.09244">
<ele>169.8</ele>
</trkpt>
<trkpt lat="34.95358" lon="138.09241">
<ele>170.0</ele>
</trkpt>
<trkpt lat="34.95356" lon="138.09239">
<ele>169.7</ele>
</trkpt>
<trkpt lat="34.95354" lon="138.09238">
<ele>169.8</ele>
</trkpt>
<trkpt lat="34.9535" lon="138.09235">
<ele>169.6</ele>
</trkpt>
<trkpt lat="34.95343" lon="138.09233">
<ele>170.3</ele>
</trkpt>
<trkpt lat="34.95339" lon="138.09232">
<ele>170.7</ele>
</trkpt>
<trkpt lat="34.95337" lon="138.09232">
<ele>171.1</ele>
</trkpt>
<trkpt lat="34.95329" lon="138.09231">
<ele>171.8</ele>
</trkpt>
<trkpt lat="34.95321" lon="138.09231">
<ele>172.5</ele>
</trkpt>
<trkpt lat="34.95309" lon="138.09234">
<ele>174.5</ele>
</trkpt>
<trkpt lat="34.95289" lon="138.09238">
<ele>177.6</ele>
</trkpt>
<trkpt lat="34.95281" lon="138.09239">
<ele>178.7</ele>
</trkpt>
<trkpt lat="34.95279" lon="138.09239">
<ele>178.8</ele>
</trkpt>
<trkpt lat="34.95272" lon="138.09239">
<ele>179.4</ele>
</trkpt>
<trkpt lat="34.95259" lon="138.09237">
<ele>179.9</ele>
</trkpt>
<trkpt lat="34.95252" lon="138.09236">
<ele>180.1</ele>
</trkpt>
<trkpt lat="34.95251" lon="138.09235">
<ele>179.9</ele>
</trkpt>
<trkpt lat="34.95248" lon="138.09234">
<ele>179.9</ele>
</trkpt>
<trkpt lat="34.95245" lon="138.09232">
<ele>179.7</ele>
</trkpt>
<trkpt lat="34.95238" lon="138.09228">
<ele>179.3</ele>
</trkpt>
<trkpt lat="34.95231" lon="138.09223">
<ele>178.6</ele>
</trkpt>
<trkpt lat="34.95215" lon="138.0921">
<ele>176.4</ele>
</trkpt>
<trkpt lat="34.95192" lon="138.09192">
<ele>173.4</ele>
</trkpt>
<trkpt lat="34.95184" lon="138.09186">
<ele>172.4</ele>
</trkpt>
<trkpt lat="34.95162" lon="138.09169">
<ele>169.8</ele>
</trkpt>
<trkpt lat="34.95136" lon="138.09149">
<ele>169.0</ele>
</trkpt>
<trkpt lat="34.95109" lon="138.09128">
<ele>167.3</ele>
</trkpt>
<trkpt lat="34.95101" lon="138.09122">
<ele>166.6</ele>
</trkpt>
<trkpt lat="34.95082" lon="138.09107">
<ele>164.7</ele>
</trkpt>
<trkpt lat="34.9507" lon="138.09098">
<ele>165.8</ele>
</trkpt>
<trkpt lat="34.95051" lon="138.09084">
<ele>167.9</ele>
</trkpt>
<trkpt lat="34.95037" lon="138.09073">
<ele>169.8</ele>
</trkpt>
<trkpt lat="34.95022" lon="138.09061">
<ele>171.0</ele>
</trkpt>
<trkpt lat="34.9501" lon="138.0905">
<ele>170.9</ele>
</trkpt>
<trkpt lat="34.95003" lon="138.09043">
<ele>170.2</ele>
</trkpt>
<trkpt lat="34.95" lon="138.0904">
<ele>169.9</ele>
</trkpt>
<trkpt lat="34.94996" lon="138.09036">
<ele>169.4</ele>
</trkpt>
<trkpt lat="34.94993" lon="138.09032">
<ele>168.7</ele>
</trkpt>
<trkpt lat="34.9499" lon="138.09028">
<ele>168.0</ele>
</trkpt>
<trkpt lat="34.94984" lon="138.0902">
<ele>166.6</ele>
</trkpt>
<trkpt lat="34.94982" lon="138.09017">
<ele>166.1</ele>
</trkpt>
<trkpt lat="34.94973" lon="138.09003">
<ele>163.5</ele>
</trkpt>
<trkpt lat="34.94962" lon="138.08985">
<ele>162.2</ele>
</trkpt>
<trkpt lat="34.94956" lon="138.08974">
<ele>161.1</ele>
</trkpt>
<trkpt lat="34.9495" lon="138.08965">
<ele>160.1</ele>
</trkpt>
<trkpt lat="34.94941" lon="138.08952">
<ele>158.4</ele>
</trkpt>
<trkpt lat="34.94933" lon="138.08943">
<ele>157.2</ele>
</trkpt>
<trkpt lat="34.94929" lon="138.08939">
<ele>156.6</ele>
</trkpt>
<trkpt lat="34.94927" lon="138.08937">
<ele>156.2</ele>
</trkpt>
<trkpt lat="34.94918" lon="138.08931">
<ele>155.5</ele>
</trkpt>
<trkpt lat="34.94914" lon="138.08928">
<ele>154.7</ele>
</trkpt>
<trkpt lat="34.94909" lon="138.08926">
<ele>154.0</ele>
</trkpt>
<trkpt lat="34.94906" lon="138.08925">
<ele>153.7</ele>
</trkpt>
<trkpt lat="34.94898" lon="138.08923">
<ele>153.1</ele>
</trkpt>
<trkpt lat="34.94884" lon="138.08921">
<ele>152.4</ele>
</trkpt>
<trkpt lat="34.94883" lon="138.08921">
<ele>152.4</ele>
</trkpt>
<trkpt lat="34.9487" lon="138.0892">
<ele>152.1</ele>
</trkpt>
<trkpt lat="34.94855" lon="138.08921">
<ele>152.4</ele>
</trkpt>
<trkpt lat="34.94834" lon="138.08921">
<ele>152.4</ele>
</trkpt>
<trkpt lat="34.94736" lon="138.08925">
<ele>150.0</ele>
</trkpt>
<trkpt lat="34.94699" lon="138.08926">
<ele>150.0</ele>
</trkpt>
<trkpt lat="34.94675" lon="138.08928">
<ele>150.2</ele>
</trkpt>
<trkpt lat="34.94643" lon="138.08926">
<ele>149.2</ele>
</trkpt>
<trkpt lat="34.9464" lon="138.08926">
<ele>149.1</ele>
</trkpt>
<trkpt lat="34.94629" lon="138.08924">
<ele>148.6</ele>
</trkpt>
<trkpt lat="34.94617" lon="138.08922">
<ele>148.2</ele>
</trkpt>
<trkpt lat="34.94614" lon="138.0892">
<ele>148.0</ele>
</trkpt>
<trkpt lat="34.94606" lon="138.08918">
<ele>147.6</ele>
</trkpt>
<trkpt lat="34.94591" lon="138.08911">
<ele>147.2</ele>
</trkpt>
<trkpt lat="34.94553" lon="138.08894">
<ele>146.8</ele>
</trkpt>
<trkpt lat="34.94532" lon="138.08885">
<ele>146.9</ele>
</trkpt>
<trkpt lat="34.9452" lon="138.08879">
<ele>146.9</ele>
</trkpt>
<trkpt lat="34.94435" lon="138.08839">
<ele>147.1</ele>
</trkpt>
<trkpt lat="34.94414" lon="138.08829">
<ele>147.0</ele>
</trkpt>
<trkpt lat="34.94406" lon="138.08825">
<ele>147.0</ele>
</trkpt>
<trkpt lat="34.94387" lon="138.08817">
<ele>147.1</ele>
</trkpt>
<trkpt lat="34.94368" lon="138.08807">
<ele>147.1</ele>
</trkpt>
<trkpt lat="34.94352" lon="138.08797">
<ele>147.0</ele>
</trkpt>
<trkpt lat="34.94336" lon="138.08787">
<ele>146.9</ele>
</trkpt>
<trkpt lat="34.94316" lon="138.08774">
<ele>146.7</ele>
</trkpt>
<trkpt lat="34.94305" lon="138.08767">
<ele>146.7</ele>
</trkpt>
<trkpt lat="34.94304" lon="138.08766">
<ele>146.7</ele>
</trkpt>
<trkpt lat="34.94291" lon="138.08757">
<ele>146.6</ele>
</trkpt>
<trkpt lat="34.94271" lon="138.08744">
<ele>146.6</ele>
</trkpt>
<trkpt lat="34.94267" lon="138.08741">
<ele>146.6</ele>
</trkpt>
<trkpt lat="34.94261" lon="138.08737">
<ele>146.6</ele>
</trkpt>
<trkpt lat="34.94251" lon="138.08731">
<ele>146.5</ele>
</trkpt>
<trkpt lat="34.94248" lon="138.08731">
<ele>146.7</ele>
</trkpt>
<trkpt lat="34.94248" lon="138.08731">
<ele>146.7</ele>
</trkpt>
<trkpt lat="34.9424" lon="138.0875">
<ele>148.2</ele>
</trkpt>
<trkpt lat="34.94235" lon="138.0876">
<ele>149.3</ele>
</trkpt>
<trkpt lat="34.94227" lon="138.08776">
<ele>151.7</ele>
</trkpt>
<trkpt lat="34.94227" lon="138.08778">
<ele>151.9</ele>
</trkpt>
<trkpt lat="34.94225" lon="138.08781">
<ele>152.5</ele>
</trkpt>
<trkpt lat="34.94221" lon="138.08787">
<ele>153.9</ele>
</trkpt>
<trkpt lat="34.94217" lon="138.08792">
<ele>155.3</ele>
</trkpt>
<trkpt lat="34.94216" lon="138.08793">
<ele>155.6</ele>
</trkpt>
<trkpt lat="34.9421" lon="138.08798">
<ele>157.4</ele>
</trkpt>
<trkpt lat="34.94206" lon="138.088">
<ele>158.5</ele>
</trkpt>
<trkpt lat="34.94204" lon="138.08801">
<ele>159.0</ele>
</trkpt>
<trkpt lat="34.94195" lon="138.08802">
<ele>161.3</ele>
</trkpt>
<trkpt lat="34.94189" lon="138.088">
<ele>162.8</ele>
</trkpt>
<trkpt lat="34.94186" lon="138.08798">
<ele>163.7</ele>
</trkpt>
<trkpt lat="34.94184" lon="138.08797">
<ele>164.0</ele>
</trkpt>
<trkpt lat="34.9418" lon="138.08794">
<ele>164.4</ele>
</trkpt>
<trkpt lat="34.94174" lon="138.08787">
<ele>164.3</ele>
</trkpt>
<trkpt lat="34.94165" lon="138.08773">
<ele>163.2</ele>
</trkpt>
<trkpt lat="34.94162" lon="138.08767">
<ele>163.0</ele>
</trkpt>
<trkpt lat="34.9415" lon="138.08746">
<ele>163.0</ele>
</trkpt>
<trkpt lat="34.94135" lon="138.08717">
<ele>163.7</ele>
</trkpt>
<trkpt lat="34.94112" lon="138.08675">
<ele>161.7</ele>
</trkpt>
<trkpt lat="34.94105" lon="138.08664">
<ele>161.0</ele>
</trkpt>
<trkpt lat="34.941" lon="138.08657">
<ele>161.1</ele>
</trkpt>
<trkpt lat="34.94092" lon="138.08646">
<ele>161.2</ele>
</trkpt>
<trkpt lat="34.94084" lon="138.08638">
<ele>161.4</ele>
</trkpt>
<trkpt lat="34.94084" lon="138.08637">
<ele>161.3</ele>
</trkpt>
<trkpt lat="34.94077" lon="138.0863">
<ele>161.7</ele>
</trkpt>
<trkpt lat="34.94067" lon="138.08618">
<ele>162.4</ele>
</trkpt>
<trkpt lat="34.94056" lon="138.08603">
<ele>163.6</ele>
</trkpt>
<trkpt lat="34.94045" lon="138.08585">
<ele>165.1</ele>
</trkpt>
<trkpt lat="34.94041" lon="138.08578">
<ele>165.8</ele>
</trkpt>
<trkpt lat="34.94031" lon="138.08561">
<ele>167.4</ele>
</trkpt>
<trkpt lat="34.94024" lon="138.08548">
<ele>168.4</ele>
</trkpt>
<trkpt lat="34.94016" lon="138.08532">
<ele>169.3</ele>
</trkpt>
<trkpt lat="34.94015" lon="138.08531">
<ele>169.5</ele>
</trkpt>
<trkpt lat="34.94012" lon="138.0852">
<ele>169.4</ele>
</trkpt>
<trkpt lat="34.9401" lon="138.08508">
<ele>168.9</ele>
</trkpt>
<trkpt lat="34.94008" lon="138.08495">
<ele>167.8</ele>
</trkpt>
<trkpt lat="34.94006" lon="138.08486">
<ele>166.6</ele>
</trkpt>
<trkpt lat="34.94003" lon="138.08472">
<ele>164.6</ele>
</trkpt>
<trkpt lat="34.94003" lon="138.08471">
<ele>164.4</ele>
</trkpt>
<trkpt lat="34.94003" lon="138.08471">
<ele>164.4</ele>
</trkpt>
<trkpt lat="34.93999" lon="138.08461">
<ele>163.2</ele>
</trkpt>
<trkpt lat="34.93995" lon="138.08454">
<ele>162.4</ele>
</trkpt>
<trkpt lat="34.93991" lon="138.08446">
<ele>161.5</ele>
</trkpt>
<trkpt lat="34.93988" lon="138.0844">
<ele>160.9</ele>
</trkpt>
<trkpt lat="34.93984" lon="138.08435">
<ele>160.8</ele>
</trkpt>
<trkpt lat="34.9398" lon="138.08431">
<ele>160.9</ele>
</trkpt>
<trkpt lat="34.93975" lon="138.08426">
<ele>161.1</ele>
</trkpt>
<trkpt lat="34.93969" lon="138.08423">
<ele>162.0</ele>
</trkpt>
<trkpt lat="34.93965" lon="138.08421">
<ele>162.6</ele>
</trkpt>
<trkpt lat="34.93962" lon="138.0842">
<ele>163.1</ele>
</trkpt>
<trkpt lat="34.93959" lon="138.08419">
<ele>163.6</ele>
</trkpt>
<trkpt lat="34.93956" lon="138.08419">
<ele>164.3</ele>
</trkpt>
<trkpt lat="34.93953" lon="138.08418">
<ele>164.9</ele>
</trkpt>
<trkpt lat="34.9395" lon="138.08418">
<ele>165.5</ele>
</trkpt>
<trkpt lat="34.93947" lon="138.08419">
<ele>166.3</ele>
</trkpt>
<trkpt lat="34.93941" lon="138.0842">
<ele>167.7</ele>
</trkpt>
<trkpt lat="34.93932" lon="138.08422">
<ele>169.9</ele>
</trkpt>
<trkpt lat="34.93915" lon="138.08428">
<ele>173.5</ele>
</trkpt>
<trkpt lat="34.93895" lon="138.08434">
<ele>174.3</ele>
</trkpt>
<trkpt lat="34.93882" lon="138.08437">
<ele>174.8</ele>
</trkpt>
<trkpt lat="34.93856" lon="138.08445">
<ele>175.7</ele>
</trkpt>
<trkpt lat="34.93845" lon="138.08448">
<ele>176.1</ele>
</trkpt>
<trkpt lat="34.93837" lon="138.08451">
<ele>176.3</ele>
</trkpt>
<trkpt lat="34.93834" lon="138.08452">
<ele>176.4</ele>
</trkpt>
<trkpt lat="34.93832" lon="138.08453">
<ele>176.9</ele>
</trkpt>
<trkpt lat="34.9383" lon="138.08455">
<ele>177.6</ele>
</trkpt>
<trkpt lat="34.93829" lon="138.08455">
<ele>178.0</ele>
</trkpt>
<trkpt lat="34.93828" lon="138.08457">
<ele>178.3</ele>
</trkpt>
<trkpt lat="34.93827" lon="138.08459">
<ele>178.7</ele>
</trkpt>
<trkpt lat="34.93826" lon="138.08462">
<ele>179.0</ele>
</trkpt>
<trkpt lat="34.93825" lon="138.08465">
<ele>179.4</ele>
</trkpt>
<trkpt lat="34.93824" lon="138.08469">
<ele>179.7</ele>
</trkpt>
<trkpt lat="34.93823" lon="138.08473">
<ele>180.0</ele>
</trkpt>
<trkpt lat="34.93822" lon="138.08478">
<ele>180.3</ele>
</trkpt>
<trkpt lat="34.93818" lon="138.08506">
<ele>181.4</ele>
</trkpt>
<trkpt lat="34.93815" lon="138.08526">
<ele>182.0</ele>
</trkpt>
<trkpt lat="34.93812" lon="138.08543">
<ele>182.5</ele>
</trkpt>
<trkpt lat="34.93809" lon="138.08561">
<ele>182.8</ele>
</trkpt>
<trkpt lat="34.93805" lon="138.08586">
<ele>183.1</ele>
</trkpt>
<trkpt lat="34.93801" lon="138.08602">
<ele>183.7</ele>
</trkpt>
<trkpt lat="34.93798" lon="138.08616">
<ele>184.2</ele>
</trkpt>
<trkpt lat="34.93791" lon="138.08641">
<ele>185.3</ele>
</trkpt>
<trkpt lat="34.9378" lon="138.08673">
<ele>186.0</ele>
</trkpt>
<trkpt lat="34.93779" lon="138.08677">
<ele>185.6</ele>
</trkpt>
<trkpt lat="34.93778" lon="138.08682">
<ele>185.1</ele>
</trkpt>
<trkpt lat="34.93776" lon="138.08687">
<ele>184.7</ele>
</trkpt>
<trkpt lat="34.93774" lon="138.08693">
<ele>184.1</ele>
</trkpt>
<trkpt lat="34.93765" lon="138.08717">
<ele>181.9</ele>
</trkpt>
<trkpt lat="34.93765" lon="138.08718">
<ele>181.8</ele>
</trkpt>
<trkpt lat="34.93762" lon="138.08726">
<ele>181.0</ele>
</trkpt>
<trkpt lat="34.93758" lon="138.08735">
<ele>180.2</ele>
</trkpt>
<trkpt lat="34.93756" lon="138.0874">
<ele>179.7</ele>
</trkpt>
<trkpt lat="34.93753" lon="138.08743">
<ele>179.7</ele>
</trkpt>
<trkpt lat="34.9375" lon="138.08748">
<ele>179.3</ele>
</trkpt>
<trkpt lat="34.93746" lon="138.08755">
<ele>179.0</ele>
</trkpt>
<trkpt lat="34.93735" lon="138.08766">
<ele>179.6</ele>
</trkpt>
<trkpt lat="34.93723" lon="138.08777">
<ele>180.0</ele>
</trkpt>
<trkpt lat="34.93718" lon="138.08781">
<ele>180.2</ele>
</trkpt>
<trkpt lat="34.93715" lon="138.08785">
<ele>179.8</ele>
</trkpt>
<trkpt lat="34.93713" lon="138.08787">
<ele>179.7</ele>
</trkpt>
<trkpt lat="34.93708" lon="138.08792">
<ele>179.5</ele>
</trkpt>
<trkpt lat="34.93703" lon="138.08798">
<ele>178.8</ele>
</trkpt>
<trkpt lat="34.93699" lon="138.08803">
<ele>178.1</ele>
</trkpt>
<trkpt lat="34.93695" lon="138.08809">
<ele>176.9</ele>
</trkpt>
<trkpt lat="34.93687" lon="138.08822">
<ele>174.0</ele>
</trkpt>
<trkpt lat="34.93671" lon="138.08849">
<ele>168.6</ele>
</trkpt>
<trkpt lat="34.93664" lon="138.08857">
<ele>166.9</ele>
</trkpt>
<trkpt lat="34.93655" lon="138.08865">
<ele>164.7</ele>
</trkpt>
<trkpt lat="34.93647" lon="138.0887">
<ele>163.3</ele>
</trkpt>
<trkpt lat="34.93639" lon="138.08873">
<ele>162.6</ele>
</trkpt>
<trkpt lat="34.93635" lon="138.08874">
<ele>162.4</ele>
</trkpt>
<trkpt lat="34.93629" lon="138.08876">
<ele>161.9</ele>
</trkpt>
<trkpt lat="34.93617" lon="138.08878">
<ele>161.6</ele>
</trkpt>
<trkpt lat="34.93588" lon="138.08879">
<ele>161.8</ele>
</trkpt>
<trkpt lat="34.93563" lon="138.08881">
<ele>158.9</ele>
</trkpt>
<trkpt lat="34.9355" lon="138.08882">
<ele>157.2</ele>
</trkpt>
<trkpt lat="34.93538" lon="138.08883">
<ele>155.5</ele>
</trkpt>
<trkpt lat="34.93528" lon="138.08882">
<ele>154.5</ele>
</trkpt>
<trkpt lat="34.93522" lon="138.08882">
<ele>153.8</ele>
</trkpt>
<trkpt lat="34.93517" lon="138.08881">
<ele>153.3</ele>
</trkpt>
<trkpt lat="34.93511" lon="138.0888">
<ele>152.8</ele>
</trkpt>
<trkpt lat="34.93505" lon="138.08879">
<ele>152.1</ele>
</trkpt>
<trkpt lat="34.93501" lon="138.08877">
<ele>151.9</ele>
</trkpt>
<trkpt lat="34.93495" lon="138.08876">
<ele>151.7</ele>
</trkpt>
<trkpt lat="34.93488" lon="138.08873">
<ele>151.8</ele>
</trkpt>
<trkpt lat="34.9348" lon="138.0887">
<ele>151.8</ele>
</trkpt>
<trkpt lat="34.93475" lon="138.08867">
<ele>151.7</ele>
</trkpt>
<trkpt lat="34.9347" lon="138.08864">
<ele>151.6</ele>
</trkpt>
<trkpt lat="34.93467" lon="138.08863">
<ele>151.5</ele>
</trkpt>
<trkpt lat="34.93463" lon="138.0886">
<ele>151.3</ele>
</trkpt>
<trkpt lat="34.93459" lon="138.08858">
<ele>151.1</ele>
</trkpt>
<trkpt lat="34.93454" lon="138.08854">
<ele>150.8</ele>
</trkpt>
<trkpt lat="34.93444" lon="138.08847">
<ele>149.8</ele>
</trkpt>
<trkpt lat="34.93439" lon="138.08843">
<ele>149.2</ele>
</trkpt>
<trkpt lat="34.93436" lon="138.08842">
<ele>148.9</ele>
</trkpt>
<trkpt lat="34.93431" lon="138.08839">
<ele>148.2</ele>
</trkpt>
<trkpt lat="34.93425" lon="138.08836">
<ele>147.3</ele>
</trkpt>
<trkpt lat="34.93422" lon="138.08835">
<ele>146.8</ele>
</trkpt>
<trkpt lat="34.9342" lon="138.08834">
<ele>146.5</ele>
</trkpt>
<trkpt lat="34.93414" lon="138.08831">
<ele>146.7</ele>
</trkpt>
<trkpt lat="34.93405" lon="138.08829">
<ele>147.8</ele>
</trkpt>
<trkpt lat="34.93403" lon="138.08828">
<ele>148.1</ele>
</trkpt>
<trkpt lat="34.9339" lon="138.08824">
<ele>149.5</ele>
</trkpt>
<trkpt lat="34.93388" lon="138.08824">
<ele>149.6</ele>
</trkpt>
<trkpt lat="34.93381" lon="138.08822">
<ele>150.1</ele>
</trkpt>
<trkpt lat="34.93375" lon="138.0882">
<ele>150.5</ele>
</trkpt>
<trkpt lat="34.9337" lon="138.08818">
<ele>150.7</ele>
</trkpt>
<trkpt lat="34.93366" lon="138.08817">
<ele>150.9</ele>
</trkpt>
<trkpt lat="34.9336" lon="138.08814">
<ele>151.0</ele>
</trkpt>
<trkpt lat="34.93353" lon="138.08811">
<ele>150.9</ele>
</trkpt>
<trkpt lat="34.93348" lon="138.08807">
<ele>150.7</ele>
</trkpt>
<trkpt lat="34.93344" lon="138.08805">
<ele>150.5</ele>
</trkpt>
<trkpt lat="34.93337" lon="138.088">
<ele>149.7</ele>
</trkpt>
<trkpt lat="34.93332" lon="138.08795">
<ele>149.0</ele>
</trkpt>
<trkpt lat="34.93326" lon="138.08791">
<ele>148.8</ele>
</trkpt>
<trkpt lat="34.93313" lon="138.08779">
<ele>147.9</ele>
</trkpt>
<trkpt lat="34.93285" lon="138.08756">
<ele>145.7</ele>
</trkpt>
<trkpt lat="34.93256" lon="138.08731">
<ele>145.9</ele>
</trkpt>
<trkpt lat="34.93234" lon="138.08713">
<ele>144.6</ele>
</trkpt>
<trkpt lat="34.93217" lon="138.08699">
<ele>143.4</ele>
</trkpt>
<trkpt lat="34.93203" lon="138.08688">
<ele>142.4</ele>
</trkpt>
<trkpt lat="34.93193" lon="138.0868">
<ele>141.7</ele>
</trkpt>
<trkpt lat="34.93189" lon="138.08678">
<ele>141.5</ele>
</trkpt>
<trkpt lat="34.93185" lon="138.08676">
<ele>141.2</ele>
</trkpt>
<trkpt lat="34.93179" lon="138.08673">
<ele>140.8</ele>
</trkpt>
<trkpt lat="34.93172" lon="138.0867">
<ele>140.4</ele>
</trkpt>
<trkpt lat="34.93166" lon="138.08668">
<ele>140.0</ele>
</trkpt>
<trkpt lat="34.93156" lon="138.08664">
<ele>139.7</ele>
</trkpt>
<trkpt lat="34.93146" lon="138.08661">
<ele>139.4</ele>
</trkpt>
<trkpt lat="34.9314" lon="138.08659">
<ele>139.2</ele>
</trkpt>
<trkpt lat="34.93121" lon="138.08654">
<ele>138.3</ele>
</trkpt>
<trkpt lat="34.93109" lon="138.08648">
<ele>137.7</ele>
</trkpt>
<trkpt lat="34.93097" lon="138.08642">
<ele>137.0</ele>
</trkpt>
<trkpt lat="34.93085" lon="138.08635">
<ele>136.1</ele>
</trkpt>
<trkpt lat="34.93076" lon="138.08627">
<ele>136.0</ele>
</trkpt>
<trkpt lat="34.93069" lon="138.08621">
<ele>135.9</ele>
</trkpt>
<trkpt lat="34.93069" lon="138.08621">
<ele>135.9</ele>
</trkpt>
<trkpt lat="34.93065" lon="138.08617">
<ele>135.9</ele>
</trkpt>
<trkpt lat="34.93058" lon="138.0861">
<ele>135.9</ele>
</trkpt>
<trkpt lat="34.93032" lon="138.08582">
<ele>136.0</ele>
</trkpt>
<trkpt lat="34.93025" lon="138.08574">
<ele>136.1</ele>
</trkpt>
<trkpt lat="34.93018" lon="138.08567">
<ele>136.1</ele>
</trkpt>
<trkpt lat="34.93016" lon="138.08565">
<ele>136.1</ele>
</trkpt>
<trkpt lat="34.93008" lon="138.08557">
<ele>136.1</ele>
</trkpt>
<trkpt lat="34.92996" lon="138.08547">
<ele>135.9</ele>
</trkpt>
<trkpt lat="34.92989" lon="138.08541">
<ele>135.9</ele>
</trkpt>
<trkpt lat="34.92986" lon="138.0854">
<ele>135.8</ele>
</trkpt>
<trkpt lat="34.92983" lon="138.08538">
<ele>135.8</ele>
</trkpt>
<trkpt lat="34.9298" lon="138.08536">
<ele>135.8</ele>
</trkpt>
<trkpt lat="34.9297" lon="138.08531">
<ele>135.7</ele>
</trkpt>
<trkpt lat="34.9296" lon="138.08528">
<ele>135.7</ele>
</trkpt>
<trkpt lat="34.9295" lon="138.08527">
<ele>135.6</ele>
</trkpt>
<trkpt lat="34.92942" lon="138.08526">
<ele>135.6</ele>
</trkpt>
<trkpt lat="34.9294" lon="138.08527">
<ele>135.5</ele>
</trkpt>
<trkpt lat="34.92931" lon="138.08527">
<ele>135.5</ele>
</trkpt>
<trkpt lat="34.9292" lon="138.0853">
<ele>135.3</ele>
</trkpt>
<trkpt lat="34.92907" lon="138.08535">
<ele>135.3</ele>
</trkpt>
<trkpt lat="34.92905" lon="138.08536">
<ele>135.3</ele>
</trkpt>
<trkpt lat="34.92896" lon="138.08542">
<ele>135.5</ele>
</trkpt>
<trkpt lat="34.92889" lon="138.08547">
<ele>135.7</ele>
</trkpt>
<trkpt lat="34.92879" lon="138.08556">
<ele>136.2</ele>
</trkpt>
<trkpt lat="34.9287" lon="138.08564">
<ele>136.8</ele>
</trkpt>
<trkpt lat="34.92862" lon="138.08572">
<ele>137.5</ele>
</trkpt>
<trkpt lat="34.9286" lon="138.08572">
<ele>137.6</ele>
</trkpt>
<trkpt lat="34.92846" lon="138.08585">
<ele>139.5</ele>
</trkpt>
<trkpt lat="34.92837" lon="138.08592">
<ele>141.9</ele>
</trkpt>
<trkpt lat="34.92826" lon="138.08599">
<ele>143.9</ele>
</trkpt>
<trkpt lat="34.92815" lon="138.08606">
<ele>145.5</ele>
</trkpt>
<trkpt lat="34.92806" lon="138.0861">
<ele>146.3</ele>
</trkpt>
<trkpt lat="34.92799" lon="138.08613">
<ele>146.9</ele>
</trkpt>
<trkpt lat="34.92789" lon="138.08616">
<ele>147.4</ele>
</trkpt>
<trkpt lat="34.92783" lon="138.08617">
<ele>147.5</ele>
</trkpt>
<trkpt lat="34.92776" lon="138.08618">
<ele>147.6</ele>
</trkpt>
<trkpt lat="34.92769" lon="138.08619">
<ele>147.7</ele>
</trkpt>
<trkpt lat="34.92761" lon="138.08619">
<ele>147.5</ele>
</trkpt>
<trkpt lat="34.92752" lon="138.08619">
<ele>147.3</ele>
</trkpt>
<trkpt lat="34.92743" lon="138.08619">
<ele>147.0</ele>
</trkpt>
<trkpt lat="34.92733" lon="138.08617">
<ele>146.1</ele>
</trkpt>
<trkpt lat="34.92728" lon="138.08616">
<ele>145.7</ele>
</trkpt>
<trkpt lat="34.92714" lon="138.08613">
<ele>144.5</ele>
</trkpt>
<trkpt lat="34.92694" lon="138.08609">
<ele>142.8</ele>
</trkpt>
<trkpt lat="34.92686" lon="138.08607">
<ele>142.1</ele>
</trkpt>
<trkpt lat="34.9268" lon="138.08606">
<ele>141.7</ele>
</trkpt>
<trkpt lat="34.92672" lon="138.08605">
<ele>141.1</ele>
</trkpt>
<trkpt lat="34.92664" lon="138.08605">
<ele>140.8</ele>
</trkpt>
<trkpt lat="34.92662" lon="138.08605">
<ele>140.7</ele>
</trkpt>
<trkpt lat="34.92659" lon="138.08605">
<ele>140.5</ele>
</trkpt>
<trkpt lat="34.92654" lon="138.08605">
<ele>140.3</ele>
</trkpt>
<trkpt lat="34.92647" lon="138.08605">
<ele>140.0</ele>
</trkpt>
<trkpt lat="34.9264" lon="138.08606">
<ele>139.8</ele>
</trkpt>
<trkpt lat="34.9263" lon="138.08609">
<ele>140.0</ele>
</trkpt>
<trkpt lat="34.92618" lon="138.08613">
<ele>140.3</ele>
</trkpt>
<trkpt lat="34.92614" lon="138.08614">
<ele>140.3</ele>
</trkpt>
<trkpt lat="34.92608" lon="138.08616">
<ele>140.5</ele>
</trkpt>
<trkpt lat="34.92603" lon="138.08619">
<ele>140.9</ele>
</trkpt>
<trkpt lat="34.92597" lon="138.08622">
<ele>141.3</ele>
</trkpt>
<trkpt lat="34.92593" lon="138.08625">
<ele>141.9</ele>
</trkpt>
<trkpt lat="34.92588" lon="138.08628">
<ele>142.3</ele>
</trkpt>
<trkpt lat="34.92556" lon="138.08647">
<ele>143.4</ele>
</trkpt>
<trkpt lat="34.925" lon="138.0868">
<ele>144.3</ele>
</trkpt>
<trkpt lat="34.92463" lon="138.08702">
<ele>144.6</ele>
</trkpt>
<trkpt lat="34.92418" lon="138.08729">
<ele>138.4</ele>
</trkpt>
<trkpt lat="34.92387" lon="138.08748">
<ele>138.3</ele>
</trkpt>
<trkpt lat="34.92302" lon="138.08798">
<ele>140.7</ele>
</trkpt>
<trkpt lat="34.9229" lon="138.08804">
<ele>141.0</ele>
</trkpt>
<trkpt lat="34.92252" lon="138.08826">
<ele>142.0</ele>
</trkpt>
<trkpt lat="34.92208" lon="138.0885">
<ele>146.0</ele>
</trkpt>
<trkpt lat="34.91994" lon="138.08965">
<ele>136.0</ele>
</trkpt>
<trkpt lat="34.91968" lon="138.08978">
<ele>136.1</ele>
</trkpt>
<trkpt lat="34.91959" lon="138.08982">
<ele>136.0</ele>
</trkpt>
<trkpt lat="34.91947" lon="138.08989">
<ele>136.0</ele>
</trkpt>
<trkpt lat="34.91936" lon="138.08995">
<ele>135.8</ele>
</trkpt>
<trkpt lat="34.91924" lon="138.09002">
<ele>135.9</ele>
</trkpt>
<trkpt lat="34.91911" lon="138.09011">
<ele>136.8</ele>
</trkpt>
<trkpt lat="34.91898" lon="138.09022">
<ele>137.6</ele>
</trkpt>
<trkpt lat="34.91889" lon="138.09031">
<ele>138.1</ele>
</trkpt>
<trkpt lat="34.91888" lon="138.09031">
<ele>137.9</ele>
</trkpt>
<trkpt lat="34.91882" lon="138.09039">
<ele>138.3</ele>
</trkpt>
<trkpt lat="34.91878" lon="138.09044">
<ele>138.5</ele>
</trkpt>
<trkpt lat="34.91874" lon="138.09048">
<ele>138.4</ele>
</trkpt>
<trkpt lat="34.9187" lon="138.09054">
<ele>138.5</ele>
</trkpt>
<trkpt lat="34.91866" lon="138.0906">
<ele>138.5</ele>
</trkpt>
<trkpt lat="34.91859" lon="138.09071">
<ele>138.4</ele>
</trkpt>
<trkpt lat="34.91855" lon="138.09078">
<ele>138.2</ele>
</trkpt>
<trkpt lat="34.91851" lon="138.09087">
<ele>138.5</ele>
</trkpt>
<trkpt lat="34.91847" lon="138.09096">
<ele>139.0</ele>
</trkpt>
<trkpt lat="34.91842" lon="138.09107">
<ele>139.3</ele>
</trkpt>
<trkpt lat="34.91838" lon="138.09119">
<ele>139.8</ele>
</trkpt>
<trkpt lat="34.91835" lon="138.0913">
<ele>140.2</ele>
</trkpt>
<trkpt lat="34.91832" lon="138.09141">
<ele>140.7</ele>
</trkpt>
<trkpt lat="34.91832" lon="138.09145">
<ele>141.2</ele>
</trkpt>
<trkpt lat="34.91828" lon="138.0917">
<ele>143.6</ele>
</trkpt>
<trkpt lat="34.91825" lon="138.0919">
<ele>146.3</ele>
</trkpt>
<trkpt lat="34.91823" lon="138.09213">
<ele>149.6</ele>
</trkpt>
<trkpt lat="34.91819" lon="138.09245">
<ele>153.6</ele>
</trkpt>
<trkpt lat="34.91818" lon="138.09249">
<ele>153.9</ele>
</trkpt>
<trkpt lat="34.91815" lon="138.09275">
<ele>154.7</ele>
</trkpt>
<trkpt lat="34.91811" lon="138.09308">
<ele>155.3</ele>
</trkpt>
<trkpt lat="34.91806" lon="138.09341">
<ele>154.9</ele>
</trkpt>
<trkpt lat="34.918" lon="138.09379">
<ele>152.7</ele>
</trkpt>
<trkpt lat="34.91783" lon="138.09491">
<ele>148.9</ele>
</trkpt>
<trkpt lat="34.9178" lon="138.09509">
<ele>148.9</ele>
</trkpt>
<trkpt lat="34.91765" lon="138.09581">
<ele>148.4</ele>
</trkpt>
<trkpt lat="34.91757" lon="138.09618">
<ele>143.4</ele>
</trkpt>
<trkpt lat="34.91751" lon="138.09643">
<ele>138.8</ele>
</trkpt>
<trkpt lat="34.91744" lon="138.09667">
<ele>136.2</ele>
</trkpt>
<trkpt lat="34.91742" lon="138.09676">
<ele>136.2</ele>
</trkpt>
<trkpt lat="34.91731" lon="138.09712">
<ele>135.6</ele>
</trkpt>
<trkpt lat="34.91718" lon="138.09751">
<ele>134.7</ele>
</trkpt>
<trkpt lat="34.91711" lon="138.09772">
<ele>133.3</ele>
</trkpt>
<trkpt lat="34.91705" lon="138.0979">
<ele>132.3</ele>
</trkpt>
<trkpt lat="34.91698" lon="138.0981">
<ele>131.4</ele>
</trkpt>
<trkpt lat="34.91693" lon="138.09825">
<ele>133.8</ele>
</trkpt>
<trkpt lat="34.91691" lon="138.09829">
<ele>134.5</ele>
</trkpt>
<trkpt lat="34.91687" lon="138.0984">
<ele>136.2</ele>
</trkpt>
<trkpt lat="34.91683" lon="138.09849">
<ele>137.8</ele>
</trkpt>
<trkpt lat="34.91679" lon="138.09857">
<ele>139.1</ele>
</trkpt>
<trkpt lat="34.91679" lon="138.09859">
<ele>139.4</ele>
</trkpt>
<trkpt lat="34.9167" lon="138.09876">
<ele>142.5</ele>
</trkpt>
<trkpt lat="34.91665" lon="138.09885">
<ele>145.4</ele>
</trkpt>
<trkpt lat="34.91649" lon="138.09913">
<ele>150.9</ele>
</trkpt>
<trkpt lat="34.91647" lon="138.09916">
<ele>151.5</ele>
</trkpt>
<trkpt lat="34.91639" lon="138.09924">
<ele>153.6</ele>
</trkpt>
<trkpt lat="34.91621" lon="138.09947">
<ele>158.7</ele>
</trkpt>
<trkpt lat="34.91613" lon="138.09956">
<ele>160.9</ele>
</trkpt>
<trkpt lat="34.91602" lon="138.09967">
<ele>163.7</ele>
</trkpt>
<trkpt lat="34.916" lon="138.09969">
<ele>164.2</ele>
</trkpt>
<trkpt lat="34.9158" lon="138.09987">
<ele>169.1</ele>
</trkpt>
<trkpt lat="34.91573" lon="138.09992">
<ele>170.7</ele>
</trkpt>
<trkpt lat="34.91557" lon="138.10003">
<ele>174.3</ele>
</trkpt>
<trkpt lat="34.91524" lon="138.10021">
<ele>181.5</ele>
</trkpt>
<trkpt lat="34.91505" lon="138.10026">
<ele>185.3</ele>
</trkpt>
<trkpt lat="34.91484" lon="138.1003">
<ele>189.5</ele>
</trkpt>
<trkpt lat="34.91431" lon="138.10035">
<ele>200.1</ele>
</trkpt>
<trkpt lat="34.91399" lon="138.10038">
<ele>192.5</ele>
</trkpt>
<trkpt lat="34.91381" lon="138.1004">
<ele>188.7</ele>
</trkpt>
<trkpt lat="34.91345" lon="138.10043">
<ele>180.4</ele>
</trkpt>
<trkpt lat="34.9131" lon="138.10047">
<ele>173.7</ele>
</trkpt>
<trkpt lat="34.91292" lon="138.10049">
<ele>170.3</ele>
</trkpt>
<trkpt lat="34.91274" lon="138.1005">
<ele>166.4</ele>
</trkpt>
<trkpt lat="34.91238" lon="138.10054">
<ele>161.5</ele>
</trkpt>
<trkpt lat="34.91218" lon="138.10056">
<ele>161.2</ele>
</trkpt>
<trkpt lat="34.91198" lon="138.10058">
<ele>160.8</ele>
</trkpt>
<trkpt lat="34.91124" lon="138.10066">
<ele>169.6</ele>
</trkpt>
<trkpt lat="34.91106" lon="138.10068">
<ele>173.8</ele>
</trkpt>
<trkpt lat="34.9106" lon="138.10073">
<ele>184.1</ele>
</trkpt>
<trkpt lat="34.91034" lon="138.10075">
<ele>180.2</ele>
</trkpt>
<trkpt lat="34.91023" lon="138.10075">
<ele>178.6</ele>
</trkpt>
<trkpt lat="34.91016" lon="138.10075">
<ele>177.6</ele>
</trkpt>
<trkpt lat="34.90999" lon="138.10074">
<ele>175.1</ele>
</trkpt>
<trkpt lat="34.90998" lon="138.10074">
<ele>174.9</ele>
</trkpt>
<trkpt lat="34.90997" lon="138.10074">
<ele>174.8</ele>
</trkpt>
<trkpt lat="34.9098" lon="138.10071">
<ele>172.2</ele>
</trkpt>
<trkpt lat="34.90978" lon="138.10071">
<ele>171.9</ele>
</trkpt>
<trkpt lat="34.90963" lon="138.10067">
<ele>169.7</ele>
</trkpt>
<trkpt lat="34.90945" lon="138.10062">
<ele>167.0</ele>
</trkpt>
<trkpt lat="34.9091" lon="138.10052">
<ele>151.4</ele>
</trkpt>
<trkpt lat="34.90876" lon="138.10041">
<ele>140.5</ele>
</trkpt>
<trkpt lat="34.90854" lon="138.10034">
<ele>134.6</ele>
</trkpt>
<trkpt lat="34.90838" lon="138.1003">
<ele>131.1</ele>
</trkpt>
<trkpt lat="34.90828" lon="138.10028">
<ele>129.8</ele>
</trkpt>
<trkpt lat="34.90813" lon="138.10026">
<ele>128.9</ele>
</trkpt>
<trkpt lat="34.9081" lon="138.10026">
<ele>128.8</ele>
</trkpt>
<trkpt lat="34.90806" lon="138.10026">
<ele>128.6</ele>
</trkpt>
<trkpt lat="34.90799" lon="138.10026">
<ele>128.3</ele>
</trkpt>
<trkpt lat="34.90788" lon="138.10027">
<ele>128.1</ele>
</trkpt>
<trkpt lat="34.90778" lon="138.10028">
<ele>127.8</ele>
</trkpt>
<trkpt lat="34.90766" lon="138.1003">
<ele>127.7</ele>
</trkpt>
<trkpt lat="34.90756" lon="138.10032">
<ele>127.6</ele>
</trkpt>
<trkpt lat="34.90754" lon="138.10033">
<ele>127.7</ele>
</trkpt>
<trkpt lat="34.90742" lon="138.10037">
<ele>128.0</ele>
</trkpt>
<trkpt lat="34.90739" lon="138.10038">
<ele>128.1</ele>
</trkpt>
<trkpt lat="34.9073" lon="138.10042">
<ele>128.5</ele>
</trkpt>
<trkpt lat="34.90716" lon="138.1005">
<ele>129.1</ele>
</trkpt>
<trkpt lat="34.90708" lon="138.10055">
<ele>129.4</ele>
</trkpt>
<trkpt lat="34.90699" lon="138.10062">
<ele>129.8</ele>
</trkpt>
<trkpt lat="34.90688" lon="138.1007">
<ele>130.1</ele>
</trkpt>
<trkpt lat="34.90681" lon="138.10077">
<ele>130.4</ele>
</trkpt>
<trkpt lat="34.90672" lon="138.10084">
<ele>130.5</ele>
</trkpt>
<trkpt lat="34.90664" lon="138.10091">
<ele>131.5</ele>
</trkpt>
<trkpt lat="34.9065" lon="138.10105">
<ele>137.1</ele>
</trkpt>
<trkpt lat="34.90644" lon="138.10111">
<ele>139.6</ele>
</trkpt>
<trkpt lat="34.90641" lon="138.10114">
<ele>140.8</ele>
</trkpt>
<trkpt lat="34.90639" lon="138.10115">
<ele>141.5</ele>
</trkpt>
<trkpt lat="34.90625" lon="138.10128">
<ele>147.0</ele>
</trkpt>
<trkpt lat="34.906" lon="138.10152">
<ele>157.0</ele>
</trkpt>
<trkpt lat="34.90586" lon="138.10167">
<ele>162.8</ele>
</trkpt>
<trkpt lat="34.90572" lon="138.10181">
<ele>168.5</ele>
</trkpt>
<trkpt lat="34.90558" lon="138.10195">
<ele>174.2</ele>
</trkpt>
<trkpt lat="34.90552" lon="138.10201">
<ele>176.6</ele>
</trkpt>
<trkpt lat="34.90544" lon="138.10209">
<ele>179.9</ele>
</trkpt>
<trkpt lat="34.9053" lon="138.10222">
<ele>185.4</ele>
</trkpt>
<trkpt lat="34.90518" lon="138.10234">
<ele>190.3</ele>
</trkpt>
<trkpt lat="34.90516" lon="138.10236">
<ele>191.1</ele>
</trkpt>
<trkpt lat="34.90507" lon="138.10248">
<ele>195.3</ele>
</trkpt>
<trkpt lat="34.90501" lon="138.10257">
<ele>198.3</ele>
</trkpt>
<trkpt lat="34.90492" lon="138.10268">
<ele>202.5</ele>
</trkpt>
<trkpt lat="34.90482" lon="138.10282">
<ele>207.6</ele>
</trkpt>
<trkpt lat="34.9048" lon="138.10285">
<ele>208.6</ele>
</trkpt>
<trkpt lat="34.90468" lon="138.10302">
<ele>214.7</ele>
</trkpt>
<trkpt lat="34.90463" lon="138.1031">
<ele>217.5</ele>
</trkpt>
<trkpt lat="34.90449" lon="138.10332">
<ele>225.1</ele>
</trkpt>
<trkpt lat="34.90419" lon="138.10394">
<ele>244.7</ele>
</trkpt>
<trkpt lat="34.90415" lon="138.10402">
<ele>247.2</ele>
</trkpt>
<trkpt lat="34.90411" lon="138.10413">
<ele>249.9</ele>
</trkpt>
<trkpt lat="34.90403" lon="138.10432">
<ele>254.7</ele>
</trkpt>
<trkpt lat="34.90401" lon="138.10437">
<ele>255.9</ele>
</trkpt>
<trkpt lat="34.90396" lon="138.10453">
<ele>259.7</ele>
</trkpt>
<trkpt lat="34.9039" lon="138.10474">
<ele>264.7</ele>
</trkpt>
<trkpt lat="34.90384" lon="138.10494">
<ele>269.4</ele>
</trkpt>
<trkpt lat="34.90382" lon="138.10501">
<ele>271.1</ele>
</trkpt>
<trkpt lat="34.90378" lon="138.10515">
<ele>268.9</ele>
</trkpt>
<trkpt lat="34.90373" lon="138.10536">
<ele>265.5</ele>
</trkpt>
<trkpt lat="34.90371" lon="138.1054">
<ele>263.8</ele>
</trkpt>
<trkpt lat="34.90368" lon="138.10557">
<ele>257.5</ele>
</trkpt>
<trkpt lat="34.90363" lon="138.10578">
<ele>249.6</ele>
</trkpt>
<trkpt lat="34.9036" lon="138.10592">
<ele>244.4</ele>
</trkpt>
<trkpt lat="34.90358" lon="138.10599">
<ele>241.7</ele>
</trkpt>
<trkpt lat="34.90355" lon="138.10621">
<ele>233.7</ele>
</trkpt>
<trkpt lat="34.90353" lon="138.10634">
<ele>228.9</ele>
</trkpt>
<trkpt lat="34.90352" lon="138.10642">
<ele>226.0</ele>
</trkpt>
<trkpt lat="34.90349" lon="138.10658">
<ele>220.1</ele>
</trkpt>
<trkpt lat="34.90349" lon="138.10664">
<ele>217.9</ele>
</trkpt>
<trkpt lat="34.90348" lon="138.10686">
<ele>210.0</ele>
</trkpt>
<trkpt lat="34.90346" lon="138.10708">
<ele>202.0</ele>
</trkpt>
<trkpt lat="34.90345" lon="138.10726">
<ele>195.5</ele>
</trkpt>
<trkpt lat="34.90345" lon="138.10729">
<ele>194.4</ele>
</trkpt>
<trkpt lat="34.90347" lon="138.10751">
<ele>186.4</ele>
</trkpt>
<trkpt lat="34.90348" lon="138.10773">
<ele>178.5</ele>
</trkpt>
<trkpt lat="34.90352" lon="138.10817">
<ele>162.5</ele>
</trkpt>
<trkpt lat="34.90352" lon="138.1084">
<ele>154.3</ele>
</trkpt>
<trkpt lat="34.90352" lon="138.10847">
<ele>153.3</ele>
</trkpt>
<trkpt lat="34.90353" lon="138.10862">
<ele>151.6</ele>
</trkpt>
<trkpt lat="34.90353" lon="138.1087">
<ele>150.4</ele>
</trkpt>
<trkpt lat="34.90353" lon="138.10884">
<ele>148.4</ele>
</trkpt>
<trkpt lat="34.90353" lon="138.10892">
<ele>147.3</ele>
</trkpt>
<trkpt lat="34.90353" lon="138.10906">
<ele>145.2</ele>
</trkpt>
<trkpt lat="34.90353" lon="138.10913">
<ele>144.2</ele>
</trkpt>
<trkpt lat="34.90353" lon="138.10921">
<ele>143.1</ele>
</trkpt>
<trkpt lat="34.90352" lon="138.10928">
<ele>141.6</ele>
</trkpt>
<trkpt lat="34.90352" lon="138.10929">
<ele>141.4</ele>
</trkpt>
<trkpt lat="34.90351" lon="138.10938">
<ele>139.7</ele>
</trkpt>
<trkpt lat="34.90347" lon="138.10959">
<ele>135.2</ele>
</trkpt>
<trkpt lat="34.90344" lon="138.10976">
<ele>132.0</ele>
</trkpt>
<trkpt lat="34.90337" lon="138.11">
<ele>127.1</ele>
</trkpt>
<trkpt lat="34.90334" lon="138.11013">
<ele>125.7</ele>
</trkpt>
<trkpt lat="34.90331" lon="138.11025">
<ele>124.8</ele>
</trkpt>
<trkpt lat="34.90328" lon="138.11034">
<ele>124.2</ele>
</trkpt>
<trkpt lat="34.90323" lon="138.11054">
<ele>123.1</ele>
</trkpt>
<trkpt lat="34.90318" lon="138.11069">
<ele>122.2</ele>
</trkpt>
<trkpt lat="34.90317" lon="138.11075">
<ele>122.0</ele>
</trkpt>
<trkpt lat="34.90311" lon="138.11096">
<ele>121.0</ele>
</trkpt>
<trkpt lat="34.9031" lon="138.11099">
<ele>120.8</ele>
</trkpt>
<trkpt lat="34.90305" lon="138.11117">
<ele>120.0</ele>
</trkpt>
<trkpt lat="34.903" lon="138.11138">
<ele>119.3</ele>
</trkpt>
<trkpt lat="34.90294" lon="138.11157">
<ele>118.7</ele>
</trkpt>
<trkpt lat="34.9029" lon="138.11175">
<ele>118.6</ele>
</trkpt>
<trkpt lat="34.90289" lon="138.11178">
<ele>118.7</ele>
</trkpt>
<trkpt lat="34.90286" lon="138.11188">
<ele>118.8</ele>
</trkpt>
<trkpt lat="34.90285" lon="138.11195">
<ele>119.0</ele>
</trkpt>
<trkpt lat="34.90283" lon="138.11201">
<ele>119.1</ele>
</trkpt>
<trkpt lat="34.90283" lon="138.11207">
<ele>119.2</ele>
</trkpt>
<trkpt lat="34.90283" lon="138.11217">
<ele>119.4</ele>
</trkpt>
<trkpt lat="34.90283" lon="138.11221">
<ele>119.4</ele>
</trkpt>
<trkpt lat="34.90283" lon="138.11221">
<ele>119.4</ele>
</trkpt>
<trkpt lat="34.90268" lon="138.11223">
<ele>119.4</ele>
</trkpt>
<trkpt lat="34.90265" lon="138.11224">
<ele>119.4</ele>
</trkpt>
<trkpt lat="34.90263" lon="138.11224">
<ele>119.4</ele>
</trkpt>
<trkpt lat="34.90257" lon="138.11225">
<ele>119.4</ele>
</trkpt>
<trkpt lat="34.90247" lon="138.11227">
<ele>119.6</ele>
</trkpt>
<trkpt lat="34.90245" lon="138.11227">
<ele>119.6</ele>
</trkpt>
<trkpt lat="34.90231" lon="138.1123">
<ele>119.9</ele>
</trkpt>
<trkpt lat="34.90225" lon="138.11232">
<ele>120.1</ele>
</trkpt>
<trkpt lat="34.90213" lon="138.11233">
<ele>120.4</ele>
</trkpt>
<trkpt lat="34.90212" lon="138.11233">
<ele>120.4</ele>
</trkpt>
<trkpt lat="34.90198" lon="138.11233">
<ele>120.7</ele>
</trkpt>
<trkpt lat="34.90182" lon="138.11229">
<ele>121.1</ele>
</trkpt>
<trkpt lat="34.9017" lon="138.11227">
<ele>121.3</ele>
</trkpt>
<trkpt lat="34.90147" lon="138.11223">
<ele>121.9</ele>
</trkpt>
<trkpt lat="34.90125" lon="138.1122">
<ele>122.9</ele>
</trkpt>
<trkpt lat="34.90113" lon="138.11218">
<ele>123.2</ele>
</trkpt>
<trkpt lat="34.90095" lon="138.11216">
<ele>123.7</ele>
</trkpt>
<trkpt lat="34.90081" lon="138.11212">
<ele>123.8</ele>
</trkpt>
<trkpt lat="34.90058" lon="138.11208">
<ele>125.2</ele>
</trkpt>
<trkpt lat="34.90045" lon="138.11205">
<ele>125.7</ele>
</trkpt>
<trkpt lat="34.9004" lon="138.11205">
<ele>126.2</ele>
</trkpt>
<trkpt lat="34.90034" lon="138.11202">
<ele>125.9</ele>
</trkpt>
<trkpt lat="34.90026" lon="138.112">
<ele>126.1</ele>
</trkpt>
<trkpt lat="34.90023" lon="138.11198">
<ele>125.8</ele>
</trkpt>
<trkpt lat="34.90019" lon="138.11197">
<ele>125.8</ele>
</trkpt>
<trkpt lat="34.90013" lon="138.11195">
<ele>125.7</ele>
</trkpt>
<trkpt lat="34.90008" lon="138.11193">
<ele>125.4</ele>
</trkpt>
<trkpt lat="34.90004" lon="138.11192">
<ele>125.4</ele>
</trkpt>
<trkpt lat="34.9" lon="138.11191">
<ele>125.3</ele>
</trkpt>
<trkpt lat="34.89997" lon="138.11191">
<ele>125.1</ele>
</trkpt>
<trkpt lat="34.89994" lon="138.11191">
<ele>124.9</ele>
</trkpt>
<trkpt lat="34.89985" lon="138.11191">
<ele>124.4</ele>
</trkpt>
<trkpt lat="34.89982" lon="138.11191">
<ele>124.2</ele>
</trkpt>
<trkpt lat="34.8998" lon="138.11191">
<ele>124.1</ele>
</trkpt>
<trkpt lat="34.89973" lon="138.11195">
<ele>124.8</ele>
</trkpt>
<trkpt lat="34.89965" lon="138.11199">
<ele>125.3</ele>
</trkpt>
<trkpt lat="34.89961" lon="138.11203">
<ele>126.1</ele>
</trkpt>
<trkpt lat="34.89956" lon="138.11207">
<ele>126.7</ele>
</trkpt>
<trkpt lat="34.8995" lon="138.1121">
<ele>127.0</ele>
</trkpt>
<trkpt lat="34.89949" lon="138.11211">
<ele>127.2</ele>
</trkpt>
<trkpt lat="34.89943" lon="138.11215">
<ele>127.7</ele>
</trkpt>
<trkpt lat="34.89938" lon="138.11218">
<ele>128.0</ele>
</trkpt>
<trkpt lat="34.89934" lon="138.1122">
<ele>128.1</ele>
</trkpt>
<trkpt lat="34.89931" lon="138.11222">
<ele>128.3</ele>
</trkpt>
<trkpt lat="34.89929" lon="138.11224">
<ele>128.5</ele>
</trkpt>
<trkpt lat="34.89927" lon="138.11225">
<ele>128.6</ele>
</trkpt>
<trkpt lat="34.89925" lon="138.11228">
<ele>129.1</ele>
</trkpt>
<trkpt lat="34.89922" lon="138.1123">
<ele>129.2</ele>
</trkpt>
<trkpt lat="34.89919" lon="138.11236">
<ele>130.2</ele>
</trkpt>
<trkpt lat="34.89915" lon="138.11241">
<ele>130.7</ele>
</trkpt>
<trkpt lat="34.89912" lon="138.11245">
<ele>131.0</ele>
</trkpt>
<trkpt lat="34.89911" lon="138.11247">
<ele>131.2</ele>
</trkpt>
<trkpt lat="34.89909" lon="138.1125">
<ele>131.4</ele>
</trkpt>
<trkpt lat="34.89907" lon="138.11253">
<ele>132.0</ele>
</trkpt>
<trkpt lat="34.89901" lon="138.11262">
<ele>134.0</ele>
</trkpt>
<trkpt lat="34.89897" lon="138.11267">
<ele>135.0</ele>
</trkpt>
<trkpt lat="34.89894" lon="138.1127">
<ele>135.6</ele>
</trkpt>
<trkpt lat="34.89884" lon="138.11281">
<ele>138.0</ele>
</trkpt>
<trkpt lat="34.89876" lon="138.11289">
<ele>139.8</ele>
</trkpt>
<trkpt lat="34.89872" lon="138.11292">
<ele>140.4</ele>
</trkpt>
<trkpt lat="34.89869" lon="138.11294">
<ele>140.8</ele>
</trkpt>
<trkpt lat="34.89863" lon="138.11299">
<ele>142.0</ele>
</trkpt>
<trkpt lat="34.89857" lon="138.11301">
<ele>142.1</ele>
</trkpt>
<trkpt lat="34.89856" lon="138.11301">
<ele>141.9</ele>
</trkpt>
<trkpt lat="34.89852" lon="138.11302">
<ele>141.8</ele>
</trkpt>
<trkpt lat="34.89849" lon="138.11303">
<ele>141.9</ele>
</trkpt>
<trkpt lat="34.89845" lon="138.11304">
<ele>141.8</ele>
</trkpt>
<trkpt lat="34.89842" lon="138.11305">
<ele>141.9</ele>
</trkpt>
<trkpt lat="34.89838" lon="138.11306">
<ele>141.8</ele>
</trkpt>
<trkpt lat="34.89836" lon="138.11306">
<ele>141.6</ele>
</trkpt>
<trkpt lat="34.89832" lon="138.11307">
<ele>141.5</ele>
</trkpt>
<trkpt lat="34.89828" lon="138.11308">
<ele>141.3</ele>
</trkpt>
<trkpt lat="34.89827" lon="138.11309">
<ele>141.6</ele>
</trkpt>
<trkpt lat="34.89824" lon="138.11309">
<ele>141.1</ele>
</trkpt>
<trkpt lat="34.8982" lon="138.11311">
<ele>141.4</ele>
</trkpt>
<trkpt lat="34.89818" lon="138.11311">
<ele>141.1</ele>
</trkpt>
<trkpt lat="34.89815" lon="138.11312">
<ele>141.1</ele>
</trkpt>
<trkpt lat="34.89811" lon="138.11313">
<ele>140.9</ele>
</trkpt>
<trkpt lat="34.89808" lon="138.11313">
<ele>140.4</ele>
</trkpt>
<trkpt lat="34.89801" lon="138.11312">
<ele>138.8</ele>
</trkpt>
<trkpt lat="34.8979" lon="138.11311">
<ele>136.6</ele>
</trkpt>
<trkpt lat="34.89782" lon="138.11311">
<ele>135.3</ele>
</trkpt>
<trkpt lat="34.89776" lon="138.11311">
<ele>134.3</ele>
</trkpt>
<trkpt lat="34.89771" lon="138.11312">
<ele>134.0</ele>
</trkpt>
<trkpt lat="34.89767" lon="138.11312">
<ele>133.3</ele>
</trkpt>
<trkpt lat="34.89763" lon="138.11313">
<ele>133.1</ele>
</trkpt>
<trkpt lat="34.89758" lon="138.11314">
<ele>132.7</ele>
</trkpt>
<trkpt lat="34.89753" lon="138.11315">
<ele>132.2</ele>
</trkpt>
<trkpt lat="34.8975" lon="138.11316">
<ele>132.1</ele>
</trkpt>
<trkpt lat="34.89749" lon="138.11316">
<ele>131.9</ele>
</trkpt>
<trkpt lat="34.89748" lon="138.11316">
<ele>131.7</ele>
</trkpt>
<trkpt lat="34.89744" lon="138.11317">
<ele>131.1</ele>
</trkpt>
<trkpt lat="34.89742" lon="138.11318">
<ele>131.0</ele>
</trkpt>
<trkpt lat="34.89739" lon="138.11319">
<ele>130.7</ele>
</trkpt>
<trkpt lat="34.89737" lon="138.1132">
<ele>130.5</ele>
</trkpt>
<trkpt lat="34.89734" lon="138.11322">
<ele>130.5</ele>
</trkpt>
<trkpt lat="34.89732" lon="138.11324">
<ele>130.7</ele>
</trkpt>
<trkpt lat="34.8973" lon="138.11326">
<ele>130.8</ele>
</trkpt>
<trkpt lat="34.89728" lon="138.11327">
<ele>130.6</ele>
</trkpt>
<trkpt lat="34.89726" lon="138.1133">
<ele>131.0</ele>
</trkpt>
<trkpt lat="34.89724" lon="138.11332">
<ele>131.1</ele>
</trkpt>
<trkpt lat="34.89719" lon="138.11337">
<ele>131.7</ele>
</trkpt>
<trkpt lat="34.89687" lon="138.11372">
<ele>136.4</ele>
</trkpt>
<trkpt lat="34.89679" lon="138.11382">
<ele>137.5</ele>
</trkpt>
<trkpt lat="34.89664" lon="138.11403">
<ele>140.1</ele>
</trkpt>
<trkpt lat="34.89646" lon="138.11429">
<ele>143.7</ele>
</trkpt>
<trkpt lat="34.89639" lon="138.11438">
<ele>145.9</ele>
</trkpt>
<trkpt lat="34.89636" lon="138.11442">
<ele>147.0</ele>
</trkpt>
<trkpt lat="34.89633" lon="138.11445">
<ele>147.9</ele>
</trkpt>
<trkpt lat="34.89625" lon="138.1145">
<ele>149.0</ele>
</trkpt>
<trkpt lat="34.89594" lon="138.11468">
<ele>156.7</ele>
</trkpt>
<trkpt lat="34.89585" lon="138.11472">
<ele>159.2</ele>
</trkpt>
<trkpt lat="34.89581" lon="138.11473">
<ele>159.3</ele>
</trkpt>
<trkpt lat="34.89578" lon="138.11474">
<ele>159.3</ele>
</trkpt>
<trkpt lat="34.89575" lon="138.11474">
<ele>158.4</ele>
</trkpt>
<trkpt lat="34.89573" lon="138.11474">
<ele>157.9</ele>
</trkpt>
<trkpt lat="34.89571" lon="138.11474">
<ele>157.3</ele>
</trkpt>
<trkpt lat="34.89568" lon="138.11474">
<ele>156.5</ele>
</trkpt>
<trkpt lat="34.89565" lon="138.11474">
<ele>155.7</ele>
</trkpt>
<trkpt lat="34.89559" lon="138.11475">
<ele>154.7</ele>
</trkpt>
<trkpt lat="34.89546" lon="138.11477">
<ele>152.4</ele>
</trkpt>
<trkpt lat="34.89538" lon="138.1148">
<ele>152.1</ele>
</trkpt>
<trkpt lat="34.89531" lon="138.11482">
<ele>151.3</ele>
</trkpt>
<trkpt lat="34.89524" lon="138.11483">
<ele>149.9</ele>
</trkpt>
<trkpt lat="34.89514" lon="138.11487">
<ele>149.2</ele>
</trkpt>
<trkpt lat="34.89506" lon="138.1149">
<ele>148.4</ele>
</trkpt>
<trkpt lat="34.89496" lon="138.11493">
<ele>146.3</ele>
</trkpt>
<trkpt lat="34.89491" lon="138.11496">
<ele>145.5</ele>
</trkpt>
<trkpt lat="34.89485" lon="138.11499">
<ele>144.0</ele>
</trkpt>
<trkpt lat="34.89484" lon="138.11499">
<ele>143.5</ele>
</trkpt>
<trkpt lat="34.89476" lon="138.11504">
<ele>142.0</ele>
</trkpt>
<trkpt lat="34.89469" lon="138.11511">
<ele>141.9</ele>
</trkpt>
<trkpt lat="34.89465" lon="138.11517">
<ele>142.7</ele>
</trkpt>
<trkpt lat="34.89462" lon="138.1152">
<ele>142.4</ele>
</trkpt>
<trkpt lat="34.89458" lon="138.11526">
<ele>143.0</ele>
</trkpt>
<trkpt lat="34.89458" lon="138.11527">
<ele>143.5</ele>
</trkpt>
<trkpt lat="34.89455" lon="138.11531">
<ele>143.5</ele>
</trkpt>
<trkpt lat="34.89451" lon="138.1154">
<ele>145.2</ele>
</trkpt>
<trkpt lat="34.89444" lon="138.11555">
<ele>147.3</ele>
</trkpt>
<trkpt lat="34.8944" lon="138.11563">
<ele>147.9</ele>
</trkpt>
<trkpt lat="34.89435" lon="138.11574">
<ele>148.9</ele>
</trkpt>
<trkpt lat="34.89431" lon="138.11581">
<ele>148.8</ele>
</trkpt>
<trkpt lat="34.8943" lon="138.11583">
<ele>148.8</ele>
</trkpt>
<trkpt lat="34.89427" lon="138.11588">
<ele>148.7</ele>
</trkpt>
<trkpt lat="34.89418" lon="138.11601">
<ele>147.4</ele>
</trkpt>
<trkpt lat="34.89402" lon="138.11624">
<ele>148.4</ele>
</trkpt>
<trkpt lat="34.89395" lon="138.11634">
<ele>148.2</ele>
</trkpt>
<trkpt lat="34.89384" lon="138.1165">
<ele>147.2</ele>
</trkpt>
<trkpt lat="34.89369" lon="138.11671">
<ele>144.3</ele>
</trkpt>
<trkpt lat="34.89359" lon="138.11685">
<ele>143.2</ele>
</trkpt>
<trkpt lat="34.89349" lon="138.11701">
<ele>143.0</ele>
</trkpt>
<trkpt lat="34.8934" lon="138.11715">
<ele>142.6</ele>
</trkpt>
<trkpt lat="34.89338" lon="138.11718">
<ele>142.4</ele>
</trkpt>
<trkpt lat="34.8932" lon="138.11745">
<ele>144.5</ele>
</trkpt>
<trkpt lat="34.89307" lon="138.11765">
<ele>146.9</ele>
</trkpt>
<trkpt lat="34.89285" lon="138.11795">
<ele>146.9</ele>
</trkpt>
<trkpt lat="34.89265" lon="138.1182">
<ele>142.6</ele>
</trkpt>
<trkpt lat="34.8926" lon="138.11826">
<ele>141.0</ele>
</trkpt>
<trkpt lat="34.8925" lon="138.1184">
<ele>139.0</ele>
</trkpt>
<trkpt lat="34.89233" lon="138.11861">
<ele>143.2</ele>
</trkpt>
<trkpt lat="34.89216" lon="138.11882">
<ele>145.6</ele>
</trkpt>
<trkpt lat="34.89213" lon="138.11885">
<ele>145.6</ele>
</trkpt>
<trkpt lat="34.89207" lon="138.11892">
<ele>145.7</ele>
</trkpt>
<trkpt lat="34.89202" lon="138.11896">
<ele>145.1</ele>
</trkpt>
<trkpt lat="34.89197" lon="138.119">
<ele>144.4</ele>
</trkpt>
<trkpt lat="34.89191" lon="138.11904">
<ele>143.1</ele>
</trkpt>
<trkpt lat="34.89184" lon="138.11907">
<ele>141.1</ele>
</trkpt>
<trkpt lat="34.89182" lon="138.11908">
<ele>140.5</ele>
</trkpt>
<trkpt lat="34.89178" lon="138.11909">
<ele>139.1</ele>
</trkpt>
<trkpt lat="34.89169" lon="138.11912">
<ele>136.0</ele>
</trkpt>
<trkpt lat="34.8916" lon="138.11914">
<ele>135.1</ele>
</trkpt>
<trkpt lat="34.89155" lon="138.11914">
<ele>134.9</ele>
</trkpt>
<trkpt lat="34.89143" lon="138.11916">
<ele>134.7</ele>
</trkpt>
<trkpt lat="34.89116" lon="138.11918">
<ele>133.9</ele>
</trkpt>
<trkpt lat="34.89098" lon="138.1192">
<ele>133.4</ele>
</trkpt>
<trkpt lat="34.89084" lon="138.11921">
<ele>132.9</ele>
</trkpt>
<trkpt lat="34.89058" lon="138.11924">
<ele>132.4</ele>
</trkpt>
<trkpt lat="34.89045" lon="138.11925">
<ele>132.1</ele>
</trkpt>
<trkpt lat="34.89018" lon="138.11927">
<ele>131.4</ele>
</trkpt>
<trkpt lat="34.8901" lon="138.11928">
<ele>131.3</ele>
</trkpt>
<trkpt lat="34.88999" lon="138.11929">
<ele>131.0</ele>
</trkpt>
<trkpt lat="34.88997" lon="138.11929">
<ele>131.0</ele>
</trkpt>
<trkpt lat="34.88993" lon="138.11929">
<ele>130.8</ele>
</trkpt>
<trkpt lat="34.88987" lon="138.1193">
<ele>130.8</ele>
</trkpt>
<trkpt lat="34.88976" lon="138.11929">
<ele>130.2</ele>
</trkpt>
<trkpt lat="34.88966" lon="138.11928">
<ele>129.7</ele>
</trkpt>
<trkpt lat="34.88958" lon="138.11928">
<ele>129.4</ele>
</trkpt>
<trkpt lat="34.88951" lon="138.11927">
<ele>129.0</ele>
</trkpt>
<trkpt lat="34.88946" lon="138.11926">
<ele>128.6</ele>
</trkpt>
<trkpt lat="34.8894" lon="138.11925">
<ele>128.2</ele>
</trkpt>
<trkpt lat="34.88926" lon="138.11923">
<ele>127.4</ele>
</trkpt>
<trkpt lat="34.88918" lon="138.11921">
<ele>126.8</ele>
</trkpt>
<trkpt lat="34.88907" lon="138.11918">
<ele>126.2</ele>
</trkpt>
<trkpt lat="34.88903" lon="138.11917">
<ele>126.1</ele>
</trkpt>
<trkpt lat="34.88884" lon="138.11913">
<ele>125.5</ele>
</trkpt>
<trkpt lat="34.88867" lon="138.1191">
<ele>125.1</ele>
</trkpt>
<trkpt lat="34.88858" lon="138.11908">
<ele>124.8</ele>
</trkpt>
<trkpt lat="34.88807" lon="138.11898">
<ele>124.5</ele>
</trkpt>
<trkpt lat="34.888" lon="138.11896">
<ele>124.5</ele>
</trkpt>
<trkpt lat="34.88778" lon="138.11892">
<ele>124.7</ele>
</trkpt>
<trkpt lat="34.88751" lon="138.11887">
<ele>125.0</ele>
</trkpt>
<trkpt lat="34.88724" lon="138.11881">
<ele>130.6</ele>
</trkpt>
<trkpt lat="34.88706" lon="138.11876">
<ele>134.0</ele>
</trkpt>
<trkpt lat="34.88698" lon="138.11873">
<ele>135.3</ele>
</trkpt>
<trkpt lat="34.88694" lon="138.11872">
<ele>136.0</ele>
</trkpt>
<trkpt lat="34.8869" lon="138.1187">
<ele>136.5</ele>
</trkpt>
<trkpt lat="34.88683" lon="138.11866">
<ele>137.2</ele>
</trkpt>
<trkpt lat="34.88678" lon="138.11862">
<ele>137.4</ele>
</trkpt>
<trkpt lat="34.88671" lon="138.11855">
<ele>137.3</ele>
</trkpt>
<trkpt lat="34.88666" lon="138.11849">
<ele>137.0</ele>
</trkpt>
<trkpt lat="34.88658" lon="138.11839">
<ele>138.2</ele>
</trkpt>
<trkpt lat="34.88653" lon="138.11833">
<ele>139.0</ele>
</trkpt>
<trkpt lat="34.88647" lon="138.11821">
<ele>139.3</ele>
</trkpt>
<trkpt lat="34.88642" lon="138.11811">
<ele>139.4</ele>
</trkpt>
<trkpt lat="34.88637" lon="138.11799">
<ele>139.0</ele>
</trkpt>
<trkpt lat="34.88635" lon="138.11794">
<ele>138.7</ele>
</trkpt>
<trkpt lat="34.88629" lon="138.1178">
<ele>138.1</ele>
</trkpt>
<trkpt lat="34.88627" lon="138.11774">
<ele>137.6</ele>
</trkpt>
<trkpt lat="34.88622" lon="138.11762">
<ele>136.8</ele>
</trkpt>
<trkpt lat="34.88619" lon="138.11754">
<ele>136.1</ele>
</trkpt>
<trkpt lat="34.88618" lon="138.1175">
<ele>135.5</ele>
</trkpt>
<trkpt lat="34.88615" lon="138.1174">
<ele>135.7</ele>
</trkpt>
<trkpt lat="34.88614" lon="138.11733">
<ele>135.4</ele>
</trkpt>
<trkpt lat="34.88613" lon="138.11731">
<ele>135.5</ele>
</trkpt>
<trkpt lat="34.88612" lon="138.11723">
<ele>135.1</ele>
</trkpt>
<trkpt lat="34.88611" lon="138.11713">
<ele>134.5</ele>
</trkpt>
<trkpt lat="34.8861" lon="138.11703">
<ele>133.8</ele>
</trkpt>
<trkpt lat="34.88609" lon="138.1169">
<ele>132.9</ele>
</trkpt>
<trkpt lat="34.88609" lon="138.11688">
<ele>132.7</ele>
</trkpt>
<trkpt lat="34.88608" lon="138.11668">
<ele>131.0</ele>
</trkpt>
<trkpt lat="34.88607" lon="138.11649">
<ele>128.7</ele>
</trkpt>
<trkpt lat="34.88606" lon="138.11638">
<ele>127.5</ele>
</trkpt>
<trkpt lat="34.88605" lon="138.11629">
<ele>126.5</ele>
</trkpt>
<trkpt lat="34.88605" lon="138.11624">
<ele>125.8</ele>
</trkpt>
<trkpt lat="34.88604" lon="138.1162">
<ele>125.5</ele>
</trkpt>
<trkpt lat="34.88602" lon="138.11613">
<ele>125.0</ele>
</trkpt>
<trkpt lat="34.886" lon="138.11604">
<ele>124.2</ele>
</trkpt>
<trkpt lat="34.88596" lon="138.11593">
<ele>123.5</ele>
</trkpt>
<trkpt lat="34.88591" lon="138.11584">
<ele>123.3</ele>
</trkpt>
<trkpt lat="34.88587" lon="138.11579">
<ele>123.5</ele>
</trkpt>
<trkpt lat="34.8858" lon="138.11571">
<ele>123.9</ele>
</trkpt>
<trkpt lat="34.88574" lon="138.11565">
<ele>124.5</ele>
</trkpt>
<trkpt lat="34.88566" lon="138.11559">
<ele>125.7</ele>
</trkpt>
<trkpt lat="34.88559" lon="138.11554">
<ele>126.6</ele>
</trkpt>
<trkpt lat="34.88544" lon="138.11546">
<ele>129.0</ele>
</trkpt>
<trkpt lat="34.8853" lon="138.11539">
<ele>131.2</ele>
</trkpt>
<trkpt lat="34.88506" lon="138.11526">
<ele>134.1</ele>
</trkpt>
<trkpt lat="34.88497" lon="138.11521">
<ele>135.5</ele>
</trkpt>
<trkpt lat="34.88495" lon="138.11519">
<ele>135.8</ele>
</trkpt>
<trkpt lat="34.88488" lon="138.11515">
<ele>137.5</ele>
</trkpt>
<trkpt lat="34.88482" lon="138.11511">
<ele>138.7</ele>
</trkpt>
<trkpt lat="34.88482" lon="138.1151">
<ele>138.4</ele>
</trkpt>
<trkpt lat="34.88477" lon="138.11506">
<ele>139.2</ele>
</trkpt>
<trkpt lat="34.88468" lon="138.11498">
<ele>140.4</ele>
</trkpt>
<trkpt lat="34.88462" lon="138.11491">
<ele>140.9</ele>
</trkpt>
<trkpt lat="34.88451" lon="138.11477">
<ele>141.1</ele>
</trkpt>
<trkpt lat="34.88442" lon="138.11466">
<ele>141.1</ele>
</trkpt>
<trkpt lat="34.88438" lon="138.11462">
<ele>141.3</ele>
</trkpt>
<trkpt lat="34.88423" lon="138.11444">
<ele>140.6</ele>
</trkpt>
<trkpt lat="34.88409" lon="138.11429">
<ele>142.5</ele>
</trkpt>
<trkpt lat="34.88402" lon="138.11421">
<ele>144.2</ele>
</trkpt>
<trkpt lat="34.88396" lon="138.11414">
<ele>145.9</ele>
</trkpt>
<trkpt lat="34.8839" lon="138.11405">
<ele>147.9</ele>
</trkpt>
<trkpt lat="34.88388" lon="138.11402">
<ele>148.5</ele>
</trkpt>
<trkpt lat="34.88385" lon="138.11397">
<ele>149.3</ele>
</trkpt>
<trkpt lat="34.88382" lon="138.1139">
<ele>149.8</ele>
</trkpt>
<trkpt lat="34.88378" lon="138.11383">
<ele>150.8</ele>
</trkpt>
<trkpt lat="34.88374" lon="138.11372">
<ele>151.0</ele>
</trkpt>
<trkpt lat="34.88373" lon="138.11367">
<ele>150.6</ele>
</trkpt>
<trkpt lat="34.88371" lon="138.1136">
<ele>150.4</ele>
</trkpt>
<trkpt lat="34.88368" lon="138.11342">
<ele>148.6</ele>
</trkpt>
<trkpt lat="34.88366" lon="138.11329">
<ele>147.7</ele>
</trkpt>
<trkpt lat="34.88365" lon="138.11324">
<ele>147.9</ele>
</trkpt>
<trkpt lat="34.88363" lon="138.1131">
<ele>148.1</ele>
</trkpt>
<trkpt lat="34.8836" lon="138.11281">
<ele>148.2</ele>
</trkpt>
<trkpt lat="34.8836" lon="138.11267">
<ele>147.4</ele>
</trkpt>
<trkpt lat="34.8836" lon="138.11253">
<ele>146.6</ele>
</trkpt>
<trkpt lat="34.8836" lon="138.11252">
<ele>146.5</ele>
</trkpt>
<trkpt lat="34.8836" lon="138.11239">
<ele>144.8</ele>
</trkpt>
<trkpt lat="34.8836" lon="138.11231">
<ele>143.7</ele>
</trkpt>
<trkpt lat="34.8836" lon="138.11225">
<ele>142.8</ele>
</trkpt>
<trkpt lat="34.8836" lon="138.11209">
<ele>140.4</ele>
</trkpt>
<trkpt lat="34.88361" lon="138.11194">
<ele>137.7</ele>
</trkpt>
<trkpt lat="34.88361" lon="138.11186">
<ele>136.5</ele>
</trkpt>
<trkpt lat="34.8836" lon="138.11178">
<ele>135.9</ele>
</trkpt>
<trkpt lat="34.88359" lon="138.11171">
<ele>135.5</ele>
</trkpt>
<trkpt lat="34.88359" lon="138.1117">
<ele>135.3</ele>
</trkpt>
<trkpt lat="34.88356" lon="138.11161">
<ele>135.7</ele>
</trkpt>
<trkpt lat="34.88353" lon="138.11151">
<ele>135.9</ele>
</trkpt>
<trkpt lat="34.88353" lon="138.1115">
<ele>135.8</ele>
</trkpt>
<trkpt lat="34.88348" lon="138.11136">
<ele>136.3</ele>
</trkpt>
<trkpt lat="34.88342" lon="138.11121">
<ele>136.8</ele>
</trkpt>
<trkpt lat="34.88339" lon="138.11111">
<ele>136.5</ele>
</trkpt>
<trkpt lat="34.88335" lon="138.11101">
<ele>136.5</ele>
</trkpt>
<trkpt lat="34.88328" lon="138.1108">
<ele>135.8</ele>
</trkpt>
<trkpt lat="34.88325" lon="138.11069">
<ele>135.3</ele>
</trkpt>
<trkpt lat="34.8832" lon="138.11049">
<ele>134.0</ele>
</trkpt>
<trkpt lat="34.88318" lon="138.11038">
<ele>132.9</ele>
</trkpt>
<trkpt lat="34.88296" lon="138.10946">
<ele>128.1</ele>
</trkpt>
<trkpt lat="34.88287" lon="138.10902">
<ele>125.8</ele>
</trkpt>
<trkpt lat="34.88282" lon="138.10882">
<ele>124.0</ele>
</trkpt>
<trkpt lat="34.88281" lon="138.10877">
<ele>123.3</ele>
</trkpt>
<trkpt lat="34.8828" lon="138.10872">
<ele>122.7</ele>
</trkpt>
<trkpt lat="34.88279" lon="138.10867">
<ele>122.0</ele>
</trkpt>
<trkpt lat="34.88277" lon="138.10863">
<ele>121.8</ele>
</trkpt>
<trkpt lat="34.88276" lon="138.1086">
<ele>121.5</ele>
</trkpt>
<trkpt lat="34.88274" lon="138.10857">
<ele>121.5</ele>
</trkpt>
<trkpt lat="34.88273" lon="138.10854">
<ele>121.1</ele>
</trkpt>
<trkpt lat="34.88271" lon="138.10851">
<ele>121.0</ele>
</trkpt>
<trkpt lat="34.88268" lon="138.10848">
<ele>121.2</ele>
</trkpt>
<trkpt lat="34.88266" lon="138.10847">
<ele>121.5</ele>
</trkpt>
<trkpt lat="34.8826" lon="138.10842">
<ele>121.8</ele>
</trkpt>
<trkpt lat="34.8825" lon="138.10836">
<ele>122.7</ele>
</trkpt>
<trkpt lat="34.8824" lon="138.10829">
<ele>123.8</ele>
</trkpt>
<trkpt lat="34.88227" lon="138.1082">
<ele>125.0</ele>
</trkpt>
<trkpt lat="34.88221" lon="138.10816">
<ele>125.5</ele>
</trkpt>
<trkpt lat="34.88213" lon="138.10809">
<ele>125.7</ele>
</trkpt>
<trkpt lat="34.88199" lon="138.10795">
<ele>125.0</ele>
</trkpt>
<trkpt lat="34.88171" lon="138.10766">
<ele>121.6</ele>
</trkpt>
<trkpt lat="34.88169" lon="138.10764">
<ele>121.3</ele>
</trkpt>
<trkpt lat="34.88167" lon="138.10762">
<ele>121.0</ele>
</trkpt>
<trkpt lat="34.88165" lon="138.1076">
<ele>120.8</ele>
</trkpt>
<trkpt lat="34.8816" lon="138.10756">
<ele>121.0</ele>
</trkpt>
<trkpt lat="34.88145" lon="138.10743">
<ele>122.3</ele>
</trkpt>
<trkpt lat="34.88139" lon="138.10738">
<ele>123.0</ele>
</trkpt>
<trkpt lat="34.88134" lon="138.10734">
<ele>123.5</ele>
</trkpt>
<trkpt lat="34.88133" lon="138.10733">
<ele>123.5</ele>
</trkpt>
<trkpt lat="34.88133" lon="138.10733">
<ele>123.5</ele>
</trkpt>
<trkpt lat="34.8813" lon="138.10731">
<ele>123.9</ele>
</trkpt>
<trkpt lat="34.88125" lon="138.10727">
<ele>124.2</ele>
</trkpt>
<trkpt lat="34.88119" lon="138.10724">
<ele>125.0</ele>
</trkpt>
<trkpt lat="34.88116" lon="138.10722">
<ele>125.2</ele>
</trkpt>
<trkpt lat="34.88114" lon="138.10721">
<ele>125.4</ele>
</trkpt>
<trkpt lat="34.88113" lon="138.1072">
<ele>125.4</ele>
</trkpt>
<trkpt lat="34.88109" lon="138.10717">
<ele>125.5</ele>
</trkpt>
<trkpt lat="34.88105" lon="138.10715">
<ele>125.8</ele>
</trkpt>
<trkpt lat="34.88099" lon="138.10709">
<ele>125.3</ele>
</trkpt>
<trkpt lat="34.88086" lon="138.10696">
<ele>123.7</ele>
</trkpt>
<trkpt lat="34.88083" lon="138.10692">
<ele>122.9</ele>
</trkpt>
<trkpt lat="34.8808" lon="138.10687">
<ele>121.5</ele>
</trkpt>
<trkpt lat="34.88076" lon="138.10679">
<ele>119.3</ele>
</trkpt>
<trkpt lat="34.88075" lon="138.10677">
<ele>118.8</ele>
</trkpt>
<trkpt lat="34.88072" lon="138.1067">
<ele>116.9</ele>
</trkpt>
<trkpt lat="34.88064" lon="138.10647">
<ele>113.7</ele>
</trkpt>
<trkpt lat="34.88062" lon="138.1064">
<ele>112.8</ele>
</trkpt>
<trkpt lat="34.88058" lon="138.10633">
<ele>112.1</ele>
</trkpt>
<trkpt lat="34.88055" lon="138.10628">
<ele>111.6</ele>
</trkpt>
<trkpt lat="34.88054" lon="138.10626">
<ele>111.3</ele>
</trkpt>
<trkpt lat="34.8805" lon="138.1062">
<ele>110.7</ele>
</trkpt>
<trkpt lat="34.88032" lon="138.10596">
<ele>107.7</ele>
</trkpt>
<trkpt lat="34.88021" lon="138.10583">
<ele>105.7</ele>
</trkpt>
<trkpt lat="34.88017" lon="138.1058">
<ele>105.7</ele>
</trkpt>
<trkpt lat="34.88013" lon="138.10577">
<ele>105.7</ele>
</trkpt>
<trkpt lat="34.8801" lon="138.10575">
<ele>105.7</ele>
</trkpt>
<trkpt lat="34.88" lon="138.10569">
<ele>105.8</ele>
</trkpt>
<trkpt lat="34.87992" lon="138.10565">
<ele>105.3</ele>
</trkpt>
<trkpt lat="34.87989" lon="138.10564">
<ele>105.1</ele>
</trkpt>
<trkpt lat="34.87983" lon="138.10563">
<ele>104.9</ele>
</trkpt>
<trkpt lat="34.8798" lon="138.10563">
<ele>104.9</ele>
</trkpt>
<trkpt lat="34.87976" lon="138.10563">
<ele>104.8</ele>
</trkpt>
<trkpt lat="34.87971" lon="138.10563">
<ele>104.7</ele>
</trkpt>
<trkpt lat="34.8796" lon="138.10565">
<ele>104.5</ele>
</trkpt>
<trkpt lat="34.87948" lon="138.10568">
<ele>104.4</ele>
</trkpt>
<trkpt lat="34.87942" lon="138.10569">
<ele>104.3</ele>
</trkpt>
<trkpt lat="34.87896" lon="138.10583">
<ele>103.0</ele>
</trkpt>
<trkpt lat="34.87888" lon="138.10585">
<ele>102.8</ele>
</trkpt>
<trkpt lat="34.87864" lon="138.10592">
<ele>102.0</ele>
</trkpt>
<trkpt lat="34.87844" lon="138.10598">
<ele>101.3</ele>
</trkpt>
<trkpt lat="34.87821" lon="138.10605">
<ele>100.9</ele>
</trkpt>
<trkpt lat="34.87805" lon="138.10609">
<ele>100.9</ele>
</trkpt>
<trkpt lat="34.87768" lon="138.10615">
<ele>100.6</ele>
</trkpt>
<trkpt lat="34.87757" lon="138.10617">
<ele>100.5</ele>
</trkpt>
<trkpt lat="34.87744" lon="138.10619">
<ele>100.4</ele>
</trkpt>
<trkpt lat="34.87737" lon="138.10621">
<ele>100.3</ele>
</trkpt>
<trkpt lat="34.87733" lon="138.10622">
<ele>100.3</ele>
</trkpt>
<trkpt lat="34.87728" lon="138.10624">
<ele>100.2</ele>
</trkpt>
<trkpt lat="34.87724" lon="138.10625">
<ele>100.2</ele>
</trkpt>
<trkpt lat="34.87721" lon="138.10627">
<ele>100.2</ele>
</trkpt>
<trkpt lat="34.87706" lon="138.10634">
<ele>100.1</ele>
</trkpt>
<trkpt lat="34.87699" lon="138.10638">
<ele>100.0</ele>
</trkpt>
<trkpt lat="34.87695" lon="138.10641">
<ele>100.0</ele>
</trkpt>
<trkpt lat="34.87682" lon="138.1065">
<ele>100.0</ele>
</trkpt>
<trkpt lat="34.87663" lon="138.10665">
<ele>100.0</ele>
</trkpt>
<trkpt lat="34.8765" lon="138.10677">
<ele>100.3</ele>
</trkpt>
<trkpt lat="34.87616" lon="138.10705">
<ele>100.5</ele>
</trkpt>
<trkpt lat="34.87612" lon="138.10708">
<ele>100.5</ele>
</trkpt>
<trkpt lat="34.87589" lon="138.10726">
<ele>100.3</ele>
</trkpt>
<trkpt lat="34.87577" lon="138.10736">
<ele>100.0</ele>
</trkpt>
<trkpt lat="34.87571" lon="138.10742">
<ele>99.8</ele>
</trkpt>
<trkpt lat="34.87563" lon="138.10751">
<ele>99.5</ele>
</trkpt>
<trkpt lat="34.87556" lon="138.1076">
<ele>99.2</ele>
</trkpt>
<trkpt lat="34.87555" lon="138.10761">
<ele>99.2</ele>
</trkpt>
<trkpt lat="34.87547" lon="138.10772">
<ele>98.9</ele>
</trkpt>
<trkpt lat="34.8754" lon="138.10784">
<ele>98.6</ele>
</trkpt>
<trkpt lat="34.87534" lon="138.10797">
<ele>98.3</ele>
</trkpt>
<trkpt lat="34.87527" lon="138.10811">
<ele>97.9</ele>
</trkpt>
<trkpt lat="34.87523" lon="138.10821">
<ele>97.7</ele>
</trkpt>
<trkpt lat="34.87521" lon="138.10827">
<ele>97.6</ele>
</trkpt>
<trkpt lat="34.87519" lon="138.10833">
<ele>97.5</ele>
</trkpt>
<trkpt lat="34.87514" lon="138.10845">
<ele>97.9</ele>
</trkpt>
<trkpt lat="34.87506" lon="138.10864">
<ele>98.4</ele>
</trkpt>
<trkpt lat="34.87498" lon="138.10882">
<ele>98.7</ele>
</trkpt>
<trkpt lat="34.87479" lon="138.10928">
<ele>99.7</ele>
</trkpt>
<trkpt lat="34.87464" lon="138.1096">
<ele>100.3</ele>
</trkpt>
<trkpt lat="34.8746" lon="138.10966">
<ele>100.3</ele>
</trkpt>
<trkpt lat="34.87445" lon="138.10999">
<ele>101.0</ele>
</trkpt>
<trkpt lat="34.87428" lon="138.11033">
<ele>100.2</ele>
</trkpt>
<trkpt lat="34.87417" lon="138.11054">
<ele>99.4</ele>
</trkpt>
<trkpt lat="34.87411" lon="138.11066">
<ele>99.0</ele>
</trkpt>
<trkpt lat="34.87399" lon="138.11089">
<ele>98.6</ele>
</trkpt>
<trkpt lat="34.8737" lon="138.11148">
<ele>98.2</ele>
</trkpt>
<trkpt lat="34.8735" lon="138.11189">
<ele>97.5</ele>
</trkpt>
<trkpt lat="34.87348" lon="138.11194">
<ele>97.4</ele>
</trkpt>
<trkpt lat="34.87334" lon="138.11224">
<ele>96.4</ele>
</trkpt>
<trkpt lat="34.87324" lon="138.11247">
<ele>96.0</ele>
</trkpt>
<trkpt lat="34.8731" lon="138.11277">
<ele>96.9</ele>
</trkpt>
<trkpt lat="34.87308" lon="138.11281">
<ele>97.0</ele>
</trkpt>
<trkpt lat="34.87303" lon="138.11291">
<ele>97.3</ele>
</trkpt>
<trkpt lat="34.87299" lon="138.11298">
<ele>97.4</ele>
</trkpt>
<trkpt lat="34.87288" lon="138.11322">
<ele>97.6</ele>
</trkpt>
<trkpt lat="34.87284" lon="138.11329">
<ele>97.5</ele>
</trkpt>
<trkpt lat="34.87268" lon="138.11363">
<ele>97.1</ele>
</trkpt>
<trkpt lat="34.87267" lon="138.11365">
<ele>97.0</ele>
</trkpt>
<trkpt lat="34.87258" lon="138.11383">
<ele>96.6</ele>
</trkpt>
<trkpt lat="34.87251" lon="138.11398">
<ele>96.1</ele>
</trkpt>
<trkpt lat="34.87238" lon="138.11425">
<ele>95.9</ele>
</trkpt>
<trkpt lat="34.87221" lon="138.11459">
<ele>95.8</ele>
</trkpt>
<trkpt lat="34.87213" lon="138.11477">
<ele>95.9</ele>
</trkpt>
<trkpt lat="34.87213" lon="138.11477">
<ele>95.9</ele>
</trkpt>
<trkpt lat="34.87211" lon="138.11481">
<ele>95.9</ele>
</trkpt>
<trkpt lat="34.87204" lon="138.11495">
<ele>96.0</ele>
</trkpt>
<trkpt lat="34.87203" lon="138.11497">
<ele>96.0</ele>
</trkpt>
<trkpt lat="34.87191" lon="138.11522">
<ele>96.1</ele>
</trkpt>
<trkpt lat="34.8716" lon="138.11583">
<ele>94.8</ele>
</trkpt>
<trkpt lat="34.87155" lon="138.11594">
<ele>95.1</ele>
</trkpt>
<trkpt lat="34.87134" lon="138.11637">
<ele>95.6</ele>
</trkpt>
<trkpt lat="34.87133" lon="138.11641">
<ele>95.7</ele>
</trkpt>
<trkpt lat="34.87128" lon="138.1165">
<ele>95.7</ele>
</trkpt>
<trkpt lat="34.87123" lon="138.11661">
<ele>95.8</ele>
</trkpt>
<trkpt lat="34.87118" lon="138.11672">
<ele>96.5</ele>
</trkpt>
<trkpt lat="34.87114" lon="138.11679">
<ele>97.2</ele>
</trkpt>
<trkpt lat="34.87113" lon="138.1168">
<ele>97.3</ele>
</trkpt>
<trkpt lat="34.87108" lon="138.11689">
<ele>98.1</ele>
</trkpt>
<trkpt lat="34.87097" lon="138.11706">
<ele>99.0</ele>
</trkpt>
<trkpt lat="34.87092" lon="138.11714">
<ele>99.2</ele>
</trkpt>
<trkpt lat="34.87072" lon="138.11744">
<ele>99.4</ele>
</trkpt>
<trkpt lat="34.87035" lon="138.11798">
<ele>97.6</ele>
</trkpt>
<trkpt lat="34.87006" lon="138.1184">
<ele>94.4</ele>
</trkpt>
<trkpt lat="34.86989" lon="138.11865">
<ele>94.2</ele>
</trkpt>
<trkpt lat="34.86979" lon="138.11882">
<ele>94.5</ele>
</trkpt>
<trkpt lat="34.86975" lon="138.11889">
<ele>94.6</ele>
</trkpt>
<trkpt lat="34.86971" lon="138.11897">
<ele>94.6</ele>
</trkpt>
<trkpt lat="34.86963" lon="138.11913">
<ele>94.7</ele>
</trkpt>
<trkpt lat="34.86924" lon="138.11996">
<ele>94.0</ele>
</trkpt>
<trkpt lat="34.8692" lon="138.12004">
<ele>93.7</ele>
</trkpt>
<trkpt lat="34.86917" lon="138.1201">
<ele>93.5</ele>
</trkpt>
<trkpt lat="34.86917" lon="138.1201">
<ele>93.5</ele>
</trkpt>
<trkpt lat="34.86913" lon="138.12007">
<ele>93.2</ele>
</trkpt>
<trkpt lat="34.86904" lon="138.12">
<ele>92.7</ele>
</trkpt>
<trkpt lat="34.86892" lon="138.11992">
<ele>92.4</ele>
</trkpt>
<trkpt lat="34.8688" lon="138.11983">
<ele>92.1</ele>
</trkpt>
<trkpt lat="34.86866" lon="138.11971">
<ele>91.9</ele>
</trkpt>
<trkpt lat="34.86847" lon="138.11955">
<ele>91.7</ele>
</trkpt>
<trkpt lat="34.86807" lon="138.11923">
<ele>91.6</ele>
</trkpt>
<trkpt lat="34.86788" lon="138.11907">
<ele>91.3</ele>
</trkpt>
<trkpt lat="34.86758" lon="138.11883">
<ele>90.7</ele>
</trkpt>
<trkpt lat="34.86699" lon="138.11835">
<ele>90.8</ele>
</trkpt>
<trkpt lat="34.86699" lon="138.11835">
<ele>90.8</ele>
</trkpt>
<trkpt lat="34.86699" lon="138.11836">
<ele>90.8</ele>
</trkpt>
<trkpt lat="34.86699" lon="138.11836">
<ele>90.8</ele>
</trkpt>
<trkpt lat="34.86688" lon="138.11827">
<ele>90.8</ele>
</trkpt>
<trkpt lat="34.86685" lon="138.11824">
<ele>90.8</ele>
</trkpt>
<trkpt lat="34.86672" lon="138.1181">
<ele>90.8</ele>
</trkpt>
<trkpt lat="34.8667" lon="138.11809">
<ele>90.8</ele>
</trkpt>
<trkpt lat="34.86654" lon="138.11792">
<ele>90.8</ele>
</trkpt>
<trkpt lat="34.86643" lon="138.11781">
<ele>90.9</ele>
</trkpt>
<trkpt lat="34.8664" lon="138.11777">
<ele>90.9</ele>
</trkpt>
<trkpt lat="34.86636" lon="138.11773">
<ele>90.9</ele>
</trkpt>
<trkpt lat="34.86633" lon="138.1177">
<ele>90.9</ele>
</trkpt>
<trkpt lat="34.8663" lon="138.11768">
<ele>90.9</ele>
</trkpt>
<trkpt lat="34.86629" lon="138.11767">
<ele>90.9</ele>
</trkpt>
<trkpt lat="34.86629" lon="138.11766">
<ele>90.9</ele>
</trkpt>
<trkpt lat="34.86625" lon="138.11763">
<ele>90.9</ele>
</trkpt>
<trkpt lat="34.86617" lon="138.11757">
<ele>90.9</ele>
</trkpt>
<trkpt lat="34.86616" lon="138.11756">
<ele>90.9</ele>
</trkpt>
<trkpt lat="34.86615" lon="138.11756">
<ele>90.9</ele>
</trkpt>
<trkpt lat="34.86613" lon="138.11754">
<ele>90.9</ele>
</trkpt>
<trkpt lat="34.8661" lon="138.11752">
<ele>90.9</ele>
</trkpt>
<trkpt lat="34.86606" lon="138.1175">
<ele>90.9</ele>
</trkpt>
<trkpt lat="34.86605" lon="138.11749">
<ele>90.9</ele>
</trkpt>
<trkpt lat="34.86603" lon="138.11748">
<ele>91.0</ele>
</trkpt>
<trkpt lat="34.8659" lon="138.11739">
<ele>91.1</ele>
</trkpt>
<trkpt lat="34.86587" lon="138.11737">
<ele>91.1</ele>
</trkpt>
<trkpt lat="34.86585" lon="138.11736">
<ele>91.1</ele>
</trkpt>
<trkpt lat="34.86575" lon="138.11728">
<ele>91.2</ele>
</trkpt>
<trkpt lat="34.86559" lon="138.11717">
<ele>91.4</ele>
</trkpt>
<trkpt lat="34.86551" lon="138.11711">
<ele>91.5</ele>
</trkpt>
<trkpt lat="34.86544" lon="138.11706">
<ele>91.5</ele>
</trkpt>
<trkpt lat="34.86528" lon="138.11696">
<ele>91.7</ele>
</trkpt>
<trkpt lat="34.86497" lon="138.11674">
<ele>92.0</ele>
</trkpt>
<trkpt lat="34.86487" lon="138.11667">
<ele>92.1</ele>
</trkpt>
<trkpt lat="34.86481" lon="138.11663">
<ele>92.1</ele>
</trkpt>
<trkpt lat="34.86466" lon="138.11652">
<ele>92.3</ele>
</trkpt>
<trkpt lat="34.8643" lon="138.11627">
<ele>92.6</ele>
</trkpt>
<trkpt lat="34.86419" lon="138.1162">
<ele>92.7</ele>
</trkpt>
<trkpt lat="34.86411" lon="138.11615">
<ele>92.8</ele>
</trkpt>
<trkpt lat="34.86403" lon="138.11609">
<ele>92.9</ele>
</trkpt>
<trkpt lat="34.86393" lon="138.11602">
<ele>93.0</ele>
</trkpt>
<trkpt lat="34.86387" lon="138.11599">
<ele>93.0</ele>
</trkpt>
<trkpt lat="34.86376" lon="138.11591">
<ele>93.1</ele>
</trkpt>
<trkpt lat="34.86372" lon="138.11588">
<ele>93.2</ele>
</trkpt>
<trkpt lat="34.86351" lon="138.11574">
<ele>93.4</ele>
</trkpt>
<trkpt lat="34.86324" lon="138.11556">
<ele>93.6</ele>
</trkpt>
<trkpt lat="34.86313" lon="138.11548">
<ele>93.7</ele>
</trkpt>
<trkpt lat="34.86309" lon="138.11545">
<ele>93.8</ele>
</trkpt>
<trkpt lat="34.86262" lon="138.11513">
<ele>94.2</ele>
</trkpt>
<trkpt lat="34.86249" lon="138.11505">
<ele>94.3</ele>
</trkpt>
<trkpt lat="34.86246" lon="138.11502">
<ele>94.3</ele>
</trkpt>
<trkpt lat="34.8623" lon="138.11492">
<ele>94.5</ele>
</trkpt>
<trkpt lat="34.86214" lon="138.1148">
<ele>94.7</ele>
</trkpt>
<trkpt lat="34.86199" lon="138.1147">
<ele>94.8</ele>
</trkpt>
<trkpt lat="34.86187" lon="138.11462">
<ele>94.9</ele>
</trkpt>
<trkpt lat="34.86167" lon="138.11449">
<ele>95.1</ele>
</trkpt>
<trkpt lat="34.86151" lon="138.11439">
<ele>95.2</ele>
</trkpt>
<trkpt lat="34.86122" lon="138.1142">
<ele>95.5</ele>
</trkpt>
<trkpt lat="34.86104" lon="138.11409">
<ele>95.7</ele>
</trkpt>
<trkpt lat="34.86102" lon="138.11408">
<ele>95.7</ele>
</trkpt>
<trkpt lat="34.86095" lon="138.11403">
<ele>96.1</ele>
</trkpt>
<trkpt lat="34.86086" lon="138.11398">
<ele>96.7</ele>
</trkpt>
<trkpt lat="34.86078" lon="138.11393">
<ele>97.1</ele>
</trkpt>
<trkpt lat="34.8607" lon="138.11388">
<ele>97.6</ele>
</trkpt>
<trkpt lat="34.8605" lon="138.11375">
<ele>98.8</ele>
</trkpt>
<trkpt lat="34.859858" lon="138.113393">
<ele>102.6</ele>
</trkpt>
<trkpt lat="34.859453" lon="138.113114">
<ele>108.6</ele>
</trkpt>
<trkpt lat="34.85942" lon="138.11312">
<ele>108.7</ele>
</trkpt>
<trkpt lat="34.85915" lon="138.11329">
<ele>107.9</ele>
</trkpt>
<trkpt lat="34.859" lon="138.11339">
<ele>108.4</ele>
</trkpt>
<trkpt lat="34.85885" lon="138.11348">
<ele>108.9</ele>
</trkpt>
<trkpt lat="34.85863" lon="138.11363">
<ele>109.3</ele>
</trkpt>
<trkpt lat="34.85838" lon="138.11379">
<ele>109.8</ele>
</trkpt>
<trkpt lat="34.85815" lon="138.11394">
<ele>106.6</ele>
</trkpt>
<trkpt lat="34.8579" lon="138.1141">
<ele>102.8</ele>
</trkpt>
<trkpt lat="34.85786" lon="138.11412">
<ele>102.4</ele>
</trkpt>
<trkpt lat="34.85774" lon="138.1142">
<ele>101.0</ele>
</trkpt>
<trkpt lat="34.85761" lon="138.11429">
<ele>99.9</ele>
</trkpt>
<trkpt lat="34.85754" lon="138.11433">
<ele>99.4</ele>
</trkpt>
<trkpt lat="34.85741" lon="138.11441">
<ele>99.2</ele>
</trkpt>
<trkpt lat="34.85725" lon="138.11453">
<ele>99.2</ele>
</trkpt>
<trkpt lat="34.8567" lon="138.11489">
<ele>99.4</ele>
</trkpt>
<trkpt lat="34.85666" lon="138.11492">
<ele>99.4</ele>
</trkpt>
<trkpt lat="34.85652" lon="138.11501">
<ele>98.6</ele>
</trkpt>
<trkpt lat="34.85622" lon="138.11522">
<ele>97.2</ele>
</trkpt>
<trkpt lat="34.85609" lon="138.11531">
<ele>96.3</ele>
</trkpt>
<trkpt lat="34.85568" lon="138.1156">
<ele>92.8</ele>
</trkpt>
<trkpt lat="34.85563" lon="138.11565">
<ele>92.4</ele>
</trkpt>
<trkpt lat="34.85557" lon="138.11569">
<ele>91.9</ele>
</trkpt>
<trkpt lat="34.8551" lon="138.11603">
<ele>89.0</ele>
</trkpt>
<trkpt lat="34.85449" lon="138.11648">
<ele>88.1</ele>
</trkpt>
<trkpt lat="34.85446" lon="138.1165">
<ele>88.1</ele>
</trkpt>
<trkpt lat="34.85416" lon="138.11673">
<ele>87.7</ele>
</trkpt>
<trkpt lat="34.85384" lon="138.11696">
<ele>85.9</ele>
</trkpt>
<trkpt lat="34.85324" lon="138.1174">
<ele>84.5</ele>
</trkpt>
<trkpt lat="34.85316" lon="138.11746">
<ele>84.3</ele>
</trkpt>
<trkpt lat="34.85305" lon="138.11754">
<ele>84.0</ele>
</trkpt>
<trkpt lat="34.85296" lon="138.11761">
<ele>83.7</ele>
</trkpt>
<trkpt lat="34.85287" lon="138.11767">
<ele>83.5</ele>
</trkpt>
<trkpt lat="34.85282" lon="138.1177">
<ele>83.4</ele>
</trkpt>
<trkpt lat="34.85275" lon="138.11774">
<ele>83.2</ele>
</trkpt>
<trkpt lat="34.85271" lon="138.11777">
<ele>83.2</ele>
</trkpt>
<trkpt lat="34.85265" lon="138.1178">
<ele>83.1</ele>
</trkpt>
<trkpt lat="34.85258" lon="138.11784">
<ele>83.0</ele>
</trkpt>
<trkpt lat="34.85247" lon="138.1179">
<ele>83.0</ele>
</trkpt>
<trkpt lat="34.85236" lon="138.11796">
<ele>83.4</ele>
</trkpt>
<trkpt lat="34.85233" lon="138.11797">
<ele>83.5</ele>
</trkpt>
<trkpt lat="34.8522" lon="138.11803">
<ele>84.0</ele>
</trkpt>
<trkpt lat="34.85194" lon="138.11814">
<ele>84.9</ele>
</trkpt>
<trkpt lat="34.85188" lon="138.11817">
<ele>85.1</ele>
</trkpt>
<trkpt lat="34.8517" lon="138.11824">
<ele>85.7</ele>
</trkpt>
<trkpt lat="34.85141" lon="138.11836">
<ele>85.7</ele>
</trkpt>
<trkpt lat="34.85121" lon="138.11843">
<ele>85.4</ele>
</trkpt>
<trkpt lat="34.85115" lon="138.11845">
<ele>85.4</ele>
</trkpt>
<trkpt lat="34.85096" lon="138.1185">
<ele>85.3</ele>
</trkpt>
<trkpt lat="34.85073" lon="138.11858">
<ele>85.2</ele>
</trkpt>
<trkpt lat="34.8506" lon="138.11863">
<ele>85.1</ele>
</trkpt>
<trkpt lat="34.85054" lon="138.11865">
<ele>85.0</ele>
</trkpt>
<trkpt lat="34.85054" lon="138.11865">
<ele>85.0</ele>
</trkpt>
<trkpt lat="34.85048" lon="138.11823">
<ele>84.3</ele>
</trkpt>
    </trkseg>
  </trk>
</gpx>