<?xml version="1.0" encoding="UTF-8"?>
<gpx version="1.1"
     creator="KMLtoGPX"
     xmlns="http://www.topografix.com/GPX/1/1">
  <metadata>
    <name>Fuji Ocean View Road</name>
    <desc>富士オーシャンビューロード</desc>
    <bounds minlat="35.123549" minlon="138.6373565" maxlat="35.154791" maxlon="138.751399"/>
  </metadata>
  <trk>
    <name>Fuji Ocean View Road</name>
    <trkseg>
<trkpt lat="35.1425563" lon="138.6632695">
<ele>0.0</ele>
</trkpt>
<trkpt lat="35.1429753" lon="138.6630763">
<ele>0.0</ele>
</trkpt>
<trkpt lat="35.1428766" lon="138.6622395">
<ele>0.0</ele>
</trkpt>
<trkpt lat="35.1440785" lon="138.6624138">
<ele>0.0</ele>
</trkpt>
<trkpt lat="35.1444579" lon="138.646857">
<ele>0.0</ele>
</trkpt>
<trkpt lat="35.1446728" lon="138.6467497">
<ele>0.0</ele>
</trkpt>
<trkpt lat="35.1457914" lon="138.6467498">
<ele>0.0</ele>
</trkpt>
<trkpt lat="35.1445446" lon="138.6437362">
<ele>0.0</ele>
</trkpt>
<trkpt lat="35.1431889" lon="138.6414915">
<ele>0.0</ele>
</trkpt>
<trkpt lat="35.1413243" lon="138.6375304">
<ele>0.0</ele>
</trkpt>
<trkpt lat="35.140881" lon="138.6373565">
<ele>0.0</ele>
</trkpt>
<trkpt lat="35.1403359" lon="138.6376188">
<ele>0.0</ele>
</trkpt>
<trkpt lat="35.1377904" lon="138.6393188">
<ele>0.0</ele>
</trkpt>
<trkpt lat="35.137367" lon="138.638277">
<ele>0.0</ele>
</trkpt>
<trkpt lat="35.136809" lon="138.63862">
<ele>0.0</ele>
</trkpt>
<trkpt lat="35.13638" lon="138.638749">
<ele>0.0</ele>
</trkpt>
<trkpt lat="35.132089" lon="138.642054">
<ele>0.0</ele>
</trkpt>
<trkpt lat="35.1317651" lon="138.6426483">
<ele>0.0</ele>
</trkpt>
<trkpt lat="35.1323898" lon="138.6444001">
<ele>0.0</ele>
</trkpt>
<trkpt lat="35.1327802" lon="138.6459933">
<ele>0.0</ele>
</trkpt>
<trkpt lat="35.1329732" lon="138.6463689">
<ele>0.0</ele>
</trkpt>
<trkpt lat="35.1334076" lon="138.6466478">
<ele>0.0</ele>
</trkpt>
<trkpt lat="35.133469" lon="138.6466049">
<ele>0.0</ele>
</trkpt>
<trkpt lat="35.1324292" lon="138.6442875">
<ele>0.0</ele>
</trkpt>
<trkpt lat="35.1316966" lon="138.6426084">
<ele>0.0</ele>
</trkpt>
<trkpt lat="35.1313775" lon="138.6428552">
<ele>0.0</ele>
</trkpt>
<trkpt lat="35.131016" lon="138.642998">
<ele>0.0</ele>
</trkpt>
<trkpt lat="35.125394" lon="138.647161">
<ele>0.0</ele>
</trkpt>
<trkpt lat="35.123549" lon="138.648705">
<ele>0.0</ele>
</trkpt>
<trkpt lat="35.1315287" lon="138.6672125">
<ele>0.0</ele>
</trkpt>
<trkpt lat="35.1305247" lon="138.6681097">
<ele>0.0</ele>
</trkpt>
<trkpt lat="35.129557" lon="138.668833">
<ele>0.0</ele>
</trkpt>
<trkpt lat="35.1289409" lon="138.6698477">
<ele>0.0</ele>
</trkpt>
<trkpt lat="35.1305773" lon="138.6721008">
<ele>0.0</ele>
</trkpt>
<trkpt lat="35.131718" lon="138.6732059">
<ele>0.0</ele>
</trkpt>
<trkpt lat="35.132904" lon="138.675098">
<ele>0.0</ele>
</trkpt>
<trkpt lat="35.133247" lon="138.676214">
<ele>0.0</ele>
</trkpt>
<trkpt lat="35.133333" lon="138.677073">
<ele>0.0</ele>
</trkpt>
<trkpt lat="35.1339686" lon="138.6781358">
<ele>0.0</ele>
</trkpt>
<trkpt lat="35.1355348" lon="138.6806034">
<ele>0.0</ele>
</trkpt>
<trkpt lat="35.1361226" lon="138.6820035">
<ele>0.0</ele>
</trkpt>
<trkpt lat="35.1369123" lon="138.6831676">
<ele>0.0</ele>
</trkpt>
<trkpt lat="35.1371755" lon="138.6844604">
<ele>0.0</ele>
</trkpt>
<trkpt lat="35.1374629" lon="138.6852034">
<ele>0.0</ele>
</trkpt>
<trkpt lat="35.137556" lon="138.6860617">
<ele>0.0</ele>
</trkpt>
<trkpt lat="35.1376843" lon="138.686684">
<ele>0.0</ele>
</trkpt>
<trkpt lat="35.1378872" lon="138.6873049">
<ele>0.0</ele>
</trkpt>
<trkpt lat="35.1380989" lon="138.6878909">
<ele>0.0</ele>
</trkpt>
<trkpt lat="35.138315" lon="138.6885065">
<ele>0.0</ele>
</trkpt>
<trkpt lat="35.1384274" lon="138.688874">
<ele>0.0</ele>
</trkpt>
<trkpt lat="35.1383819" lon="138.6888927">
<ele>0.0</ele>
</trkpt>
<trkpt lat="35.1386648" lon="138.6898013">
<ele>0.0</ele>
</trkpt>
<trkpt lat="35.1387581" lon="138.6902476">
<ele>0.0</ele>
</trkpt>
<trkpt lat="35.1387899" lon="138.6906898">
<ele>0.0</ele>
</trkpt>
<trkpt lat="35.1384784" lon="138.6910566">
<ele>0.0</ele>
</trkpt>
<trkpt lat="35.138326" lon="138.6913017">
<ele>0.0</ele>
</trkpt>
<trkpt lat="35.138281" lon="138.6914395">
<ele>0.0</ele>
</trkpt>
<trkpt lat="35.1382766" lon="138.6915823">
<ele>0.0</ele>
</trkpt>
<trkpt lat="35.1384038" lon="138.6921811">
<ele>0.0</ele>
</trkpt>
<trkpt lat="35.1385705" lon="138.6929898">
<ele>0.0</ele>
</trkpt>
<trkpt lat="35.1384696" lon="138.6932581">
<ele>0.0</ele>
</trkpt>
<trkpt lat="35.1376098" lon="138.6940252">
<ele>0.0</ele>
</trkpt>
<trkpt lat="35.1370921" lon="138.6942827">
<ele>0.0</ele>
</trkpt>
<trkpt lat="35.1367543" lon="138.6941915">
<ele>0.0</ele>
</trkpt>
<trkpt lat="35.1361051" lon="138.6922817">
<ele>0.0</ele>
</trkpt>
<trkpt lat="35.1361753" lon="138.6922335">
<ele>0.0</ele>
</trkpt>
<trkpt lat="35.1368596" lon="138.6941539">
<ele>0.0</ele>
</trkpt>
<trkpt lat="35.137067" lon="138.694196">
<ele>0.0</ele>
</trkpt>
<trkpt lat="35.1376756" lon="138.6938857">
<ele>0.0</ele>
</trkpt>
<trkpt lat="35.1384301" lon="138.693183">
<ele>0.0</ele>
</trkpt>
<trkpt lat="35.138526" lon="138.692908">
<ele>0.0</ele>
</trkpt>
<trkpt lat="35.1381976" lon="138.6914556">
<ele>0.0</ele>
</trkpt>
<trkpt lat="35.1387855" lon="138.6905222">
<ele>0.0</ele>
</trkpt>
<trkpt lat="35.1390574" lon="138.6906617">
<ele>0.0</ele>
</trkpt>
<trkpt lat="35.1395049" lon="138.6905812">
<ele>0.0</ele>
</trkpt>
<trkpt lat="35.14389" lon="138.684368">
<ele>0.0</ele>
</trkpt>
<trkpt lat="35.1457185" lon="138.685707">
<ele>0.0</ele>
</trkpt>
<trkpt lat="35.144771" lon="138.6878206">
<ele>0.0</ele>
</trkpt>
<trkpt lat="35.1442622" lon="138.6899878">
<ele>0.0</ele>
</trkpt>
<trkpt lat="35.154791" lon="138.692479">
<ele>0.0</ele>
</trkpt>
<trkpt lat="35.1545932" lon="138.6962739">
<ele>0.0</ele>
</trkpt>
<trkpt lat="35.1518388" lon="138.7140194">
<ele>0.0</ele>
</trkpt>
<trkpt lat="35.1511897" lon="138.7150064">
<ele>0.0</ele>
</trkpt>
<trkpt lat="35.1502947" lon="138.7304525">
<ele>0.0</ele>
</trkpt>
<trkpt lat="35.149384" lon="138.743634">
<ele>0.0</ele>
</trkpt>
<trkpt lat="35.147359" lon="138.751399">
<ele>0.0</ele>
</trkpt>
<trkpt lat="35.1396619" lon="138.7485199">
<ele>0.0</ele>
</trkpt>
<trkpt lat="35.1397847" lon="138.747168">
<ele>0.0</ele>
</trkpt>
<trkpt lat="35.1395215" lon="138.748477">
<ele>0.0</ele>
</trkpt>
<trkpt lat="35.1374729" lon="138.7477152">
<ele>0.0</ele>
</trkpt>
<trkpt lat="35.1362314" lon="138.7474417">
<ele>0.0</ele>
</trkpt>
<trkpt lat="35.1356271" lon="138.7508443">
<ele>0.0</ele>
</trkpt>
<trkpt lat="35.1348144" lon="138.7505932">
<ele>0.0</ele>
</trkpt>
<trkpt lat="35.1349432" lon="138.7497061">
<ele>0.0</ele>
</trkpt>
<trkpt lat="35.1350822" lon="138.7497347">
<ele>0.0</ele>
</trkpt>
<trkpt lat="35.1352262" lon="138.7486908">
<ele>0.0</ele>
</trkpt>
<trkpt lat="35.1345876" lon="138.7484049">
<ele>0.0</ele>
</trkpt>
<trkpt lat="35.136037" lon="138.741746">
<ele>0.0</ele>
</trkpt>
<trkpt lat="35.1364946" lon="138.7397491">
<ele>0.0</ele>
</trkpt>
<trkpt lat="35.1373413" lon="138.7348245">
<ele>0.0</ele>
</trkpt>
<trkpt lat="35.1379642" lon="138.7299858">
<ele>0.0</ele>
</trkpt>
<trkpt lat="35.1387889" lon="138.7268691">
<ele>0.0</ele>
</trkpt>
<trkpt lat="35.1385915" lon="138.7265097">
<ele>0.0</ele>
</trkpt>
<trkpt lat="35.138912" lon="138.725696">
<ele>0.0</ele>
</trkpt>
<trkpt lat="35.1396663" lon="138.7232588">
<ele>0.0</ele>
</trkpt>
<trkpt lat="35.1405217" lon="138.7186723">
<ele>0.0</ele>
</trkpt>
<trkpt lat="35.14082" lon="138.717476">
<ele>0.0</ele>
</trkpt>
<trkpt lat="35.1408595" lon="138.7154858">
<ele>0.0</ele>
</trkpt>
<trkpt lat="35.1410832" lon="138.7144558">
<ele>0.0</ele>
</trkpt>
<trkpt lat="35.1415219" lon="138.7132166">
<ele>0.0</ele>
</trkpt>
<trkpt lat="35.141614" lon="138.7123476">
<ele>0.0</ele>
</trkpt>
<trkpt lat="35.141659" lon="138.711791">
<ele>0.0</ele>
</trkpt>
<trkpt lat="35.1422237" lon="138.7097083">
<ele>0.0</ele>
</trkpt>
<trkpt lat="35.1424869" lon="138.707643">
<ele>0.0</ele>
</trkpt>
<trkpt lat="35.1426097" lon="138.7072836">
<ele>0.0</ele>
</trkpt>
<trkpt lat="35.1429914" lon="138.7069456">
<ele>0.0</ele>
</trkpt>
<trkpt lat="35.1432107" lon="138.7058674">
<ele>0.0</ele>
</trkpt>
<trkpt lat="35.143332" lon="138.704753">
<ele>0.0</ele>
</trkpt>
<trkpt lat="35.143161" lon="138.704367">
<ele>0.0</ele>
</trkpt>
<trkpt lat="35.143101" lon="138.7034266">
<ele>0.0</ele>
</trkpt>
<trkpt lat="35.1435265" lon="138.7003689">
<ele>0.0</ele>
</trkpt>
<trkpt lat="35.1439038" lon="138.6973862">
<ele>0.0</ele>
</trkpt>
<trkpt lat="35.144448" lon="138.697543">
<ele>0.0</ele>
</trkpt>
<trkpt lat="35.1449697" lon="138.6947899">
<ele>0.0</ele>
</trkpt>
<trkpt lat="35.1452373" lon="138.6925422">
<ele>0.0</ele>
</trkpt>
<trkpt lat="35.146251" lon="138.6869">
<ele>0.0</ele>
</trkpt>
<trkpt lat="35.1461891" lon="138.6862175">
<ele>0.0</ele>
</trkpt>
<trkpt lat="35.1441275" lon="138.6844473">
<ele>0.0</ele>
</trkpt>
<trkpt lat="35.1443468" lon="138.6833422">
<ele>0.0</ele>
</trkpt>
<trkpt lat="35.1442065" lon="138.6815076">
<ele>0.0</ele>
</trkpt>
<trkpt lat="35.1441626" lon="138.6798231">
<ele>0.0</ele>
</trkpt>
<trkpt lat="35.1427677" lon="138.674051">
<ele>0.0</ele>
</trkpt>
<trkpt lat="35.14329" lon="138.669734">
<ele>0.0</ele>
</trkpt>
<trkpt lat="35.143645" lon="138.6669485">
<ele>0.0</ele>
</trkpt>
<trkpt lat="35.1439959" lon="138.6625497">
<ele>0.0</ele>
</trkpt>
<trkpt lat="35.1429475" lon="138.6623566">
<ele>0.0</ele>
</trkpt>
<trkpt lat="35.143032" lon="138.663125">
<ele>0.0</ele>
</trkpt>
<trkpt lat="35.1425966" lon="138.6633437">
<ele>0.0</ele>
</trkpt>
    </trkseg>
  </trk>
</gpx>