<?xml version="1.0" encoding="UTF-8"?>
<gpx version="1.1"
     creator="KMLtoGPX"
     xmlns="http://www.topografix.com/GPX/1/1">
  <metadata>
    <name>Sekigahara battle site tour course</name>
    <desc>関ヶ原合戦　陣跡めぐりコース</desc>
    <bounds minlat="35.33591583333333" minlon="136.5166561111111" maxlat="35.37153111111111" maxlon="136.54859694444445"/>
  </metadata>
  <trk>
    <name>Sekigahara battle site tour course</name>
    <trkseg>
<trkpt lat="35.370261944444444" lon="136.5312188888889">
<ele>28</ele>
</trkpt>
<trkpt lat="35.37023888888889" lon="136.53111694444445">
<ele>28</ele>
</trkpt>
<trkpt lat="35.37014805555555" lon="136.5310288888889">
<ele>29</ele>
</trkpt>
<trkpt lat="35.37008111111111" lon="136.53071694444444">
<ele>29</ele>
</trkpt>
<trkpt lat="35.37005611111111" lon="136.5305788888889">
<ele>29</ele>
</trkpt>
<trkpt lat="35.37009694444444" lon="136.5284538888889">
<ele>29</ele>
</trkpt>
<trkpt lat="35.37003111111111" lon="136.52844194444444">
<ele>30</ele>
</trkpt>
<trkpt lat="35.369613888888885" lon="136.52846694444443">
<ele>31</ele>
</trkpt>
<trkpt lat="35.369506111111114" lon="136.528475">
<ele>32</ele>
</trkpt>
<trkpt lat="35.369506111111114" lon="136.528475">
<ele>32</ele>
</trkpt>
<trkpt lat="35.36945611111111" lon="136.52847888888888">
<ele>32</ele>
</trkpt>
<trkpt lat="35.36928888888889" lon="136.52847888888888">
<ele>32</ele>
</trkpt>
<trkpt lat="35.36903111111111" lon="136.52847888888888">
<ele>32</ele>
</trkpt>
<trkpt lat="35.369011111111114" lon="136.52883305555557">
<ele>31</ele>
</trkpt>
<trkpt lat="35.369011111111114" lon="136.52883305555557">
<ele>31</ele>
</trkpt>
<trkpt lat="35.368988888888886" lon="136.52921694444444">
<ele>29</ele>
</trkpt>
<trkpt lat="35.368448055555554" lon="136.52915388888889">
<ele>29</ele>
</trkpt>
<trkpt lat="35.368206111111114" lon="136.52914194444443">
<ele>30</ele>
</trkpt>
<trkpt lat="35.36818888888889" lon="136.52891694444443">
<ele>30</ele>
</trkpt>
<trkpt lat="35.36818888888889" lon="136.52880194444444">
<ele>31</ele>
</trkpt>
<trkpt lat="35.36818888888889" lon="136.52880194444444">
<ele>31</ele>
</trkpt>
<trkpt lat="35.36818888888889" lon="136.5286788888889">
<ele>31</ele>
</trkpt>
<trkpt lat="35.36821388888889" lon="136.52847888888888">
<ele>32</ele>
</trkpt>
<trkpt lat="35.36825611111111" lon="136.52841694444444">
<ele>32</ele>
</trkpt>
<trkpt lat="35.36830611111111" lon="136.5284038888889">
<ele>32</ele>
</trkpt>
<trkpt lat="35.36848888888889" lon="136.52841694444444">
<ele>32</ele>
</trkpt>
<trkpt lat="35.368498055555555" lon="136.5279038888889">
<ele>33</ele>
</trkpt>
<trkpt lat="35.36850611111111" lon="136.52758">
<ele>35</ele>
</trkpt>
<trkpt lat="35.36850611111111" lon="136.52734194444446">
<ele>36</ele>
</trkpt>
<trkpt lat="35.36851" lon="136.5270711111111">
<ele>36</ele>
</trkpt>
<trkpt lat="35.36851" lon="136.5270711111111">
<ele>36</ele>
</trkpt>
<trkpt lat="35.36851388888889" lon="136.526755">
<ele>37</ele>
</trkpt>
<trkpt lat="35.36858111111111" lon="136.52674194444444">
<ele>37</ele>
</trkpt>
<trkpt lat="35.36855611111111" lon="136.52621694444446">
<ele>38</ele>
</trkpt>
<trkpt lat="35.36853194444444" lon="136.52531305555556">
<ele>40</ele>
</trkpt>
<trkpt lat="35.36853194444444" lon="136.52531305555556">
<ele>40</ele>
</trkpt>
<trkpt lat="35.368521944444446" lon="136.52494305555555">
<ele>41</ele>
</trkpt>
<trkpt lat="35.368496944444445" lon="136.52483">
<ele>41</ele>
</trkpt>
<trkpt lat="35.36853888888889" lon="136.524705">
<ele>41</ele>
</trkpt>
<trkpt lat="35.36870611111111" lon="136.52429305555555">
<ele>41</ele>
</trkpt>
<trkpt lat="35.368788888888886" lon="136.52406805555555">
<ele>42</ele>
</trkpt>
<trkpt lat="35.36893888888889" lon="136.52369305555555">
<ele>42</ele>
</trkpt>
<trkpt lat="35.368698055555555" lon="136.52314305555555">
<ele>44</ele>
</trkpt>
<trkpt lat="35.36869194444444" lon="136.523135">
<ele>44</ele>
</trkpt>
<trkpt lat="35.36869194444444" lon="136.52313388888888">
<ele>44</ele>
</trkpt>
<trkpt lat="35.368698055555555" lon="136.52314305555555">
<ele>44</ele>
</trkpt>
<trkpt lat="35.36893888888889" lon="136.52369305555555">
<ele>42</ele>
</trkpt>
<trkpt lat="35.368788888888886" lon="136.52406805555555">
<ele>42</ele>
</trkpt>
<trkpt lat="35.36870611111111" lon="136.52429305555555">
<ele>41</ele>
</trkpt>
<trkpt lat="35.36850611111111" lon="136.524305">
<ele>42</ele>
</trkpt>
<trkpt lat="35.36823111111111" lon="136.52431694444445">
<ele>42</ele>
</trkpt>
<trkpt lat="35.36768111111111" lon="136.52436694444444">
<ele>44</ele>
</trkpt>
<trkpt lat="35.36741388888889" lon="136.52438">
<ele>45</ele>
</trkpt>
<trkpt lat="35.36721694444444" lon="136.5243911111111">
<ele>45</ele>
</trkpt>
<trkpt lat="35.36721694444444" lon="136.5243911111111">
<ele>45</ele>
</trkpt>
<trkpt lat="35.36698111111111" lon="136.524405">
<ele>46</ele>
</trkpt>
<trkpt lat="35.36685611111111" lon="136.52441694444445">
<ele>46</ele>
</trkpt>
<trkpt lat="35.365948055555556" lon="136.524555">
<ele>48</ele>
</trkpt>
<trkpt lat="35.36579805555556" lon="136.52458">
<ele>48</ele>
</trkpt>
<trkpt lat="35.365698055555555" lon="136.52459305555556">
<ele>48</ele>
</trkpt>
<trkpt lat="35.36555611111111" lon="136.52461805555555">
<ele>48</ele>
</trkpt>
<trkpt lat="35.36545611111111" lon="136.52461805555555">
<ele>48</ele>
</trkpt>
<trkpt lat="35.36512305555556" lon="136.52453">
<ele>49</ele>
</trkpt>
<trkpt lat="35.36505611111111" lon="136.52451694444446">
<ele>50</ele>
</trkpt>
<trkpt lat="35.36477305555555" lon="136.52453">
<ele>51</ele>
</trkpt>
<trkpt lat="35.364781111111114" lon="136.52446805555556">
<ele>50</ele>
</trkpt>
<trkpt lat="35.36479" lon="136.52439305555555">
<ele>50</ele>
</trkpt>
<trkpt lat="35.36479" lon="136.524255">
<ele>51</ele>
</trkpt>
<trkpt lat="35.36483111111111" lon="136.52403">
<ele>51</ele>
</trkpt>
<trkpt lat="35.36484" lon="136.52398">
<ele>51</ele>
</trkpt>
<trkpt lat="35.36503111111111" lon="136.52336805555555">
<ele>52</ele>
</trkpt>
<trkpt lat="35.36505611111111" lon="136.523305">
<ele>52</ele>
</trkpt>
<trkpt lat="35.36509" lon="136.52323">
<ele>52</ele>
</trkpt>
<trkpt lat="35.36516388888889" lon="136.52299805555555">
<ele>53</ele>
</trkpt>
<trkpt lat="35.36516388888889" lon="136.52299805555555">
<ele>53</ele>
</trkpt>
<trkpt lat="35.36517305555556" lon="136.52296805555557">
<ele>53</ele>
</trkpt>
<trkpt lat="35.365206111111114" lon="136.522655">
<ele>54</ele>
</trkpt>
<trkpt lat="35.365206111111114" lon="136.52248">
<ele>55</ele>
</trkpt>
<trkpt lat="35.36522305555555" lon="136.52204305555554">
<ele>56</ele>
</trkpt>
<trkpt lat="35.36524" lon="136.5216561111111">
<ele>57</ele>
</trkpt>
<trkpt lat="35.36518111111111" lon="136.52159305555554">
<ele>58</ele>
</trkpt>
<trkpt lat="35.36480611111111" lon="136.52119305555556">
<ele>60</ele>
</trkpt>
<trkpt lat="35.364715" lon="136.52111805555555">
<ele>60</ele>
</trkpt>
<trkpt lat="35.36449805555556" lon="136.52099305555555">
<ele>62</ele>
</trkpt>
<trkpt lat="35.36433111111111" lon="136.52081805555557">
<ele>63</ele>
</trkpt>
<trkpt lat="35.364315" lon="136.5207561111111">
<ele>64</ele>
</trkpt>
<trkpt lat="35.364365" lon="136.5207311111111">
<ele>63</ele>
</trkpt>
<trkpt lat="35.36444888888889" lon="136.5206488888889">
<ele>63</ele>
</trkpt>
<trkpt lat="35.36444888888889" lon="136.5206488888889">
<ele>63</ele>
</trkpt>
<trkpt lat="35.364365" lon="136.5207311111111">
<ele>63</ele>
</trkpt>
<trkpt lat="35.364315" lon="136.5207561111111">
<ele>64</ele>
</trkpt>
<trkpt lat="35.36429805555556" lon="136.52069305555557">
<ele>64</ele>
</trkpt>
<trkpt lat="35.364165" lon="136.52016805555556">
<ele>65</ele>
</trkpt>
<trkpt lat="35.364131111111114" lon="136.52008111111112">
<ele>65</ele>
</trkpt>
<trkpt lat="35.36410611111111" lon="136.5199561111111">
<ele>65</ele>
</trkpt>
<trkpt lat="35.36409805555556" lon="136.5198061111111">
<ele>65</ele>
</trkpt>
<trkpt lat="35.36414" lon="136.51964305555555">
<ele>65</ele>
</trkpt>
<trkpt lat="35.36418111111111" lon="136.5195388888889">
<ele>65</ele>
</trkpt>
<trkpt lat="35.36418111111111" lon="136.5195388888889">
<ele>65</ele>
</trkpt>
<trkpt lat="35.36424805555556" lon="136.51936805555556">
<ele>65</ele>
</trkpt>
<trkpt lat="35.364265" lon="136.51929305555555">
<ele>65</ele>
</trkpt>
<trkpt lat="35.36399" lon="136.51906805555555">
<ele>67</ele>
</trkpt>
<trkpt lat="35.36389" lon="136.51896805555555">
<ele>68</ele>
</trkpt>
<trkpt lat="35.363706111111114" lon="136.51856805555556">
<ele>70</ele>
</trkpt>
<trkpt lat="35.36367305555556" lon="136.51850611111112">
<ele>71</ele>
</trkpt>
<trkpt lat="35.36369805555555" lon="136.51840611111112">
<ele>72</ele>
</trkpt>
<trkpt lat="35.36374" lon="136.51830611111112">
<ele>73</ele>
</trkpt>
<trkpt lat="35.36378111111111" lon="136.51795611111112">
<ele>76</ele>
</trkpt>
<trkpt lat="35.36378111111111" lon="136.51794194444443">
<ele>76</ele>
</trkpt>
<trkpt lat="35.36378111111111" lon="136.51794194444443">
<ele>76</ele>
</trkpt>
<trkpt lat="35.36378111111111" lon="136.51795611111112">
<ele>76</ele>
</trkpt>
<trkpt lat="35.36374" lon="136.51830611111112">
<ele>73</ele>
</trkpt>
<trkpt lat="35.36369805555555" lon="136.51840611111112">
<ele>72</ele>
</trkpt>
<trkpt lat="35.36367305555556" lon="136.51850611111112">
<ele>71</ele>
</trkpt>
<trkpt lat="35.36344805555556" lon="136.5179938888889">
<ele>77</ele>
</trkpt>
<trkpt lat="35.36333111111111" lon="136.51769388888889">
<ele>78</ele>
</trkpt>
<trkpt lat="35.36304805555555" lon="136.51716888888888">
<ele>82</ele>
</trkpt>
<trkpt lat="35.36295611111111" lon="136.51704388888888">
<ele>84</ele>
</trkpt>
<trkpt lat="35.362925" lon="136.51700888888888">
<ele>84</ele>
</trkpt>
<trkpt lat="35.362923888888886" lon="136.51700888888888">
<ele>84</ele>
</trkpt>
<trkpt lat="35.36278194444444" lon="136.5168561111111">
<ele>87</ele>
</trkpt>
<trkpt lat="35.362656944444446" lon="136.5167561111111">
<ele>89</ele>
</trkpt>
<trkpt lat="35.362498055555555" lon="136.5166688888889">
<ele>88</ele>
</trkpt>
<trkpt lat="35.36234" lon="136.5166561111111">
<ele>89</ele>
</trkpt>
<trkpt lat="35.362115" lon="136.51670611111112">
<ele>88</ele>
</trkpt>
<trkpt lat="35.36188194444444" lon="136.5167688888889">
<ele>88</ele>
</trkpt>
<trkpt lat="35.36174" lon="136.5168438888889">
<ele>87</ele>
</trkpt>
<trkpt lat="35.36163194444445" lon="136.51694388888887">
<ele>86</ele>
</trkpt>
<trkpt lat="35.36159" lon="136.51705611111112">
<ele>85</ele>
</trkpt>
<trkpt lat="35.36151888888889" lon="136.51725694444445">
<ele>82</ele>
</trkpt>
<trkpt lat="35.36151888888889" lon="136.51725694444445">
<ele>82</ele>
</trkpt>
<trkpt lat="35.361515" lon="136.51726888888888">
<ele>82</ele>
</trkpt>
<trkpt lat="35.36137305555555" lon="136.5177811111111">
<ele>83</ele>
</trkpt>
<trkpt lat="35.36134" lon="136.5179061111111">
<ele>83</ele>
</trkpt>
<trkpt lat="35.36129" lon="136.51828111111112">
<ele>85</ele>
</trkpt>
<trkpt lat="35.36125694444444" lon="136.51863111111112">
<ele>84</ele>
</trkpt>
<trkpt lat="35.361181944444446" lon="136.5193561111111">
<ele>79</ele>
</trkpt>
<trkpt lat="35.36114805555555" lon="136.51976805555555">
<ele>78</ele>
</trkpt>
<trkpt lat="35.361115" lon="136.52006805555556">
<ele>77</ele>
</trkpt>
<trkpt lat="35.36104805555556" lon="136.52091805555557">
<ele>73</ele>
</trkpt>
<trkpt lat="35.361015" lon="136.52149305555557">
<ele>73</ele>
</trkpt>
<trkpt lat="35.36098194444445" lon="136.52261805555557">
<ele>70</ele>
</trkpt>
<trkpt lat="35.360973055555554" lon="136.52266805555556">
<ele>69</ele>
</trkpt>
<trkpt lat="35.36094805555555" lon="136.5234311111111">
<ele>63</ele>
</trkpt>
<trkpt lat="35.360965" lon="136.5235561111111">
<ele>62</ele>
</trkpt>
<trkpt lat="35.36099" lon="136.52366805555556">
<ele>61</ele>
</trkpt>
<trkpt lat="35.36114805555555" lon="136.52414305555556">
<ele>57</ele>
</trkpt>
<trkpt lat="35.361365" lon="136.524805">
<ele>52</ele>
</trkpt>
<trkpt lat="35.361398055555554" lon="136.52493">
<ele>51</ele>
</trkpt>
<trkpt lat="35.36143194444445" lon="136.52508">
<ele>51</ele>
</trkpt>
<trkpt lat="35.36144" lon="136.52516805555555">
<ele>50</ele>
</trkpt>
<trkpt lat="35.361381944444446" lon="136.52548">
<ele>49</ele>
</trkpt>
<trkpt lat="35.36127194444445" lon="136.52608">
<ele>48</ele>
</trkpt>
<trkpt lat="35.36127194444445" lon="136.52608">
<ele>48</ele>
</trkpt>
<trkpt lat="35.361265" lon="136.52611694444445">
<ele>48</ele>
</trkpt>
<trkpt lat="35.36114805555555" lon="136.52668">
<ele>46</ele>
</trkpt>
<trkpt lat="35.36104" lon="136.526655">
<ele>47</ele>
</trkpt>
<trkpt lat="35.36089" lon="136.52664194444444">
<ele>47</ele>
</trkpt>
<trkpt lat="35.36047388888889" lon="136.526605">
<ele>48</ele>
</trkpt>
<trkpt lat="35.36044" lon="136.52714194444445">
<ele>46</ele>
</trkpt>
<trkpt lat="35.36037388888889" lon="136.52816805555557">
<ele>43</ele>
</trkpt>
<trkpt lat="35.360365" lon="136.52841694444444">
<ele>43</ele>
</trkpt>
<trkpt lat="35.36033888888889" lon="136.52902194444445">
<ele>41</ele>
</trkpt>
<trkpt lat="35.36033888888889" lon="136.52902194444445">
<ele>41</ele>
</trkpt>
<trkpt lat="35.36033194444445" lon="136.52919194444445">
<ele>41</ele>
</trkpt>
<trkpt lat="35.360306944444446" lon="136.529355">
<ele>40</ele>
</trkpt>
<trkpt lat="35.360256944444444" lon="136.52948">
<ele>40</ele>
</trkpt>
<trkpt lat="35.36019" lon="136.52961694444446">
<ele>40</ele>
</trkpt>
<trkpt lat="35.360123888888886" lon="136.52971694444443">
<ele>40</ele>
</trkpt>
<trkpt lat="35.359881944444446" lon="136.529755">
<ele>42</ele>
</trkpt>
<trkpt lat="35.35977388888889" lon="136.52978">
<ele>41</ele>
</trkpt>
<trkpt lat="35.35953194444444" lon="136.52991694444444">
<ele>42</ele>
</trkpt>
<trkpt lat="35.35938194444444" lon="136.53003">
<ele>42</ele>
</trkpt>
<trkpt lat="35.35917388888889" lon="136.53019194444445">
<ele>42</ele>
</trkpt>
<trkpt lat="35.35892388888889" lon="136.53038">
<ele>42</ele>
</trkpt>
<trkpt lat="35.35868194444444" lon="136.530555">
<ele>43</ele>
</trkpt>
<trkpt lat="35.35856611111111" lon="136.53063">
<ele>43</ele>
</trkpt>
<trkpt lat="35.358198888888886" lon="136.530805">
<ele>43</ele>
</trkpt>
<trkpt lat="35.35820694444445" lon="136.53088">
<ele>43</ele>
</trkpt>
<trkpt lat="35.35820694444445" lon="136.53101694444445">
<ele>42</ele>
</trkpt>
<trkpt lat="35.35819111111111" lon="136.53136694444444">
<ele>40</ele>
</trkpt>
<trkpt lat="35.35816611111111" lon="136.53174194444443">
<ele>39</ele>
</trkpt>
<trkpt lat="35.358156944444445" lon="136.53179194444445">
<ele>38</ele>
</trkpt>
<trkpt lat="35.35816611111111" lon="136.5318538888889">
<ele>38</ele>
</trkpt>
<trkpt lat="35.35814111111111" lon="136.53210388888888">
<ele>37</ele>
</trkpt>
<trkpt lat="35.358135" lon="136.53231888888888">
<ele>36</ele>
</trkpt>
<trkpt lat="35.358135" lon="136.53231888888888">
<ele>36</ele>
</trkpt>
<trkpt lat="35.35814111111111" lon="136.53210388888888">
<ele>37</ele>
</trkpt>
<trkpt lat="35.35816611111111" lon="136.5318538888889">
<ele>38</ele>
</trkpt>
<trkpt lat="35.358156944444445" lon="136.53179194444445">
<ele>38</ele>
</trkpt>
<trkpt lat="35.35816611111111" lon="136.53174194444443">
<ele>39</ele>
</trkpt>
<trkpt lat="35.35819111111111" lon="136.53136694444444">
<ele>40</ele>
</trkpt>
<trkpt lat="35.35820694444445" lon="136.53101694444445">
<ele>42</ele>
</trkpt>
<trkpt lat="35.35820694444445" lon="136.53088">
<ele>43</ele>
</trkpt>
<trkpt lat="35.358198888888886" lon="136.530805">
<ele>43</ele>
</trkpt>
<trkpt lat="35.35802388888889" lon="136.53089194444445">
<ele>42</ele>
</trkpt>
<trkpt lat="35.35789" lon="136.53094">
<ele>42</ele>
</trkpt>
<trkpt lat="35.35789" lon="136.53094">
<ele>42</ele>
</trkpt>
<trkpt lat="35.35784888888889" lon="136.530955">
<ele>42</ele>
</trkpt>
<trkpt lat="35.357531944444446" lon="136.53104194444444">
<ele>42</ele>
</trkpt>
<trkpt lat="35.357441111111115" lon="136.53108">
<ele>42</ele>
</trkpt>
<trkpt lat="35.35732388888889" lon="136.53116694444444">
<ele>41</ele>
</trkpt>
<trkpt lat="35.35716611111111" lon="136.53131694444446">
<ele>41</ele>
</trkpt>
<trkpt lat="35.35682388888889" lon="136.53155388888888">
<ele>40</ele>
</trkpt>
<trkpt lat="35.35631611111111" lon="136.53190388888888">
<ele>38</ele>
</trkpt>
<trkpt lat="35.35616611111111" lon="136.53200388888888">
<ele>37</ele>
</trkpt>
<trkpt lat="35.356073888888886" lon="136.5320538888889">
<ele>37</ele>
</trkpt>
<trkpt lat="35.35601611111111" lon="136.5320788888889">
<ele>37</ele>
</trkpt>
<trkpt lat="35.35593305555555" lon="136.53211694444445">
<ele>36</ele>
</trkpt>
<trkpt lat="35.35547388888889" lon="136.53226694444444">
<ele>35</ele>
</trkpt>
<trkpt lat="35.35526611111111" lon="136.53232888888888">
<ele>32</ele>
</trkpt>
<trkpt lat="35.355106944444444" lon="136.53236694444445">
<ele>31</ele>
</trkpt>
<trkpt lat="35.35445694444444" lon="136.53256694444445">
<ele>31</ele>
</trkpt>
<trkpt lat="35.35445694444444" lon="136.53256694444445">
<ele>31</ele>
</trkpt>
<trkpt lat="35.354331944444446" lon="136.5326038888889">
<ele>32</ele>
</trkpt>
<trkpt lat="35.35424111111111" lon="136.53264194444444">
<ele>32</ele>
</trkpt>
<trkpt lat="35.35398305555555" lon="136.53271694444445">
<ele>33</ele>
</trkpt>
<trkpt lat="35.35330805555556" lon="136.53294194444445">
<ele>31</ele>
</trkpt>
<trkpt lat="35.35236611111111" lon="136.53322888888889">
<ele>30</ele>
</trkpt>
<trkpt lat="35.35163305555555" lon="136.53345388888889">
<ele>30</ele>
</trkpt>
<trkpt lat="35.35162388888889" lon="136.5336788888889">
<ele>28</ele>
</trkpt>
<trkpt lat="35.35156611111111" lon="136.53370388888888">
<ele>28</ele>
</trkpt>
<trkpt lat="35.3515" lon="136.53376694444444">
<ele>28</ele>
</trkpt>
<trkpt lat="35.35070805555556" lon="136.53485388888888">
<ele>21</ele>
</trkpt>
<trkpt lat="35.35064111111111" lon="136.53499194444444">
<ele>20</ele>
</trkpt>
<trkpt lat="35.350566111111114" lon="136.53526694444443">
<ele>19</ele>
</trkpt>
<trkpt lat="35.35045" lon="136.53530694444444">
<ele>19</ele>
</trkpt>
<trkpt lat="35.35045" lon="136.53530694444444">
<ele>19</ele>
</trkpt>
<trkpt lat="35.34988305555556" lon="136.53550388888888">
<ele>18</ele>
</trkpt>
<trkpt lat="35.349758055555554" lon="136.5355538888889">
<ele>18</ele>
</trkpt>
<trkpt lat="35.349333055555554" lon="136.53571694444443">
<ele>17</ele>
</trkpt>
<trkpt lat="35.348625" lon="136.53597888888888">
<ele>16</ele>
</trkpt>
<trkpt lat="35.348533055555556" lon="136.5360038888889">
<ele>15</ele>
</trkpt>
<trkpt lat="35.34786694444445" lon="136.53626694444444">
<ele>15</ele>
</trkpt>
<trkpt lat="35.347883055555556" lon="136.53636694444444">
<ele>15</ele>
</trkpt>
<trkpt lat="35.347878888888886" lon="136.53669">
<ele>15</ele>
</trkpt>
<trkpt lat="35.347878888888886" lon="136.53669">
<ele>15</ele>
</trkpt>
<trkpt lat="35.347875" lon="136.53696694444446">
<ele>15</ele>
</trkpt>
<trkpt lat="35.347433055555555" lon="136.5377538888889">
<ele>18</ele>
</trkpt>
<trkpt lat="35.347141944444445" lon="136.53824194444445">
<ele>18</ele>
</trkpt>
<trkpt lat="35.34695" lon="136.53847888888887">
<ele>18</ele>
</trkpt>
<trkpt lat="35.34663388888889" lon="136.5387288888889">
<ele>19</ele>
</trkpt>
<trkpt lat="35.34639194444444" lon="136.5388911111111">
<ele>20</ele>
</trkpt>
<trkpt lat="35.34623388888889" lon="136.5389911111111">
<ele>20</ele>
</trkpt>
<trkpt lat="35.34594194444445" lon="136.53925388888888">
<ele>18</ele>
</trkpt>
<trkpt lat="35.345908888888886" lon="136.5389661111111">
<ele>20</ele>
</trkpt>
<trkpt lat="35.345875" lon="136.53879194444445">
<ele>20</ele>
</trkpt>
<trkpt lat="35.34576694444444" lon="136.53856694444445">
<ele>21</ele>
</trkpt>
<trkpt lat="35.34571694444445" lon="136.53835388888888">
<ele>22</ele>
</trkpt>
<trkpt lat="35.34556694444444" lon="136.53776694444446">
<ele>26</ele>
</trkpt>
<trkpt lat="35.3455" lon="136.5377288888889">
<ele>26</ele>
</trkpt>
<trkpt lat="35.345445" lon="136.5376811111111">
<ele>26</ele>
</trkpt>
<trkpt lat="35.345445" lon="136.5376811111111">
<ele>26</ele>
</trkpt>
<trkpt lat="35.3455" lon="136.5377288888889">
<ele>26</ele>
</trkpt>
<trkpt lat="35.34556694444444" lon="136.53776694444446">
<ele>26</ele>
</trkpt>
<trkpt lat="35.34571694444445" lon="136.53835388888888">
<ele>22</ele>
</trkpt>
<trkpt lat="35.34576694444444" lon="136.53856694444445">
<ele>21</ele>
</trkpt>
<trkpt lat="35.345875" lon="136.53879194444445">
<ele>20</ele>
</trkpt>
<trkpt lat="35.345908888888886" lon="136.5389661111111">
<ele>20</ele>
</trkpt>
<trkpt lat="35.34594194444445" lon="136.53925388888888">
<ele>18</ele>
</trkpt>
<trkpt lat="35.34523388888889" lon="136.5398661111111">
<ele>15</ele>
</trkpt>
<trkpt lat="35.34507888888889" lon="136.54">
<ele>15</ele>
</trkpt>
<trkpt lat="35.34507888888889" lon="136.54">
<ele>15</ele>
</trkpt>
<trkpt lat="35.34464194444445" lon="136.54037888888888">
<ele>12</ele>
</trkpt>
<trkpt lat="35.344525" lon="136.5404661111111">
<ele>11</ele>
</trkpt>
<trkpt lat="35.34435888888889" lon="136.5405538888889">
<ele>11</ele>
</trkpt>
<trkpt lat="35.34433388888889" lon="136.54062888888888">
<ele>11</ele>
</trkpt>
<trkpt lat="35.34425888888889" lon="136.54062888888888">
<ele>11</ele>
</trkpt>
<trkpt lat="35.343716944444445" lon="136.5406911111111">
<ele>10</ele>
</trkpt>
<trkpt lat="35.34324194444444" lon="136.54074111111112">
<ele>9</ele>
</trkpt>
<trkpt lat="35.341726111111115" lon="136.54094111111112">
<ele>9</ele>
</trkpt>
<trkpt lat="35.340785" lon="136.5410488888889">
<ele>10</ele>
</trkpt>
<trkpt lat="35.340785" lon="136.5410488888889">
<ele>10</ele>
</trkpt>
<trkpt lat="35.34019305555555" lon="136.5411161111111">
<ele>10</ele>
</trkpt>
<trkpt lat="35.340201111111114" lon="136.5410411111111">
<ele>10</ele>
</trkpt>
<trkpt lat="35.34015888888889" lon="136.54034194444444">
<ele>12</ele>
</trkpt>
<trkpt lat="35.340201111111114" lon="136.54021694444444">
<ele>13</ele>
</trkpt>
<trkpt lat="35.34025888888889" lon="136.54011694444443">
<ele>13</ele>
</trkpt>
<trkpt lat="35.34090111111111" lon="136.53941694444444">
<ele>17</ele>
</trkpt>
<trkpt lat="35.34093388888889" lon="136.53935388888888">
<ele>17</ele>
</trkpt>
<trkpt lat="35.340963055555555" lon="136.53933694444444">
<ele>17</ele>
</trkpt>
<trkpt lat="35.340963055555555" lon="136.53933694444444">
<ele>17</ele>
</trkpt>
<trkpt lat="35.34093388888889" lon="136.53935388888888">
<ele>17</ele>
</trkpt>
<trkpt lat="35.34090111111111" lon="136.53941694444444">
<ele>17</ele>
</trkpt>
<trkpt lat="35.34025888888889" lon="136.54011694444443">
<ele>13</ele>
</trkpt>
<trkpt lat="35.340201111111114" lon="136.54021694444444">
<ele>13</ele>
</trkpt>
<trkpt lat="35.34015888888889" lon="136.54034194444444">
<ele>12</ele>
</trkpt>
<trkpt lat="35.340201111111114" lon="136.5410411111111">
<ele>10</ele>
</trkpt>
<trkpt lat="35.34019305555555" lon="136.5411161111111">
<ele>10</ele>
</trkpt>
<trkpt lat="35.33992694444444" lon="136.54114611111112">
<ele>10</ele>
</trkpt>
<trkpt lat="35.33992694444444" lon="136.54114611111112">
<ele>10</ele>
</trkpt>
<trkpt lat="35.33963388888889" lon="136.54117888888888">
<ele>11</ele>
</trkpt>
<trkpt lat="35.339018055555556" lon="136.5412538888889">
<ele>11</ele>
</trkpt>
<trkpt lat="35.33853388888889" lon="136.54130388888888">
<ele>12</ele>
</trkpt>
<trkpt lat="35.338076111111114" lon="136.5413538888889">
<ele>12</ele>
</trkpt>
<trkpt lat="35.33712611111111" lon="136.5414911111111">
<ele>12</ele>
</trkpt>
<trkpt lat="35.336535" lon="136.5415661111111">
<ele>14</ele>
</trkpt>
<trkpt lat="35.336146944444444" lon="136.54162194444444">
<ele>14</ele>
</trkpt>
<trkpt lat="35.336146944444444" lon="136.54162194444444">
<ele>14</ele>
</trkpt>
<trkpt lat="35.336128333333335" lon="136.54157166666667">
<ele>14</ele>
</trkpt>
<trkpt lat="35.33611" lon="136.54152166666665">
<ele>14</ele>
</trkpt>
<trkpt lat="35.33609138888889" lon="136.54147138888888">
<ele>14</ele>
</trkpt>
<trkpt lat="35.33607277777778" lon="136.5414213888889">
<ele>14</ele>
</trkpt>
<trkpt lat="35.33605444444444" lon="136.54137111111112">
<ele>14</ele>
</trkpt>
<trkpt lat="35.336035833333334" lon="136.54132083333334">
<ele>14</ele>
</trkpt>
<trkpt lat="35.3360175" lon="136.54127083333333">
<ele>14</ele>
</trkpt>
<trkpt lat="35.33599888888889" lon="136.54122055555555">
<ele>14</ele>
</trkpt>
<trkpt lat="35.33598027777778" lon="136.54117055555557">
<ele>14</ele>
</trkpt>
<trkpt lat="35.33596194444444" lon="136.54112027777776">
<ele>14</ele>
</trkpt>
<trkpt lat="35.33594333333333" lon="136.54107">
<ele>14</ele>
</trkpt>
<trkpt lat="35.335924722222224" lon="136.54102">
<ele>14</ele>
</trkpt>
<trkpt lat="35.33591583333333" lon="136.54099527777777">
<ele>14</ele>
</trkpt>
<trkpt lat="35.33591583333333" lon="136.54099527777777">
<ele>14</ele>
</trkpt>
<trkpt lat="35.33593277777778" lon="136.54104611111111">
<ele>14</ele>
</trkpt>
<trkpt lat="35.33595" lon="136.54109694444443">
<ele>14</ele>
</trkpt>
<trkpt lat="35.33596694444444" lon="136.54114805555557">
<ele>14</ele>
</trkpt>
<trkpt lat="35.33598388888889" lon="136.54119888888889">
<ele>14</ele>
</trkpt>
<trkpt lat="35.33600111111111" lon="136.54124972222223">
<ele>14</ele>
</trkpt>
<trkpt lat="35.336018055555556" lon="136.54130083333334">
<ele>14</ele>
</trkpt>
<trkpt lat="35.336035277777775" lon="136.54135166666666">
<ele>14</ele>
</trkpt>
<trkpt lat="35.33605222222222" lon="136.5414025">
<ele>14</ele>
</trkpt>
<trkpt lat="35.33606944444445" lon="136.5414536111111">
<ele>14</ele>
</trkpt>
<trkpt lat="35.33608638888889" lon="136.54150444444446">
<ele>14</ele>
</trkpt>
<trkpt lat="35.33610361111111" lon="136.54155527777777">
<ele>14</ele>
</trkpt>
<trkpt lat="35.33612055555555" lon="136.54160638888888">
<ele>14</ele>
</trkpt>
<trkpt lat="35.33612611111111" lon="136.54162305555556">
<ele>14</ele>
</trkpt>
<trkpt lat="35.33612611111111" lon="136.541625">
<ele>14</ele>
</trkpt>
<trkpt lat="35.33610111111111" lon="136.54162888888888">
<ele>14</ele>
</trkpt>
<trkpt lat="35.33614305555555" lon="136.5425038888889">
<ele>12</ele>
</trkpt>
<trkpt lat="35.33620111111111" lon="136.54344111111112">
<ele>11</ele>
</trkpt>
<trkpt lat="35.33629305555556" lon="136.54389111111112">
<ele>11</ele>
</trkpt>
<trkpt lat="35.33631" lon="136.54400388888888">
<ele>11</ele>
</trkpt>
<trkpt lat="35.33634305555555" lon="136.5445288888889">
<ele>11</ele>
</trkpt>
<trkpt lat="35.336376111111115" lon="136.54471611111111">
<ele>11</ele>
</trkpt>
<trkpt lat="35.336418055555555" lon="136.5449788888889">
<ele>11</ele>
</trkpt>
<trkpt lat="35.33642611111111" lon="136.54516611111112">
<ele>11</ele>
</trkpt>
<trkpt lat="35.33652611111111" lon="136.5452161111111">
<ele>11</ele>
</trkpt>
<trkpt lat="35.33653388888889" lon="136.54522805555555">
<ele>11</ele>
</trkpt>
<trkpt lat="35.33662611111111" lon="136.5452911111111">
<ele>10</ele>
</trkpt>
<trkpt lat="35.33665888888889" lon="136.54532111111112">
<ele>10</ele>
</trkpt>
<trkpt lat="35.33665888888889" lon="136.54532111111112">
<ele>10</ele>
</trkpt>
<trkpt lat="35.336818055555554" lon="136.54546611111112">
<ele>10</ele>
</trkpt>
<trkpt lat="35.33697611111111" lon="136.54559111111112">
<ele>10</ele>
</trkpt>
<trkpt lat="35.337318055555556" lon="136.54557805555555">
<ele>10</ele>
</trkpt>
<trkpt lat="35.33739305555556" lon="136.54557805555555">
<ele>10</ele>
</trkpt>
<trkpt lat="35.33759305555556" lon="136.5456411111111">
<ele>10</ele>
</trkpt>
<trkpt lat="35.33770111111111" lon="136.5456411111111">
<ele>10</ele>
</trkpt>
<trkpt lat="35.33808388888889" lon="136.54557888888888">
<ele>10</ele>
</trkpt>
<trkpt lat="35.33808388888889" lon="136.54558">
<ele>10</ele>
</trkpt>
<trkpt lat="35.338093055555554" lon="136.54557805555555">
<ele>10</ele>
</trkpt>
<trkpt lat="35.33835111111111" lon="136.54550305555554">
<ele>10</ele>
</trkpt>
<trkpt lat="35.338343055555555" lon="136.54559111111112">
<ele>10</ele>
</trkpt>
<trkpt lat="35.33837611111111" lon="136.5464111111111">
<ele>9</ele>
</trkpt>
<trkpt lat="35.33837611111111" lon="136.5464111111111">
<ele>9</ele>
</trkpt>
<trkpt lat="35.33838388888889" lon="136.54662805555554">
<ele>9</ele>
</trkpt>
<trkpt lat="35.33838388888889" lon="136.5467661111111">
<ele>9</ele>
</trkpt>
<trkpt lat="35.33889305555556" lon="136.54672805555555">
<ele>9</ele>
</trkpt>
<trkpt lat="35.339441944444445" lon="136.5466911111111">
<ele>9</ele>
</trkpt>
<trkpt lat="35.33960888888889" lon="136.54667805555556">
<ele>9</ele>
</trkpt>
<trkpt lat="35.34043388888889" lon="136.54662805555554">
<ele>9</ele>
</trkpt>
<trkpt lat="35.34215888888889" lon="136.54650305555555">
<ele>9</ele>
</trkpt>
<trkpt lat="35.34316611111111" lon="136.54643694444445">
<ele>9</ele>
</trkpt>
<trkpt lat="35.34316611111111" lon="136.54643694444445">
<ele>9</ele>
</trkpt>
<trkpt lat="35.34350111111111" lon="136.5464161111111">
<ele>9</ele>
</trkpt>
<trkpt lat="35.345466944444446" lon="136.54629111111112">
<ele>9</ele>
</trkpt>
<trkpt lat="35.34565888888889" lon="136.54627805555555">
<ele>9</ele>
</trkpt>
<trkpt lat="35.3457" lon="136.54627805555555">
<ele>9</ele>
</trkpt>
<trkpt lat="35.34618388888889" lon="136.5462411111111">
<ele>9</ele>
</trkpt>
<trkpt lat="35.34681694444444" lon="136.5461911111111">
<ele>9</ele>
</trkpt>
<trkpt lat="35.34793305555556" lon="136.5461161111111">
<ele>9</ele>
</trkpt>
<trkpt lat="35.349291111111114" lon="136.54602805555555">
<ele>9</ele>
</trkpt>
<trkpt lat="35.35181611111111" lon="136.54585305555557">
<ele>8</ele>
</trkpt>
<trkpt lat="35.35357388888889" lon="136.54570305555555">
<ele>9</ele>
</trkpt>
<trkpt lat="35.35424111111111" lon="136.54565305555556">
<ele>9</ele>
</trkpt>
<trkpt lat="35.354596944444445" lon="136.54563">
<ele>9</ele>
</trkpt>
<trkpt lat="35.354596944444445" lon="136.54563">
<ele>9</ele>
</trkpt>
<trkpt lat="35.35483194444444" lon="136.545615">
<ele>9</ele>
</trkpt>
<trkpt lat="35.35494888888889" lon="136.54560305555555">
<ele>9</ele>
</trkpt>
<trkpt lat="35.35509888888889" lon="136.54559">
<ele>9</ele>
</trkpt>
<trkpt lat="35.35512388888889" lon="136.54559">
<ele>9</ele>
</trkpt>
<trkpt lat="35.355606944444446" lon="136.54555305555556">
<ele>9</ele>
</trkpt>
<trkpt lat="35.35595694444444" lon="136.545515">
<ele>10</ele>
</trkpt>
<trkpt lat="35.35605805555556" lon="136.545515">
<ele>10</ele>
</trkpt>
<trkpt lat="35.356158055555554" lon="136.54550305555554">
<ele>10</ele>
</trkpt>
<trkpt lat="35.356473888888885" lon="136.54547805555555">
<ele>10</ele>
</trkpt>
<trkpt lat="35.35677388888889" lon="136.545465">
<ele>10</ele>
</trkpt>
<trkpt lat="35.35684111111111" lon="136.54629">
<ele>11</ele>
</trkpt>
<trkpt lat="35.356811944444445" lon="136.5464888888889">
<ele>11</ele>
</trkpt>
<trkpt lat="35.356811944444445" lon="136.5464888888889">
<ele>11</ele>
</trkpt>
<trkpt lat="35.35684111111111" lon="136.54629">
<ele>11</ele>
</trkpt>
<trkpt lat="35.35677388888889" lon="136.545465">
<ele>10</ele>
</trkpt>
<trkpt lat="35.35709888888889" lon="136.545415">
<ele>10</ele>
</trkpt>
<trkpt lat="35.35704111111111" lon="136.54517805555557">
<ele>10</ele>
</trkpt>
<trkpt lat="35.357031944444444" lon="136.54512805555555">
<ele>10</ele>
</trkpt>
<trkpt lat="35.35696611111111" lon="136.54509">
<ele>10</ele>
</trkpt>
<trkpt lat="35.35696388888889" lon="136.54507388888888">
<ele>10</ele>
</trkpt>
<trkpt lat="35.35696388888889" lon="136.54507305555555">
<ele>10</ele>
</trkpt>
<trkpt lat="35.35696611111111" lon="136.54509">
<ele>10</ele>
</trkpt>
<trkpt lat="35.357031944444444" lon="136.54512805555555">
<ele>10</ele>
</trkpt>
<trkpt lat="35.35704111111111" lon="136.54517805555557">
<ele>10</ele>
</trkpt>
<trkpt lat="35.35709888888889" lon="136.545415">
<ele>10</ele>
</trkpt>
<trkpt lat="35.357348888888886" lon="136.54537805555555">
<ele>10</ele>
</trkpt>
<trkpt lat="35.35755694444445" lon="136.54535305555555">
<ele>10</ele>
</trkpt>
<trkpt lat="35.35783194444444" lon="136.54537805555555">
<ele>10</ele>
</trkpt>
<trkpt lat="35.357973888888885" lon="136.54537805555555">
<ele>10</ele>
</trkpt>
<trkpt lat="35.35822388888889" lon="136.54535305555555">
<ele>11</ele>
</trkpt>
<trkpt lat="35.358291111111114" lon="136.54535">
<ele>11</ele>
</trkpt>
<trkpt lat="35.358291111111114" lon="136.54535">
<ele>11</ele>
</trkpt>
<trkpt lat="35.358581944444445" lon="136.54534">
<ele>11</ele>
</trkpt>
<trkpt lat="35.358581944444445" lon="136.54537805555555">
<ele>11</ele>
</trkpt>
<trkpt lat="35.35861611111111" lon="136.545465">
<ele>11</ele>
</trkpt>
<trkpt lat="35.35861611111111" lon="136.54585305555557">
<ele>11</ele>
</trkpt>
<trkpt lat="35.35856611111111" lon="136.54624">
<ele>11</ele>
</trkpt>
<trkpt lat="35.358556944444445" lon="136.54657805555556">
<ele>11</ele>
</trkpt>
<trkpt lat="35.35854888888889" lon="136.54679">
<ele>11</ele>
</trkpt>
<trkpt lat="35.358553055555554" lon="136.546865">
<ele>11</ele>
</trkpt>
<trkpt lat="35.358553055555554" lon="136.546865">
<ele>11</ele>
</trkpt>
<trkpt lat="35.35857388888889" lon="136.54722805555556">
<ele>12</ele>
</trkpt>
<trkpt lat="35.35859111111111" lon="136.547415">
<ele>12</ele>
</trkpt>
<trkpt lat="35.35859888888889" lon="136.54747805555556">
<ele>12</ele>
</trkpt>
<trkpt lat="35.35867388888889" lon="136.54802694444444">
<ele>12</ele>
</trkpt>
<trkpt lat="35.35928694444444" lon="136.54811">
<ele>12</ele>
</trkpt>
<trkpt lat="35.35928694444444" lon="136.54811">
<ele>12</ele>
</trkpt>
<trkpt lat="35.35950694444445" lon="136.54814">
<ele>13</ele>
</trkpt>
<trkpt lat="35.359631944444445" lon="136.54812694444445">
<ele>13</ele>
</trkpt>
<trkpt lat="35.35982388888889" lon="136.548065">
<ele>13</ele>
</trkpt>
<trkpt lat="35.35987388888889" lon="136.548065">
<ele>13</ele>
</trkpt>
<trkpt lat="35.35990888888889" lon="136.548545">
<ele>13</ele>
</trkpt>
<trkpt lat="35.35990888888889" lon="136.548545">
<ele>13</ele>
</trkpt>
<trkpt lat="35.35987388888889" lon="136.548065">
<ele>13</ele>
</trkpt>
<trkpt lat="35.359923888888886" lon="136.548065">
<ele>13</ele>
</trkpt>
<trkpt lat="35.36044611111111" lon="136.54810194444445">
<ele>13</ele>
</trkpt>
<trkpt lat="35.36044611111111" lon="136.54810194444445">
<ele>13</ele>
</trkpt>
<trkpt lat="35.360456944444444" lon="136.54810194444445">
<ele>13</ele>
</trkpt>
<trkpt lat="35.36067388888889" lon="136.54809">
<ele>13</ele>
</trkpt>
<trkpt lat="35.36109" lon="136.54802694444444">
<ele>13</ele>
</trkpt>
<trkpt lat="35.36117388888889" lon="136.54802694444444">
<ele>13</ele>
</trkpt>
<trkpt lat="35.36128194444444" lon="136.54802694444444">
<ele>13</ele>
</trkpt>
<trkpt lat="35.361531944444444" lon="136.54809">
<ele>13</ele>
</trkpt>
<trkpt lat="35.36189" lon="136.548015">
<ele>13</ele>
</trkpt>
<trkpt lat="35.361981944444445" lon="136.54799">
<ele>13</ele>
</trkpt>
<trkpt lat="35.36214" lon="136.54799">
<ele>14</ele>
</trkpt>
<trkpt lat="35.36258194444444" lon="136.54810194444445">
<ele>14</ele>
</trkpt>
<trkpt lat="35.362565" lon="136.54820194444446">
<ele>14</ele>
</trkpt>
<trkpt lat="35.36249" lon="136.54840194444444">
<ele>14</ele>
</trkpt>
<trkpt lat="35.36244" lon="136.548515">
<ele>14</ele>
</trkpt>
<trkpt lat="35.36242111111111" lon="136.54859694444445">
<ele>14</ele>
</trkpt>
<trkpt lat="35.36242111111111" lon="136.54859694444445">
<ele>14</ele>
</trkpt>
<trkpt lat="35.36244" lon="136.548515">
<ele>14</ele>
</trkpt>
<trkpt lat="35.36249" lon="136.54840194444444">
<ele>14</ele>
</trkpt>
<trkpt lat="35.362565" lon="136.54820194444446">
<ele>14</ele>
</trkpt>
<trkpt lat="35.36258194444444" lon="136.54810194444445">
<ele>14</ele>
</trkpt>
<trkpt lat="35.36214" lon="136.54799">
<ele>14</ele>
</trkpt>
<trkpt lat="35.361981944444445" lon="136.54799">
<ele>13</ele>
</trkpt>
<trkpt lat="35.36189" lon="136.548015">
<ele>13</ele>
</trkpt>
<trkpt lat="35.361531944444444" lon="136.54809">
<ele>13</ele>
</trkpt>
<trkpt lat="35.36128194444444" lon="136.54802694444444">
<ele>13</ele>
</trkpt>
<trkpt lat="35.36117388888889" lon="136.54802694444444">
<ele>13</ele>
</trkpt>
<trkpt lat="35.36109" lon="136.54802694444444">
<ele>13</ele>
</trkpt>
<trkpt lat="35.36067388888889" lon="136.54809">
<ele>13</ele>
</trkpt>
<trkpt lat="35.36067" lon="136.54774194444445">
<ele>13</ele>
</trkpt>
<trkpt lat="35.36067" lon="136.54774194444445">
<ele>13</ele>
</trkpt>
<trkpt lat="35.360665" lon="136.547315">
<ele>12</ele>
</trkpt>
<trkpt lat="35.36055694444445" lon="136.547315">
<ele>12</ele>
</trkpt>
<trkpt lat="35.360375" lon="136.54734805555555">
<ele>12</ele>
</trkpt>
<trkpt lat="35.360375" lon="136.54734805555555">
<ele>12</ele>
</trkpt>
<trkpt lat="35.36055694444445" lon="136.547315">
<ele>12</ele>
</trkpt>
<trkpt lat="35.36058194444445" lon="136.54699">
<ele>13</ele>
</trkpt>
<trkpt lat="35.360593055555555" lon="136.54659">
<ele>13</ele>
</trkpt>
<trkpt lat="35.360593055555555" lon="136.54659">
<ele>13</ele>
</trkpt>
<trkpt lat="35.36059888888889" lon="136.54637805555555">
<ele>13</ele>
</trkpt>
<trkpt lat="35.36084" lon="136.54639">
<ele>13</ele>
</trkpt>
<trkpt lat="35.36089" lon="136.54635305555556">
<ele>13</ele>
</trkpt>
<trkpt lat="35.36087388888889" lon="136.546315">
<ele>13</ele>
</trkpt>
<trkpt lat="35.360865" lon="136.54612805555556">
<ele>13</ele>
</trkpt>
<trkpt lat="35.36086111111111" lon="136.54598305555555">
<ele>13</ele>
</trkpt>
<trkpt lat="35.36086111111111" lon="136.54598305555555">
<ele>13</ele>
</trkpt>
<trkpt lat="35.36085694444444" lon="136.545865">
<ele>13</ele>
</trkpt>
<trkpt lat="35.36060694444444" lon="136.54585305555557">
<ele>13</ele>
</trkpt>
<trkpt lat="35.36043194444444" lon="136.54580305555555">
<ele>13</ele>
</trkpt>
<trkpt lat="35.36032388888889" lon="136.545765">
<ele>13</ele>
</trkpt>
<trkpt lat="35.360031944444444" lon="136.54564">
<ele>13</ele>
</trkpt>
<trkpt lat="35.35962305555555" lon="136.5454738888889">
<ele>12</ele>
</trkpt>
<trkpt lat="35.35962305555555" lon="136.5454738888889">
<ele>12</ele>
</trkpt>
<trkpt lat="35.35954" lon="136.54544">
<ele>12</ele>
</trkpt>
<trkpt lat="35.35964" lon="136.54472805555557">
<ele>13</ele>
</trkpt>
<trkpt lat="35.359681944444446" lon="136.544515">
<ele>13</ele>
</trkpt>
<trkpt lat="35.35975694444444" lon="136.544315">
<ele>13</ele>
</trkpt>
<trkpt lat="35.359898888888885" lon="136.54394">
<ele>14</ele>
</trkpt>
<trkpt lat="35.359923888888886" lon="136.543865">
<ele>14</ele>
</trkpt>
<trkpt lat="35.35994" lon="136.54380305555554">
<ele>14</ele>
</trkpt>
<trkpt lat="35.35993194444445" lon="136.54342805555555">
<ele>14</ele>
</trkpt>
<trkpt lat="35.36000694444444" lon="136.5429411111111">
<ele>14</ele>
</trkpt>
<trkpt lat="35.360031944444444" lon="136.54275305555555">
<ele>14</ele>
</trkpt>
<trkpt lat="35.360056944444445" lon="136.54260305555556">
<ele>14</ele>
</trkpt>
<trkpt lat="35.36014" lon="136.54225305555556">
<ele>14</ele>
</trkpt>
<trkpt lat="35.36018194444444" lon="136.5420661111111">
<ele>15</ele>
</trkpt>
<trkpt lat="35.36019" lon="136.54199111111112">
<ele>15</ele>
</trkpt>
<trkpt lat="35.360351944444446" lon="136.5420188888889">
<ele>15</ele>
</trkpt>
<trkpt lat="35.360351944444446" lon="136.5420188888889">
<ele>15</ele>
</trkpt>
<trkpt lat="35.36054" lon="136.54205305555556">
<ele>15</ele>
</trkpt>
<trkpt lat="35.360715" lon="136.5420661111111">
<ele>15</ele>
</trkpt>
<trkpt lat="35.36084" lon="136.5420661111111">
<ele>16</ele>
</trkpt>
<trkpt lat="35.360973888888886" lon="136.54205305555556">
<ele>16</ele>
</trkpt>
<trkpt lat="35.361315" lon="136.5420161111111">
<ele>17</ele>
</trkpt>
<trkpt lat="35.361606944444446" lon="136.54197805555555">
<ele>17</ele>
</trkpt>
<trkpt lat="35.36174" lon="136.54195305555555">
<ele>17</ele>
</trkpt>
<trkpt lat="35.36233194444444" lon="136.54186611111112">
<ele>17</ele>
</trkpt>
<trkpt lat="35.36363194444444" lon="136.5416911111111">
<ele>16</ele>
</trkpt>
<trkpt lat="35.363998055555555" lon="136.54164111111112">
<ele>17</ele>
</trkpt>
<trkpt lat="35.364848055555555" lon="136.54151611111112">
<ele>18</ele>
</trkpt>
<trkpt lat="35.36484111111111" lon="136.5414288888889">
<ele>18</ele>
</trkpt>
<trkpt lat="35.36484111111111" lon="136.5414288888889">
<ele>18</ele>
</trkpt>
<trkpt lat="35.364848055555555" lon="136.54151611111112">
<ele>18</ele>
</trkpt>
<trkpt lat="35.36542305555555" lon="136.5414411111111">
<ele>19</ele>
</trkpt>
<trkpt lat="35.36557305555556" lon="136.54140305555555">
<ele>19</ele>
</trkpt>
<trkpt lat="35.36568111111111" lon="136.54131611111112">
<ele>20</ele>
</trkpt>
<trkpt lat="35.365865" lon="136.5411161111111">
<ele>20</ele>
</trkpt>
<trkpt lat="35.36594" lon="136.5409911111111">
<ele>20</ele>
</trkpt>
<trkpt lat="35.36602305555556" lon="136.54087805555557">
<ele>20</ele>
</trkpt>
<trkpt lat="35.366323055555554" lon="136.54039111111112">
<ele>20</ele>
</trkpt>
<trkpt lat="35.366506111111114" lon="136.54010305555556">
<ele>20</ele>
</trkpt>
<trkpt lat="35.36667305555556" lon="136.53984111111112">
<ele>21</ele>
</trkpt>
<trkpt lat="35.36681388888889" lon="136.53960305555555">
<ele>21</ele>
</trkpt>
<trkpt lat="35.36709805555556" lon="136.53915305555554">
<ele>21</ele>
</trkpt>
<trkpt lat="35.367373055555554" lon="136.5387161111111">
<ele>22</ele>
</trkpt>
<trkpt lat="35.36751388888889" lon="136.53846611111112">
<ele>22</ele>
</trkpt>
<trkpt lat="35.36757305555555" lon="136.5382911111111">
<ele>22</ele>
</trkpt>
<trkpt lat="35.36758888888889" lon="136.53824111111112">
<ele>22</ele>
</trkpt>
<trkpt lat="35.367598055555554" lon="136.5379661111111">
<ele>23</ele>
</trkpt>
<trkpt lat="35.36761388888889" lon="136.5377411111111">
<ele>23</ele>
</trkpt>
<trkpt lat="35.36762" lon="136.53770111111112">
<ele>23</ele>
</trkpt>
<trkpt lat="35.36762" lon="136.53770111111112">
<ele>23</ele>
</trkpt>
<trkpt lat="35.367648055555556" lon="136.53750305555556">
<ele>23</ele>
</trkpt>
<trkpt lat="35.367688888888885" lon="136.5371911111111">
<ele>24</ele>
</trkpt>
<trkpt lat="35.36781388888889" lon="136.5367161111111">
<ele>24</ele>
</trkpt>
<trkpt lat="35.36794805555556" lon="136.5367411111111">
<ele>24</ele>
</trkpt>
<trkpt lat="35.36915611111111" lon="136.53699111111112">
<ele>25</ele>
</trkpt>
<trkpt lat="35.36923111111111" lon="136.53700305555554">
<ele>25</ele>
</trkpt>
<trkpt lat="35.36933111111111" lon="136.5365661111111">
<ele>25</ele>
</trkpt>
<trkpt lat="35.369523055555554" lon="136.5360661111111">
<ele>25</ele>
</trkpt>
<trkpt lat="35.36955888888889" lon="136.53599888888888">
<ele>25</ele>
</trkpt>
<trkpt lat="35.36956" lon="136.53599888888888">
<ele>25</ele>
</trkpt>
<trkpt lat="35.36978111111111" lon="136.5356038888889">
<ele>25</ele>
</trkpt>
<trkpt lat="35.37001388888889" lon="136.5352538888889">
<ele>25</ele>
</trkpt>
<trkpt lat="35.37018111111111" lon="136.5350411111111">
<ele>25</ele>
</trkpt>
<trkpt lat="35.37027194444445" lon="136.53495388888888">
<ele>25</ele>
</trkpt>
<trkpt lat="35.37033111111111" lon="136.53492888888889">
<ele>25</ele>
</trkpt>
<trkpt lat="35.37043111111111" lon="136.5349038888889">
<ele>25</ele>
</trkpt>
<trkpt lat="35.37048111111111" lon="136.5348788888889">
<ele>26</ele>
</trkpt>
<trkpt lat="35.37061388888889" lon="136.53482888888888">
<ele>26</ele>
</trkpt>
<trkpt lat="35.370671944444446" lon="136.5347911111111">
<ele>25</ele>
</trkpt>
<trkpt lat="35.37069694444445" lon="136.5347661111111">
<ele>26</ele>
</trkpt>
<trkpt lat="35.37069694444445" lon="136.53471611111112">
<ele>26</ele>
</trkpt>
<trkpt lat="35.370646944444445" lon="136.53450388888888">
<ele>26</ele>
</trkpt>
<trkpt lat="35.370646944444445" lon="136.5344661111111">
<ele>26</ele>
</trkpt>
<trkpt lat="35.371138888888886" lon="136.5339038888889">
<ele>26</ele>
</trkpt>
<trkpt lat="35.37153111111111" lon="136.5334161111111">
<ele>27</ele>
</trkpt>
<trkpt lat="35.37150611111111" lon="136.53339111111111">
<ele>27</ele>
</trkpt>
<trkpt lat="35.37105611111111" lon="136.5327161111111">
<ele>27</ele>
</trkpt>
<trkpt lat="35.37096694444445" lon="136.53259888888888">
<ele>28</ele>
</trkpt>
<trkpt lat="35.37096694444445" lon="136.53259888888888">
<ele>28</ele>
</trkpt>
<trkpt lat="35.370913888888886" lon="136.5325288888889">
<ele>28</ele>
</trkpt>
<trkpt lat="35.37086388888889" lon="136.5324288888889">
<ele>28</ele>
</trkpt>
<trkpt lat="35.37092194444445" lon="136.5322911111111">
<ele>28</ele>
</trkpt>
<trkpt lat="35.370981111111114" lon="136.53214111111112">
<ele>28</ele>
</trkpt>
<trkpt lat="35.371006111111114" lon="136.5320538888889">
<ele>27</ele>
</trkpt>
<trkpt lat="35.371006111111114" lon="136.5318661111111">
<ele>27</ele>
</trkpt>
<trkpt lat="35.37088888888889" lon="136.5311788888889">
<ele>28</ele>
</trkpt>
<trkpt lat="35.37028111111111" lon="136.53130388888889">
<ele>28</ele>
</trkpt>
<trkpt lat="35.37027888888889" lon="136.53129611111112">
<ele>28</ele>
</trkpt>
    </trkseg>
  </trk>
</gpx>