<?xml version="1.0" encoding="UTF-8"?>
<gpx version="1.1"
     creator="KMLtoGPX"
     xmlns="http://www.topografix.com/GPX/1/1">
  <metadata>
    <name>Water and Saiku Shrine Tour Course</name>
    <desc>水と禊の斎宮を巡るコース</desc>
    <bounds minlat="34.53639" minlon="136.60282" maxlat="34.57405" maxlon="136.66064"/>
  </metadata>
  <trk>
    <name>Water and Saiku Shrine Tour Course</name>
    <trkseg>
<trkpt lat="34.53756" lon="136.61539">
<ele>11.3</ele>
</trkpt>
<trkpt lat="34.53757" lon="136.61535">
<ele>11.2</ele>
</trkpt>
<trkpt lat="34.53702" lon="136.61522">
<ele>12.1</ele>
</trkpt>
<trkpt lat="34.53649" lon="136.6151999">
<ele>12.4</ele>
</trkpt>
<trkpt lat="34.53649" lon="136.61522">
<ele>12.4</ele>
</trkpt>
<trkpt lat="34.53645" lon="136.6144">
<ele>12.1</ele>
</trkpt>
<trkpt lat="34.53642" lon="136.61338">
<ele>12.6</ele>
</trkpt>
<trkpt lat="34.53639" lon="136.61237">
<ele>12.0</ele>
</trkpt>
<trkpt lat="34.5364" lon="136.6118">
<ele>12.0</ele>
</trkpt>
<trkpt lat="34.5364" lon="136.61123">
<ele>12.5</ele>
</trkpt>
<trkpt lat="34.53646" lon="136.6107">
<ele>13.2</ele>
</trkpt>
<trkpt lat="34.53657" lon="136.60986">
<ele>14.1</ele>
</trkpt>
<trkpt lat="34.53667" lon="136.6090199">
<ele>14.8</ele>
</trkpt>
<trkpt lat="34.53676" lon="136.60858">
<ele>14.2</ele>
</trkpt>
<trkpt lat="34.53694" lon="136.60811">
<ele>14.1</ele>
</trkpt>
<trkpt lat="34.53728" lon="136.60728">
<ele>13.7</ele>
</trkpt>
<trkpt lat="34.5375" lon="136.60674">
<ele>13.9</ele>
</trkpt>
<trkpt lat="34.53771" lon="136.60619">
<ele>13.6</ele>
</trkpt>
<trkpt lat="34.53793" lon="136.60564">
<ele>12.6</ele>
</trkpt>
<trkpt lat="34.53824" lon="136.605">
<ele>11.9</ele>
</trkpt>
<trkpt lat="34.53837" lon="136.60456">
<ele>10.4</ele>
</trkpt>
<trkpt lat="34.53852" lon="136.60395">
<ele>8.9</ele>
</trkpt>
<trkpt lat="34.53867" lon="136.60335">
<ele>8.2</ele>
</trkpt>
<trkpt lat="34.5387" lon="136.60327">
<ele>8.1</ele>
</trkpt>
<trkpt lat="34.53889" lon="136.60297">
<ele>8.0</ele>
</trkpt>
<trkpt lat="34.5389399" lon="136.60295">
<ele>8.0</ele>
</trkpt>
<trkpt lat="34.53906" lon="136.60282">
<ele>8.2</ele>
</trkpt>
<trkpt lat="34.53906" lon="136.60282">
<ele>8.2</ele>
</trkpt>
<trkpt lat="34.53949" lon="136.60323">
<ele>7.6</ele>
</trkpt>
<trkpt lat="34.53954" lon="136.6033">
<ele>7.5</ele>
</trkpt>
<trkpt lat="34.53973" lon="136.60346">
<ele>7.8243047</ele>
</trkpt>
<trkpt lat="34.53984" lon="136.60358">
<ele>8.0317146</ele>
</trkpt>
<trkpt lat="34.53989" lon="136.6036499">
<ele>8.1387523</ele>
</trkpt>
<trkpt lat="34.53994" lon="136.60373">
<ele>8.2547654</ele>
</trkpt>
<trkpt lat="34.54013" lon="136.6039199">
<ele>8.6</ele>
</trkpt>
<trkpt lat="34.54043" lon="136.60407">
<ele>8.4</ele>
</trkpt>
<trkpt lat="34.54061" lon="136.60418">
<ele>8.3</ele>
</trkpt>
<trkpt lat="34.54075" lon="136.60429">
<ele>8.1</ele>
</trkpt>
<trkpt lat="34.54101" lon="136.60439">
<ele>8.3</ele>
</trkpt>
<trkpt lat="34.5410899" lon="136.60467">
<ele>8.7</ele>
</trkpt>
<trkpt lat="34.54096" lon="136.60547">
<ele>8.1</ele>
</trkpt>
<trkpt lat="34.5410899" lon="136.6057">
<ele>8.6</ele>
</trkpt>
<trkpt lat="34.54122" lon="136.60586">
<ele>9.3</ele>
</trkpt>
<trkpt lat="34.54123" lon="136.60593">
<ele>9.5</ele>
</trkpt>
<trkpt lat="34.54108" lon="136.60668">
<ele>10.9</ele>
</trkpt>
<trkpt lat="34.54112" lon="136.60691">
<ele>11.5</ele>
</trkpt>
<trkpt lat="34.54106" lon="136.60722">
<ele>13.0</ele>
</trkpt>
<trkpt lat="34.5410899" lon="136.60767">
<ele>13.4</ele>
</trkpt>
<trkpt lat="34.54108" lon="136.60791">
<ele>12.8</ele>
</trkpt>
<trkpt lat="34.54108" lon="136.60794">
<ele>12.8</ele>
</trkpt>
<trkpt lat="34.54075" lon="136.6078599">
<ele>14.4</ele>
</trkpt>
<trkpt lat="34.54043" lon="136.60775">
<ele>15.1</ele>
</trkpt>
<trkpt lat="34.54011" lon="136.60855">
<ele>13.5</ele>
</trkpt>
<trkpt lat="34.53978" lon="136.60935">
<ele>12.5</ele>
</trkpt>
<trkpt lat="34.53978" lon="136.60935">
<ele>12.5</ele>
</trkpt>
<trkpt lat="34.54037" lon="136.60967">
<ele>11.5</ele>
</trkpt>
<trkpt lat="34.54017" lon="136.61065">
<ele>12.1</ele>
</trkpt>
<trkpt lat="34.5399699" lon="136.61164">
<ele>14.9</ele>
</trkpt>
<trkpt lat="34.53978" lon="136.61253">
<ele>12.8</ele>
</trkpt>
<trkpt lat="34.53958" lon="136.61343">
<ele>8.1</ele>
</trkpt>
<trkpt lat="34.5395899" lon="136.61343">
<ele>8.1</ele>
</trkpt>
<trkpt lat="34.53976" lon="136.61344">
<ele>8.5</ele>
</trkpt>
<trkpt lat="34.54015" lon="136.6134999">
<ele>8.9</ele>
</trkpt>
<trkpt lat="34.54018" lon="136.61355">
<ele>9.0</ele>
</trkpt>
<trkpt lat="34.54021" lon="136.61363">
<ele>9.0</ele>
</trkpt>
<trkpt lat="34.54026" lon="136.61408">
<ele>9.5</ele>
</trkpt>
<trkpt lat="34.54038" lon="136.61509">
<ele>10.4</ele>
</trkpt>
<trkpt lat="34.54037" lon="136.61559">
<ele>10.3</ele>
</trkpt>
<trkpt lat="34.54032" lon="136.61595">
<ele>10.2</ele>
</trkpt>
<trkpt lat="34.54027" lon="136.61597">
<ele>10.1</ele>
</trkpt>
<trkpt lat="34.54032" lon="136.6163599">
<ele>10.4</ele>
</trkpt>
<trkpt lat="34.54032" lon="136.61656">
<ele>10.6</ele>
</trkpt>
<trkpt lat="34.54034" lon="136.6168999">
<ele>10.4</ele>
</trkpt>
<trkpt lat="34.54037" lon="136.61738">
<ele>10.1</ele>
</trkpt>
<trkpt lat="34.54038" lon="136.61807">
<ele>9.6</ele>
</trkpt>
<trkpt lat="34.54037" lon="136.61865">
<ele>9.1</ele>
</trkpt>
<trkpt lat="34.54045" lon="136.61897">
<ele>8.7</ele>
</trkpt>
<trkpt lat="34.5407" lon="136.6189599">
<ele>8.6</ele>
</trkpt>
<trkpt lat="34.54124" lon="136.61893">
<ele>8.6</ele>
</trkpt>
<trkpt lat="34.54127" lon="136.61951">
<ele>8.0</ele>
</trkpt>
<trkpt lat="34.54132" lon="136.6205">
<ele>7.9</ele>
</trkpt>
<trkpt lat="34.54137" lon="136.62149">
<ele>8.5</ele>
</trkpt>
<trkpt lat="34.54142" lon="136.62248">
<ele>9.3</ele>
</trkpt>
<trkpt lat="34.5414699" lon="136.62347">
<ele>8.3</ele>
</trkpt>
<trkpt lat="34.54152" lon="136.62454">
<ele>9.0</ele>
</trkpt>
<trkpt lat="34.54158" lon="136.6256">
<ele>5.3</ele>
</trkpt>
<trkpt lat="34.54163" lon="136.62667">
<ele>4.0</ele>
</trkpt>
<trkpt lat="34.54168" lon="136.62774">
<ele>4.9</ele>
</trkpt>
<trkpt lat="34.54173" lon="136.6288">
<ele>5.8</ele>
</trkpt>
<trkpt lat="34.54174" lon="136.62973">
<ele>4.4</ele>
</trkpt>
<trkpt lat="34.54175" lon="136.63066">
<ele>3.3</ele>
</trkpt>
<trkpt lat="34.5417599" lon="136.63159">
<ele>3.5095342</ele>
</trkpt>
<trkpt lat="34.5417599" lon="136.63202">
<ele>3.6064074</ele>
</trkpt>
<trkpt lat="34.5417599" lon="136.63202">
<ele>3.6064074</ele>
</trkpt>
<trkpt lat="34.5417599" lon="136.63207">
<ele>3.6176717</ele>
</trkpt>
<trkpt lat="34.54206" lon="136.6321">
<ele>3.7</ele>
</trkpt>
<trkpt lat="34.54252" lon="136.63222">
<ele>4.7</ele>
</trkpt>
<trkpt lat="34.54298" lon="136.63233">
<ele>4.9</ele>
</trkpt>
<trkpt lat="34.54367" lon="136.63251">
<ele>4.2</ele>
</trkpt>
<trkpt lat="34.54436" lon="136.6327">
<ele>3.3</ele>
</trkpt>
<trkpt lat="34.54436" lon="136.6327">
<ele>3.3</ele>
</trkpt>
<trkpt lat="34.54444" lon="136.63273">
<ele>3.2</ele>
</trkpt>
<trkpt lat="34.54445" lon="136.63321">
<ele>4.9</ele>
</trkpt>
<trkpt lat="34.54445" lon="136.63321">
<ele>4.9</ele>
</trkpt>
<trkpt lat="34.54507" lon="136.6331999">
<ele>3.5</ele>
</trkpt>
<trkpt lat="34.5456999" lon="136.63319">
<ele>2.9</ele>
</trkpt>
<trkpt lat="34.54589" lon="136.63321">
<ele>2.7</ele>
</trkpt>
<trkpt lat="34.5459699" lon="136.63324">
<ele>2.6</ele>
</trkpt>
<trkpt lat="34.54674" lon="136.6335">
<ele>1.8</ele>
</trkpt>
<trkpt lat="34.54752" lon="136.63375">
<ele>3.5</ele>
</trkpt>
<trkpt lat="34.54829" lon="136.63401">
<ele>5.1</ele>
</trkpt>
<trkpt lat="34.54876" lon="136.63403">
<ele>5.6</ele>
</trkpt>
<trkpt lat="34.54892" lon="136.63404">
<ele>5.7</ele>
</trkpt>
<trkpt lat="34.54895" lon="136.63421">
<ele>5.7</ele>
</trkpt>
<trkpt lat="34.5489" lon="136.63456">
<ele>5.7</ele>
</trkpt>
<trkpt lat="34.54865" lon="136.63518">
<ele>5.3</ele>
</trkpt>
<trkpt lat="34.5486099" lon="136.63537">
<ele>5.2</ele>
</trkpt>
<trkpt lat="34.54857" lon="136.63559">
<ele>5.1</ele>
</trkpt>
<trkpt lat="34.54853" lon="136.63611">
<ele>5.2</ele>
</trkpt>
<trkpt lat="34.5492599" lon="136.63586">
<ele>5.0</ele>
</trkpt>
<trkpt lat="34.54971" lon="136.63571">
<ele>5.0</ele>
</trkpt>
<trkpt lat="34.55015" lon="136.63556">
<ele>4.9</ele>
</trkpt>
<trkpt lat="34.54998" lon="136.63482">
<ele>4.3</ele>
</trkpt>
<trkpt lat="34.54978" lon="136.63394">
<ele>5.3</ele>
</trkpt>
<trkpt lat="34.55013" lon="136.63377">
<ele>4.9</ele>
</trkpt>
<trkpt lat="34.55057" lon="136.63362">
<ele>3.9</ele>
</trkpt>
<trkpt lat="34.55101" lon="136.63347">
<ele>2.9</ele>
</trkpt>
<trkpt lat="34.55169" lon="136.63324">
<ele>3.0</ele>
</trkpt>
<trkpt lat="34.55236" lon="136.63301">
<ele>3.8</ele>
</trkpt>
<trkpt lat="34.55271" lon="136.63294">
<ele>4.0</ele>
</trkpt>
<trkpt lat="34.55307" lon="136.63278">
<ele>4.2</ele>
</trkpt>
<trkpt lat="34.55368" lon="136.63258">
<ele>4.1</ele>
</trkpt>
<trkpt lat="34.5543" lon="136.63238">
<ele>2.8</ele>
</trkpt>
<trkpt lat="34.5544" lon="136.63234">
<ele>2.7</ele>
</trkpt>
<trkpt lat="34.55468" lon="136.6322999">
<ele>2.6</ele>
</trkpt>
<trkpt lat="34.55493" lon="136.63225">
<ele>2.6</ele>
</trkpt>
<trkpt lat="34.55518" lon="136.63224">
<ele>1.9</ele>
</trkpt>
<trkpt lat="34.55563" lon="136.63231">
<ele>0.0</ele>
</trkpt>
<trkpt lat="34.55585" lon="136.6323899">
<ele>-0.9</ele>
</trkpt>
<trkpt lat="34.55621" lon="136.6325699">
<ele>-0.8</ele>
</trkpt>
<trkpt lat="34.55648" lon="136.63276">
<ele>-0.4</ele>
</trkpt>
<trkpt lat="34.55672" lon="136.63299">
<ele>0.3</ele>
</trkpt>
<trkpt lat="34.55699" lon="136.63336">
<ele>1.0</ele>
</trkpt>
<trkpt lat="34.55736" lon="136.63368">
<ele>1.4</ele>
</trkpt>
<trkpt lat="34.55774" lon="136.6340899">
<ele>1.9</ele>
</trkpt>
<trkpt lat="34.55812" lon="136.6345">
<ele>2.1</ele>
</trkpt>
<trkpt lat="34.55835" lon="136.63474">
<ele>2.0</ele>
</trkpt>
<trkpt lat="34.55856" lon="136.63503">
<ele>2.0</ele>
</trkpt>
<trkpt lat="34.55898" lon="136.63542">
<ele>2.0</ele>
</trkpt>
<trkpt lat="34.55936" lon="136.63583">
<ele>1.5</ele>
</trkpt>
<trkpt lat="34.55975" lon="136.63625">
<ele>0.7</ele>
</trkpt>
<trkpt lat="34.56024" lon="136.6367799">
<ele>0.5</ele>
</trkpt>
<trkpt lat="34.56074" lon="136.6373">
<ele>1.1</ele>
</trkpt>
<trkpt lat="34.56095" lon="136.63757">
<ele>0.8</ele>
</trkpt>
<trkpt lat="34.56114" lon="136.63774">
<ele>0.5</ele>
</trkpt>
<trkpt lat="34.56122" lon="136.6378499">
<ele>0.4</ele>
</trkpt>
<trkpt lat="34.56153" lon="136.63825">
<ele>0.0</ele>
</trkpt>
<trkpt lat="34.56217" lon="136.63894">
<ele>0.5</ele>
</trkpt>
<trkpt lat="34.5628" lon="136.63963">
<ele>1.1</ele>
</trkpt>
<trkpt lat="34.56313" lon="136.63993">
<ele>1.7</ele>
</trkpt>
<trkpt lat="34.56344" lon="136.64032">
<ele>2.1</ele>
</trkpt>
<trkpt lat="34.56329" lon="136.64048">
<ele>2.4</ele>
</trkpt>
<trkpt lat="34.56323" lon="136.64056">
<ele>2.3</ele>
</trkpt>
<trkpt lat="34.56311" lon="136.64073">
<ele>1.9</ele>
</trkpt>
<trkpt lat="34.5631" lon="136.64073">
<ele>1.9</ele>
</trkpt>
<trkpt lat="34.56304" lon="136.64082">
<ele>1.6</ele>
</trkpt>
<trkpt lat="34.563" lon="136.64089">
<ele>1.3</ele>
</trkpt>
<trkpt lat="34.56299" lon="136.6408999">
<ele>1.2</ele>
</trkpt>
<trkpt lat="34.5629599" lon="136.64096">
<ele>1.0</ele>
</trkpt>
<trkpt lat="34.56286" lon="136.6411">
<ele>0.5</ele>
</trkpt>
<trkpt lat="34.56268" lon="136.64135">
<ele>0.3</ele>
</trkpt>
<trkpt lat="34.56265" lon="136.6414">
<ele>0.3</ele>
</trkpt>
<trkpt lat="34.56255" lon="136.64153">
<ele>0.2348182</ele>
</trkpt>
<trkpt lat="34.56255" lon="136.64153">
<ele>0.2348182</ele>
</trkpt>
<trkpt lat="34.56268" lon="136.64166">
<ele>0.1598872</ele>
</trkpt>
<trkpt lat="34.56269" lon="136.64167">
<ele>0.1541232</ele>
</trkpt>
<trkpt lat="34.5628" lon="136.64178">
<ele>0.0907201</ele>
</trkpt>
<trkpt lat="34.5628" lon="136.64178">
<ele>0.0907201</ele>
</trkpt>
<trkpt lat="34.5628699" lon="136.64169">
<ele>0.04536</ele>
</trkpt>
<trkpt lat="34.56294" lon="136.6416">
<ele>0.0</ele>
</trkpt>
<trkpt lat="34.56304" lon="136.64148">
<ele>0.1</ele>
</trkpt>
<trkpt lat="34.56313" lon="136.64136">
<ele>0.4</ele>
</trkpt>
<trkpt lat="34.5632" lon="136.64126">
<ele>0.8</ele>
</trkpt>
<trkpt lat="34.5632499" lon="136.64121">
<ele>1.1</ele>
</trkpt>
<trkpt lat="34.56328" lon="136.64117">
<ele>1.3</ele>
</trkpt>
<trkpt lat="34.56328" lon="136.64117">
<ele>1.3</ele>
</trkpt>
<trkpt lat="34.56332" lon="136.64114">
<ele>1.5</ele>
</trkpt>
<trkpt lat="34.56335" lon="136.64111">
<ele>1.6</ele>
</trkpt>
<trkpt lat="34.56344" lon="136.6409899">
<ele>2.0</ele>
</trkpt>
<trkpt lat="34.56362" lon="136.64076">
<ele>1.9</ele>
</trkpt>
<trkpt lat="34.56365" lon="136.64074">
<ele>1.8</ele>
</trkpt>
<trkpt lat="34.56366" lon="136.64074">
<ele>1.8</ele>
</trkpt>
<trkpt lat="34.56367" lon="136.64074">
<ele>1.7</ele>
</trkpt>
<trkpt lat="34.56369" lon="136.64073">
<ele>1.6</ele>
</trkpt>
<trkpt lat="34.56372" lon="136.64075">
<ele>1.6</ele>
</trkpt>
<trkpt lat="34.56375" lon="136.64077">
<ele>1.5</ele>
</trkpt>
<trkpt lat="34.5638" lon="136.6408099">
<ele>1.3</ele>
</trkpt>
<trkpt lat="34.56387" lon="136.64087">
<ele>1.0</ele>
</trkpt>
<trkpt lat="34.5638999" lon="136.6408999">
<ele>0.9</ele>
</trkpt>
<trkpt lat="34.56396" lon="136.64096">
<ele>0.7</ele>
</trkpt>
<trkpt lat="34.56402" lon="136.64103">
<ele>0.6</ele>
</trkpt>
<trkpt lat="34.56414" lon="136.64116">
<ele>0.4</ele>
</trkpt>
<trkpt lat="34.56423" lon="136.64125">
<ele>0.4</ele>
</trkpt>
<trkpt lat="34.56436" lon="136.64139">
<ele>0.3</ele>
</trkpt>
<trkpt lat="34.5645" lon="136.64154">
<ele>0.1</ele>
</trkpt>
<trkpt lat="34.56466" lon="136.64172">
<ele>-0.1</ele>
</trkpt>
<trkpt lat="34.5648399" lon="136.64191">
<ele>0.0</ele>
</trkpt>
<trkpt lat="34.56505" lon="136.64213">
<ele>0.1</ele>
</trkpt>
<trkpt lat="34.5652199" lon="136.64232">
<ele>0.3</ele>
</trkpt>
<trkpt lat="34.5653" lon="136.64241">
<ele>0.4</ele>
</trkpt>
<trkpt lat="34.56534" lon="136.64245">
<ele>0.5</ele>
</trkpt>
<trkpt lat="34.56544" lon="136.64256">
<ele>0.5</ele>
</trkpt>
<trkpt lat="34.56552" lon="136.64266">
<ele>0.4</ele>
</trkpt>
<trkpt lat="34.56564" lon="136.6427799">
<ele>0.2</ele>
</trkpt>
<trkpt lat="34.5657799" lon="136.64294">
<ele>0.1</ele>
</trkpt>
<trkpt lat="34.56595" lon="136.64312">
<ele>0.0</ele>
</trkpt>
<trkpt lat="34.5659599" lon="136.64313">
<ele>0.0</ele>
</trkpt>
<trkpt lat="34.56614" lon="136.64332">
<ele>0.0</ele>
</trkpt>
<trkpt lat="34.5663" lon="136.64349">
<ele>-0.3</ele>
</trkpt>
<trkpt lat="34.56648" lon="136.64369">
<ele>-0.8</ele>
</trkpt>
<trkpt lat="34.56662" lon="136.64384">
<ele>-1.2</ele>
</trkpt>
<trkpt lat="34.56664" lon="136.64386">
<ele>-1.2</ele>
</trkpt>
<trkpt lat="34.5668" lon="136.64404">
<ele>-1.4</ele>
</trkpt>
<trkpt lat="34.56693" lon="136.64418">
<ele>-1.3</ele>
</trkpt>
<trkpt lat="34.56706" lon="136.64432">
<ele>-0.8</ele>
</trkpt>
<trkpt lat="34.56724" lon="136.64451">
<ele>-0.1</ele>
</trkpt>
<trkpt lat="34.56742" lon="136.64471">
<ele>0.5</ele>
</trkpt>
<trkpt lat="34.56754" lon="136.6448399">
<ele>0.8</ele>
</trkpt>
<trkpt lat="34.56769" lon="136.64499">
<ele>1.0</ele>
</trkpt>
<trkpt lat="34.5677" lon="136.64501">
<ele>1.0</ele>
</trkpt>
<trkpt lat="34.56781" lon="136.64513">
<ele>1.2</ele>
</trkpt>
<trkpt lat="34.56783" lon="136.64515">
<ele>1.2</ele>
</trkpt>
<trkpt lat="34.56794" lon="136.64527">
<ele>1.3</ele>
</trkpt>
<trkpt lat="34.56797" lon="136.6453">
<ele>1.4</ele>
</trkpt>
<trkpt lat="34.56807" lon="136.64542">
<ele>1.5</ele>
</trkpt>
<trkpt lat="34.5681" lon="136.64545">
<ele>1.5</ele>
</trkpt>
<trkpt lat="34.5681" lon="136.64545">
<ele>1.5</ele>
</trkpt>
<trkpt lat="34.56791" lon="136.64558">
<ele>1.7</ele>
</trkpt>
<trkpt lat="34.56778" lon="136.64568">
<ele>1.8</ele>
</trkpt>
<trkpt lat="34.56764" lon="136.64578">
<ele>1.9</ele>
</trkpt>
<trkpt lat="34.56753" lon="136.64587">
<ele>2.0</ele>
</trkpt>
<trkpt lat="34.56742" lon="136.64595">
<ele>1.8</ele>
</trkpt>
<trkpt lat="34.56731" lon="136.64603">
<ele>1.7</ele>
</trkpt>
<trkpt lat="34.56722" lon="136.64611">
<ele>1.6</ele>
</trkpt>
<trkpt lat="34.56716" lon="136.64616">
<ele>1.5</ele>
</trkpt>
<trkpt lat="34.5671" lon="136.64622">
<ele>1.5</ele>
</trkpt>
<trkpt lat="34.56702" lon="136.64629">
<ele>1.5</ele>
</trkpt>
<trkpt lat="34.5669899" lon="136.64633">
<ele>1.5</ele>
</trkpt>
<trkpt lat="34.56686" lon="136.64647">
<ele>1.6</ele>
</trkpt>
<trkpt lat="34.56644" lon="136.64691">
<ele>2.1</ele>
</trkpt>
<trkpt lat="34.5658" lon="136.64757">
<ele>3.0</ele>
</trkpt>
<trkpt lat="34.56565" lon="136.64773">
<ele>2.9</ele>
</trkpt>
<trkpt lat="34.56553" lon="136.64786">
<ele>2.9</ele>
</trkpt>
<trkpt lat="34.56541" lon="136.64798">
<ele>2.9</ele>
</trkpt>
<trkpt lat="34.56534" lon="136.64805">
<ele>2.9</ele>
</trkpt>
<trkpt lat="34.56525" lon="136.64814">
<ele>2.9</ele>
</trkpt>
<trkpt lat="34.56517" lon="136.64822">
<ele>3.0</ele>
</trkpt>
<trkpt lat="34.56509" lon="136.64831">
<ele>3.1</ele>
</trkpt>
<trkpt lat="34.565" lon="136.64841">
<ele>3.0</ele>
</trkpt>
<trkpt lat="34.56492" lon="136.64849">
<ele>2.7</ele>
</trkpt>
<trkpt lat="34.56485" lon="136.64856">
<ele>2.5</ele>
</trkpt>
<trkpt lat="34.56477" lon="136.64865">
<ele>2.2</ele>
</trkpt>
<trkpt lat="34.56466" lon="136.64876">
<ele>1.8</ele>
</trkpt>
<trkpt lat="34.56465" lon="136.64877">
<ele>1.7</ele>
</trkpt>
<trkpt lat="34.56444" lon="136.64899">
<ele>1.0</ele>
</trkpt>
<trkpt lat="34.5643699" lon="136.64907">
<ele>0.7</ele>
</trkpt>
<trkpt lat="34.56431" lon="136.64913">
<ele>0.5</ele>
</trkpt>
<trkpt lat="34.5642799" lon="136.64915">
<ele>0.4</ele>
</trkpt>
<trkpt lat="34.56412" lon="136.64932">
<ele>0.3</ele>
</trkpt>
<trkpt lat="34.56398" lon="136.64946">
<ele>0.3</ele>
</trkpt>
<trkpt lat="34.56387" lon="136.6495799">
<ele>0.3</ele>
</trkpt>
<trkpt lat="34.56373" lon="136.64973">
<ele>0.3</ele>
</trkpt>
<trkpt lat="34.56356" lon="136.6499">
<ele>0.3</ele>
</trkpt>
<trkpt lat="34.56348" lon="136.64999">
<ele>0.3</ele>
</trkpt>
<trkpt lat="34.56338" lon="136.6501">
<ele>0.3</ele>
</trkpt>
<trkpt lat="34.56332" lon="136.65017">
<ele>0.4</ele>
</trkpt>
<trkpt lat="34.56326" lon="136.65025">
<ele>0.5</ele>
</trkpt>
<trkpt lat="34.56315" lon="136.6503899">
<ele>0.8</ele>
</trkpt>
<trkpt lat="34.5630499" lon="136.65052">
<ele>1.1</ele>
</trkpt>
<trkpt lat="34.56292" lon="136.6507">
<ele>1.6</ele>
</trkpt>
<trkpt lat="34.56271" lon="136.65098">
<ele>2.2</ele>
</trkpt>
<trkpt lat="34.56253" lon="136.65123">
<ele>2.5</ele>
</trkpt>
<trkpt lat="34.56244" lon="136.65135">
<ele>2.5</ele>
</trkpt>
<trkpt lat="34.56185" lon="136.65215">
<ele>2.2</ele>
</trkpt>
<trkpt lat="34.56166" lon="136.6524">
<ele>2.0</ele>
</trkpt>
<trkpt lat="34.56154" lon="136.65257">
<ele>1.7</ele>
</trkpt>
<trkpt lat="34.56142" lon="136.65273">
<ele>1.5</ele>
</trkpt>
<trkpt lat="34.561" lon="136.6533">
<ele>1.2</ele>
</trkpt>
<trkpt lat="34.56072" lon="136.65367">
<ele>0.8</ele>
</trkpt>
<trkpt lat="34.56054" lon="136.65392">
<ele>0.4</ele>
</trkpt>
<trkpt lat="34.56051" lon="136.65396">
<ele>0.3</ele>
</trkpt>
<trkpt lat="34.56039" lon="136.65412">
<ele>0.0</ele>
</trkpt>
<trkpt lat="34.56059" lon="136.6543299">
<ele>0.9</ele>
</trkpt>
<trkpt lat="34.5606" lon="136.6543299">
<ele>0.9</ele>
</trkpt>
<trkpt lat="34.56079" lon="136.65454">
<ele>1.8</ele>
</trkpt>
<trkpt lat="34.56088" lon="136.65463">
<ele>2.1</ele>
</trkpt>
<trkpt lat="34.56113" lon="136.6549">
<ele>2.5</ele>
</trkpt>
<trkpt lat="34.56117" lon="136.65494">
<ele>2.5</ele>
</trkpt>
<trkpt lat="34.56117" lon="136.65497">
<ele>2.6</ele>
</trkpt>
<trkpt lat="34.56117" lon="136.655">
<ele>2.6</ele>
</trkpt>
<trkpt lat="34.56117" lon="136.65501">
<ele>2.6</ele>
</trkpt>
<trkpt lat="34.56121" lon="136.65507">
<ele>2.5</ele>
</trkpt>
<trkpt lat="34.56124" lon="136.6551">
<ele>2.5</ele>
</trkpt>
<trkpt lat="34.5613" lon="136.65514">
<ele>2.5</ele>
</trkpt>
<trkpt lat="34.56152" lon="136.65527">
<ele>2.4</ele>
</trkpt>
<trkpt lat="34.5621" lon="136.65563">
<ele>2.4</ele>
</trkpt>
<trkpt lat="34.5623099" lon="136.65581">
<ele>2.2</ele>
</trkpt>
<trkpt lat="34.56247" lon="136.65599">
<ele>2.0</ele>
</trkpt>
<trkpt lat="34.56255" lon="136.65608">
<ele>2.0</ele>
</trkpt>
<trkpt lat="34.5625799" lon="136.6561199">
<ele>1.9</ele>
</trkpt>
<trkpt lat="34.56274" lon="136.6562999">
<ele>1.7</ele>
</trkpt>
<trkpt lat="34.56277" lon="136.65634">
<ele>1.6</ele>
</trkpt>
<trkpt lat="34.56288" lon="136.65645">
<ele>1.3</ele>
</trkpt>
<trkpt lat="34.56293" lon="136.65651">
<ele>1.2</ele>
</trkpt>
<trkpt lat="34.56307" lon="136.6566599">
<ele>0.6</ele>
</trkpt>
<trkpt lat="34.56319" lon="136.65678">
<ele>-0.1</ele>
</trkpt>
<trkpt lat="34.5633399" lon="136.65696">
<ele>-1.1</ele>
</trkpt>
<trkpt lat="34.56346" lon="136.65709">
<ele>-1.5</ele>
</trkpt>
<trkpt lat="34.56348" lon="136.65712">
<ele>-1.6</ele>
</trkpt>
<trkpt lat="34.56349" lon="136.65712">
<ele>-1.6</ele>
</trkpt>
<trkpt lat="34.5635" lon="136.65713">
<ele>-1.6</ele>
</trkpt>
<trkpt lat="34.56351" lon="136.65712">
<ele>-1.6</ele>
</trkpt>
<trkpt lat="34.5635199" lon="136.65712">
<ele>-1.6</ele>
</trkpt>
<trkpt lat="34.56354" lon="136.65711">
<ele>-1.6</ele>
</trkpt>
<trkpt lat="34.56356" lon="136.65709">
<ele>-1.5</ele>
</trkpt>
<trkpt lat="34.56357" lon="136.65708">
<ele>-1.5</ele>
</trkpt>
<trkpt lat="34.56362" lon="136.65703">
<ele>-1.4</ele>
</trkpt>
<trkpt lat="34.56373" lon="136.65692">
<ele>-1.1</ele>
</trkpt>
<trkpt lat="34.56376" lon="136.65689">
<ele>-1.0</ele>
</trkpt>
<trkpt lat="34.56384" lon="136.6568">
<ele>-0.9</ele>
</trkpt>
<trkpt lat="34.56391" lon="136.65673">
<ele>-0.8</ele>
</trkpt>
<trkpt lat="34.56396" lon="136.65668">
<ele>-0.8</ele>
</trkpt>
<trkpt lat="34.56407" lon="136.65658">
<ele>-0.7</ele>
</trkpt>
<trkpt lat="34.5642" lon="136.6564799">
<ele>-0.6</ele>
</trkpt>
<trkpt lat="34.56433" lon="136.65636">
<ele>-0.5</ele>
</trkpt>
<trkpt lat="34.56441" lon="136.6562999">
<ele>-0.4</ele>
</trkpt>
<trkpt lat="34.56444" lon="136.65626">
<ele>-0.4</ele>
</trkpt>
<trkpt lat="34.5649299" lon="136.65586">
<ele>0.0</ele>
</trkpt>
<trkpt lat="34.56533" lon="136.65556">
<ele>-0.2</ele>
</trkpt>
<trkpt lat="34.56547" lon="136.65545">
<ele>-0.4</ele>
</trkpt>
<trkpt lat="34.56552" lon="136.65541">
<ele>-0.4</ele>
</trkpt>
<trkpt lat="34.56559" lon="136.65536">
<ele>-0.5</ele>
</trkpt>
<trkpt lat="34.56583" lon="136.65517">
<ele>-1.0</ele>
</trkpt>
<trkpt lat="34.56589" lon="136.65513">
<ele>-1.1</ele>
</trkpt>
<trkpt lat="34.56595" lon="136.65508">
<ele>-1.3</ele>
</trkpt>
<trkpt lat="34.56599" lon="136.65506">
<ele>-1.4</ele>
</trkpt>
<trkpt lat="34.56611" lon="136.65498">
<ele>-1.6</ele>
</trkpt>
<trkpt lat="34.56611" lon="136.65498">
<ele>-1.6</ele>
</trkpt>
<trkpt lat="34.56626" lon="136.65516">
<ele>-1.9</ele>
</trkpt>
<trkpt lat="34.56664" lon="136.65562">
<ele>-2.2</ele>
</trkpt>
<trkpt lat="34.56694" lon="136.65598">
<ele>-1.3</ele>
</trkpt>
<trkpt lat="34.56697" lon="136.65601">
<ele>-1.3</ele>
</trkpt>
<trkpt lat="34.5669899" lon="136.65602">
<ele>-1.3</ele>
</trkpt>
<trkpt lat="34.56701" lon="136.6560299">
<ele>-1.2</ele>
</trkpt>
<trkpt lat="34.56708" lon="136.65604">
<ele>-1.1</ele>
</trkpt>
<trkpt lat="34.56727" lon="136.65607">
<ele>-0.9</ele>
</trkpt>
<trkpt lat="34.56736" lon="136.65608">
<ele>-0.8</ele>
</trkpt>
<trkpt lat="34.5674599" lon="136.65608">
<ele>-0.6</ele>
</trkpt>
<trkpt lat="34.56761" lon="136.65607">
<ele>-0.5</ele>
</trkpt>
<trkpt lat="34.56761" lon="136.65607">
<ele>-0.5</ele>
</trkpt>
<trkpt lat="34.56765" lon="136.65618">
<ele>-0.8</ele>
</trkpt>
<trkpt lat="34.56768" lon="136.65627">
<ele>-0.9</ele>
</trkpt>
<trkpt lat="34.56776" lon="136.65646">
<ele>-1.3</ele>
</trkpt>
<trkpt lat="34.56785" lon="136.65671">
<ele>-1.6</ele>
</trkpt>
<trkpt lat="34.5679299" lon="136.65697">
<ele>-1.7</ele>
</trkpt>
<trkpt lat="34.5679299" lon="136.65697">
<ele>-1.7</ele>
</trkpt>
<trkpt lat="34.5679" lon="136.65704">
<ele>-1.7</ele>
</trkpt>
<trkpt lat="34.56751" lon="136.6573699">
<ele>-2.0</ele>
</trkpt>
<trkpt lat="34.56715" lon="136.65767">
<ele>-1.8</ele>
</trkpt>
<trkpt lat="34.5668999" lon="136.65788">
<ele>-1.5</ele>
</trkpt>
<trkpt lat="34.56689" lon="136.65788">
<ele>-1.5</ele>
</trkpt>
<trkpt lat="34.56673" lon="136.65802">
<ele>-1.4</ele>
</trkpt>
<trkpt lat="34.56669" lon="136.65806">
<ele>-1.3</ele>
</trkpt>
<trkpt lat="34.56644" lon="136.65826">
<ele>-1.3</ele>
</trkpt>
<trkpt lat="34.56616" lon="136.65851">
<ele>-1.4</ele>
</trkpt>
<trkpt lat="34.5661" lon="136.65856">
<ele>-1.5</ele>
</trkpt>
<trkpt lat="34.56586" lon="136.65877">
<ele>-1.9</ele>
</trkpt>
<trkpt lat="34.5655" lon="136.65908">
<ele>-1.2</ele>
</trkpt>
<trkpt lat="34.56532" lon="136.6592499">
<ele>-0.6</ele>
</trkpt>
<trkpt lat="34.56513" lon="136.6594299">
<ele>0.1</ele>
</trkpt>
<trkpt lat="34.56509" lon="136.6595">
<ele>0.2</ele>
</trkpt>
<trkpt lat="34.56507" lon="136.65955">
<ele>0.3</ele>
</trkpt>
<trkpt lat="34.56505" lon="136.65966">
<ele>0.5</ele>
</trkpt>
<trkpt lat="34.56504" lon="136.65972">
<ele>0.6</ele>
</trkpt>
<trkpt lat="34.56501" lon="136.65991">
<ele>0.9</ele>
</trkpt>
<trkpt lat="34.565" lon="136.65993">
<ele>0.9</ele>
</trkpt>
<trkpt lat="34.56499" lon="136.65999">
<ele>1.0</ele>
</trkpt>
<trkpt lat="34.56499" lon="136.66004">
<ele>0.9</ele>
</trkpt>
<trkpt lat="34.565" lon="136.6600599">
<ele>0.9</ele>
</trkpt>
<trkpt lat="34.56501" lon="136.66009">
<ele>0.9</ele>
</trkpt>
<trkpt lat="34.56503" lon="136.66014">
<ele>0.8</ele>
</trkpt>
<trkpt lat="34.56506" lon="136.66019">
<ele>0.7</ele>
</trkpt>
<trkpt lat="34.56512" lon="136.66032">
<ele>0.5</ele>
</trkpt>
<trkpt lat="34.56523" lon="136.66054">
<ele>0.3</ele>
</trkpt>
<trkpt lat="34.56525" lon="136.66058">
<ele>0.2</ele>
</trkpt>
<trkpt lat="34.56528" lon="136.66063">
<ele>0.2</ele>
</trkpt>
<trkpt lat="34.56529" lon="136.66064">
<ele>0.2</ele>
</trkpt>
<trkpt lat="34.5653099" lon="136.66064">
<ele>0.1</ele>
</trkpt>
<trkpt lat="34.56533" lon="136.66064">
<ele>0.1</ele>
</trkpt>
<trkpt lat="34.56534" lon="136.66064">
<ele>0.1</ele>
</trkpt>
<trkpt lat="34.56537" lon="136.66062">
<ele>0.1</ele>
</trkpt>
<trkpt lat="34.56538" lon="136.66062">
<ele>0.1</ele>
</trkpt>
<trkpt lat="34.56544" lon="136.66057">
<ele>0.1</ele>
</trkpt>
<trkpt lat="34.56552" lon="136.6605">
<ele>0.2</ele>
</trkpt>
<trkpt lat="34.56562" lon="136.6604">
<ele>0.1</ele>
</trkpt>
<trkpt lat="34.56566" lon="136.66037">
<ele>0.1</ele>
</trkpt>
<trkpt lat="34.5658" lon="136.6602399">
<ele>0.0</ele>
</trkpt>
<trkpt lat="34.56595" lon="136.66011">
<ele>0.0</ele>
</trkpt>
<trkpt lat="34.566" lon="136.66007">
<ele>0.0</ele>
</trkpt>
<trkpt lat="34.56624" lon="136.65985">
<ele>-0.1</ele>
</trkpt>
<trkpt lat="34.56649" lon="136.65963">
<ele>0.2</ele>
</trkpt>
<trkpt lat="34.56675" lon="136.65938">
<ele>0.7</ele>
</trkpt>
<trkpt lat="34.56723" lon="136.65894">
<ele>0.0</ele>
</trkpt>
<trkpt lat="34.56776" lon="136.65847">
<ele>-1.4</ele>
</trkpt>
<trkpt lat="34.56797" lon="136.65828">
<ele>-2.1</ele>
</trkpt>
<trkpt lat="34.56807" lon="136.65819">
<ele>-2.3</ele>
</trkpt>
<trkpt lat="34.56817" lon="136.6581">
<ele>-2.4</ele>
</trkpt>
<trkpt lat="34.56836" lon="136.65794">
<ele>-2.4</ele>
</trkpt>
<trkpt lat="34.56844" lon="136.65789">
<ele>-2.0</ele>
</trkpt>
<trkpt lat="34.56862" lon="136.65776">
<ele>-1.0</ele>
</trkpt>
<trkpt lat="34.56955" lon="136.65716">
<ele>0.0</ele>
</trkpt>
<trkpt lat="34.56998" lon="136.65687">
<ele>-1.5</ele>
</trkpt>
<trkpt lat="34.57035" lon="136.65664">
<ele>-2.4</ele>
</trkpt>
<trkpt lat="34.57115" lon="136.65619">
<ele>-2.2</ele>
</trkpt>
<trkpt lat="34.57194" lon="136.65573">
<ele>-2.9</ele>
</trkpt>
<trkpt lat="34.5727" lon="136.65532">
<ele>-0.7</ele>
</trkpt>
<trkpt lat="34.57346" lon="136.6549">
<ele>0.8</ele>
</trkpt>
<trkpt lat="34.57338" lon="136.65474">
<ele>0.4</ele>
</trkpt>
<trkpt lat="34.57307" lon="136.6541499">
<ele>-0.4</ele>
</trkpt>
<trkpt lat="34.5728099" lon="136.65344">
<ele>-0.8</ele>
</trkpt>
<trkpt lat="34.57273" lon="136.65311">
<ele>-1.5</ele>
</trkpt>
<trkpt lat="34.5726299" lon="136.65258">
<ele>-2.8</ele>
</trkpt>
<trkpt lat="34.57249" lon="136.6519099">
<ele>-2.3</ele>
</trkpt>
<trkpt lat="34.57235" lon="136.65124">
<ele>-1.4</ele>
</trkpt>
<trkpt lat="34.57221" lon="136.65082">
<ele>-0.6</ele>
</trkpt>
<trkpt lat="34.57208" lon="136.65045">
<ele>0.0</ele>
</trkpt>
<trkpt lat="34.5718699" lon="136.6498499">
<ele>0.6</ele>
</trkpt>
<trkpt lat="34.57165" lon="136.64924">
<ele>0.1</ele>
</trkpt>
<trkpt lat="34.57153" lon="136.64898">
<ele>-0.4</ele>
</trkpt>
<trkpt lat="34.57128" lon="136.6485">
<ele>-0.9</ele>
</trkpt>
<trkpt lat="34.57103" lon="136.64802">
<ele>0.0</ele>
</trkpt>
<trkpt lat="34.57073" lon="136.64747">
<ele>1.8</ele>
</trkpt>
<trkpt lat="34.57043" lon="136.64693">
<ele>1.7</ele>
</trkpt>
<trkpt lat="34.57033" lon="136.64676">
<ele>1.7</ele>
</trkpt>
<trkpt lat="34.5702799" lon="136.64666">
<ele>1.7</ele>
</trkpt>
<trkpt lat="34.57022" lon="136.6465399">
<ele>1.6</ele>
</trkpt>
<trkpt lat="34.56998" lon="136.64612">
<ele>2.3</ele>
</trkpt>
<trkpt lat="34.56989" lon="136.64596">
<ele>2.6</ele>
</trkpt>
<trkpt lat="34.56983" lon="136.64584">
<ele>2.8</ele>
</trkpt>
<trkpt lat="34.56973" lon="136.64566">
<ele>2.7</ele>
</trkpt>
<trkpt lat="34.5696299" lon="136.64548">
<ele>2.6</ele>
</trkpt>
<trkpt lat="34.56957" lon="136.64535">
<ele>2.5</ele>
</trkpt>
<trkpt lat="34.5694299" lon="136.64511">
<ele>2.3</ele>
</trkpt>
<trkpt lat="34.56936" lon="136.64497">
<ele>2.2</ele>
</trkpt>
<trkpt lat="34.56931" lon="136.64488">
<ele>2.1</ele>
</trkpt>
<trkpt lat="34.56928" lon="136.64483">
<ele>2.1</ele>
</trkpt>
<trkpt lat="34.56923" lon="136.64473">
<ele>2.1</ele>
</trkpt>
<trkpt lat="34.56915" lon="136.6446">
<ele>2.0</ele>
</trkpt>
<trkpt lat="34.56912" lon="136.64454">
<ele>1.9</ele>
</trkpt>
<trkpt lat="34.56909" lon="136.64449">
<ele>1.9</ele>
</trkpt>
<trkpt lat="34.56906" lon="136.64442">
<ele>1.8</ele>
</trkpt>
<trkpt lat="34.56902" lon="136.64436">
<ele>1.7</ele>
</trkpt>
<trkpt lat="34.5689" lon="136.64424">
<ele>1.4</ele>
</trkpt>
<trkpt lat="34.56879" lon="136.64416">
<ele>1.1</ele>
</trkpt>
<trkpt lat="34.56863" lon="136.64405">
<ele>0.9</ele>
</trkpt>
<trkpt lat="34.56857" lon="136.644">
<ele>0.8</ele>
</trkpt>
<trkpt lat="34.56844" lon="136.64389">
<ele>0.6</ele>
</trkpt>
<trkpt lat="34.56829" lon="136.6437599">
<ele>0.3717932</ele>
</trkpt>
<trkpt lat="34.56818" lon="136.64365">
<ele>0.195333</ele>
</trkpt>
<trkpt lat="34.56814" lon="136.6436">
<ele>0.1242463</ele>
</trkpt>
<trkpt lat="34.56808" lon="136.64353">
<ele>0.021212</ele>
</trkpt>
<trkpt lat="34.56801" lon="136.64345">
<ele>-0.0978236</ele>
</trkpt>
<trkpt lat="34.5679" lon="136.64332">
<ele>-0.2879015</ele>
</trkpt>
<trkpt lat="34.56786" lon="136.64325">
<ele>-0.3747866</ele>
</trkpt>
<trkpt lat="34.56776" lon="136.64314">
<ele>-0.541873</ele>
</trkpt>
<trkpt lat="34.56767" lon="136.64303">
<ele>-0.7</ele>
</trkpt>
<trkpt lat="34.56776" lon="136.64314">
<ele>-0.4</ele>
</trkpt>
<trkpt lat="34.56786" lon="136.64325">
<ele>-0.2</ele>
</trkpt>
<trkpt lat="34.56791" lon="136.64324">
<ele>-0.1</ele>
</trkpt>
<trkpt lat="34.56794" lon="136.64323">
<ele>0.0</ele>
</trkpt>
<trkpt lat="34.56796" lon="136.64321">
<ele>0.0</ele>
</trkpt>
<trkpt lat="34.56799" lon="136.64317">
<ele>-0.0050503</ele>
</trkpt>
<trkpt lat="34.568" lon="136.64315">
<ele>-0.0072344</ele>
</trkpt>
<trkpt lat="34.56803" lon="136.64309">
<ele>-0.0137867</ele>
</trkpt>
<trkpt lat="34.5681" lon="136.643">
<ele>-0.0253426</ele>
</trkpt>
<trkpt lat="34.56816" lon="136.64292">
<ele>-0.0354433</ele>
</trkpt>
<trkpt lat="34.56857" lon="136.64244">
<ele>-0.1</ele>
</trkpt>
<trkpt lat="34.56899" lon="136.64196">
<ele>-1.3</ele>
</trkpt>
<trkpt lat="34.56909" lon="136.64187">
<ele>-1.5</ele>
</trkpt>
<trkpt lat="34.56919" lon="136.64178">
<ele>-1.7</ele>
</trkpt>
<trkpt lat="34.56965" lon="136.64157">
<ele>-1.5</ele>
</trkpt>
<trkpt lat="34.56989" lon="136.64149">
<ele>-1.2</ele>
</trkpt>
<trkpt lat="34.57039" lon="136.64126">
<ele>-0.8</ele>
</trkpt>
<trkpt lat="34.5706599" lon="136.64114">
<ele>-0.7</ele>
</trkpt>
<trkpt lat="34.57091" lon="136.6409899">
<ele>-0.7</ele>
</trkpt>
<trkpt lat="34.57159" lon="136.64048">
<ele>0.9</ele>
</trkpt>
<trkpt lat="34.57226" lon="136.63998">
<ele>-0.4</ele>
</trkpt>
<trkpt lat="34.57232" lon="136.63995">
<ele>-0.6</ele>
</trkpt>
<trkpt lat="34.57251" lon="136.63986">
<ele>-1.0</ele>
</trkpt>
<trkpt lat="34.57274" lon="136.6398">
<ele>-1.2</ele>
</trkpt>
<trkpt lat="34.57339" lon="136.6398">
<ele>-1.8</ele>
</trkpt>
<trkpt lat="34.57339" lon="136.63979">
<ele>-1.8</ele>
</trkpt>
<trkpt lat="34.57337" lon="136.63957">
<ele>-1.5</ele>
</trkpt>
<trkpt lat="34.57337" lon="136.63918">
<ele>-1.1</ele>
</trkpt>
<trkpt lat="34.57343" lon="136.6386599">
<ele>-0.5</ele>
</trkpt>
<trkpt lat="34.57355" lon="136.63772">
<ele>1.2</ele>
</trkpt>
<trkpt lat="34.57368" lon="136.6367799">
<ele>1.8</ele>
</trkpt>
<trkpt lat="34.5738" lon="136.63584">
<ele>2.0</ele>
</trkpt>
<trkpt lat="34.57393" lon="136.6348999">
<ele>1.9</ele>
</trkpt>
<trkpt lat="34.57405" lon="136.63396">
<ele>0.5</ele>
</trkpt>
<trkpt lat="34.57402" lon="136.63395">
<ele>0.5</ele>
</trkpt>
<trkpt lat="34.5732" lon="136.63381">
<ele>0.9</ele>
</trkpt>
<trkpt lat="34.57237" lon="136.63366">
<ele>2.3</ele>
</trkpt>
<trkpt lat="34.57233" lon="136.63365">
<ele>2.3</ele>
</trkpt>
<trkpt lat="34.5725" lon="136.63347">
<ele>2.2</ele>
</trkpt>
<trkpt lat="34.57284" lon="136.63318">
<ele>1.4</ele>
</trkpt>
<trkpt lat="34.57303" lon="136.6329299">
<ele>1.2</ele>
</trkpt>
<trkpt lat="34.57307" lon="136.6328399">
<ele>1.2</ele>
</trkpt>
<trkpt lat="34.57311" lon="136.63272">
<ele>1.3</ele>
</trkpt>
<trkpt lat="34.57324" lon="136.63215">
<ele>1.9</ele>
</trkpt>
<trkpt lat="34.57332" lon="136.63135">
<ele>4.1</ele>
</trkpt>
<trkpt lat="34.57333" lon="136.63095">
<ele>5.6</ele>
</trkpt>
<trkpt lat="34.5732" lon="136.63029">
<ele>4.7</ele>
</trkpt>
<trkpt lat="34.57307" lon="136.62991">
<ele>4.1</ele>
</trkpt>
<trkpt lat="34.57305" lon="136.62979">
<ele>3.8</ele>
</trkpt>
<trkpt lat="34.57299" lon="136.62953">
<ele>3.2</ele>
</trkpt>
<trkpt lat="34.57302" lon="136.62938">
<ele>2.7</ele>
</trkpt>
<trkpt lat="34.57326" lon="136.62895">
<ele>2.0</ele>
</trkpt>
<trkpt lat="34.5732799" lon="136.6288099">
<ele>2.4</ele>
</trkpt>
<trkpt lat="34.57325" lon="136.6287">
<ele>2.9</ele>
</trkpt>
<trkpt lat="34.57318" lon="136.62858">
<ele>3.4</ele>
</trkpt>
<trkpt lat="34.57304" lon="136.6283599">
<ele>4.3</ele>
</trkpt>
<trkpt lat="34.57288" lon="136.6280899">
<ele>4.4</ele>
</trkpt>
<trkpt lat="34.57246" lon="136.6272899">
<ele>4.5</ele>
</trkpt>
<trkpt lat="34.57204" lon="136.6264799">
<ele>3.6</ele>
</trkpt>
<trkpt lat="34.5717" lon="136.62592">
<ele>4.0</ele>
</trkpt>
<trkpt lat="34.57136" lon="136.62536">
<ele>3.8</ele>
</trkpt>
<trkpt lat="34.5712199" lon="136.62503">
<ele>3.9</ele>
</trkpt>
<trkpt lat="34.57115" lon="136.6247">
<ele>3.3680627</ele>
</trkpt>
<trkpt lat="34.57109" lon="136.62436">
<ele>2.8252816</ele>
</trkpt>
<trkpt lat="34.57106" lon="136.62409">
<ele>2.4</ele>
</trkpt>
<trkpt lat="34.57096" lon="136.6234399">
<ele>3.6</ele>
</trkpt>
<trkpt lat="34.57098" lon="136.62328">
<ele>3.7</ele>
</trkpt>
<trkpt lat="34.57123" lon="136.62233">
<ele>2.1</ele>
</trkpt>
<trkpt lat="34.57126" lon="136.6221">
<ele>2.0</ele>
</trkpt>
<trkpt lat="34.5712199" lon="136.62184">
<ele>2.1</ele>
</trkpt>
<trkpt lat="34.57107" lon="136.62131">
<ele>2.7</ele>
</trkpt>
<trkpt lat="34.57051" lon="136.62122">
<ele>3.3</ele>
</trkpt>
<trkpt lat="34.56995" lon="136.62113">
<ele>3.0</ele>
</trkpt>
<trkpt lat="34.56995" lon="136.62114">
<ele>3.0</ele>
</trkpt>
<trkpt lat="34.56987" lon="136.62176">
<ele>3.3</ele>
</trkpt>
<trkpt lat="34.56982" lon="136.62177">
<ele>3.4</ele>
</trkpt>
<trkpt lat="34.5697199" lon="136.62187">
<ele>3.6</ele>
</trkpt>
<trkpt lat="34.56962" lon="136.622">
<ele>3.7</ele>
</trkpt>
<trkpt lat="34.56948" lon="136.62234">
<ele>3.7</ele>
</trkpt>
<trkpt lat="34.56941" lon="136.6226">
<ele>3.6</ele>
</trkpt>
<trkpt lat="34.56942" lon="136.62268">
<ele>3.7</ele>
</trkpt>
<trkpt lat="34.56937" lon="136.62309">
<ele>3.9</ele>
</trkpt>
<trkpt lat="34.56937" lon="136.62313">
<ele>3.9</ele>
</trkpt>
<trkpt lat="34.56902" lon="136.62295">
<ele>3.4</ele>
</trkpt>
<trkpt lat="34.56897" lon="136.62294">
<ele>3.4</ele>
</trkpt>
<trkpt lat="34.56885" lon="136.62294">
<ele>3.3</ele>
</trkpt>
<trkpt lat="34.56816" lon="136.62311">
<ele>2.7</ele>
</trkpt>
<trkpt lat="34.56747" lon="136.62327">
<ele>3.0668712</ele>
</trkpt>
<trkpt lat="34.5672" lon="136.62333">
<ele>3.2102233</ele>
</trkpt>
<trkpt lat="34.56684" lon="136.62339">
<ele>3.4</ele>
</trkpt>
<trkpt lat="34.56627" lon="136.62341">
<ele>3.4</ele>
</trkpt>
<trkpt lat="34.5658" lon="136.62347">
<ele>2.7</ele>
</trkpt>
<trkpt lat="34.56509" lon="136.62351">
<ele>3.5</ele>
</trkpt>
<trkpt lat="34.56438" lon="136.62355">
<ele>3.5</ele>
</trkpt>
<trkpt lat="34.56412" lon="136.62357">
<ele>3.6</ele>
</trkpt>
<trkpt lat="34.56384" lon="136.62365">
<ele>3.9</ele>
</trkpt>
<trkpt lat="34.56377" lon="136.62368">
<ele>4.0</ele>
</trkpt>
<trkpt lat="34.56359" lon="136.62367">
<ele>4.1</ele>
</trkpt>
<trkpt lat="34.56289" lon="136.62361">
<ele>4.0</ele>
</trkpt>
<trkpt lat="34.56213" lon="136.62332">
<ele>4.4</ele>
</trkpt>
<trkpt lat="34.56136" lon="136.62302">
<ele>3.9</ele>
</trkpt>
<trkpt lat="34.56115" lon="136.62297">
<ele>3.3</ele>
</trkpt>
<trkpt lat="34.56065" lon="136.6229899">
<ele>2.8</ele>
</trkpt>
<trkpt lat="34.56022" lon="136.62287">
<ele>3.3</ele>
</trkpt>
<trkpt lat="34.55951" lon="136.62268">
<ele>5.0</ele>
</trkpt>
<trkpt lat="34.55937" lon="136.6226299">
<ele>5.4</ele>
</trkpt>
<trkpt lat="34.55914" lon="136.62248">
<ele>6.0</ele>
</trkpt>
<trkpt lat="34.55858" lon="136.62203">
<ele>6.4</ele>
</trkpt>
<trkpt lat="34.55802" lon="136.62159">
<ele>6.8</ele>
</trkpt>
<trkpt lat="34.55748" lon="136.62119">
<ele>5.9</ele>
</trkpt>
<trkpt lat="34.55676" lon="136.62073">
<ele>5.7</ele>
</trkpt>
<trkpt lat="34.55648" lon="136.6205699">
<ele>5.6</ele>
</trkpt>
<trkpt lat="34.55594" lon="136.62032">
<ele>5.6</ele>
</trkpt>
<trkpt lat="34.5554" lon="136.62006">
<ele>6.0</ele>
</trkpt>
<trkpt lat="34.55471" lon="136.61997">
<ele>6.0</ele>
</trkpt>
<trkpt lat="34.55401" lon="136.61988">
<ele>5.9</ele>
</trkpt>
<trkpt lat="34.5536699" lon="136.61979">
<ele>5.9</ele>
</trkpt>
<trkpt lat="34.55345" lon="136.61964">
<ele>5.9</ele>
</trkpt>
<trkpt lat="34.55294" lon="136.61925">
<ele>6.5</ele>
</trkpt>
<trkpt lat="34.55243" lon="136.61885">
<ele>7.2</ele>
</trkpt>
<trkpt lat="34.55177" lon="136.61843">
<ele>9.5</ele>
</trkpt>
<trkpt lat="34.55174" lon="136.6183">
<ele>9.6</ele>
</trkpt>
<trkpt lat="34.55162" lon="136.61832">
<ele>10.0</ele>
</trkpt>
<trkpt lat="34.55144" lon="136.61826">
<ele>9.7</ele>
</trkpt>
<trkpt lat="34.55122" lon="136.61814">
<ele>9.1</ele>
</trkpt>
<trkpt lat="34.5508499" lon="136.6179">
<ele>7.4</ele>
</trkpt>
<trkpt lat="34.55056" lon="136.61767">
<ele>6.5</ele>
</trkpt>
<trkpt lat="34.55012" lon="136.61736">
<ele>5.9</ele>
</trkpt>
<trkpt lat="34.54999" lon="136.6176">
<ele>7.4</ele>
</trkpt>
<trkpt lat="34.54993" lon="136.61766">
<ele>7.7</ele>
</trkpt>
<trkpt lat="34.54988" lon="136.61769">
<ele>7.9</ele>
</trkpt>
<trkpt lat="34.54974" lon="136.61774">
<ele>8.2</ele>
</trkpt>
<trkpt lat="34.54909" lon="136.61795">
<ele>8.9</ele>
</trkpt>
<trkpt lat="34.54844" lon="136.61817">
<ele>7.4</ele>
</trkpt>
<trkpt lat="34.5482299" lon="136.6182">
<ele>7.1</ele>
</trkpt>
<trkpt lat="34.54807" lon="136.61819">
<ele>7.1</ele>
</trkpt>
<trkpt lat="34.54725" lon="136.61793">
<ele>7.1</ele>
</trkpt>
<trkpt lat="34.54692" lon="136.61788">
<ele>7.9</ele>
</trkpt>
<trkpt lat="34.54659" lon="136.6179">
<ele>8.7</ele>
</trkpt>
<trkpt lat="34.54578" lon="136.61817">
<ele>10.3</ele>
</trkpt>
<trkpt lat="34.54498" lon="136.61843">
<ele>11.6</ele>
</trkpt>
<trkpt lat="34.54418" lon="136.6187">
<ele>9.6</ele>
</trkpt>
<trkpt lat="34.54395" lon="136.61877">
<ele>9.5</ele>
</trkpt>
<trkpt lat="34.5438" lon="136.61879">
<ele>9.5</ele>
</trkpt>
<trkpt lat="34.5432" lon="136.61885">
<ele>9.3</ele>
</trkpt>
<trkpt lat="34.5426" lon="136.61891">
<ele>9.0</ele>
</trkpt>
<trkpt lat="34.54192" lon="136.61892">
<ele>8.7</ele>
</trkpt>
<trkpt lat="34.54124" lon="136.61893">
<ele>8.6</ele>
</trkpt>
<trkpt lat="34.54056" lon="136.61897">
<ele>8.6</ele>
</trkpt>
<trkpt lat="34.5398799" lon="136.61901">
<ele>9.3</ele>
</trkpt>
<trkpt lat="34.53919" lon="136.6190499">
<ele>11.1</ele>
</trkpt>
<trkpt lat="34.5386" lon="136.61906">
<ele>9.8</ele>
</trkpt>
<trkpt lat="34.53801" lon="136.61906">
<ele>10.2</ele>
</trkpt>
<trkpt lat="34.5371499" lon="136.6191">
<ele>11.6</ele>
</trkpt>
<trkpt lat="34.5368" lon="136.61909">
<ele>11.2</ele>
</trkpt>
<trkpt lat="34.53671" lon="136.61907">
<ele>11.1</ele>
</trkpt>
<trkpt lat="34.5366799" lon="136.61903">
<ele>11.0</ele>
</trkpt>
<trkpt lat="34.53666" lon="136.61843">
<ele>11.0</ele>
</trkpt>
<trkpt lat="34.53665" lon="136.61784">
<ele>11.6</ele>
</trkpt>
<trkpt lat="34.53663" lon="136.61748">
<ele>11.9</ele>
</trkpt>
<trkpt lat="34.53661" lon="136.61719">
<ele>11.9</ele>
</trkpt>
<trkpt lat="34.53655" lon="136.61657">
<ele>11.9</ele>
</trkpt>
<trkpt lat="34.53652" lon="136.61588">
<ele>11.8</ele>
</trkpt>
<trkpt lat="34.53649" lon="136.6151999">
<ele>12.4</ele>
</trkpt>
<trkpt lat="34.53673" lon="136.61521">
<ele>12.6</ele>
</trkpt>
<trkpt lat="34.53702" lon="136.61522">
<ele>12.1</ele>
</trkpt>
<trkpt lat="34.53757" lon="136.61535">
<ele>11.2</ele>
</trkpt>
<trkpt lat="34.53756" lon="136.61537">
<ele>11.2</ele>
</trkpt>
    </trkseg>
  </trk>
</gpx>