<?xml version="1.0" encoding="UTF-8"?>
<gpx version="1.1"
     creator="KMLtoGPX"
     xmlns="http://www.topografix.com/GPX/1/1">
  <metadata>
    <name>2-hour course to enjoy the grandeur and silhouette of the burial mound</name>
    <desc>2時間コース 古墳の雄大さとシルエットを堪能するコース</desc>
    <bounds minlat="34.55071" minlon="135.47361" maxlat="34.56761" maxlon="135.49179"/>
  </metadata>
  <trk>
    <name>2-hour course to enjoy the grandeur and silhouette of the burial mound</name>
    <trkseg>
<trkpt lat="34.56073" lon="135.48528">
<ele>17</ele>
</trkpt>
<trkpt lat="34.56036" lon="135.4860799">
<ele>16</ele>
</trkpt>
<trkpt lat="34.55999" lon="135.48689">
<ele>19</ele>
</trkpt>
<trkpt lat="34.55962" lon="135.4876899">
<ele>21</ele>
</trkpt>
<trkpt lat="34.55925" lon="135.48849">
<ele>20</ele>
</trkpt>
<trkpt lat="34.55924" lon="135.48852">
<ele>20</ele>
</trkpt>
<trkpt lat="34.55992" lon="135.48888">
<ele>20</ele>
</trkpt>
<trkpt lat="34.5606" lon="135.48923">
<ele>21</ele>
</trkpt>
<trkpt lat="34.5612799" lon="135.48958">
<ele>18</ele>
</trkpt>
<trkpt lat="34.56196" lon="135.48994">
<ele>20</ele>
</trkpt>
<trkpt lat="34.56238" lon="135.49019">
<ele>23</ele>
</trkpt>
<trkpt lat="34.56311" lon="135.49057">
<ele>23</ele>
</trkpt>
<trkpt lat="34.56383" lon="135.49089">
<ele>21</ele>
</trkpt>
<trkpt lat="34.56456" lon="135.4912">
<ele>24</ele>
</trkpt>
<trkpt lat="34.56456" lon="135.4912">
<ele>24</ele>
</trkpt>
<trkpt lat="34.56458" lon="135.49121">
<ele>24</ele>
</trkpt>
<trkpt lat="34.5649" lon="135.49134">
<ele>25</ele>
</trkpt>
<trkpt lat="34.56501" lon="135.49137">
<ele>25</ele>
</trkpt>
<trkpt lat="34.56521" lon="135.49138">
<ele>25</ele>
</trkpt>
<trkpt lat="34.56528" lon="135.49141">
<ele>25</ele>
</trkpt>
<trkpt lat="34.56545" lon="135.4917">
<ele>26</ele>
</trkpt>
<trkpt lat="34.56545" lon="135.4917">
<ele>26</ele>
</trkpt>
<trkpt lat="34.5655" lon="135.49179">
<ele>26</ele>
</trkpt>
<trkpt lat="34.56573" lon="135.49161">
<ele>26</ele>
</trkpt>
<trkpt lat="34.56622" lon="135.49112">
<ele>24</ele>
</trkpt>
<trkpt lat="34.56644" lon="135.4907">
<ele>22</ele>
</trkpt>
<trkpt lat="34.56687" lon="135.49008">
<ele>21</ele>
</trkpt>
<trkpt lat="34.56729" lon="135.48946">
<ele>22</ele>
</trkpt>
<trkpt lat="34.56754" lon="135.48908">
<ele>21</ele>
</trkpt>
<trkpt lat="34.56754" lon="135.48908">
<ele>21</ele>
</trkpt>
<trkpt lat="34.56755" lon="135.48907">
<ele>21</ele>
</trkpt>
<trkpt lat="34.56759" lon="135.48899">
<ele>21</ele>
</trkpt>
<trkpt lat="34.56761" lon="135.48882">
<ele>21</ele>
</trkpt>
<trkpt lat="34.56749" lon="135.48828">
<ele>21</ele>
</trkpt>
<trkpt lat="34.5674" lon="135.48767">
<ele>21</ele>
</trkpt>
<trkpt lat="34.56735" lon="135.48711">
<ele>20</ele>
</trkpt>
<trkpt lat="34.56725" lon="135.48678">
<ele>20</ele>
</trkpt>
<trkpt lat="34.56716" lon="135.48656">
<ele>20</ele>
</trkpt>
<trkpt lat="34.56716" lon="135.48656">
<ele>20</ele>
</trkpt>
<trkpt lat="34.56716" lon="135.48656">
<ele>20</ele>
</trkpt>
<trkpt lat="34.56703" lon="135.48625">
<ele>20</ele>
</trkpt>
<trkpt lat="34.56691" lon="135.48604">
<ele>20</ele>
</trkpt>
<trkpt lat="34.56655" lon="135.48557">
<ele>18</ele>
</trkpt>
<trkpt lat="34.56627" lon="135.48524">
<ele>19</ele>
</trkpt>
<trkpt lat="34.56585" lon="135.48482">
<ele>20</ele>
</trkpt>
<trkpt lat="34.5658699" lon="135.48433">
<ele>19</ele>
</trkpt>
<trkpt lat="34.56612" lon="135.48391">
<ele>17</ele>
</trkpt>
<trkpt lat="34.56612" lon="135.48391">
<ele>17</ele>
</trkpt>
<trkpt lat="34.56617" lon="135.48382">
<ele>16</ele>
</trkpt>
<trkpt lat="34.5659" lon="135.48351">
<ele>17</ele>
</trkpt>
<trkpt lat="34.5658699" lon="135.48355">
<ele>17</ele>
</trkpt>
<trkpt lat="34.56582" lon="135.48355">
<ele>17</ele>
</trkpt>
<trkpt lat="34.5656899" lon="135.48373">
<ele>18</ele>
</trkpt>
<trkpt lat="34.56559" lon="135.48397">
<ele>20</ele>
</trkpt>
<trkpt lat="34.56559" lon="135.48397">
<ele>20</ele>
</trkpt>
<trkpt lat="34.56559" lon="135.48397">
<ele>20</ele>
</trkpt>
<trkpt lat="34.56556" lon="135.4840199">
<ele>20</ele>
</trkpt>
<trkpt lat="34.56514" lon="135.4839">
<ele>20</ele>
</trkpt>
<trkpt lat="34.5650199" lon="135.4838399">
<ele>19</ele>
</trkpt>
<trkpt lat="34.56485" lon="135.48379">
<ele>19</ele>
</trkpt>
<trkpt lat="34.5644" lon="135.48371">
<ele>17</ele>
</trkpt>
<trkpt lat="34.56403" lon="135.4835699">
<ele>16</ele>
</trkpt>
<trkpt lat="34.56351" lon="135.48317">
<ele>17</ele>
</trkpt>
<trkpt lat="34.56298" lon="135.48276">
<ele>21</ele>
</trkpt>
<trkpt lat="34.56281" lon="135.4827">
<ele>22</ele>
</trkpt>
<trkpt lat="34.56268" lon="135.48261">
<ele>23</ele>
</trkpt>
<trkpt lat="34.56221" lon="135.48221">
<ele>22</ele>
</trkpt>
<trkpt lat="34.56214" lon="135.48215">
<ele>22</ele>
</trkpt>
<trkpt lat="34.56218" lon="135.48206">
<ele>22</ele>
</trkpt>
<trkpt lat="34.56208" lon="135.48199">
<ele>22</ele>
</trkpt>
<trkpt lat="34.56171" lon="135.4829">
<ele>22</ele>
</trkpt>
<trkpt lat="34.56147" lon="135.48341">
<ele>20</ele>
</trkpt>
<trkpt lat="34.56124" lon="135.48392">
<ele>20</ele>
</trkpt>
<trkpt lat="34.56098" lon="135.4843">
<ele>20</ele>
</trkpt>
<trkpt lat="34.56098" lon="135.4843">
<ele>20</ele>
</trkpt>
<trkpt lat="34.56096" lon="135.48434">
<ele>20</ele>
</trkpt>
<trkpt lat="34.56096" lon="135.48434">
<ele>20</ele>
</trkpt>
<trkpt lat="34.5608999" lon="135.48442">
<ele>20</ele>
</trkpt>
<trkpt lat="34.5603399" lon="135.48406">
<ele>20</ele>
</trkpt>
<trkpt lat="34.5603399" lon="135.48405">
<ele>20</ele>
</trkpt>
<trkpt lat="34.5603399" lon="135.48405">
<ele>20</ele>
</trkpt>
<trkpt lat="34.56062" lon="135.48347">
<ele>19</ele>
</trkpt>
<trkpt lat="34.56094" lon="135.48291">
<ele>19</ele>
</trkpt>
<trkpt lat="34.56104" lon="135.48272">
<ele>19</ele>
</trkpt>
<trkpt lat="34.56107" lon="135.48249">
<ele>19</ele>
</trkpt>
<trkpt lat="34.56107" lon="135.48237">
<ele>19</ele>
</trkpt>
<trkpt lat="34.56103" lon="135.48221">
<ele>20</ele>
</trkpt>
<trkpt lat="34.56077" lon="135.48171">
<ele>19</ele>
</trkpt>
<trkpt lat="34.5607" lon="135.48161">
<ele>17</ele>
</trkpt>
<trkpt lat="34.56056" lon="135.48146">
<ele>15</ele>
</trkpt>
<trkpt lat="34.56006" lon="135.48111">
<ele>12</ele>
</trkpt>
<trkpt lat="34.55991" lon="135.48099">
<ele>11</ele>
</trkpt>
<trkpt lat="34.55978" lon="135.48083">
<ele>12</ele>
</trkpt>
<trkpt lat="34.55978" lon="135.48083">
<ele>12</ele>
</trkpt>
<trkpt lat="34.55965" lon="135.48064">
<ele>13</ele>
</trkpt>
<trkpt lat="34.55953" lon="135.48038">
<ele>16</ele>
</trkpt>
<trkpt lat="34.5594899" lon="135.4801699">
<ele>16</ele>
</trkpt>
<trkpt lat="34.55948" lon="135.48001">
<ele>15</ele>
</trkpt>
<trkpt lat="34.55933" lon="135.47957">
<ele>14</ele>
</trkpt>
<trkpt lat="34.55922" lon="135.47942">
<ele>13</ele>
</trkpt>
<trkpt lat="34.55913" lon="135.47935">
<ele>12</ele>
</trkpt>
<trkpt lat="34.55904" lon="135.4793">
<ele>12</ele>
</trkpt>
<trkpt lat="34.55892" lon="135.47926">
<ele>11</ele>
</trkpt>
<trkpt lat="34.55876" lon="135.47926">
<ele>11</ele>
</trkpt>
<trkpt lat="34.55842" lon="135.47938">
<ele>11</ele>
</trkpt>
<trkpt lat="34.5583" lon="135.47946">
<ele>11</ele>
</trkpt>
<trkpt lat="34.55801" lon="135.47984">
<ele>14</ele>
</trkpt>
<trkpt lat="34.55777" lon="135.48003">
<ele>16</ele>
</trkpt>
<trkpt lat="34.55734" lon="135.48021">
<ele>18</ele>
</trkpt>
<trkpt lat="34.55734" lon="135.48021">
<ele>18</ele>
</trkpt>
<trkpt lat="34.55726" lon="135.48028">
<ele>19</ele>
</trkpt>
<trkpt lat="34.55722" lon="135.4803499">
<ele>19</ele>
</trkpt>
<trkpt lat="34.55719" lon="135.4802599">
<ele>19</ele>
</trkpt>
<trkpt lat="34.55713" lon="135.48021">
<ele>19</ele>
</trkpt>
<trkpt lat="34.55717" lon="135.48011">
<ele>20</ele>
</trkpt>
<trkpt lat="34.55707" lon="135.48004">
<ele>20</ele>
</trkpt>
<trkpt lat="34.5571" lon="135.47996">
<ele>20</ele>
</trkpt>
<trkpt lat="34.55703" lon="135.47991">
<ele>20</ele>
</trkpt>
<trkpt lat="34.55707" lon="135.47983">
<ele>20</ele>
</trkpt>
<trkpt lat="34.55694" lon="135.47973">
<ele>20</ele>
</trkpt>
<trkpt lat="34.55689" lon="135.4798">
<ele>20</ele>
</trkpt>
<trkpt lat="34.55681" lon="135.47983">
<ele>20</ele>
</trkpt>
<trkpt lat="34.5567" lon="135.4798099">
<ele>20</ele>
</trkpt>
<trkpt lat="34.55664" lon="135.47975">
<ele>20</ele>
</trkpt>
<trkpt lat="34.55661" lon="135.47975">
<ele>20</ele>
</trkpt>
<trkpt lat="34.55661" lon="135.47975">
<ele>20</ele>
</trkpt>
<trkpt lat="34.55655" lon="135.47977">
<ele>20</ele>
</trkpt>
<trkpt lat="34.5564899" lon="135.47938">
<ele>20</ele>
</trkpt>
<trkpt lat="34.55645" lon="135.4794">
<ele>20</ele>
</trkpt>
<trkpt lat="34.55641" lon="135.47923">
<ele>20</ele>
</trkpt>
<trkpt lat="34.55637" lon="135.47896">
<ele>21</ele>
</trkpt>
<trkpt lat="34.55638" lon="135.47891">
<ele>21</ele>
</trkpt>
<trkpt lat="34.55638" lon="135.47891">
<ele>21</ele>
</trkpt>
<trkpt lat="34.55645" lon="135.47857">
<ele>20</ele>
</trkpt>
<trkpt lat="34.55651" lon="135.47822">
<ele>18</ele>
</trkpt>
<trkpt lat="34.55648" lon="135.47767">
<ele>15</ele>
</trkpt>
<trkpt lat="34.55648" lon="135.47737">
<ele>14</ele>
</trkpt>
<trkpt lat="34.55652" lon="135.47717">
<ele>14</ele>
</trkpt>
<trkpt lat="34.55662" lon="135.4769499">
<ele>14</ele>
</trkpt>
<trkpt lat="34.55662" lon="135.4769499">
<ele>14</ele>
</trkpt>
<trkpt lat="34.55588" lon="135.47642">
<ele>16</ele>
</trkpt>
<trkpt lat="34.55513" lon="135.47589">
<ele>15</ele>
</trkpt>
<trkpt lat="34.55438" lon="135.47536">
<ele>20</ele>
</trkpt>
<trkpt lat="34.55371" lon="135.47486">
<ele>18</ele>
</trkpt>
<trkpt lat="34.55303" lon="135.47436">
<ele>18</ele>
</trkpt>
<trkpt lat="34.55312" lon="135.47409">
<ele>17</ele>
</trkpt>
<trkpt lat="34.5531099" lon="135.47377">
<ele>17</ele>
</trkpt>
<trkpt lat="34.5531" lon="135.47369">
<ele>17</ele>
</trkpt>
<trkpt lat="34.55304" lon="135.47366">
<ele>17</ele>
</trkpt>
<trkpt lat="34.55299" lon="135.47365">
<ele>17</ele>
</trkpt>
<trkpt lat="34.55244" lon="135.47361">
<ele>17</ele>
</trkpt>
<trkpt lat="34.55244" lon="135.47361">
<ele>17</ele>
</trkpt>
<trkpt lat="34.55247" lon="135.47361">
<ele>17</ele>
</trkpt>
<trkpt lat="34.5521" lon="135.47445">
<ele>19</ele>
</trkpt>
<trkpt lat="34.55174" lon="135.47529">
<ele>21</ele>
</trkpt>
<trkpt lat="34.55137" lon="135.47613">
<ele>21</ele>
</trkpt>
<trkpt lat="34.55136" lon="135.47624">
<ele>20</ele>
</trkpt>
<trkpt lat="34.55122" lon="135.47663">
<ele>19</ele>
</trkpt>
<trkpt lat="34.55096" lon="135.47722">
<ele>19</ele>
</trkpt>
<trkpt lat="34.55071" lon="135.47781">
<ele>19</ele>
</trkpt>
<trkpt lat="34.55079" lon="135.47786">
<ele>19</ele>
</trkpt>
<trkpt lat="34.55111" lon="135.47806">
<ele>19</ele>
</trkpt>
<trkpt lat="34.55122" lon="135.47816">
<ele>19</ele>
</trkpt>
<trkpt lat="34.55188" lon="135.4785">
<ele>18</ele>
</trkpt>
<trkpt lat="34.5525499" lon="135.47884">
<ele>18</ele>
</trkpt>
<trkpt lat="34.55254" lon="135.47886">
<ele>18</ele>
</trkpt>
<trkpt lat="34.5522599" lon="135.47953">
<ele>19</ele>
</trkpt>
<trkpt lat="34.55197" lon="135.48019">
<ele>19</ele>
</trkpt>
<trkpt lat="34.55169" lon="135.48086">
<ele>17</ele>
</trkpt>
<trkpt lat="34.55169" lon="135.48087">
<ele>16</ele>
</trkpt>
<trkpt lat="34.55169" lon="135.48087">
<ele>16</ele>
</trkpt>
<trkpt lat="34.55227" lon="135.48167">
<ele>17</ele>
</trkpt>
<trkpt lat="34.55227" lon="135.48167">
<ele>17</ele>
</trkpt>
<trkpt lat="34.55233" lon="135.48175">
<ele>17</ele>
</trkpt>
<trkpt lat="34.55218" lon="135.48182">
<ele>17</ele>
</trkpt>
<trkpt lat="34.55218" lon="135.48182">
<ele>17</ele>
</trkpt>
<trkpt lat="34.55218" lon="135.48182">
<ele>17</ele>
</trkpt>
<trkpt lat="34.55258" lon="135.48236">
<ele>17</ele>
</trkpt>
<trkpt lat="34.55298" lon="135.48291">
<ele>19</ele>
</trkpt>
<trkpt lat="34.55298" lon="135.483">
<ele>19</ele>
</trkpt>
<trkpt lat="34.55298" lon="135.483">
<ele>19</ele>
</trkpt>
<trkpt lat="34.55295" lon="135.4837">
<ele>20</ele>
</trkpt>
<trkpt lat="34.55296" lon="135.4841">
<ele>20</ele>
</trkpt>
<trkpt lat="34.55275" lon="135.4849">
<ele>19</ele>
</trkpt>
<trkpt lat="34.55254" lon="135.48569">
<ele>19</ele>
</trkpt>
<trkpt lat="34.55253" lon="135.48597">
<ele>20</ele>
</trkpt>
<trkpt lat="34.5525499" lon="135.48616">
<ele>20</ele>
</trkpt>
<trkpt lat="34.55261" lon="135.4865299">
<ele>20</ele>
</trkpt>
<trkpt lat="34.55299" lon="135.48693">
<ele>20</ele>
</trkpt>
<trkpt lat="34.55301" lon="135.48704">
<ele>20</ele>
</trkpt>
<trkpt lat="34.55304" lon="135.48711">
<ele>20</ele>
</trkpt>
<trkpt lat="34.55304" lon="135.48711">
<ele>20</ele>
</trkpt>
<trkpt lat="34.55309" lon="135.4872">
<ele>20</ele>
</trkpt>
<trkpt lat="34.55312" lon="135.48724">
<ele>20</ele>
</trkpt>
<trkpt lat="34.55332" lon="135.48758">
<ele>20</ele>
</trkpt>
<trkpt lat="34.55337" lon="135.48777">
<ele>20</ele>
</trkpt>
<trkpt lat="34.55345" lon="135.48783">
<ele>20</ele>
</trkpt>
<trkpt lat="34.55359" lon="135.48827">
<ele>20</ele>
</trkpt>
<trkpt lat="34.55359" lon="135.48827">
<ele>20</ele>
</trkpt>
<trkpt lat="34.55362" lon="135.48837">
<ele>20</ele>
</trkpt>
<trkpt lat="34.5536699" lon="135.48889">
<ele>20</ele>
</trkpt>
<trkpt lat="34.5536699" lon="135.48889">
<ele>20</ele>
</trkpt>
<trkpt lat="34.55368" lon="135.48904">
<ele>20</ele>
</trkpt>
<trkpt lat="34.55375" lon="135.48875">
<ele>20</ele>
</trkpt>
<trkpt lat="34.55379" lon="135.48876">
<ele>20</ele>
</trkpt>
<trkpt lat="34.55402" lon="135.48885">
<ele>20</ele>
</trkpt>
<trkpt lat="34.55407" lon="135.48882">
<ele>20</ele>
</trkpt>
<trkpt lat="34.55417" lon="135.48877">
<ele>20</ele>
</trkpt>
<trkpt lat="34.55433" lon="135.48875">
<ele>20</ele>
</trkpt>
<trkpt lat="34.55448" lon="135.48875">
<ele>20</ele>
</trkpt>
<trkpt lat="34.55462" lon="135.48879">
<ele>20</ele>
</trkpt>
<trkpt lat="34.55477" lon="135.48879">
<ele>20</ele>
</trkpt>
<trkpt lat="34.55482" lon="135.48884">
<ele>20</ele>
</trkpt>
<trkpt lat="34.55551" lon="135.48907">
<ele>21</ele>
</trkpt>
<trkpt lat="34.55577" lon="135.48907">
<ele>21</ele>
</trkpt>
<trkpt lat="34.55581" lon="135.48906">
<ele>21</ele>
</trkpt>
<trkpt lat="34.55589" lon="135.48907">
<ele>21</ele>
</trkpt>
<trkpt lat="34.5559299" lon="135.48908">
<ele>21</ele>
</trkpt>
<trkpt lat="34.55597" lon="135.48915">
<ele>21</ele>
</trkpt>
<trkpt lat="34.55651" lon="135.48943">
<ele>22</ele>
</trkpt>
<trkpt lat="34.55706" lon="135.48971">
<ele>23</ele>
</trkpt>
<trkpt lat="34.55709" lon="135.48973">
<ele>23</ele>
</trkpt>
<trkpt lat="34.55721" lon="135.48941">
<ele>23</ele>
</trkpt>
<trkpt lat="34.55738" lon="135.48902">
<ele>21</ele>
</trkpt>
<trkpt lat="34.55765" lon="135.48863">
<ele>21</ele>
</trkpt>
<trkpt lat="34.55778" lon="135.48853">
<ele>21</ele>
</trkpt>
<trkpt lat="34.55789" lon="135.48845">
<ele>21</ele>
</trkpt>
<trkpt lat="34.55787" lon="135.48842">
<ele>21</ele>
</trkpt>
<trkpt lat="34.55797" lon="135.48834">
<ele>21</ele>
</trkpt>
<trkpt lat="34.55833" lon="135.48803">
<ele>21</ele>
</trkpt>
<trkpt lat="34.5587" lon="135.48756">
<ele>19</ele>
</trkpt>
<trkpt lat="34.5587" lon="135.4875999">
<ele>19</ele>
</trkpt>
<trkpt lat="34.55885" lon="135.4874">
<ele>19</ele>
</trkpt>
<trkpt lat="34.55889" lon="135.48735">
<ele>19</ele>
</trkpt>
<trkpt lat="34.55892" lon="135.48738">
<ele>19</ele>
</trkpt>
<trkpt lat="34.55897" lon="135.48735">
<ele>19</ele>
</trkpt>
<trkpt lat="34.55928" lon="135.48695">
<ele>17</ele>
</trkpt>
<trkpt lat="34.55939" lon="135.48677">
<ele>17</ele>
</trkpt>
<trkpt lat="34.5599" lon="135.48618">
<ele>17</ele>
</trkpt>
    </trkseg>
  </trk>
</gpx>