<?xml version="1.0" encoding="UTF-8"?>
<gpx version="1.1"
     creator="KMLtoGPX"
     xmlns="http://www.topografix.com/GPX/1/1">
  <metadata>
    <name>A course to learn about the culture that originated from afforestation</name>
    <desc>造林発祥文化を知るコース</desc>
    <bounds minlat="34.36331" minlon="135.84601" maxlat="34.3952" maxlon="135.89568"/>
  </metadata>
  <trk>
    <name>A course to learn about the culture that originated from afforestation</name>
    <trkseg>
<trkpt lat="34.3952" lon="135.84602">
<ele>168.5</ele>
</trkpt>
<trkpt lat="34.39513" lon="135.84601">
<ele>167.4</ele>
</trkpt>
<trkpt lat="34.39497" lon="135.8463">
<ele>165.8</ele>
</trkpt>
<trkpt lat="34.39488" lon="135.84639">
<ele>164.8</ele>
</trkpt>
<trkpt lat="34.3947" lon="135.8465">
<ele>162.6</ele>
</trkpt>
<trkpt lat="34.39473" lon="135.84671">
<ele>163.6</ele>
</trkpt>
<trkpt lat="34.39474" lon="135.84699">
<ele>166.8</ele>
</trkpt>
<trkpt lat="34.39466" lon="135.84745">
<ele>169.9</ele>
</trkpt>
<trkpt lat="34.39453" lon="135.84793">
<ele>169.6</ele>
</trkpt>
<trkpt lat="34.39452" lon="135.84815">
<ele>170.5</ele>
</trkpt>
<trkpt lat="34.39456" lon="135.84856">
<ele>174.5</ele>
</trkpt>
<trkpt lat="34.39455" lon="135.8487199">
<ele>175.1</ele>
</trkpt>
<trkpt lat="34.3945099" lon="135.84897">
<ele>174.8</ele>
</trkpt>
<trkpt lat="34.3945" lon="135.84921">
<ele>175.2</ele>
</trkpt>
<trkpt lat="34.39455" lon="135.84983">
<ele>174.4</ele>
</trkpt>
<trkpt lat="34.39464" lon="135.85039">
<ele>174.1</ele>
</trkpt>
<trkpt lat="34.39473" lon="135.85094">
<ele>172.5</ele>
</trkpt>
<trkpt lat="34.39446" lon="135.85103">
<ele>169.8030116</ele>
</trkpt>
<trkpt lat="34.39438" lon="135.8510499">
<ele>169.0162948</ele>
</trkpt>
<trkpt lat="34.39371" lon="135.85122">
<ele>162.4234969</ele>
</trkpt>
<trkpt lat="34.39304" lon="135.85139">
<ele>155.8306969</ele>
</trkpt>
<trkpt lat="34.3930099" lon="135.8514">
<ele>155.5310311</ele>
</trkpt>
<trkpt lat="34.39308" lon="135.85172">
<ele>152.9</ele>
</trkpt>
<trkpt lat="34.39316" lon="135.85251">
<ele>153.8</ele>
</trkpt>
<trkpt lat="34.39323" lon="135.8533">
<ele>152.1</ele>
</trkpt>
<trkpt lat="34.39326" lon="135.85411">
<ele>152.4</ele>
</trkpt>
<trkpt lat="34.39329" lon="135.85492">
<ele>152.2</ele>
</trkpt>
<trkpt lat="34.39331" lon="135.856">
<ele>156.1</ele>
</trkpt>
<trkpt lat="34.39344" lon="135.8566899">
<ele>155.0</ele>
</trkpt>
<trkpt lat="34.3935699" lon="135.85738">
<ele>158.0</ele>
</trkpt>
<trkpt lat="34.39383" lon="135.85798">
<ele>156.9</ele>
</trkpt>
<trkpt lat="34.39408" lon="135.85859">
<ele>156.4</ele>
</trkpt>
<trkpt lat="34.39423" lon="135.85878">
<ele>155.8</ele>
</trkpt>
<trkpt lat="34.39431" lon="135.8591099">
<ele>156.3</ele>
</trkpt>
<trkpt lat="34.39449" lon="135.85941">
<ele>157.4</ele>
</trkpt>
<trkpt lat="34.39471" lon="135.86015">
<ele>158.8</ele>
</trkpt>
<trkpt lat="34.39482" lon="135.86051">
<ele>158.0</ele>
</trkpt>
<trkpt lat="34.39497" lon="135.8610799">
<ele>157.1</ele>
</trkpt>
<trkpt lat="34.39512" lon="135.86166">
<ele>157.7</ele>
</trkpt>
<trkpt lat="34.39518" lon="135.86193">
<ele>158.9</ele>
</trkpt>
<trkpt lat="34.39504" lon="135.86194">
<ele>159.5</ele>
</trkpt>
<trkpt lat="34.39466" lon="135.86192">
<ele>165.6</ele>
</trkpt>
<trkpt lat="34.39455" lon="135.86189">
<ele>167.5</ele>
</trkpt>
<trkpt lat="34.39448" lon="135.86297">
<ele>168.0</ele>
</trkpt>
<trkpt lat="34.39441" lon="135.86405">
<ele>163.7</ele>
</trkpt>
<trkpt lat="34.39434" lon="135.86513">
<ele>161.6</ele>
</trkpt>
<trkpt lat="34.39428" lon="135.86548">
<ele>159.8</ele>
</trkpt>
<trkpt lat="34.39422" lon="135.86563">
<ele>159.2</ele>
</trkpt>
<trkpt lat="34.3938599" lon="135.86609">
<ele>166.3</ele>
</trkpt>
<trkpt lat="34.39363" lon="135.86629">
<ele>168.0</ele>
</trkpt>
<trkpt lat="34.39313" lon="135.8666299">
<ele>170.5</ele>
</trkpt>
<trkpt lat="34.39267" lon="135.86725">
<ele>172.7</ele>
</trkpt>
<trkpt lat="34.39246" lon="135.86763">
<ele>167.6</ele>
</trkpt>
<trkpt lat="34.39212" lon="135.86835">
<ele>161.8</ele>
</trkpt>
<trkpt lat="34.39179" lon="135.86908">
<ele>163.8</ele>
</trkpt>
<trkpt lat="34.3914199" lon="135.86979">
<ele>164.8</ele>
</trkpt>
<trkpt lat="34.39107" lon="135.87042">
<ele>165.6</ele>
</trkpt>
<trkpt lat="34.39072" lon="135.87105">
<ele>168.4</ele>
</trkpt>
<trkpt lat="34.39037" lon="135.87183">
<ele>174.9</ele>
</trkpt>
<trkpt lat="34.39002" lon="135.8726">
<ele>174.4</ele>
</trkpt>
<trkpt lat="34.38987" lon="135.87284">
<ele>176.1</ele>
</trkpt>
<trkpt lat="34.38956" lon="135.87321">
<ele>179.8</ele>
</trkpt>
<trkpt lat="34.38908" lon="135.87371">
<ele>181.6</ele>
</trkpt>
<trkpt lat="34.38901" lon="135.87382">
<ele>180.2</ele>
</trkpt>
<trkpt lat="34.38894" lon="135.87402">
<ele>175.2</ele>
</trkpt>
<trkpt lat="34.38886" lon="135.87411">
<ele>174.4</ele>
</trkpt>
<trkpt lat="34.38866" lon="135.87423">
<ele>177.1</ele>
</trkpt>
<trkpt lat="34.38834" lon="135.87455">
<ele>179.1</ele>
</trkpt>
<trkpt lat="34.38809" lon="135.87489">
<ele>179.4</ele>
</trkpt>
<trkpt lat="34.38793" lon="135.87513">
<ele>178.9</ele>
</trkpt>
<trkpt lat="34.3877" lon="135.87574">
<ele>173.3</ele>
</trkpt>
<trkpt lat="34.3874799" lon="135.87636">
<ele>173.0</ele>
</trkpt>
<trkpt lat="34.38731" lon="135.8765699">
<ele>174.8</ele>
</trkpt>
<trkpt lat="34.38682" lon="135.8771099">
<ele>177.6</ele>
</trkpt>
<trkpt lat="34.38632" lon="135.87765">
<ele>175.9</ele>
</trkpt>
<trkpt lat="34.38602" lon="135.87796">
<ele>174.6</ele>
</trkpt>
<trkpt lat="34.38572" lon="135.87823">
<ele>173.9</ele>
</trkpt>
<trkpt lat="34.38517" lon="135.87871">
<ele>170.6</ele>
</trkpt>
<trkpt lat="34.38461" lon="135.87918">
<ele>175.8</ele>
</trkpt>
<trkpt lat="34.38406" lon="135.87966">
<ele>180.7</ele>
</trkpt>
<trkpt lat="34.38391" lon="135.87981">
<ele>183.9</ele>
</trkpt>
<trkpt lat="34.3836299" lon="135.8802399">
<ele>185.0</ele>
</trkpt>
<trkpt lat="34.38303" lon="135.8808699">
<ele>192.1</ele>
</trkpt>
<trkpt lat="34.38243" lon="135.8815">
<ele>190.5</ele>
</trkpt>
<trkpt lat="34.3822" lon="135.88184">
<ele>190.7</ele>
</trkpt>
<trkpt lat="34.38198" lon="135.88229">
<ele>191.4</ele>
</trkpt>
<trkpt lat="34.38156" lon="135.88317">
<ele>192.3</ele>
</trkpt>
<trkpt lat="34.38149" lon="135.88336">
<ele>193.1</ele>
</trkpt>
<trkpt lat="34.38147" lon="135.88351">
<ele>193.7</ele>
</trkpt>
<trkpt lat="34.38145" lon="135.88401">
<ele>193.1</ele>
</trkpt>
<trkpt lat="34.38149" lon="135.88475">
<ele>191.6</ele>
</trkpt>
<trkpt lat="34.38157" lon="135.88538">
<ele>191.7</ele>
</trkpt>
<trkpt lat="34.3817499" lon="135.8862">
<ele>189.6</ele>
</trkpt>
<trkpt lat="34.38181" lon="135.88664">
<ele>189.2</ele>
</trkpt>
<trkpt lat="34.3818399" lon="135.887">
<ele>187.4</ele>
</trkpt>
<trkpt lat="34.3818" lon="135.88723">
<ele>188.3</ele>
</trkpt>
<trkpt lat="34.38174" lon="135.8879399">
<ele>186.1</ele>
</trkpt>
<trkpt lat="34.38167" lon="135.88865">
<ele>183.4</ele>
</trkpt>
<trkpt lat="34.38155" lon="135.88914">
<ele>184.0</ele>
</trkpt>
<trkpt lat="34.38138" lon="135.88957">
<ele>181.7</ele>
</trkpt>
<trkpt lat="34.3813" lon="135.88965">
<ele>181.4</ele>
</trkpt>
<trkpt lat="34.3812" lon="135.88971">
<ele>181.4</ele>
</trkpt>
<trkpt lat="34.3811" lon="135.88972">
<ele>182.3</ele>
</trkpt>
<trkpt lat="34.38089" lon="135.88968">
<ele>185.6</ele>
</trkpt>
<trkpt lat="34.38069" lon="135.88959">
<ele>186.4</ele>
</trkpt>
<trkpt lat="34.38039" lon="135.8894">
<ele>185.9</ele>
</trkpt>
<trkpt lat="34.38003" lon="135.88906">
<ele>188.8</ele>
</trkpt>
<trkpt lat="34.37976" lon="135.88886">
<ele>192.1</ele>
</trkpt>
<trkpt lat="34.3793999" lon="135.88869">
<ele>186.8</ele>
</trkpt>
<trkpt lat="34.37917" lon="135.8886">
<ele>180.2</ele>
</trkpt>
<trkpt lat="34.379" lon="135.8885699">
<ele>180.0</ele>
</trkpt>
<trkpt lat="34.3787" lon="135.8885699">
<ele>179.1</ele>
</trkpt>
<trkpt lat="34.37848" lon="135.88865">
<ele>177.7</ele>
</trkpt>
<trkpt lat="34.37826" lon="135.88877">
<ele>177.9</ele>
</trkpt>
<trkpt lat="34.37794" lon="135.88904">
<ele>181.2</ele>
</trkpt>
<trkpt lat="34.37768" lon="135.8893">
<ele>181.4</ele>
</trkpt>
<trkpt lat="34.37736" lon="135.88955">
<ele>178.8</ele>
</trkpt>
<trkpt lat="34.37712" lon="135.88969">
<ele>176.6</ele>
</trkpt>
<trkpt lat="34.37658" lon="135.88994">
<ele>175.8</ele>
</trkpt>
<trkpt lat="34.37647" lon="135.89001">
<ele>176.3</ele>
</trkpt>
<trkpt lat="34.37634" lon="135.89015">
<ele>176.5</ele>
</trkpt>
<trkpt lat="34.37624" lon="135.89032">
<ele>176.3</ele>
</trkpt>
<trkpt lat="34.37618" lon="135.89057">
<ele>175.0</ele>
</trkpt>
<trkpt lat="34.37613" lon="135.89068">
<ele>174.9</ele>
</trkpt>
<trkpt lat="34.37583" lon="135.89169">
<ele>180.0</ele>
</trkpt>
<trkpt lat="34.3757" lon="135.89199">
<ele>186.3</ele>
</trkpt>
<trkpt lat="34.37544" lon="135.8924">
<ele>203.1</ele>
</trkpt>
<trkpt lat="34.37538" lon="135.89277">
<ele>206.0</ele>
</trkpt>
<trkpt lat="34.37532" lon="135.89362">
<ele>201.9</ele>
</trkpt>
<trkpt lat="34.37536" lon="135.89444">
<ele>188.3</ele>
</trkpt>
<trkpt lat="34.37529" lon="135.89459">
<ele>188.2</ele>
</trkpt>
<trkpt lat="34.37517" lon="135.89471">
<ele>189.1</ele>
</trkpt>
<trkpt lat="34.3745199" lon="135.89499">
<ele>189.9</ele>
</trkpt>
<trkpt lat="34.37389" lon="135.89522">
<ele>199.9</ele>
</trkpt>
<trkpt lat="34.37374" lon="135.89531">
<ele>202.5</ele>
</trkpt>
<trkpt lat="34.37332" lon="135.89567">
<ele>200.0</ele>
</trkpt>
<trkpt lat="34.37316" lon="135.89568">
<ele>203.5</ele>
</trkpt>
<trkpt lat="34.37278" lon="135.89565">
<ele>214.1</ele>
</trkpt>
<trkpt lat="34.3726399" lon="135.89562">
<ele>218.9</ele>
</trkpt>
<trkpt lat="34.37248" lon="135.89554">
<ele>226.8</ele>
</trkpt>
<trkpt lat="34.3723" lon="135.89549">
<ele>232.0</ele>
</trkpt>
<trkpt lat="34.3718999" lon="135.89549">
<ele>238.2</ele>
</trkpt>
<trkpt lat="34.37158" lon="135.89556">
<ele>238.9</ele>
</trkpt>
<trkpt lat="34.37135" lon="135.89556">
<ele>236.3</ele>
</trkpt>
<trkpt lat="34.37092" lon="135.89547">
<ele>234.0</ele>
</trkpt>
<trkpt lat="34.37078" lon="135.89545">
<ele>233.2</ele>
</trkpt>
<trkpt lat="34.37025" lon="135.89543">
<ele>230.1</ele>
</trkpt>
<trkpt lat="34.3701099" lon="135.8954">
<ele>229.5</ele>
</trkpt>
<trkpt lat="34.36988" lon="135.89526">
<ele>231.0</ele>
</trkpt>
<trkpt lat="34.36976" lon="135.89514">
<ele>231.7</ele>
</trkpt>
<trkpt lat="34.36919" lon="135.89434">
<ele>233.3</ele>
</trkpt>
<trkpt lat="34.36889" lon="135.89382">
<ele>236.2</ele>
</trkpt>
<trkpt lat="34.36879" lon="135.8935799">
<ele>235.1</ele>
</trkpt>
<trkpt lat="34.3684299" lon="135.89263">
<ele>227.0</ele>
</trkpt>
<trkpt lat="34.36836" lon="135.89255">
<ele>223.4</ele>
</trkpt>
<trkpt lat="34.36821" lon="135.89245">
<ele>222.4</ele>
</trkpt>
<trkpt lat="34.36802" lon="135.89237">
<ele>222.3</ele>
</trkpt>
<trkpt lat="34.36739" lon="135.89223">
<ele>218.4</ele>
</trkpt>
<trkpt lat="34.36693" lon="135.89199">
<ele>222.5</ele>
</trkpt>
<trkpt lat="34.3667299" lon="135.89194">
<ele>222.5</ele>
</trkpt>
<trkpt lat="34.36662" lon="135.89187">
<ele>221.8</ele>
</trkpt>
<trkpt lat="34.36649" lon="135.89173">
<ele>220.1</ele>
</trkpt>
<trkpt lat="34.36613" lon="135.89114">
<ele>225.4</ele>
</trkpt>
<trkpt lat="34.36601" lon="135.89098">
<ele>224.4</ele>
</trkpt>
<trkpt lat="34.36558" lon="135.89067">
<ele>234.8</ele>
</trkpt>
<trkpt lat="34.36498" lon="135.88993">
<ele>239.4</ele>
</trkpt>
<trkpt lat="34.36488" lon="135.88967">
<ele>241.0</ele>
</trkpt>
<trkpt lat="34.36474" lon="135.88941">
<ele>241.7</ele>
</trkpt>
<trkpt lat="34.3644" lon="135.88897">
<ele>242.9</ele>
</trkpt>
<trkpt lat="34.36425" lon="135.88883">
<ele>242.1</ele>
</trkpt>
<trkpt lat="34.36415" lon="135.88876">
<ele>241.2</ele>
</trkpt>
<trkpt lat="34.36391" lon="135.88867">
<ele>246.7</ele>
</trkpt>
<trkpt lat="34.36332" lon="135.88836">
<ele>254.2</ele>
</trkpt>
<trkpt lat="34.36331" lon="135.88836">
<ele>254.5</ele>
</trkpt>
<trkpt lat="34.36331" lon="135.88836">
<ele>254.5</ele>
</trkpt>
<trkpt lat="34.36331" lon="135.88836">
<ele>254.5</ele>
</trkpt>
<trkpt lat="34.36331" lon="135.88836">
<ele>254.5</ele>
</trkpt>
<trkpt lat="34.36332" lon="135.88836">
<ele>254.2</ele>
</trkpt>
<trkpt lat="34.36391" lon="135.88867">
<ele>246.7</ele>
</trkpt>
<trkpt lat="34.36415" lon="135.88876">
<ele>241.2</ele>
</trkpt>
<trkpt lat="34.36425" lon="135.88883">
<ele>242.1</ele>
</trkpt>
<trkpt lat="34.3644" lon="135.88897">
<ele>242.9</ele>
</trkpt>
<trkpt lat="34.36474" lon="135.88941">
<ele>241.7</ele>
</trkpt>
<trkpt lat="34.36488" lon="135.88967">
<ele>241.0</ele>
</trkpt>
<trkpt lat="34.36498" lon="135.88993">
<ele>239.4</ele>
</trkpt>
<trkpt lat="34.36558" lon="135.89067">
<ele>234.8</ele>
</trkpt>
<trkpt lat="34.36601" lon="135.89098">
<ele>224.4</ele>
</trkpt>
<trkpt lat="34.36613" lon="135.89114">
<ele>225.4</ele>
</trkpt>
<trkpt lat="34.36649" lon="135.89173">
<ele>220.1</ele>
</trkpt>
<trkpt lat="34.36662" lon="135.89187">
<ele>221.8</ele>
</trkpt>
<trkpt lat="34.3667299" lon="135.89194">
<ele>222.5</ele>
</trkpt>
<trkpt lat="34.36693" lon="135.89199">
<ele>222.5</ele>
</trkpt>
<trkpt lat="34.36739" lon="135.89223">
<ele>218.4</ele>
</trkpt>
<trkpt lat="34.36802" lon="135.89237">
<ele>222.3</ele>
</trkpt>
<trkpt lat="34.36821" lon="135.89245">
<ele>222.4</ele>
</trkpt>
<trkpt lat="34.36836" lon="135.89255">
<ele>223.4</ele>
</trkpt>
<trkpt lat="34.3684299" lon="135.89263">
<ele>227.0</ele>
</trkpt>
<trkpt lat="34.36879" lon="135.8935799">
<ele>235.1</ele>
</trkpt>
<trkpt lat="34.36889" lon="135.89382">
<ele>236.2</ele>
</trkpt>
<trkpt lat="34.36919" lon="135.89434">
<ele>233.3</ele>
</trkpt>
<trkpt lat="34.36976" lon="135.89514">
<ele>231.7</ele>
</trkpt>
<trkpt lat="34.36988" lon="135.89526">
<ele>231.0</ele>
</trkpt>
<trkpt lat="34.3701099" lon="135.8954">
<ele>229.5</ele>
</trkpt>
<trkpt lat="34.37025" lon="135.89543">
<ele>230.1</ele>
</trkpt>
<trkpt lat="34.37078" lon="135.89545">
<ele>233.2</ele>
</trkpt>
<trkpt lat="34.371" lon="135.89548">
<ele>234.6</ele>
</trkpt>
<trkpt lat="34.37135" lon="135.89556">
<ele>236.3</ele>
</trkpt>
<trkpt lat="34.37158" lon="135.89556">
<ele>238.9</ele>
</trkpt>
<trkpt lat="34.3718999" lon="135.89549">
<ele>238.2</ele>
</trkpt>
<trkpt lat="34.3723" lon="135.89549">
<ele>232.0</ele>
</trkpt>
<trkpt lat="34.37248" lon="135.89554">
<ele>226.8</ele>
</trkpt>
<trkpt lat="34.3726399" lon="135.89562">
<ele>218.9</ele>
</trkpt>
<trkpt lat="34.37278" lon="135.89565">
<ele>214.1</ele>
</trkpt>
<trkpt lat="34.37316" lon="135.89568">
<ele>203.5</ele>
</trkpt>
<trkpt lat="34.37332" lon="135.89567">
<ele>200.0</ele>
</trkpt>
<trkpt lat="34.37374" lon="135.89531">
<ele>202.5</ele>
</trkpt>
<trkpt lat="34.37389" lon="135.89522">
<ele>199.9</ele>
</trkpt>
<trkpt lat="34.3745199" lon="135.89499">
<ele>189.9</ele>
</trkpt>
<trkpt lat="34.37517" lon="135.89471">
<ele>189.1</ele>
</trkpt>
<trkpt lat="34.37529" lon="135.89459">
<ele>188.2</ele>
</trkpt>
<trkpt lat="34.37534" lon="135.89447">
<ele>188.5</ele>
</trkpt>
<trkpt lat="34.37536" lon="135.89444">
<ele>188.3</ele>
</trkpt>
<trkpt lat="34.37532" lon="135.89362">
<ele>201.9</ele>
</trkpt>
<trkpt lat="34.37538" lon="135.89277">
<ele>206.0</ele>
</trkpt>
<trkpt lat="34.37544" lon="135.8924">
<ele>203.1</ele>
</trkpt>
<trkpt lat="34.3757" lon="135.89199">
<ele>186.3</ele>
</trkpt>
<trkpt lat="34.37583" lon="135.89169">
<ele>180.0</ele>
</trkpt>
<trkpt lat="34.37613" lon="135.89068">
<ele>174.9</ele>
</trkpt>
<trkpt lat="34.37618" lon="135.89057">
<ele>175.0</ele>
</trkpt>
<trkpt lat="34.37624" lon="135.89032">
<ele>176.3</ele>
</trkpt>
<trkpt lat="34.37634" lon="135.89015">
<ele>176.5</ele>
</trkpt>
<trkpt lat="34.37647" lon="135.89001">
<ele>176.3</ele>
</trkpt>
<trkpt lat="34.37658" lon="135.88994">
<ele>175.8</ele>
</trkpt>
<trkpt lat="34.37712" lon="135.88969">
<ele>176.6</ele>
</trkpt>
<trkpt lat="34.37736" lon="135.88955">
<ele>178.8</ele>
</trkpt>
<trkpt lat="34.37768" lon="135.8893">
<ele>181.4</ele>
</trkpt>
<trkpt lat="34.37794" lon="135.88904">
<ele>181.2</ele>
</trkpt>
<trkpt lat="34.37826" lon="135.88877">
<ele>177.9</ele>
</trkpt>
<trkpt lat="34.37848" lon="135.88865">
<ele>177.7</ele>
</trkpt>
<trkpt lat="34.3787" lon="135.8885699">
<ele>179.1</ele>
</trkpt>
<trkpt lat="34.379" lon="135.8885699">
<ele>180.0</ele>
</trkpt>
<trkpt lat="34.37917" lon="135.8886">
<ele>180.2</ele>
</trkpt>
<trkpt lat="34.3793999" lon="135.88869">
<ele>186.8</ele>
</trkpt>
<trkpt lat="34.37976" lon="135.88886">
<ele>192.1</ele>
</trkpt>
<trkpt lat="34.38003" lon="135.88906">
<ele>188.8</ele>
</trkpt>
<trkpt lat="34.38039" lon="135.8894">
<ele>185.9</ele>
</trkpt>
<trkpt lat="34.38069" lon="135.88959">
<ele>186.4</ele>
</trkpt>
<trkpt lat="34.38089" lon="135.88968">
<ele>185.6</ele>
</trkpt>
<trkpt lat="34.3811" lon="135.88972">
<ele>182.3</ele>
</trkpt>
<trkpt lat="34.3812" lon="135.88971">
<ele>181.4</ele>
</trkpt>
<trkpt lat="34.3813" lon="135.88965">
<ele>181.4</ele>
</trkpt>
<trkpt lat="34.38138" lon="135.88957">
<ele>181.7</ele>
</trkpt>
<trkpt lat="34.38155" lon="135.88914">
<ele>184.0</ele>
</trkpt>
<trkpt lat="34.38167" lon="135.88865">
<ele>183.4</ele>
</trkpt>
<trkpt lat="34.38174" lon="135.8879399">
<ele>186.1</ele>
</trkpt>
<trkpt lat="34.3818" lon="135.88723">
<ele>188.3</ele>
</trkpt>
<trkpt lat="34.3818399" lon="135.887">
<ele>187.4</ele>
</trkpt>
<trkpt lat="34.38181" lon="135.88664">
<ele>189.2</ele>
</trkpt>
<trkpt lat="34.3817499" lon="135.8862">
<ele>189.6</ele>
</trkpt>
<trkpt lat="34.38157" lon="135.88538">
<ele>191.7</ele>
</trkpt>
<trkpt lat="34.38149" lon="135.88475">
<ele>191.6</ele>
</trkpt>
<trkpt lat="34.38145" lon="135.88401">
<ele>193.1</ele>
</trkpt>
<trkpt lat="34.38147" lon="135.88351">
<ele>193.7</ele>
</trkpt>
<trkpt lat="34.38149" lon="135.88336">
<ele>193.1</ele>
</trkpt>
<trkpt lat="34.38156" lon="135.88317">
<ele>192.3</ele>
</trkpt>
<trkpt lat="34.38198" lon="135.88229">
<ele>191.4</ele>
</trkpt>
<trkpt lat="34.3822" lon="135.88184">
<ele>190.7</ele>
</trkpt>
<trkpt lat="34.38243" lon="135.8815">
<ele>190.5</ele>
</trkpt>
<trkpt lat="34.38303" lon="135.8808699">
<ele>192.1</ele>
</trkpt>
<trkpt lat="34.3836299" lon="135.8802399">
<ele>185.0</ele>
</trkpt>
<trkpt lat="34.38391" lon="135.87981">
<ele>183.9</ele>
</trkpt>
<trkpt lat="34.38406" lon="135.87966">
<ele>180.7</ele>
</trkpt>
<trkpt lat="34.38461" lon="135.87918">
<ele>175.8</ele>
</trkpt>
<trkpt lat="34.38517" lon="135.87871">
<ele>170.6</ele>
</trkpt>
<trkpt lat="34.38572" lon="135.87823">
<ele>173.9</ele>
</trkpt>
<trkpt lat="34.38602" lon="135.87796">
<ele>174.6</ele>
</trkpt>
<trkpt lat="34.38632" lon="135.87765">
<ele>175.9</ele>
</trkpt>
<trkpt lat="34.38682" lon="135.8771099">
<ele>177.6</ele>
</trkpt>
<trkpt lat="34.38731" lon="135.8765699">
<ele>174.8</ele>
</trkpt>
<trkpt lat="34.3874799" lon="135.87636">
<ele>173.0</ele>
</trkpt>
<trkpt lat="34.3877" lon="135.87574">
<ele>173.3</ele>
</trkpt>
<trkpt lat="34.38793" lon="135.87513">
<ele>178.9</ele>
</trkpt>
<trkpt lat="34.38809" lon="135.87489">
<ele>179.4</ele>
</trkpt>
<trkpt lat="34.38834" lon="135.87455">
<ele>179.1</ele>
</trkpt>
<trkpt lat="34.38866" lon="135.87423">
<ele>177.1</ele>
</trkpt>
<trkpt lat="34.38886" lon="135.87411">
<ele>174.4</ele>
</trkpt>
<trkpt lat="34.38894" lon="135.87402">
<ele>175.2</ele>
</trkpt>
<trkpt lat="34.38901" lon="135.87382">
<ele>180.2</ele>
</trkpt>
<trkpt lat="34.38908" lon="135.87371">
<ele>181.6</ele>
</trkpt>
<trkpt lat="34.38956" lon="135.87321">
<ele>179.8</ele>
</trkpt>
<trkpt lat="34.38987" lon="135.87284">
<ele>176.1</ele>
</trkpt>
<trkpt lat="34.39002" lon="135.8726">
<ele>174.4</ele>
</trkpt>
<trkpt lat="34.39037" lon="135.87183">
<ele>174.9</ele>
</trkpt>
<trkpt lat="34.39072" lon="135.87105">
<ele>168.4</ele>
</trkpt>
<trkpt lat="34.39107" lon="135.87042">
<ele>165.6</ele>
</trkpt>
<trkpt lat="34.3914199" lon="135.86979">
<ele>164.8</ele>
</trkpt>
<trkpt lat="34.39179" lon="135.86908">
<ele>163.8</ele>
</trkpt>
<trkpt lat="34.39212" lon="135.86835">
<ele>161.8</ele>
</trkpt>
<trkpt lat="34.39246" lon="135.86763">
<ele>167.6</ele>
</trkpt>
<trkpt lat="34.39267" lon="135.86725">
<ele>172.7</ele>
</trkpt>
<trkpt lat="34.39313" lon="135.8666299">
<ele>170.5</ele>
</trkpt>
<trkpt lat="34.39363" lon="135.86629">
<ele>168.0</ele>
</trkpt>
<trkpt lat="34.3938599" lon="135.86609">
<ele>166.3</ele>
</trkpt>
<trkpt lat="34.39422" lon="135.86563">
<ele>159.2</ele>
</trkpt>
<trkpt lat="34.39428" lon="135.86548">
<ele>159.8</ele>
</trkpt>
<trkpt lat="34.39434" lon="135.86513">
<ele>161.6</ele>
</trkpt>
<trkpt lat="34.39441" lon="135.86406">
<ele>163.7</ele>
</trkpt>
<trkpt lat="34.39448" lon="135.86298">
<ele>167.9</ele>
</trkpt>
<trkpt lat="34.39455" lon="135.8619">
<ele>167.5</ele>
</trkpt>
<trkpt lat="34.39455" lon="135.8619">
<ele>167.5</ele>
</trkpt>
<trkpt lat="34.39455" lon="135.86189">
<ele>167.5</ele>
</trkpt>
<trkpt lat="34.39466" lon="135.86192">
<ele>165.6</ele>
</trkpt>
<trkpt lat="34.39504" lon="135.86194">
<ele>159.5</ele>
</trkpt>
<trkpt lat="34.39518" lon="135.86193">
<ele>158.9</ele>
</trkpt>
<trkpt lat="34.39512" lon="135.86166">
<ele>157.7</ele>
</trkpt>
<trkpt lat="34.3949799" lon="135.86111">
<ele>157.0</ele>
</trkpt>
<trkpt lat="34.3949799" lon="135.86111">
<ele>157.0</ele>
</trkpt>
<trkpt lat="34.3949799" lon="135.86111">
<ele>157.0</ele>
</trkpt>
<trkpt lat="34.39482" lon="135.86051">
<ele>158.0</ele>
</trkpt>
<trkpt lat="34.39466" lon="135.85996">
<ele>158.9</ele>
</trkpt>
<trkpt lat="34.39449" lon="135.85941">
<ele>157.4</ele>
</trkpt>
<trkpt lat="34.39431" lon="135.8591099">
<ele>156.3</ele>
</trkpt>
<trkpt lat="34.39428" lon="135.85897">
<ele>156.1</ele>
</trkpt>
<trkpt lat="34.39423" lon="135.85878">
<ele>155.8</ele>
</trkpt>
<trkpt lat="34.39408" lon="135.85859">
<ele>156.4</ele>
</trkpt>
<trkpt lat="34.39383" lon="135.85798">
<ele>156.9</ele>
</trkpt>
<trkpt lat="34.3935699" lon="135.85738">
<ele>158.0</ele>
</trkpt>
<trkpt lat="34.39344" lon="135.8566899">
<ele>155.0</ele>
</trkpt>
<trkpt lat="34.39331" lon="135.856">
<ele>156.1</ele>
</trkpt>
<trkpt lat="34.39329" lon="135.85492">
<ele>152.2</ele>
</trkpt>
<trkpt lat="34.39326" lon="135.85411">
<ele>152.4</ele>
</trkpt>
<trkpt lat="34.39323" lon="135.8533">
<ele>152.1</ele>
</trkpt>
<trkpt lat="34.39316" lon="135.85251">
<ele>153.8</ele>
</trkpt>
<trkpt lat="34.39308" lon="135.85172">
<ele>152.9</ele>
</trkpt>
<trkpt lat="34.3930099" lon="135.8514">
<ele>155.5310311</ele>
</trkpt>
<trkpt lat="34.39304" lon="135.85139">
<ele>155.8306969</ele>
</trkpt>
<trkpt lat="34.39371" lon="135.85122">
<ele>162.4234969</ele>
</trkpt>
<trkpt lat="34.39438" lon="135.8510499">
<ele>169.0162948</ele>
</trkpt>
<trkpt lat="34.39446" lon="135.85103">
<ele>169.8030116</ele>
</trkpt>
<trkpt lat="34.39473" lon="135.85094">
<ele>172.5</ele>
</trkpt>
<trkpt lat="34.39464" lon="135.85039">
<ele>174.1</ele>
</trkpt>
<trkpt lat="34.39455" lon="135.84983">
<ele>174.4</ele>
</trkpt>
<trkpt lat="34.3945" lon="135.84921">
<ele>175.2</ele>
</trkpt>
<trkpt lat="34.3945099" lon="135.84897">
<ele>174.8</ele>
</trkpt>
<trkpt lat="34.39455" lon="135.8487199">
<ele>175.1</ele>
</trkpt>
<trkpt lat="34.39456" lon="135.84856">
<ele>174.5</ele>
</trkpt>
<trkpt lat="34.39452" lon="135.84815">
<ele>170.5</ele>
</trkpt>
<trkpt lat="34.39453" lon="135.84793">
<ele>169.6</ele>
</trkpt>
<trkpt lat="34.39466" lon="135.84745">
<ele>169.9</ele>
</trkpt>
<trkpt lat="34.39474" lon="135.84699">
<ele>166.8</ele>
</trkpt>
<trkpt lat="34.39473" lon="135.84671">
<ele>163.6</ele>
</trkpt>
<trkpt lat="34.3947" lon="135.8465">
<ele>162.6</ele>
</trkpt>
<trkpt lat="34.39488" lon="135.84639">
<ele>164.8</ele>
</trkpt>
<trkpt lat="34.39497" lon="135.8463">
<ele>165.8</ele>
</trkpt>
<trkpt lat="34.39513" lon="135.84601">
<ele>167.4</ele>
</trkpt>
<trkpt lat="34.39519" lon="135.84602">
<ele>168.4</ele>
</trkpt>
    </trkseg>
  </trk>
</gpx>