<?xml version="1.0" encoding="UTF-8"?>
<gpx version="1.1"
     creator="KMLtoGPX"
     xmlns="http://www.topografix.com/GPX/1/1">
  <metadata>
    <name>Akishino route (C11)</name>
    <desc>秋篠ルート(C11)</desc>
    <bounds minlat="34.68441111111111" minlon="135.72504444444445" maxlat="34.71792" maxlon="135.78869166666667"/>
  </metadata>
  <trk>
    <name>Akishino route (C11)</name>
    <trkseg>
<trkpt lat="34.6917525" lon="135.78869166666667">
<ele>71</ele>
</trkpt>
<trkpt lat="34.69207472222222" lon="135.78869166666667">
<ele>71</ele>
</trkpt>
<trkpt lat="34.69272027777778" lon="135.78869166666667">
<ele>71</ele>
</trkpt>
<trkpt lat="34.692924166666664" lon="135.78869166666667">
<ele>71</ele>
</trkpt>
<trkpt lat="34.69300027777778" lon="135.78869166666667">
<ele>71</ele>
</trkpt>
<trkpt lat="34.693646944444446" lon="135.78869166666667">
<ele>71</ele>
</trkpt>
<trkpt lat="34.693783333333336" lon="135.7886536111111">
<ele>71</ele>
</trkpt>
<trkpt lat="34.693855" lon="135.78862333333333">
<ele>71</ele>
</trkpt>
<trkpt lat="34.69394055555556" lon="135.7886002777778">
<ele>72</ele>
</trkpt>
<trkpt lat="34.69401222222222" lon="135.78859277777778">
<ele>72</ele>
</trkpt>
<trkpt lat="34.694066666666664" lon="135.78858527777777">
<ele>72</ele>
</trkpt>
<trkpt lat="34.6940675" lon="135.78858416666668">
<ele>72</ele>
</trkpt>
<trkpt lat="34.69401222222222" lon="135.78859277777778">
<ele>72</ele>
</trkpt>
<trkpt lat="34.69394055555556" lon="135.7886002777778">
<ele>72</ele>
</trkpt>
<trkpt lat="34.69394611111111" lon="135.78810444444446">
<ele>72</ele>
</trkpt>
<trkpt lat="34.693955833333334" lon="135.78786805555555">
<ele>72</ele>
</trkpt>
<trkpt lat="34.69396666666667" lon="135.78755444444445">
<ele>72</ele>
</trkpt>
<trkpt lat="34.69397222222222" lon="135.78691416666666">
<ele>72</ele>
</trkpt>
<trkpt lat="34.69399166666667" lon="135.78622777777778">
<ele>72</ele>
</trkpt>
<trkpt lat="34.69399166666667" lon="135.78613638888888">
<ele>72</ele>
</trkpt>
<trkpt lat="34.6943075" lon="135.78618944444443">
<ele>73</ele>
</trkpt>
<trkpt lat="34.69448222222222" lon="135.78620666666666">
<ele>73</ele>
</trkpt>
<trkpt lat="34.69448111111111" lon="135.78620666666666">
<ele>73</ele>
</trkpt>
<trkpt lat="34.69468833333333" lon="135.7862275">
<ele>73</ele>
</trkpt>
<trkpt lat="34.6951875" lon="135.78621222222222">
<ele>73</ele>
</trkpt>
<trkpt lat="34.69554888888889" lon="135.78618944444443">
<ele>74</ele>
</trkpt>
<trkpt lat="34.69615833333334" lon="135.7861286111111">
<ele>74</ele>
</trkpt>
<trkpt lat="34.696667222222224" lon="135.78610583333332">
<ele>74</ele>
</trkpt>
<trkpt lat="34.69691666666667" lon="135.78607444444444">
<ele>75</ele>
</trkpt>
<trkpt lat="34.696998055555554" lon="135.78606666666667">
<ele>75</ele>
</trkpt>
<trkpt lat="34.69749083333333" lon="135.7860288888889">
<ele>76</ele>
</trkpt>
<trkpt lat="34.697740277777775" lon="135.78601361111112">
<ele>77</ele>
</trkpt>
<trkpt lat="34.698385555555554" lon="135.78598333333332">
<ele>78</ele>
</trkpt>
<trkpt lat="34.698482222222225" lon="135.78597555555555">
<ele>78</ele>
</trkpt>
<trkpt lat="34.69855166666667" lon="135.7859725">
<ele>78</ele>
</trkpt>
<trkpt lat="34.698550555555556" lon="135.7859725">
<ele>78</ele>
</trkpt>
<trkpt lat="34.698482222222225" lon="135.78597555555555">
<ele>78</ele>
</trkpt>
<trkpt lat="34.698482222222225" lon="135.78552527777777">
<ele>78</ele>
</trkpt>
<trkpt lat="34.698482222222225" lon="135.78544944444445">
<ele>78</ele>
</trkpt>
<trkpt lat="34.698482222222225" lon="135.78544166666666">
<ele>78</ele>
</trkpt>
<trkpt lat="34.698482222222225" lon="135.7851675">
<ele>77</ele>
</trkpt>
<trkpt lat="34.6984975" lon="135.78510555555556">
<ele>77</ele>
</trkpt>
<trkpt lat="34.698548333333335" lon="135.78506777777778">
<ele>77</ele>
</trkpt>
<trkpt lat="34.69865027777778" lon="135.78499944444445">
<ele>78</ele>
</trkpt>
<trkpt lat="34.69929611111111" lon="135.78456416666666">
<ele>78</ele>
</trkpt>
<trkpt lat="34.69969861111111" lon="135.784305">
<ele>78</ele>
</trkpt>
<trkpt lat="34.70023222222222" lon="135.78397722222223">
<ele>78</ele>
</trkpt>
<trkpt lat="34.70044055555555" lon="135.78382416666668">
<ele>78</ele>
</trkpt>
<trkpt lat="34.70057277777778" lon="135.7836875">
<ele>78</ele>
</trkpt>
<trkpt lat="34.700675" lon="135.78358">
<ele>78</ele>
</trkpt>
<trkpt lat="34.70074527777778" lon="135.78345083333335">
<ele>78</ele>
</trkpt>
<trkpt lat="34.7008375" lon="135.78329027777778">
<ele>78</ele>
</trkpt>
<trkpt lat="34.70091361111111" lon="135.7831297222222">
<ele>78</ele>
</trkpt>
<trkpt lat="34.700989444444446" lon="135.78297777777777">
<ele>78</ele>
</trkpt>
<trkpt lat="34.70102" lon="135.78300055555556">
<ele>78</ele>
</trkpt>
<trkpt lat="34.70114805555556" lon="135.78309166666668">
<ele>78</ele>
</trkpt>
<trkpt lat="34.701229444444444" lon="135.7831525">
<ele>78</ele>
</trkpt>
<trkpt lat="34.70129" lon="135.78316777777778">
<ele>78</ele>
</trkpt>
<trkpt lat="34.701411666666665" lon="135.78316777777778">
<ele>78</ele>
</trkpt>
<trkpt lat="34.70205833333333" lon="135.7827413888889">
<ele>79</ele>
</trkpt>
<trkpt lat="34.702556111111114" lon="135.782405">
<ele>79</ele>
</trkpt>
<trkpt lat="34.703201666666665" lon="135.7819786111111">
<ele>79</ele>
</trkpt>
<trkpt lat="34.70331361111111" lon="135.78190138888888">
<ele>79</ele>
</trkpt>
<trkpt lat="34.703960277777774" lon="135.7814825">
<ele>79</ele>
</trkpt>
<trkpt lat="34.70460555555555" lon="135.78106277777778">
<ele>79</ele>
</trkpt>
<trkpt lat="34.70525111111111" lon="135.78064305555554">
<ele>79</ele>
</trkpt>
<trkpt lat="34.7056125" lon="135.7803988888889">
<ele>79</ele>
</trkpt>
<trkpt lat="34.7061875" lon="135.78000277777778">
<ele>79</ele>
</trkpt>
<trkpt lat="34.70666611111111" lon="135.77968916666666">
<ele>79</ele>
</trkpt>
<trkpt lat="34.70719416666667" lon="135.7793388888889">
<ele>79</ele>
</trkpt>
<trkpt lat="34.70729083333333" lon="135.77929333333333">
<ele>80</ele>
</trkpt>
<trkpt lat="34.70792111111111" lon="135.77886583333333">
<ele>80</ele>
</trkpt>
<trkpt lat="34.7082825" lon="135.77862166666668">
<ele>81</ele>
</trkpt>
<trkpt lat="34.708353055555555" lon="135.7785738888889">
<ele>81</ele>
</trkpt>
<trkpt lat="34.708353055555555" lon="135.7785738888889">
<ele>81</ele>
</trkpt>
<trkpt lat="34.70892777777778" lon="135.77818638888888">
<ele>81</ele>
</trkpt>
<trkpt lat="34.708887777777775" lon="135.77815611111112">
<ele>81</ele>
</trkpt>
<trkpt lat="34.70887277777778" lon="135.77811805555555">
<ele>81</ele>
</trkpt>
<trkpt lat="34.70885222222222" lon="135.77785111111112">
<ele>82</ele>
</trkpt>
<trkpt lat="34.7088725" lon="135.77762222222222">
<ele>82</ele>
</trkpt>
<trkpt lat="34.70889972222222" lon="135.77727388888889">
<ele>82</ele>
</trkpt>
<trkpt lat="34.70889972222222" lon="135.77727388888889">
<ele>82</ele>
</trkpt>
<trkpt lat="34.70894861111111" lon="135.77665333333334">
<ele>83</ele>
</trkpt>
<trkpt lat="34.70895388888889" lon="135.77642444444444">
<ele>83</ele>
</trkpt>
<trkpt lat="34.70896916666667" lon="135.77629444444443">
<ele>83</ele>
</trkpt>
<trkpt lat="34.709045" lon="135.77532555555555">
<ele>84</ele>
</trkpt>
<trkpt lat="34.70901472222222" lon="135.77524194444445">
<ele>84</ele>
</trkpt>
<trkpt lat="34.70896361111111" lon="135.7751886111111">
<ele>84</ele>
</trkpt>
<trkpt lat="34.708887777777775" lon="135.77511166666667">
<ele>84</ele>
</trkpt>
<trkpt lat="34.70880638888889" lon="135.77505083333332">
<ele>84</ele>
</trkpt>
<trkpt lat="34.7085375" lon="135.77491416666666">
<ele>86</ele>
</trkpt>
<trkpt lat="34.7085625" lon="135.7748675">
<ele>84</ele>
</trkpt>
<trkpt lat="34.70857222222222" lon="135.77477638888888">
<ele>84</ele>
</trkpt>
<trkpt lat="34.70857111111111" lon="135.7747588888889">
<ele>85</ele>
</trkpt>
<trkpt lat="34.70857111111111" lon="135.77476">
<ele>85</ele>
</trkpt>
<trkpt lat="34.70854722222222" lon="135.77441833333333">
<ele>88</ele>
</trkpt>
<trkpt lat="34.70854722222222" lon="135.77428805555556">
<ele>88</ele>
</trkpt>
<trkpt lat="34.70858527777778" lon="135.77399833333334">
<ele>90</ele>
</trkpt>
<trkpt lat="34.70858416666667" lon="135.77399944444446">
<ele>92</ele>
</trkpt>
<trkpt lat="34.70861333333333" lon="135.77377694444445">
<ele>92</ele>
</trkpt>
<trkpt lat="34.70865333333333" lon="135.77351777777778">
<ele>92</ele>
</trkpt>
<trkpt lat="34.708689166666666" lon="135.7734188888889">
<ele>91</ele>
</trkpt>
<trkpt lat="34.70870444444444" lon="135.77336472222223">
<ele>91</ele>
</trkpt>
<trkpt lat="34.708755277777776" lon="135.7732886111111">
<ele>91</ele>
</trkpt>
<trkpt lat="34.70890305555555" lon="135.77315083333335">
<ele>89</ele>
</trkpt>
<trkpt lat="34.70892777777778" lon="135.77312805555556">
<ele>89</ele>
</trkpt>
<trkpt lat="34.70903527777778" lon="135.77293833333334">
<ele>89</ele>
</trkpt>
<trkpt lat="34.70907111111111" lon="135.77283083333333">
<ele>88</ele>
</trkpt>
<trkpt lat="34.709162222222226" lon="135.7724263888889">
<ele>89</ele>
</trkpt>
<trkpt lat="34.70915138888889" lon="135.77242194444443">
<ele>89</ele>
</trkpt>
<trkpt lat="34.70915138888889" lon="135.77242194444443">
<ele>89</ele>
</trkpt>
<trkpt lat="34.709162222222226" lon="135.7724263888889">
<ele>89</ele>
</trkpt>
<trkpt lat="34.70924361111111" lon="135.77234277777777">
<ele>89</ele>
</trkpt>
<trkpt lat="34.70933055555555" lon="135.77230472222223">
<ele>89</ele>
</trkpt>
<trkpt lat="34.70948777777778" lon="135.77225166666668">
<ele>88</ele>
</trkpt>
<trkpt lat="34.70958972222222" lon="135.77222138888888">
<ele>88</ele>
</trkpt>
<trkpt lat="34.71023527777778" lon="135.77206833333332">
<ele>89</ele>
</trkpt>
<trkpt lat="34.71028638888889" lon="135.77205305555555">
<ele>89</ele>
</trkpt>
<trkpt lat="34.710880833333334" lon="135.77187722222223">
<ele>89</ele>
</trkpt>
<trkpt lat="34.71105444444444" lon="135.77179388888888">
<ele>89</ele>
</trkpt>
<trkpt lat="34.711105277777776" lon="135.77175583333334">
<ele>89</ele>
</trkpt>
<trkpt lat="34.71115638888889" lon="135.77171777777778">
<ele>89</ele>
</trkpt>
<trkpt lat="34.71142" lon="135.77138916666667">
<ele>89</ele>
</trkpt>
<trkpt lat="34.711486111111114" lon="135.77129027777778">
<ele>89</ele>
</trkpt>
<trkpt lat="34.7115525" lon="135.77113722222222">
<ele>89</ele>
</trkpt>
<trkpt lat="34.711578333333335" lon="135.77100055555556">
<ele>89</ele>
</trkpt>
<trkpt lat="34.71161861111111" lon="135.77056555555555">
<ele>89</ele>
</trkpt>
<trkpt lat="34.711664166666665" lon="135.77055027777777">
<ele>89</ele>
</trkpt>
<trkpt lat="34.71178138888889" lon="135.7705275">
<ele>90</ele>
</trkpt>
<trkpt lat="34.711778055555556" lon="135.7705025">
<ele>89</ele>
</trkpt>
<trkpt lat="34.711778055555556" lon="135.7705025">
<ele>90</ele>
</trkpt>
<trkpt lat="34.71178138888889" lon="135.7705275">
<ele>90</ele>
</trkpt>
<trkpt lat="34.711796666666665" lon="135.77051666666668">
<ele>89</ele>
</trkpt>
<trkpt lat="34.711796666666665" lon="135.77051666666668">
<ele>91</ele>
</trkpt>
<trkpt lat="34.71178138888889" lon="135.7705275">
<ele>91</ele>
</trkpt>
<trkpt lat="34.71176083333334" lon="135.77037444444446">
<ele>90</ele>
</trkpt>
<trkpt lat="34.711669444444446" lon="135.77003166666665">
<ele>90</ele>
</trkpt>
<trkpt lat="34.711603333333336" lon="135.76982555555554">
<ele>89</ele>
</trkpt>
<trkpt lat="34.71155666666667" lon="135.76972777777777">
<ele>89</ele>
</trkpt>
<trkpt lat="34.71156694444444" lon="135.76972333333333">
<ele>89</ele>
</trkpt>
<trkpt lat="34.710985" lon="135.76897222222223">
<ele>89</ele>
</trkpt>
<trkpt lat="34.710996944444446" lon="135.76896527777777">
<ele>90</ele>
</trkpt>
<trkpt lat="34.710952222222225" lon="135.76887944444445">
<ele>90</ele>
</trkpt>
<trkpt lat="34.71092194444444" lon="135.76878833333333">
<ele>90</ele>
</trkpt>
<trkpt lat="34.710906666666666" lon="135.76868861111112">
<ele>90</ele>
</trkpt>
<trkpt lat="34.710906666666666" lon="135.768605">
<ele>90</ele>
</trkpt>
<trkpt lat="34.71093166666667" lon="135.76833805555555">
<ele>90</ele>
</trkpt>
<trkpt lat="34.71093166666667" lon="135.76826861111113">
<ele>90</ele>
</trkpt>
<trkpt lat="34.710946944444444" lon="135.76792583333332">
<ele>90</ele>
</trkpt>
<trkpt lat="34.71092194444444" lon="135.76776527777778">
<ele>90</ele>
</trkpt>
<trkpt lat="34.71091222222222" lon="135.76772722222222">
<ele>90</ele>
</trkpt>
<trkpt lat="34.710861111111114" lon="135.76761333333334">
<ele>90</ele>
</trkpt>
<trkpt lat="34.7106625" lon="135.76729972222222">
<ele>90</ele>
</trkpt>
<trkpt lat="34.710586666666664" lon="135.7671552777778">
<ele>90</ele>
</trkpt>
<trkpt lat="34.71055527777778" lon="135.7670025">
<ele>90</ele>
</trkpt>
<trkpt lat="34.71053027777778" lon="135.76650666666666">
<ele>91</ele>
</trkpt>
<trkpt lat="34.71053555555556" lon="135.76636222222223">
<ele>91</ele>
</trkpt>
<trkpt lat="34.71056055555555" lon="135.76623972222222">
<ele>91</ele>
</trkpt>
<trkpt lat="34.710611666666665" lon="135.76611805555555">
<ele>91</ele>
</trkpt>
<trkpt lat="34.710840555555556" lon="135.76567555555556">
<ele>92</ele>
</trkpt>
<trkpt lat="34.710840555555556" lon="135.76567555555556">
<ele>92</ele>
</trkpt>
<trkpt lat="34.71091222222222" lon="135.76553777777778">
<ele>92</ele>
</trkpt>
<trkpt lat="34.71093722222222" lon="135.76546944444445">
<ele>92</ele>
</trkpt>
<trkpt lat="34.7112225" lon="135.76450055555554">
<ele>93</ele>
</trkpt>
<trkpt lat="34.71125277777778" lon="135.76439416666668">
<ele>93</ele>
</trkpt>
<trkpt lat="34.71127777777778" lon="135.7640425">
<ele>93</ele>
</trkpt>
<trkpt lat="34.71131361111111" lon="135.76385166666665">
<ele>93</ele>
</trkpt>
<trkpt lat="34.71138" lon="135.7636997222222">
<ele>94</ele>
</trkpt>
<trkpt lat="34.71145583333333" lon="135.7635772222222">
<ele>94</ele>
</trkpt>
<trkpt lat="34.711573055555554" lon="135.76347833333332">
<ele>94</ele>
</trkpt>
<trkpt lat="34.71187361111111" lon="135.76326472222223">
<ele>94</ele>
</trkpt>
<trkpt lat="34.712046111111114" lon="135.76311916666666">
<ele>94</ele>
</trkpt>
<trkpt lat="34.712163333333336" lon="135.7630127777778">
<ele>95</ele>
</trkpt>
<trkpt lat="34.712295555555556" lon="135.7628447222222">
<ele>96</ele>
</trkpt>
<trkpt lat="34.71238666666667" lon="135.76269277777777">
<ele>96</ele>
</trkpt>
<trkpt lat="34.71248888888889" lon="135.7624788888889">
<ele>97</ele>
</trkpt>
<trkpt lat="34.712498333333336" lon="135.76231833333333">
<ele>97</ele>
</trkpt>
<trkpt lat="34.71250361111111" lon="135.76231083333334">
<ele>97</ele>
</trkpt>
<trkpt lat="34.71250361111111" lon="135.76134222222223">
<ele>98</ele>
</trkpt>
<trkpt lat="34.7125025" lon="135.76132805555557">
<ele>98</ele>
</trkpt>
<trkpt lat="34.7125025" lon="135.76132583333333">
<ele>98</ele>
</trkpt>
<trkpt lat="34.71247777777778" lon="135.76101444444444">
<ele>99</ele>
</trkpt>
<trkpt lat="34.71242222222222" lon="135.76076277777779">
<ele>98</ele>
</trkpt>
<trkpt lat="34.71239638888889" lon="135.76073222222223">
<ele>98</ele>
</trkpt>
<trkpt lat="34.71228055555556" lon="135.76056416666665">
<ele>98</ele>
</trkpt>
<trkpt lat="34.71219361111111" lon="135.76046444444444">
<ele>98</ele>
</trkpt>
<trkpt lat="34.71205583333333" lon="135.76034277777777">
<ele>98</ele>
</trkpt>
<trkpt lat="34.711955" lon="135.76028194444444">
<ele>98</ele>
</trkpt>
<trkpt lat="34.71175638888889" lon="135.76016694444445">
<ele>98</ele>
</trkpt>
<trkpt lat="34.71158833333333" lon="135.76007583333333">
<ele>99</ele>
</trkpt>
<trkpt lat="34.71138" lon="135.75987722222223">
<ele>99</ele>
</trkpt>
<trkpt lat="34.71131361111111" lon="135.75975583333334">
<ele>99</ele>
</trkpt>
<trkpt lat="34.711262777777776" lon="135.75964083333332">
<ele>99</ele>
</trkpt>
<trkpt lat="34.71122694444445" lon="135.75954194444444">
<ele>99</ele>
</trkpt>
<trkpt lat="34.71120194444445" lon="135.75945777777778">
<ele>99</ele>
</trkpt>
<trkpt lat="34.71118666666667" lon="135.75929055555557">
<ele>100</ele>
</trkpt>
<trkpt lat="34.71120194444445" lon="135.75891611111112">
<ele>100</ele>
</trkpt>
<trkpt lat="34.71120194444445" lon="135.75839">
<ele>101</ele>
</trkpt>
<trkpt lat="34.71118138888889" lon="135.7580775">
<ele>102</ele>
</trkpt>
<trkpt lat="34.71113583333333" lon="135.75768805555555">
<ele>103</ele>
</trkpt>
<trkpt lat="34.711079166666664" lon="135.75739055555556">
<ele>103</ele>
</trkpt>
<trkpt lat="34.71101861111111" lon="135.75719194444446">
<ele>103</ele>
</trkpt>
<trkpt lat="34.71092194444444" lon="135.75696305555556">
<ele>103</ele>
</trkpt>
<trkpt lat="34.710702777777776" lon="135.7565825">
<ele>103</ele>
</trkpt>
<trkpt lat="34.7106625" lon="135.7564827777778">
<ele>103</ele>
</trkpt>
<trkpt lat="34.710413055555556" lon="135.75578055555556">
<ele>104</ele>
</trkpt>
<trkpt lat="34.710346944444446" lon="135.75560583333333">
<ele>105</ele>
</trkpt>
<trkpt lat="34.71030666666667" lon="135.75552888888888">
<ele>105</ele>
</trkpt>
<trkpt lat="34.71022972222222" lon="135.75544527777777">
<ele>105</ele>
</trkpt>
<trkpt lat="34.7100475" lon="135.75526944444445">
<ele>104</ele>
</trkpt>
<trkpt lat="34.70988888888889" lon="135.75516333333334">
<ele>104</ele>
</trkpt>
<trkpt lat="34.70986944444444" lon="135.7548886111111">
<ele>105</ele>
</trkpt>
<trkpt lat="34.70980333333333" lon="135.75459027777777">
<ele>105</ele>
</trkpt>
<trkpt lat="34.709655833333336" lon="135.75429305555556">
<ele>107</ele>
</trkpt>
<trkpt lat="34.70952888888889" lon="135.75388194444446">
<ele>108</ele>
</trkpt>
<trkpt lat="34.70948777777778" lon="135.75374416666668">
<ele>108</ele>
</trkpt>
<trkpt lat="34.70934027777778" lon="135.7533547222222">
<ele>108</ele>
</trkpt>
<trkpt lat="34.70930444444444" lon="135.7532788888889">
<ele>108</ele>
</trkpt>
<trkpt lat="34.709289166666665" lon="135.75321805555555">
<ele>108</ele>
</trkpt>
<trkpt lat="34.709269722222224" lon="135.75315722222223">
<ele>108</ele>
</trkpt>
<trkpt lat="34.70927944444445" lon="135.75288916666668">
<ele>108</ele>
</trkpt>
<trkpt lat="34.709137222222225" lon="135.75250833333334">
<ele>108</ele>
</trkpt>
<trkpt lat="34.70912222222222" lon="135.75244">
<ele>108</ele>
</trkpt>
<trkpt lat="34.70905583333333" lon="135.7523325">
<ele>108</ele>
</trkpt>
<trkpt lat="34.70880638888889" lon="135.75195166666666">
<ele>108</ele>
</trkpt>
<trkpt lat="34.70869472222222" lon="135.75141694444446">
<ele>108</ele>
</trkpt>
<trkpt lat="34.708623055555556" lon="135.75120444444445">
<ele>108</ele>
</trkpt>
<trkpt lat="34.70843527777778" lon="135.75077694444445">
<ele>108</ele>
</trkpt>
<trkpt lat="34.70837888888889" lon="135.7505936111111">
<ele>109</ele>
</trkpt>
<trkpt lat="34.70837888888889" lon="135.75022777777778">
<ele>112</ele>
</trkpt>
<trkpt lat="34.70837888888889" lon="135.74939555555557">
<ele>115</ele>
</trkpt>
<trkpt lat="34.70842" lon="135.74921972222222">
<ele>116</ele>
</trkpt>
<trkpt lat="34.70813027777778" lon="135.7488161111111">
<ele>117</ele>
</trkpt>
<trkpt lat="34.70804888888889" lon="135.74861777777778">
<ele>119</ele>
</trkpt>
<trkpt lat="34.707971944444445" lon="135.74832055555555">
<ele>123</ele>
</trkpt>
<trkpt lat="34.70793611111111" lon="135.74815222222222">
<ele>125</ele>
</trkpt>
<trkpt lat="34.70791111111111" lon="135.74793111111111">
<ele>126</ele>
</trkpt>
<trkpt lat="34.707905833333335" lon="135.74746555555555">
<ele>131</ele>
</trkpt>
<trkpt lat="34.707905833333335" lon="135.74736666666666">
<ele>131</ele>
</trkpt>
<trkpt lat="34.70792083333333" lon="135.74725166666667">
<ele>131</ele>
</trkpt>
<trkpt lat="34.707946944444444" lon="135.74716833333332">
<ele>131</ele>
</trkpt>
<trkpt lat="34.707971944444445" lon="135.74707694444444">
<ele>130</ele>
</trkpt>
<trkpt lat="34.707971944444445" lon="135.74707694444444">
<ele>130</ele>
</trkpt>
<trkpt lat="34.70800222222222" lon="135.7470075">
<ele>129</ele>
</trkpt>
<trkpt lat="34.70809444444444" lon="135.7468786111111">
<ele>128</ele>
</trkpt>
<trkpt lat="34.708211666666664" lon="135.7467938888889">
<ele>127</ele>
</trkpt>
<trkpt lat="34.70828222222222" lon="135.74677111111112">
<ele>126</ele>
</trkpt>
<trkpt lat="34.70845583333333" lon="135.74674055555556">
<ele>123</ele>
</trkpt>
<trkpt lat="34.70877055555555" lon="135.74673305555555">
<ele>122</ele>
</trkpt>
<trkpt lat="34.70881166666667" lon="135.74673305555555">
<ele>121</ele>
</trkpt>
<trkpt lat="34.70945722222222" lon="135.74671777777777">
<ele>123</ele>
</trkpt>
<trkpt lat="34.71001166666667" lon="135.746695">
<ele>125</ele>
</trkpt>
<trkpt lat="34.710413055555556" lon="135.746695">
<ele>127</ele>
</trkpt>
<trkpt lat="34.710683333333336" lon="135.74668">
<ele>128</ele>
</trkpt>
<trkpt lat="34.711328888888886" lon="135.74666472222222">
<ele>131</ele>
</trkpt>
<trkpt lat="34.71178666666667" lon="135.7466572222222">
<ele>122</ele>
</trkpt>
<trkpt lat="34.71194388888889" lon="135.74664194444443">
<ele>121</ele>
</trkpt>
<trkpt lat="34.71209694444445" lon="135.7466038888889">
<ele>121</ele>
</trkpt>
<trkpt lat="34.7127425" lon="135.74610055555556">
<ele>124</ele>
</trkpt>
<trkpt lat="34.713098333333335" lon="135.74581722222223">
<ele>126</ele>
</trkpt>
<trkpt lat="34.71341944444445" lon="135.74558194444444">
<ele>128</ele>
</trkpt>
<trkpt lat="34.713795" lon="135.7452911111111">
<ele>129</ele>
</trkpt>
<trkpt lat="34.714171388888886" lon="135.74503166666668">
<ele>130</ele>
</trkpt>
<trkpt lat="34.71459333333333" lon="135.74474194444446">
<ele>132</ele>
</trkpt>
<trkpt lat="34.71476138888889" lon="135.74462055555554">
<ele>132</ele>
</trkpt>
<trkpt lat="34.714752777777775" lon="135.74471055555554">
<ele>132</ele>
</trkpt>
<trkpt lat="34.714752777777775" lon="135.74471055555554">
<ele>132</ele>
</trkpt>
<trkpt lat="34.71476138888889" lon="135.74462055555554">
<ele>132</ele>
</trkpt>
<trkpt lat="34.71477111111111" lon="135.74438388888888">
<ele>133</ele>
</trkpt>
<trkpt lat="34.714842777777775" lon="135.74378083333335">
<ele>134</ele>
</trkpt>
<trkpt lat="34.71496972222222" lon="135.742865">
<ele>137</ele>
</trkpt>
<trkpt lat="34.71503611111111" lon="135.7423161111111">
<ele>139</ele>
</trkpt>
<trkpt lat="34.71510222222222" lon="135.74185805555555">
<ele>139</ele>
</trkpt>
<trkpt lat="34.71522916666667" lon="135.74091972222223">
<ele>138</ele>
</trkpt>
<trkpt lat="34.715270277777776" lon="135.74060722222222">
<ele>138</ele>
</trkpt>
<trkpt lat="34.715376666666664" lon="135.74029472222222">
<ele>137</ele>
</trkpt>
<trkpt lat="34.71569777777778" lon="135.73982166666667">
<ele>138</ele>
</trkpt>
<trkpt lat="34.71575333333333" lon="135.73969166666666">
<ele>139</ele>
</trkpt>
<trkpt lat="34.715804166666665" lon="135.73953194444445">
<ele>139</ele>
</trkpt>
<trkpt lat="34.71581944444444" lon="135.73930305555555">
<ele>139</ele>
</trkpt>
<trkpt lat="34.715829166666666" lon="135.738715">
<ele>139</ele>
</trkpt>
<trkpt lat="34.715829166666666" lon="135.73841777777778">
<ele>139</ele>
</trkpt>
<trkpt lat="34.71583472222222" lon="135.73789166666666">
<ele>137</ele>
</trkpt>
<trkpt lat="34.71588027777778" lon="135.73760944444444">
<ele>138</ele>
</trkpt>
<trkpt lat="34.71591055555555" lon="135.73740333333333">
<ele>140</ele>
</trkpt>
<trkpt lat="34.7159875" lon="135.7371288888889">
<ele>141</ele>
</trkpt>
<trkpt lat="34.716277222222224" lon="135.7363963888889">
<ele>144</ele>
</trkpt>
<trkpt lat="34.71635333333333" lon="135.7361675">
<ele>145</ele>
</trkpt>
<trkpt lat="34.71670916666667" lon="135.73519861111112">
<ele>147</ele>
</trkpt>
<trkpt lat="34.716745" lon="135.735115">
<ele>147</ele>
</trkpt>
<trkpt lat="34.716928333333335" lon="135.73461944444443">
<ele>145</ele>
</trkpt>
<trkpt lat="34.717085555555556" lon="135.73422222222223">
<ele>147</ele>
</trkpt>
<trkpt lat="34.717329722222225" lon="135.73356583333333">
<ele>147</ele>
</trkpt>
<trkpt lat="34.717553333333335" lon="135.7329938888889">
<ele>146</ele>
</trkpt>
<trkpt lat="34.717751944444444" lon="135.73260444444443">
<ele>147</ele>
</trkpt>
<trkpt lat="34.71792" lon="135.73238416666666">
<ele>147</ele>
</trkpt>
<trkpt lat="34.71792" lon="135.73238416666666">
<ele>149</ele>
</trkpt>
<trkpt lat="34.717751944444444" lon="135.73260444444443">
<ele>147</ele>
</trkpt>
<trkpt lat="34.71756416666667" lon="135.7324525">
<ele>147</ele>
</trkpt>
<trkpt lat="34.716989166666664" lon="135.73193388888888">
<ele>147</ele>
</trkpt>
<trkpt lat="34.71678611111111" lon="135.73174277777778">
<ele>147</ele>
</trkpt>
<trkpt lat="34.716430277777775" lon="135.73143055555556">
<ele>145</ele>
</trkpt>
<trkpt lat="34.71615472222222" lon="135.73119416666665">
<ele>145</ele>
</trkpt>
<trkpt lat="34.715936666666664" lon="135.73099555555555">
<ele>145</ele>
</trkpt>
<trkpt lat="34.715626388888886" lon="135.73065916666667">
<ele>147</ele>
</trkpt>
<trkpt lat="34.715514444444445" lon="135.73050722222223">
<ele>147</ele>
</trkpt>
<trkpt lat="34.71532138888889" lon="135.73021">
<ele>145</ele>
</trkpt>
<trkpt lat="34.71518916666667" lon="135.72999611111112">
<ele>144</ele>
</trkpt>
<trkpt lat="34.714945" lon="135.72951555555557">
<ele>142</ele>
</trkpt>
<trkpt lat="34.71485833333333" lon="135.72933972222222">
<ele>143</ele>
</trkpt>
<trkpt lat="34.71483444444444" lon="135.72928777777778">
<ele>143</ele>
</trkpt>
<trkpt lat="34.71483444444444" lon="135.72928777777778">
<ele>143</ele>
</trkpt>
<trkpt lat="34.71440583333333" lon="135.7283711111111">
<ele>143</ele>
</trkpt>
<trkpt lat="34.71436027777778" lon="135.728295">
<ele>144</ele>
</trkpt>
<trkpt lat="34.71418666666667" lon="135.72792083333334">
<ele>147</ele>
</trkpt>
<trkpt lat="34.714110833333336" lon="135.72772972222222">
<ele>149</ele>
</trkpt>
<trkpt lat="34.71372888888889" lon="135.72693666666666">
<ele>138</ele>
</trkpt>
<trkpt lat="34.71328166666667" lon="135.72599805555555">
<ele>126</ele>
</trkpt>
<trkpt lat="34.71300166666666" lon="135.72532">
<ele>120</ele>
</trkpt>
<trkpt lat="34.712937777777775" lon="135.72539277777778">
<ele>120</ele>
</trkpt>
<trkpt lat="34.712937777777775" lon="135.72539277777778">
<ele>121</ele>
</trkpt>
<trkpt lat="34.71300166666666" lon="135.72532">
<ele>120</ele>
</trkpt>
<trkpt lat="34.71297694444444" lon="135.72528111111112">
<ele>120</ele>
</trkpt>
<trkpt lat="34.712865" lon="135.7250836111111">
<ele>119</ele>
</trkpt>
<trkpt lat="34.71283888888889" lon="135.72504444444445">
<ele>119</ele>
</trkpt>
<trkpt lat="34.71237166666667" lon="135.7255947222222">
<ele>118</ele>
</trkpt>
<trkpt lat="34.71221416666667" lon="135.72580833333333">
<ele>118</ele>
</trkpt>
<trkpt lat="34.71198" lon="135.72620416666666">
<ele>118</ele>
</trkpt>
<trkpt lat="34.71178666666667" lon="135.7265936111111">
<ele>117</ele>
</trkpt>
<trkpt lat="34.71146111111111" lon="135.7272413888889">
<ele>117</ele>
</trkpt>
<trkpt lat="34.71118666666667" lon="135.727745">
<ele>117</ele>
</trkpt>
<trkpt lat="34.7109675" lon="135.7280736111111">
<ele>116</ele>
</trkpt>
<trkpt lat="34.710321944444445" lon="135.72902">
<ele>115</ele>
</trkpt>
<trkpt lat="34.710164444444445" lon="135.72924138888888">
<ele>115</ele>
</trkpt>
<trkpt lat="34.7100875" lon="135.7293475">
<ele>115</ele>
</trkpt>
<trkpt lat="34.70984333333333" lon="135.72970555555557">
<ele>115</ele>
</trkpt>
<trkpt lat="34.70966" lon="135.72990416666667">
<ele>115</ele>
</trkpt>
<trkpt lat="34.70948777777778" lon="135.73008">
<ele>114</ele>
</trkpt>
<trkpt lat="34.70934555555556" lon="135.7301711111111">
<ele>114</ele>
</trkpt>
<trkpt lat="34.709228333333336" lon="135.73023305555554">
<ele>114</ele>
</trkpt>
<trkpt lat="34.709203611111114" lon="135.73025583333333">
<ele>114</ele>
</trkpt>
<trkpt lat="34.708730277777775" lon="135.73048472222223">
<ele>114</ele>
</trkpt>
<trkpt lat="34.70834833333333" lon="135.73064416666668">
<ele>114</ele>
</trkpt>
<trkpt lat="34.708145555555554" lon="135.73072888888888">
<ele>113</ele>
</trkpt>
<trkpt lat="34.70764638888889" lon="135.73095777777777">
<ele>113</ele>
</trkpt>
<trkpt lat="34.70745333333333" lon="135.73105666666666">
<ele>113</ele>
</trkpt>
<trkpt lat="34.70722972222222" lon="135.73117055555556">
<ele>113</ele>
</trkpt>
<trkpt lat="34.707010555555556" lon="135.73130833333335">
<ele>113</ele>
</trkpt>
<trkpt lat="34.706603888888885" lon="135.73159805555557">
<ele>112</ele>
</trkpt>
<trkpt lat="34.705958333333335" lon="135.73201805555556">
<ele>112</ele>
</trkpt>
<trkpt lat="34.705663055555554" lon="135.7322163888889">
<ele>111</ele>
</trkpt>
<trkpt lat="34.70507833333333" lon="135.732605">
<ele>111</ele>
</trkpt>
<trkpt lat="34.704432777777775" lon="135.73305527777777">
<ele>110</ele>
</trkpt>
<trkpt lat="34.70427" lon="135.7331702777778">
<ele>110</ele>
</trkpt>
<trkpt lat="34.70398027777778" lon="135.7333297222222">
<ele>110</ele>
</trkpt>
<trkpt lat="34.70378638888889" lon="135.73340694444445">
<ele>109</ele>
</trkpt>
<trkpt lat="34.70361916666667" lon="135.73346">
<ele>109</ele>
</trkpt>
<trkpt lat="34.70341527777778" lon="135.73348277777777">
<ele>109</ele>
</trkpt>
<trkpt lat="34.70323722222222" lon="135.73348277777777">
<ele>109</ele>
</trkpt>
<trkpt lat="34.703089722222224" lon="135.7334675">
<ele>109</ele>
</trkpt>
<trkpt lat="34.70248" lon="135.733345">
<ele>108</ele>
</trkpt>
<trkpt lat="34.701833055555554" lon="135.73319305555555">
<ele>108</ele>
</trkpt>
<trkpt lat="34.70144694444444" lon="135.73309333333333">
<ele>108</ele>
</trkpt>
<trkpt lat="34.701278888888886" lon="135.73305527777777">
<ele>107</ele>
</trkpt>
<trkpt lat="34.700786388888886" lon="135.73287944444445">
<ele>107</ele>
</trkpt>
<trkpt lat="34.70044027777778" lon="135.7327427777778">
<ele>107</ele>
</trkpt>
<trkpt lat="34.69993138888889" lon="135.73255944444443">
<ele>106</ele>
</trkpt>
<trkpt lat="34.69938777777778" lon="135.73234555555555">
<ele>106</ele>
</trkpt>
<trkpt lat="34.69896027777778" lon="135.73217861111112">
<ele>106</ele>
</trkpt>
<trkpt lat="34.69831472222222" lon="135.73193444444445">
<ele>105</ele>
</trkpt>
<trkpt lat="34.69826388888889" lon="135.73191916666667">
<ele>105</ele>
</trkpt>
<trkpt lat="34.6982225" lon="135.73191916666667">
<ele>105</ele>
</trkpt>
<trkpt lat="34.69816194444444" lon="135.73194194444446">
<ele>105</ele>
</trkpt>
<trkpt lat="34.69804027777778" lon="135.7322088888889">
<ele>105</ele>
</trkpt>
<trkpt lat="34.697923055555556" lon="135.73215583333334">
<ele>105</ele>
</trkpt>
<trkpt lat="34.697739722222224" lon="135.73214694444445">
<ele>105</ele>
</trkpt>
<trkpt lat="34.69772444444445" lon="135.73214694444445">
<ele>105</ele>
</trkpt>
<trkpt lat="34.69745" lon="135.73215583333334">
<ele>105</ele>
</trkpt>
<trkpt lat="34.697266666666664" lon="135.73217861111112">
<ele>105</ele>
</trkpt>
<trkpt lat="34.69709861111111" lon="135.73223166666668">
<ele>105</ele>
</trkpt>
<trkpt lat="34.69692055555556" lon="135.73232277777777">
<ele>105</ele>
</trkpt>
<trkpt lat="34.69641277777778" lon="135.732605">
<ele>105</ele>
</trkpt>
<trkpt lat="34.6958325" lon="135.73293388888888">
<ele>105</ele>
</trkpt>
<trkpt lat="34.69549166666667" lon="135.73311611111112">
<ele>106</ele>
</trkpt>
<trkpt lat="34.69543111111111" lon="135.733155">
<ele>106</ele>
</trkpt>
<trkpt lat="34.69493194444444" lon="135.73342194444444">
<ele>106</ele>
</trkpt>
<trkpt lat="34.69482" lon="135.73348277777777">
<ele>106</ele>
</trkpt>
<trkpt lat="34.69476916666667" lon="135.73351305555556">
<ele>106</ele>
</trkpt>
<trkpt lat="34.69412361111111" lon="135.73387222222223">
<ele>107</ele>
</trkpt>
<trkpt lat="34.694087777777774" lon="135.73388">
<ele>107</ele>
</trkpt>
<trkpt lat="34.6940725" lon="135.733895">
<ele>107</ele>
</trkpt>
<trkpt lat="34.6939" lon="135.73399388888888">
<ele>107</ele>
</trkpt>
<trkpt lat="34.69353888888889" lon="135.73422277777777">
<ele>108</ele>
</trkpt>
<trkpt lat="34.69330444444444" lon="135.73432166666666">
<ele>107</ele>
</trkpt>
<trkpt lat="34.69302027777778" lon="135.73442138888888">
<ele>106</ele>
</trkpt>
<trkpt lat="34.69237472222222" lon="135.73460472222223">
<ele>103</ele>
</trkpt>
<trkpt lat="34.69219138888889" lon="135.73465805555554">
<ele>103</ele>
</trkpt>
<trkpt lat="34.691947222222225" lon="135.7347186111111">
<ele>102</ele>
</trkpt>
<trkpt lat="34.69183" lon="135.73475666666667">
<ele>101</ele>
</trkpt>
<trkpt lat="34.69182444444444" lon="135.73476416666668">
<ele>101</ele>
</trkpt>
<trkpt lat="34.69117888888889" lon="135.7349475">
<ele>99</ele>
</trkpt>
<trkpt lat="34.69060416666667" lon="135.73509277777777">
<ele>99</ele>
</trkpt>
<trkpt lat="34.68995861111111" lon="135.7351763888889">
<ele>99</ele>
</trkpt>
<trkpt lat="34.68955694444445" lon="135.73522944444446">
<ele>99</ele>
</trkpt>
<trkpt lat="34.68922055555556" lon="135.7352977777778">
<ele>98</ele>
</trkpt>
<trkpt lat="34.68897222222222" lon="135.73534444444445">
<ele>98</ele>
</trkpt>
<trkpt lat="34.688499166666666" lon="135.7354963888889">
<ele>98</ele>
</trkpt>
<trkpt lat="34.688361388888886" lon="135.73554194444444">
<ele>98</ele>
</trkpt>
<trkpt lat="34.687715833333336" lon="135.73571777777778">
<ele>97</ele>
</trkpt>
<trkpt lat="34.68758361111111" lon="135.73575583333334">
<ele>97</ele>
</trkpt>
<trkpt lat="34.687314444444446" lon="135.73583277777777">
<ele>97</ele>
</trkpt>
<trkpt lat="34.68677527777778" lon="135.7359847222222">
<ele>97</ele>
</trkpt>
<trkpt lat="34.68648" lon="135.73610722222222">
<ele>97</ele>
</trkpt>
<trkpt lat="34.686175" lon="135.7362288888889">
<ele>97</ele>
</trkpt>
<trkpt lat="34.68578333333333" lon="135.7365186111111">
<ele>97</ele>
</trkpt>
<trkpt lat="34.68553388888889" lon="135.73677777777777">
<ele>96</ele>
</trkpt>
<trkpt lat="34.685473055555555" lon="135.73684722222222">
<ele>96</ele>
</trkpt>
<trkpt lat="34.68532583333333" lon="135.73702194444445">
<ele>96</ele>
</trkpt>
<trkpt lat="34.685163055555556" lon="135.73722805555556">
<ele>96</ele>
</trkpt>
<trkpt lat="34.685000277777775" lon="135.7374722222222">
<ele>95</ele>
</trkpt>
<trkpt lat="34.68442527777778" lon="135.73835777777776">
<ele>95</ele>
</trkpt>
<trkpt lat="34.68441111111111" lon="135.738375">
<ele>94</ele>
</trkpt>
    </trkseg>
  </trk>
</gpx>