<?xml version="1.0" encoding="UTF-8"?>
<gpx version="1.1"
     creator="KMLtoGPX"
     xmlns="http://www.topografix.com/GPX/1/1">
  <metadata>
    <name>Auxiliary trunk route (C21)</name>
    <desc>補助幹線ルート(C21)</desc>
    <bounds minlat="34.55385388888889" minlon="135.77771972222223" maxlat="34.56706277777778" maxlon="135.7912038888889"/>
  </metadata>
  <trk>
    <name>Auxiliary trunk route (C21)</name>
    <trkseg>
<trkpt lat="34.56706277777778" lon="135.77771972222223">
<ele>45</ele>
</trkpt>
<trkpt lat="34.56703666666667" lon="135.77773166666665">
<ele>45</ele>
</trkpt>
<trkpt lat="34.56680361111111" lon="135.77784666666668">
<ele>45</ele>
</trkpt>
<trkpt lat="34.56635555555555" lon="135.77800611111113">
<ele>45</ele>
</trkpt>
<trkpt lat="34.56594333333334" lon="135.77815916666665">
<ele>45</ele>
</trkpt>
<trkpt lat="34.56577083333333" lon="135.77822">
<ele>45</ele>
</trkpt>
<trkpt lat="34.56514472222222" lon="135.7784186111111">
<ele>45</ele>
</trkpt>
<trkpt lat="34.56480944444444" lon="135.7785563888889">
<ele>45</ele>
</trkpt>
<trkpt lat="34.56474305555555" lon="135.77859416666666">
<ele>45</ele>
</trkpt>
<trkpt lat="34.56417916666667" lon="135.77878527777779">
<ele>45</ele>
</trkpt>
<trkpt lat="34.56366472222222" lon="135.77894472222223">
<ele>46</ele>
</trkpt>
<trkpt lat="34.56301916666666" lon="135.77914333333334">
<ele>46</ele>
</trkpt>
<trkpt lat="34.56292805555555" lon="135.77915861111111">
<ele>46</ele>
</trkpt>
<trkpt lat="34.56283138888889" lon="135.77913583333333">
<ele>46</ele>
</trkpt>
<trkpt lat="34.562185" lon="135.77898277777777">
<ele>47</ele>
</trkpt>
<trkpt lat="34.562180833333336" lon="135.77920416666666">
<ele>47</ele>
</trkpt>
<trkpt lat="34.56217" lon="135.7794786111111">
<ele>47</ele>
</trkpt>
<trkpt lat="34.562145" lon="135.77951777777778">
<ele>47</ele>
</trkpt>
<trkpt lat="34.56210361111111" lon="135.77953277777777">
<ele>47</ele>
</trkpt>
<trkpt lat="34.56189527777778" lon="135.77957083333334">
<ele>47</ele>
</trkpt>
<trkpt lat="34.561620833333336" lon="135.77959361111112">
<ele>47</ele>
</trkpt>
<trkpt lat="34.56147861111111" lon="135.7796088888889">
<ele>47</ele>
</trkpt>
<trkpt lat="34.561265" lon="135.77967722222223">
<ele>47</ele>
</trkpt>
<trkpt lat="34.56117805555556" lon="135.77974555555556">
<ele>47</ele>
</trkpt>
<trkpt lat="34.56064416666667" lon="135.7799288888889">
<ele>48</ele>
</trkpt>
<trkpt lat="34.56059333333334" lon="135.77995166666668">
<ele>48</ele>
</trkpt>
<trkpt lat="34.56044583333333" lon="135.78000583333332">
<ele>48</ele>
</trkpt>
<trkpt lat="34.56019722222222" lon="135.78008944444446">
<ele>48</ele>
</trkpt>
<trkpt lat="34.55956166666667" lon="135.78030333333334">
<ele>48</ele>
</trkpt>
<trkpt lat="34.55925555555555" lon="135.78039444444445">
<ele>48</ele>
</trkpt>
<trkpt lat="34.55920472222222" lon="135.78040194444444">
<ele>48</ele>
</trkpt>
<trkpt lat="34.55899194444444" lon="135.78046277777779">
<ele>48</ele>
</trkpt>
<trkpt lat="34.558345277777775" lon="135.78063083333333">
<ele>48</ele>
</trkpt>
<trkpt lat="34.55834194444444" lon="135.78061888888888">
<ele>48</ele>
</trkpt>
<trkpt lat="34.55833888888889" lon="135.780605">
<ele>48</ele>
</trkpt>
<trkpt lat="34.558345277777775" lon="135.78063083333333">
<ele>48</ele>
</trkpt>
<trkpt lat="34.55833555555556" lon="135.78074583333333">
<ele>48</ele>
</trkpt>
<trkpt lat="34.55829444444444" lon="135.78155416666667">
<ele>48</ele>
</trkpt>
<trkpt lat="34.558279166666665" lon="135.78195888888888">
<ele>49</ele>
</trkpt>
<trkpt lat="34.558279166666665" lon="135.7821563888889">
<ele>49</ele>
</trkpt>
<trkpt lat="34.55824444444445" lon="135.7827822222222">
<ele>49</ele>
</trkpt>
<trkpt lat="34.55821861111111" lon="135.78319472222222">
<ele>49</ele>
</trkpt>
<trkpt lat="34.558188333333334" lon="135.78323277777778">
<ele>49</ele>
</trkpt>
<trkpt lat="34.55816333333333" lon="135.78335416666667">
<ele>49</ele>
</trkpt>
<trkpt lat="34.558146944444445" lon="135.78351472222224">
<ele>49</ele>
</trkpt>
<trkpt lat="34.55809722222222" lon="135.7841936111111">
<ele>49</ele>
</trkpt>
<trkpt lat="34.55803083333333" lon="135.78451388888888">
<ele>49</ele>
</trkpt>
<trkpt lat="34.558005" lon="135.78469722222223">
<ele>49</ele>
</trkpt>
<trkpt lat="34.55789861111111" lon="135.7856661111111">
<ele>49</ele>
</trkpt>
<trkpt lat="34.557878055555555" lon="135.7860697222222">
<ele>49</ele>
</trkpt>
<trkpt lat="34.5578725" lon="135.78634444444444">
<ele>49</ele>
</trkpt>
<trkpt lat="34.5578725" lon="135.78645138888888">
<ele>49</ele>
</trkpt>
<trkpt lat="34.55782694444444" lon="135.7866652777778">
<ele>49</ele>
</trkpt>
<trkpt lat="34.55775638888889" lon="135.7867261111111">
<ele>49</ele>
</trkpt>
<trkpt lat="34.557679444444446" lon="135.78681722222223">
<ele>49</ele>
</trkpt>
<trkpt lat="34.55764888888889" lon="135.78689416666666">
<ele>49</ele>
</trkpt>
<trkpt lat="34.557628333333334" lon="135.78699305555557">
<ele>49</ele>
</trkpt>
<trkpt lat="34.55761861111111" lon="135.7870536111111">
<ele>49</ele>
</trkpt>
<trkpt lat="34.557588333333335" lon="135.78732055555557">
<ele>49</ele>
</trkpt>
<trkpt lat="34.55750694444444" lon="135.7880075">
<ele>49</ele>
</trkpt>
<trkpt lat="34.55747111111111" lon="135.78828972222223">
<ele>50</ele>
</trkpt>
<trkpt lat="34.557455833333336" lon="135.78838944444445">
<ele>50</ele>
</trkpt>
<trkpt lat="34.55744055555556" lon="135.7885186111111">
<ele>50</ele>
</trkpt>
<trkpt lat="34.55741027777778" lon="135.7886261111111">
<ele>50</ele>
</trkpt>
<trkpt lat="34.55733861111111" lon="135.78891555555555">
<ele>50</ele>
</trkpt>
<trkpt lat="34.55728777777778" lon="135.78899166666667">
<ele>50</ele>
</trkpt>
<trkpt lat="34.55719638888889" lon="135.78904583333335">
<ele>50</ele>
</trkpt>
<trkpt lat="34.557115277777775" lon="135.78905361111111">
<ele>50</ele>
</trkpt>
<trkpt lat="34.556489444444445" lon="135.7890686111111">
<ele>50</ele>
</trkpt>
<trkpt lat="34.55627111111111" lon="135.7890763888889">
<ele>50</ele>
</trkpt>
<trkpt lat="34.55607277777778" lon="135.78912944444446">
<ele>50</ele>
</trkpt>
<trkpt lat="34.555996666666665" lon="135.7891522222222">
<ele>50</ele>
</trkpt>
<trkpt lat="34.555645" lon="135.78929">
<ele>50</ele>
</trkpt>
<trkpt lat="34.55535555555556" lon="135.78936611111112">
<ele>50</ele>
</trkpt>
<trkpt lat="34.555005" lon="135.78935833333333">
<ele>50</ele>
</trkpt>
<trkpt lat="34.555005" lon="135.78964055555556">
<ele>50</ele>
</trkpt>
<trkpt lat="34.555005" lon="135.7901286111111">
<ele>50</ele>
</trkpt>
<trkpt lat="34.555005" lon="135.79016638888888">
<ele>50</ele>
</trkpt>
<trkpt lat="34.555005" lon="135.79028916666667">
<ele>50</ele>
</trkpt>
<trkpt lat="34.555005" lon="135.7904561111111">
<ele>50</ele>
</trkpt>
<trkpt lat="34.555005" lon="135.79046277777778">
<ele>50</ele>
</trkpt>
<trkpt lat="34.555005" lon="135.79046166666666">
<ele>50</ele>
</trkpt>
<trkpt lat="34.555015" lon="135.7912038888889">
<ele>50</ele>
</trkpt>
<trkpt lat="34.554455" lon="135.7912038888889">
<ele>50</ele>
</trkpt>
<trkpt lat="34.553855" lon="135.7912038888889">
<ele>50</ele>
</trkpt>
<trkpt lat="34.55385388888889" lon="135.79117027777778">
<ele>50</ele>
</trkpt>
    </trkseg>
  </trk>
</gpx>