<?xml version="1.0" encoding="UTF-8"?>
<gpx version="1.1"
     creator="KMLtoGPX"
     xmlns="http://www.topografix.com/GPX/1/1">
  <metadata>
    <name>Hojo Inn Pottering Course</name>
    <desc>北条の宿ポタリングコース</desc>
    <bounds minlat="34.928001944444446" minlon="134.8281511111111" maxlat="34.9375575" maxlon="134.8417088888889"/>
  </metadata>
  <trk>
    <name>Hojo Inn Pottering Course</name>
    <trkseg>
<trkpt lat="34.92957805555555" lon="134.83253">
<ele>63</ele>
</trkpt>
<trkpt lat="34.92984388888889" lon="134.83226">
<ele>63</ele>
</trkpt>
<trkpt lat="34.930085" lon="134.83197305555555">
<ele>64</ele>
</trkpt>
<trkpt lat="34.93014194444444" lon="134.83203111111112">
<ele>64</ele>
</trkpt>
<trkpt lat="34.93014194444444" lon="134.83203111111112">
<ele>64</ele>
</trkpt>
<trkpt lat="34.930726944444444" lon="134.832635">
<ele>64</ele>
</trkpt>
<trkpt lat="34.93126888888889" lon="134.83317194444444">
<ele>64</ele>
</trkpt>
<trkpt lat="34.93131888888889" lon="134.83322194444443">
<ele>64</ele>
</trkpt>
<trkpt lat="34.931395" lon="134.83329805555556">
<ele>64</ele>
</trkpt>
<trkpt lat="34.931395" lon="134.83329805555556">
<ele>64</ele>
</trkpt>
<trkpt lat="34.93131888888889" lon="134.83322194444443">
<ele>64</ele>
</trkpt>
<trkpt lat="34.93136888888889" lon="134.83314694444445">
<ele>64</ele>
</trkpt>
<trkpt lat="34.931485" lon="134.83296">
<ele>64</ele>
</trkpt>
<trkpt lat="34.93154388888889" lon="134.83286">
<ele>64</ele>
</trkpt>
<trkpt lat="34.93156888888889" lon="134.83276">
<ele>64</ele>
</trkpt>
<trkpt lat="34.931626944444446" lon="134.83252194444444">
<ele>65</ele>
</trkpt>
<trkpt lat="34.931643888888885" lon="134.83247194444445">
<ele>65</ele>
</trkpt>
<trkpt lat="34.931668888888886" lon="134.832435">
<ele>65</ele>
</trkpt>
<trkpt lat="34.93190194444445" lon="134.832235">
<ele>65</ele>
</trkpt>
<trkpt lat="34.931985" lon="134.83217194444444">
<ele>65</ele>
</trkpt>
<trkpt lat="34.93219305555556" lon="134.83199694444446">
<ele>65</ele>
</trkpt>
<trkpt lat="34.932335" lon="134.83186">
<ele>65</ele>
</trkpt>
<trkpt lat="34.93250194444445" lon="134.83169805555556">
<ele>65</ele>
</trkpt>
<trkpt lat="34.93266" lon="134.83156">
<ele>65</ele>
</trkpt>
<trkpt lat="34.93281805555556" lon="134.83144694444445">
<ele>66</ele>
</trkpt>
<trkpt lat="34.93286805555555" lon="134.83142194444446">
<ele>66</ele>
</trkpt>
<trkpt lat="34.932926944444446" lon="134.831385">
<ele>66</ele>
</trkpt>
<trkpt lat="34.93331" lon="134.83104694444444">
<ele>66</ele>
</trkpt>
<trkpt lat="34.933485" lon="134.83086">
<ele>67</ele>
</trkpt>
<trkpt lat="34.933685" lon="134.83064694444445">
<ele>67</ele>
</trkpt>
<trkpt lat="34.933926944444444" lon="134.83036">
<ele>68</ele>
</trkpt>
<trkpt lat="34.93414305555556" lon="134.830135">
<ele>68</ele>
</trkpt>
<trkpt lat="34.93426" lon="134.83001">
<ele>68</ele>
</trkpt>
<trkpt lat="34.93442611111111" lon="134.82976">
<ele>68</ele>
</trkpt>
<trkpt lat="34.934485" lon="134.82966">
<ele>68</ele>
</trkpt>
<trkpt lat="34.934643055555554" lon="134.82922305555556">
<ele>68</ele>
</trkpt>
<trkpt lat="34.934868055555555" lon="134.82852194444445">
<ele>69</ele>
</trkpt>
<trkpt lat="34.93497611111111" lon="134.82816">
<ele>69</ele>
</trkpt>
<trkpt lat="34.93497888888889" lon="134.8281511111111">
<ele>69</ele>
</trkpt>
<trkpt lat="34.93497888888889" lon="134.8281511111111">
<ele>69</ele>
</trkpt>
<trkpt lat="34.935022777777775" lon="134.82816333333332">
<ele>69</ele>
</trkpt>
<trkpt lat="34.93506638888889" lon="134.82817555555556">
<ele>69</ele>
</trkpt>
<trkpt lat="34.93511027777778" lon="134.82818805555556">
<ele>69</ele>
</trkpt>
<trkpt lat="34.93515388888889" lon="134.82820027777777">
<ele>69</ele>
</trkpt>
<trkpt lat="34.93519777777778" lon="134.8282125">
<ele>69</ele>
</trkpt>
<trkpt lat="34.93524138888889" lon="134.82822472222222">
<ele>70</ele>
</trkpt>
<trkpt lat="34.93528527777778" lon="134.8282372222222">
<ele>70</ele>
</trkpt>
<trkpt lat="34.93532916666667" lon="134.82824944444445">
<ele>70</ele>
</trkpt>
<trkpt lat="34.93537277777778" lon="134.82826166666666">
<ele>70</ele>
</trkpt>
<trkpt lat="34.93541666666667" lon="134.8282738888889">
<ele>70</ele>
</trkpt>
<trkpt lat="34.93546027777778" lon="134.8282863888889">
<ele>70</ele>
</trkpt>
<trkpt lat="34.93550416666667" lon="134.8282986111111">
<ele>70</ele>
</trkpt>
<trkpt lat="34.935516944444444" lon="134.82830222222222">
<ele>70</ele>
</trkpt>
<trkpt lat="34.935516944444444" lon="134.82830222222222">
<ele>70</ele>
</trkpt>
<trkpt lat="34.935560555555554" lon="134.82828972222222">
<ele>70</ele>
</trkpt>
<trkpt lat="34.935604444444444" lon="134.82827694444444">
<ele>70</ele>
</trkpt>
<trkpt lat="34.93564805555555" lon="134.82826444444444">
<ele>70</ele>
</trkpt>
<trkpt lat="34.93569166666666" lon="134.82825194444445">
<ele>70</ele>
</trkpt>
<trkpt lat="34.93573555555555" lon="134.82823944444445">
<ele>70</ele>
</trkpt>
<trkpt lat="34.93577916666667" lon="134.82822694444445">
<ele>70</ele>
</trkpt>
<trkpt lat="34.935815833333336" lon="134.82821638888888">
<ele>70</ele>
</trkpt>
<trkpt lat="34.935815833333336" lon="134.82821638888888">
<ele>70</ele>
</trkpt>
<trkpt lat="34.93586166666667" lon="134.828235">
<ele>70</ele>
</trkpt>
<trkpt lat="34.9359075" lon="134.8282536111111">
<ele>70</ele>
</trkpt>
<trkpt lat="34.93595333333333" lon="134.8282722222222">
<ele>70</ele>
</trkpt>
<trkpt lat="34.93599916666667" lon="134.82829083333334">
<ele>70</ele>
</trkpt>
<trkpt lat="34.936045" lon="134.82830944444444">
<ele>71</ele>
</trkpt>
<trkpt lat="34.93609083333333" lon="134.82832805555555">
<ele>71</ele>
</trkpt>
<trkpt lat="34.93613666666667" lon="134.82834666666668">
<ele>71</ele>
</trkpt>
<trkpt lat="34.9361825" lon="134.82836527777778">
<ele>71</ele>
</trkpt>
<trkpt lat="34.93622833333333" lon="134.82838388888888">
<ele>71</ele>
</trkpt>
<trkpt lat="34.936274166666664" lon="134.82840277777777">
<ele>71</ele>
</trkpt>
<trkpt lat="34.93632" lon="134.8284213888889">
<ele>71</ele>
</trkpt>
<trkpt lat="34.93636583333333" lon="134.82844">
<ele>72</ele>
</trkpt>
<trkpt lat="34.936411666666665" lon="134.8284586111111">
<ele>72</ele>
</trkpt>
<trkpt lat="34.9364575" lon="134.82847722222223">
<ele>72</ele>
</trkpt>
<trkpt lat="34.936503333333334" lon="134.82849583333333">
<ele>72</ele>
</trkpt>
<trkpt lat="34.936549166666666" lon="134.82851444444444">
<ele>72</ele>
</trkpt>
<trkpt lat="34.936595" lon="134.82853305555557">
<ele>72</ele>
</trkpt>
<trkpt lat="34.936640833333335" lon="134.82855166666667">
<ele>72</ele>
</trkpt>
<trkpt lat="34.93668666666667" lon="134.82857027777777">
<ele>73</ele>
</trkpt>
<trkpt lat="34.9367325" lon="134.8285888888889">
<ele>73</ele>
</trkpt>
<trkpt lat="34.936778333333336" lon="134.8286075">
<ele>73</ele>
</trkpt>
<trkpt lat="34.93682416666667" lon="134.8286263888889">
<ele>73</ele>
</trkpt>
<trkpt lat="34.93687" lon="134.828645">
<ele>73</ele>
</trkpt>
<trkpt lat="34.93691583333333" lon="134.82866361111112">
<ele>73</ele>
</trkpt>
<trkpt lat="34.93696166666667" lon="134.82868222222223">
<ele>73</ele>
</trkpt>
<trkpt lat="34.9370075" lon="134.82870083333333">
<ele>73</ele>
</trkpt>
<trkpt lat="34.93705333333333" lon="134.82871944444443">
<ele>73</ele>
</trkpt>
<trkpt lat="34.93709916666667" lon="134.82873805555556">
<ele>73</ele>
</trkpt>
<trkpt lat="34.937145" lon="134.82875666666666">
<ele>74</ele>
</trkpt>
<trkpt lat="34.93719083333333" lon="134.82877527777777">
<ele>74</ele>
</trkpt>
<trkpt lat="34.937236666666664" lon="134.8287938888889">
<ele>74</ele>
</trkpt>
<trkpt lat="34.9372825" lon="134.8288125">
<ele>74</ele>
</trkpt>
<trkpt lat="34.93732833333333" lon="134.8288311111111">
<ele>74</ele>
</trkpt>
<trkpt lat="34.937374166666665" lon="134.82885">
<ele>74</ele>
</trkpt>
<trkpt lat="34.93742" lon="134.82886861111112">
<ele>74</ele>
</trkpt>
<trkpt lat="34.937465833333334" lon="134.82888722222222">
<ele>74</ele>
</trkpt>
<trkpt lat="34.937511666666666" lon="134.82890583333332">
<ele>74</ele>
</trkpt>
<trkpt lat="34.9375575" lon="134.82892444444445">
<ele>74</ele>
</trkpt>
<trkpt lat="34.9375575" lon="134.82892444444445">
<ele>74</ele>
</trkpt>
<trkpt lat="34.9375475" lon="134.82897777777777">
<ele>74</ele>
</trkpt>
<trkpt lat="34.9375375" lon="134.8290311111111">
<ele>74</ele>
</trkpt>
<trkpt lat="34.93752722222222" lon="134.82908472222223">
<ele>74</ele>
</trkpt>
<trkpt lat="34.93751722222222" lon="134.82913805555555">
<ele>75</ele>
</trkpt>
<trkpt lat="34.93750722222222" lon="134.8291913888889">
<ele>75</ele>
</trkpt>
<trkpt lat="34.93749722222222" lon="134.82924472222223">
<ele>75</ele>
</trkpt>
<trkpt lat="34.937487222222224" lon="134.82929833333333">
<ele>75</ele>
</trkpt>
<trkpt lat="34.93747722222222" lon="134.82935166666667">
<ele>75</ele>
</trkpt>
<trkpt lat="34.937467222222224" lon="134.829405">
<ele>75</ele>
</trkpt>
<trkpt lat="34.93745722222222" lon="134.82945833333332">
<ele>75</ele>
</trkpt>
<trkpt lat="34.937446944444446" lon="134.82951194444445">
<ele>75</ele>
</trkpt>
<trkpt lat="34.93743694444444" lon="134.8295652777778">
<ele>75</ele>
</trkpt>
<trkpt lat="34.93742694444445" lon="134.8296186111111">
<ele>75</ele>
</trkpt>
<trkpt lat="34.93741694444444" lon="134.82967222222223">
<ele>75</ele>
</trkpt>
<trkpt lat="34.93740694444445" lon="134.82972555555557">
<ele>75</ele>
</trkpt>
<trkpt lat="34.937396944444444" lon="134.82977888888888">
<ele>75</ele>
</trkpt>
<trkpt lat="34.93738694444444" lon="134.82983222222222">
<ele>75</ele>
</trkpt>
<trkpt lat="34.937376944444445" lon="134.82988583333332">
<ele>75</ele>
</trkpt>
<trkpt lat="34.93736666666667" lon="134.82993916666666">
<ele>75</ele>
</trkpt>
<trkpt lat="34.93736388888889" lon="134.82995444444444">
<ele>75</ele>
</trkpt>
<trkpt lat="34.93736388888889" lon="134.82995444444444">
<ele>75</ele>
</trkpt>
<trkpt lat="34.93734944444444" lon="134.83000611111112">
<ele>75</ele>
</trkpt>
<trkpt lat="34.937334722222225" lon="134.83005805555555">
<ele>75</ele>
</trkpt>
<trkpt lat="34.93732" lon="134.83010972222223">
<ele>74</ele>
</trkpt>
<trkpt lat="34.937305555555554" lon="134.83016166666667">
<ele>74</ele>
</trkpt>
<trkpt lat="34.937290833333336" lon="134.83021333333335">
<ele>74</ele>
</trkpt>
<trkpt lat="34.93727638888889" lon="134.83026527777778">
<ele>74</ele>
</trkpt>
<trkpt lat="34.937261666666664" lon="134.83031694444443">
<ele>74</ele>
</trkpt>
<trkpt lat="34.937247222222226" lon="134.8303688888889">
<ele>74</ele>
</trkpt>
<trkpt lat="34.9372325" lon="134.83042083333333">
<ele>74</ele>
</trkpt>
<trkpt lat="34.937218055555554" lon="134.8304725">
<ele>73</ele>
</trkpt>
<trkpt lat="34.937203333333336" lon="134.83052444444445">
<ele>73</ele>
</trkpt>
<trkpt lat="34.93718861111111" lon="134.8305761111111">
<ele>73</ele>
</trkpt>
<trkpt lat="34.937174166666665" lon="134.83062805555556">
<ele>73</ele>
</trkpt>
<trkpt lat="34.937170555555554" lon="134.8306411111111">
<ele>73</ele>
</trkpt>
<trkpt lat="34.937173055555554" lon="134.83063611111112">
<ele>73</ele>
</trkpt>
<trkpt lat="34.93712611111111" lon="134.83061">
<ele>73</ele>
</trkpt>
<trkpt lat="34.93706" lon="134.83064694444445">
<ele>73</ele>
</trkpt>
<trkpt lat="34.93671" lon="134.83069805555556">
<ele>72</ele>
</trkpt>
<trkpt lat="34.93651805555555" lon="134.830735">
<ele>71</ele>
</trkpt>
<trkpt lat="34.936393055555556" lon="134.83077194444445">
<ele>71</ele>
</trkpt>
<trkpt lat="34.936168055555555" lon="134.83091">
<ele>71</ele>
</trkpt>
<trkpt lat="34.935935" lon="134.83107305555555">
<ele>70</ele>
</trkpt>
<trkpt lat="34.93565111111111" lon="134.83127194444444">
<ele>69</ele>
</trkpt>
<trkpt lat="34.935628055555554" lon="134.83130805555555">
<ele>69</ele>
</trkpt>
<trkpt lat="34.935628055555554" lon="134.83130805555555">
<ele>69</ele>
</trkpt>
<trkpt lat="34.93559305555556" lon="134.83136">
<ele>69</ele>
</trkpt>
<trkpt lat="34.935343055555556" lon="134.83172194444444">
<ele>69</ele>
</trkpt>
<trkpt lat="34.93516" lon="134.83201">
<ele>68</ele>
</trkpt>
<trkpt lat="34.93512611111111" lon="134.83206">
<ele>68</ele>
</trkpt>
<trkpt lat="34.935085" lon="134.83211">
<ele>68</ele>
</trkpt>
<trkpt lat="34.934851944444446" lon="134.83244694444446">
<ele>68</ele>
</trkpt>
<trkpt lat="34.93471" lon="134.83267194444446">
<ele>68</ele>
</trkpt>
<trkpt lat="34.93447694444444" lon="134.83306">
<ele>68</ele>
</trkpt>
<trkpt lat="34.934285" lon="134.83329694444444">
<ele>68</ele>
</trkpt>
<trkpt lat="34.93412694444444" lon="134.83352194444444">
<ele>68</ele>
</trkpt>
<trkpt lat="34.93386805555556" lon="134.83386">
<ele>68</ele>
</trkpt>
<trkpt lat="34.933685" lon="134.83416">
<ele>68</ele>
</trkpt>
<trkpt lat="34.93366" lon="134.83419694444444">
<ele>68</ele>
</trkpt>
<trkpt lat="34.933501944444444" lon="134.83442194444444">
<ele>67</ele>
</trkpt>
<trkpt lat="34.933393055555555" lon="134.83459694444446">
<ele>67</ele>
</trkpt>
<trkpt lat="34.93319805555556" lon="134.83497">
<ele>67</ele>
</trkpt>
<trkpt lat="34.93319805555556" lon="134.83496888888888">
<ele>67</ele>
</trkpt>
<trkpt lat="34.93317694444445" lon="134.83501">
<ele>67</ele>
</trkpt>
<trkpt lat="34.93302694444444" lon="134.835385">
<ele>67</ele>
</trkpt>
<trkpt lat="34.93301888888889" lon="134.83544694444444">
<ele>67</ele>
</trkpt>
<trkpt lat="34.93301" lon="134.83559694444443">
<ele>67</ele>
</trkpt>
<trkpt lat="34.93305194444444" lon="134.8357838888889">
<ele>67</ele>
</trkpt>
<trkpt lat="34.93311888888889" lon="134.83604694444443">
<ele>67</ele>
</trkpt>
<trkpt lat="34.93322694444444" lon="134.83637194444444">
<ele>67</ele>
</trkpt>
<trkpt lat="34.93337694444445" lon="134.83684694444443">
<ele>67</ele>
</trkpt>
<trkpt lat="34.93339388888889" lon="134.83684">
<ele>67</ele>
</trkpt>
<trkpt lat="34.93339388888889" lon="134.83684">
<ele>67</ele>
</trkpt>
<trkpt lat="34.93337694444445" lon="134.83684694444443">
<ele>67</ele>
</trkpt>
<trkpt lat="34.933385" lon="134.8369338888889">
<ele>67</ele>
</trkpt>
<trkpt lat="34.93334388888889" lon="134.83717194444444">
<ele>67</ele>
</trkpt>
<trkpt lat="34.933285" lon="134.83737194444444">
<ele>67</ele>
</trkpt>
<trkpt lat="34.933276944444444" lon="134.8374088888889">
<ele>67</ele>
</trkpt>
<trkpt lat="34.933143888888885" lon="134.83790888888888">
<ele>67</ele>
</trkpt>
<trkpt lat="34.93302694444444" lon="134.83839694444444">
<ele>68</ele>
</trkpt>
<trkpt lat="34.93297694444444" lon="134.83852194444444">
<ele>68</ele>
</trkpt>
<trkpt lat="34.93291888888889" lon="134.8386088888889">
<ele>68</ele>
</trkpt>
<trkpt lat="34.93286888888889" lon="134.83867194444446">
<ele>67</ele>
</trkpt>
<trkpt lat="34.93257694444444" lon="134.8389338888889">
<ele>68</ele>
</trkpt>
<trkpt lat="34.93249388888889" lon="134.83903388888888">
<ele>68</ele>
</trkpt>
<trkpt lat="34.932476944444446" lon="134.83897194444444">
<ele>68</ele>
</trkpt>
<trkpt lat="34.932476944444446" lon="134.83897194444444">
<ele>68</ele>
</trkpt>
<trkpt lat="34.93249388888889" lon="134.83903388888888">
<ele>68</ele>
</trkpt>
<trkpt lat="34.93236888888889" lon="134.8391838888889">
<ele>68</ele>
</trkpt>
<trkpt lat="34.932251944444445" lon="134.83934694444446">
<ele>68</ele>
</trkpt>
<trkpt lat="34.932026944444445" lon="134.83977194444444">
<ele>69</ele>
</trkpt>
<trkpt lat="34.93196888888889" lon="134.83989694444443">
<ele>70</ele>
</trkpt>
<trkpt lat="34.93175194444444" lon="134.84049694444445">
<ele>72</ele>
</trkpt>
<trkpt lat="34.93165194444445" lon="134.84077194444444">
<ele>71</ele>
</trkpt>
<trkpt lat="34.93156111111111" lon="134.84094694444445">
<ele>71</ele>
</trkpt>
<trkpt lat="34.93126111111111" lon="134.84153111111112">
<ele>70</ele>
</trkpt>
<trkpt lat="34.93126111111111" lon="134.84153111111112">
<ele>70</ele>
</trkpt>
<trkpt lat="34.93116888888889" lon="134.8417088888889">
<ele>70</ele>
</trkpt>
<trkpt lat="34.93062694444444" lon="134.8404088888889">
<ele>68</ele>
</trkpt>
<trkpt lat="34.930126944444446" lon="134.83923388888888">
<ele>64</ele>
</trkpt>
<trkpt lat="34.92964388888889" lon="134.8380838888889">
<ele>64</ele>
</trkpt>
<trkpt lat="34.92931111111111" lon="134.83727194444444">
<ele>64</ele>
</trkpt>
<trkpt lat="34.92891111111111" lon="134.83637194444444">
<ele>64</ele>
</trkpt>
<trkpt lat="34.928311111111114" lon="134.83492194444443">
<ele>63</ele>
</trkpt>
<trkpt lat="34.928111111111114" lon="134.83434694444443">
<ele>62</ele>
</trkpt>
<trkpt lat="34.92804888888889" lon="134.8341861111111">
<ele>62</ele>
</trkpt>
<trkpt lat="34.92804888888889" lon="134.8341861111111">
<ele>62</ele>
</trkpt>
<trkpt lat="34.92804388888889" lon="134.83417194444445">
<ele>62</ele>
</trkpt>
<trkpt lat="34.928001944444446" lon="134.83402194444446">
<ele>62</ele>
</trkpt>
<trkpt lat="34.928176944444445" lon="134.83391">
<ele>62</ele>
</trkpt>
<trkpt lat="34.92863611111111" lon="134.83346">
<ele>63</ele>
</trkpt>
<trkpt lat="34.929251944444445" lon="134.83286">
<ele>63</ele>
</trkpt>
<trkpt lat="34.92953111111111" lon="134.83257694444444">
<ele>63</ele>
</trkpt>
    </trkseg>
  </trk>
</gpx>