<?xml version="1.0" encoding="UTF-8"?>
<gpx version="1.1"
     creator="KMLtoGPX"
     xmlns="http://www.topografix.com/GPX/1/1">
  <metadata>
    <name>Horyuji Temple Route (C9)</name>
    <desc>法隆寺ルート(C9)</desc>
    <bounds minlat="34.600205833333334" minlon="135.7347572222222" maxlat="34.628410555555554" maxlon="135.76012972222222"/>
  </metadata>
  <trk>
    <name>Horyuji Temple Route (C9)</name>
    <trkseg>
<trkpt lat="34.62508" lon="135.76012972222222">
<ele>50</ele>
</trkpt>
<trkpt lat="34.62508" lon="135.75978027777776">
<ele>51</ele>
</trkpt>
<trkpt lat="34.625095" lon="135.75969555555557">
<ele>51</ele>
</trkpt>
<trkpt lat="34.62513083333333" lon="135.75952083333334">
<ele>52</ele>
</trkpt>
<trkpt lat="34.62517111111111" lon="135.75942111111112">
<ele>52</ele>
</trkpt>
<trkpt lat="34.625231666666664" lon="135.75933">
<ele>52</ele>
</trkpt>
<trkpt lat="34.62531861111111" lon="135.759215">
<ele>53</ele>
</trkpt>
<trkpt lat="34.625481388888886" lon="135.75904027777779">
<ele>53</ele>
</trkpt>
<trkpt lat="34.62611166666667" lon="135.75831527777777">
<ele>53</ele>
</trkpt>
<trkpt lat="34.62623861111111" lon="135.7581775">
<ele>53</ele>
</trkpt>
<trkpt lat="34.62637111111111" lon="135.75801694444445">
<ele>54</ele>
</trkpt>
<trkpt lat="34.62663583333333" lon="135.75772722222223">
<ele>54</ele>
</trkpt>
<trkpt lat="34.62686444444444" lon="135.75746805555556">
<ele>54</ele>
</trkpt>
<trkpt lat="34.62703694444444" lon="135.75717833333334">
<ele>54</ele>
</trkpt>
<trkpt lat="34.627205277777776" lon="135.75685833333333">
<ele>55</ele>
</trkpt>
<trkpt lat="34.62753611111111" lon="135.75619444444445">
<ele>58</ele>
</trkpt>
<trkpt lat="34.627714166666664" lon="135.7558275">
<ele>59</ele>
</trkpt>
<trkpt lat="34.627765277777776" lon="135.75564527777777">
<ele>60</ele>
</trkpt>
<trkpt lat="34.627876944444445" lon="135.75516472222222">
<ele>62</ele>
</trkpt>
<trkpt lat="34.62791277777778" lon="135.75500416666668">
<ele>63</ele>
</trkpt>
<trkpt lat="34.6279625" lon="135.75479027777777">
<ele>63</ele>
</trkpt>
<trkpt lat="34.62799833333333" lon="135.75461555555555">
<ele>62</ele>
</trkpt>
<trkpt lat="34.628217222222226" lon="135.75364666666667">
<ele>61</ele>
</trkpt>
<trkpt lat="34.62826305555556" lon="135.75345555555555">
<ele>61</ele>
</trkpt>
<trkpt lat="34.62828777777778" lon="135.75334055555555">
<ele>62</ele>
</trkpt>
<trkpt lat="34.628386666666664" lon="135.75284722222221">
<ele>62</ele>
</trkpt>
<trkpt lat="34.628387777777775" lon="135.7528438888889">
<ele>63</ele>
</trkpt>
<trkpt lat="34.628410555555554" lon="135.7527311111111">
<ele>63</ele>
</trkpt>
<trkpt lat="34.628166388888886" lon="135.75227305555555">
<ele>61</ele>
</trkpt>
<trkpt lat="34.627653055555555" lon="135.75130416666667">
<ele>56</ele>
</trkpt>
<trkpt lat="34.62721027777778" lon="135.75055666666665">
<ele>54</ele>
</trkpt>
<trkpt lat="34.627093611111114" lon="135.75039611111112">
<ele>55</ele>
</trkpt>
<trkpt lat="34.62678861111111" lon="135.75000777777777">
<ele>56</ele>
</trkpt>
<trkpt lat="34.626421944444445" lon="135.74961833333333">
<ele>58</ele>
</trkpt>
<trkpt lat="34.62631" lon="135.74950444444445">
<ele>59</ele>
</trkpt>
<trkpt lat="34.6261625" lon="135.7493438888889">
<ele>59</ele>
</trkpt>
<trkpt lat="34.62603" lon="135.7492211111111">
<ele>61</ele>
</trkpt>
<trkpt lat="34.62596388888889" lon="135.74915277777777">
<ele>61</ele>
</trkpt>
<trkpt lat="34.625836944444444" lon="135.74903138888888">
<ele>62</ele>
</trkpt>
<trkpt lat="34.625598333333336" lon="135.7488175">
<ele>63</ele>
</trkpt>
<trkpt lat="34.625415" lon="135.7487025">
<ele>64</ele>
</trkpt>
<trkpt lat="34.62487027777778" lon="135.74842027777777">
<ele>63</ele>
</trkpt>
<trkpt lat="34.62457083333334" lon="135.74825972222223">
<ele>60</ele>
</trkpt>
<trkpt lat="34.624428611111114" lon="135.74813055555555">
<ele>57</ele>
</trkpt>
<trkpt lat="34.62437222222222" lon="135.74807">
<ele>57</ele>
</trkpt>
<trkpt lat="34.624296111111114" lon="135.74799277777777">
<ele>56</ele>
</trkpt>
<trkpt lat="34.62412805555556" lon="135.74766527777777">
<ele>54</ele>
</trkpt>
<trkpt lat="34.623889166666665" lon="135.74716972222222">
<ele>54</ele>
</trkpt>
<trkpt lat="34.62367" lon="135.7466963888889">
<ele>58</ele>
</trkpt>
<trkpt lat="34.623355555555555" lon="135.74597166666666">
<ele>59</ele>
</trkpt>
<trkpt lat="34.62316111111111" lon="135.74552888888888">
<ele>58</ele>
</trkpt>
<trkpt lat="34.622952777777776" lon="135.745095">
<ele>59</ele>
</trkpt>
<trkpt lat="34.62274444444444" lon="135.74472055555555">
<ele>59</ele>
</trkpt>
<trkpt lat="34.622596944444446" lon="135.74448416666667">
<ele>63</ele>
</trkpt>
<trkpt lat="34.62248527777778" lon="135.7443311111111">
<ele>62</ele>
</trkpt>
<trkpt lat="34.62245472222222" lon="135.74429305555554">
<ele>62</ele>
</trkpt>
<trkpt lat="34.62235277777778" lon="135.74415638888888">
<ele>61</ele>
</trkpt>
<trkpt lat="34.62228694444445" lon="135.74409444444444">
<ele>60</ele>
</trkpt>
<trkpt lat="34.62222083333333" lon="135.74403388888888">
<ele>59</ele>
</trkpt>
<trkpt lat="34.62211444444444" lon="135.74393527777778">
<ele>59</ele>
</trkpt>
<trkpt lat="34.6220425" lon="135.7429663888889">
<ele>61</ele>
</trkpt>
<trkpt lat="34.62197194444445" lon="135.7419972222222">
<ele>62</ele>
</trkpt>
<trkpt lat="34.62196111111111" lon="135.74185944444446">
<ele>62</ele>
</trkpt>
<trkpt lat="34.62190583333334" lon="135.7410586111111">
<ele>64</ele>
</trkpt>
<trkpt lat="34.621879722222225" lon="135.74070833333334">
<ele>61</ele>
</trkpt>
<trkpt lat="34.62180388888889" lon="135.73973972222223">
<ele>61</ele>
</trkpt>
<trkpt lat="34.621788611111114" lon="135.73960944444445">
<ele>61</ele>
</trkpt>
<trkpt lat="34.62175833333333" lon="135.7392275">
<ele>61</ele>
</trkpt>
<trkpt lat="34.62175722222222" lon="135.7392252777778">
<ele>61</ele>
</trkpt>
<trkpt lat="34.621747222222226" lon="135.73909833333335">
<ele>61</ele>
</trkpt>
<trkpt lat="34.621406666666665" lon="135.73916666666668">
<ele>62</ele>
</trkpt>
<trkpt lat="34.62131" lon="135.73865555555557">
<ele>66</ele>
</trkpt>
<trkpt lat="34.621345833333336" lon="135.73859472222222">
<ele>65</ele>
</trkpt>
<trkpt lat="34.6213525" lon="135.7385438888889">
<ele>65</ele>
</trkpt>
<trkpt lat="34.6213525" lon="135.73854166666666">
<ele>65</ele>
</trkpt>
<trkpt lat="34.621345833333336" lon="135.73859472222222">
<ele>65</ele>
</trkpt>
<trkpt lat="34.62131" lon="135.73865555555557">
<ele>66</ele>
</trkpt>
<trkpt lat="34.62130583333333" lon="135.73859472222222">
<ele>66</ele>
</trkpt>
<trkpt lat="34.621285" lon="135.7383963888889">
<ele>67</ele>
</trkpt>
<trkpt lat="34.62127" lon="135.73803055555555">
<ele>68</ele>
</trkpt>
<trkpt lat="34.62127" lon="135.73794583333333">
<ele>69</ele>
</trkpt>
<trkpt lat="34.62126444444444" lon="135.73787">
<ele>69</ele>
</trkpt>
<trkpt lat="34.62124388888889" lon="135.73779416666667">
<ele>69</ele>
</trkpt>
<trkpt lat="34.621228611111114" lon="135.73773222222223">
<ele>70</ele>
</trkpt>
<trkpt lat="34.62120361111111" lon="135.73767138888888">
<ele>69</ele>
</trkpt>
<trkpt lat="34.62118861111111" lon="135.7376563888889">
<ele>69</ele>
</trkpt>
<trkpt lat="34.62105611111111" lon="135.7375575">
<ele>69</ele>
</trkpt>
<trkpt lat="34.62102027777778" lon="135.73754222222223">
<ele>68</ele>
</trkpt>
<trkpt lat="34.62099" lon="135.73754222222223">
<ele>68</ele>
</trkpt>
<trkpt lat="34.620954166666664" lon="135.73754222222223">
<ele>68</ele>
</trkpt>
<trkpt lat="34.62092916666667" lon="135.7375575">
<ele>68</ele>
</trkpt>
<trkpt lat="34.620821666666664" lon="135.73763333333332">
<ele>69</ele>
</trkpt>
<trkpt lat="34.62071" lon="135.7377475">
<ele>67</ele>
</trkpt>
<trkpt lat="34.620598333333334" lon="135.73784722222223">
<ele>67</ele>
</trkpt>
<trkpt lat="34.62031833333333" lon="135.7379838888889">
<ele>67</ele>
</trkpt>
<trkpt lat="34.62023694444444" lon="135.73800666666668">
<ele>68</ele>
</trkpt>
<trkpt lat="34.620155555555556" lon="135.73802305555554">
<ele>67</ele>
</trkpt>
<trkpt lat="34.620089444444446" lon="135.73799166666666">
<ele>68</ele>
</trkpt>
<trkpt lat="34.61985638888889" lon="135.73788527777776">
<ele>67</ele>
</trkpt>
<trkpt lat="34.61980527777778" lon="135.73787">
<ele>67</ele>
</trkpt>
<trkpt lat="34.619504722222224" lon="135.73780916666666">
<ele>62</ele>
</trkpt>
<trkpt lat="34.61888944444444" lon="135.73771694444446">
<ele>62</ele>
</trkpt>
<trkpt lat="34.61885361111111" lon="135.73773222222223">
<ele>62</ele>
</trkpt>
<trkpt lat="34.6187875" lon="135.7377713888889">
<ele>62</ele>
</trkpt>
<trkpt lat="34.618696388888885" lon="135.73780916666666">
<ele>62</ele>
</trkpt>
<trkpt lat="34.61862055555556" lon="135.73781694444443">
<ele>63</ele>
</trkpt>
<trkpt lat="34.618564166666665" lon="135.73781694444443">
<ele>63</ele>
</trkpt>
<trkpt lat="34.61852833333333" lon="135.73780916666666">
<ele>63</ele>
</trkpt>
<trkpt lat="34.61850333333334" lon="135.7377788888889">
<ele>63</ele>
</trkpt>
<trkpt lat="34.61843694444445" lon="135.73764111111112">
<ele>66</ele>
</trkpt>
<trkpt lat="34.618380555555554" lon="135.73751833333333">
<ele>67</ele>
</trkpt>
<trkpt lat="34.61835583333333" lon="135.7374425">
<ele>67</ele>
</trkpt>
<trkpt lat="34.618248333333334" lon="135.73694666666665">
<ele>68</ele>
</trkpt>
<trkpt lat="34.61817777777778" lon="135.7366722222222">
<ele>68</ele>
</trkpt>
<trkpt lat="34.61809638888889" lon="135.73640555555556">
<ele>68</ele>
</trkpt>
<trkpt lat="34.61809638888889" lon="135.73636">
<ele>68</ele>
</trkpt>
<trkpt lat="34.61808" lon="135.73628166666666">
<ele>68</ele>
</trkpt>
<trkpt lat="34.61808" lon="135.73628166666666">
<ele>68</ele>
</trkpt>
<trkpt lat="34.61806055555556" lon="135.73619166666666">
<ele>69</ele>
</trkpt>
<trkpt lat="34.618045277777775" lon="135.7361688888889">
<ele>69</ele>
</trkpt>
<trkpt lat="34.618004166666665" lon="135.73615361111112">
<ele>69</ele>
</trkpt>
<trkpt lat="34.61794888888889" lon="135.73618416666667">
<ele>68</ele>
</trkpt>
<trkpt lat="34.617821944444444" lon="135.73630666666668">
<ele>68</ele>
</trkpt>
<trkpt lat="34.617602777777776" lon="135.73533777777777">
<ele>67</ele>
</trkpt>
<trkpt lat="34.61756027777778" lon="135.7351563888889">
<ele>67</ele>
</trkpt>
<trkpt lat="34.61756138888889" lon="135.7351575">
<ele>67</ele>
</trkpt>
<trkpt lat="34.61754611111111" lon="135.73509361111113">
<ele>67</ele>
</trkpt>
<trkpt lat="34.617511388888886" lon="135.73505444444444">
<ele>67</ele>
</trkpt>
<trkpt lat="34.617445277777776" lon="135.73503166666666">
<ele>67</ele>
</trkpt>
<trkpt lat="34.61689527777778" lon="135.73487222222224">
<ele>65</ele>
</trkpt>
<trkpt lat="34.61658055555556" lon="135.73478">
<ele>66</ele>
</trkpt>
<trkpt lat="34.61651972222222" lon="135.7347725">
<ele>68</ele>
</trkpt>
<trkpt lat="34.61645361111111" lon="135.73481027777777">
<ele>66</ele>
</trkpt>
<trkpt lat="34.61642305555556" lon="135.73484194444444">
<ele>66</ele>
</trkpt>
<trkpt lat="34.61642305555556" lon="135.73484194444444">
<ele>66</ele>
</trkpt>
<trkpt lat="34.61642305555556" lon="135.73484194444444">
<ele>66</ele>
</trkpt>
<trkpt lat="34.6163875" lon="135.73493305555556">
<ele>65</ele>
</trkpt>
<trkpt lat="34.61636166666667" lon="135.73505444444444">
<ele>63</ele>
</trkpt>
<trkpt lat="34.61635722222222" lon="135.73513166666666">
<ele>62</ele>
</trkpt>
<trkpt lat="34.61642333333333" lon="135.73580972222223">
<ele>59</ele>
</trkpt>
<trkpt lat="34.61622694444444" lon="135.73588138888888">
<ele>58</ele>
</trkpt>
<trkpt lat="34.61622694444444" lon="135.73588138888888">
<ele>58</ele>
</trkpt>
<trkpt lat="34.61604694444444" lon="135.7359475">
<ele>58</ele>
</trkpt>
<trkpt lat="34.615695277777775" lon="135.73609305555556">
<ele>56</ele>
</trkpt>
<trkpt lat="34.61552833333333" lon="135.7361461111111">
<ele>55</ele>
</trkpt>
<trkpt lat="34.615430555555555" lon="135.7361688888889">
<ele>55</ele>
</trkpt>
<trkpt lat="34.61539055555556" lon="135.73618416666667">
<ele>55</ele>
</trkpt>
<trkpt lat="34.61505527777778" lon="135.73632194444446">
<ele>54</ele>
</trkpt>
<trkpt lat="34.61492277777778" lon="135.73638277777778">
<ele>54</ele>
</trkpt>
<trkpt lat="34.61492277777778" lon="135.73638277777778">
<ele>54</ele>
</trkpt>
<trkpt lat="34.61313638888889" lon="135.73687083333334">
<ele>54</ele>
</trkpt>
<trkpt lat="34.613126111111114" lon="135.73682">
<ele>54</ele>
</trkpt>
<trkpt lat="34.61297" lon="135.73684805555555">
<ele>54</ele>
</trkpt>
<trkpt lat="34.61250666666667" lon="135.73688611111112">
<ele>53</ele>
</trkpt>
<trkpt lat="34.61248611111111" lon="135.73661166666668">
<ele>53</ele>
</trkpt>
<trkpt lat="34.61241972222222" lon="135.7356425">
<ele>53</ele>
</trkpt>
<trkpt lat="34.61237972222222" lon="135.73536805555557">
<ele>53</ele>
</trkpt>
<trkpt lat="34.61235472222222" lon="135.73529861111112">
<ele>53</ele>
</trkpt>
<trkpt lat="34.612273333333334" lon="135.7350088888889">
<ele>53</ele>
</trkpt>
<trkpt lat="34.612207222222224" lon="135.73483305555555">
<ele>52</ele>
</trkpt>
<trkpt lat="34.612165833333336" lon="135.7347572222222">
<ele>52</ele>
</trkpt>
<trkpt lat="34.6121225" lon="135.7347636111111">
<ele>52</ele>
</trkpt>
<trkpt lat="34.61212138888889" lon="135.7347636111111">
<ele>52</ele>
</trkpt>
<trkpt lat="34.61152027777778" lon="135.73485694444443">
<ele>50</ele>
</trkpt>
<trkpt lat="34.611153888888886" lon="135.73491777777778">
<ele>49</ele>
</trkpt>
<trkpt lat="34.610665555555556" lon="135.7350088888889">
<ele>48</ele>
</trkpt>
<trkpt lat="34.61002" lon="135.7351238888889">
<ele>48</ele>
</trkpt>
<trkpt lat="34.60937444444444" lon="135.7352302777778">
<ele>47</ele>
</trkpt>
<trkpt lat="34.60934833333334" lon="135.73506972222222">
<ele>47</ele>
</trkpt>
<trkpt lat="34.60894694444445" lon="135.73513166666666">
<ele>47</ele>
</trkpt>
<trkpt lat="34.60888055555556" lon="135.73514666666668">
<ele>47</ele>
</trkpt>
<trkpt lat="34.60881444444444" lon="135.73515444444445">
<ele>47</ele>
</trkpt>
<trkpt lat="34.60861611111111" lon="135.73514666666668">
<ele>47</ele>
</trkpt>
<trkpt lat="34.60861722222222" lon="135.73536166666668">
<ele>47</ele>
</trkpt>
<trkpt lat="34.60861722222222" lon="135.73536055555556">
<ele>46</ele>
</trkpt>
<trkpt lat="34.608621666666664" lon="135.7360236111111">
<ele>46</ele>
</trkpt>
<trkpt lat="34.60863138888889" lon="135.73628277777777">
<ele>46</ele>
</trkpt>
<trkpt lat="34.6086575" lon="135.7363675">
<ele>46</ele>
</trkpt>
<trkpt lat="34.608687777777774" lon="135.73653444444443">
<ele>46</ele>
</trkpt>
<trkpt lat="34.60874861111111" lon="135.73685583333332">
<ele>47</ele>
</trkpt>
<trkpt lat="34.60883638888889" lon="135.73755027777779">
<ele>47</ele>
</trkpt>
<trkpt lat="34.60883638888889" lon="135.73755027777779">
<ele>47</ele>
</trkpt>
<trkpt lat="34.608845" lon="135.73761861111112">
<ele>47</ele>
</trkpt>
<trkpt lat="34.608224444444446" lon="135.73761861111112">
<ele>46</ele>
</trkpt>
<trkpt lat="34.60801611111111" lon="135.73761083333332">
<ele>46</ele>
</trkpt>
<trkpt lat="34.60771666666667" lon="135.73759583333333">
<ele>46</ele>
</trkpt>
<trkpt lat="34.60707027777778" lon="135.73758055555555">
<ele>45</ele>
</trkpt>
<trkpt lat="34.607039722222225" lon="135.73757305555554">
<ele>45</ele>
</trkpt>
<trkpt lat="34.60651583333333" lon="135.73755777777777">
<ele>45</ele>
</trkpt>
<trkpt lat="34.60587" lon="135.7375425">
<ele>44</ele>
</trkpt>
<trkpt lat="34.605224444444445" lon="135.7375275">
<ele>44</ele>
</trkpt>
<trkpt lat="34.60507138888889" lon="135.7375186111111">
<ele>44</ele>
</trkpt>
<trkpt lat="34.60495" lon="135.7375111111111">
<ele>44</ele>
</trkpt>
<trkpt lat="34.604755833333336" lon="135.73749583333333">
<ele>44</ele>
</trkpt>
<trkpt lat="34.604349166666665" lon="135.73748083333334">
<ele>44</ele>
</trkpt>
<trkpt lat="34.60388138888889" lon="135.73747305555557">
<ele>44</ele>
</trkpt>
<trkpt lat="34.60362222222222" lon="135.73745805555555">
<ele>44</ele>
</trkpt>
<trkpt lat="34.603271666666664" lon="135.73744277777777">
<ele>44</ele>
</trkpt>
<trkpt lat="34.60282361111111" lon="135.73744277777777">
<ele>43</ele>
</trkpt>
<trkpt lat="34.60282361111111" lon="135.73741666666666">
<ele>43</ele>
</trkpt>
<trkpt lat="34.60282361111111" lon="135.73741777777778">
<ele>43</ele>
</trkpt>
<trkpt lat="34.60282361111111" lon="135.73744277777777">
<ele>43</ele>
</trkpt>
<trkpt lat="34.60282361111111" lon="135.73758055555555">
<ele>43</ele>
</trkpt>
<trkpt lat="34.60282888888889" lon="135.73829777777777">
<ele>43</ele>
</trkpt>
<trkpt lat="34.60282888888889" lon="135.73874805555556">
<ele>43</ele>
</trkpt>
<trkpt lat="34.60282888888889" lon="135.73896083333332">
<ele>43</ele>
</trkpt>
<trkpt lat="34.60282888888889" lon="135.73908333333333">
<ele>43</ele>
</trkpt>
<trkpt lat="34.60283888888889" lon="135.7399838888889">
<ele>44</ele>
</trkpt>
<trkpt lat="34.602625277777776" lon="135.7399838888889">
<ele>44</ele>
</trkpt>
<trkpt lat="34.60229972222222" lon="135.7399838888889">
<ele>44</ele>
</trkpt>
<trkpt lat="34.60228027777778" lon="135.7399838888889">
<ele>44</ele>
</trkpt>
<trkpt lat="34.60202527777778" lon="135.7399838888889">
<ele>43</ele>
</trkpt>
<trkpt lat="34.60200444444445" lon="135.7399838888889">
<ele>43</ele>
</trkpt>
<trkpt lat="34.601949166666664" lon="135.7399838888889">
<ele>43</ele>
</trkpt>
<trkpt lat="34.60190361111111" lon="135.73999166666667">
<ele>43</ele>
</trkpt>
<trkpt lat="34.601659444444444" lon="135.74000583333333">
<ele>43</ele>
</trkpt>
<trkpt lat="34.601659444444444" lon="135.74000583333333">
<ele>43</ele>
</trkpt>
<trkpt lat="34.601256944444444" lon="135.74002944444445">
<ele>42</ele>
</trkpt>
<trkpt lat="34.60103888888889" lon="135.74002194444444">
<ele>42</ele>
</trkpt>
<trkpt lat="34.60074916666667" lon="135.7399838888889">
<ele>42</ele>
</trkpt>
<trkpt lat="34.60073083333333" lon="135.74007416666666">
<ele>42</ele>
</trkpt>
<trkpt lat="34.60073083333333" lon="135.74007194444445">
<ele>42</ele>
</trkpt>
<trkpt lat="34.60071333333333" lon="135.7401586111111">
<ele>42</ele>
</trkpt>
<trkpt lat="34.60061694444445" lon="135.7408075">
<ele>42</ele>
</trkpt>
<trkpt lat="34.600524722222225" lon="135.7413713888889">
<ele>42</ele>
</trkpt>
<trkpt lat="34.60050527777778" lon="135.7414713888889">
<ele>42</ele>
</trkpt>
<trkpt lat="34.600382777777774" lon="135.74221888888889">
<ele>42</ele>
</trkpt>
<trkpt lat="34.60037277777778" lon="135.742295">
<ele>42</ele>
</trkpt>
<trkpt lat="34.600230833333335" lon="135.7432638888889">
<ele>41</ele>
</trkpt>
<trkpt lat="34.600205833333334" lon="135.74339416666666">
<ele>41</ele>
</trkpt>
    </trkseg>
  </trk>
</gpx>