<?xml version="1.0" encoding="UTF-8"?>
<gpx version="1.1"
     creator="KMLtoGPX"
     xmlns="http://www.topografix.com/GPX/1/1">
  <metadata>
    <name>IshizugawaWada River Course</name>
    <desc>石津川・和田川コース</desc>
    <bounds minlat="34.46587111111111" minlon="135.46872194444444" maxlat="34.56098305555555" maxlon="135.50077777777778"/>
  </metadata>
  <trk>
    <name>IshizugawaWada River Course</name>
    <trkseg>
<trkpt lat="34.56098305555555" lon="135.4844361111111">
<ele>17</ele>
</trkpt>
<trkpt lat="34.56093805555555" lon="135.48450305555556">
<ele>17</ele>
</trkpt>
<trkpt lat="34.56093805555555" lon="135.48450305555556">
<ele>17</ele>
</trkpt>
<trkpt lat="34.56035194444444" lon="135.48398083333333">
<ele>16</ele>
</trkpt>
<trkpt lat="34.56035194444444" lon="135.48398083333333">
<ele>16</ele>
</trkpt>
<trkpt lat="34.56007833333334" lon="135.484195">
<ele>15</ele>
</trkpt>
<trkpt lat="34.56007833333334" lon="135.484195">
<ele>15</ele>
</trkpt>
<trkpt lat="34.55966333333333" lon="135.48474166666668">
<ele>16</ele>
</trkpt>
<trkpt lat="34.55966333333333" lon="135.48474166666668">
<ele>16</ele>
</trkpt>
<trkpt lat="34.55953972222222" lon="135.48507388888888">
<ele>16</ele>
</trkpt>
<trkpt lat="34.55953972222222" lon="135.48507388888888">
<ele>16</ele>
</trkpt>
<trkpt lat="34.559221944444445" lon="135.48523472222223">
<ele>16</ele>
</trkpt>
<trkpt lat="34.559221944444445" lon="135.48523472222223">
<ele>16</ele>
</trkpt>
<trkpt lat="34.558745555555554" lon="135.4852025">
<ele>15</ele>
</trkpt>
<trkpt lat="34.558745555555554" lon="135.4852025">
<ele>15</ele>
</trkpt>
<trkpt lat="34.55847194444444" lon="135.4851811111111">
<ele>15</ele>
</trkpt>
<trkpt lat="34.55847194444444" lon="135.4851811111111">
<ele>15</ele>
</trkpt>
<trkpt lat="34.55815416666667" lon="135.4849988888889">
<ele>15</ele>
</trkpt>
<trkpt lat="34.55815416666667" lon="135.4849988888889">
<ele>15</ele>
</trkpt>
<trkpt lat="34.5579775" lon="135.4848275">
<ele>17</ele>
</trkpt>
<trkpt lat="34.5579775" lon="135.4848275">
<ele>17</ele>
</trkpt>
<trkpt lat="34.557183055555555" lon="135.48500972222223">
<ele>18</ele>
</trkpt>
<trkpt lat="34.557183055555555" lon="135.48500972222223">
<ele>18</ele>
</trkpt>
<trkpt lat="34.55674194444445" lon="135.4849988888889">
<ele>19</ele>
</trkpt>
<trkpt lat="34.55674194444445" lon="135.4849988888889">
<ele>19</ele>
</trkpt>
<trkpt lat="34.55627416666667" lon="135.48479527777778">
<ele>18</ele>
</trkpt>
<trkpt lat="34.55627416666667" lon="135.48479527777778">
<ele>18</ele>
</trkpt>
<trkpt lat="34.55602694444445" lon="135.48457027777778">
<ele>19</ele>
</trkpt>
<trkpt lat="34.55602694444445" lon="135.4845711111111">
<ele>19</ele>
</trkpt>
<trkpt lat="34.55594388888889" lon="135.484695">
<ele>18</ele>
</trkpt>
<trkpt lat="34.55586111111111" lon="135.484795">
<ele>18</ele>
</trkpt>
<trkpt lat="34.555703055555554" lon="135.48495694444443">
<ele>18</ele>
</trkpt>
<trkpt lat="34.55509388888889" lon="135.485445">
<ele>18</ele>
</trkpt>
<trkpt lat="34.555076944444444" lon="135.48542305555554">
<ele>18</ele>
</trkpt>
<trkpt lat="34.555076944444444" lon="135.48542305555554">
<ele>19</ele>
</trkpt>
<trkpt lat="34.552365" lon="135.48182111111112">
<ele>17</ele>
</trkpt>
<trkpt lat="34.552365" lon="135.48182111111112">
<ele>17</ele>
</trkpt>
<trkpt lat="34.552149444444446" lon="135.4818961111111">
<ele>17</ele>
</trkpt>
<trkpt lat="34.552149444444446" lon="135.4818961111111">
<ele>17</ele>
</trkpt>
<trkpt lat="34.55145638888889" lon="135.48086194444446">
<ele>16</ele>
</trkpt>
<trkpt lat="34.551476111111114" lon="135.48084111111112">
<ele>16</ele>
</trkpt>
<trkpt lat="34.551453055555555" lon="135.48080805555554">
<ele>16</ele>
</trkpt>
<trkpt lat="34.55091111111111" lon="135.48008305555555">
<ele>17</ele>
</trkpt>
<trkpt lat="34.55068611111111" lon="135.47980805555557">
<ele>17</ele>
</trkpt>
<trkpt lat="34.550205" lon="135.47928194444444">
<ele>16</ele>
</trkpt>
<trkpt lat="34.550205" lon="135.47928194444444">
<ele>16</ele>
</trkpt>
<trkpt lat="34.550195" lon="135.4792711111111">
<ele>16</ele>
</trkpt>
<trkpt lat="34.55012" lon="135.47919611111112">
<ele>16</ele>
</trkpt>
<trkpt lat="34.54990305555555" lon="135.47897111111112">
<ele>15</ele>
</trkpt>
<trkpt lat="34.54956111111111" lon="135.47852111111112">
<ele>15</ele>
</trkpt>
<trkpt lat="34.549495" lon="135.47838305555555">
<ele>16</ele>
</trkpt>
<trkpt lat="34.54922" lon="135.47818305555555">
<ele>16</ele>
</trkpt>
<trkpt lat="34.54918388888889" lon="135.47815305555557">
<ele>15</ele>
</trkpt>
<trkpt lat="34.54918388888889" lon="135.47815305555557">
<ele>15</ele>
</trkpt>
<trkpt lat="34.54922" lon="135.47818305555555">
<ele>16</ele>
</trkpt>
<trkpt lat="34.54888611111111" lon="135.4786711111111">
<ele>14</ele>
</trkpt>
<trkpt lat="34.54880305555555" lon="135.47875805555555">
<ele>14</ele>
</trkpt>
<trkpt lat="34.54837" lon="135.47899611111112">
<ele>11</ele>
</trkpt>
<trkpt lat="34.54832805555556" lon="135.47900805555557">
<ele>10</ele>
</trkpt>
<trkpt lat="34.5482" lon="135.4790761111111">
<ele>10</ele>
</trkpt>
<trkpt lat="34.5482" lon="135.4790761111111">
<ele>10</ele>
</trkpt>
<trkpt lat="34.54816111111111" lon="135.47909611111112">
<ele>9</ele>
</trkpt>
<trkpt lat="34.54806111111111" lon="135.47884611111112">
<ele>9</ele>
</trkpt>
<trkpt lat="34.54802" lon="135.47878305555557">
<ele>9</ele>
</trkpt>
<trkpt lat="34.54795305555555" lon="135.47862111111112">
<ele>9</ele>
</trkpt>
<trkpt lat="34.54787" lon="135.47840805555555">
<ele>9</ele>
</trkpt>
<trkpt lat="34.547778055555554" lon="135.47817111111112">
<ele>9</ele>
</trkpt>
<trkpt lat="34.547695" lon="135.47797111111112">
<ele>9</ele>
</trkpt>
<trkpt lat="34.54752805555555" lon="135.47750805555555">
<ele>9</ele>
</trkpt>
<trkpt lat="34.54743694444444" lon="135.47725805555555">
<ele>9</ele>
</trkpt>
<trkpt lat="34.54732805555555" lon="135.4769961111111">
<ele>9</ele>
</trkpt>
<trkpt lat="34.54725305555556" lon="135.4767461111111">
<ele>9</ele>
</trkpt>
<trkpt lat="34.547153055555555" lon="135.47649611111112">
<ele>9</ele>
</trkpt>
<trkpt lat="34.547061944444444" lon="135.47623388888888">
<ele>9</ele>
</trkpt>
<trkpt lat="34.54693694444445" lon="135.47590888888888">
<ele>9</ele>
</trkpt>
<trkpt lat="34.54683694444444" lon="135.4756211111111">
<ele>9</ele>
</trkpt>
<trkpt lat="34.546745" lon="135.4753838888889">
<ele>9</ele>
</trkpt>
<trkpt lat="34.54665305555555" lon="135.47513388888888">
<ele>9</ele>
</trkpt>
<trkpt lat="34.54658694444444" lon="135.4749338888889">
<ele>9</ele>
</trkpt>
<trkpt lat="34.54651194444445" lon="135.47457111111112">
<ele>9</ele>
</trkpt>
<trkpt lat="34.54651194444445" lon="135.47444611111112">
<ele>9</ele>
</trkpt>
<trkpt lat="34.54648888888889" lon="135.47445194444444">
<ele>9</ele>
</trkpt>
<trkpt lat="34.54648888888889" lon="135.47445194444444">
<ele>9</ele>
</trkpt>
<trkpt lat="34.54618694444444" lon="135.47453388888889">
<ele>9</ele>
</trkpt>
<trkpt lat="34.54615305555556" lon="135.4745088888889">
<ele>9</ele>
</trkpt>
<trkpt lat="34.54600305555556" lon="135.47454611111112">
<ele>9</ele>
</trkpt>
<trkpt lat="34.545995" lon="135.47454805555554">
<ele>9</ele>
</trkpt>
<trkpt lat="34.545995" lon="135.47454805555554">
<ele>9</ele>
</trkpt>
<trkpt lat="34.54600305555556" lon="135.47454611111112">
<ele>9</ele>
</trkpt>
<trkpt lat="34.54597" lon="135.47434611111112">
<ele>9</ele>
</trkpt>
<trkpt lat="34.54593694444444" lon="135.4741961111111">
<ele>9</ele>
</trkpt>
<trkpt lat="34.54572" lon="135.47354611111112">
<ele>9</ele>
</trkpt>
<trkpt lat="34.545653055555555" lon="135.4733461111111">
<ele>9</ele>
</trkpt>
<trkpt lat="34.54564388888889" lon="135.473345">
<ele>9</ele>
</trkpt>
<trkpt lat="34.54564388888889" lon="135.473345">
<ele>9</ele>
</trkpt>
<trkpt lat="34.54523694444445" lon="135.47330888888888">
<ele>10</ele>
</trkpt>
<trkpt lat="34.544945" lon="135.4732711111111">
<ele>12</ele>
</trkpt>
<trkpt lat="34.54445388888889" lon="135.47320888888888">
<ele>15</ele>
</trkpt>
<trkpt lat="34.544153888888886" lon="135.47319611111112">
<ele>15</ele>
</trkpt>
<trkpt lat="34.543995" lon="135.47318388888888">
<ele>16</ele>
</trkpt>
<trkpt lat="34.54367888888889" lon="135.4731711111111">
<ele>16</ele>
</trkpt>
<trkpt lat="34.543295" lon="135.4731588888889">
<ele>17</ele>
</trkpt>
<trkpt lat="34.54287" lon="135.4731461111111">
<ele>18</ele>
</trkpt>
<trkpt lat="34.542795" lon="135.4731461111111">
<ele>18</ele>
</trkpt>
<trkpt lat="34.54268694444445" lon="135.4731338888889">
<ele>18</ele>
</trkpt>
<trkpt lat="34.54260388888889" lon="135.4731338888889">
<ele>18</ele>
</trkpt>
<trkpt lat="34.542386944444445" lon="135.4731211111111">
<ele>18</ele>
</trkpt>
<trkpt lat="34.54227111111111" lon="135.4731088888889">
<ele>18</ele>
</trkpt>
<trkpt lat="34.54212888888889" lon="135.47307111111112">
<ele>18</ele>
</trkpt>
<trkpt lat="34.54186611111111" lon="135.4729538888889">
<ele>18</ele>
</trkpt>
<trkpt lat="34.54186611111111" lon="135.4729538888889">
<ele>18</ele>
</trkpt>
<trkpt lat="34.54165388888889" lon="135.47285888888888">
<ele>18</ele>
</trkpt>
<trkpt lat="34.541511944444444" lon="135.4728211111111">
<ele>17</ele>
</trkpt>
<trkpt lat="34.54140388888889" lon="135.47284611111112">
<ele>17</ele>
</trkpt>
<trkpt lat="34.54120388888889" lon="135.47297111111112">
<ele>16</ele>
</trkpt>
<trkpt lat="34.54111" lon="135.47302888888888">
<ele>16</ele>
</trkpt>
<trkpt lat="34.54111" lon="135.47302888888888">
<ele>16</ele>
</trkpt>
<trkpt lat="34.541061944444444" lon="135.4730588888889">
<ele>16</ele>
</trkpt>
<trkpt lat="34.540688055555556" lon="135.47329194444444">
<ele>16</ele>
</trkpt>
<trkpt lat="34.540688055555556" lon="135.47329194444444">
<ele>16</ele>
</trkpt>
<trkpt lat="34.54062111111111" lon="135.4733338888889">
<ele>16</ele>
</trkpt>
<trkpt lat="34.54054611111111" lon="135.4733961111111">
<ele>16</ele>
</trkpt>
<trkpt lat="34.54047888888889" lon="135.47343388888888">
<ele>16</ele>
</trkpt>
<trkpt lat="34.54015388888889" lon="135.47344611111112">
<ele>16</ele>
</trkpt>
<trkpt lat="34.53975388888889" lon="135.4734588888889">
<ele>16</ele>
</trkpt>
<trkpt lat="34.539521111111114" lon="135.4734588888889">
<ele>17</ele>
</trkpt>
<trkpt lat="34.53928805555555" lon="135.4734588888889">
<ele>17</ele>
</trkpt>
<trkpt lat="34.53928805555555" lon="135.4734588888889">
<ele>17</ele>
</trkpt>
<trkpt lat="34.53922111111111" lon="135.4734588888889">
<ele>17</ele>
</trkpt>
<trkpt lat="34.53907111111111" lon="135.4734711111111">
<ele>17</ele>
</trkpt>
<trkpt lat="34.53850388888889" lon="135.4734838888889">
<ele>17</ele>
</trkpt>
<trkpt lat="34.53827111111111" lon="135.4734711111111">
<ele>17</ele>
</trkpt>
<trkpt lat="34.538046111111115" lon="135.4734711111111">
<ele>16</ele>
</trkpt>
<trkpt lat="34.537863055555555" lon="135.47354611111112">
<ele>15</ele>
</trkpt>
<trkpt lat="34.537776111111114" lon="135.47358694444443">
<ele>15</ele>
</trkpt>
<trkpt lat="34.537776111111114" lon="135.47358694444443">
<ele>15</ele>
</trkpt>
<trkpt lat="34.537728888888886" lon="135.4736088888889">
<ele>15</ele>
</trkpt>
<trkpt lat="34.53777111111111" lon="135.4739088888889">
<ele>15</ele>
</trkpt>
<trkpt lat="34.537753888888886" lon="135.47391194444444">
<ele>15</ele>
</trkpt>
<trkpt lat="34.537753888888886" lon="135.47391194444444">
<ele>15</ele>
</trkpt>
<trkpt lat="34.53757111111111" lon="135.4739461111111">
<ele>14</ele>
</trkpt>
<trkpt lat="34.53727111111111" lon="135.4739211111111">
<ele>14</ele>
</trkpt>
<trkpt lat="34.53707888888889" lon="135.47389611111112">
<ele>14</ele>
</trkpt>
<trkpt lat="34.53691305555556" lon="135.4738088888889">
<ele>14</ele>
</trkpt>
<trkpt lat="34.53682888888889" lon="135.4737338888889">
<ele>14</ele>
</trkpt>
<trkpt lat="34.53681111111111" lon="135.47378">
<ele>15</ele>
</trkpt>
<trkpt lat="34.53681111111111" lon="135.47378">
<ele>15</ele>
</trkpt>
<trkpt lat="34.53682888888889" lon="135.4737338888889">
<ele>14</ele>
</trkpt>
<trkpt lat="34.536746111111114" lon="135.47367111111112">
<ele>14</ele>
</trkpt>
<trkpt lat="34.536338055555554" lon="135.47363388888888">
<ele>14</ele>
</trkpt>
<trkpt lat="34.53606305555556" lon="135.4736088888889">
<ele>15</ele>
</trkpt>
<trkpt lat="34.53603805555556" lon="135.47360805555556">
<ele>15</ele>
</trkpt>
<trkpt lat="34.53603805555556" lon="135.47360805555556">
<ele>15</ele>
</trkpt>
<trkpt lat="34.53606305555556" lon="135.4736088888889">
<ele>15</ele>
</trkpt>
<trkpt lat="34.53601305555556" lon="135.4733711111111">
<ele>15</ele>
</trkpt>
<trkpt lat="34.535913055555554" lon="135.4729088888889">
<ele>15</ele>
</trkpt>
<trkpt lat="34.53588805555555" lon="135.47284611111112">
<ele>15</ele>
</trkpt>
<trkpt lat="34.53579611111111" lon="135.4726838888889">
<ele>14</ele>
</trkpt>
<trkpt lat="34.53570388888889" lon="135.4725588888889">
<ele>14</ele>
</trkpt>
<trkpt lat="34.53566305555555" lon="135.47252111111112">
<ele>14</ele>
</trkpt>
<trkpt lat="34.53550388888889" lon="135.47240888888888">
<ele>14</ele>
</trkpt>
<trkpt lat="34.53516305555556" lon="135.47217194444445">
<ele>14</ele>
</trkpt>
<trkpt lat="34.53476305555556" lon="135.47197194444445">
<ele>14</ele>
</trkpt>
<trkpt lat="34.53461305555555" lon="135.4719088888889">
<ele>14</ele>
</trkpt>
<trkpt lat="34.53433805555556" lon="135.4718588888889">
<ele>14</ele>
</trkpt>
<trkpt lat="34.53431611111111" lon="135.47177888888888">
<ele>14</ele>
</trkpt>
<trkpt lat="34.53431611111111" lon="135.47177888888888">
<ele>14</ele>
</trkpt>
<trkpt lat="34.53433805555556" lon="135.4718588888889">
<ele>14</ele>
</trkpt>
<trkpt lat="34.534205" lon="135.4718588888889">
<ele>14</ele>
</trkpt>
<trkpt lat="34.533988055555554" lon="135.47187194444444">
<ele>14</ele>
</trkpt>
<trkpt lat="34.53387111111111" lon="135.47189694444444">
<ele>14</ele>
</trkpt>
<trkpt lat="34.53333" lon="135.47205888888888">
<ele>14</ele>
</trkpt>
<trkpt lat="34.532988055555556" lon="135.47215888888888">
<ele>14</ele>
</trkpt>
<trkpt lat="34.53292111111111" lon="135.47218388888888">
<ele>14</ele>
</trkpt>
<trkpt lat="34.532763055555556" lon="135.4722338888889">
<ele>14</ele>
</trkpt>
<trkpt lat="34.532471944444445" lon="135.47232194444445">
<ele>14</ele>
</trkpt>
<trkpt lat="34.53237194444444" lon="135.4723338888889">
<ele>14</ele>
</trkpt>
<trkpt lat="34.532355" lon="135.47233111111112">
<ele>14</ele>
</trkpt>
<trkpt lat="34.532355" lon="135.47233111111112">
<ele>14</ele>
</trkpt>
<trkpt lat="34.53218" lon="135.47229694444445">
<ele>14</ele>
</trkpt>
<trkpt lat="34.53212194444444" lon="135.47229694444445">
<ele>14</ele>
</trkpt>
<trkpt lat="34.531996944444444" lon="135.4722088888889">
<ele>14</ele>
</trkpt>
<trkpt lat="34.531796944444444" lon="135.4719838888889">
<ele>14</ele>
</trkpt>
<trkpt lat="34.53171305555556" lon="135.47194694444445">
<ele>14</ele>
</trkpt>
<trkpt lat="34.531638055555554" lon="135.47194694444445">
<ele>14</ele>
</trkpt>
<trkpt lat="34.531596944444445" lon="135.47194694444445">
<ele>14</ele>
</trkpt>
<trkpt lat="34.531346944444444" lon="135.4719838888889">
<ele>14</ele>
</trkpt>
<trkpt lat="34.531005" lon="135.4720088888889">
<ele>14</ele>
</trkpt>
<trkpt lat="34.530521944444445" lon="135.47189694444444">
<ele>14</ele>
</trkpt>
<trkpt lat="34.53039694444445" lon="135.47183388888888">
<ele>14</ele>
</trkpt>
<trkpt lat="34.530305" lon="135.4717588888889">
<ele>14</ele>
</trkpt>
<trkpt lat="34.52996388888889" lon="135.4713588888889">
<ele>14</ele>
</trkpt>
<trkpt lat="34.52986388888889" lon="135.47129694444445">
<ele>14</ele>
</trkpt>
<trkpt lat="34.52983111111111" lon="135.47129305555555">
<ele>14</ele>
</trkpt>
<trkpt lat="34.52983111111111" lon="135.47129305555555">
<ele>14</ele>
</trkpt>
<trkpt lat="34.52976388888889" lon="135.47128388888888">
<ele>14</ele>
</trkpt>
<trkpt lat="34.52961388888889" lon="135.47129694444445">
<ele>14</ele>
</trkpt>
<trkpt lat="34.52938" lon="135.47138388888888">
<ele>14</ele>
</trkpt>
<trkpt lat="34.52928" lon="135.4714588888889">
<ele>14</ele>
</trkpt>
<trkpt lat="34.529205" lon="135.47154694444444">
<ele>15</ele>
</trkpt>
<trkpt lat="34.52912194444445" lon="135.47169694444443">
<ele>14</ele>
</trkpt>
<trkpt lat="34.52896388888889" lon="135.47209694444444">
<ele>14</ele>
</trkpt>
<trkpt lat="34.52892194444444" lon="135.47215888888888">
<ele>14</ele>
</trkpt>
<trkpt lat="34.52871388888889" lon="135.47242194444445">
<ele>15</ele>
</trkpt>
<trkpt lat="34.528646944444446" lon="135.47247194444444">
<ele>15</ele>
</trkpt>
<trkpt lat="34.52858888888889" lon="135.47252194444445">
<ele>15</ele>
</trkpt>
<trkpt lat="34.52848888888889" lon="135.4725588888889">
<ele>15</ele>
</trkpt>
<trkpt lat="34.52827194444444" lon="135.47259694444443">
<ele>15</ele>
</trkpt>
<trkpt lat="34.52813" lon="135.4725838888889">
<ele>15</ele>
</trkpt>
<trkpt lat="34.527946944444444" lon="135.4725588888889">
<ele>15</ele>
</trkpt>
<trkpt lat="34.52787194444444" lon="135.47254694444445">
<ele>15</ele>
</trkpt>
<trkpt lat="34.52760611111111" lon="135.47254694444445">
<ele>15</ele>
</trkpt>
<trkpt lat="34.52735611111111" lon="135.47260888888889">
<ele>15</ele>
</trkpt>
<trkpt lat="34.52723611111111" lon="135.47265694444445">
<ele>15</ele>
</trkpt>
<trkpt lat="34.52723611111111" lon="135.47265694444445">
<ele>15</ele>
</trkpt>
<trkpt lat="34.52710611111111" lon="135.4727088888889">
<ele>15</ele>
</trkpt>
<trkpt lat="34.52678888888889" lon="135.47283388888889">
<ele>15</ele>
</trkpt>
<trkpt lat="34.52662194444444" lon="135.4729088888889">
<ele>16</ele>
</trkpt>
<trkpt lat="34.52635611111111" lon="135.4730588888889">
<ele>16</ele>
</trkpt>
<trkpt lat="34.52617194444444" lon="135.47319694444445">
<ele>16</ele>
</trkpt>
<trkpt lat="34.52608111111111" lon="135.4732838888889">
<ele>16</ele>
</trkpt>
<trkpt lat="34.52578111111111" lon="135.4736838888889">
<ele>16</ele>
</trkpt>
<trkpt lat="34.52570611111111" lon="135.4737838888889">
<ele>16</ele>
</trkpt>
<trkpt lat="34.52555611111111" lon="135.4739088888889">
<ele>16</ele>
</trkpt>
<trkpt lat="34.52548888888889" lon="135.4739461111111">
<ele>16</ele>
</trkpt>
<trkpt lat="34.525331111111115" lon="135.47400888888887">
<ele>16</ele>
</trkpt>
<trkpt lat="34.52518888888889" lon="135.4740211111111">
<ele>16</ele>
</trkpt>
<trkpt lat="34.52518888888889" lon="135.47402694444443">
<ele>16</ele>
</trkpt>
<trkpt lat="34.52518888888889" lon="135.47402694444443">
<ele>16</ele>
</trkpt>
<trkpt lat="34.524684444444446" lon="135.4738688888889">
<ele>16</ele>
</trkpt>
<trkpt lat="34.524684444444446" lon="135.4738688888889">
<ele>16</ele>
</trkpt>
<trkpt lat="34.52433111111111" lon="135.47351527777778">
<ele>17</ele>
</trkpt>
<trkpt lat="34.52433111111111" lon="135.47351527777778">
<ele>17</ele>
</trkpt>
<trkpt lat="34.523713055555554" lon="135.47277555555556">
<ele>17</ele>
</trkpt>
<trkpt lat="34.523713055555554" lon="135.47277555555556">
<ele>17</ele>
</trkpt>
<trkpt lat="34.52359833333333" lon="135.47265777777778">
<ele>17</ele>
</trkpt>
<trkpt lat="34.52359833333333" lon="135.47265777777778">
<ele>17</ele>
</trkpt>
<trkpt lat="34.52132888888889" lon="135.47562638888888">
<ele>18</ele>
</trkpt>
<trkpt lat="34.52132888888889" lon="135.47562638888888">
<ele>18</ele>
</trkpt>
<trkpt lat="34.52084333333333" lon="135.47512277777778">
<ele>18</ele>
</trkpt>
<trkpt lat="34.52086888888889" lon="135.4750838888889">
<ele>17</ele>
</trkpt>
<trkpt lat="34.52093111111111" lon="135.47514611111112">
<ele>17</ele>
</trkpt>
<trkpt lat="34.52113888888889" lon="135.4747338888889">
<ele>17</ele>
</trkpt>
<trkpt lat="34.521298055555555" lon="135.47433388888888">
<ele>17</ele>
</trkpt>
<trkpt lat="34.52146388888889" lon="135.4737838888889">
<ele>17</ele>
</trkpt>
<trkpt lat="34.52157888888889" lon="135.4734738888889">
<ele>17</ele>
</trkpt>
<trkpt lat="34.52157888888889" lon="135.4734738888889">
<ele>17</ele>
</trkpt>
<trkpt lat="34.521588888888886" lon="135.47344694444445">
<ele>17</ele>
</trkpt>
<trkpt lat="34.52173888888889" lon="135.4731338888889">
<ele>17</ele>
</trkpt>
<trkpt lat="34.521881111111114" lon="135.47289694444444">
<ele>17</ele>
</trkpt>
<trkpt lat="34.52196388888889" lon="135.4727838888889">
<ele>17</ele>
</trkpt>
<trkpt lat="34.52224805555556" lon="135.47240888888888">
<ele>17</ele>
</trkpt>
<trkpt lat="34.522398055555556" lon="135.47228388888888">
<ele>17</ele>
</trkpt>
<trkpt lat="34.52242388888889" lon="135.4722438888889">
<ele>17</ele>
</trkpt>
<trkpt lat="34.52242388888889" lon="135.4722438888889">
<ele>17</ele>
</trkpt>
<trkpt lat="34.52243111111111" lon="135.4722338888889">
<ele>17</ele>
</trkpt>
<trkpt lat="34.522438888888885" lon="135.4721338888889">
<ele>17</ele>
</trkpt>
<trkpt lat="34.52238111111111" lon="135.47202194444444">
<ele>17</ele>
</trkpt>
<trkpt lat="34.522238888888886" lon="135.4718838888889">
<ele>17</ele>
</trkpt>
<trkpt lat="34.52198194444444" lon="135.47151">
<ele>17</ele>
</trkpt>
<trkpt lat="34.52198194444444" lon="135.47151">
<ele>17</ele>
</trkpt>
<trkpt lat="34.521593055555556" lon="135.47081166666666">
<ele>17</ele>
</trkpt>
<trkpt lat="34.521593055555556" lon="135.47081166666666">
<ele>17</ele>
</trkpt>
<trkpt lat="34.52144722222222" lon="135.47080111111111">
<ele>17</ele>
</trkpt>
<trkpt lat="34.52144722222222" lon="135.47080111111111">
<ele>17</ele>
</trkpt>
<trkpt lat="34.52110722222222" lon="135.4709938888889">
<ele>17</ele>
</trkpt>
<trkpt lat="34.52110722222222" lon="135.4709938888889">
<ele>17</ele>
</trkpt>
<trkpt lat="34.520493611111114" lon="135.471235">
<ele>17</ele>
</trkpt>
<trkpt lat="34.520493611111114" lon="135.471235">
<ele>17</ele>
</trkpt>
<trkpt lat="34.52001222222222" lon="135.47131">
<ele>17</ele>
</trkpt>
<trkpt lat="34.52001222222222" lon="135.47131">
<ele>17</ele>
</trkpt>
<trkpt lat="34.51860833333333" lon="135.47083305555554">
<ele>18</ele>
</trkpt>
<trkpt lat="34.518546944444445" lon="135.47085388888888">
<ele>18</ele>
</trkpt>
<trkpt lat="34.51854" lon="135.47082194444445">
<ele>18</ele>
</trkpt>
<trkpt lat="34.51793111111111" lon="135.47049694444445">
<ele>18</ele>
</trkpt>
<trkpt lat="34.517615" lon="135.47035888888888">
<ele>18</ele>
</trkpt>
<trkpt lat="34.517448055555555" lon="135.4702838888889">
<ele>18</ele>
</trkpt>
<trkpt lat="34.517356944444444" lon="135.47025888888888">
<ele>18</ele>
</trkpt>
<trkpt lat="34.51726194444444" lon="135.47025888888888">
<ele>18</ele>
</trkpt>
<trkpt lat="34.51726194444444" lon="135.47025888888888">
<ele>18</ele>
</trkpt>
<trkpt lat="34.51725694444445" lon="135.47025888888888">
<ele>18</ele>
</trkpt>
<trkpt lat="34.51714" lon="135.47027194444445">
<ele>18</ele>
</trkpt>
<trkpt lat="34.516773055555554" lon="135.47034694444446">
<ele>18</ele>
</trkpt>
<trkpt lat="34.51665694444444" lon="135.47034694444446">
<ele>18</ele>
</trkpt>
<trkpt lat="34.516556944444446" lon="135.4703088888889">
<ele>18</ele>
</trkpt>
<trkpt lat="34.516415" lon="135.47023388888888">
<ele>18</ele>
</trkpt>
<trkpt lat="34.51604" lon="135.4699588888889">
<ele>18</ele>
</trkpt>
<trkpt lat="34.51573194444445" lon="135.46968388888888">
<ele>19</ele>
</trkpt>
<trkpt lat="34.51555694444444" lon="135.4694838888889">
<ele>19</ele>
</trkpt>
<trkpt lat="34.515436944444446" lon="135.46931805555556">
<ele>19</ele>
</trkpt>
<trkpt lat="34.515436944444446" lon="135.46931805555556">
<ele>19</ele>
</trkpt>
<trkpt lat="34.51516" lon="135.46907555555555">
<ele>19</ele>
</trkpt>
<trkpt lat="34.51516" lon="135.46907555555555">
<ele>19</ele>
</trkpt>
<trkpt lat="34.514850833333334" lon="135.46894694444444">
<ele>19</ele>
</trkpt>
<trkpt lat="34.514850833333334" lon="135.46894694444444">
<ele>19</ele>
</trkpt>
<trkpt lat="34.51464333333333" lon="135.46885583333332">
<ele>19</ele>
</trkpt>
<trkpt lat="34.51464333333333" lon="135.46885583333332">
<ele>19</ele>
</trkpt>
<trkpt lat="34.514426944444445" lon="135.46886111111112">
<ele>19</ele>
</trkpt>
<trkpt lat="34.514426944444445" lon="135.46886111111112">
<ele>19</ele>
</trkpt>
<trkpt lat="34.514069166666665" lon="135.46891472222222">
<ele>19</ele>
</trkpt>
<trkpt lat="34.514069166666665" lon="135.46891472222222">
<ele>19</ele>
</trkpt>
<trkpt lat="34.51394111111111" lon="135.46896305555555">
<ele>19</ele>
</trkpt>
<trkpt lat="34.51394111111111" lon="135.46896305555555">
<ele>19</ele>
</trkpt>
<trkpt lat="34.51375138888889" lon="135.46897361111112">
<ele>19</ele>
</trkpt>
<trkpt lat="34.51375138888889" lon="135.46897361111112">
<ele>19</ele>
</trkpt>
<trkpt lat="34.513504166666664" lon="135.4689361111111">
<ele>19</ele>
</trkpt>
<trkpt lat="34.513504166666664" lon="135.4689361111111">
<ele>19</ele>
</trkpt>
<trkpt lat="34.513309722222225" lon="135.46882888888888">
<ele>19</ele>
</trkpt>
<trkpt lat="34.513309722222225" lon="135.46882888888888">
<ele>19</ele>
</trkpt>
<trkpt lat="34.51312" lon="135.4687325">
<ele>19</ele>
</trkpt>
<trkpt lat="34.51312" lon="135.4687325">
<ele>19</ele>
</trkpt>
<trkpt lat="34.51290361111111" lon="135.46872194444444">
<ele>19</ele>
</trkpt>
<trkpt lat="34.51290361111111" lon="135.46872194444444">
<ele>19</ele>
</trkpt>
<trkpt lat="34.51268722222222" lon="135.46886111111112">
<ele>19</ele>
</trkpt>
<trkpt lat="34.51268722222222" lon="135.46886111111112">
<ele>19</ele>
</trkpt>
<trkpt lat="34.51244" lon="135.46912916666668">
<ele>20</ele>
</trkpt>
<trkpt lat="34.51244" lon="135.46912916666668">
<ele>20</ele>
</trkpt>
<trkpt lat="34.512161666666664" lon="135.46944">
<ele>20</ele>
</trkpt>
<trkpt lat="34.512161666666664" lon="135.46944">
<ele>20</ele>
</trkpt>
<trkpt lat="34.51182166666667" lon="135.46973472222223">
<ele>20</ele>
</trkpt>
<trkpt lat="34.51182166666667" lon="135.46973472222223">
<ele>20</ele>
</trkpt>
<trkpt lat="34.51145972222222" lon="135.46997583333334">
<ele>20</ele>
</trkpt>
<trkpt lat="34.51145972222222" lon="135.46997583333334">
<ele>20</ele>
</trkpt>
<trkpt lat="34.51148611111111" lon="135.4721675">
<ele>23</ele>
</trkpt>
<trkpt lat="34.51148611111111" lon="135.4721675">
<ele>23</ele>
</trkpt>
<trkpt lat="34.511132777777775" lon="135.47224777777777">
<ele>23</ele>
</trkpt>
<trkpt lat="34.511132777777775" lon="135.47224777777777">
<ele>23</ele>
</trkpt>
<trkpt lat="34.511026944444446" lon="135.46995444444445">
<ele>20</ele>
</trkpt>
<trkpt lat="34.511026944444446" lon="135.46995611111112">
<ele>20</ele>
</trkpt>
<trkpt lat="34.510823888888886" lon="135.47004694444445">
<ele>20</ele>
</trkpt>
<trkpt lat="34.509931944444446" lon="135.4702838888889">
<ele>20</ele>
</trkpt>
<trkpt lat="34.50983194444444" lon="135.47032194444444">
<ele>20</ele>
</trkpt>
<trkpt lat="34.50969888888889" lon="135.47034694444446">
<ele>21</ele>
</trkpt>
<trkpt lat="34.50953194444445" lon="135.4704088888889">
<ele>21</ele>
</trkpt>
<trkpt lat="34.50935888888889" lon="135.47048388888888">
<ele>21</ele>
</trkpt>
<trkpt lat="34.50935888888889" lon="135.47048388888888">
<ele>21</ele>
</trkpt>
<trkpt lat="34.50924111111111" lon="135.4705338888889">
<ele>21</ele>
</trkpt>
<trkpt lat="34.50889111111111" lon="135.4707338888889">
<ele>21</ele>
</trkpt>
<trkpt lat="34.50837388888889" lon="135.47109694444444">
<ele>22</ele>
</trkpt>
<trkpt lat="34.50810805555555" lon="135.47129694444445">
<ele>22</ele>
</trkpt>
<trkpt lat="34.50667388888889" lon="135.47237194444443">
<ele>23</ele>
</trkpt>
<trkpt lat="34.506478888888886" lon="135.47252694444444">
<ele>23</ele>
</trkpt>
<trkpt lat="34.506478888888886" lon="135.47252694444444">
<ele>23</ele>
</trkpt>
<trkpt lat="34.50584111111111" lon="135.4730338888889">
<ele>23</ele>
</trkpt>
<trkpt lat="34.505583055555554" lon="135.47327194444443">
<ele>24</ele>
</trkpt>
<trkpt lat="34.50552388888889" lon="135.47332194444445">
<ele>24</ele>
</trkpt>
<trkpt lat="34.50503305555556" lon="135.47379694444444">
<ele>24</ele>
</trkpt>
<trkpt lat="34.50484111111111" lon="135.47397194444446">
<ele>24</ele>
</trkpt>
<trkpt lat="34.50443305555556" lon="135.4742838888889">
<ele>24</ele>
</trkpt>
<trkpt lat="34.50429111111111" lon="135.4743838888889">
<ele>24</ele>
</trkpt>
<trkpt lat="34.50414111111111" lon="135.4744838888889">
<ele>25</ele>
</trkpt>
<trkpt lat="34.50403305555555" lon="135.47452194444443">
<ele>25</ele>
</trkpt>
<trkpt lat="34.50391111111111" lon="135.47452805555557">
<ele>25</ele>
</trkpt>
<trkpt lat="34.50391111111111" lon="135.47452805555557">
<ele>25</ele>
</trkpt>
<trkpt lat="34.5038" lon="135.47453388888889">
<ele>25</ele>
</trkpt>
<trkpt lat="34.50355805555556" lon="135.47443388888888">
<ele>25</ele>
</trkpt>
<trkpt lat="34.503275" lon="135.47423388888888">
<ele>25</ele>
</trkpt>
<trkpt lat="34.50315805555555" lon="135.4741588888889">
<ele>25</ele>
</trkpt>
<trkpt lat="34.502875" lon="135.47394694444444">
<ele>25</ele>
</trkpt>
<trkpt lat="34.502583055555554" lon="135.47377194444445">
<ele>26</ele>
</trkpt>
<trkpt lat="34.50241694444444" lon="135.4737338888889">
<ele>26</ele>
</trkpt>
<trkpt lat="34.50225805555556" lon="135.4737338888889">
<ele>26</ele>
</trkpt>
<trkpt lat="34.502116944444445" lon="135.47375888888888">
<ele>26</ele>
</trkpt>
<trkpt lat="34.50200805555556" lon="135.47379694444444">
<ele>26</ele>
</trkpt>
<trkpt lat="34.501733055555555" lon="135.47399694444445">
<ele>27</ele>
</trkpt>
<trkpt lat="34.5016" lon="135.47412194444445">
<ele>27</ele>
</trkpt>
<trkpt lat="34.50140805555556" lon="135.47434694444445">
<ele>27</ele>
</trkpt>
<trkpt lat="34.5012" lon="135.47468388888888">
<ele>27</ele>
</trkpt>
<trkpt lat="34.501075" lon="135.47482194444444">
<ele>27</ele>
</trkpt>
<trkpt lat="34.50105" lon="135.4748588888889">
<ele>27</ele>
</trkpt>
<trkpt lat="34.500975" lon="135.4750338888889">
<ele>27</ele>
</trkpt>
<trkpt lat="34.500816944444445" lon="135.47524694444445">
<ele>27</ele>
</trkpt>
<trkpt lat="34.500658888888886" lon="135.4754088888889">
<ele>27</ele>
</trkpt>
<trkpt lat="34.50058694444444" lon="135.47546805555555">
<ele>27</ele>
</trkpt>
<trkpt lat="34.50058694444444" lon="135.47546805555555">
<ele>27</ele>
</trkpt>
<trkpt lat="34.500566944444444" lon="135.4754838888889">
<ele>27</ele>
</trkpt>
<trkpt lat="34.500675" lon="135.4757338888889">
<ele>30</ele>
</trkpt>
<trkpt lat="34.50068888888889" lon="135.47576305555555">
<ele>30</ele>
</trkpt>
<trkpt lat="34.50068888888889" lon="135.47576305555555">
<ele>30</ele>
</trkpt>
<trkpt lat="34.500675" lon="135.4757338888889">
<ele>30</ele>
</trkpt>
<trkpt lat="34.50045" lon="135.47587194444444">
<ele>30</ele>
</trkpt>
<trkpt lat="34.50035" lon="135.47592194444445">
<ele>30</ele>
</trkpt>
<trkpt lat="34.500175" lon="135.4759838888889">
<ele>30</ele>
</trkpt>
<trkpt lat="34.499541944444445" lon="135.47614694444445">
<ele>30</ele>
</trkpt>
<trkpt lat="34.49896694444445" lon="135.4762838888889">
<ele>29</ele>
</trkpt>
<trkpt lat="34.49863388888889" lon="135.47637194444445">
<ele>29</ele>
</trkpt>
<trkpt lat="34.49835111111111" lon="135.47642194444444">
<ele>29</ele>
</trkpt>
<trkpt lat="34.49825" lon="135.47642194444444">
<ele>29</ele>
</trkpt>
<trkpt lat="34.49825" lon="135.47642194444444">
<ele>29</ele>
</trkpt>
<trkpt lat="34.498176111111114" lon="135.47642194444444">
<ele>29</ele>
</trkpt>
<trkpt lat="34.498041944444445" lon="135.47637194444445">
<ele>29</ele>
</trkpt>
<trkpt lat="34.49787611111111" lon="135.4762838888889">
<ele>29</ele>
</trkpt>
<trkpt lat="34.497751111111114" lon="135.47615888888888">
<ele>29</ele>
</trkpt>
<trkpt lat="34.49766694444445" lon="135.4760588888889">
<ele>29</ele>
</trkpt>
<trkpt lat="34.49755888888889" lon="135.47587194444444">
<ele>29</ele>
</trkpt>
<trkpt lat="34.49728388888889" lon="135.47529694444444">
<ele>29</ele>
</trkpt>
<trkpt lat="34.49718388888889" lon="135.47513388888888">
<ele>29</ele>
</trkpt>
<trkpt lat="34.496941944444444" lon="135.47487194444443">
<ele>29</ele>
</trkpt>
<trkpt lat="34.496716944444444" lon="135.47469694444445">
<ele>30</ele>
</trkpt>
<trkpt lat="34.49644194444444" lon="135.47449694444444">
<ele>38</ele>
</trkpt>
<trkpt lat="34.49613388888889" lon="135.4743588888889">
<ele>38</ele>
</trkpt>
<trkpt lat="34.49601694444444" lon="135.47433388888888">
<ele>37</ele>
</trkpt>
<trkpt lat="34.49581694444444" lon="135.47424694444445">
<ele>34</ele>
</trkpt>
<trkpt lat="34.495691111111114" lon="135.47420888888888">
<ele>33</ele>
</trkpt>
<trkpt lat="34.495691111111114" lon="135.47420888888888">
<ele>33</ele>
</trkpt>
<trkpt lat="34.4958975" lon="135.47486833333335">
<ele>39</ele>
</trkpt>
<trkpt lat="34.4958975" lon="135.47486833333335">
<ele>39</ele>
</trkpt>
<trkpt lat="34.49548222222222" lon="135.47512">
<ele>35</ele>
</trkpt>
<trkpt lat="34.49548222222222" lon="135.47512">
<ele>35</ele>
</trkpt>
<trkpt lat="34.49521277777778" lon="135.47528083333333">
<ele>32</ele>
</trkpt>
<trkpt lat="34.49521277777778" lon="135.47528083333333">
<ele>32</ele>
</trkpt>
<trkpt lat="34.49461222222222" lon="135.47357666666667">
<ele>33</ele>
</trkpt>
<trkpt lat="34.49461222222222" lon="135.47357666666667">
<ele>33</ele>
</trkpt>
<trkpt lat="34.49334527777778" lon="135.474295">
<ele>33</ele>
</trkpt>
<trkpt lat="34.493296944444445" lon="135.4743">
<ele>34</ele>
</trkpt>
<trkpt lat="34.49330111111111" lon="135.4743588888889">
<ele>34</ele>
</trkpt>
<trkpt lat="34.49320888888889" lon="135.47464694444446">
<ele>34</ele>
</trkpt>
<trkpt lat="34.49310888888889" lon="135.47488388888888">
<ele>34</ele>
</trkpt>
<trkpt lat="34.49270888888889" lon="135.47580888888888">
<ele>33</ele>
</trkpt>
<trkpt lat="34.49261805555555" lon="135.47597194444444">
<ele>33</ele>
</trkpt>
<trkpt lat="34.492423055555555" lon="135.47622805555557">
<ele>33</ele>
</trkpt>
<trkpt lat="34.492423055555555" lon="135.47622805555557">
<ele>33</ele>
</trkpt>
<trkpt lat="34.49220888888889" lon="135.4765088888889">
<ele>33</ele>
</trkpt>
<trkpt lat="34.49217888888889" lon="135.47653805555555">
<ele>33</ele>
</trkpt>
<trkpt lat="34.49217888888889" lon="135.47653805555555">
<ele>33</ele>
</trkpt>
<trkpt lat="34.49220888888889" lon="135.4765088888889">
<ele>33</ele>
</trkpt>
<trkpt lat="34.49160111111111" lon="135.47645888888889">
<ele>35</ele>
</trkpt>
<trkpt lat="34.491368055555554" lon="135.47644694444443">
<ele>36</ele>
</trkpt>
<trkpt lat="34.49126" lon="135.47644694444443">
<ele>36</ele>
</trkpt>
<trkpt lat="34.491036111111114" lon="135.4764361111111">
<ele>37</ele>
</trkpt>
<trkpt lat="34.491036111111114" lon="135.4764361111111">
<ele>37</ele>
</trkpt>
<trkpt lat="34.490993055555556" lon="135.4764338888889">
<ele>37</ele>
</trkpt>
<trkpt lat="34.49086805555555" lon="135.47645888888889">
<ele>37</ele>
</trkpt>
<trkpt lat="34.49076" lon="135.4765338888889">
<ele>37</ele>
</trkpt>
<trkpt lat="34.49065111111111" lon="135.47667194444443">
<ele>37</ele>
</trkpt>
<trkpt lat="34.49050111111111" lon="135.47689694444443">
<ele>37</ele>
</trkpt>
<trkpt lat="34.490205" lon="135.4773661111111">
<ele>37</ele>
</trkpt>
<trkpt lat="34.490205" lon="135.4773661111111">
<ele>37</ele>
</trkpt>
<trkpt lat="34.49062888888889" lon="135.47778888888888">
<ele>34</ele>
</trkpt>
<trkpt lat="34.49062888888889" lon="135.47778888888888">
<ele>34</ele>
</trkpt>
<trkpt lat="34.49019555555556" lon="135.47854972222223">
<ele>34</ele>
</trkpt>
<trkpt lat="34.49019555555556" lon="135.47854972222223">
<ele>34</ele>
</trkpt>
<trkpt lat="34.49008944444444" lon="135.4788336111111">
<ele>34</ele>
</trkpt>
<trkpt lat="34.49008944444444" lon="135.4788336111111">
<ele>34</ele>
</trkpt>
<trkpt lat="34.489890833333334" lon="135.47954638888888">
<ele>35</ele>
</trkpt>
<trkpt lat="34.489890833333334" lon="135.47954638888888">
<ele>35</ele>
</trkpt>
<trkpt lat="34.489780277777776" lon="135.4799911111111">
<ele>36</ele>
</trkpt>
<trkpt lat="34.489780277777776" lon="135.4799911111111">
<ele>36</ele>
</trkpt>
<trkpt lat="34.48969638888889" lon="135.48028583333334">
<ele>37</ele>
</trkpt>
<trkpt lat="34.48969638888889" lon="135.48028583333334">
<ele>37</ele>
</trkpt>
<trkpt lat="34.48969638888889" lon="135.48059666666666">
<ele>37</ele>
</trkpt>
<trkpt lat="34.48969638888889" lon="135.48059666666666">
<ele>37</ele>
</trkpt>
<trkpt lat="34.48972305555556" lon="135.48097194444443">
<ele>36</ele>
</trkpt>
<trkpt lat="34.48972305555556" lon="135.48097194444443">
<ele>36</ele>
</trkpt>
<trkpt lat="34.48981138888889" lon="135.48145416666668">
<ele>36</ele>
</trkpt>
<trkpt lat="34.48981138888889" lon="135.48145416666668">
<ele>36</ele>
</trkpt>
<trkpt lat="34.48983777777778" lon="135.48175944444444">
<ele>36</ele>
</trkpt>
<trkpt lat="34.48983777777778" lon="135.48175944444444">
<ele>36</ele>
</trkpt>
<trkpt lat="34.48977583333333" lon="135.4821025">
<ele>36</ele>
</trkpt>
<trkpt lat="34.48977583333333" lon="135.4821025">
<ele>36</ele>
</trkpt>
<trkpt lat="34.48959055555556" lon="135.4826438888889">
<ele>36</ele>
</trkpt>
<trkpt lat="34.48959055555556" lon="135.4826438888889">
<ele>36</ele>
</trkpt>
<trkpt lat="34.489378333333335" lon="135.4830188888889">
<ele>36</ele>
</trkpt>
<trkpt lat="34.489378333333335" lon="135.4830188888889">
<ele>36</ele>
</trkpt>
<trkpt lat="34.48910027777778" lon="135.48339388888888">
<ele>36</ele>
</trkpt>
<trkpt lat="34.48910027777778" lon="135.48339388888888">
<ele>36</ele>
</trkpt>
<trkpt lat="34.48925472222222" lon="135.48362444444444">
<ele>37</ele>
</trkpt>
<trkpt lat="34.489246111111115" lon="135.48360694444443">
<ele>37</ele>
</trkpt>
<trkpt lat="34.48882694444445" lon="135.48393388888888">
<ele>37</ele>
</trkpt>
<trkpt lat="34.48861" lon="135.48407111111112">
<ele>37</ele>
</trkpt>
<trkpt lat="34.48834305555555" lon="135.4842088888889">
<ele>37</ele>
</trkpt>
<trkpt lat="34.48805194444444" lon="135.4842588888889">
<ele>37</ele>
</trkpt>
<trkpt lat="34.48773111111111" lon="135.4842911111111">
<ele>37</ele>
</trkpt>
<trkpt lat="34.48773111111111" lon="135.4842911111111">
<ele>37</ele>
</trkpt>
<trkpt lat="34.487676944444445" lon="135.48429611111112">
<ele>37</ele>
</trkpt>
<trkpt lat="34.48731" lon="135.4842211111111">
<ele>37</ele>
</trkpt>
<trkpt lat="34.48676" lon="135.4841088888889">
<ele>37</ele>
</trkpt>
<trkpt lat="34.486626944444446" lon="135.4840961111111">
<ele>37</ele>
</trkpt>
<trkpt lat="34.48647694444445" lon="135.48408388888888">
<ele>37</ele>
</trkpt>
<trkpt lat="34.48632888888889" lon="135.48410694444445">
<ele>37</ele>
</trkpt>
<trkpt lat="34.48632888888889" lon="135.48410694444445">
<ele>37</ele>
</trkpt>
<trkpt lat="34.48631888888889" lon="135.4841088888889">
<ele>38</ele>
</trkpt>
<trkpt lat="34.48622694444445" lon="135.48415888888889">
<ele>38</ele>
</trkpt>
<trkpt lat="34.486151944444444" lon="135.4842088888889">
<ele>38</ele>
</trkpt>
<trkpt lat="34.486018888888886" lon="135.4843588888889">
<ele>39</ele>
</trkpt>
<trkpt lat="34.485751944444445" lon="135.4848338888889">
<ele>40</ele>
</trkpt>
<trkpt lat="34.48567694444444" lon="135.4849461111111">
<ele>40</ele>
</trkpt>
<trkpt lat="34.48561" lon="135.4850088888889">
<ele>40</ele>
</trkpt>
<trkpt lat="34.48546888888889" lon="135.4851088888889">
<ele>40</ele>
</trkpt>
<trkpt lat="34.48538805555555" lon="135.48516305555555">
<ele>40</ele>
</trkpt>
<trkpt lat="34.48538805555555" lon="135.48516305555555">
<ele>40</ele>
</trkpt>
<trkpt lat="34.48537694444445" lon="135.4851711111111">
<ele>40</ele>
</trkpt>
<trkpt lat="34.485235" lon="135.48520888888888">
<ele>40</ele>
</trkpt>
<trkpt lat="34.48493611111111" lon="135.4852461111111">
<ele>40</ele>
</trkpt>
<trkpt lat="34.48484388888889" lon="135.4852588888889">
<ele>40</ele>
</trkpt>
<trkpt lat="34.484451944444444" lon="135.4851588888889">
<ele>40</ele>
</trkpt>
<trkpt lat="34.48412694444445" lon="135.48507111111113">
<ele>39</ele>
</trkpt>
<trkpt lat="34.48379388888889" lon="135.4849561111111">
<ele>39</ele>
</trkpt>
<trkpt lat="34.48379388888889" lon="135.4849561111111">
<ele>39</ele>
</trkpt>
<trkpt lat="34.48347694444445" lon="135.48484611111112">
<ele>39</ele>
</trkpt>
<trkpt lat="34.48331888888889" lon="135.4848088888889">
<ele>39</ele>
</trkpt>
<trkpt lat="34.48303611111111" lon="135.4847961111111">
<ele>39</ele>
</trkpt>
<trkpt lat="34.48280194444445" lon="135.48484611111112">
<ele>39</ele>
</trkpt>
<trkpt lat="34.48264388888889" lon="135.4848961111111">
<ele>39</ele>
</trkpt>
<trkpt lat="34.482576944444446" lon="135.4849211111111">
<ele>39</ele>
</trkpt>
<trkpt lat="34.482481944444444" lon="135.4849761111111">
<ele>39</ele>
</trkpt>
<trkpt lat="34.482481944444444" lon="135.4849761111111">
<ele>39</ele>
</trkpt>
<trkpt lat="34.48240194444445" lon="135.4850211111111">
<ele>40</ele>
</trkpt>
<trkpt lat="34.482261111111114" lon="135.4851338888889">
<ele>40</ele>
</trkpt>
<trkpt lat="34.48209388888889" lon="135.48530888888888">
<ele>40</ele>
</trkpt>
<trkpt lat="34.48199694444445" lon="135.485435">
<ele>40</ele>
</trkpt>
<trkpt lat="34.48199694444445" lon="135.485435">
<ele>40</ele>
</trkpt>
<trkpt lat="34.48152555555556" lon="135.4860197222222">
<ele>41</ele>
</trkpt>
<trkpt lat="34.48153388888889" lon="135.48603">
<ele>41</ele>
</trkpt>
<trkpt lat="34.48146111111111" lon="135.48612111111112">
<ele>42</ele>
</trkpt>
<trkpt lat="34.48132694444445" lon="135.48623305555554">
<ele>42</ele>
</trkpt>
<trkpt lat="34.481301944444446" lon="135.48624611111111">
<ele>42</ele>
</trkpt>
<trkpt lat="34.48116888888889" lon="135.4862961111111">
<ele>42</ele>
</trkpt>
<trkpt lat="34.48108611111111" lon="135.48632111111112">
<ele>41</ele>
</trkpt>
<trkpt lat="34.48096888888889" lon="135.48633305555555">
<ele>42</ele>
</trkpt>
<trkpt lat="34.480426944444446" lon="135.48634611111112">
<ele>42</ele>
</trkpt>
<trkpt lat="34.48026888888889" lon="135.4863711111111">
<ele>42</ele>
</trkpt>
<trkpt lat="34.48025694444444" lon="135.4863761111111">
<ele>42</ele>
</trkpt>
<trkpt lat="34.48025694444444" lon="135.4863761111111">
<ele>42</ele>
</trkpt>
<trkpt lat="34.48013611111111" lon="135.4864211111111">
<ele>42</ele>
</trkpt>
<trkpt lat="34.479753055555555" lon="135.48657111111112">
<ele>43</ele>
</trkpt>
<trkpt lat="34.47961111111111" lon="135.48663305555556">
<ele>43</ele>
</trkpt>
<trkpt lat="34.47931888888889" lon="135.4867211111111">
<ele>43</ele>
</trkpt>
<trkpt lat="34.47923611111111" lon="135.48675805555555">
<ele>43</ele>
</trkpt>
<trkpt lat="34.47917805555556" lon="135.48680805555554">
<ele>43</ele>
</trkpt>
<trkpt lat="34.479036111111114" lon="135.48692111111112">
<ele>43</ele>
</trkpt>
<trkpt lat="34.47895305555556" lon="135.4870461111111">
<ele>43</ele>
</trkpt>
<trkpt lat="34.47878611111111" lon="135.48733305555555">
<ele>44</ele>
</trkpt>
<trkpt lat="34.47869388888889" lon="135.48743305555556">
<ele>43</ele>
</trkpt>
<trkpt lat="34.478411111111114" lon="135.48763305555556">
<ele>44</ele>
</trkpt>
<trkpt lat="34.47776805555556" lon="135.4880738888889">
<ele>44</ele>
</trkpt>
<trkpt lat="34.47776805555556" lon="135.4880738888889">
<ele>44</ele>
</trkpt>
<trkpt lat="34.47773611111111" lon="135.4880961111111">
<ele>44</ele>
</trkpt>
<trkpt lat="34.477428055555556" lon="135.48830805555556">
<ele>45</ele>
</trkpt>
<trkpt lat="34.47731111111111" lon="135.48840805555557">
<ele>45</ele>
</trkpt>
<trkpt lat="34.47712" lon="135.48858305555555">
<ele>47</ele>
</trkpt>
<trkpt lat="34.47706111111111" lon="135.48863305555557">
<ele>46</ele>
</trkpt>
<trkpt lat="34.47698611111111" lon="135.48873305555554">
<ele>46</ele>
</trkpt>
<trkpt lat="34.476953055555555" lon="135.48880805555555">
<ele>47</ele>
</trkpt>
<trkpt lat="34.47687805555555" lon="135.48907111111112">
<ele>47</ele>
</trkpt>
<trkpt lat="34.47682" lon="135.48927111111112">
<ele>47</ele>
</trkpt>
<trkpt lat="34.47673611111111" lon="135.4894461111111">
<ele>48</ele>
</trkpt>
<trkpt lat="34.47666111111111" lon="135.4895711111111">
<ele>49</ele>
</trkpt>
<trkpt lat="34.47661111111111" lon="135.4896461111111">
<ele>49</ele>
</trkpt>
<trkpt lat="34.476486111111114" lon="135.48973305555555">
<ele>50</ele>
</trkpt>
<trkpt lat="34.47643611111111" lon="135.4897711111111">
<ele>49</ele>
</trkpt>
<trkpt lat="34.476261111111114" lon="135.4897961111111">
<ele>50</ele>
</trkpt>
<trkpt lat="34.47608611111111" lon="135.4897961111111">
<ele>49</ele>
</trkpt>
<trkpt lat="34.47600305555556" lon="135.48978305555556">
<ele>49</ele>
</trkpt>
<trkpt lat="34.47587" lon="135.48975805555557">
<ele>47</ele>
</trkpt>
<trkpt lat="34.47577" lon="135.48970805555555">
<ele>47</ele>
</trkpt>
<trkpt lat="34.47566194444445" lon="135.48962111111112">
<ele>47</ele>
</trkpt>
<trkpt lat="34.47546194444445" lon="135.48943305555557">
<ele>47</ele>
</trkpt>
<trkpt lat="34.47532805555556" lon="135.4893211111111">
<ele>47</ele>
</trkpt>
<trkpt lat="34.47522" lon="135.48927111111112">
<ele>48</ele>
</trkpt>
<trkpt lat="34.47518" lon="135.4892538888889">
<ele>47</ele>
</trkpt>
<trkpt lat="34.47518" lon="135.4892538888889">
<ele>47</ele>
</trkpt>
<trkpt lat="34.47510305555556" lon="135.4892211111111">
<ele>47</ele>
</trkpt>
<trkpt lat="34.474961944444445" lon="135.4891961111111">
<ele>48</ele>
</trkpt>
<trkpt lat="34.474761944444445" lon="135.4891961111111">
<ele>48</ele>
</trkpt>
<trkpt lat="34.474545" lon="135.48920805555557">
<ele>47</ele>
</trkpt>
<trkpt lat="34.474428055555556" lon="135.48923305555556">
<ele>48</ele>
</trkpt>
<trkpt lat="34.47422" lon="135.48929611111112">
<ele>48</ele>
</trkpt>
<trkpt lat="34.47401194444444" lon="135.48938305555555">
<ele>48</ele>
</trkpt>
<trkpt lat="34.473936944444446" lon="135.4894211111111">
<ele>48</ele>
</trkpt>
<trkpt lat="34.473445" lon="135.48965805555557">
<ele>48</ele>
</trkpt>
<trkpt lat="34.47312888888889" lon="135.4898211111111">
<ele>49</ele>
</trkpt>
<trkpt lat="34.47305388888889" lon="135.4898711111111">
<ele>49</ele>
</trkpt>
<trkpt lat="34.47295888888889" lon="135.489965">
<ele>49</ele>
</trkpt>
<trkpt lat="34.47295888888889" lon="135.489965">
<ele>49</ele>
</trkpt>
<trkpt lat="34.47292888888889" lon="135.4899961111111">
<ele>49</ele>
</trkpt>
<trkpt lat="34.47287" lon="135.49010805555557">
<ele>49</ele>
</trkpt>
<trkpt lat="34.472795" lon="135.49035805555556">
<ele>49</ele>
</trkpt>
<trkpt lat="34.47262888888889" lon="135.49090805555556">
<ele>50</ele>
</trkpt>
<trkpt lat="34.47257888888889" lon="135.4910711111111">
<ele>51</ele>
</trkpt>
<trkpt lat="34.47250388888889" lon="135.49120805555555">
<ele>50</ele>
</trkpt>
<trkpt lat="34.472395" lon="135.49133305555554">
<ele>50</ele>
</trkpt>
<trkpt lat="34.47232" lon="135.49142111111112">
<ele>50</ele>
</trkpt>
<trkpt lat="34.47202" lon="135.4917211111111">
<ele>53</ele>
</trkpt>
<trkpt lat="34.471896111111114" lon="135.491845">
<ele>54</ele>
</trkpt>
<trkpt lat="34.471896111111114" lon="135.491845">
<ele>54</ele>
</trkpt>
<trkpt lat="34.47182" lon="135.4919211111111">
<ele>54</ele>
</trkpt>
<trkpt lat="34.47167" lon="135.49200805555554">
<ele>54</ele>
</trkpt>
<trkpt lat="34.47161194444445" lon="135.49202111111111">
<ele>53</ele>
</trkpt>
<trkpt lat="34.471511944444444" lon="135.49202111111111">
<ele>53</ele>
</trkpt>
<trkpt lat="34.47143694444444" lon="135.49202111111111">
<ele>53</ele>
</trkpt>
<trkpt lat="34.47125388888889" lon="135.49193305555556">
<ele>53</ele>
</trkpt>
<trkpt lat="34.471178888888886" lon="135.49185805555555">
<ele>53</ele>
</trkpt>
<trkpt lat="34.47090388888889" lon="135.4915211111111">
<ele>53</ele>
</trkpt>
<trkpt lat="34.470861944444444" lon="135.49145805555557">
<ele>53</ele>
</trkpt>
<trkpt lat="34.47076194444445" lon="135.4912961111111">
<ele>53</ele>
</trkpt>
<trkpt lat="34.47072111111111" lon="135.49125805555556">
<ele>53</ele>
</trkpt>
<trkpt lat="34.47064611111111" lon="135.4912461111111">
<ele>53</ele>
</trkpt>
<trkpt lat="34.47027888888889" lon="135.49128694444445">
<ele>54</ele>
</trkpt>
<trkpt lat="34.47027888888889" lon="135.49128694444445">
<ele>54</ele>
</trkpt>
<trkpt lat="34.47020388888889" lon="135.4912961111111">
<ele>54</ele>
</trkpt>
<trkpt lat="34.470103888888886" lon="135.49130805555555">
<ele>54</ele>
</trkpt>
<trkpt lat="34.46957888888889" lon="135.4913711111111">
<ele>55</ele>
</trkpt>
<trkpt lat="34.46920388888889" lon="135.49142111111112">
<ele>55</ele>
</trkpt>
<trkpt lat="34.46888694444444" lon="135.49148305555556">
<ele>55</ele>
</trkpt>
<trkpt lat="34.46882111111111" lon="135.4915211111111">
<ele>55</ele>
</trkpt>
<trkpt lat="34.46868805555555" lon="135.4915961111111">
<ele>56</ele>
</trkpt>
<trkpt lat="34.468536944444445" lon="135.49170805555556">
<ele>56</ele>
</trkpt>
<trkpt lat="34.46842888888889" lon="135.49180805555557">
<ele>56</ele>
</trkpt>
<trkpt lat="34.468178055555555" lon="135.49210805555555">
<ele>57</ele>
</trkpt>
<trkpt lat="34.468176944444444" lon="135.49210805555555">
<ele>57</ele>
</trkpt>
<trkpt lat="34.467863055555554" lon="135.49248305555557">
<ele>57</ele>
</trkpt>
<trkpt lat="34.467661944444444" lon="135.4926461111111">
<ele>58</ele>
</trkpt>
<trkpt lat="34.46755388888889" lon="135.49270805555557">
<ele>58</ele>
</trkpt>
<trkpt lat="34.467171944444445" lon="135.4928438888889">
<ele>58</ele>
</trkpt>
<trkpt lat="34.467171944444445" lon="135.4928438888889">
<ele>58</ele>
</trkpt>
<trkpt lat="34.46680777777778" lon="135.49293777777777">
<ele>58</ele>
</trkpt>
<trkpt lat="34.466811944444444" lon="135.49295305555555">
<ele>59</ele>
</trkpt>
<trkpt lat="34.46669611111111" lon="135.4929961111111">
<ele>59</ele>
</trkpt>
<trkpt lat="34.466636944444446" lon="135.49302111111112">
<ele>59</ele>
</trkpt>
<trkpt lat="34.46651305555555" lon="135.49310805555555">
<ele>59</ele>
</trkpt>
<trkpt lat="34.46631305555555" lon="135.49324611111112">
<ele>59</ele>
</trkpt>
<trkpt lat="34.465918888888886" lon="135.4935461111111">
<ele>60</ele>
</trkpt>
<trkpt lat="34.465918888888886" lon="135.4935461111111">
<ele>60</ele>
</trkpt>
<trkpt lat="34.46587111111111" lon="135.49358305555555">
<ele>60</ele>
</trkpt>
<trkpt lat="34.46608805555555" lon="135.49475805555556">
<ele>65</ele>
</trkpt>
<trkpt lat="34.466213055555556" lon="135.495345">
<ele>72</ele>
</trkpt>
<trkpt lat="34.46624611111111" lon="135.49545805555556">
<ele>74</ele>
</trkpt>
<trkpt lat="34.46642111111111" lon="135.49645805555556">
<ele>75</ele>
</trkpt>
<trkpt lat="34.46648805555556" lon="135.49682">
<ele>74</ele>
</trkpt>
<trkpt lat="34.466563055555554" lon="135.497195">
<ele>76</ele>
</trkpt>
<trkpt lat="34.466638055555556" lon="135.497595">
<ele>77</ele>
</trkpt>
<trkpt lat="34.46665388888889" lon="135.49767">
<ele>77</ele>
</trkpt>
<trkpt lat="34.46675388888889" lon="135.49815694444445">
<ele>78</ele>
</trkpt>
<trkpt lat="34.46687111111111" lon="135.498545">
<ele>79</ele>
</trkpt>
<trkpt lat="34.46712111111111" lon="135.49925694444445">
<ele>78</ele>
</trkpt>
<trkpt lat="34.467303888888885" lon="135.499645">
<ele>79</ele>
</trkpt>
<trkpt lat="34.467373055555555" lon="135.49960388888888">
<ele>79</ele>
</trkpt>
<trkpt lat="34.467373055555555" lon="135.49960388888888">
<ele>79</ele>
</trkpt>
<trkpt lat="34.46753694444445" lon="135.49950694444445">
<ele>79</ele>
</trkpt>
<trkpt lat="34.46761305555555" lon="135.49947">
<ele>79</ele>
</trkpt>
<trkpt lat="34.468136944444446" lon="135.49938194444445">
<ele>78</ele>
</trkpt>
<trkpt lat="34.46822111111111" lon="135.49933194444444">
<ele>78</ele>
</trkpt>
<trkpt lat="34.468403888888886" lon="135.49913305555555">
<ele>78</ele>
</trkpt>
<trkpt lat="34.468536944444445" lon="135.49900805555555">
<ele>78</ele>
</trkpt>
<trkpt lat="34.46862111111111" lon="135.49897">
<ele>78</ele>
</trkpt>
<trkpt lat="34.468803888888885" lon="135.49892">
<ele>77</ele>
</trkpt>
<trkpt lat="34.46899611111111" lon="135.49888305555555">
<ele>77</ele>
</trkpt>
<trkpt lat="34.46905388888889" lon="135.49887">
<ele>77</ele>
</trkpt>
<trkpt lat="34.46917888888889" lon="135.49882">
<ele>77</ele>
</trkpt>
<trkpt lat="34.469186111111114" lon="135.49881888888888">
<ele>77</ele>
</trkpt>
<trkpt lat="34.469186111111114" lon="135.49881805555555">
<ele>77</ele>
</trkpt>
<trkpt lat="34.46917888888889" lon="135.49882">
<ele>77</ele>
</trkpt>
<trkpt lat="34.46920388888889" lon="135.49907">
<ele>76</ele>
</trkpt>
<trkpt lat="34.469253888888886" lon="135.49942">
<ele>75</ele>
</trkpt>
<trkpt lat="34.46931305555555" lon="135.499695">
<ele>75</ele>
</trkpt>
<trkpt lat="34.46940388888889" lon="135.499995">
<ele>75</ele>
</trkpt>
<trkpt lat="34.46952111111111" lon="135.500245">
<ele>74</ele>
</trkpt>
<trkpt lat="34.46977" lon="135.50066611111112">
<ele>71</ele>
</trkpt>
<trkpt lat="34.46977" lon="135.50066611111112">
<ele>71</ele>
</trkpt>
<trkpt lat="34.469786944444444" lon="135.500695">
<ele>71</ele>
</trkpt>
<trkpt lat="34.469786944444444" lon="135.500695">
<ele>71</ele>
</trkpt>
<trkpt lat="34.469836666666666" lon="135.50077777777778">
<ele>71</ele>
</trkpt>
<trkpt lat="34.469836666666666" lon="135.50077777777778">
<ele>70</ele>
</trkpt>
<trkpt lat="34.470151944444446" lon="135.5004911111111">
<ele>70</ele>
</trkpt>
<trkpt lat="34.470151944444446" lon="135.5004911111111">
<ele>70</ele>
</trkpt>
<trkpt lat="34.470390555555554" lon="135.49983194444445">
<ele>72</ele>
</trkpt>
<trkpt lat="34.470390555555554" lon="135.49983194444445">
<ele>72</ele>
</trkpt>
<trkpt lat="34.47052083333333" lon="135.4997275">
<ele>73</ele>
</trkpt>
<trkpt lat="34.47052083333333" lon="135.4997275">
<ele>73</ele>
</trkpt>
<trkpt lat="34.47078166666667" lon="135.49972222222223">
<ele>72</ele>
</trkpt>
<trkpt lat="34.47078166666667" lon="135.49972222222223">
<ele>72</ele>
</trkpt>
<trkpt lat="34.4711725" lon="135.49995777777778">
<ele>73</ele>
</trkpt>
<trkpt lat="34.4711725" lon="135.49995777777778">
<ele>73</ele>
</trkpt>
<trkpt lat="34.4714575" lon="135.5000488888889">
<ele>73</ele>
</trkpt>
<trkpt lat="34.4714575" lon="135.5000488888889">
<ele>73</ele>
</trkpt>
<trkpt lat="34.47177111111111" lon="135.50001416666666">
<ele>72</ele>
</trkpt>
<trkpt lat="34.47177111111111" lon="135.50001416666666">
<ele>72</ele>
</trkpt>
<trkpt lat="34.47204277777778" lon="135.49986416666667">
<ele>73</ele>
</trkpt>
<trkpt lat="34.47204277777778" lon="135.49986416666667">
<ele>73</ele>
</trkpt>
<trkpt lat="34.4722725" lon="135.49962833333333">
<ele>74</ele>
</trkpt>
<trkpt lat="34.4722725" lon="135.49962833333333">
<ele>74</ele>
</trkpt>
<trkpt lat="34.472478055555555" lon="135.4992263888889">
<ele>77</ele>
</trkpt>
<trkpt lat="34.472478055555555" lon="135.4992263888889">
<ele>77</ele>
</trkpt>
<trkpt lat="34.472944166666665" lon="135.49922388888888">
<ele>77</ele>
</trkpt>
<trkpt lat="34.472944166666665" lon="135.49922388888888">
<ele>77</ele>
</trkpt>
<trkpt lat="34.47333944444444" lon="135.4990977777778">
<ele>76</ele>
</trkpt>
<trkpt lat="34.47333944444444" lon="135.4990977777778">
<ele>76</ele>
</trkpt>
<trkpt lat="34.473695" lon="135.49908722222222">
<ele>77</ele>
</trkpt>
<trkpt lat="34.473695" lon="135.49908722222222">
<ele>77</ele>
</trkpt>
<trkpt lat="34.47399111111111" lon="135.4990925">
<ele>77</ele>
</trkpt>
<trkpt lat="34.47399111111111" lon="135.4990925">
<ele>77</ele>
</trkpt>
<trkpt lat="34.47439972222222" lon="135.49887555555554">
<ele>75</ele>
</trkpt>
<trkpt lat="34.47439972222222" lon="135.49887555555554">
<ele>75</ele>
</trkpt>
<trkpt lat="34.47445277777778" lon="135.49867972222222">
<ele>75</ele>
</trkpt>
<trkpt lat="34.47445277777778" lon="135.49867972222222">
<ele>75</ele>
</trkpt>
<trkpt lat="34.474357777777776" lon="135.498385">
<ele>75</ele>
</trkpt>
<trkpt lat="34.474357777777776" lon="135.498385">
<ele>75</ele>
</trkpt>
<trkpt lat="34.474375277777774" lon="135.4982672222222">
<ele>75</ele>
</trkpt>
<trkpt lat="34.474375277777774" lon="135.4982672222222">
<ele>75</ele>
</trkpt>
<trkpt lat="34.47468472222222" lon="135.4974125">
<ele>77</ele>
</trkpt>
<trkpt lat="34.47468472222222" lon="135.4974125">
<ele>77</ele>
</trkpt>
<trkpt lat="34.47490777777778" lon="135.49643722222223">
<ele>82</ele>
</trkpt>
<trkpt lat="34.47490777777778" lon="135.49643722222223">
<ele>82</ele>
</trkpt>
<trkpt lat="34.475002777777775" lon="135.49617722222223">
<ele>83</ele>
</trkpt>
<trkpt lat="34.475002777777775" lon="135.49617722222223">
<ele>83</ele>
</trkpt>
<trkpt lat="34.47526333333333" lon="135.49590416666666">
<ele>83</ele>
</trkpt>
<trkpt lat="34.47526333333333" lon="135.49590416666666">
<ele>83</ele>
</trkpt>
<trkpt lat="34.47555916666666" lon="135.4954297222222">
<ele>83</ele>
</trkpt>
<trkpt lat="34.47555916666666" lon="135.4954297222222">
<ele>83</ele>
</trkpt>
<trkpt lat="34.475809166666664" lon="135.49494222222222">
<ele>81</ele>
</trkpt>
<trkpt lat="34.475809166666664" lon="135.49494222222222">
<ele>81</ele>
</trkpt>
<trkpt lat="34.476056388888885" lon="135.4947547222222">
<ele>81</ele>
</trkpt>
<trkpt lat="34.476056388888885" lon="135.4947547222222">
<ele>81</ele>
</trkpt>
<trkpt lat="34.476036111111114" lon="135.49467694444445">
<ele>81</ele>
</trkpt>
<trkpt lat="34.476036111111114" lon="135.49467694444445">
<ele>81</ele>
</trkpt>
<trkpt lat="34.47705472222222" lon="135.49396694444445">
<ele>80</ele>
</trkpt>
<trkpt lat="34.47705472222222" lon="135.49396694444445">
<ele>80</ele>
</trkpt>
<trkpt lat="34.47747666666667" lon="135.49408194444445">
<ele>78</ele>
</trkpt>
<trkpt lat="34.47747666666667" lon="135.49408194444445">
<ele>78</ele>
</trkpt>
<trkpt lat="34.47803777777778" lon="135.49370694444445">
<ele>78</ele>
</trkpt>
<trkpt lat="34.47803777777778" lon="135.49370694444445">
<ele>78</ele>
</trkpt>
<trkpt lat="34.47855" lon="135.4935622222222">
<ele>76</ele>
</trkpt>
<trkpt lat="34.47855" lon="135.4935622222222">
<ele>76</ele>
</trkpt>
<trkpt lat="34.47886583333333" lon="135.493565">
<ele>74</ele>
</trkpt>
<trkpt lat="34.47886583333333" lon="135.493565">
<ele>74</ele>
</trkpt>
<trkpt lat="34.47920166666667" lon="135.4933263888889">
<ele>78</ele>
</trkpt>
<trkpt lat="34.47920166666667" lon="135.4933263888889">
<ele>78</ele>
</trkpt>
<trkpt lat="34.47996805555555" lon="135.49346583333335">
<ele>74</ele>
</trkpt>
<trkpt lat="34.47996805555555" lon="135.49346583333335">
<ele>74</ele>
</trkpt>
<trkpt lat="34.48026611111111" lon="135.49350611111112">
<ele>74</ele>
</trkpt>
<trkpt lat="34.48026611111111" lon="135.49350611111112">
<ele>74</ele>
</trkpt>
<trkpt lat="34.48068361111111" lon="135.49331027777777">
<ele>75</ele>
</trkpt>
<trkpt lat="34.48068361111111" lon="135.49331027777777">
<ele>75</ele>
</trkpt>
<trkpt lat="34.481205" lon="135.4932488888889">
<ele>78</ele>
</trkpt>
<trkpt lat="34.481205" lon="135.4932488888889">
<ele>78</ele>
</trkpt>
<trkpt lat="34.48209722222222" lon="135.49313361111112">
<ele>84</ele>
</trkpt>
<trkpt lat="34.48209722222222" lon="135.49313361111112">
<ele>84</ele>
</trkpt>
<trkpt lat="34.48291444444445" lon="135.4928175">
<ele>78</ele>
</trkpt>
<trkpt lat="34.48291444444445" lon="135.4928175">
<ele>78</ele>
</trkpt>
<trkpt lat="34.483159444444446" lon="135.49278805555556">
<ele>77</ele>
</trkpt>
<trkpt lat="34.483159444444446" lon="135.49278805555556">
<ele>77</ele>
</trkpt>
<trkpt lat="34.4833825" lon="135.4924825">
<ele>73</ele>
</trkpt>
<trkpt lat="34.4833825" lon="135.4924825">
<ele>73</ele>
</trkpt>
<trkpt lat="34.4838575" lon="135.4919438888889">
<ele>72</ele>
</trkpt>
<trkpt lat="34.4838575" lon="135.4919438888889">
<ele>72</ele>
</trkpt>
<trkpt lat="34.483959166666665" lon="135.4920402777778">
<ele>73</ele>
</trkpt>
<trkpt lat="34.483959166666665" lon="135.4920402777778">
<ele>73</ele>
</trkpt>
<trkpt lat="34.48406722222222" lon="135.4921075">
<ele>73</ele>
</trkpt>
<trkpt lat="34.48406722222222" lon="135.4921075">
<ele>73</ele>
</trkpt>
<trkpt lat="34.48424611111111" lon="135.49216638888888">
<ele>73</ele>
</trkpt>
<trkpt lat="34.48424611111111" lon="135.49216638888888">
<ele>73</ele>
</trkpt>
<trkpt lat="34.484409444444445" lon="135.4921422222222">
<ele>73</ele>
</trkpt>
<trkpt lat="34.484409444444445" lon="135.4921422222222">
<ele>73</ele>
</trkpt>
<trkpt lat="34.48495277777778" lon="135.49153666666666">
<ele>71</ele>
</trkpt>
<trkpt lat="34.48495277777778" lon="135.49153666666666">
<ele>71</ele>
</trkpt>
<trkpt lat="34.4864675" lon="135.48986194444444">
<ele>69</ele>
</trkpt>
<trkpt lat="34.4864675" lon="135.48986194444444">
<ele>69</ele>
</trkpt>
<trkpt lat="34.48668" lon="135.48965833333332">
<ele>69</ele>
</trkpt>
<trkpt lat="34.48668" lon="135.48965833333332">
<ele>69</ele>
</trkpt>
<trkpt lat="34.486779444444444" lon="135.4893663888889">
<ele>69</ele>
</trkpt>
<trkpt lat="34.486779444444444" lon="135.4893663888889">
<ele>69</ele>
</trkpt>
<trkpt lat="34.48692277777778" lon="135.489235">
<ele>68</ele>
</trkpt>
<trkpt lat="34.48692277777778" lon="135.489235">
<ele>68</ele>
</trkpt>
<trkpt lat="34.487430833333335" lon="135.48932888888888">
<ele>68</ele>
</trkpt>
<trkpt lat="34.487430833333335" lon="135.48932888888888">
<ele>68</ele>
</trkpt>
<trkpt lat="34.48826527777778" lon="135.48953777777777">
<ele>65</ele>
</trkpt>
<trkpt lat="34.48826527777778" lon="135.48953777777777">
<ele>65</ele>
</trkpt>
<trkpt lat="34.48849972222222" lon="135.4894575">
<ele>64</ele>
</trkpt>
<trkpt lat="34.48849972222222" lon="135.4894575">
<ele>64</ele>
</trkpt>
<trkpt lat="34.48873388888889" lon="135.48902333333334">
<ele>61</ele>
</trkpt>
<trkpt lat="34.48873388888889" lon="135.48902333333334">
<ele>61</ele>
</trkpt>
<trkpt lat="34.48985555555556" lon="135.48834555555555">
<ele>60</ele>
</trkpt>
<trkpt lat="34.48985555555556" lon="135.48834555555555">
<ele>60</ele>
</trkpt>
<trkpt lat="34.49038138888889" lon="135.4879488888889">
<ele>60</ele>
</trkpt>
<trkpt lat="34.49038138888889" lon="135.4879488888889">
<ele>60</ele>
</trkpt>
<trkpt lat="34.49088694444445" lon="135.48737027777779">
<ele>60</ele>
</trkpt>
<trkpt lat="34.49088694444445" lon="135.48737027777779">
<ele>60</ele>
</trkpt>
<trkpt lat="34.49215638888889" lon="135.48571166666667">
<ele>57</ele>
</trkpt>
<trkpt lat="34.49215638888889" lon="135.48571166666667">
<ele>57</ele>
</trkpt>
<trkpt lat="34.4930175" lon="135.48455416666667">
<ele>54</ele>
</trkpt>
<trkpt lat="34.4930175" lon="135.48455416666667">
<ele>54</ele>
</trkpt>
<trkpt lat="34.493719722222224" lon="135.48406666666668">
<ele>52</ele>
</trkpt>
<trkpt lat="34.493719722222224" lon="135.48406666666668">
<ele>52</ele>
</trkpt>
<trkpt lat="34.494748888888886" lon="135.48384166666668">
<ele>51</ele>
</trkpt>
<trkpt lat="34.494746944444444" lon="135.48383">
<ele>51</ele>
</trkpt>
<trkpt lat="34.49485111111111" lon="135.4838088888889">
<ele>51</ele>
</trkpt>
<trkpt lat="34.49500888888889" lon="135.4837711111111">
<ele>50</ele>
</trkpt>
<trkpt lat="34.49512611111111" lon="135.48373388888888">
<ele>51</ele>
</trkpt>
<trkpt lat="34.495243055555555" lon="135.4836961111111">
<ele>51</ele>
</trkpt>
<trkpt lat="34.49534194444445" lon="135.48363388888887">
<ele>51</ele>
</trkpt>
<trkpt lat="34.49574194444445" lon="135.48338388888888">
<ele>50</ele>
</trkpt>
<trkpt lat="34.495826111111114" lon="135.4833211111111">
<ele>50</ele>
</trkpt>
<trkpt lat="34.49610111111111" lon="135.4831211111111">
<ele>50</ele>
</trkpt>
<trkpt lat="34.49632611111111" lon="135.48292111111112">
<ele>49</ele>
</trkpt>
<trkpt lat="34.49665888888889" lon="135.4826461111111">
<ele>48</ele>
</trkpt>
<trkpt lat="34.49668888888889" lon="135.48262805555555">
<ele>47</ele>
</trkpt>
<trkpt lat="34.49668888888889" lon="135.48262805555555">
<ele>47</ele>
</trkpt>
<trkpt lat="34.49852861111111" lon="135.48149972222222">
<ele>45</ele>
</trkpt>
<trkpt lat="34.49851694444445" lon="135.48147694444444">
<ele>45</ele>
</trkpt>
<trkpt lat="34.498491944444446" lon="135.4814961111111">
<ele>45</ele>
</trkpt>
<trkpt lat="34.49885888888889" lon="135.48248388888888">
<ele>44</ele>
</trkpt>
<trkpt lat="34.49903388888889" lon="135.48294611111112">
<ele>44</ele>
</trkpt>
<trkpt lat="34.4992" lon="135.4833461111111">
<ele>44</ele>
</trkpt>
<trkpt lat="34.499341944444446" lon="135.48365805555557">
<ele>43</ele>
</trkpt>
<trkpt lat="34.49975888888889" lon="135.48450805555555">
<ele>42</ele>
</trkpt>
<trkpt lat="34.49993388888889" lon="135.48484611111112">
<ele>42</ele>
</trkpt>
<trkpt lat="34.50059" lon="135.4859138888889">
<ele>40</ele>
</trkpt>
<trkpt lat="34.50059" lon="135.4859138888889">
<ele>40</ele>
</trkpt>
<trkpt lat="34.500616944444445" lon="135.48595805555556">
<ele>40</ele>
</trkpt>
<trkpt lat="34.50054194444444" lon="135.4860461111111">
<ele>40</ele>
</trkpt>
<trkpt lat="34.50035888888889" lon="135.48630805555555">
<ele>40</ele>
</trkpt>
<trkpt lat="34.50029194444444" lon="135.48638305555556">
<ele>40</ele>
</trkpt>
<trkpt lat="34.50026611111111" lon="135.4864188888889">
<ele>40</ele>
</trkpt>
<trkpt lat="34.50026611111111" lon="135.4864188888889">
<ele>40</ele>
</trkpt>
<trkpt lat="34.50029194444444" lon="135.48638305555556">
<ele>40</ele>
</trkpt>
<trkpt lat="34.50075" lon="135.48692111111112">
<ele>39</ele>
</trkpt>
<trkpt lat="34.50098388888889" lon="135.4871961111111">
<ele>39</ele>
</trkpt>
<trkpt lat="34.5013" lon="135.48750805555557">
<ele>39</ele>
</trkpt>
<trkpt lat="34.50161694444444" lon="135.48778305555555">
<ele>39</ele>
</trkpt>
<trkpt lat="34.50215" lon="135.48830805555556">
<ele>36</ele>
</trkpt>
<trkpt lat="34.50219194444445" lon="135.4883461111111">
<ele>35</ele>
</trkpt>
<trkpt lat="34.502741944444445" lon="135.48880805555555">
<ele>33</ele>
</trkpt>
<trkpt lat="34.5031" lon="135.48904611111112">
<ele>32</ele>
</trkpt>
<trkpt lat="34.503258055555555" lon="135.48913305555556">
<ele>30</ele>
</trkpt>
<trkpt lat="34.503275" lon="135.4891461111111">
<ele>30</ele>
</trkpt>
<trkpt lat="34.503991944444444" lon="135.48952">
<ele>29</ele>
</trkpt>
<trkpt lat="34.5043" lon="135.48965805555557">
<ele>29</ele>
</trkpt>
<trkpt lat="34.50454111111111" lon="135.48982">
<ele>29</ele>
</trkpt>
<trkpt lat="34.504556944444445" lon="135.4897638888889">
<ele>29</ele>
</trkpt>
<trkpt lat="34.504556944444445" lon="135.4897638888889">
<ele>29</ele>
</trkpt>
<trkpt lat="34.50454111111111" lon="135.48982">
<ele>29</ele>
</trkpt>
<trkpt lat="34.50504111111111" lon="135.48965805555557">
<ele>28</ele>
</trkpt>
<trkpt lat="34.50550805555555" lon="135.48950805555555">
<ele>28</ele>
</trkpt>
<trkpt lat="34.50571611111111" lon="135.48943305555557">
<ele>28</ele>
</trkpt>
<trkpt lat="34.506625" lon="135.48912">
<ele>27</ele>
</trkpt>
<trkpt lat="34.506895" lon="135.48902388888888">
<ele>27</ele>
</trkpt>
<trkpt lat="34.506895" lon="135.48902388888888">
<ele>27</ele>
</trkpt>
<trkpt lat="34.50764111111111" lon="135.48875805555556">
<ele>26</ele>
</trkpt>
<trkpt lat="34.50832388888889" lon="135.48847111111112">
<ele>26</ele>
</trkpt>
<trkpt lat="34.50857388888889" lon="135.48835805555555">
<ele>26</ele>
</trkpt>
<trkpt lat="34.509281944444446" lon="135.48800805555555">
<ele>25</ele>
</trkpt>
<trkpt lat="34.50989888888889" lon="135.48763305555556">
<ele>25</ele>
</trkpt>
<trkpt lat="34.51004888888889" lon="135.48753305555556">
<ele>25</ele>
</trkpt>
<trkpt lat="34.51036611111111" lon="135.4873211111111">
<ele>24</ele>
</trkpt>
<trkpt lat="34.510558055555556" lon="135.4871961111111">
<ele>24</ele>
</trkpt>
<trkpt lat="34.51069888888889" lon="135.4870961111111">
<ele>24</ele>
</trkpt>
<trkpt lat="34.51109611111111" lon="135.48679305555555">
<ele>24</ele>
</trkpt>
<trkpt lat="34.51109611111111" lon="135.48679305555555">
<ele>24</ele>
</trkpt>
<trkpt lat="34.51125694444445" lon="135.48667111111112">
<ele>24</ele>
</trkpt>
<trkpt lat="34.51193194444444" lon="135.48610805555555">
<ele>23</ele>
</trkpt>
<trkpt lat="34.51237388888889" lon="135.48573305555556">
<ele>23</ele>
</trkpt>
<trkpt lat="34.51376305555556" lon="135.48460194444445">
<ele>22</ele>
</trkpt>
<trkpt lat="34.51376305555556" lon="135.48460194444445">
<ele>22</ele>
</trkpt>
<trkpt lat="34.51383194444445" lon="135.48454611111111">
<ele>22</ele>
</trkpt>
<trkpt lat="34.51388194444444" lon="135.48460805555555">
<ele>22</ele>
</trkpt>
<trkpt lat="34.51389888888889" lon="135.48463305555555">
<ele>22</ele>
</trkpt>
<trkpt lat="34.513981944444446" lon="135.48475805555555">
<ele>22</ele>
</trkpt>
<trkpt lat="34.51405694444444" lon="135.48487111111112">
<ele>22</ele>
</trkpt>
<trkpt lat="34.51410694444444" lon="135.4848211111111">
<ele>22</ele>
</trkpt>
<trkpt lat="34.51427388888889" lon="135.48468305555556">
<ele>22</ele>
</trkpt>
<trkpt lat="34.51432388888889" lon="135.48464611111112">
<ele>22</ele>
</trkpt>
<trkpt lat="34.514223888888885" lon="135.48453305555554">
<ele>22</ele>
</trkpt>
<trkpt lat="34.514116111111115" lon="135.48439611111112">
<ele>22</ele>
</trkpt>
<trkpt lat="34.51407388888889" lon="135.4843461111111">
<ele>22</ele>
</trkpt>
<trkpt lat="34.514356944444444" lon="135.48408305555554">
<ele>23</ele>
</trkpt>
<trkpt lat="34.51490694444445" lon="135.48353305555557">
<ele>22</ele>
</trkpt>
<trkpt lat="34.51498111111111" lon="135.48345">
<ele>22</ele>
</trkpt>
<trkpt lat="34.51498111111111" lon="135.48345">
<ele>22</ele>
</trkpt>
<trkpt lat="34.51533194444445" lon="135.48305805555555">
<ele>21</ele>
</trkpt>
<trkpt lat="34.51539888888889" lon="135.48294611111112">
<ele>20</ele>
</trkpt>
<trkpt lat="34.51559888888889" lon="135.48269611111112">
<ele>20</ele>
</trkpt>
<trkpt lat="34.51579888888889" lon="135.4824461111111">
<ele>19</ele>
</trkpt>
<trkpt lat="34.51600694444444" lon="135.48218305555557">
<ele>19</ele>
</trkpt>
<trkpt lat="34.51644" lon="135.48160805555557">
<ele>19</ele>
</trkpt>
<trkpt lat="34.51694" lon="135.48088388888888">
<ele>19</ele>
</trkpt>
<trkpt lat="34.51712305555556" lon="135.48057111111112">
<ele>19</ele>
</trkpt>
<trkpt lat="34.517206944444446" lon="135.4804838888889">
<ele>19</ele>
</trkpt>
<trkpt lat="34.51729805555556" lon="135.4803961111111">
<ele>19</ele>
</trkpt>
<trkpt lat="34.51764" lon="135.47989611111112">
<ele>19</ele>
</trkpt>
<trkpt lat="34.517741944444445" lon="135.47975">
<ele>19</ele>
</trkpt>
<trkpt lat="34.517741944444445" lon="135.47975">
<ele>19</ele>
</trkpt>
<trkpt lat="34.518881111111114" lon="135.4781211111111">
<ele>18</ele>
</trkpt>
<trkpt lat="34.51900611111111" lon="135.4779211111111">
<ele>18</ele>
</trkpt>
<trkpt lat="34.519065" lon="135.47784611111112">
<ele>18</ele>
</trkpt>
<trkpt lat="34.519198055555556" lon="135.4776461111111">
<ele>18</ele>
</trkpt>
<trkpt lat="34.52068111111111" lon="135.4755461111111">
<ele>18</ele>
</trkpt>
<trkpt lat="34.52093111111111" lon="135.47514611111112">
<ele>17</ele>
</trkpt>
<trkpt lat="34.52095694444444" lon="135.47516611111112">
<ele>17</ele>
</trkpt>
<trkpt lat="34.52095694444444" lon="135.47516611111112">
<ele>17</ele>
</trkpt>
<trkpt lat="34.520963888888886" lon="135.4751711111111">
<ele>17</ele>
</trkpt>
<trkpt lat="34.52113111111111" lon="135.47535888888888">
<ele>18</ele>
</trkpt>
<trkpt lat="34.52117305555556" lon="135.4753961111111">
<ele>18</ele>
</trkpt>
<trkpt lat="34.52122305555555" lon="135.47545888888888">
<ele>18</ele>
</trkpt>
<trkpt lat="34.52130611111111" lon="135.4755461111111">
<ele>18</ele>
</trkpt>
<trkpt lat="34.52132611111111" lon="135.47551694444445">
<ele>18</ele>
</trkpt>
<trkpt lat="34.52132611111111" lon="135.47551694444445">
<ele>18</ele>
</trkpt>
<trkpt lat="34.521948055555555" lon="135.4746338888889">
<ele>18</ele>
</trkpt>
<trkpt lat="34.52222305555556" lon="135.4742461111111">
<ele>19</ele>
</trkpt>
<trkpt lat="34.52258111111111" lon="135.4737338888889">
<ele>19</ele>
</trkpt>
<trkpt lat="34.522888888888886" lon="135.4733338888889">
<ele>19</ele>
</trkpt>
<trkpt lat="34.52325611111111" lon="135.4729338888889">
<ele>18</ele>
</trkpt>
<trkpt lat="34.52333888888889" lon="135.47283388888889">
<ele>18</ele>
</trkpt>
<trkpt lat="34.52356388888889" lon="135.47263388888888">
<ele>17</ele>
</trkpt>
<trkpt lat="34.52358888888889" lon="135.47260888888889">
<ele>17</ele>
</trkpt>
<trkpt lat="34.52361805555555" lon="135.472585">
<ele>17</ele>
</trkpt>
<trkpt lat="34.52361805555555" lon="135.472585">
<ele>17</ele>
</trkpt>
<trkpt lat="34.523696944444445" lon="135.47271138888888">
<ele>17</ele>
</trkpt>
<trkpt lat="34.523696944444445" lon="135.47271138888888">
<ele>17</ele>
</trkpt>
<trkpt lat="34.523809444444446" lon="135.4728025">
<ele>17</ele>
</trkpt>
<trkpt lat="34.523809444444446" lon="135.4728025">
<ele>17</ele>
</trkpt>
<trkpt lat="34.52413388888889" lon="135.47323666666668">
<ele>16</ele>
</trkpt>
<trkpt lat="34.52413388888889" lon="135.47323666666668">
<ele>16</ele>
</trkpt>
<trkpt lat="34.52441666666667" lon="135.47361166666667">
<ele>17</ele>
</trkpt>
<trkpt lat="34.52441666666667" lon="135.47361166666667">
<ele>17</ele>
</trkpt>
<trkpt lat="34.52482055555556" lon="135.473885">
<ele>16</ele>
</trkpt>
<trkpt lat="34.52482055555556" lon="135.473885">
<ele>16</ele>
</trkpt>
<trkpt lat="34.525217777777776" lon="135.47407">
<ele>16</ele>
</trkpt>
<trkpt lat="34.52518694444444" lon="135.47406805555556">
<ele>16</ele>
</trkpt>
<trkpt lat="34.52518888888889" lon="135.4740211111111">
<ele>16</ele>
</trkpt>
<trkpt lat="34.525331111111115" lon="135.47400888888887">
<ele>16</ele>
</trkpt>
<trkpt lat="34.52548888888889" lon="135.4739461111111">
<ele>16</ele>
</trkpt>
<trkpt lat="34.52555611111111" lon="135.4739088888889">
<ele>16</ele>
</trkpt>
<trkpt lat="34.52570611111111" lon="135.4737838888889">
<ele>16</ele>
</trkpt>
<trkpt lat="34.52578111111111" lon="135.4736838888889">
<ele>16</ele>
</trkpt>
<trkpt lat="34.52608111111111" lon="135.4732838888889">
<ele>16</ele>
</trkpt>
<trkpt lat="34.52617194444444" lon="135.47319694444445">
<ele>16</ele>
</trkpt>
<trkpt lat="34.52635611111111" lon="135.4730588888889">
<ele>16</ele>
</trkpt>
<trkpt lat="34.52662194444444" lon="135.4729088888889">
<ele>16</ele>
</trkpt>
<trkpt lat="34.52678888888889" lon="135.47283388888889">
<ele>15</ele>
</trkpt>
<trkpt lat="34.52710611111111" lon="135.4727088888889">
<ele>15</ele>
</trkpt>
<trkpt lat="34.52735611111111" lon="135.47260888888889">
<ele>15</ele>
</trkpt>
<trkpt lat="34.52760611111111" lon="135.47254694444445">
<ele>15</ele>
</trkpt>
<trkpt lat="34.52762111111111" lon="135.47254694444445">
<ele>15</ele>
</trkpt>
<trkpt lat="34.52762111111111" lon="135.47254694444445">
<ele>15</ele>
</trkpt>
<trkpt lat="34.52787194444444" lon="135.47254694444445">
<ele>15</ele>
</trkpt>
<trkpt lat="34.527946944444444" lon="135.4725588888889">
<ele>15</ele>
</trkpt>
<trkpt lat="34.52813" lon="135.4725838888889">
<ele>15</ele>
</trkpt>
<trkpt lat="34.52827194444444" lon="135.47259694444443">
<ele>15</ele>
</trkpt>
<trkpt lat="34.52848888888889" lon="135.4725588888889">
<ele>15</ele>
</trkpt>
<trkpt lat="34.52858888888889" lon="135.47252194444445">
<ele>15</ele>
</trkpt>
<trkpt lat="34.528646944444446" lon="135.47247194444444">
<ele>15</ele>
</trkpt>
<trkpt lat="34.52871388888889" lon="135.47242194444445">
<ele>15</ele>
</trkpt>
<trkpt lat="34.52892194444444" lon="135.47215888888888">
<ele>14</ele>
</trkpt>
<trkpt lat="34.52896388888889" lon="135.47209694444444">
<ele>14</ele>
</trkpt>
<trkpt lat="34.52912194444445" lon="135.47169694444443">
<ele>14</ele>
</trkpt>
<trkpt lat="34.529205" lon="135.47154694444444">
<ele>15</ele>
</trkpt>
<trkpt lat="34.52928" lon="135.4714588888889">
<ele>14</ele>
</trkpt>
<trkpt lat="34.52938" lon="135.47138388888888">
<ele>14</ele>
</trkpt>
<trkpt lat="34.52961388888889" lon="135.47129694444445">
<ele>14</ele>
</trkpt>
<trkpt lat="34.52975" lon="135.471285">
<ele>14</ele>
</trkpt>
<trkpt lat="34.52975" lon="135.471285">
<ele>14</ele>
</trkpt>
<trkpt lat="34.52976388888889" lon="135.47128388888888">
<ele>14</ele>
</trkpt>
<trkpt lat="34.52986388888889" lon="135.47129694444445">
<ele>14</ele>
</trkpt>
<trkpt lat="34.52996388888889" lon="135.4713588888889">
<ele>14</ele>
</trkpt>
<trkpt lat="34.530305" lon="135.4717588888889">
<ele>14</ele>
</trkpt>
<trkpt lat="34.53039694444445" lon="135.47183388888888">
<ele>14</ele>
</trkpt>
<trkpt lat="34.530521944444445" lon="135.47189694444444">
<ele>14</ele>
</trkpt>
<trkpt lat="34.531005" lon="135.4720088888889">
<ele>14</ele>
</trkpt>
<trkpt lat="34.531346944444444" lon="135.4719838888889">
<ele>14</ele>
</trkpt>
<trkpt lat="34.53144805555556" lon="135.47196888888888">
<ele>14</ele>
</trkpt>
<trkpt lat="34.53144805555556" lon="135.47196888888888">
<ele>14</ele>
</trkpt>
<trkpt lat="34.531596944444445" lon="135.47194694444445">
<ele>14</ele>
</trkpt>
<trkpt lat="34.531638055555554" lon="135.47194694444445">
<ele>14</ele>
</trkpt>
<trkpt lat="34.53171305555556" lon="135.47194694444445">
<ele>14</ele>
</trkpt>
<trkpt lat="34.531796944444444" lon="135.4719838888889">
<ele>14</ele>
</trkpt>
<trkpt lat="34.531996944444444" lon="135.4722088888889">
<ele>14</ele>
</trkpt>
<trkpt lat="34.53212194444444" lon="135.47229694444445">
<ele>14</ele>
</trkpt>
<trkpt lat="34.53218" lon="135.47229694444445">
<ele>14</ele>
</trkpt>
<trkpt lat="34.53237194444444" lon="135.4723338888889">
<ele>14</ele>
</trkpt>
<trkpt lat="34.532471944444445" lon="135.47232194444445">
<ele>14</ele>
</trkpt>
<trkpt lat="34.532763055555556" lon="135.4722338888889">
<ele>14</ele>
</trkpt>
<trkpt lat="34.53292111111111" lon="135.47218388888888">
<ele>14</ele>
</trkpt>
<trkpt lat="34.532988055555556" lon="135.47215888888888">
<ele>14</ele>
</trkpt>
<trkpt lat="34.53333" lon="135.47205888888888">
<ele>14</ele>
</trkpt>
<trkpt lat="34.53387111111111" lon="135.47189694444444">
<ele>14</ele>
</trkpt>
<trkpt lat="34.533898055555554" lon="135.47189111111112">
<ele>14</ele>
</trkpt>
<trkpt lat="34.533898055555554" lon="135.47189111111112">
<ele>14</ele>
</trkpt>
<trkpt lat="34.533988055555554" lon="135.47187194444444">
<ele>14</ele>
</trkpt>
<trkpt lat="34.534205" lon="135.4718588888889">
<ele>14</ele>
</trkpt>
<trkpt lat="34.53433805555556" lon="135.4718588888889">
<ele>14</ele>
</trkpt>
<trkpt lat="34.53461305555555" lon="135.4719088888889">
<ele>14</ele>
</trkpt>
<trkpt lat="34.53476305555556" lon="135.47197194444445">
<ele>14</ele>
</trkpt>
<trkpt lat="34.53516305555556" lon="135.47217194444445">
<ele>14</ele>
</trkpt>
<trkpt lat="34.535383055555556" lon="135.4723238888889">
<ele>14</ele>
</trkpt>
<trkpt lat="34.535383055555556" lon="135.4723238888889">
<ele>14</ele>
</trkpt>
<trkpt lat="34.53550388888889" lon="135.47240888888888">
<ele>14</ele>
</trkpt>
<trkpt lat="34.53566305555555" lon="135.47252111111112">
<ele>14</ele>
</trkpt>
<trkpt lat="34.53570388888889" lon="135.4725588888889">
<ele>14</ele>
</trkpt>
<trkpt lat="34.53579611111111" lon="135.4726838888889">
<ele>14</ele>
</trkpt>
<trkpt lat="34.53588805555555" lon="135.47284611111112">
<ele>15</ele>
</trkpt>
<trkpt lat="34.535913055555554" lon="135.4729088888889">
<ele>15</ele>
</trkpt>
<trkpt lat="34.53601305555556" lon="135.4733711111111">
<ele>15</ele>
</trkpt>
<trkpt lat="34.53606305555556" lon="135.4736088888889">
<ele>15</ele>
</trkpt>
<trkpt lat="34.536338055555554" lon="135.47363388888888">
<ele>14</ele>
</trkpt>
<trkpt lat="34.53673194444445" lon="135.47367">
<ele>14</ele>
</trkpt>
<trkpt lat="34.53673194444445" lon="135.47367">
<ele>14</ele>
</trkpt>
<trkpt lat="34.536746111111114" lon="135.47367111111112">
<ele>14</ele>
</trkpt>
<trkpt lat="34.53682888888889" lon="135.4737338888889">
<ele>14</ele>
</trkpt>
<trkpt lat="34.53691305555556" lon="135.4738088888889">
<ele>14</ele>
</trkpt>
<trkpt lat="34.53707888888889" lon="135.47389611111112">
<ele>14</ele>
</trkpt>
<trkpt lat="34.53727111111111" lon="135.4739211111111">
<ele>14</ele>
</trkpt>
<trkpt lat="34.53757111111111" lon="135.4739461111111">
<ele>14</ele>
</trkpt>
<trkpt lat="34.53777111111111" lon="135.4739088888889">
<ele>15</ele>
</trkpt>
<trkpt lat="34.537728888888886" lon="135.4736088888889">
<ele>15</ele>
</trkpt>
<trkpt lat="34.537863055555555" lon="135.47354611111112">
<ele>15</ele>
</trkpt>
<trkpt lat="34.538046111111115" lon="135.4734711111111">
<ele>16</ele>
</trkpt>
<trkpt lat="34.53827111111111" lon="135.4734711111111">
<ele>17</ele>
</trkpt>
<trkpt lat="34.53850388888889" lon="135.4734838888889">
<ele>17</ele>
</trkpt>
<trkpt lat="34.53907111111111" lon="135.4734711111111">
<ele>17</ele>
</trkpt>
<trkpt lat="34.53922111111111" lon="135.4734588888889">
<ele>17</ele>
</trkpt>
<trkpt lat="34.539521111111114" lon="135.4734588888889">
<ele>17</ele>
</trkpt>
<trkpt lat="34.53975388888889" lon="135.4734588888889">
<ele>16</ele>
</trkpt>
<trkpt lat="34.54015388888889" lon="135.47344611111112">
<ele>16</ele>
</trkpt>
<trkpt lat="34.54020111111111" lon="135.47344388888888">
<ele>16</ele>
</trkpt>
<trkpt lat="34.54020111111111" lon="135.47344388888888">
<ele>16</ele>
</trkpt>
<trkpt lat="34.54047888888889" lon="135.47343388888888">
<ele>16</ele>
</trkpt>
<trkpt lat="34.54054611111111" lon="135.4733961111111">
<ele>16</ele>
</trkpt>
<trkpt lat="34.54062111111111" lon="135.4733338888889">
<ele>16</ele>
</trkpt>
<trkpt lat="34.54089305555556" lon="135.47316388888888">
<ele>16</ele>
</trkpt>
<trkpt lat="34.54089305555556" lon="135.47316388888888">
<ele>16</ele>
</trkpt>
<trkpt lat="34.541061944444444" lon="135.4730588888889">
<ele>16</ele>
</trkpt>
<trkpt lat="34.54120388888889" lon="135.47297111111112">
<ele>16</ele>
</trkpt>
<trkpt lat="34.54140388888889" lon="135.47284611111112">
<ele>17</ele>
</trkpt>
<trkpt lat="34.541511944444444" lon="135.4728211111111">
<ele>17</ele>
</trkpt>
<trkpt lat="34.54165388888889" lon="135.47285888888888">
<ele>18</ele>
</trkpt>
<trkpt lat="34.54210888888889" lon="135.47306194444445">
<ele>18</ele>
</trkpt>
<trkpt lat="34.54210888888889" lon="135.47306194444445">
<ele>18</ele>
</trkpt>
<trkpt lat="34.54212888888889" lon="135.47307111111112">
<ele>18</ele>
</trkpt>
<trkpt lat="34.54227111111111" lon="135.4731088888889">
<ele>18</ele>
</trkpt>
<trkpt lat="34.542386944444445" lon="135.4731211111111">
<ele>18</ele>
</trkpt>
<trkpt lat="34.54260388888889" lon="135.4731338888889">
<ele>18</ele>
</trkpt>
<trkpt lat="34.54268694444445" lon="135.4731338888889">
<ele>18</ele>
</trkpt>
<trkpt lat="34.542795" lon="135.4731461111111">
<ele>18</ele>
</trkpt>
<trkpt lat="34.54287" lon="135.4731461111111">
<ele>18</ele>
</trkpt>
<trkpt lat="34.543295" lon="135.4731588888889">
<ele>17</ele>
</trkpt>
<trkpt lat="34.54367888888889" lon="135.4731711111111">
<ele>16</ele>
</trkpt>
<trkpt lat="34.543995" lon="135.47318388888888">
<ele>16</ele>
</trkpt>
<trkpt lat="34.544153888888886" lon="135.47319611111112">
<ele>15</ele>
</trkpt>
<trkpt lat="34.5444" lon="135.47320611111112">
<ele>15</ele>
</trkpt>
<trkpt lat="34.5444" lon="135.47320611111112">
<ele>15</ele>
</trkpt>
<trkpt lat="34.54445388888889" lon="135.47320888888888">
<ele>15</ele>
</trkpt>
<trkpt lat="34.544945" lon="135.4732711111111">
<ele>12</ele>
</trkpt>
<trkpt lat="34.54523694444445" lon="135.47330888888888">
<ele>10</ele>
</trkpt>
<trkpt lat="34.54560111111111" lon="135.47334194444446">
<ele>9</ele>
</trkpt>
<trkpt lat="34.54560111111111" lon="135.47334194444446">
<ele>9</ele>
</trkpt>
<trkpt lat="34.545653055555555" lon="135.4733461111111">
<ele>9</ele>
</trkpt>
<trkpt lat="34.54572" lon="135.47354611111112">
<ele>9</ele>
</trkpt>
<trkpt lat="34.54593694444444" lon="135.4741961111111">
<ele>9</ele>
</trkpt>
<trkpt lat="34.54597" lon="135.47434611111112">
<ele>9</ele>
</trkpt>
<trkpt lat="34.545991111111114" lon="135.47447111111111">
<ele>9</ele>
</trkpt>
<trkpt lat="34.545991111111114" lon="135.47447111111111">
<ele>9</ele>
</trkpt>
<trkpt lat="34.54600305555556" lon="135.47454611111112">
<ele>9</ele>
</trkpt>
<trkpt lat="34.54615305555556" lon="135.4745088888889">
<ele>9</ele>
</trkpt>
<trkpt lat="34.54618694444444" lon="135.47453388888889">
<ele>9</ele>
</trkpt>
<trkpt lat="34.54651194444445" lon="135.47444611111112">
<ele>9</ele>
</trkpt>
<trkpt lat="34.54651194444445" lon="135.47457111111112">
<ele>9</ele>
</trkpt>
<trkpt lat="34.54658694444444" lon="135.4749338888889">
<ele>9</ele>
</trkpt>
<trkpt lat="34.54665305555555" lon="135.47513388888888">
<ele>9</ele>
</trkpt>
<trkpt lat="34.546661944444445" lon="135.47515694444445">
<ele>9</ele>
</trkpt>
<trkpt lat="34.546661944444445" lon="135.47515694444445">
<ele>9</ele>
</trkpt>
<trkpt lat="34.546745" lon="135.4753838888889">
<ele>9</ele>
</trkpt>
<trkpt lat="34.54683694444444" lon="135.4756211111111">
<ele>9</ele>
</trkpt>
<trkpt lat="34.54693694444445" lon="135.47590888888888">
<ele>9</ele>
</trkpt>
<trkpt lat="34.547061944444444" lon="135.47623388888888">
<ele>9</ele>
</trkpt>
<trkpt lat="34.547153055555555" lon="135.47649611111112">
<ele>9</ele>
</trkpt>
<trkpt lat="34.54725305555556" lon="135.4767461111111">
<ele>9</ele>
</trkpt>
<trkpt lat="34.54732805555555" lon="135.4769961111111">
<ele>9</ele>
</trkpt>
<trkpt lat="34.54743694444444" lon="135.47725805555555">
<ele>9</ele>
</trkpt>
<trkpt lat="34.54752805555555" lon="135.47750805555555">
<ele>9</ele>
</trkpt>
<trkpt lat="34.547695" lon="135.47797111111112">
<ele>9</ele>
</trkpt>
<trkpt lat="34.547778055555554" lon="135.47817111111112">
<ele>9</ele>
</trkpt>
<trkpt lat="34.54787" lon="135.47840805555555">
<ele>9</ele>
</trkpt>
<trkpt lat="34.54795305555555" lon="135.47862111111112">
<ele>9</ele>
</trkpt>
<trkpt lat="34.54802" lon="135.47878305555557">
<ele>9</ele>
</trkpt>
<trkpt lat="34.54806111111111" lon="135.47884611111112">
<ele>9</ele>
</trkpt>
<trkpt lat="34.54816111111111" lon="135.47909611111112">
<ele>9</ele>
</trkpt>
<trkpt lat="34.54815611111111" lon="135.4790988888889">
<ele>9</ele>
</trkpt>
<trkpt lat="34.54815611111111" lon="135.4790988888889">
<ele>9</ele>
</trkpt>
<trkpt lat="34.54816111111111" lon="135.47909611111112">
<ele>9</ele>
</trkpt>
<trkpt lat="34.54832805555556" lon="135.47900805555557">
<ele>10</ele>
</trkpt>
<trkpt lat="34.54837" lon="135.47899611111112">
<ele>11</ele>
</trkpt>
<trkpt lat="34.54880305555555" lon="135.47875805555555">
<ele>14</ele>
</trkpt>
<trkpt lat="34.54888611111111" lon="135.4786711111111">
<ele>14</ele>
</trkpt>
<trkpt lat="34.54922" lon="135.47818305555555">
<ele>16</ele>
</trkpt>
<trkpt lat="34.54924111111111" lon="135.4781988888889">
<ele>16</ele>
</trkpt>
<trkpt lat="34.54924111111111" lon="135.4781988888889">
<ele>16</ele>
</trkpt>
<trkpt lat="34.549495" lon="135.47838305555555">
<ele>16</ele>
</trkpt>
<trkpt lat="34.54956111111111" lon="135.47852111111112">
<ele>15</ele>
</trkpt>
<trkpt lat="34.54990305555555" lon="135.47897111111112">
<ele>15</ele>
</trkpt>
<trkpt lat="34.55012" lon="135.47919611111112">
<ele>16</ele>
</trkpt>
<trkpt lat="34.550195" lon="135.4792711111111">
<ele>16</ele>
</trkpt>
<trkpt lat="34.55068611111111" lon="135.47980805555557">
<ele>17</ele>
</trkpt>
<trkpt lat="34.55075" lon="135.4798861111111">
<ele>17</ele>
</trkpt>
<trkpt lat="34.55075" lon="135.4798861111111">
<ele>17</ele>
</trkpt>
<trkpt lat="34.55091111111111" lon="135.48008305555555">
<ele>17</ele>
</trkpt>
<trkpt lat="34.551453055555555" lon="135.48080805555554">
<ele>16</ele>
</trkpt>
<trkpt lat="34.55146" lon="135.48081805555555">
<ele>16</ele>
</trkpt>
<trkpt lat="34.55146" lon="135.48081805555555">
<ele>16</ele>
</trkpt>
<trkpt lat="34.55218611111111" lon="135.48182">
<ele>17</ele>
</trkpt>
<trkpt lat="34.55222805555555" lon="135.48180805555555">
<ele>17</ele>
</trkpt>
<trkpt lat="34.55231111111111" lon="135.48177">
<ele>17</ele>
</trkpt>
<trkpt lat="34.55236111111111" lon="135.481745">
<ele>17</ele>
</trkpt>
<trkpt lat="34.55248888888889" lon="135.48191194444445">
<ele>17</ele>
</trkpt>
<trkpt lat="34.55248805555556" lon="135.48191194444445">
<ele>17</ele>
</trkpt>
<trkpt lat="34.55249388888889" lon="135.48192">
<ele>17</ele>
</trkpt>
<trkpt lat="34.553961111111114" lon="135.48393305555555">
<ele>19</ele>
</trkpt>
<trkpt lat="34.554743888888886" lon="135.484995">
<ele>19</ele>
</trkpt>
<trkpt lat="34.55509388888889" lon="135.485445">
<ele>18</ele>
</trkpt>
<trkpt lat="34.555121944444444" lon="135.485485">
<ele>18</ele>
</trkpt>
<trkpt lat="34.555121944444444" lon="135.485485">
<ele>18</ele>
</trkpt>
<trkpt lat="34.55509388888889" lon="135.485445">
<ele>18</ele>
</trkpt>
<trkpt lat="34.555703055555554" lon="135.48495694444443">
<ele>18</ele>
</trkpt>
<trkpt lat="34.55586111111111" lon="135.484795">
<ele>18</ele>
</trkpt>
<trkpt lat="34.55594388888889" lon="135.484695">
<ele>18</ele>
</trkpt>
<trkpt lat="34.55606111111111" lon="135.48452">
<ele>19</ele>
</trkpt>
<trkpt lat="34.55606111111111" lon="135.48452">
<ele>19</ele>
</trkpt>
<trkpt lat="34.55606111111111" lon="135.48452">
<ele>19</ele>
</trkpt>
<trkpt lat="34.5563725" lon="135.4848113888889">
<ele>19</ele>
</trkpt>
<trkpt lat="34.5563725" lon="135.4848113888889">
<ele>19</ele>
</trkpt>
<trkpt lat="34.55674333333333" lon="135.48496694444444">
<ele>19</ele>
</trkpt>
<trkpt lat="34.55674333333333" lon="135.48496694444444">
<ele>19</ele>
</trkpt>
<trkpt lat="34.55719111111111" lon="135.4849775">
<ele>19</ele>
</trkpt>
<trkpt lat="34.55719111111111" lon="135.4849775">
<ele>19</ele>
</trkpt>
<trkpt lat="34.55800333333333" lon="135.4848597222222">
<ele>15</ele>
</trkpt>
<trkpt lat="34.55800333333333" lon="135.4848597222222">
<ele>15</ele>
</trkpt>
<trkpt lat="34.55822166666667" lon="135.48507138888888">
<ele>15</ele>
</trkpt>
<trkpt lat="34.55822166666667" lon="135.48507138888888">
<ele>15</ele>
</trkpt>
<trkpt lat="34.55860777777778" lon="135.48521888888888">
<ele>15</ele>
</trkpt>
<trkpt lat="34.55860777777778" lon="135.48521888888888">
<ele>15</ele>
</trkpt>
<trkpt lat="34.559196944444444" lon="135.48526416666667">
<ele>16</ele>
</trkpt>
<trkpt lat="34.559196944444444" lon="135.48526416666667">
<ele>16</ele>
</trkpt>
<trkpt lat="34.55957" lon="135.4851088888889">
<ele>16</ele>
</trkpt>
<trkpt lat="34.55957" lon="135.4851088888889">
<ele>16</ele>
</trkpt>
<trkpt lat="34.559825833333335" lon="135.4844686111111">
<ele>15</ele>
</trkpt>
<trkpt lat="34.559825833333335" lon="135.4844686111111">
<ele>15</ele>
</trkpt>
<trkpt lat="34.5600575" lon="135.48429166666668">
<ele>15</ele>
</trkpt>
<trkpt lat="34.5600575" lon="135.48429166666668">
<ele>15</ele>
</trkpt>
<trkpt lat="34.56035555555555" lon="135.48402388888888">
<ele>16</ele>
</trkpt>
<trkpt lat="34.56035555555555" lon="135.48402388888888">
<ele>16</ele>
</trkpt>
<trkpt lat="34.560940277777775" lon="135.48442305555557">
<ele>17</ele>
</trkpt>
    </trkseg>
  </trk>
</gpx>