<?xml version="1.0" encoding="UTF-8"?>
<gpx version="1.1"
     creator="KMLtoGPX"
     xmlns="http://www.topografix.com/GPX/1/1">
  <metadata>
    <name>Kinokawa Cycling Road (Kishigawa)</name>
    <desc>紀の川サイクリングロード（貴志川）</desc>
    <bounds minlat="34.2059815" minlon="135.3122097" maxlat="34.2501485" maxlon="135.3446615"/>
  </metadata>
  <trk>
    <name>Kinokawa Cycling Road (Kishigawa)</name>
    <trkseg>
<trkpt lat="34.2501485" lon="135.3446615">
<ele>0</ele>
</trkpt>
<trkpt lat="34.2500465" lon="135.3440821">
<ele>0</ele>
</trkpt>
<trkpt lat="34.2500243" lon="135.3439963">
<ele>0</ele>
</trkpt>
<trkpt lat="34.2492528" lon="135.3418666">
<ele>0</ele>
</trkpt>
<trkpt lat="34.2490976" lon="135.3414857">
<ele>0</ele>
</trkpt>
<trkpt lat="34.2490266" lon="135.3412282">
<ele>0</ele>
</trkpt>
<trkpt lat="34.2487517" lon="135.3405899">
<ele>0</ele>
</trkpt>
<trkpt lat="34.2486852" lon="135.3405899">
<ele>0</ele>
</trkpt>
<trkpt lat="34.248663" lon="135.3406542">
<ele>0</ele>
</trkpt>
<trkpt lat="34.2487739" lon="135.3411692">
<ele>0</ele>
</trkpt>
<trkpt lat="34.2487872" lon="135.3413248">
<ele>0</ele>
</trkpt>
<trkpt lat="34.2483615" lon="135.3403217">
<ele>0</ele>
</trkpt>
<trkpt lat="34.2472307" lon="135.3380954">
<ele>0</ele>
</trkpt>
<trkpt lat="34.2463616" lon="135.3363681">
<ele>0</ele>
</trkpt>
<trkpt lat="34.2459359" lon="135.3353703">
<ele>0</ele>
</trkpt>
<trkpt lat="34.2454393" lon="135.333997">
<ele>0</ele>
</trkpt>
<trkpt lat="34.2451821" lon="135.3331602">
<ele>0</ele>
</trkpt>
<trkpt lat="34.2450224" lon="135.3326452">
<ele>0</ele>
</trkpt>
<trkpt lat="34.2449249" lon="135.3320336">
<ele>0</ele>
</trkpt>
<trkpt lat="34.2448362" lon="135.3315401">
<ele>0</ele>
</trkpt>
<trkpt lat="34.2448096" lon="135.3304028">
<ele>0</ele>
</trkpt>
<trkpt lat="34.2448273" lon="135.329684">
<ele>0</ele>
</trkpt>
<trkpt lat="34.2448805" lon="135.3290296">
<ele>0</ele>
</trkpt>
<trkpt lat="34.2448805" lon="135.3287291">
<ele>0</ele>
</trkpt>
<trkpt lat="34.2447652" lon="135.3283">
<ele>0</ele>
</trkpt>
<trkpt lat="34.2446056" lon="135.3280425">
<ele>0</ele>
</trkpt>
<trkpt lat="34.2442863" lon="135.3278708">
<ele>0</ele>
</trkpt>
<trkpt lat="34.2439759" lon="135.3277743">
<ele>0</ele>
</trkpt>
<trkpt lat="34.2436566" lon="135.3278065">
<ele>0</ele>
</trkpt>
<trkpt lat="34.2433196" lon="135.3279996">
<ele>0</ele>
</trkpt>
<trkpt lat="34.2431333" lon="135.3283644">
<ele>0</ele>
</trkpt>
<trkpt lat="34.2417941" lon="135.3321838">
<ele>0</ele>
</trkpt>
<trkpt lat="34.2412176" lon="135.3335786">
<ele>0</ele>
</trkpt>
<trkpt lat="34.2409072" lon="135.3343403">
<ele>0</ele>
</trkpt>
<trkpt lat="34.2407431" lon="135.3347051">
<ele>0</ele>
</trkpt>
<trkpt lat="34.2402065" lon="135.3354937">
<ele>0</ele>
</trkpt>
<trkpt lat="34.2398074" lon="135.3359228">
<ele>0</ele>
</trkpt>
<trkpt lat="34.2393728" lon="135.3362662">
<ele>0</ele>
</trkpt>
<trkpt lat="34.2387874" lon="135.3366631">
<ele>0</ele>
</trkpt>
<trkpt lat="34.2384636" lon="135.3368348">
<ele>0</ele>
</trkpt>
<trkpt lat="34.2379714" lon="135.3370386">
<ele>0</ele>
</trkpt>
<trkpt lat="34.2373239" lon="135.3371996">
<ele>0</ele>
</trkpt>
<trkpt lat="34.2366054" lon="135.3373337">
<ele>0</ele>
</trkpt>
<trkpt lat="34.236468" lon="135.3373766">
<ele>0</ele>
</trkpt>
<trkpt lat="34.2356032" lon="135.3371727">
<ele>0</ele>
</trkpt>
<trkpt lat="34.2353326" lon="135.3371352">
<ele>0</ele>
</trkpt>
<trkpt lat="34.2351996" lon="135.3371888">
<ele>0</ele>
</trkpt>
<trkpt lat="34.234898" lon="135.3374356">
<ele>0</ele>
</trkpt>
<trkpt lat="34.234827" lon="135.3375643">
<ele>0</ele>
</trkpt>
<trkpt lat="34.2343924" lon="135.3371781">
<ele>0</ele>
</trkpt>
<trkpt lat="34.2345609" lon="135.3370279">
<ele>0</ele>
</trkpt>
<trkpt lat="34.2346585" lon="135.336867">
<ele>0</ele>
</trkpt>
<trkpt lat="34.2346053" lon="135.3367168">
<ele>0</ele>
</trkpt>
<trkpt lat="34.2334744" lon="135.3358638">
<ele>0</ele>
</trkpt>
<trkpt lat="34.2324853" lon="135.3349626">
<ele>0</ele>
</trkpt>
<trkpt lat="34.2319443" lon="135.3343511">
<ele>0</ele>
</trkpt>
<trkpt lat="34.2314564" lon="135.3337127">
<ele>0</ele>
</trkpt>
<trkpt lat="34.2294916" lon="135.330714">
<ele>0</ele>
</trkpt>
<trkpt lat="34.2293231" lon="135.3304887">
<ele>0</ele>
</trkpt>
<trkpt lat="34.2289727" lon="135.3300327">
<ele>0</ele>
</trkpt>
<trkpt lat="34.2285114" lon="135.329566">
<ele>0</ele>
</trkpt>
<trkpt lat="34.2281255" lon="135.3292549">
<ele>0</ele>
</trkpt>
<trkpt lat="34.2278417" lon="135.3290617">
<ele>0</ele>
</trkpt>
<trkpt lat="34.22758" lon="135.3289008">
<ele>0</ele>
</trkpt>
<trkpt lat="34.2269457" lon="135.3286701">
<ele>0</ele>
</trkpt>
<trkpt lat="34.2267062" lon="135.3285843">
<ele>0</ele>
</trkpt>
<trkpt lat="34.225899" lon="135.3283483">
<ele>0</ele>
</trkpt>
<trkpt lat="34.2254776" lon="135.3282463">
<ele>0</ele>
</trkpt>
<trkpt lat="34.2246925" lon="135.3281873">
<ele>0</ele>
</trkpt>
<trkpt lat="34.2237256" lon="135.3281927">
<ele>0</ele>
</trkpt>
<trkpt lat="34.2226566" lon="135.3282088">
<ele>0</ele>
</trkpt>
<trkpt lat="34.2219779" lon="135.3281927">
<ele>0</ele>
</trkpt>
<trkpt lat="34.2212904" lon="135.3281283">
<ele>0</ele>
</trkpt>
<trkpt lat="34.2203545" lon="135.328021">
<ele>0</ele>
</trkpt>
<trkpt lat="34.2190193" lon="135.3277689">
<ele>0</ele>
</trkpt>
<trkpt lat="34.2183584" lon="135.327608">
<ele>0</ele>
</trkpt>
<trkpt lat="34.2176531" lon="135.3273612">
<ele>0</ele>
</trkpt>
<trkpt lat="34.2172893" lon="135.32727">
<ele>0</ele>
</trkpt>
<trkpt lat="34.216655" lon="135.3270984">
<ele>0</ele>
</trkpt>
<trkpt lat="34.2164598" lon="135.3270984">
<ele>0</ele>
</trkpt>
<trkpt lat="34.2162469" lon="135.3268409">
<ele>0</ele>
</trkpt>
<trkpt lat="34.2152532" lon="135.326401">
<ele>0</ele>
</trkpt>
<trkpt lat="34.2145878" lon="135.326004">
<ele>0</ele>
</trkpt>
<trkpt lat="34.2142063" lon="135.3258967">
<ele>0</ele>
</trkpt>
<trkpt lat="34.2140111" lon="135.3257465">
<ele>0</ele>
</trkpt>
<trkpt lat="34.2136563" lon="135.3257143">
<ele>0</ele>
</trkpt>
<trkpt lat="34.2134256" lon="135.3254783">
<ele>0</ele>
</trkpt>
<trkpt lat="34.213257" lon="135.3251779">
<ele>0</ele>
</trkpt>
<trkpt lat="34.2130086" lon="135.3247917">
<ele>0</ele>
</trkpt>
<trkpt lat="34.2129465" lon="135.3246093">
<ele>0</ele>
</trkpt>
<trkpt lat="34.2122456" lon="135.3238368">
<ele>0</ele>
</trkpt>
<trkpt lat="34.2113938" lon="135.3225815">
<ele>0</ele>
</trkpt>
<trkpt lat="34.2109325" lon="135.3218734">
<ele>0</ele>
</trkpt>
<trkpt lat="34.2104711" lon="135.3209507">
<ele>0</ele>
</trkpt>
<trkpt lat="34.2097879" lon="135.3193843">
<ele>0</ele>
</trkpt>
<trkpt lat="34.209575" lon="135.3187835">
<ele>0</ele>
</trkpt>
<trkpt lat="34.2092378" lon="135.3181398">
<ele>0</ele>
</trkpt>
<trkpt lat="34.2087232" lon="135.3173351">
<ele>0</ele>
</trkpt>
<trkpt lat="34.2076673" lon="135.3159296">
<ele>0</ele>
</trkpt>
<trkpt lat="34.2069309" lon="135.3150606">
<ele>0</ele>
</trkpt>
<trkpt lat="34.2064961" lon="135.3146851">
<ele>0</ele>
</trkpt>
<trkpt lat="34.2062565" lon="135.3146315">
<ele>0</ele>
</trkpt>
<trkpt lat="34.2059815" lon="135.3143632">
<ele>0</ele>
</trkpt>
<trkpt lat="34.2065848" lon="135.3131723">
<ele>0</ele>
</trkpt>
<trkpt lat="34.2068865" lon="135.3127324">
<ele>0</ele>
</trkpt>
<trkpt lat="34.2073656" lon="135.3125071">
<ele>0</ele>
</trkpt>
<trkpt lat="34.2074472" lon="135.3123573">
<ele>0</ele>
</trkpt>
<trkpt lat="34.2076247" lon="135.3123465">
<ele>0</ele>
</trkpt>
<trkpt lat="34.2081038" lon="135.3123841">
<ele>0</ele>
</trkpt>
<trkpt lat="34.2081792" lon="135.312376">
<ele>0</ele>
</trkpt>
<trkpt lat="34.2082724" lon="135.3123492">
<ele>0</ele>
</trkpt>
<trkpt lat="34.2083345" lon="135.3123009">
<ele>0</ele>
</trkpt>
<trkpt lat="34.2086517" lon="135.3122848">
<ele>0</ele>
</trkpt>
<trkpt lat="34.2088469" lon="135.3122822">
<ele>0</ele>
</trkpt>
<trkpt lat="34.2090754" lon="135.3122419">
<ele>0</ele>
</trkpt>
<trkpt lat="34.2091952" lon="135.3122205">
<ele>0</ele>
</trkpt>
<trkpt lat="34.2093393" lon="135.3122097">
<ele>0</ele>
</trkpt>
    </trkseg>
  </trk>
</gpx>