<?xml version="1.0" encoding="UTF-8"?>
<gpx version="1.1"
     creator="KMLtoGPX"
     xmlns="http://www.topografix.com/GPX/1/1">
  <metadata>
    <name>Lake Tsuburoko Adventure Course</name>
    <desc>津風呂湖アドベンチャーコース</desc>
    <bounds minlat="34.39023" minlon="135.84601" maxlat="34.40912" maxlon="135.91984"/>
  </metadata>
  <trk>
    <name>Lake Tsuburoko Adventure Course</name>
    <trkseg>
<trkpt lat="34.3952" lon="135.84602">
<ele>168.5</ele>
</trkpt>
<trkpt lat="34.39513" lon="135.84601">
<ele>167.4</ele>
</trkpt>
<trkpt lat="34.39497" lon="135.8463">
<ele>165.8</ele>
</trkpt>
<trkpt lat="34.39488" lon="135.84639">
<ele>164.8</ele>
</trkpt>
<trkpt lat="34.3947" lon="135.8465">
<ele>162.6</ele>
</trkpt>
<trkpt lat="34.39473" lon="135.84671">
<ele>163.6</ele>
</trkpt>
<trkpt lat="34.39474" lon="135.84699">
<ele>166.8</ele>
</trkpt>
<trkpt lat="34.39466" lon="135.84745">
<ele>169.9</ele>
</trkpt>
<trkpt lat="34.39453" lon="135.84793">
<ele>169.6</ele>
</trkpt>
<trkpt lat="34.39452" lon="135.84815">
<ele>170.5</ele>
</trkpt>
<trkpt lat="34.39456" lon="135.84856">
<ele>174.5</ele>
</trkpt>
<trkpt lat="34.39455" lon="135.8487199">
<ele>175.1</ele>
</trkpt>
<trkpt lat="34.3945099" lon="135.84897">
<ele>174.8</ele>
</trkpt>
<trkpt lat="34.3945" lon="135.84921">
<ele>175.2</ele>
</trkpt>
<trkpt lat="34.39455" lon="135.84983">
<ele>174.4</ele>
</trkpt>
<trkpt lat="34.3947" lon="135.85082">
<ele>172.4</ele>
</trkpt>
<trkpt lat="34.39486" lon="135.85182">
<ele>168.8</ele>
</trkpt>
<trkpt lat="34.39494" lon="135.85213">
<ele>167.6</ele>
</trkpt>
<trkpt lat="34.3950699" lon="135.8524">
<ele>169.2</ele>
</trkpt>
<trkpt lat="34.3953" lon="135.85316">
<ele>172.5</ele>
</trkpt>
<trkpt lat="34.39548" lon="135.85421">
<ele>171.9</ele>
</trkpt>
<trkpt lat="34.39566" lon="135.85525">
<ele>168.0</ele>
</trkpt>
<trkpt lat="34.39566" lon="135.85546">
<ele>167.4</ele>
</trkpt>
<trkpt lat="34.3955399" lon="135.85578">
<ele>165.3</ele>
</trkpt>
<trkpt lat="34.39541" lon="135.85584">
<ele>163.9</ele>
</trkpt>
<trkpt lat="34.3955399" lon="135.85643">
<ele>164.4</ele>
</trkpt>
<trkpt lat="34.39567" lon="135.85702">
<ele>164.7</ele>
</trkpt>
<trkpt lat="34.3958" lon="135.85805">
<ele>164.5</ele>
</trkpt>
<trkpt lat="34.39588" lon="135.85861">
<ele>165.7</ele>
</trkpt>
<trkpt lat="34.39596" lon="135.85917">
<ele>165.4</ele>
</trkpt>
<trkpt lat="34.3960099" lon="135.85923">
<ele>166.3</ele>
</trkpt>
<trkpt lat="34.39604" lon="135.85955">
<ele>166.4</ele>
</trkpt>
<trkpt lat="34.39623" lon="135.8597">
<ele>169.7</ele>
</trkpt>
<trkpt lat="34.39623" lon="135.86">
<ele>169.1</ele>
</trkpt>
<trkpt lat="34.39627" lon="135.86076">
<ele>177.1</ele>
</trkpt>
<trkpt lat="34.39634" lon="135.86146">
<ele>178.1</ele>
</trkpt>
<trkpt lat="34.3964" lon="135.86217">
<ele>177.5</ele>
</trkpt>
<trkpt lat="34.39638" lon="135.86247">
<ele>175.5</ele>
</trkpt>
<trkpt lat="34.39641" lon="135.86328">
<ele>175.1</ele>
</trkpt>
<trkpt lat="34.39641" lon="135.8636">
<ele>173.9</ele>
</trkpt>
<trkpt lat="34.39636" lon="135.8637">
<ele>172.0</ele>
</trkpt>
<trkpt lat="34.39636" lon="135.86412">
<ele>170.3</ele>
</trkpt>
<trkpt lat="34.39634" lon="135.86429">
<ele>169.7</ele>
</trkpt>
<trkpt lat="34.39625" lon="135.86463">
<ele>167.6</ele>
</trkpt>
<trkpt lat="34.39614" lon="135.8648399">
<ele>165.0</ele>
</trkpt>
<trkpt lat="34.39616" lon="135.8649299">
<ele>165.8</ele>
</trkpt>
<trkpt lat="34.39613" lon="135.8651">
<ele>165.7</ele>
</trkpt>
<trkpt lat="34.39603" lon="135.86541">
<ele>164.5</ele>
</trkpt>
<trkpt lat="34.39575" lon="135.8659">
<ele>161.8</ele>
</trkpt>
<trkpt lat="34.3952699" lon="135.86665">
<ele>167.2</ele>
</trkpt>
<trkpt lat="34.39494" lon="135.86724">
<ele>163.5</ele>
</trkpt>
<trkpt lat="34.39482" lon="135.86749">
<ele>163.8</ele>
</trkpt>
<trkpt lat="34.39475" lon="135.86761">
<ele>163.8110364</ele>
</trkpt>
<trkpt lat="34.39467" lon="135.8677">
<ele>163.8209709</ele>
</trkpt>
<trkpt lat="34.39455" lon="135.86781">
<ele>163.8346647</ele>
</trkpt>
<trkpt lat="34.39447" lon="135.86787">
<ele>163.8432272</ele>
</trkpt>
<trkpt lat="34.39408" lon="135.86846">
<ele>163.9</ele>
</trkpt>
<trkpt lat="34.39378" lon="135.86847">
<ele>161.9</ele>
</trkpt>
<trkpt lat="34.39342" lon="135.86915">
<ele>167.2</ele>
</trkpt>
<trkpt lat="34.39326" lon="135.8694999">
<ele>171.6</ele>
</trkpt>
<trkpt lat="34.39317" lon="135.86983">
<ele>175.6</ele>
</trkpt>
<trkpt lat="34.39302" lon="135.87069">
<ele>184.8</ele>
</trkpt>
<trkpt lat="34.39297" lon="135.87086">
<ele>184.8</ele>
</trkpt>
<trkpt lat="34.39285" lon="135.8711099">
<ele>178.9</ele>
</trkpt>
<trkpt lat="34.393" lon="135.8714">
<ele>183.3</ele>
</trkpt>
<trkpt lat="34.39311" lon="135.87178">
<ele>183.6</ele>
</trkpt>
<trkpt lat="34.3932" lon="135.87201">
<ele>181.9</ele>
</trkpt>
<trkpt lat="34.39354" lon="135.87251">
<ele>176.0</ele>
</trkpt>
<trkpt lat="34.39402" lon="135.8730799">
<ele>179.4</ele>
</trkpt>
<trkpt lat="34.39414" lon="135.87325">
<ele>180.0</ele>
</trkpt>
<trkpt lat="34.39421" lon="135.87339">
<ele>179.8</ele>
</trkpt>
<trkpt lat="34.39424" lon="135.87354">
<ele>179.2</ele>
</trkpt>
<trkpt lat="34.39424" lon="135.87354">
<ele>179.2</ele>
</trkpt>
<trkpt lat="34.39427" lon="135.87371">
<ele>178.6</ele>
</trkpt>
<trkpt lat="34.39422" lon="135.87455">
<ele>175.1</ele>
</trkpt>
<trkpt lat="34.39423" lon="135.87466">
<ele>174.9</ele>
</trkpt>
<trkpt lat="34.39428" lon="135.8749">
<ele>174.8</ele>
</trkpt>
<trkpt lat="34.39435" lon="135.87512">
<ele>177.7</ele>
</trkpt>
<trkpt lat="34.39436" lon="135.87519">
<ele>179.2</ele>
</trkpt>
<trkpt lat="34.3943299" lon="135.87531">
<ele>180.9</ele>
</trkpt>
<trkpt lat="34.39416" lon="135.87564">
<ele>182.9</ele>
</trkpt>
<trkpt lat="34.39401" lon="135.87591">
<ele>185.0</ele>
</trkpt>
<trkpt lat="34.3938" lon="135.87642">
<ele>187.7</ele>
</trkpt>
<trkpt lat="34.39368" lon="135.87688">
<ele>187.4</ele>
</trkpt>
<trkpt lat="34.3933899" lon="135.87741">
<ele>179.6</ele>
</trkpt>
<trkpt lat="34.3933899" lon="135.87741">
<ele>179.6</ele>
</trkpt>
<trkpt lat="34.39338" lon="135.87746">
<ele>179.4</ele>
</trkpt>
<trkpt lat="34.39346" lon="135.87783">
<ele>185.2</ele>
</trkpt>
<trkpt lat="34.39346" lon="135.87798">
<ele>186.6</ele>
</trkpt>
<trkpt lat="34.39343" lon="135.87868">
<ele>189.3</ele>
</trkpt>
<trkpt lat="34.39342" lon="135.87878">
<ele>189.0</ele>
</trkpt>
<trkpt lat="34.39335" lon="135.8790799">
<ele>185.9</ele>
</trkpt>
<trkpt lat="34.39334" lon="135.87915">
<ele>185.4</ele>
</trkpt>
<trkpt lat="34.39336" lon="135.87924">
<ele>185.8</ele>
</trkpt>
<trkpt lat="34.39349" lon="135.8794">
<ele>190.5</ele>
</trkpt>
<trkpt lat="34.39367" lon="135.87954">
<ele>196.4</ele>
</trkpt>
<trkpt lat="34.3938" lon="135.87962">
<ele>200.3</ele>
</trkpt>
<trkpt lat="34.39399" lon="135.87968">
<ele>206.4</ele>
</trkpt>
<trkpt lat="34.3941299" lon="135.87977">
<ele>209.1</ele>
</trkpt>
<trkpt lat="34.39424" lon="135.87989">
<ele>209.7</ele>
</trkpt>
<trkpt lat="34.39448" lon="135.88034">
<ele>206.7</ele>
</trkpt>
<trkpt lat="34.39459" lon="135.8806899">
<ele>199.8</ele>
</trkpt>
<trkpt lat="34.39467" lon="135.88103">
<ele>194.1</ele>
</trkpt>
<trkpt lat="34.39471" lon="135.88134">
<ele>189.2</ele>
</trkpt>
<trkpt lat="34.3947" lon="135.88148">
<ele>186.3</ele>
</trkpt>
<trkpt lat="34.39465" lon="135.88165">
<ele>182.5</ele>
</trkpt>
<trkpt lat="34.39456" lon="135.8819">
<ele>181.0</ele>
</trkpt>
<trkpt lat="34.39427" lon="135.88245">
<ele>180.7</ele>
</trkpt>
<trkpt lat="34.39416" lon="135.88288">
<ele>188.1767701</ele>
</trkpt>
<trkpt lat="34.39414" lon="135.88298">
<ele>189.8856632</ele>
</trkpt>
<trkpt lat="34.3941299" lon="135.88314">
<ele>192.5505662</ele>
</trkpt>
<trkpt lat="34.39417" lon="135.88326">
<ele>194.7</ele>
</trkpt>
<trkpt lat="34.39435" lon="135.88347">
<ele>200.1</ele>
</trkpt>
<trkpt lat="34.39482" lon="135.88356">
<ele>202.8</ele>
</trkpt>
<trkpt lat="34.39492" lon="135.88355">
<ele>202.3</ele>
</trkpt>
<trkpt lat="34.39515" lon="135.88335">
<ele>193.3</ele>
</trkpt>
<trkpt lat="34.39532" lon="135.88324">
<ele>191.8</ele>
</trkpt>
<trkpt lat="34.39544" lon="135.88329">
<ele>192.9</ele>
</trkpt>
<trkpt lat="34.39579" lon="135.88326">
<ele>193.7</ele>
</trkpt>
<trkpt lat="34.39597" lon="135.88332">
<ele>193.7</ele>
</trkpt>
<trkpt lat="34.39611" lon="135.88342">
<ele>194.7</ele>
</trkpt>
<trkpt lat="34.39634" lon="135.88385">
<ele>198.4</ele>
</trkpt>
<trkpt lat="34.3964" lon="135.8846">
<ele>201.6</ele>
</trkpt>
<trkpt lat="34.39654" lon="135.88548">
<ele>201.9</ele>
</trkpt>
<trkpt lat="34.39654" lon="135.8857">
<ele>204.2</ele>
</trkpt>
<trkpt lat="34.39642" lon="135.88673">
<ele>219.2</ele>
</trkpt>
<trkpt lat="34.3963899" lon="135.8868699">
<ele>221.1</ele>
</trkpt>
<trkpt lat="34.39606" lon="135.88754">
<ele>239.6</ele>
</trkpt>
<trkpt lat="34.3959199" lon="135.88792">
<ele>244.7</ele>
</trkpt>
<trkpt lat="34.39588" lon="135.8881199">
<ele>245.8</ele>
</trkpt>
<trkpt lat="34.3959199" lon="135.88845">
<ele>245.4</ele>
</trkpt>
<trkpt lat="34.3960099" lon="135.88873">
<ele>246.6</ele>
</trkpt>
<trkpt lat="34.39616" lon="135.88888">
<ele>243.1</ele>
</trkpt>
<trkpt lat="34.39661" lon="135.8891099">
<ele>229.2</ele>
</trkpt>
<trkpt lat="34.39706" lon="135.88935">
<ele>223.5</ele>
</trkpt>
<trkpt lat="34.39716" lon="135.8895">
<ele>223.5</ele>
</trkpt>
<trkpt lat="34.39708" lon="135.88965">
<ele>227.2</ele>
</trkpt>
<trkpt lat="34.397" lon="135.88971">
<ele>229.8</ele>
</trkpt>
<trkpt lat="34.39694" lon="135.8898">
<ele>232.5</ele>
</trkpt>
<trkpt lat="34.39692" lon="135.88992">
<ele>234.7</ele>
</trkpt>
<trkpt lat="34.3968599" lon="135.89002">
<ele>237.8</ele>
</trkpt>
<trkpt lat="34.39664" lon="135.89004">
<ele>243.2</ele>
</trkpt>
<trkpt lat="34.39633" lon="135.88994">
<ele>247.9</ele>
</trkpt>
<trkpt lat="34.39622" lon="135.88995">
<ele>250.3</ele>
</trkpt>
<trkpt lat="34.39608" lon="135.8900899">
<ele>254.3</ele>
</trkpt>
<trkpt lat="34.39609" lon="135.89024">
<ele>255.8</ele>
</trkpt>
<trkpt lat="34.39617" lon="135.89031">
<ele>255.3</ele>
</trkpt>
<trkpt lat="34.39659" lon="135.89049">
<ele>251.9</ele>
</trkpt>
<trkpt lat="34.39678" lon="135.89055">
<ele>250.1</ele>
</trkpt>
<trkpt lat="34.39688" lon="135.8905399">
<ele>248.3</ele>
</trkpt>
<trkpt lat="34.39731" lon="135.89037">
<ele>236.6</ele>
</trkpt>
<trkpt lat="34.39739" lon="135.8904">
<ele>236.0</ele>
</trkpt>
<trkpt lat="34.39769" lon="135.89109">
<ele>251.1</ele>
</trkpt>
<trkpt lat="34.39783" lon="135.89111">
<ele>248.8</ele>
</trkpt>
<trkpt lat="34.39813" lon="135.89098">
<ele>239.3</ele>
</trkpt>
<trkpt lat="34.39828" lon="135.89094">
<ele>235.4</ele>
</trkpt>
<trkpt lat="34.3983599" lon="135.89098">
<ele>234.9</ele>
</trkpt>
<trkpt lat="34.39855" lon="135.89122">
<ele>236.7</ele>
</trkpt>
<trkpt lat="34.39857" lon="135.89151">
<ele>242.5</ele>
</trkpt>
<trkpt lat="34.3985399" lon="135.89162">
<ele>245.5</ele>
</trkpt>
<trkpt lat="34.3984" lon="135.89184">
<ele>247.2</ele>
</trkpt>
<trkpt lat="34.39825" lon="135.89223">
<ele>244.2</ele>
</trkpt>
<trkpt lat="34.3981" lon="135.8927">
<ele>242.0</ele>
</trkpt>
<trkpt lat="34.3979799" lon="135.89275">
<ele>243.6</ele>
</trkpt>
<trkpt lat="34.39766" lon="135.8928">
<ele>247.8</ele>
</trkpt>
<trkpt lat="34.39739" lon="135.89286">
<ele>252.6</ele>
</trkpt>
<trkpt lat="34.39712" lon="135.89285">
<ele>262.2</ele>
</trkpt>
<trkpt lat="34.39703" lon="135.89293">
<ele>263.5</ele>
</trkpt>
<trkpt lat="34.39693" lon="135.89364">
<ele>255.1</ele>
</trkpt>
<trkpt lat="34.39682" lon="135.89395">
<ele>255.0</ele>
</trkpt>
<trkpt lat="34.3968" lon="135.89415">
<ele>253.3</ele>
</trkpt>
<trkpt lat="34.39683" lon="135.89464">
<ele>244.2</ele>
</trkpt>
<trkpt lat="34.3968" lon="135.8947">
<ele>243.4</ele>
</trkpt>
<trkpt lat="34.3967" lon="135.89474">
<ele>243.4</ele>
</trkpt>
<trkpt lat="34.39642" lon="135.89472">
<ele>249.5</ele>
</trkpt>
<trkpt lat="34.39633" lon="135.89478">
<ele>249.9</ele>
</trkpt>
<trkpt lat="34.39611" lon="135.89501">
<ele>247.9</ele>
</trkpt>
<trkpt lat="34.39599" lon="135.89504">
<ele>249.6</ele>
</trkpt>
<trkpt lat="34.39589" lon="135.89497">
<ele>253.0</ele>
</trkpt>
<trkpt lat="34.3958" lon="135.8948">
<ele>260.7</ele>
</trkpt>
<trkpt lat="34.39574" lon="135.89477">
<ele>263.4</ele>
</trkpt>
<trkpt lat="34.39565" lon="135.89477">
<ele>266.1</ele>
</trkpt>
<trkpt lat="34.39558" lon="135.8948399">
<ele>266.0</ele>
</trkpt>
<trkpt lat="34.39547" lon="135.89491">
<ele>267.3</ele>
</trkpt>
<trkpt lat="34.39532" lon="135.89489">
<ele>272.5</ele>
</trkpt>
<trkpt lat="34.3953" lon="135.89497">
<ele>271.1</ele>
</trkpt>
<trkpt lat="34.39531" lon="135.89504">
<ele>269.2</ele>
</trkpt>
<trkpt lat="34.39544" lon="135.89546">
<ele>257.2</ele>
</trkpt>
<trkpt lat="34.3955399" lon="135.8959099">
<ele>246.5</ele>
</trkpt>
<trkpt lat="34.39551" lon="135.89604">
<ele>246.2</ele>
</trkpt>
<trkpt lat="34.3954499" lon="135.89613">
<ele>246.7</ele>
</trkpt>
<trkpt lat="34.39535" lon="135.89616">
<ele>248.5</ele>
</trkpt>
<trkpt lat="34.39506" lon="135.89616">
<ele>254.8</ele>
</trkpt>
<trkpt lat="34.39472" lon="135.89611">
<ele>268.4</ele>
</trkpt>
<trkpt lat="34.3945999" lon="135.89614">
<ele>272.4</ele>
</trkpt>
<trkpt lat="34.39452" lon="135.8962699">
<ele>272.2</ele>
</trkpt>
<trkpt lat="34.39453" lon="135.89643">
<ele>267.6</ele>
</trkpt>
<trkpt lat="34.39464" lon="135.89682">
<ele>254.5</ele>
</trkpt>
<trkpt lat="34.39462" lon="135.89695">
<ele>252.5</ele>
</trkpt>
<trkpt lat="34.39452" lon="135.89704">
<ele>253.2</ele>
</trkpt>
<trkpt lat="34.3943299" lon="135.89709">
<ele>256.5</ele>
</trkpt>
<trkpt lat="34.39392" lon="135.89705">
<ele>271.5</ele>
</trkpt>
<trkpt lat="34.39387" lon="135.89712">
<ele>271.7</ele>
</trkpt>
<trkpt lat="34.39388" lon="135.89729">
<ele>266.9</ele>
</trkpt>
<trkpt lat="34.39418" lon="135.89771">
<ele>243.9</ele>
</trkpt>
<trkpt lat="34.39415" lon="135.8977899">
<ele>244.0</ele>
</trkpt>
<trkpt lat="34.39401" lon="135.89794">
<ele>248.6</ele>
</trkpt>
<trkpt lat="34.39356" lon="135.89829">
<ele>260.1</ele>
</trkpt>
<trkpt lat="34.3932" lon="135.89846">
<ele>272.1</ele>
</trkpt>
<trkpt lat="34.39311" lon="135.89855">
<ele>275.6</ele>
</trkpt>
<trkpt lat="34.3930999" lon="135.89864">
<ele>277.0</ele>
</trkpt>
<trkpt lat="34.39313" lon="135.89874">
<ele>277.6</ele>
</trkpt>
<trkpt lat="34.39365" lon="135.8988">
<ele>259.8</ele>
</trkpt>
<trkpt lat="34.39392" lon="135.89888">
<ele>248.7</ele>
</trkpt>
<trkpt lat="34.39406" lon="135.89896">
<ele>242.8</ele>
</trkpt>
<trkpt lat="34.3941299" lon="135.89906">
<ele>239.7</ele>
</trkpt>
<trkpt lat="34.39427" lon="135.89942">
<ele>243.1</ele>
</trkpt>
<trkpt lat="34.39447" lon="135.89979">
<ele>247.0</ele>
</trkpt>
<trkpt lat="34.39457" lon="135.8999">
<ele>246.6</ele>
</trkpt>
<trkpt lat="34.39493" lon="135.9001">
<ele>239.4</ele>
</trkpt>
<trkpt lat="34.39496" lon="135.90016">
<ele>238.7</ele>
</trkpt>
<trkpt lat="34.39483" lon="135.90035">
<ele>240.2</ele>
</trkpt>
<trkpt lat="34.39472" lon="135.90064">
<ele>239.5</ele>
</trkpt>
<trkpt lat="34.39465" lon="135.90069">
<ele>239.4</ele>
</trkpt>
<trkpt lat="34.39445" lon="135.90062">
<ele>241.2</ele>
</trkpt>
<trkpt lat="34.39417" lon="135.90035">
<ele>249.0</ele>
</trkpt>
<trkpt lat="34.39389" lon="135.90015">
<ele>258.9</ele>
</trkpt>
<trkpt lat="34.39382" lon="135.90013">
<ele>260.7</ele>
</trkpt>
<trkpt lat="34.39347" lon="135.90008">
<ele>268.9</ele>
</trkpt>
<trkpt lat="34.39336" lon="135.9001">
<ele>270.5</ele>
</trkpt>
<trkpt lat="34.39323" lon="135.9002099">
<ele>269.5</ele>
</trkpt>
<trkpt lat="34.39306" lon="135.9002999">
<ele>269.4</ele>
</trkpt>
<trkpt lat="34.39286" lon="135.90032">
<ele>271.8</ele>
</trkpt>
<trkpt lat="34.39243" lon="135.90082">
<ele>256.0</ele>
</trkpt>
<trkpt lat="34.39231" lon="135.90097">
<ele>255.1</ele>
</trkpt>
<trkpt lat="34.39223" lon="135.901">
<ele>256.0</ele>
</trkpt>
<trkpt lat="34.39157" lon="135.90097">
<ele>272.3</ele>
</trkpt>
<trkpt lat="34.39152" lon="135.90106">
<ele>272.7</ele>
</trkpt>
<trkpt lat="34.39173" lon="135.90136">
<ele>257.3</ele>
</trkpt>
<trkpt lat="34.39195" lon="135.90154">
<ele>249.4</ele>
</trkpt>
<trkpt lat="34.39197" lon="135.90168">
<ele>246.2</ele>
</trkpt>
<trkpt lat="34.39192" lon="135.90181">
<ele>246.0</ele>
</trkpt>
<trkpt lat="34.39184" lon="135.90197">
<ele>245.7</ele>
</trkpt>
<trkpt lat="34.39179" lon="135.9019999">
<ele>246.0</ele>
</trkpt>
<trkpt lat="34.39154" lon="135.90202">
<ele>254.4</ele>
</trkpt>
<trkpt lat="34.39149" lon="135.90206">
<ele>257.0</ele>
</trkpt>
<trkpt lat="34.39146" lon="135.90217">
<ele>257.8</ele>
</trkpt>
<trkpt lat="34.39146" lon="135.9023">
<ele>256.8</ele>
</trkpt>
<trkpt lat="34.39158" lon="135.9027">
<ele>246.2</ele>
</trkpt>
<trkpt lat="34.39158" lon="135.90285">
<ele>245.3</ele>
</trkpt>
<trkpt lat="34.39146" lon="135.90344">
<ele>247.4</ele>
</trkpt>
<trkpt lat="34.3914199" lon="135.90357">
<ele>248.2</ele>
</trkpt>
<trkpt lat="34.39135" lon="135.9036999">
<ele>249.7</ele>
</trkpt>
<trkpt lat="34.39119" lon="135.90383">
<ele>253.6</ele>
</trkpt>
<trkpt lat="34.39096" lon="135.90392">
<ele>259.0</ele>
</trkpt>
<trkpt lat="34.39052" lon="135.90396">
<ele>270.4</ele>
</trkpt>
<trkpt lat="34.3905" lon="135.90402">
<ele>269.7</ele>
</trkpt>
<trkpt lat="34.3906" lon="135.9041">
<ele>264.9</ele>
</trkpt>
<trkpt lat="34.39073" lon="135.90426">
<ele>257.5</ele>
</trkpt>
<trkpt lat="34.39082" lon="135.90447">
<ele>250.0</ele>
</trkpt>
<trkpt lat="34.39086" lon="135.90487">
<ele>240.7</ele>
</trkpt>
<trkpt lat="34.39081" lon="135.90504">
<ele>239.3</ele>
</trkpt>
<trkpt lat="34.39067" lon="135.90518">
<ele>246.6</ele>
</trkpt>
<trkpt lat="34.39044" lon="135.90536">
<ele>256.2</ele>
</trkpt>
<trkpt lat="34.39037" lon="135.90544">
<ele>258.2</ele>
</trkpt>
<trkpt lat="34.39034" lon="135.90554">
<ele>257.8</ele>
</trkpt>
<trkpt lat="34.3904" lon="135.90586">
<ele>250.9</ele>
</trkpt>
<trkpt lat="34.3903899" lon="135.906">
<ele>250.6</ele>
</trkpt>
<trkpt lat="34.39026" lon="135.9062999">
<ele>252.5</ele>
</trkpt>
<trkpt lat="34.39023" lon="135.90646">
<ele>252.3</ele>
</trkpt>
<trkpt lat="34.39023" lon="135.90659">
<ele>251.5</ele>
</trkpt>
<trkpt lat="34.3903" lon="135.90706">
<ele>250.4</ele>
</trkpt>
<trkpt lat="34.3905" lon="135.90776">
<ele>248.8</ele>
</trkpt>
<trkpt lat="34.3907" lon="135.90846">
<ele>247.8</ele>
</trkpt>
<trkpt lat="34.39085" lon="135.90901">
<ele>255.1</ele>
</trkpt>
<trkpt lat="34.39099" lon="135.90955">
<ele>259.0</ele>
</trkpt>
<trkpt lat="34.39102" lon="135.90972">
<ele>258.8</ele>
</trkpt>
<trkpt lat="34.39101" lon="135.90994">
<ele>259.1</ele>
</trkpt>
<trkpt lat="34.39102" lon="135.91023">
<ele>262.3</ele>
</trkpt>
<trkpt lat="34.3910399" lon="135.91032">
<ele>263.1</ele>
</trkpt>
<trkpt lat="34.39108" lon="135.91037">
<ele>262.9</ele>
</trkpt>
<trkpt lat="34.39115" lon="135.9104">
<ele>261.7</ele>
</trkpt>
<trkpt lat="34.39126" lon="135.91039">
<ele>258.9</ele>
</trkpt>
<trkpt lat="34.39132" lon="135.91041">
<ele>257.7</ele>
</trkpt>
<trkpt lat="34.3915" lon="135.91088">
<ele>260.1</ele>
</trkpt>
<trkpt lat="34.39159" lon="135.91102">
<ele>262.7</ele>
</trkpt>
<trkpt lat="34.39181" lon="135.9112">
<ele>263.3</ele>
</trkpt>
<trkpt lat="34.39191" lon="135.91125">
<ele>262.2</ele>
</trkpt>
<trkpt lat="34.39222" lon="135.91132">
<ele>255.6</ele>
</trkpt>
<trkpt lat="34.39253" lon="135.91125">
<ele>246.8</ele>
</trkpt>
<trkpt lat="34.39267" lon="135.91125">
<ele>246.0</ele>
</trkpt>
<trkpt lat="34.39272" lon="135.91127">
<ele>245.9</ele>
</trkpt>
<trkpt lat="34.39276" lon="135.91137">
<ele>246.8</ele>
</trkpt>
<trkpt lat="34.39274" lon="135.91177">
<ele>251.3</ele>
</trkpt>
<trkpt lat="34.3928299" lon="135.91231">
<ele>255.2</ele>
</trkpt>
<trkpt lat="34.3928299" lon="135.91243">
<ele>256.3</ele>
</trkpt>
<trkpt lat="34.39281" lon="135.9124799">
<ele>257.1</ele>
</trkpt>
<trkpt lat="34.39262" lon="135.91259">
<ele>260.8</ele>
</trkpt>
<trkpt lat="34.39246" lon="135.91273">
<ele>263.4</ele>
</trkpt>
<trkpt lat="34.39241" lon="135.91283">
<ele>264.0</ele>
</trkpt>
<trkpt lat="34.39235" lon="135.91378">
<ele>260.0</ele>
</trkpt>
<trkpt lat="34.39233" lon="135.91441">
<ele>260.7</ele>
</trkpt>
<trkpt lat="34.39234" lon="135.9145">
<ele>260.9</ele>
</trkpt>
<trkpt lat="34.39242" lon="135.91456">
<ele>258.3</ele>
</trkpt>
<trkpt lat="34.39267" lon="135.91461">
<ele>252.9</ele>
</trkpt>
<trkpt lat="34.39272" lon="135.91466">
<ele>252.1</ele>
</trkpt>
<trkpt lat="34.39275" lon="135.91475">
<ele>251.7</ele>
</trkpt>
<trkpt lat="34.39271" lon="135.91489">
<ele>252.6</ele>
</trkpt>
<trkpt lat="34.39248" lon="135.91528">
<ele>257.0</ele>
</trkpt>
<trkpt lat="34.39244" lon="135.91545">
<ele>258.6</ele>
</trkpt>
<trkpt lat="34.39242" lon="135.91559">
<ele>259.4</ele>
</trkpt>
<trkpt lat="34.3924499" lon="135.91575">
<ele>257.4</ele>
</trkpt>
<trkpt lat="34.39252" lon="135.91585">
<ele>254.6</ele>
</trkpt>
<trkpt lat="34.39281" lon="135.91605">
<ele>260.0</ele>
</trkpt>
<trkpt lat="34.39294" lon="135.91609">
<ele>259.7</ele>
</trkpt>
<trkpt lat="34.39321" lon="135.91608">
<ele>254.9</ele>
</trkpt>
<trkpt lat="34.39329" lon="135.91611">
<ele>254.7</ele>
</trkpt>
<trkpt lat="34.39345" lon="135.9162399">
<ele>258.7</ele>
</trkpt>
<trkpt lat="34.39356" lon="135.91631">
<ele>261.3</ele>
</trkpt>
<trkpt lat="34.3938" lon="135.9163299">
<ele>262.1</ele>
</trkpt>
<trkpt lat="34.39432" lon="135.91587">
<ele>245.6</ele>
</trkpt>
<trkpt lat="34.39448" lon="135.91576">
<ele>243.6</ele>
</trkpt>
<trkpt lat="34.39463" lon="135.9156099">
<ele>242.4</ele>
</trkpt>
<trkpt lat="34.39477" lon="135.91565">
<ele>242.1</ele>
</trkpt>
<trkpt lat="34.39481" lon="135.91571">
<ele>242.2</ele>
</trkpt>
<trkpt lat="34.39481" lon="135.9159">
<ele>243.7</ele>
</trkpt>
<trkpt lat="34.39504" lon="135.91631">
<ele>246.0</ele>
</trkpt>
<trkpt lat="34.39513" lon="135.91667">
<ele>247.0</ele>
</trkpt>
<trkpt lat="34.39543" lon="135.91698">
<ele>246.2</ele>
</trkpt>
<trkpt lat="34.3958" lon="135.9171">
<ele>238.2</ele>
</trkpt>
<trkpt lat="34.39649" lon="135.91721">
<ele>239.0</ele>
</trkpt>
<trkpt lat="34.39668" lon="135.91733">
<ele>239.7</ele>
</trkpt>
<trkpt lat="34.39684" lon="135.9178499">
<ele>242.8</ele>
</trkpt>
<trkpt lat="34.3971" lon="135.91811">
<ele>243.1</ele>
</trkpt>
<trkpt lat="34.39747" lon="135.9182999">
<ele>241.9</ele>
</trkpt>
<trkpt lat="34.39774" lon="135.91856">
<ele>242.4</ele>
</trkpt>
<trkpt lat="34.39791" lon="135.91907">
<ele>242.7</ele>
</trkpt>
<trkpt lat="34.39794" lon="135.91947">
<ele>241.3277015</ele>
</trkpt>
<trkpt lat="34.39799" lon="135.91966">
<ele>240.6463206</ele>
</trkpt>
<trkpt lat="34.3982699" lon="135.91984">
<ele>239.3339015</ele>
</trkpt>
<trkpt lat="34.39838" lon="135.91971">
<ele>238.6977062</ele>
</trkpt>
<trkpt lat="34.39851" lon="135.91943">
<ele>237.6</ele>
</trkpt>
<trkpt lat="34.39855" lon="135.9193699">
<ele>238.5</ele>
</trkpt>
<trkpt lat="34.39868" lon="135.91925">
<ele>241.5</ele>
</trkpt>
<trkpt lat="34.39884" lon="135.91916">
<ele>245.2</ele>
</trkpt>
<trkpt lat="34.39886" lon="135.91914">
<ele>246.0</ele>
</trkpt>
<trkpt lat="34.39881" lon="135.91866">
<ele>250.0</ele>
</trkpt>
<trkpt lat="34.3987399" lon="135.91836">
<ele>250.9</ele>
</trkpt>
<trkpt lat="34.39868" lon="135.91819">
<ele>252.9</ele>
</trkpt>
<trkpt lat="34.39848" lon="135.91775">
<ele>255.2</ele>
</trkpt>
<trkpt lat="34.3984" lon="135.91759">
<ele>254.7</ele>
</trkpt>
<trkpt lat="34.39808" lon="135.91719">
<ele>256.8</ele>
</trkpt>
<trkpt lat="34.3979799" lon="135.91705">
<ele>257.8</ele>
</trkpt>
<trkpt lat="34.39795" lon="135.91697">
<ele>259.1</ele>
</trkpt>
<trkpt lat="34.3978899" lon="135.9166">
<ele>268.7</ele>
</trkpt>
<trkpt lat="34.39782" lon="135.91647">
<ele>272.6</ele>
</trkpt>
<trkpt lat="34.39766" lon="135.91634">
<ele>273.6</ele>
</trkpt>
<trkpt lat="34.39727" lon="135.91611">
<ele>274.3</ele>
</trkpt>
<trkpt lat="34.3969" lon="135.91601">
<ele>267.7</ele>
</trkpt>
<trkpt lat="34.39678" lon="135.91596">
<ele>265.9</ele>
</trkpt>
<trkpt lat="34.39668" lon="135.91591">
<ele>264.5</ele>
</trkpt>
<trkpt lat="34.39654" lon="135.91576">
<ele>265.2</ele>
</trkpt>
<trkpt lat="34.39643" lon="135.91569">
<ele>263.5</ele>
</trkpt>
<trkpt lat="34.3963899" lon="135.91567">
<ele>262.7</ele>
</trkpt>
<trkpt lat="34.39619" lon="135.91564">
<ele>256.3</ele>
</trkpt>
<trkpt lat="34.39611" lon="135.91562">
<ele>253.9</ele>
</trkpt>
<trkpt lat="34.39602" lon="135.91556">
<ele>251.9</ele>
</trkpt>
<trkpt lat="34.396" lon="135.91551">
<ele>252.2</ele>
</trkpt>
<trkpt lat="34.39599" lon="135.91536">
<ele>255.0</ele>
</trkpt>
<trkpt lat="34.3960999" lon="135.915">
<ele>267.8</ele>
</trkpt>
<trkpt lat="34.39613" lon="135.91463">
<ele>274.2</ele>
</trkpt>
<trkpt lat="34.39612" lon="135.91444">
<ele>276.3</ele>
</trkpt>
<trkpt lat="34.39605" lon="135.9142699">
<ele>275.8</ele>
</trkpt>
<trkpt lat="34.3960099" lon="135.9141799">
<ele>275.6</ele>
</trkpt>
<trkpt lat="34.39591" lon="135.91405">
<ele>273.3</ele>
</trkpt>
<trkpt lat="34.39578" lon="135.91394">
<ele>270.5</ele>
</trkpt>
<trkpt lat="34.39569" lon="135.9139">
<ele>268.1</ele>
</trkpt>
<trkpt lat="34.39551" lon="135.91388">
<ele>262.5</ele>
</trkpt>
<trkpt lat="34.3954499" lon="135.9139">
<ele>260.2</ele>
</trkpt>
<trkpt lat="34.39534" lon="135.91399">
<ele>255.0</ele>
</trkpt>
<trkpt lat="34.3953" lon="135.9139999">
<ele>253.5</ele>
</trkpt>
<trkpt lat="34.39528" lon="135.91399">
<ele>253.0</ele>
</trkpt>
<trkpt lat="34.39526" lon="135.91388">
<ele>254.4</ele>
</trkpt>
<trkpt lat="34.39528" lon="135.91376">
<ele>257.2</ele>
</trkpt>
<trkpt lat="34.39532" lon="135.91365">
<ele>260.5</ele>
</trkpt>
<trkpt lat="34.3953599" lon="135.91345">
<ele>265.3</ele>
</trkpt>
<trkpt lat="34.39538" lon="135.91324">
<ele>267.7</ele>
</trkpt>
<trkpt lat="34.3953599" lon="135.9130999">
<ele>266.8</ele>
</trkpt>
<trkpt lat="34.39528" lon="135.91288">
<ele>264.9</ele>
</trkpt>
<trkpt lat="34.39493" lon="135.91246">
<ele>261.3</ele>
</trkpt>
<trkpt lat="34.39482" lon="135.91227">
<ele>256.4</ele>
</trkpt>
<trkpt lat="34.39472" lon="135.91214">
<ele>253.0</ele>
</trkpt>
<trkpt lat="34.39438" lon="135.91184">
<ele>244.5</ele>
</trkpt>
<trkpt lat="34.39435" lon="135.91171">
<ele>242.2</ele>
</trkpt>
<trkpt lat="34.39436" lon="135.91157">
<ele>241.8</ele>
</trkpt>
<trkpt lat="34.39445" lon="135.91146">
<ele>243.1</ele>
</trkpt>
<trkpt lat="34.39454" lon="135.91141">
<ele>244.5</ele>
</trkpt>
<trkpt lat="34.39464" lon="135.91141">
<ele>245.8</ele>
</trkpt>
<trkpt lat="34.3947" lon="135.91144">
<ele>246.4</ele>
</trkpt>
<trkpt lat="34.39487" lon="135.91165">
<ele>246.1</ele>
</trkpt>
<trkpt lat="34.39494" lon="135.91171">
<ele>247.3</ele>
</trkpt>
<trkpt lat="34.39532" lon="135.91177">
<ele>254.6</ele>
</trkpt>
<trkpt lat="34.39561" lon="135.91189">
<ele>260.8</ele>
</trkpt>
<trkpt lat="34.39591" lon="135.9122">
<ele>268.6</ele>
</trkpt>
<trkpt lat="34.39598" lon="135.91225">
<ele>270.8</ele>
</trkpt>
<trkpt lat="34.39606" lon="135.91223">
<ele>273.2</ele>
</trkpt>
<trkpt lat="34.39608" lon="135.91217">
<ele>274.0</ele>
</trkpt>
<trkpt lat="34.39607" lon="135.91211">
<ele>273.9</ele>
</trkpt>
<trkpt lat="34.39603" lon="135.91199">
<ele>272.8</ele>
</trkpt>
<trkpt lat="34.39587" lon="135.91173">
<ele>265.2</ele>
</trkpt>
<trkpt lat="34.39581" lon="135.91153">
<ele>265.3</ele>
</trkpt>
<trkpt lat="34.39579" lon="135.91132">
<ele>269.1</ele>
</trkpt>
<trkpt lat="34.39584" lon="135.91109">
<ele>275.0</ele>
</trkpt>
<trkpt lat="34.3958299" lon="135.91103">
<ele>275.9</ele>
</trkpt>
<trkpt lat="34.3958" lon="135.91102">
<ele>275.4</ele>
</trkpt>
<trkpt lat="34.39577" lon="135.91103">
<ele>274.5</ele>
</trkpt>
<trkpt lat="34.39559" lon="135.91126">
<ele>265.9</ele>
</trkpt>
<trkpt lat="34.39553" lon="135.91127">
<ele>264.4</ele>
</trkpt>
<trkpt lat="34.39542" lon="135.91126">
<ele>262.2</ele>
</trkpt>
<trkpt lat="34.39528" lon="135.91119">
<ele>260.2</ele>
</trkpt>
<trkpt lat="34.39494" lon="135.91097">
<ele>255.7</ele>
</trkpt>
<trkpt lat="34.39483" lon="135.91087">
<ele>254.3</ele>
</trkpt>
<trkpt lat="34.39476" lon="135.91073">
<ele>253.5</ele>
</trkpt>
<trkpt lat="34.3947" lon="135.91041">
<ele>253.8</ele>
</trkpt>
<trkpt lat="34.39461" lon="135.91008">
<ele>253.3</ele>
</trkpt>
<trkpt lat="34.3945999" lon="135.90993">
<ele>254.3</ele>
</trkpt>
<trkpt lat="34.39461" lon="135.90985">
<ele>255.5</ele>
</trkpt>
<trkpt lat="34.39464" lon="135.90978">
<ele>257.1</ele>
</trkpt>
<trkpt lat="34.39484" lon="135.90953">
<ele>264.7</ele>
</trkpt>
<trkpt lat="34.39487" lon="135.90937">
<ele>267.1</ele>
</trkpt>
<trkpt lat="34.39487" lon="135.90915">
<ele>269.8</ele>
</trkpt>
<trkpt lat="34.39484" lon="135.90894">
<ele>276.5</ele>
</trkpt>
<trkpt lat="34.39482" lon="135.90891">
<ele>277.2</ele>
</trkpt>
<trkpt lat="34.39475" lon="135.90887">
<ele>277.3</ele>
</trkpt>
<trkpt lat="34.39468" lon="135.90888">
<ele>275.6</ele>
</trkpt>
<trkpt lat="34.39464" lon="135.90892">
<ele>273.4</ele>
</trkpt>
<trkpt lat="34.39457" lon="135.90904">
<ele>267.5</ele>
</trkpt>
<trkpt lat="34.39447" lon="135.90912">
<ele>262.4</ele>
</trkpt>
<trkpt lat="34.3944" lon="135.90915">
<ele>259.7</ele>
</trkpt>
<trkpt lat="34.39434" lon="135.90914">
<ele>258.8</ele>
</trkpt>
<trkpt lat="34.3943" lon="135.90912">
<ele>258.8</ele>
</trkpt>
<trkpt lat="34.39416" lon="135.90896">
<ele>262.8</ele>
</trkpt>
<trkpt lat="34.3940399" lon="135.90894">
<ele>265.6</ele>
</trkpt>
<trkpt lat="34.39397" lon="135.90898">
<ele>265.1</ele>
</trkpt>
<trkpt lat="34.39388" lon="135.90909">
<ele>262.0</ele>
</trkpt>
<trkpt lat="34.39377" lon="135.90936">
<ele>257.3</ele>
</trkpt>
<trkpt lat="34.39375" lon="135.9094">
<ele>256.9</ele>
</trkpt>
<trkpt lat="34.39364" lon="135.90945">
<ele>257.7</ele>
</trkpt>
<trkpt lat="34.39353" lon="135.90945">
<ele>259.3</ele>
</trkpt>
<trkpt lat="34.39338" lon="135.90938">
<ele>262.9</ele>
</trkpt>
<trkpt lat="34.39318" lon="135.90927">
<ele>267.3</ele>
</trkpt>
<trkpt lat="34.39307" lon="135.90926">
<ele>268.4</ele>
</trkpt>
<trkpt lat="34.3926" lon="135.90936">
<ele>271.0</ele>
</trkpt>
<trkpt lat="34.39248" lon="135.90935">
<ele>271.7</ele>
</trkpt>
<trkpt lat="34.39242" lon="135.90932">
<ele>270.8</ele>
</trkpt>
<trkpt lat="34.39227" lon="135.90921">
<ele>269.1</ele>
</trkpt>
<trkpt lat="34.39202" lon="135.90899">
<ele>266.3</ele>
</trkpt>
<trkpt lat="34.39182" lon="135.90872">
<ele>263.5</ele>
</trkpt>
<trkpt lat="34.3915999" lon="135.90867">
<ele>258.0</ele>
</trkpt>
<trkpt lat="34.39154" lon="135.90862">
<ele>257.1</ele>
</trkpt>
<trkpt lat="34.39148" lon="135.90847">
<ele>256.0</ele>
</trkpt>
<trkpt lat="34.39147" lon="135.9083599">
<ele>255.6</ele>
</trkpt>
<trkpt lat="34.39149" lon="135.9082699">
<ele>256.1</ele>
</trkpt>
<trkpt lat="34.39155" lon="135.90813">
<ele>257.6</ele>
</trkpt>
<trkpt lat="34.39164" lon="135.90803">
<ele>259.9</ele>
</trkpt>
<trkpt lat="34.39184" lon="135.90792">
<ele>266.7</ele>
</trkpt>
<trkpt lat="34.39194" lon="135.90781">
<ele>269.8</ele>
</trkpt>
<trkpt lat="34.39199" lon="135.9077299">
<ele>271.3</ele>
</trkpt>
<trkpt lat="34.39197" lon="135.9077">
<ele>270.5</ele>
</trkpt>
<trkpt lat="34.39194" lon="135.90771">
<ele>269.5</ele>
</trkpt>
<trkpt lat="34.39171" lon="135.90777">
<ele>261.8</ele>
</trkpt>
<trkpt lat="34.39162" lon="135.90776">
<ele>259.1</ele>
</trkpt>
<trkpt lat="34.39158" lon="135.9077299">
<ele>258.0</ele>
</trkpt>
<trkpt lat="34.39155" lon="135.9077">
<ele>257.1</ele>
</trkpt>
<trkpt lat="34.39154" lon="135.90763">
<ele>256.8</ele>
</trkpt>
<trkpt lat="34.39162" lon="135.9074">
<ele>259.1</ele>
</trkpt>
<trkpt lat="34.39163" lon="135.90731">
<ele>259.7</ele>
</trkpt>
<trkpt lat="34.39158" lon="135.90731">
<ele>258.3</ele>
</trkpt>
<trkpt lat="34.39141" lon="135.9073699">
<ele>253.6</ele>
</trkpt>
<trkpt lat="34.39134" lon="135.90736">
<ele>251.7</ele>
</trkpt>
<trkpt lat="34.39128" lon="135.90726">
<ele>250.3</ele>
</trkpt>
<trkpt lat="34.39123" lon="135.90714">
<ele>249.1</ele>
</trkpt>
<trkpt lat="34.3912" lon="135.90703">
<ele>248.4</ele>
</trkpt>
<trkpt lat="34.39121" lon="135.9069">
<ele>248.9</ele>
</trkpt>
<trkpt lat="34.3912" lon="135.9067">
<ele>249.0</ele>
</trkpt>
<trkpt lat="34.39129" lon="135.90649">
<ele>248.8</ele>
</trkpt>
<trkpt lat="34.39138" lon="135.90636">
<ele>248.4</ele>
</trkpt>
<trkpt lat="34.39163" lon="135.90615">
<ele>247.1</ele>
</trkpt>
<trkpt lat="34.39177" lon="135.90591">
<ele>246.2</ele>
</trkpt>
<trkpt lat="34.39192" lon="135.9057">
<ele>250.3</ele>
</trkpt>
<trkpt lat="34.39219" lon="135.90538">
<ele>251.8</ele>
</trkpt>
<trkpt lat="34.39248" lon="135.905">
<ele>238.0</ele>
</trkpt>
<trkpt lat="34.39251" lon="135.90491">
<ele>238.5</ele>
</trkpt>
<trkpt lat="34.39251" lon="135.90477">
<ele>238.4</ele>
</trkpt>
<trkpt lat="34.3925399" lon="135.9047">
<ele>239.3</ele>
</trkpt>
<trkpt lat="34.39264" lon="135.90465">
<ele>242.1</ele>
</trkpt>
<trkpt lat="34.39294" lon="135.90464">
<ele>250.6</ele>
</trkpt>
<trkpt lat="34.3930099" lon="135.90462">
<ele>252.0</ele>
</trkpt>
<trkpt lat="34.39308" lon="135.90456">
<ele>251.8</ele>
</trkpt>
<trkpt lat="34.39311" lon="135.90447">
<ele>249.2</ele>
</trkpt>
<trkpt lat="34.39313" lon="135.90428">
<ele>242.3</ele>
</trkpt>
<trkpt lat="34.39315" lon="135.90425">
<ele>241.3</ele>
</trkpt>
<trkpt lat="34.39379" lon="135.9037899">
<ele>244.9</ele>
</trkpt>
<trkpt lat="34.39396" lon="135.90362">
<ele>244.0</ele>
</trkpt>
<trkpt lat="34.39406" lon="135.90346">
<ele>241.1</ele>
</trkpt>
<trkpt lat="34.39406" lon="135.90317">
<ele>238.0</ele>
</trkpt>
<trkpt lat="34.39409" lon="135.90303">
<ele>238.0</ele>
</trkpt>
<trkpt lat="34.39424" lon="135.90289">
<ele>238.0</ele>
</trkpt>
<trkpt lat="34.3943299" lon="135.90286">
<ele>238.0</ele>
</trkpt>
<trkpt lat="34.39438" lon="135.90287">
<ele>238.0</ele>
</trkpt>
<trkpt lat="34.39443" lon="135.90289">
<ele>238.0</ele>
</trkpt>
<trkpt lat="34.39447" lon="135.90297">
<ele>238.0</ele>
</trkpt>
<trkpt lat="34.39454" lon="135.90317">
<ele>238.0</ele>
</trkpt>
<trkpt lat="34.39462" lon="135.9033">
<ele>238.0</ele>
</trkpt>
<trkpt lat="34.39469" lon="135.90335">
<ele>238.4</ele>
</trkpt>
<trkpt lat="34.3947999" lon="135.90341">
<ele>239.7</ele>
</trkpt>
<trkpt lat="34.39484" lon="135.90346">
<ele>240.8</ele>
</trkpt>
<trkpt lat="34.39483" lon="135.9036">
<ele>243.8</ele>
</trkpt>
<trkpt lat="34.39482" lon="135.90363">
<ele>244.5</ele>
</trkpt>
<trkpt lat="34.39472" lon="135.90364">
<ele>245.0</ele>
</trkpt>
<trkpt lat="34.39472" lon="135.90364">
<ele>245.0</ele>
</trkpt>
<trkpt lat="34.39465" lon="135.90365">
<ele>245.4</ele>
</trkpt>
<trkpt lat="34.39457" lon="135.9036999">
<ele>246.8</ele>
</trkpt>
<trkpt lat="34.3944" lon="135.9039">
<ele>252.5</ele>
</trkpt>
<trkpt lat="34.39417" lon="135.90425">
<ele>261.8</ele>
</trkpt>
<trkpt lat="34.3941299" lon="135.90438">
<ele>262.4</ele>
</trkpt>
<trkpt lat="34.3941299" lon="135.9045999">
<ele>264.9</ele>
</trkpt>
<trkpt lat="34.39419" lon="135.90506">
<ele>270.2</ele>
</trkpt>
<trkpt lat="34.3943" lon="135.90555">
<ele>279.1</ele>
</trkpt>
<trkpt lat="34.39435" lon="135.90563">
<ele>280.7</ele>
</trkpt>
<trkpt lat="34.39439" lon="135.9056699">
<ele>281.7</ele>
</trkpt>
<trkpt lat="34.39443" lon="135.9056699">
<ele>281.9</ele>
</trkpt>
<trkpt lat="34.39446" lon="135.90563">
<ele>281.4</ele>
</trkpt>
<trkpt lat="34.39448" lon="135.90557">
<ele>280.6</ele>
</trkpt>
<trkpt lat="34.39444" lon="135.9053099">
<ele>276.1</ele>
</trkpt>
<trkpt lat="34.39444" lon="135.90505">
<ele>271.8</ele>
</trkpt>
<trkpt lat="34.39449" lon="135.90465">
<ele>266.0</ele>
</trkpt>
<trkpt lat="34.3945999" lon="135.9044">
<ele>261.9</ele>
</trkpt>
<trkpt lat="34.39487" lon="135.90416">
<ele>255.8</ele>
</trkpt>
<trkpt lat="34.3949799" lon="135.90412">
<ele>254.2</ele>
</trkpt>
<trkpt lat="34.39505" lon="135.90414">
<ele>254.5</ele>
</trkpt>
<trkpt lat="34.39512" lon="135.90427">
<ele>257.8</ele>
</trkpt>
<trkpt lat="34.39515" lon="135.90448">
<ele>263.3</ele>
</trkpt>
<trkpt lat="34.39518" lon="135.90455">
<ele>265.3</ele>
</trkpt>
<trkpt lat="34.39549" lon="135.90471">
<ele>272.1</ele>
</trkpt>
<trkpt lat="34.39558" lon="135.90479">
<ele>275.3</ele>
</trkpt>
<trkpt lat="34.39566" lon="135.90481">
<ele>276.7</ele>
</trkpt>
<trkpt lat="34.39568" lon="135.90478">
<ele>275.9</ele>
</trkpt>
<trkpt lat="34.39571" lon="135.90465">
<ele>271.9</ele>
</trkpt>
<trkpt lat="34.3957" lon="135.90456">
<ele>268.9</ele>
</trkpt>
<trkpt lat="34.39558" lon="135.90427">
<ele>259.0</ele>
</trkpt>
<trkpt lat="34.39551" lon="135.9040599">
<ele>253.4</ele>
</trkpt>
<trkpt lat="34.39551" lon="135.90391">
<ele>250.2</ele>
</trkpt>
<trkpt lat="34.39556" lon="135.90385">
<ele>249.0</ele>
</trkpt>
<trkpt lat="34.39565" lon="135.90383">
<ele>248.6</ele>
</trkpt>
<trkpt lat="34.39586" lon="135.90389">
<ele>250.2</ele>
</trkpt>
<trkpt lat="34.39609" lon="135.9038799">
<ele>251.0</ele>
</trkpt>
<trkpt lat="34.39631" lon="135.90392">
<ele>253.1</ele>
</trkpt>
<trkpt lat="34.39636" lon="135.90394">
<ele>253.9</ele>
</trkpt>
<trkpt lat="34.39647" lon="135.9040599">
<ele>257.7</ele>
</trkpt>
<trkpt lat="34.39652" lon="135.9041499">
<ele>260.5</ele>
</trkpt>
<trkpt lat="34.39654" lon="135.9042399">
<ele>264.4</ele>
</trkpt>
<trkpt lat="34.3966" lon="135.90427">
<ele>266.3</ele>
</trkpt>
<trkpt lat="34.39665" lon="135.9042399">
<ele>265.3</ele>
</trkpt>
<trkpt lat="34.39673" lon="135.90395">
<ele>256.2</ele>
</trkpt>
<trkpt lat="34.39679" lon="135.90385">
<ele>254.0</ele>
</trkpt>
<trkpt lat="34.39683" lon="135.90381">
<ele>253.4</ele>
</trkpt>
<trkpt lat="34.39689" lon="135.90378">
<ele>253.3</ele>
</trkpt>
<trkpt lat="34.39701" lon="135.9038">
<ele>255.0</ele>
</trkpt>
<trkpt lat="34.39706" lon="135.90385">
<ele>256.5</ele>
</trkpt>
<trkpt lat="34.39713" lon="135.90399">
<ele>259.8</ele>
</trkpt>
<trkpt lat="34.3973" lon="135.90423">
<ele>265.9</ele>
</trkpt>
<trkpt lat="34.39732" lon="135.90431">
<ele>268.9</ele>
</trkpt>
<trkpt lat="34.39736" lon="135.90452">
<ele>276.7</ele>
</trkpt>
<trkpt lat="34.39736" lon="135.90476">
<ele>285.5</ele>
</trkpt>
<trkpt lat="34.3974" lon="135.90477">
<ele>285.6</ele>
</trkpt>
<trkpt lat="34.39746" lon="135.90474">
<ele>284.2</ele>
</trkpt>
<trkpt lat="34.39748" lon="135.9046899">
<ele>282.3</ele>
</trkpt>
<trkpt lat="34.39753" lon="135.90453">
<ele>277.2</ele>
</trkpt>
<trkpt lat="34.39763" lon="135.90439">
<ele>274.5</ele>
</trkpt>
<trkpt lat="34.39774" lon="135.90437">
<ele>276.3</ele>
</trkpt>
<trkpt lat="34.39788" lon="135.90441">
<ele>280.3</ele>
</trkpt>
<trkpt lat="34.39791" lon="135.9044">
<ele>280.7</ele>
</trkpt>
<trkpt lat="34.39793" lon="135.90434">
<ele>279.8</ele>
</trkpt>
<trkpt lat="34.39792" lon="135.90427">
<ele>277.9</ele>
</trkpt>
<trkpt lat="34.3978899" lon="135.90422">
<ele>276.0</ele>
</trkpt>
<trkpt lat="34.39761" lon="135.9039699">
<ele>264.8</ele>
</trkpt>
<trkpt lat="34.39752" lon="135.90386">
<ele>261.2</ele>
</trkpt>
<trkpt lat="34.3975099" lon="135.90381">
<ele>260.4</ele>
</trkpt>
<trkpt lat="34.3975099" lon="135.90372">
<ele>259.4</ele>
</trkpt>
<trkpt lat="34.39756" lon="135.90353">
<ele>258.6</ele>
</trkpt>
<trkpt lat="34.39749" lon="135.90333">
<ele>254.8</ele>
</trkpt>
<trkpt lat="34.39747" lon="135.90321">
<ele>254.1</ele>
</trkpt>
<trkpt lat="34.3975" lon="135.90311">
<ele>254.5</ele>
</trkpt>
<trkpt lat="34.39761" lon="135.90297">
<ele>256.0</ele>
</trkpt>
<trkpt lat="34.39778" lon="135.90289">
<ele>258.2</ele>
</trkpt>
<trkpt lat="34.39794" lon="135.90289">
<ele>260.6</ele>
</trkpt>
<trkpt lat="34.39804" lon="135.90294">
<ele>262.7</ele>
</trkpt>
<trkpt lat="34.3982" lon="135.90311">
<ele>268.1</ele>
</trkpt>
<trkpt lat="34.39826" lon="135.90311">
<ele>269.3</ele>
</trkpt>
<trkpt lat="34.39832" lon="135.90305">
<ele>269.3</ele>
</trkpt>
<trkpt lat="34.3984499" lon="135.90282">
<ele>266.7</ele>
</trkpt>
<trkpt lat="34.39849" lon="135.90278">
<ele>266.5</ele>
</trkpt>
<trkpt lat="34.39859" lon="135.90276">
<ele>267.6</ele>
</trkpt>
<trkpt lat="34.3988299" lon="135.90278">
<ele>271.1</ele>
</trkpt>
<trkpt lat="34.39909" lon="135.90274">
<ele>274.4</ele>
</trkpt>
<trkpt lat="34.39922" lon="135.90269">
<ele>275.9</ele>
</trkpt>
<trkpt lat="34.39936" lon="135.90268">
<ele>277.9</ele>
</trkpt>
<trkpt lat="34.39947" lon="135.90258">
<ele>278.1</ele>
</trkpt>
<trkpt lat="34.39952" lon="135.90246">
<ele>277.9</ele>
</trkpt>
<trkpt lat="34.39965" lon="135.9023">
<ele>280.9</ele>
</trkpt>
<trkpt lat="34.39983" lon="135.90216">
<ele>283.5</ele>
</trkpt>
<trkpt lat="34.39998" lon="135.9019999">
<ele>285.5</ele>
</trkpt>
<trkpt lat="34.40017" lon="135.9019099">
<ele>282.0</ele>
</trkpt>
<trkpt lat="34.40022" lon="135.9019099">
<ele>280.8</ele>
</trkpt>
<trkpt lat="34.40032" lon="135.90195">
<ele>278.6</ele>
</trkpt>
<trkpt lat="34.40038" lon="135.90195">
<ele>277.2</ele>
</trkpt>
<trkpt lat="34.40054" lon="135.90187">
<ele>272.2</ele>
</trkpt>
<trkpt lat="34.4007999" lon="135.90179">
<ele>262.9</ele>
</trkpt>
<trkpt lat="34.40107" lon="135.9017299">
<ele>263.7</ele>
</trkpt>
<trkpt lat="34.40113" lon="135.90177">
<ele>265.6</ele>
</trkpt>
<trkpt lat="34.40122" lon="135.90186">
<ele>269.1</ele>
</trkpt>
<trkpt lat="34.40128" lon="135.90202">
<ele>273.6</ele>
</trkpt>
<trkpt lat="34.40133" lon="135.90211">
<ele>276.1</ele>
</trkpt>
<trkpt lat="34.40139" lon="135.90211">
<ele>276.6</ele>
</trkpt>
<trkpt lat="34.40143" lon="135.90206">
<ele>275.9</ele>
</trkpt>
<trkpt lat="34.40149" lon="135.90176">
<ele>270.8</ele>
</trkpt>
<trkpt lat="34.40151" lon="135.90163">
<ele>268.8</ele>
</trkpt>
<trkpt lat="34.40149" lon="135.90148">
<ele>266.3</ele>
</trkpt>
<trkpt lat="34.40141" lon="135.90135">
<ele>263.8</ele>
</trkpt>
<trkpt lat="34.40139" lon="135.90116">
<ele>261.5</ele>
</trkpt>
<trkpt lat="34.40142" lon="135.90106">
<ele>260.2</ele>
</trkpt>
<trkpt lat="34.40156" lon="135.90081">
<ele>255.5</ele>
</trkpt>
<trkpt lat="34.40159" lon="135.90064">
<ele>251.6</ele>
</trkpt>
<trkpt lat="34.40163" lon="135.90052">
<ele>248.8</ele>
</trkpt>
<trkpt lat="34.4017399" lon="135.9004">
<ele>246.4</ele>
</trkpt>
<trkpt lat="34.40185" lon="135.90034">
<ele>245.6</ele>
</trkpt>
<trkpt lat="34.40199" lon="135.9002999">
<ele>245.5</ele>
</trkpt>
<trkpt lat="34.40214" lon="135.90028">
<ele>245.8</ele>
</trkpt>
<trkpt lat="34.4022999" lon="135.9002099">
<ele>245.5</ele>
</trkpt>
<trkpt lat="34.4024" lon="135.9002099">
<ele>246.0</ele>
</trkpt>
<trkpt lat="34.40249" lon="135.90023">
<ele>246.7</ele>
</trkpt>
<trkpt lat="34.40258" lon="135.9002999">
<ele>249.5</ele>
</trkpt>
<trkpt lat="34.40261" lon="135.90036">
<ele>250.7</ele>
</trkpt>
<trkpt lat="34.40265" lon="135.90061">
<ele>253.4</ele>
</trkpt>
<trkpt lat="34.4025899" lon="135.90133">
<ele>262.0</ele>
</trkpt>
<trkpt lat="34.40255" lon="135.90222">
<ele>271.7</ele>
</trkpt>
<trkpt lat="34.40256" lon="135.90242">
<ele>273.0</ele>
</trkpt>
<trkpt lat="34.4025899" lon="135.90255">
<ele>274.1</ele>
</trkpt>
<trkpt lat="34.40264" lon="135.90265">
<ele>275.1</ele>
</trkpt>
<trkpt lat="34.40275" lon="135.90283">
<ele>275.7</ele>
</trkpt>
<trkpt lat="34.40295" lon="135.90296">
<ele>271.6</ele>
</trkpt>
<trkpt lat="34.40337" lon="135.90311">
<ele>260.1</ele>
</trkpt>
<trkpt lat="34.40354" lon="135.90324">
<ele>261.7</ele>
</trkpt>
<trkpt lat="34.40359" lon="135.90336">
<ele>262.2</ele>
</trkpt>
<trkpt lat="34.40357" lon="135.90353">
<ele>265.7</ele>
</trkpt>
<trkpt lat="34.40351" lon="135.90369">
<ele>268.8</ele>
</trkpt>
<trkpt lat="34.4031" lon="135.90418">
<ele>283.7</ele>
</trkpt>
<trkpt lat="34.40306" lon="135.90426">
<ele>286.1</ele>
</trkpt>
<trkpt lat="34.40306" lon="135.90434">
<ele>287.5</ele>
</trkpt>
<trkpt lat="34.4031499" lon="135.90436">
<ele>286.2</ele>
</trkpt>
<trkpt lat="34.40323" lon="135.90435">
<ele>284.4</ele>
</trkpt>
<trkpt lat="34.40344" lon="135.90421">
<ele>279.3</ele>
</trkpt>
<trkpt lat="34.40369" lon="135.9038799">
<ele>274.0</ele>
</trkpt>
<trkpt lat="34.40391" lon="135.90341">
<ele>264.2</ele>
</trkpt>
<trkpt lat="34.40395" lon="135.9034">
<ele>264.1</ele>
</trkpt>
<trkpt lat="34.40404" lon="135.90341">
<ele>264.6</ele>
</trkpt>
<trkpt lat="34.40417" lon="135.90346">
<ele>266.3</ele>
</trkpt>
<trkpt lat="34.40452" lon="135.90377">
<ele>269.0</ele>
</trkpt>
<trkpt lat="34.40457" lon="135.9037899">
<ele>268.6</ele>
</trkpt>
<trkpt lat="34.40469" lon="135.9038">
<ele>266.8</ele>
</trkpt>
<trkpt lat="34.4048" lon="135.9037899">
<ele>264.9</ele>
</trkpt>
<trkpt lat="34.40491" lon="135.90372">
<ele>262.7</ele>
</trkpt>
<trkpt lat="34.40497" lon="135.90366">
<ele>261.6</ele>
</trkpt>
<trkpt lat="34.40511" lon="135.9036">
<ele>261.8</ele>
</trkpt>
<trkpt lat="34.4052" lon="135.9035199">
<ele>262.1</ele>
</trkpt>
<trkpt lat="34.40535" lon="135.90353">
<ele>263.2</ele>
</trkpt>
<trkpt lat="34.40549" lon="135.90357">
<ele>264.2932204</ele>
</trkpt>
<trkpt lat="34.40552" lon="135.90364">
<ele>264.7878621</ele>
</trkpt>
<trkpt lat="34.40563" lon="135.9038">
<ele>266.0938589</ele>
</trkpt>
<trkpt lat="34.4057" lon="135.9038799">
<ele>266.8251028</ele>
</trkpt>
<trkpt lat="34.40576" lon="135.90385">
<ele>267.3184059</ele>
</trkpt>
<trkpt lat="34.40597" lon="135.90359">
<ele>269.6</ele>
</trkpt>
<trkpt lat="34.40599" lon="135.9035">
<ele>269.2</ele>
</trkpt>
<trkpt lat="34.40597" lon="135.90344">
<ele>268.4</ele>
</trkpt>
<trkpt lat="34.40578" lon="135.90327">
<ele>266.6</ele>
</trkpt>
<trkpt lat="34.40543" lon="135.90327">
<ele>264.7</ele>
</trkpt>
<trkpt lat="34.40529" lon="135.90322">
<ele>265.8</ele>
</trkpt>
<trkpt lat="34.40509" lon="135.90319">
<ele>265.9</ele>
</trkpt>
<trkpt lat="34.40497" lon="135.90315">
<ele>267.1</ele>
</trkpt>
<trkpt lat="34.40495" lon="135.90316">
<ele>266.7</ele>
</trkpt>
<trkpt lat="34.40493" lon="135.90324">
<ele>263.7</ele>
</trkpt>
<trkpt lat="34.40489" lon="135.90332">
<ele>260.9</ele>
</trkpt>
<trkpt lat="34.40485" lon="135.90335">
<ele>260.7</ele>
</trkpt>
<trkpt lat="34.4048" lon="135.90335">
<ele>260.9</ele>
</trkpt>
<trkpt lat="34.4045599" lon="135.90313">
<ele>268.0</ele>
</trkpt>
<trkpt lat="34.40423" lon="135.90291">
<ele>273.9</ele>
</trkpt>
<trkpt lat="34.40392" lon="135.90276">
<ele>271.6</ele>
</trkpt>
<trkpt lat="34.40374" lon="135.9027199">
<ele>267.6</ele>
</trkpt>
<trkpt lat="34.40346" lon="135.90262">
<ele>260.4</ele>
</trkpt>
<trkpt lat="34.4032399" lon="135.90251">
<ele>258.2</ele>
</trkpt>
<trkpt lat="34.40312" lon="135.90241">
<ele>260.9</ele>
</trkpt>
<trkpt lat="34.40308" lon="135.90226">
<ele>261.8</ele>
</trkpt>
<trkpt lat="34.40308" lon="135.90211">
<ele>261.8</ele>
</trkpt>
<trkpt lat="34.40314" lon="135.90144">
<ele>260.4</ele>
</trkpt>
<trkpt lat="34.40322" lon="135.90088">
<ele>259.2</ele>
</trkpt>
<trkpt lat="34.40329" lon="135.90032">
<ele>265.8</ele>
</trkpt>
<trkpt lat="34.4033" lon="135.90016">
<ele>268.0</ele>
</trkpt>
<trkpt lat="34.40329" lon="135.90004">
<ele>269.1</ele>
</trkpt>
<trkpt lat="34.40325" lon="135.89993">
<ele>269.6</ele>
</trkpt>
<trkpt lat="34.40316" lon="135.89979">
<ele>268.9</ele>
</trkpt>
<trkpt lat="34.40282" lon="135.89942">
<ele>261.7</ele>
</trkpt>
<trkpt lat="34.40266" lon="135.89931">
<ele>256.4</ele>
</trkpt>
<trkpt lat="34.40242" lon="135.89927">
<ele>249.0</ele>
</trkpt>
<trkpt lat="34.40237" lon="135.89922">
<ele>248.6</ele>
</trkpt>
<trkpt lat="34.40234" lon="135.89915">
<ele>248.8</ele>
</trkpt>
<trkpt lat="34.40233" lon="135.89893">
<ele>252.6</ele>
</trkpt>
<trkpt lat="34.40228" lon="135.89845">
<ele>259.6</ele>
</trkpt>
<trkpt lat="34.40222" lon="135.89827">
<ele>259.6</ele>
</trkpt>
<trkpt lat="34.4021199" lon="135.89793">
<ele>258.1</ele>
</trkpt>
<trkpt lat="34.40193" lon="135.89756">
<ele>255.4</ele>
</trkpt>
<trkpt lat="34.40187" lon="135.8975">
<ele>254.4</ele>
</trkpt>
<trkpt lat="34.40171" lon="135.89739">
<ele>252.0</ele>
</trkpt>
<trkpt lat="34.4016499" lon="135.89732">
<ele>251.9</ele>
</trkpt>
<trkpt lat="34.40164" lon="135.89726">
<ele>252.8</ele>
</trkpt>
<trkpt lat="34.40166" lon="135.89717">
<ele>254.5</ele>
</trkpt>
<trkpt lat="34.40171" lon="135.89708">
<ele>257.0</ele>
</trkpt>
<trkpt lat="34.40184" lon="135.89703">
<ele>260.8</ele>
</trkpt>
<trkpt lat="34.40206" lon="135.89698">
<ele>266.4</ele>
</trkpt>
<trkpt lat="34.4021199" lon="135.89694">
<ele>268.2</ele>
</trkpt>
<trkpt lat="34.40214" lon="135.89688">
<ele>269.4</ele>
</trkpt>
<trkpt lat="34.40205" lon="135.8968">
<ele>268.6</ele>
</trkpt>
<trkpt lat="34.4018299" lon="135.8967199">
<ele>265.3</ele>
</trkpt>
<trkpt lat="34.40169" lon="135.89669">
<ele>263.1</ele>
</trkpt>
<trkpt lat="34.4015" lon="135.8967">
<ele>263.1</ele>
</trkpt>
<trkpt lat="34.40133" lon="135.89683">
<ele>260.7</ele>
</trkpt>
<trkpt lat="34.4012" lon="135.89697">
<ele>257.1</ele>
</trkpt>
<trkpt lat="34.40111" lon="135.89711">
<ele>252.9</ele>
</trkpt>
<trkpt lat="34.40095" lon="135.89729">
<ele>246.3</ele>
</trkpt>
<trkpt lat="34.40086" lon="135.89733">
<ele>244.2</ele>
</trkpt>
<trkpt lat="34.4007999" lon="135.8973">
<ele>244.9</ele>
</trkpt>
<trkpt lat="34.40061" lon="135.89709">
<ele>250.8</ele>
</trkpt>
<trkpt lat="34.40057" lon="135.89699">
<ele>253.6</ele>
</trkpt>
<trkpt lat="34.40053" lon="135.8968">
<ele>259.0</ele>
</trkpt>
<trkpt lat="34.40048" lon="135.8967">
<ele>261.4</ele>
</trkpt>
<trkpt lat="34.40043" lon="135.89662">
<ele>262.7</ele>
</trkpt>
<trkpt lat="34.40028" lon="135.89643">
<ele>264.9</ele>
</trkpt>
<trkpt lat="34.39987" lon="135.89608">
<ele>265.1</ele>
</trkpt>
<trkpt lat="34.39971" lon="135.89581">
<ele>265.4</ele>
</trkpt>
<trkpt lat="34.39952" lon="135.89571">
<ele>260.3</ele>
</trkpt>
<trkpt lat="34.39925" lon="135.89561">
<ele>252.8</ele>
</trkpt>
<trkpt lat="34.39913" lon="135.89561">
<ele>249.8</ele>
</trkpt>
<trkpt lat="34.39913" lon="135.89561">
<ele>249.8</ele>
</trkpt>
<trkpt lat="34.3990099" lon="135.89557">
<ele>248.2</ele>
</trkpt>
<trkpt lat="34.39889" lon="135.89559">
<ele>246.3</ele>
</trkpt>
<trkpt lat="34.39884" lon="135.89557">
<ele>245.7</ele>
</trkpt>
<trkpt lat="34.3988" lon="135.8955">
<ele>245.3</ele>
</trkpt>
<trkpt lat="34.39878" lon="135.89544">
<ele>245.2</ele>
</trkpt>
<trkpt lat="34.39879" lon="135.89513">
<ele>246.3</ele>
</trkpt>
<trkpt lat="34.3987399" lon="135.89492">
<ele>245.1</ele>
</trkpt>
<trkpt lat="34.39872" lon="135.89487">
<ele>244.3</ele>
</trkpt>
<trkpt lat="34.39856" lon="135.89469">
<ele>240.7</ele>
</trkpt>
<trkpt lat="34.39848" lon="135.89452">
<ele>239.2</ele>
</trkpt>
<trkpt lat="34.39848" lon="135.89449">
<ele>239.1</ele>
</trkpt>
<trkpt lat="34.3985399" lon="135.8944">
<ele>239.1</ele>
</trkpt>
<trkpt lat="34.39861" lon="135.8943899">
<ele>239.4</ele>
</trkpt>
<trkpt lat="34.39872" lon="135.89441">
<ele>240.2</ele>
</trkpt>
<trkpt lat="34.39885" lon="135.89453">
<ele>242.3</ele>
</trkpt>
<trkpt lat="34.39898" lon="135.89459">
<ele>244.3</ele>
</trkpt>
<trkpt lat="34.3992" lon="135.89458">
<ele>246.4</ele>
</trkpt>
<trkpt lat="34.39934" lon="135.89449">
<ele>246.2</ele>
</trkpt>
<trkpt lat="34.39949" lon="135.89426">
<ele>240.9</ele>
</trkpt>
<trkpt lat="34.39958" lon="135.89417">
<ele>238.1</ele>
</trkpt>
<trkpt lat="34.40008" lon="135.8940299">
<ele>238.0</ele>
</trkpt>
<trkpt lat="34.40035" lon="135.8938">
<ele>238.0</ele>
</trkpt>
<trkpt lat="34.40049" lon="135.89379">
<ele>238.0</ele>
</trkpt>
<trkpt lat="34.40054" lon="135.8938">
<ele>238.0</ele>
</trkpt>
<trkpt lat="34.40066" lon="135.89392">
<ele>238.0</ele>
</trkpt>
<trkpt lat="34.4007" lon="135.89408">
<ele>238.0</ele>
</trkpt>
<trkpt lat="34.40086" lon="135.89426">
<ele>241.9</ele>
</trkpt>
<trkpt lat="34.40093" lon="135.8944">
<ele>247.6</ele>
</trkpt>
<trkpt lat="34.40095" lon="135.89454">
<ele>253.2</ele>
</trkpt>
<trkpt lat="34.40094" lon="135.89483">
<ele>265.1</ele>
</trkpt>
<trkpt lat="34.40102" lon="135.89511">
<ele>273.2</ele>
</trkpt>
<trkpt lat="34.40107" lon="135.8952">
<ele>274.3</ele>
</trkpt>
<trkpt lat="34.40112" lon="135.89525">
<ele>274.8</ele>
</trkpt>
<trkpt lat="34.40121" lon="135.89524">
<ele>274.0</ele>
</trkpt>
<trkpt lat="34.40137" lon="135.89509">
<ele>270.1</ele>
</trkpt>
<trkpt lat="34.40156" lon="135.89503">
<ele>267.5</ele>
</trkpt>
<trkpt lat="34.4018" lon="135.89504">
<ele>265.3</ele>
</trkpt>
<trkpt lat="34.40194" lon="135.89513">
<ele>266.0</ele>
</trkpt>
<trkpt lat="34.40202" lon="135.89514">
<ele>265.5</ele>
</trkpt>
<trkpt lat="34.40214" lon="135.89511">
<ele>263.6</ele>
</trkpt>
<trkpt lat="34.4022" lon="135.89507">
<ele>261.7</ele>
</trkpt>
<trkpt lat="34.40226" lon="135.89503">
<ele>259.8</ele>
</trkpt>
<trkpt lat="34.40244" lon="135.89498">
<ele>256.3</ele>
</trkpt>
<trkpt lat="34.4025" lon="135.89492">
<ele>254.3</ele>
</trkpt>
<trkpt lat="34.40258" lon="135.89477">
<ele>252.5</ele>
</trkpt>
<trkpt lat="34.40261" lon="135.89474">
<ele>252.4</ele>
</trkpt>
<trkpt lat="34.40274" lon="135.8947">
<ele>253.9</ele>
</trkpt>
<trkpt lat="34.40279" lon="135.89467">
<ele>254.2</ele>
</trkpt>
<trkpt lat="34.40281" lon="135.8946">
<ele>253.0</ele>
</trkpt>
<trkpt lat="34.40284" lon="135.89435">
<ele>247.9</ele>
</trkpt>
<trkpt lat="34.40294" lon="135.8941199">
<ele>245.0</ele>
</trkpt>
<trkpt lat="34.40303" lon="135.894">
<ele>245.1</ele>
</trkpt>
<trkpt lat="34.40317" lon="135.89392">
<ele>245.9</ele>
</trkpt>
<trkpt lat="34.40325" lon="135.89391">
<ele>246.7</ele>
</trkpt>
<trkpt lat="34.40364" lon="135.89392">
<ele>246.0</ele>
</trkpt>
<trkpt lat="34.40391" lon="135.89397">
<ele>245.0</ele>
</trkpt>
<trkpt lat="34.40398" lon="135.89401">
<ele>245.0</ele>
</trkpt>
<trkpt lat="34.404" lon="135.89404">
<ele>245.1</ele>
</trkpt>
<trkpt lat="34.404" lon="135.89409">
<ele>245.6</ele>
</trkpt>
<trkpt lat="34.40398" lon="135.89422">
<ele>247.8</ele>
</trkpt>
<trkpt lat="34.40393" lon="135.8942999">
<ele>250.2</ele>
</trkpt>
<trkpt lat="34.40383" lon="135.89442">
<ele>253.9</ele>
</trkpt>
<trkpt lat="34.40383" lon="135.89444">
<ele>254.4</ele>
</trkpt>
<trkpt lat="34.40384" lon="135.89446">
<ele>254.8</ele>
</trkpt>
<trkpt lat="34.40401" lon="135.8945">
<ele>254.3</ele>
</trkpt>
<trkpt lat="34.40407" lon="135.89455">
<ele>255.0</ele>
</trkpt>
<trkpt lat="34.40416" lon="135.8947">
<ele>257.9</ele>
</trkpt>
<trkpt lat="34.40416" lon="135.89487">
<ele>261.9</ele>
</trkpt>
<trkpt lat="34.4041799" lon="135.89491">
<ele>262.4</ele>
</trkpt>
<trkpt lat="34.40423" lon="135.89488">
<ele>260.3</ele>
</trkpt>
<trkpt lat="34.4043" lon="135.89479">
<ele>256.4</ele>
</trkpt>
<trkpt lat="34.4045" lon="135.89451">
<ele>247.1</ele>
</trkpt>
<trkpt lat="34.40462" lon="135.8944">
<ele>243.7</ele>
</trkpt>
<trkpt lat="34.40478" lon="135.89416">
<ele>239.8</ele>
</trkpt>
<trkpt lat="34.40482" lon="135.89414">
<ele>239.5</ele>
</trkpt>
<trkpt lat="34.40487" lon="135.89413">
<ele>239.0</ele>
</trkpt>
<trkpt lat="34.40491" lon="135.89414">
<ele>238.7</ele>
</trkpt>
<trkpt lat="34.40494" lon="135.89417">
<ele>238.5</ele>
</trkpt>
<trkpt lat="34.40505" lon="135.8941199">
<ele>238.0</ele>
</trkpt>
<trkpt lat="34.40556" lon="135.89392">
<ele>238.0</ele>
</trkpt>
<trkpt lat="34.4058" lon="135.89378">
<ele>238.7254217</ele>
</trkpt>
<trkpt lat="34.40594" lon="135.89366">
<ele>239.1924351</ele>
</trkpt>
<trkpt lat="34.4062399" lon="135.89345">
<ele>240.1359839</ele>
</trkpt>
<trkpt lat="34.40702" lon="135.89292">
<ele>242.5714248</ele>
</trkpt>
<trkpt lat="34.40717" lon="135.89289">
<ele>242.9854848</ele>
</trkpt>
<trkpt lat="34.4072699" lon="135.89282">
<ele>243.3</ele>
</trkpt>
<trkpt lat="34.40734" lon="135.89274">
<ele>244.6</ele>
</trkpt>
<trkpt lat="34.40739" lon="135.89217">
<ele>249.0</ele>
</trkpt>
<trkpt lat="34.40747" lon="135.89196">
<ele>249.5</ele>
</trkpt>
<trkpt lat="34.4075599" lon="135.89182">
<ele>249.8</ele>
</trkpt>
<trkpt lat="34.4076499" lon="135.89173">
<ele>249.9</ele>
</trkpt>
<trkpt lat="34.40782" lon="135.89163">
<ele>249.6</ele>
</trkpt>
<trkpt lat="34.40832" lon="135.89152">
<ele>248.6</ele>
</trkpt>
<trkpt lat="34.40844" lon="135.89146">
<ele>247.6</ele>
</trkpt>
<trkpt lat="34.4089" lon="135.89105">
<ele>245.0</ele>
</trkpt>
<trkpt lat="34.40901" lon="135.89093">
<ele>245.2</ele>
</trkpt>
<trkpt lat="34.40903" lon="135.89086">
<ele>245.3</ele>
</trkpt>
<trkpt lat="34.40912" lon="135.89074">
<ele>245.2</ele>
</trkpt>
<trkpt lat="34.40908" lon="135.89044">
<ele>243.2</ele>
</trkpt>
<trkpt lat="34.40898" lon="135.89005">
<ele>240.4</ele>
</trkpt>
<trkpt lat="34.40885" lon="135.88974">
<ele>237.3</ele>
</trkpt>
<trkpt lat="34.40875" lon="135.88965">
<ele>236.7</ele>
</trkpt>
<trkpt lat="34.4085899" lon="135.88957">
<ele>236.7</ele>
</trkpt>
<trkpt lat="34.40842" lon="135.88963">
<ele>237.3</ele>
</trkpt>
<trkpt lat="34.40777" lon="135.88928">
<ele>243.4</ele>
</trkpt>
<trkpt lat="34.4075" lon="135.88922">
<ele>246.5</ele>
</trkpt>
<trkpt lat="34.40723" lon="135.88965">
<ele>242.8</ele>
</trkpt>
<trkpt lat="34.40684" lon="135.88997">
<ele>238.8</ele>
</trkpt>
<trkpt lat="34.40667" lon="135.89006">
<ele>238.2</ele>
</trkpt>
<trkpt lat="34.40638" lon="135.88996">
<ele>239.4691502</ele>
</trkpt>
<trkpt lat="34.40584" lon="135.89008">
<ele>241.7800838</ele>
</trkpt>
<trkpt lat="34.4057699" lon="135.8902">
<ele>242.29048</ele>
</trkpt>
<trkpt lat="34.4056799" lon="135.89068">
<ele>244.0</ele>
</trkpt>
<trkpt lat="34.40547" lon="135.89092">
<ele>246.3</ele>
</trkpt>
<trkpt lat="34.4052999" lon="135.89083">
<ele>249.7</ele>
</trkpt>
<trkpt lat="34.40504" lon="135.89026">
<ele>260.5</ele>
</trkpt>
<trkpt lat="34.40492" lon="135.89033">
<ele>261.6</ele>
</trkpt>
<trkpt lat="34.40492" lon="135.8909899">
<ele>252.3</ele>
</trkpt>
<trkpt lat="34.40507" lon="135.89138">
<ele>243.2</ele>
</trkpt>
<trkpt lat="34.40507" lon="135.89175">
<ele>238.0</ele>
</trkpt>
<trkpt lat="34.4049" lon="135.89208">
<ele>238.8</ele>
</trkpt>
<trkpt lat="34.40458" lon="135.8922399">
<ele>240.2</ele>
</trkpt>
<trkpt lat="34.40426" lon="135.89198">
<ele>245.8</ele>
</trkpt>
<trkpt lat="34.40395" lon="135.89178">
<ele>251.2</ele>
</trkpt>
<trkpt lat="34.40381" lon="135.8915">
<ele>256.3</ele>
</trkpt>
<trkpt lat="34.40376" lon="135.8909899">
<ele>264.2</ele>
</trkpt>
<trkpt lat="34.40364" lon="135.8907">
<ele>267.3</ele>
</trkpt>
<trkpt lat="34.40351" lon="135.89071">
<ele>266.8</ele>
</trkpt>
<trkpt lat="34.40352" lon="135.89125">
<ele>260.4</ele>
</trkpt>
<trkpt lat="34.40348" lon="135.89181">
<ele>253.2</ele>
</trkpt>
<trkpt lat="34.40374" lon="135.89227">
<ele>244.7</ele>
</trkpt>
<trkpt lat="34.40376" lon="135.8925099">
<ele>240.9</ele>
</trkpt>
<trkpt lat="34.40366" lon="135.89258">
<ele>241.3</ele>
</trkpt>
<trkpt lat="34.40345" lon="135.8925">
<ele>243.2</ele>
</trkpt>
<trkpt lat="34.403" lon="135.89211">
<ele>252.8</ele>
</trkpt>
<trkpt lat="34.40276" lon="135.89213">
<ele>254.7</ele>
</trkpt>
<trkpt lat="34.40231" lon="135.89236">
<ele>249.6</ele>
</trkpt>
<trkpt lat="34.4021" lon="135.8923299">
<ele>246.7</ele>
</trkpt>
<trkpt lat="34.40188" lon="135.89153">
<ele>253.3</ele>
</trkpt>
<trkpt lat="34.4017" lon="135.89115">
<ele>254.9</ele>
</trkpt>
<trkpt lat="34.4016" lon="135.89104">
<ele>254.9</ele>
</trkpt>
<trkpt lat="34.4015" lon="135.8911">
<ele>252.7</ele>
</trkpt>
<trkpt lat="34.40139" lon="135.89138">
<ele>247.4</ele>
</trkpt>
<trkpt lat="34.40126" lon="135.89155">
<ele>243.6</ele>
</trkpt>
<trkpt lat="34.40082" lon="135.89136">
<ele>241.2</ele>
</trkpt>
<trkpt lat="34.40064" lon="135.89124">
<ele>239.6</ele>
</trkpt>
<trkpt lat="34.40056" lon="135.89098">
<ele>238.7</ele>
</trkpt>
<trkpt lat="34.39982" lon="135.89107">
<ele>225.6</ele>
</trkpt>
<trkpt lat="34.39908" lon="135.89116">
<ele>225.5</ele>
</trkpt>
<trkpt lat="34.39908" lon="135.89116">
<ele>225.5</ele>
</trkpt>
<trkpt lat="34.39855" lon="135.89122">
<ele>236.7</ele>
</trkpt>
<trkpt lat="34.3983599" lon="135.89098">
<ele>234.9</ele>
</trkpt>
<trkpt lat="34.39828" lon="135.89094">
<ele>235.4</ele>
</trkpt>
<trkpt lat="34.39813" lon="135.89098">
<ele>239.3</ele>
</trkpt>
<trkpt lat="34.39783" lon="135.89111">
<ele>248.8</ele>
</trkpt>
<trkpt lat="34.39769" lon="135.89109">
<ele>251.1</ele>
</trkpt>
<trkpt lat="34.39739" lon="135.8904">
<ele>236.0</ele>
</trkpt>
<trkpt lat="34.39731" lon="135.89037">
<ele>236.6</ele>
</trkpt>
<trkpt lat="34.39688" lon="135.8905399">
<ele>248.3</ele>
</trkpt>
<trkpt lat="34.39678" lon="135.89055">
<ele>250.1</ele>
</trkpt>
<trkpt lat="34.39659" lon="135.89049">
<ele>251.9</ele>
</trkpt>
<trkpt lat="34.39617" lon="135.89031">
<ele>255.3</ele>
</trkpt>
<trkpt lat="34.39609" lon="135.89024">
<ele>255.8</ele>
</trkpt>
<trkpt lat="34.39608" lon="135.8900899">
<ele>254.3</ele>
</trkpt>
<trkpt lat="34.39622" lon="135.88995">
<ele>250.3</ele>
</trkpt>
<trkpt lat="34.39633" lon="135.88994">
<ele>247.9</ele>
</trkpt>
<trkpt lat="34.39664" lon="135.89004">
<ele>243.2</ele>
</trkpt>
<trkpt lat="34.3968599" lon="135.89002">
<ele>237.8</ele>
</trkpt>
<trkpt lat="34.39692" lon="135.88992">
<ele>234.7</ele>
</trkpt>
<trkpt lat="34.39694" lon="135.8898">
<ele>232.5</ele>
</trkpt>
<trkpt lat="34.397" lon="135.88971">
<ele>229.8</ele>
</trkpt>
<trkpt lat="34.39708" lon="135.88965">
<ele>227.2</ele>
</trkpt>
<trkpt lat="34.39716" lon="135.8895">
<ele>223.5</ele>
</trkpt>
<trkpt lat="34.39706" lon="135.88935">
<ele>223.5</ele>
</trkpt>
<trkpt lat="34.39661" lon="135.8891099">
<ele>229.2</ele>
</trkpt>
<trkpt lat="34.39616" lon="135.88888">
<ele>243.1</ele>
</trkpt>
<trkpt lat="34.3960099" lon="135.88873">
<ele>246.6</ele>
</trkpt>
<trkpt lat="34.3959199" lon="135.88845">
<ele>245.4</ele>
</trkpt>
<trkpt lat="34.39588" lon="135.8881199">
<ele>245.8</ele>
</trkpt>
<trkpt lat="34.3959199" lon="135.88792">
<ele>244.7</ele>
</trkpt>
<trkpt lat="34.39606" lon="135.88754">
<ele>239.6</ele>
</trkpt>
<trkpt lat="34.3963899" lon="135.8868699">
<ele>221.1</ele>
</trkpt>
<trkpt lat="34.39642" lon="135.88673">
<ele>219.2</ele>
</trkpt>
<trkpt lat="34.39654" lon="135.8857">
<ele>204.2</ele>
</trkpt>
<trkpt lat="34.39654" lon="135.88548">
<ele>201.9</ele>
</trkpt>
<trkpt lat="34.3964" lon="135.8846">
<ele>201.6</ele>
</trkpt>
<trkpt lat="34.39634" lon="135.88385">
<ele>198.4</ele>
</trkpt>
<trkpt lat="34.39611" lon="135.88342">
<ele>194.7</ele>
</trkpt>
<trkpt lat="34.39597" lon="135.88332">
<ele>193.7</ele>
</trkpt>
<trkpt lat="34.39579" lon="135.88326">
<ele>193.7</ele>
</trkpt>
<trkpt lat="34.39544" lon="135.88329">
<ele>192.9</ele>
</trkpt>
<trkpt lat="34.39532" lon="135.88324">
<ele>191.8</ele>
</trkpt>
<trkpt lat="34.39515" lon="135.88335">
<ele>193.3</ele>
</trkpt>
<trkpt lat="34.39492" lon="135.88355">
<ele>202.3</ele>
</trkpt>
<trkpt lat="34.39482" lon="135.88356">
<ele>202.8</ele>
</trkpt>
<trkpt lat="34.39435" lon="135.88347">
<ele>200.1</ele>
</trkpt>
<trkpt lat="34.39417" lon="135.88326">
<ele>194.7</ele>
</trkpt>
<trkpt lat="34.3941299" lon="135.88314">
<ele>192.5505662</ele>
</trkpt>
<trkpt lat="34.39414" lon="135.88298">
<ele>189.8856632</ele>
</trkpt>
<trkpt lat="34.39416" lon="135.88288">
<ele>188.1767701</ele>
</trkpt>
<trkpt lat="34.39427" lon="135.88245">
<ele>180.7</ele>
</trkpt>
<trkpt lat="34.39456" lon="135.8819">
<ele>181.0</ele>
</trkpt>
<trkpt lat="34.39465" lon="135.88165">
<ele>182.5</ele>
</trkpt>
<trkpt lat="34.3947" lon="135.88148">
<ele>186.3</ele>
</trkpt>
<trkpt lat="34.39471" lon="135.88134">
<ele>189.2</ele>
</trkpt>
<trkpt lat="34.39467" lon="135.88103">
<ele>194.1</ele>
</trkpt>
<trkpt lat="34.39459" lon="135.8806899">
<ele>199.8</ele>
</trkpt>
<trkpt lat="34.39448" lon="135.88034">
<ele>206.7</ele>
</trkpt>
<trkpt lat="34.39424" lon="135.87989">
<ele>209.7</ele>
</trkpt>
<trkpt lat="34.3941299" lon="135.87977">
<ele>209.1</ele>
</trkpt>
<trkpt lat="34.39399" lon="135.87968">
<ele>206.4</ele>
</trkpt>
<trkpt lat="34.3938" lon="135.87962">
<ele>200.3</ele>
</trkpt>
<trkpt lat="34.39367" lon="135.87954">
<ele>196.4</ele>
</trkpt>
<trkpt lat="34.39349" lon="135.8794">
<ele>190.5</ele>
</trkpt>
<trkpt lat="34.39336" lon="135.87924">
<ele>185.8</ele>
</trkpt>
<trkpt lat="34.39334" lon="135.87915">
<ele>185.4</ele>
</trkpt>
<trkpt lat="34.39335" lon="135.8790799">
<ele>185.9</ele>
</trkpt>
<trkpt lat="34.39343" lon="135.87874">
<ele>189.4</ele>
</trkpt>
<trkpt lat="34.39343" lon="135.87874">
<ele>189.4</ele>
</trkpt>
<trkpt lat="34.39346" lon="135.87783">
<ele>185.2</ele>
</trkpt>
<trkpt lat="34.39338" lon="135.87746">
<ele>179.4</ele>
</trkpt>
<trkpt lat="34.3933899" lon="135.87739">
<ele>179.5</ele>
</trkpt>
<trkpt lat="34.39368" lon="135.87688">
<ele>187.4</ele>
</trkpt>
<trkpt lat="34.3938" lon="135.87642">
<ele>187.7</ele>
</trkpt>
<trkpt lat="34.39384" lon="135.8762999">
<ele>187.3</ele>
</trkpt>
<trkpt lat="34.39401" lon="135.87591">
<ele>185.0</ele>
</trkpt>
<trkpt lat="34.39429" lon="135.87538">
<ele>181.4</ele>
</trkpt>
<trkpt lat="34.39436" lon="135.87519">
<ele>179.2</ele>
</trkpt>
<trkpt lat="34.39435" lon="135.87512">
<ele>177.7</ele>
</trkpt>
<trkpt lat="34.39428" lon="135.8749">
<ele>174.8</ele>
</trkpt>
<trkpt lat="34.39423" lon="135.87466">
<ele>174.9</ele>
</trkpt>
<trkpt lat="34.39422" lon="135.87455">
<ele>175.1</ele>
</trkpt>
<trkpt lat="34.39427" lon="135.87371">
<ele>178.6</ele>
</trkpt>
<trkpt lat="34.39421" lon="135.87339">
<ele>179.8</ele>
</trkpt>
<trkpt lat="34.39414" lon="135.87325">
<ele>180.0</ele>
</trkpt>
<trkpt lat="34.39402" lon="135.8730799">
<ele>179.4</ele>
</trkpt>
<trkpt lat="34.39354" lon="135.87251">
<ele>176.0</ele>
</trkpt>
<trkpt lat="34.3932" lon="135.87201">
<ele>181.9</ele>
</trkpt>
<trkpt lat="34.39311" lon="135.87178">
<ele>183.6</ele>
</trkpt>
<trkpt lat="34.393" lon="135.8714">
<ele>183.3</ele>
</trkpt>
<trkpt lat="34.39285" lon="135.8711099">
<ele>178.9</ele>
</trkpt>
<trkpt lat="34.39289" lon="135.87104">
<ele>180.7</ele>
</trkpt>
<trkpt lat="34.39289" lon="135.87104">
<ele>180.7</ele>
</trkpt>
<trkpt lat="34.39297" lon="135.87086">
<ele>184.8</ele>
</trkpt>
<trkpt lat="34.39302" lon="135.87069">
<ele>184.8</ele>
</trkpt>
<trkpt lat="34.39317" lon="135.86983">
<ele>175.6</ele>
</trkpt>
<trkpt lat="34.39326" lon="135.8694999">
<ele>171.6</ele>
</trkpt>
<trkpt lat="34.39335" lon="135.8693">
<ele>169.2</ele>
</trkpt>
<trkpt lat="34.39378" lon="135.86847">
<ele>161.9</ele>
</trkpt>
<trkpt lat="34.39399" lon="135.86846">
<ele>163.3</ele>
</trkpt>
<trkpt lat="34.39399" lon="135.86846">
<ele>163.3</ele>
</trkpt>
<trkpt lat="34.39408" lon="135.86846">
<ele>163.9</ele>
</trkpt>
<trkpt lat="34.39447" lon="135.86787">
<ele>163.8432272</ele>
</trkpt>
<trkpt lat="34.39455" lon="135.86781">
<ele>163.8346647</ele>
</trkpt>
<trkpt lat="34.39467" lon="135.8677">
<ele>163.8209709</ele>
</trkpt>
<trkpt lat="34.39475" lon="135.86761">
<ele>163.8110364</ele>
</trkpt>
<trkpt lat="34.39482" lon="135.86749">
<ele>163.8</ele>
</trkpt>
<trkpt lat="34.39494" lon="135.86724">
<ele>163.5</ele>
</trkpt>
<trkpt lat="34.3952699" lon="135.86665">
<ele>167.2</ele>
</trkpt>
<trkpt lat="34.39575" lon="135.8659">
<ele>161.8</ele>
</trkpt>
<trkpt lat="34.39603" lon="135.86541">
<ele>164.5</ele>
</trkpt>
<trkpt lat="34.39613" lon="135.8651">
<ele>165.7</ele>
</trkpt>
<trkpt lat="34.39616" lon="135.8649299">
<ele>165.8</ele>
</trkpt>
<trkpt lat="34.39614" lon="135.8648399">
<ele>165.0</ele>
</trkpt>
<trkpt lat="34.39625" lon="135.86463">
<ele>167.6</ele>
</trkpt>
<trkpt lat="34.39634" lon="135.86429">
<ele>169.7</ele>
</trkpt>
<trkpt lat="34.39636" lon="135.86412">
<ele>170.3</ele>
</trkpt>
<trkpt lat="34.39636" lon="135.8637">
<ele>172.0</ele>
</trkpt>
<trkpt lat="34.39641" lon="135.8636">
<ele>173.9</ele>
</trkpt>
<trkpt lat="34.39641" lon="135.86328">
<ele>175.1</ele>
</trkpt>
<trkpt lat="34.39638" lon="135.86247">
<ele>175.5</ele>
</trkpt>
<trkpt lat="34.3964" lon="135.86217">
<ele>177.5</ele>
</trkpt>
<trkpt lat="34.39634" lon="135.86146">
<ele>178.1</ele>
</trkpt>
<trkpt lat="34.39627" lon="135.86076">
<ele>177.1</ele>
</trkpt>
<trkpt lat="34.39623" lon="135.86">
<ele>169.1</ele>
</trkpt>
<trkpt lat="34.39623" lon="135.8597">
<ele>169.7</ele>
</trkpt>
<trkpt lat="34.39604" lon="135.85955">
<ele>166.4</ele>
</trkpt>
<trkpt lat="34.3960099" lon="135.85923">
<ele>166.3</ele>
</trkpt>
<trkpt lat="34.39596" lon="135.85917">
<ele>165.4</ele>
</trkpt>
<trkpt lat="34.39588" lon="135.85861">
<ele>165.7</ele>
</trkpt>
<trkpt lat="34.3958" lon="135.85805">
<ele>164.5</ele>
</trkpt>
<trkpt lat="34.39567" lon="135.85702">
<ele>164.7</ele>
</trkpt>
<trkpt lat="34.3955399" lon="135.85643">
<ele>164.4</ele>
</trkpt>
<trkpt lat="34.39541" lon="135.85584">
<ele>163.9</ele>
</trkpt>
<trkpt lat="34.3955399" lon="135.85578">
<ele>165.3</ele>
</trkpt>
<trkpt lat="34.39566" lon="135.85546">
<ele>167.4</ele>
</trkpt>
<trkpt lat="34.39566" lon="135.85525">
<ele>168.0</ele>
</trkpt>
<trkpt lat="34.39548" lon="135.85421">
<ele>171.9</ele>
</trkpt>
<trkpt lat="34.3953" lon="135.85316">
<ele>172.5</ele>
</trkpt>
<trkpt lat="34.3950699" lon="135.8524">
<ele>169.2</ele>
</trkpt>
<trkpt lat="34.39494" lon="135.85213">
<ele>167.6</ele>
</trkpt>
<trkpt lat="34.39486" lon="135.85182">
<ele>168.8</ele>
</trkpt>
<trkpt lat="34.3947" lon="135.85082">
<ele>172.4</ele>
</trkpt>
<trkpt lat="34.39455" lon="135.84983">
<ele>174.4</ele>
</trkpt>
<trkpt lat="34.3945" lon="135.84921">
<ele>175.2</ele>
</trkpt>
<trkpt lat="34.3945099" lon="135.84897">
<ele>174.8</ele>
</trkpt>
<trkpt lat="34.39455" lon="135.8487199">
<ele>175.1</ele>
</trkpt>
<trkpt lat="34.39456" lon="135.84856">
<ele>174.5</ele>
</trkpt>
<trkpt lat="34.39452" lon="135.84815">
<ele>170.5</ele>
</trkpt>
<trkpt lat="34.39453" lon="135.84793">
<ele>169.6</ele>
</trkpt>
<trkpt lat="34.39466" lon="135.84745">
<ele>169.9</ele>
</trkpt>
<trkpt lat="34.39474" lon="135.84699">
<ele>166.8</ele>
</trkpt>
<trkpt lat="34.39473" lon="135.84671">
<ele>163.6</ele>
</trkpt>
<trkpt lat="34.39472" lon="135.84661">
<ele>162.9</ele>
</trkpt>
<trkpt lat="34.3947" lon="135.8465">
<ele>162.6</ele>
</trkpt>
<trkpt lat="34.39488" lon="135.84639">
<ele>164.8</ele>
</trkpt>
<trkpt lat="34.39495" lon="135.84632">
<ele>165.6</ele>
</trkpt>
<trkpt lat="34.39495" lon="135.84632">
<ele>165.6</ele>
</trkpt>
<trkpt lat="34.39513" lon="135.84601">
<ele>167.4</ele>
</trkpt>
<trkpt lat="34.39518" lon="135.84602">
<ele>168.2</ele>
</trkpt>
    </trkseg>
  </trk>
</gpx>