<?xml version="1.0" encoding="UTF-8"?>
<gpx version="1.1"
     creator="KMLtoGPX"
     xmlns="http://www.topografix.com/GPX/1/1">
  <metadata>
    <name>Hanawa-machi course</name>
    <desc>塙町コース</desc>
    <bounds minlat="36.94182" minlon="140.39657" maxlat="36.99489" maxlon="140.44317"/>
  </metadata>
  <trk>
    <name>Hanawa-machi course</name>
    <trkseg>
<trkpt lat="36.95828" lon="140.41183">
<ele>196</ele>
</trkpt>
<trkpt lat="36.95798" lon="140.41134">
<ele>195</ele>
</trkpt>
<trkpt lat="36.95798" lon="140.41134">
<ele>195</ele>
</trkpt>
<trkpt lat="36.95792" lon="140.41125">
<ele>195</ele>
</trkpt>
<trkpt lat="36.9573899" lon="140.4117599">
<ele>194</ele>
</trkpt>
<trkpt lat="36.95685" lon="140.41228">
<ele>193</ele>
</trkpt>
<trkpt lat="36.95632" lon="140.4128">
<ele>193</ele>
</trkpt>
<trkpt lat="36.95579" lon="140.41332">
<ele>194</ele>
</trkpt>
<trkpt lat="36.95532" lon="140.41381">
<ele>195</ele>
</trkpt>
<trkpt lat="36.95488" lon="140.41415">
<ele>195</ele>
</trkpt>
<trkpt lat="36.95443" lon="140.41454">
<ele>193</ele>
</trkpt>
<trkpt lat="36.95424" lon="140.41478">
<ele>193</ele>
</trkpt>
<trkpt lat="36.95402" lon="140.4151599">
<ele>193</ele>
</trkpt>
<trkpt lat="36.95378" lon="140.41563">
<ele>193</ele>
</trkpt>
<trkpt lat="36.95356" lon="140.41599">
<ele>193</ele>
</trkpt>
<trkpt lat="36.95337" lon="140.41622">
<ele>193</ele>
</trkpt>
<trkpt lat="36.95325" lon="140.4163299">
<ele>193</ele>
</trkpt>
<trkpt lat="36.95305" lon="140.41646">
<ele>193</ele>
</trkpt>
<trkpt lat="36.95305" lon="140.41646">
<ele>193</ele>
</trkpt>
<trkpt lat="36.95297" lon="140.4165">
<ele>193</ele>
</trkpt>
<trkpt lat="36.95318" lon="140.41715">
<ele>194</ele>
</trkpt>
<trkpt lat="36.95338" lon="140.4178">
<ele>194</ele>
</trkpt>
<trkpt lat="36.95361" lon="140.41866">
<ele>194</ele>
</trkpt>
<trkpt lat="36.95377" lon="140.41938">
<ele>196</ele>
</trkpt>
<trkpt lat="36.95389" lon="140.42022">
<ele>198</ele>
</trkpt>
<trkpt lat="36.95402" lon="140.42106">
<ele>200</ele>
</trkpt>
<trkpt lat="36.95414" lon="140.42191">
<ele>202</ele>
</trkpt>
<trkpt lat="36.95416" lon="140.42219">
<ele>204</ele>
</trkpt>
<trkpt lat="36.95414" lon="140.42292">
<ele>209</ele>
</trkpt>
<trkpt lat="36.95417" lon="140.42366">
<ele>205</ele>
</trkpt>
<trkpt lat="36.9541899" lon="140.42372">
<ele>204</ele>
</trkpt>
<trkpt lat="36.95421" lon="140.42459">
<ele>200</ele>
</trkpt>
<trkpt lat="36.95428" lon="140.4247">
<ele>200</ele>
</trkpt>
<trkpt lat="36.95433" lon="140.42476">
<ele>200</ele>
</trkpt>
<trkpt lat="36.95451" lon="140.42488">
<ele>200</ele>
</trkpt>
<trkpt lat="36.9551" lon="140.42517">
<ele>201</ele>
</trkpt>
<trkpt lat="36.95524" lon="140.42532">
<ele>201</ele>
</trkpt>
<trkpt lat="36.95534" lon="140.4255">
<ele>201</ele>
</trkpt>
<trkpt lat="36.95539" lon="140.42562">
<ele>202</ele>
</trkpt>
<trkpt lat="36.95547" lon="140.42593">
<ele>204</ele>
</trkpt>
<trkpt lat="36.9555099" lon="140.42628">
<ele>207</ele>
</trkpt>
<trkpt lat="36.9555099" lon="140.42671">
<ele>210</ele>
</trkpt>
<trkpt lat="36.95548" lon="140.42702">
<ele>211</ele>
</trkpt>
<trkpt lat="36.95543" lon="140.42724">
<ele>212</ele>
</trkpt>
<trkpt lat="36.95529" lon="140.42767">
<ele>215</ele>
</trkpt>
<trkpt lat="36.95501" lon="140.42814">
<ele>214</ele>
</trkpt>
<trkpt lat="36.95474" lon="140.42861">
<ele>213</ele>
</trkpt>
<trkpt lat="36.95459" lon="140.42891">
<ele>211</ele>
</trkpt>
<trkpt lat="36.95449" lon="140.42925">
<ele>208</ele>
</trkpt>
<trkpt lat="36.95441" lon="140.4296">
<ele>206</ele>
</trkpt>
<trkpt lat="36.95436" lon="140.43011">
<ele>206</ele>
</trkpt>
<trkpt lat="36.95436" lon="140.43042">
<ele>206</ele>
</trkpt>
<trkpt lat="36.95441" lon="140.43116">
<ele>207</ele>
</trkpt>
<trkpt lat="36.9544" lon="140.4312799">
<ele>207</ele>
</trkpt>
<trkpt lat="36.95422" lon="140.43187">
<ele>207</ele>
</trkpt>
<trkpt lat="36.95399" lon="140.4327">
<ele>209</ele>
</trkpt>
<trkpt lat="36.95377" lon="140.43353">
<ele>209</ele>
</trkpt>
<trkpt lat="36.9535399" lon="140.43436">
<ele>208</ele>
</trkpt>
<trkpt lat="36.95331" lon="140.43519">
<ele>208</ele>
</trkpt>
<trkpt lat="36.95324" lon="140.43539">
<ele>209</ele>
</trkpt>
<trkpt lat="36.9532" lon="140.43545">
<ele>209</ele>
</trkpt>
<trkpt lat="36.95303" lon="140.43561">
<ele>211</ele>
</trkpt>
<trkpt lat="36.9528" lon="140.43574">
<ele>212</ele>
</trkpt>
<trkpt lat="36.95249" lon="140.43586">
<ele>214</ele>
</trkpt>
<trkpt lat="36.95228" lon="140.43597">
<ele>215</ele>
</trkpt>
<trkpt lat="36.95181" lon="140.43627">
<ele>217</ele>
</trkpt>
<trkpt lat="36.95139" lon="140.43651">
<ele>215</ele>
</trkpt>
<trkpt lat="36.95097" lon="140.43675">
<ele>212</ele>
</trkpt>
<trkpt lat="36.95058" lon="140.43704">
<ele>208</ele>
</trkpt>
<trkpt lat="36.9501599" lon="140.43741">
<ele>205</ele>
</trkpt>
<trkpt lat="36.94964" lon="140.43783">
<ele>205</ele>
</trkpt>
<trkpt lat="36.94912" lon="140.43824">
<ele>205</ele>
</trkpt>
<trkpt lat="36.9486" lon="140.43866">
<ele>205</ele>
</trkpt>
<trkpt lat="36.94791" lon="140.43923">
<ele>207</ele>
</trkpt>
<trkpt lat="36.94722" lon="140.4397899">
<ele>208</ele>
</trkpt>
<trkpt lat="36.94653" lon="140.44036">
<ele>208</ele>
</trkpt>
<trkpt lat="36.94643" lon="140.44042">
<ele>208</ele>
</trkpt>
<trkpt lat="36.94635" lon="140.44043">
<ele>208</ele>
</trkpt>
<trkpt lat="36.94609" lon="140.44042">
<ele>208</ele>
</trkpt>
<trkpt lat="36.94609" lon="140.44042">
<ele>208</ele>
</trkpt>
<trkpt lat="36.946" lon="140.44042">
<ele>208</ele>
</trkpt>
<trkpt lat="36.94609" lon="140.44054">
<ele>208</ele>
</trkpt>
<trkpt lat="36.9462199" lon="140.44062">
<ele>208</ele>
</trkpt>
<trkpt lat="36.94636" lon="140.44074">
<ele>208</ele>
</trkpt>
<trkpt lat="36.94664" lon="140.44135">
<ele>211</ele>
</trkpt>
<trkpt lat="36.947" lon="140.4422">
<ele>216</ele>
</trkpt>
<trkpt lat="36.94736" lon="140.44304">
<ele>225</ele>
</trkpt>
<trkpt lat="36.94743" lon="140.44308">
<ele>226</ele>
</trkpt>
<trkpt lat="36.94777" lon="140.44315">
<ele>232</ele>
</trkpt>
<trkpt lat="36.94834" lon="140.44317">
<ele>230</ele>
</trkpt>
<trkpt lat="36.94878" lon="140.44313">
<ele>226</ele>
</trkpt>
<trkpt lat="36.94927" lon="140.44303">
<ele>222</ele>
</trkpt>
<trkpt lat="36.94995" lon="140.44286">
<ele>217</ele>
</trkpt>
<trkpt lat="36.9504499" lon="140.44277">
<ele>215</ele>
</trkpt>
<trkpt lat="36.95094" lon="140.44267">
<ele>216</ele>
</trkpt>
<trkpt lat="36.95126" lon="140.44259">
<ele>216</ele>
</trkpt>
<trkpt lat="36.95152" lon="140.44251">
<ele>217</ele>
</trkpt>
<trkpt lat="36.95174" lon="140.44241">
<ele>217</ele>
</trkpt>
<trkpt lat="36.95221" lon="140.44216">
<ele>217</ele>
</trkpt>
<trkpt lat="36.95236" lon="140.44211">
<ele>216</ele>
</trkpt>
<trkpt lat="36.95265" lon="140.44207">
<ele>215</ele>
</trkpt>
<trkpt lat="36.95311" lon="140.44205">
<ele>214</ele>
</trkpt>
<trkpt lat="36.95369" lon="140.44208">
<ele>214</ele>
</trkpt>
<trkpt lat="36.9543899" lon="140.44217">
<ele>215</ele>
</trkpt>
<trkpt lat="36.95474" lon="140.44219">
<ele>215</ele>
</trkpt>
<trkpt lat="36.95505" lon="140.44215">
<ele>214</ele>
</trkpt>
<trkpt lat="36.95515" lon="140.44211">
<ele>214</ele>
</trkpt>
<trkpt lat="36.95529" lon="140.44202">
<ele>213</ele>
</trkpt>
<trkpt lat="36.9554" lon="140.44192">
<ele>213</ele>
</trkpt>
<trkpt lat="36.95558" lon="140.44166">
<ele>212</ele>
</trkpt>
<trkpt lat="36.95592" lon="140.44115">
<ele>208</ele>
</trkpt>
<trkpt lat="36.95621" lon="140.44065">
<ele>205</ele>
</trkpt>
<trkpt lat="36.95662" lon="140.44004">
<ele>207</ele>
</trkpt>
<trkpt lat="36.9568299" lon="140.43981">
<ele>208</ele>
</trkpt>
<trkpt lat="36.95704" lon="140.43963">
<ele>208</ele>
</trkpt>
<trkpt lat="36.95772" lon="140.43919">
<ele>207</ele>
</trkpt>
<trkpt lat="36.9584" lon="140.43874">
<ele>203</ele>
</trkpt>
<trkpt lat="36.95884" lon="140.43852">
<ele>204</ele>
</trkpt>
<trkpt lat="36.9595399" lon="140.43822">
<ele>207</ele>
</trkpt>
<trkpt lat="36.95981" lon="140.43812">
<ele>208</ele>
</trkpt>
<trkpt lat="36.96" lon="140.43797">
<ele>209</ele>
</trkpt>
<trkpt lat="36.96037" lon="140.43754">
<ele>209</ele>
</trkpt>
<trkpt lat="36.96074" lon="140.43711">
<ele>210</ele>
</trkpt>
<trkpt lat="36.96096" lon="140.4369">
<ele>210</ele>
</trkpt>
<trkpt lat="36.96121" lon="140.4367">
<ele>211</ele>
</trkpt>
<trkpt lat="36.96141" lon="140.43659">
<ele>212</ele>
</trkpt>
<trkpt lat="36.96152" lon="140.43655">
<ele>212</ele>
</trkpt>
<trkpt lat="36.96229" lon="140.43642">
<ele>213</ele>
</trkpt>
<trkpt lat="36.96306" lon="140.4363">
<ele>209</ele>
</trkpt>
<trkpt lat="36.9634" lon="140.43617">
<ele>207</ele>
</trkpt>
<trkpt lat="36.96354" lon="140.43607">
<ele>206</ele>
</trkpt>
<trkpt lat="36.96374" lon="140.4358499">
<ele>205</ele>
</trkpt>
<trkpt lat="36.9638" lon="140.43575">
<ele>204</ele>
</trkpt>
<trkpt lat="36.96385" lon="140.43563">
<ele>204</ele>
</trkpt>
<trkpt lat="36.96387" lon="140.43548">
<ele>204</ele>
</trkpt>
<trkpt lat="36.96387" lon="140.43536">
<ele>204</ele>
</trkpt>
<trkpt lat="36.96383" lon="140.4343">
<ele>203</ele>
</trkpt>
<trkpt lat="36.96378" lon="140.43365">
<ele>202</ele>
</trkpt>
<trkpt lat="36.96372" lon="140.433">
<ele>201</ele>
</trkpt>
<trkpt lat="36.96365" lon="140.43198">
<ele>200</ele>
</trkpt>
<trkpt lat="36.96358" lon="140.43096">
<ele>200</ele>
</trkpt>
<trkpt lat="36.96351" lon="140.42995">
<ele>200</ele>
</trkpt>
<trkpt lat="36.9635" lon="140.42908">
<ele>200</ele>
</trkpt>
<trkpt lat="36.96352" lon="140.4289499">
<ele>200</ele>
</trkpt>
<trkpt lat="36.96352" lon="140.4289499">
<ele>200</ele>
</trkpt>
<trkpt lat="36.96353" lon="140.42884">
<ele>199</ele>
</trkpt>
<trkpt lat="36.96397" lon="140.42903">
<ele>199</ele>
</trkpt>
<trkpt lat="36.96414" lon="140.42914">
<ele>199</ele>
</trkpt>
<trkpt lat="36.96426" lon="140.42926">
<ele>199</ele>
</trkpt>
<trkpt lat="36.96443" lon="140.42952">
<ele>199</ele>
</trkpt>
<trkpt lat="36.96472" lon="140.4301199">
<ele>199</ele>
</trkpt>
<trkpt lat="36.96483" lon="140.43031">
<ele>200</ele>
</trkpt>
<trkpt lat="36.96494" lon="140.43047">
<ele>201</ele>
</trkpt>
<trkpt lat="36.96508" lon="140.43062">
<ele>202</ele>
</trkpt>
<trkpt lat="36.96564" lon="140.43114">
<ele>206</ele>
</trkpt>
<trkpt lat="36.9658" lon="140.43135">
<ele>208</ele>
</trkpt>
<trkpt lat="36.96598" lon="140.43162">
<ele>210</ele>
</trkpt>
<trkpt lat="36.96652" lon="140.43251">
<ele>212</ele>
</trkpt>
<trkpt lat="36.96667" lon="140.43284">
<ele>212</ele>
</trkpt>
<trkpt lat="36.96682" lon="140.43338">
<ele>212</ele>
</trkpt>
<trkpt lat="36.96731" lon="140.43322">
<ele>212</ele>
</trkpt>
<trkpt lat="36.96781" lon="140.43306">
<ele>211</ele>
</trkpt>
<trkpt lat="36.96814" lon="140.43294">
<ele>210</ele>
</trkpt>
<trkpt lat="36.96884" lon="140.43268">
<ele>206</ele>
</trkpt>
<trkpt lat="36.96954" lon="140.43242">
<ele>206</ele>
</trkpt>
<trkpt lat="36.9702399" lon="140.43221">
<ele>204</ele>
</trkpt>
<trkpt lat="36.97095" lon="140.4319999">
<ele>202</ele>
</trkpt>
<trkpt lat="36.9716499" lon="140.43179">
<ele>202</ele>
</trkpt>
<trkpt lat="36.97215" lon="140.4316399">
<ele>203</ele>
</trkpt>
<trkpt lat="36.97266" lon="140.4315">
<ele>204</ele>
</trkpt>
<trkpt lat="36.97289" lon="140.43138">
<ele>204</ele>
</trkpt>
<trkpt lat="36.97317" lon="140.43123">
<ele>204</ele>
</trkpt>
<trkpt lat="36.97366" lon="140.43086">
<ele>203</ele>
</trkpt>
<trkpt lat="36.97398" lon="140.43051">
<ele>201</ele>
</trkpt>
<trkpt lat="36.9745" lon="140.42982">
<ele>200</ele>
</trkpt>
<trkpt lat="36.97499" lon="140.42925">
<ele>202</ele>
</trkpt>
<trkpt lat="36.97547" lon="140.42869">
<ele>204</ele>
</trkpt>
<trkpt lat="36.97586" lon="140.42831">
<ele>205</ele>
</trkpt>
<trkpt lat="36.97611" lon="140.42805">
<ele>205</ele>
</trkpt>
<trkpt lat="36.97631" lon="140.42769">
<ele>205</ele>
</trkpt>
<trkpt lat="36.97639" lon="140.4275199">
<ele>205</ele>
</trkpt>
<trkpt lat="36.97657" lon="140.42694">
<ele>205</ele>
</trkpt>
<trkpt lat="36.97676" lon="140.42637">
<ele>207</ele>
</trkpt>
<trkpt lat="36.97704" lon="140.42556">
<ele>211</ele>
</trkpt>
<trkpt lat="36.97742" lon="140.42462">
<ele>212</ele>
</trkpt>
<trkpt lat="36.9775" lon="140.42449">
<ele>212</ele>
</trkpt>
<trkpt lat="36.97763" lon="140.42435">
<ele>212</ele>
</trkpt>
<trkpt lat="36.97802" lon="140.42408">
<ele>215</ele>
</trkpt>
<trkpt lat="36.97811" lon="140.42397">
<ele>216</ele>
</trkpt>
<trkpt lat="36.97821" lon="140.42378">
<ele>217</ele>
</trkpt>
<trkpt lat="36.9784999" lon="140.423">
<ele>217</ele>
</trkpt>
<trkpt lat="36.97874" lon="140.42228">
<ele>218</ele>
</trkpt>
<trkpt lat="36.97902" lon="140.42139">
<ele>221</ele>
</trkpt>
<trkpt lat="36.97919" lon="140.42075">
<ele>221</ele>
</trkpt>
<trkpt lat="36.97939" lon="140.42022">
<ele>221</ele>
</trkpt>
<trkpt lat="36.97969" lon="140.4196">
<ele>221</ele>
</trkpt>
<trkpt lat="36.97986" lon="140.41929">
<ele>222</ele>
</trkpt>
<trkpt lat="36.98026" lon="140.41868">
<ele>223</ele>
</trkpt>
<trkpt lat="36.98061" lon="140.41827">
<ele>223</ele>
</trkpt>
<trkpt lat="36.98096" lon="140.41786">
<ele>222</ele>
</trkpt>
<trkpt lat="36.98128" lon="140.41755">
<ele>221</ele>
</trkpt>
<trkpt lat="36.98172" lon="140.4172">
<ele>220</ele>
</trkpt>
<trkpt lat="36.9823" lon="140.41679">
<ele>222</ele>
</trkpt>
<trkpt lat="36.98288" lon="140.41638">
<ele>224</ele>
</trkpt>
<trkpt lat="36.98304" lon="140.41621">
<ele>225</ele>
</trkpt>
<trkpt lat="36.98304" lon="140.41621">
<ele>225</ele>
</trkpt>
<trkpt lat="36.98311" lon="140.41614">
<ele>225</ele>
</trkpt>
<trkpt lat="36.98322" lon="140.41591">
<ele>226</ele>
</trkpt>
<trkpt lat="36.98328" lon="140.41568">
<ele>226</ele>
</trkpt>
<trkpt lat="36.98335" lon="140.41524">
<ele>227</ele>
</trkpt>
<trkpt lat="36.98334" lon="140.41442">
<ele>232</ele>
</trkpt>
<trkpt lat="36.98334" lon="140.4136">
<ele>233</ele>
</trkpt>
<trkpt lat="36.98345" lon="140.41262">
<ele>229</ele>
</trkpt>
<trkpt lat="36.98354" lon="140.4122099">
<ele>232</ele>
</trkpt>
<trkpt lat="36.98364" lon="140.41192">
<ele>234</ele>
</trkpt>
<trkpt lat="36.9839399" lon="140.4116">
<ele>237</ele>
</trkpt>
<trkpt lat="36.98428" lon="140.41147">
<ele>240</ele>
</trkpt>
<trkpt lat="36.98482" lon="140.4113999">
<ele>240</ele>
</trkpt>
<trkpt lat="36.98513" lon="140.41138">
<ele>238</ele>
</trkpt>
<trkpt lat="36.98542" lon="140.4113099">
<ele>237</ele>
</trkpt>
<trkpt lat="36.98571" lon="140.41121">
<ele>236</ele>
</trkpt>
<trkpt lat="36.98602" lon="140.41107">
<ele>235</ele>
</trkpt>
<trkpt lat="36.9866699" lon="140.41064">
<ele>234</ele>
</trkpt>
<trkpt lat="36.98724" lon="140.41031">
<ele>235</ele>
</trkpt>
<trkpt lat="36.98782" lon="140.41004">
<ele>236</ele>
</trkpt>
<trkpt lat="36.98841" lon="140.40976">
<ele>238</ele>
</trkpt>
<trkpt lat="36.98874" lon="140.40965">
<ele>239</ele>
</trkpt>
<trkpt lat="36.98908" lon="140.40962">
<ele>241</ele>
</trkpt>
<trkpt lat="36.98992" lon="140.40974">
<ele>244</ele>
</trkpt>
<trkpt lat="36.99026" lon="140.40972">
<ele>244</ele>
</trkpt>
<trkpt lat="36.99068" lon="140.40959">
<ele>245</ele>
</trkpt>
<trkpt lat="36.99109" lon="140.40938">
<ele>245</ele>
</trkpt>
<trkpt lat="36.99134" lon="140.40923">
<ele>245</ele>
</trkpt>
<trkpt lat="36.99156" lon="140.40901">
<ele>246</ele>
</trkpt>
<trkpt lat="36.9918" lon="140.40873">
<ele>249</ele>
</trkpt>
<trkpt lat="36.99207" lon="140.40837">
<ele>252</ele>
</trkpt>
<trkpt lat="36.99235" lon="140.40805">
<ele>252</ele>
</trkpt>
<trkpt lat="36.99271" lon="140.40776">
<ele>252</ele>
</trkpt>
<trkpt lat="36.99312" lon="140.40748">
<ele>252</ele>
</trkpt>
<trkpt lat="36.9934" lon="140.40725">
<ele>252</ele>
</trkpt>
<trkpt lat="36.9936" lon="140.40699">
<ele>253</ele>
</trkpt>
<trkpt lat="36.99375" lon="140.40668">
<ele>253</ele>
</trkpt>
<trkpt lat="36.99387" lon="140.40626">
<ele>253</ele>
</trkpt>
<trkpt lat="36.99388" lon="140.4060299">
<ele>254</ele>
</trkpt>
<trkpt lat="36.99383" lon="140.40557">
<ele>256</ele>
</trkpt>
<trkpt lat="36.99376" lon="140.40529">
<ele>257</ele>
</trkpt>
<trkpt lat="36.99371" lon="140.40495">
<ele>257</ele>
</trkpt>
<trkpt lat="36.99377" lon="140.40452">
<ele>253</ele>
</trkpt>
<trkpt lat="36.9938999" lon="140.4040599">
<ele>249</ele>
</trkpt>
<trkpt lat="36.99406" lon="140.40374">
<ele>249</ele>
</trkpt>
<trkpt lat="36.99427" lon="140.40347">
<ele>250</ele>
</trkpt>
<trkpt lat="36.9944599" lon="140.40335">
<ele>250</ele>
</trkpt>
<trkpt lat="36.9946399" lon="140.40326">
<ele>250</ele>
</trkpt>
<trkpt lat="36.99477" lon="140.40317">
<ele>249</ele>
</trkpt>
<trkpt lat="36.99481" lon="140.40309">
<ele>248</ele>
</trkpt>
<trkpt lat="36.99489" lon="140.40289">
<ele>247</ele>
</trkpt>
<trkpt lat="36.99488" lon="140.4026299">
<ele>245</ele>
</trkpt>
<trkpt lat="36.9948" lon="140.40234">
<ele>243</ele>
</trkpt>
<trkpt lat="36.99454" lon="140.40172">
<ele>248</ele>
</trkpt>
<trkpt lat="36.99427" lon="140.40109">
<ele>245</ele>
</trkpt>
<trkpt lat="36.9938999" lon="140.4001">
<ele>223</ele>
</trkpt>
<trkpt lat="36.9938999" lon="140.4001">
<ele>223</ele>
</trkpt>
<trkpt lat="36.99377" lon="140.39977">
<ele>220</ele>
</trkpt>
<trkpt lat="36.99374" lon="140.3995799">
<ele>218</ele>
</trkpt>
<trkpt lat="36.99374" lon="140.3993">
<ele>216</ele>
</trkpt>
<trkpt lat="36.99377" lon="140.39914">
<ele>215</ele>
</trkpt>
<trkpt lat="36.99387" lon="140.39885">
<ele>214</ele>
</trkpt>
<trkpt lat="36.99402" lon="140.39862">
<ele>213</ele>
</trkpt>
<trkpt lat="36.99402" lon="140.39862">
<ele>213</ele>
</trkpt>
<trkpt lat="36.99375" lon="140.39829">
<ele>212</ele>
</trkpt>
<trkpt lat="36.99327" lon="140.39756">
<ele>214</ele>
</trkpt>
<trkpt lat="36.9929" lon="140.39709">
<ele>215</ele>
</trkpt>
<trkpt lat="36.99272" lon="140.3968999">
<ele>215</ele>
</trkpt>
<trkpt lat="36.9925799" lon="140.3968">
<ele>215</ele>
</trkpt>
<trkpt lat="36.99219" lon="140.39659">
<ele>213</ele>
</trkpt>
<trkpt lat="36.99192" lon="140.39657">
<ele>212</ele>
</trkpt>
<trkpt lat="36.9916399" lon="140.39664">
<ele>211</ele>
</trkpt>
<trkpt lat="36.99153" lon="140.39669">
<ele>211</ele>
</trkpt>
<trkpt lat="36.99121" lon="140.39677">
<ele>211</ele>
</trkpt>
<trkpt lat="36.9909899" lon="140.39686">
<ele>211</ele>
</trkpt>
<trkpt lat="36.99085" lon="140.39697">
<ele>211</ele>
</trkpt>
<trkpt lat="36.99064" lon="140.39708">
<ele>211</ele>
</trkpt>
<trkpt lat="36.99031" lon="140.39736">
<ele>212</ele>
</trkpt>
<trkpt lat="36.99001" lon="140.39767">
<ele>212</ele>
</trkpt>
<trkpt lat="36.98972" lon="140.39786">
<ele>212</ele>
</trkpt>
<trkpt lat="36.98926" lon="140.39805">
<ele>210</ele>
</trkpt>
<trkpt lat="36.9887" lon="140.39823">
<ele>209</ele>
</trkpt>
<trkpt lat="36.98814" lon="140.39841">
<ele>209</ele>
</trkpt>
<trkpt lat="36.9874099" lon="140.39858">
<ele>208</ele>
</trkpt>
<trkpt lat="36.9866699" lon="140.39876">
<ele>206</ele>
</trkpt>
<trkpt lat="36.98594" lon="140.39894">
<ele>206</ele>
</trkpt>
<trkpt lat="36.98545" lon="140.39901">
<ele>207</ele>
</trkpt>
<trkpt lat="36.98495" lon="140.39908">
<ele>209</ele>
</trkpt>
<trkpt lat="36.9841" lon="140.39914">
<ele>208</ele>
</trkpt>
<trkpt lat="36.98358" lon="140.39914">
<ele>208</ele>
</trkpt>
<trkpt lat="36.98307" lon="140.39914">
<ele>210</ele>
</trkpt>
<trkpt lat="36.9822599" lon="140.39905">
<ele>210</ele>
</trkpt>
<trkpt lat="36.98162" lon="140.39901">
<ele>209</ele>
</trkpt>
<trkpt lat="36.98099" lon="140.39897">
<ele>207</ele>
</trkpt>
<trkpt lat="36.98035" lon="140.39894">
<ele>206</ele>
</trkpt>
<trkpt lat="36.9799" lon="140.39893">
<ele>206</ele>
</trkpt>
<trkpt lat="36.97945" lon="140.39892">
<ele>206</ele>
</trkpt>
<trkpt lat="36.97898" lon="140.39902">
<ele>205</ele>
</trkpt>
<trkpt lat="36.97856" lon="140.39914">
<ele>204</ele>
</trkpt>
<trkpt lat="36.97795" lon="140.39941">
<ele>201</ele>
</trkpt>
<trkpt lat="36.97732" lon="140.39979">
<ele>201</ele>
</trkpt>
<trkpt lat="36.97669" lon="140.40018">
<ele>200</ele>
</trkpt>
<trkpt lat="36.97608" lon="140.4007">
<ele>200</ele>
</trkpt>
<trkpt lat="36.9756" lon="140.40107">
<ele>200</ele>
</trkpt>
<trkpt lat="36.9751199" lon="140.40135">
<ele>201</ele>
</trkpt>
<trkpt lat="36.97464" lon="140.40163">
<ele>201</ele>
</trkpt>
<trkpt lat="36.97429" lon="140.40192">
<ele>202</ele>
</trkpt>
<trkpt lat="36.9739" lon="140.40219">
<ele>202</ele>
</trkpt>
<trkpt lat="36.97326" lon="140.4025399">
<ele>201</ele>
</trkpt>
<trkpt lat="36.97262" lon="140.4029">
<ele>202</ele>
</trkpt>
<trkpt lat="36.97239" lon="140.40303">
<ele>202</ele>
</trkpt>
<trkpt lat="36.97211" lon="140.40322">
<ele>202</ele>
</trkpt>
<trkpt lat="36.97137" lon="140.40347">
<ele>198</ele>
</trkpt>
<trkpt lat="36.97104" lon="140.40354">
<ele>198</ele>
</trkpt>
<trkpt lat="36.97042" lon="140.40374">
<ele>198</ele>
</trkpt>
<trkpt lat="36.96979" lon="140.40395">
<ele>199</ele>
</trkpt>
<trkpt lat="36.96917" lon="140.4041499">
<ele>198</ele>
</trkpt>
<trkpt lat="36.96907" lon="140.40417">
<ele>198</ele>
</trkpt>
<trkpt lat="36.96906" lon="140.40418">
<ele>198</ele>
</trkpt>
<trkpt lat="36.96852" lon="140.40436">
<ele>197</ele>
</trkpt>
<trkpt lat="36.96798" lon="140.40453">
<ele>197</ele>
</trkpt>
<trkpt lat="36.9679" lon="140.40458">
<ele>197</ele>
</trkpt>
<trkpt lat="36.96782" lon="140.40466">
<ele>197</ele>
</trkpt>
<trkpt lat="36.96777" lon="140.40477">
<ele>197</ele>
</trkpt>
<trkpt lat="36.96772" lon="140.40502">
<ele>197</ele>
</trkpt>
<trkpt lat="36.96765" lon="140.40517">
<ele>197</ele>
</trkpt>
<trkpt lat="36.96756" lon="140.40524">
<ele>197</ele>
</trkpt>
<trkpt lat="36.96694" lon="140.40533">
<ele>196</ele>
</trkpt>
<trkpt lat="36.96622" lon="140.4053099">
<ele>195</ele>
</trkpt>
<trkpt lat="36.96568" lon="140.40527">
<ele>194</ele>
</trkpt>
<trkpt lat="36.96514" lon="140.40523">
<ele>194</ele>
</trkpt>
<trkpt lat="36.9646" lon="140.40516">
<ele>194</ele>
</trkpt>
<trkpt lat="36.96406" lon="140.40509">
<ele>194</ele>
</trkpt>
<trkpt lat="36.96374" lon="140.40508">
<ele>194</ele>
</trkpt>
<trkpt lat="36.96361" lon="140.40503">
<ele>194</ele>
</trkpt>
<trkpt lat="36.96356" lon="140.40514">
<ele>194</ele>
</trkpt>
<trkpt lat="36.96355" lon="140.40517">
<ele>194</ele>
</trkpt>
<trkpt lat="36.96353" lon="140.40521">
<ele>194</ele>
</trkpt>
<trkpt lat="36.96347" lon="140.40536">
<ele>194</ele>
</trkpt>
<trkpt lat="36.96337" lon="140.4055799">
<ele>195</ele>
</trkpt>
<trkpt lat="36.9632999" lon="140.40573">
<ele>195</ele>
</trkpt>
<trkpt lat="36.96323" lon="140.40584">
<ele>196</ele>
</trkpt>
<trkpt lat="36.9632" lon="140.40588">
<ele>196</ele>
</trkpt>
<trkpt lat="36.96315" lon="140.40595">
<ele>196</ele>
</trkpt>
<trkpt lat="36.96311" lon="140.40601">
<ele>196</ele>
</trkpt>
<trkpt lat="36.96302" lon="140.40614">
<ele>196</ele>
</trkpt>
<trkpt lat="36.96298" lon="140.40618">
<ele>196</ele>
</trkpt>
<trkpt lat="36.9629199" lon="140.40625">
<ele>196</ele>
</trkpt>
<trkpt lat="36.9628299" lon="140.40635">
<ele>196</ele>
</trkpt>
<trkpt lat="36.96269" lon="140.40651">
<ele>196</ele>
</trkpt>
<trkpt lat="36.96259" lon="140.40662">
<ele>197</ele>
</trkpt>
<trkpt lat="36.96257" lon="140.40664">
<ele>197</ele>
</trkpt>
<trkpt lat="36.96252" lon="140.40669">
<ele>197</ele>
</trkpt>
<trkpt lat="36.96242" lon="140.40678">
<ele>197</ele>
</trkpt>
<trkpt lat="36.9623599" lon="140.40682">
<ele>197</ele>
</trkpt>
<trkpt lat="36.96231" lon="140.40685">
<ele>197</ele>
</trkpt>
<trkpt lat="36.9623" lon="140.40686">
<ele>197</ele>
</trkpt>
<trkpt lat="36.96214" lon="140.40695">
<ele>197</ele>
</trkpt>
<trkpt lat="36.96208" lon="140.40698">
<ele>197</ele>
</trkpt>
<trkpt lat="36.96194" lon="140.40702">
<ele>197</ele>
</trkpt>
<trkpt lat="36.9619" lon="140.40704">
<ele>197</ele>
</trkpt>
<trkpt lat="36.96185" lon="140.40705">
<ele>197</ele>
</trkpt>
<trkpt lat="36.96167" lon="140.40707">
<ele>196</ele>
</trkpt>
<trkpt lat="36.9615099" lon="140.40708">
<ele>196</ele>
</trkpt>
<trkpt lat="36.96128" lon="140.40709">
<ele>196</ele>
</trkpt>
<trkpt lat="36.96112" lon="140.4071">
<ele>196</ele>
</trkpt>
<trkpt lat="36.96087" lon="140.40712">
<ele>196</ele>
</trkpt>
<trkpt lat="36.96073" lon="140.40714">
<ele>196</ele>
</trkpt>
<trkpt lat="36.96061" lon="140.40717">
<ele>196</ele>
</trkpt>
<trkpt lat="36.96051" lon="140.4072">
<ele>197</ele>
</trkpt>
<trkpt lat="36.96044" lon="140.40722">
<ele>197</ele>
</trkpt>
<trkpt lat="36.96035" lon="140.40726">
<ele>197</ele>
</trkpt>
<trkpt lat="36.96024" lon="140.40732">
<ele>198</ele>
</trkpt>
<trkpt lat="36.96015" lon="140.40738">
<ele>198</ele>
</trkpt>
<trkpt lat="36.96005" lon="140.40745">
<ele>198</ele>
</trkpt>
<trkpt lat="36.95999" lon="140.4075">
<ele>198</ele>
</trkpt>
<trkpt lat="36.95993" lon="140.4075499">
<ele>198</ele>
</trkpt>
<trkpt lat="36.95978" lon="140.4077">
<ele>197</ele>
</trkpt>
<trkpt lat="36.95919" lon="140.40829">
<ele>195</ele>
</trkpt>
<trkpt lat="36.95917" lon="140.40831">
<ele>195</ele>
</trkpt>
<trkpt lat="36.95915" lon="140.40833">
<ele>195</ele>
</trkpt>
<trkpt lat="36.95869" lon="140.4088">
<ele>195</ele>
</trkpt>
<trkpt lat="36.95862" lon="140.40887">
<ele>195</ele>
</trkpt>
<trkpt lat="36.95787" lon="140.40962">
<ele>194</ele>
</trkpt>
<trkpt lat="36.95787" lon="140.40962">
<ele>194</ele>
</trkpt>
<trkpt lat="36.95755" lon="140.40912">
<ele>193</ele>
</trkpt>
<trkpt lat="36.95746" lon="140.40898">
<ele>193</ele>
</trkpt>
<trkpt lat="36.95744" lon="140.40894">
<ele>193</ele>
</trkpt>
<trkpt lat="36.95744" lon="140.40894">
<ele>193</ele>
</trkpt>
<trkpt lat="36.95726" lon="140.40911">
<ele>193</ele>
</trkpt>
<trkpt lat="36.95716" lon="140.4092">
<ele>193</ele>
</trkpt>
<trkpt lat="36.95697" lon="140.40938">
<ele>193</ele>
</trkpt>
<trkpt lat="36.95696" lon="140.4094">
<ele>193</ele>
</trkpt>
<trkpt lat="36.95686" lon="140.4095">
<ele>193</ele>
</trkpt>
<trkpt lat="36.9568" lon="140.40955">
<ele>193</ele>
</trkpt>
<trkpt lat="36.95667" lon="140.40968">
<ele>193</ele>
</trkpt>
<trkpt lat="36.9566299" lon="140.40972">
<ele>192</ele>
</trkpt>
<trkpt lat="36.95661" lon="140.40973">
<ele>192</ele>
</trkpt>
<trkpt lat="36.95658" lon="140.40974">
<ele>192</ele>
</trkpt>
<trkpt lat="36.9565399" lon="140.40976">
<ele>192</ele>
</trkpt>
<trkpt lat="36.95647" lon="140.40977">
<ele>192</ele>
</trkpt>
<trkpt lat="36.95642" lon="140.4097899">
<ele>192</ele>
</trkpt>
<trkpt lat="36.9563599" lon="140.40982">
<ele>192</ele>
</trkpt>
<trkpt lat="36.95634" lon="140.40982">
<ele>192</ele>
</trkpt>
<trkpt lat="36.9563" lon="140.40984">
<ele>192</ele>
</trkpt>
<trkpt lat="36.9561599" lon="140.4099">
<ele>192</ele>
</trkpt>
<trkpt lat="36.95609" lon="140.40993">
<ele>192</ele>
</trkpt>
<trkpt lat="36.95603" lon="140.40995">
<ele>192</ele>
</trkpt>
<trkpt lat="36.95596" lon="140.40996">
<ele>192</ele>
</trkpt>
<trkpt lat="36.9559" lon="140.40996">
<ele>192</ele>
</trkpt>
<trkpt lat="36.95582" lon="140.40996">
<ele>192</ele>
</trkpt>
<trkpt lat="36.95575" lon="140.40995">
<ele>192</ele>
</trkpt>
<trkpt lat="36.95565" lon="140.40993">
<ele>192</ele>
</trkpt>
<trkpt lat="36.95559" lon="140.40993">
<ele>192</ele>
</trkpt>
<trkpt lat="36.95553" lon="140.40994">
<ele>192</ele>
</trkpt>
<trkpt lat="36.95552" lon="140.40995">
<ele>192</ele>
</trkpt>
<trkpt lat="36.9555099" lon="140.40998">
<ele>192</ele>
</trkpt>
<trkpt lat="36.95515" lon="140.4098799">
<ele>192</ele>
</trkpt>
<trkpt lat="36.95515" lon="140.4098799">
<ele>192</ele>
</trkpt>
<trkpt lat="36.95514" lon="140.40987">
<ele>192</ele>
</trkpt>
<trkpt lat="36.95505" lon="140.40993">
<ele>192</ele>
</trkpt>
<trkpt lat="36.95478" lon="140.41005">
<ele>191</ele>
</trkpt>
<trkpt lat="36.95443" lon="140.4101499">
<ele>190</ele>
</trkpt>
<trkpt lat="36.95423" lon="140.4102">
<ele>190</ele>
</trkpt>
<trkpt lat="36.95394" lon="140.4102">
<ele>189</ele>
</trkpt>
<trkpt lat="36.95394" lon="140.4102">
<ele>189</ele>
</trkpt>
<trkpt lat="36.95374" lon="140.4102399">
<ele>188</ele>
</trkpt>
<trkpt lat="36.95366" lon="140.40946">
<ele>186</ele>
</trkpt>
<trkpt lat="36.95357" lon="140.40868">
<ele>189</ele>
</trkpt>
<trkpt lat="36.95334" lon="140.40876">
<ele>191</ele>
</trkpt>
<trkpt lat="36.95326" lon="140.40876">
<ele>191</ele>
</trkpt>
<trkpt lat="36.95281" lon="140.40893">
<ele>191</ele>
</trkpt>
<trkpt lat="36.95252" lon="140.40913">
<ele>191</ele>
</trkpt>
<trkpt lat="36.9520399" lon="140.4094299">
<ele>188</ele>
</trkpt>
<trkpt lat="36.95178" lon="140.40964">
<ele>187</ele>
</trkpt>
<trkpt lat="36.95136" lon="140.41008">
<ele>187</ele>
</trkpt>
<trkpt lat="36.95112" lon="140.4104">
<ele>187</ele>
</trkpt>
<trkpt lat="36.95069" lon="140.41113">
<ele>187</ele>
</trkpt>
<trkpt lat="36.95069" lon="140.41113">
<ele>187</ele>
</trkpt>
<trkpt lat="36.95038" lon="140.4116699">
<ele>187</ele>
</trkpt>
<trkpt lat="36.95006" lon="140.4122">
<ele>186</ele>
</trkpt>
<trkpt lat="36.94994" lon="140.4122999">
<ele>186</ele>
</trkpt>
<trkpt lat="36.94948" lon="140.41256">
<ele>187</ele>
</trkpt>
<trkpt lat="36.94916" lon="140.41267">
<ele>188</ele>
</trkpt>
<trkpt lat="36.9489" lon="140.41269">
<ele>188</ele>
</trkpt>
<trkpt lat="36.94838" lon="140.41264">
<ele>188</ele>
</trkpt>
<trkpt lat="36.94798" lon="140.41254">
<ele>187</ele>
</trkpt>
<trkpt lat="36.94718" lon="140.41217">
<ele>186</ele>
</trkpt>
<trkpt lat="36.94697" lon="140.41204">
<ele>186</ele>
</trkpt>
<trkpt lat="36.94623" lon="140.41145">
<ele>185</ele>
</trkpt>
<trkpt lat="36.94585" lon="140.41114">
<ele>185</ele>
</trkpt>
<trkpt lat="36.94548" lon="140.41082">
<ele>185</ele>
</trkpt>
<trkpt lat="36.9452799" lon="140.41064">
<ele>185</ele>
</trkpt>
<trkpt lat="36.94476" lon="140.4101">
<ele>183</ele>
</trkpt>
<trkpt lat="36.9442499" lon="140.40957">
<ele>182</ele>
</trkpt>
<trkpt lat="36.94405" lon="140.40931">
<ele>183</ele>
</trkpt>
<trkpt lat="36.94374" lon="140.40896">
<ele>183</ele>
</trkpt>
<trkpt lat="36.94373" lon="140.40895">
<ele>183</ele>
</trkpt>
<trkpt lat="36.94367" lon="140.40907">
<ele>183</ele>
</trkpt>
<trkpt lat="36.94327" lon="140.40968">
<ele>183</ele>
</trkpt>
<trkpt lat="36.94288" lon="140.41028">
<ele>183</ele>
</trkpt>
<trkpt lat="36.9425" lon="140.41082">
<ele>185</ele>
</trkpt>
<trkpt lat="36.94213" lon="140.41135">
<ele>187</ele>
</trkpt>
<trkpt lat="36.94193" lon="140.41181">
<ele>188</ele>
</trkpt>
<trkpt lat="36.94184" lon="140.41226">
<ele>188</ele>
</trkpt>
<trkpt lat="36.94184" lon="140.41226">
<ele>188</ele>
</trkpt>
<trkpt lat="36.94182" lon="140.41237">
<ele>188</ele>
</trkpt>
<trkpt lat="36.94262" lon="140.4126">
<ele>189</ele>
</trkpt>
<trkpt lat="36.94342" lon="140.41284">
<ele>189</ele>
</trkpt>
<trkpt lat="36.94422" lon="140.41308">
<ele>190</ele>
</trkpt>
<trkpt lat="36.94479" lon="140.41324">
<ele>191</ele>
</trkpt>
<trkpt lat="36.9453699" lon="140.4134">
<ele>191</ele>
</trkpt>
<trkpt lat="36.94603" lon="140.41361">
<ele>191</ele>
</trkpt>
<trkpt lat="36.9466899" lon="140.4138199">
<ele>191</ele>
</trkpt>
<trkpt lat="36.94744" lon="140.41404">
<ele>191</ele>
</trkpt>
<trkpt lat="36.9482" lon="140.4142699">
<ele>190</ele>
</trkpt>
<trkpt lat="36.94895" lon="140.4145">
<ele>190</ele>
</trkpt>
<trkpt lat="36.94971" lon="140.41472">
<ele>190</ele>
</trkpt>
<trkpt lat="36.94971" lon="140.41472">
<ele>190</ele>
</trkpt>
<trkpt lat="36.95029" lon="140.41491">
<ele>191</ele>
</trkpt>
<trkpt lat="36.95058" lon="140.41509">
<ele>192</ele>
</trkpt>
<trkpt lat="36.95092" lon="140.41535">
<ele>193</ele>
</trkpt>
<trkpt lat="36.95105" lon="140.4154299">
<ele>193</ele>
</trkpt>
<trkpt lat="36.95133" lon="140.4155199">
<ele>193</ele>
</trkpt>
<trkpt lat="36.95147" lon="140.4155199">
<ele>193</ele>
</trkpt>
<trkpt lat="36.9517" lon="140.41546">
<ele>192</ele>
</trkpt>
<trkpt lat="36.95193" lon="140.41533">
<ele>191</ele>
</trkpt>
<trkpt lat="36.95235" lon="140.41497">
<ele>190</ele>
</trkpt>
<trkpt lat="36.95236" lon="140.415">
<ele>190</ele>
</trkpt>
<trkpt lat="36.95265" lon="140.41571">
<ele>193</ele>
</trkpt>
<trkpt lat="36.95294" lon="140.41643">
<ele>194</ele>
</trkpt>
<trkpt lat="36.95297" lon="140.4165">
<ele>194</ele>
</trkpt>
<trkpt lat="36.95325" lon="140.4163299">
<ele>194</ele>
</trkpt>
<trkpt lat="36.95337" lon="140.41622">
<ele>194</ele>
</trkpt>
<trkpt lat="36.95356" lon="140.41599">
<ele>194</ele>
</trkpt>
<trkpt lat="36.95378" lon="140.41563">
<ele>194</ele>
</trkpt>
<trkpt lat="36.95402" lon="140.4151599">
<ele>194</ele>
</trkpt>
<trkpt lat="36.95424" lon="140.41478">
<ele>194</ele>
</trkpt>
<trkpt lat="36.95443" lon="140.41454">
<ele>194</ele>
</trkpt>
<trkpt lat="36.95488" lon="140.41415">
<ele>195</ele>
</trkpt>
<trkpt lat="36.95532" lon="140.41381">
<ele>195</ele>
</trkpt>
<trkpt lat="36.95579" lon="140.41332">
<ele>193</ele>
</trkpt>
<trkpt lat="36.9564499" lon="140.41268">
<ele>193</ele>
</trkpt>
<trkpt lat="36.95711" lon="140.41204">
<ele>194</ele>
</trkpt>
<trkpt lat="36.9577699" lon="140.41139">
<ele>195</ele>
</trkpt>
<trkpt lat="36.95792" lon="140.41125">
<ele>195</ele>
</trkpt>
<trkpt lat="36.95834" lon="140.4119399">
<ele>196</ele>
</trkpt>
<trkpt lat="36.95814" lon="140.41199">
<ele>196</ele>
</trkpt>
    </trkseg>
  </trk>
</gpx>