<?xml version="1.0" encoding="UTF-8"?>
<gpx version="1.1"
     creator="KMLtoGPX"
     xmlns="http://www.topografix.com/GPX/1/1">
  <metadata>
    <name>Motobu and Haneji Tour Course</name>
    <desc>本部・羽地周遊コース</desc>
    <bounds minlat="26.60040888888889" minlon="127.87728" maxlat="26.702571111111112" maxlon="128.03505611111112"/>
  </metadata>
  <trk>
    <name>Motobu and Haneji Tour Course</name>
    <trkseg>
<trkpt lat="26.622793055555555" lon="128.023145">
<ele>19</ele>
</trkpt>
<trkpt lat="26.622923888888888" lon="128.0228711111111">
<ele>19</ele>
</trkpt>
<trkpt lat="26.623181944444443" lon="128.02228305555556">
<ele>9</ele>
</trkpt>
<trkpt lat="26.623281944444443" lon="128.0221711111111">
<ele>9</ele>
</trkpt>
<trkpt lat="26.62339111111111" lon="128.0220711111111">
<ele>9</ele>
</trkpt>
<trkpt lat="26.623541111111113" lon="128.02198305555555">
<ele>9</ele>
</trkpt>
<trkpt lat="26.62369111111111" lon="128.02189611111112">
<ele>9</ele>
</trkpt>
<trkpt lat="26.623866111111113" lon="128.02180805555557">
<ele>9</ele>
</trkpt>
<trkpt lat="26.62381611111111" lon="128.02168305555554">
<ele>9</ele>
</trkpt>
<trkpt lat="26.62359888888889" lon="128.02122111111112">
<ele>9</ele>
</trkpt>
<trkpt lat="26.623531944444444" lon="128.0211211111111">
<ele>9</ele>
</trkpt>
<trkpt lat="26.62332388888889" lon="128.02085805555555">
<ele>9</ele>
</trkpt>
<trkpt lat="26.62272388888889" lon="128.02029611111112">
<ele>9</ele>
</trkpt>
<trkpt lat="26.62238111111111" lon="128.01995694444443">
<ele>9</ele>
</trkpt>
<trkpt lat="26.62238111111111" lon="128.01995694444443">
<ele>9</ele>
</trkpt>
<trkpt lat="26.62209111111111" lon="128.0196711111111">
<ele>9</ele>
</trkpt>
<trkpt lat="26.621391111111112" lon="128.01898305555557">
<ele>10</ele>
</trkpt>
<trkpt lat="26.62107388888889" lon="128.01865805555556">
<ele>10</ele>
</trkpt>
<trkpt lat="26.62032388888889" lon="128.0178961111111">
<ele>10</ele>
</trkpt>
<trkpt lat="26.61964888888889" lon="128.0172711111111">
<ele>10</ele>
</trkpt>
<trkpt lat="26.61941611111111" lon="128.0170838888889">
<ele>10</ele>
</trkpt>
<trkpt lat="26.619273888888888" lon="128.0169711111111">
<ele>10</ele>
</trkpt>
<trkpt lat="26.618848888888888" lon="128.01667111111112">
<ele>10</ele>
</trkpt>
<trkpt lat="26.618783055555557" lon="128.0166211111111">
<ele>10</ele>
</trkpt>
<trkpt lat="26.618333055555556" lon="128.0163088888889">
<ele>10</ele>
</trkpt>
<trkpt lat="26.61789111111111" lon="128.01598388888888">
<ele>9</ele>
</trkpt>
<trkpt lat="26.617583055555556" lon="128.0157211111111">
<ele>9</ele>
</trkpt>
<trkpt lat="26.61729111111111" lon="128.01543388888888">
<ele>9</ele>
</trkpt>
<trkpt lat="26.61704888888889" lon="128.0151338888889">
<ele>9</ele>
</trkpt>
<trkpt lat="26.61677388888889" lon="128.0147211111111">
<ele>9</ele>
</trkpt>
<trkpt lat="26.61664111111111" lon="128.0144461111111">
<ele>9</ele>
</trkpt>
<trkpt lat="26.61654888888889" lon="128.0142461111111">
<ele>9</ele>
</trkpt>
<trkpt lat="26.61644111111111" lon="128.01394611111112">
<ele>9</ele>
</trkpt>
<trkpt lat="26.61629888888889" lon="128.0134338888889">
<ele>9</ele>
</trkpt>
<trkpt lat="26.61624888888889" lon="128.01304694444445">
<ele>9</ele>
</trkpt>
<trkpt lat="26.61622388888889" lon="128.01267194444443">
<ele>9</ele>
</trkpt>
<trkpt lat="26.61619888888889" lon="128.01097194444444">
<ele>9</ele>
</trkpt>
<trkpt lat="26.61616611111111" lon="128.01032194444446">
<ele>9</ele>
</trkpt>
<trkpt lat="26.616033055555555" lon="128.00940888888888">
<ele>8</ele>
</trkpt>
<trkpt lat="26.615958055555556" lon="128.00909694444445">
<ele>6</ele>
</trkpt>
<trkpt lat="26.615848888888888" lon="128.00874694444445">
<ele>5</ele>
</trkpt>
<trkpt lat="26.61577388888889" lon="128.00854694444445">
<ele>6</ele>
</trkpt>
<trkpt lat="26.615758055555556" lon="128.0084838888889">
<ele>6</ele>
</trkpt>
<trkpt lat="26.61559888888889" lon="128.00814694444443">
<ele>6</ele>
</trkpt>
<trkpt lat="26.615383055555554" lon="128.00773388888888">
<ele>7</ele>
</trkpt>
<trkpt lat="26.615098888888888" lon="128.00732194444444">
<ele>8</ele>
</trkpt>
<trkpt lat="26.614866111111112" lon="128.007035">
<ele>8</ele>
</trkpt>
<trkpt lat="26.61454888888889" lon="128.006685">
<ele>9</ele>
</trkpt>
<trkpt lat="26.61449111111111" lon="128.00662194444445">
<ele>9</ele>
</trkpt>
<trkpt lat="26.61344111111111" lon="128.00566">
<ele>9</ele>
</trkpt>
<trkpt lat="26.6132" lon="128.00541">
<ele>9</ele>
</trkpt>
<trkpt lat="26.613033055555555" lon="128.00517305555556">
<ele>9</ele>
</trkpt>
<trkpt lat="26.612833055555555" lon="128.00481">
<ele>9</ele>
</trkpt>
<trkpt lat="26.612616111111112" lon="128.004285">
<ele>9</ele>
</trkpt>
<trkpt lat="26.612308055555555" lon="128.00346">
<ele>10</ele>
</trkpt>
<trkpt lat="26.6121" lon="128.00302305555556">
<ele>10</ele>
</trkpt>
<trkpt lat="26.61191611111111" lon="128.00271">
<ele>10</ele>
</trkpt>
<trkpt lat="26.611675" lon="128.00236">
<ele>10</ele>
</trkpt>
<trkpt lat="26.61136611111111" lon="128.00199805555556">
<ele>12</ele>
</trkpt>
<trkpt lat="26.610891944444443" lon="128.00157305555555">
<ele>16</ele>
</trkpt>
<trkpt lat="26.610816944444444" lon="128.00146">
<ele>17</ele>
</trkpt>
<trkpt lat="26.610691944444444" lon="128.00136">
<ele>18</ele>
</trkpt>
<trkpt lat="26.610275" lon="128.001085">
<ele>20</ele>
</trkpt>
<trkpt lat="26.6095" lon="128.00062305555556">
<ele>29</ele>
</trkpt>
<trkpt lat="26.609308055555555" lon="128.00049805555557">
<ele>28</ele>
</trkpt>
<trkpt lat="26.60905" lon="128.00027305555557">
<ele>28</ele>
</trkpt>
<trkpt lat="26.60885" lon="128.0000611111111">
<ele>27</ele>
</trkpt>
<trkpt lat="26.608675" lon="127.99982305555555">
<ele>27</ele>
</trkpt>
<trkpt lat="26.608558055555555" lon="127.99963611111112">
<ele>33</ele>
</trkpt>
<trkpt lat="26.608475" lon="127.99948611111111">
<ele>36</ele>
</trkpt>
<trkpt lat="26.608383055555556" lon="127.99927305555556">
<ele>38</ele>
</trkpt>
<trkpt lat="26.608275" lon="127.99899805555556">
<ele>38</ele>
</trkpt>
<trkpt lat="26.608208055555554" lon="127.9987111111111">
<ele>38</ele>
</trkpt>
<trkpt lat="26.608175" lon="127.99852305555555">
<ele>35</ele>
</trkpt>
<trkpt lat="26.608141944444444" lon="127.99821111111112">
<ele>33</ele>
</trkpt>
<trkpt lat="26.608141944444444" lon="127.99818611111111">
<ele>33</ele>
</trkpt>
<trkpt lat="26.608125" lon="127.9980861111111">
<ele>32</ele>
</trkpt>
<trkpt lat="26.608133055555555" lon="127.99777305555556">
<ele>32</ele>
</trkpt>
<trkpt lat="26.608183055555557" lon="127.99739805555555">
<ele>34</ele>
</trkpt>
<trkpt lat="26.608325" lon="127.99674805555556">
<ele>32</ele>
</trkpt>
<trkpt lat="26.608483055555556" lon="127.99618611111111">
<ele>28</ele>
</trkpt>
<trkpt lat="26.608591944444445" lon="127.9957111111111">
<ele>29</ele>
</trkpt>
<trkpt lat="26.608725" lon="127.99494805555555">
<ele>29</ele>
</trkpt>
<trkpt lat="26.608758055555555" lon="127.99466111111111">
<ele>26</ele>
</trkpt>
<trkpt lat="26.608766944444444" lon="127.9937238888889">
<ele>24</ele>
</trkpt>
<trkpt lat="26.608716944444446" lon="127.99323611111112">
<ele>24</ele>
</trkpt>
<trkpt lat="26.608675" lon="127.9928861111111">
<ele>26</ele>
</trkpt>
<trkpt lat="26.608633055555554" lon="127.99272388888889">
<ele>24</ele>
</trkpt>
<trkpt lat="26.608525" lon="127.99227388888889">
<ele>24</ele>
</trkpt>
<trkpt lat="26.608216944444443" lon="127.99131111111112">
<ele>21</ele>
</trkpt>
<trkpt lat="26.607941944444445" lon="127.9905111111111">
<ele>21</ele>
</trkpt>
<trkpt lat="26.607866944444446" lon="127.99013611111111">
<ele>21</ele>
</trkpt>
<trkpt lat="26.607816944444444" lon="127.9898738888889">
<ele>22</ele>
</trkpt>
<trkpt lat="26.607808055555555" lon="127.98968611111111">
<ele>22</ele>
</trkpt>
<trkpt lat="26.6078" lon="127.98904888888889">
<ele>18</ele>
</trkpt>
<trkpt lat="26.607825" lon="127.98877388888889">
<ele>16</ele>
</trkpt>
<trkpt lat="26.607875" lon="127.98847388888889">
<ele>16</ele>
</trkpt>
<trkpt lat="26.607916944444444" lon="127.98829888888889">
<ele>17</ele>
</trkpt>
<trkpt lat="26.608133055555555" lon="127.98761194444444">
<ele>18</ele>
</trkpt>
<trkpt lat="26.608358055555556" lon="127.98684888888889">
<ele>14</ele>
</trkpt>
<trkpt lat="26.608466944444444" lon="127.98643694444445">
<ele>9</ele>
</trkpt>
<trkpt lat="26.608516944444446" lon="127.9861988888889">
<ele>9</ele>
</trkpt>
<trkpt lat="26.608541111111112" lon="127.98603694444445">
<ele>9</ele>
</trkpt>
<trkpt lat="26.60859111111111" lon="127.98566194444444">
<ele>9</ele>
</trkpt>
<trkpt lat="26.6086" lon="127.98552388888889">
<ele>9</ele>
</trkpt>
<trkpt lat="26.608608055555557" lon="127.98481194444444">
<ele>11</ele>
</trkpt>
<trkpt lat="26.608575" lon="127.98456194444445">
<ele>11</ele>
</trkpt>
<trkpt lat="26.608541111111112" lon="127.98422388888889">
<ele>10</ele>
</trkpt>
<trkpt lat="26.60846611111111" lon="127.98386194444444">
<ele>11</ele>
</trkpt>
<trkpt lat="26.608408055555557" lon="127.98367388888889">
<ele>12</ele>
</trkpt>
<trkpt lat="26.60825" lon="127.98318694444444">
<ele>13</ele>
</trkpt>
<trkpt lat="26.608016111111112" lon="127.98261194444444">
<ele>14</ele>
</trkpt>
<trkpt lat="26.607675" lon="127.9819488888889">
<ele>10</ele>
</trkpt>
<trkpt lat="26.607033055555554" lon="127.98063694444444">
<ele>8</ele>
</trkpt>
<trkpt lat="26.606875" lon="127.98035">
<ele>6</ele>
</trkpt>
<trkpt lat="26.606583055555557" lon="127.97978694444444">
<ele>4</ele>
</trkpt>
<trkpt lat="26.606483055555554" lon="127.9796">
<ele>4</ele>
</trkpt>
<trkpt lat="26.6062" lon="127.97903805555555">
<ele>4</ele>
</trkpt>
<trkpt lat="26.605116944444443" lon="127.97688805555556">
<ele>4</ele>
</trkpt>
<trkpt lat="26.604816944444444" lon="127.9763">
<ele>4</ele>
</trkpt>
<trkpt lat="26.604108055555557" lon="127.97488805555555">
<ele>4</ele>
</trkpt>
<trkpt lat="26.60338388888889" lon="127.97347611111111">
<ele>4</ele>
</trkpt>
<trkpt lat="26.602625" lon="127.9719761111111">
<ele>4</ele>
</trkpt>
<trkpt lat="26.602158888888887" lon="127.97105111111111">
<ele>4</ele>
</trkpt>
<trkpt lat="26.602291944444445" lon="127.97097611111111">
<ele>4</ele>
</trkpt>
<trkpt lat="26.602608888888888" lon="127.97087611111111">
<ele>4</ele>
</trkpt>
<trkpt lat="26.60255888888889" lon="127.97070111111111">
<ele>4</ele>
</trkpt>
<trkpt lat="26.60245888888889" lon="127.9705011111111">
<ele>4</ele>
</trkpt>
<trkpt lat="26.60242388888889" lon="127.97039194444444">
<ele>4</ele>
</trkpt>
<trkpt lat="26.60242388888889" lon="127.97039194444444">
<ele>4</ele>
</trkpt>
<trkpt lat="26.60245888888889" lon="127.9705011111111">
<ele>4</ele>
</trkpt>
<trkpt lat="26.60255888888889" lon="127.97070111111111">
<ele>4</ele>
</trkpt>
<trkpt lat="26.602608888888888" lon="127.97087611111111">
<ele>4</ele>
</trkpt>
<trkpt lat="26.602291944444445" lon="127.97097611111111">
<ele>4</ele>
</trkpt>
<trkpt lat="26.602158888888887" lon="127.97105111111111">
<ele>4</ele>
</trkpt>
<trkpt lat="26.601008888888888" lon="127.9688011111111">
<ele>5</ele>
</trkpt>
<trkpt lat="26.60075" lon="127.9683511111111">
<ele>5</ele>
</trkpt>
<trkpt lat="26.600466944444445" lon="127.96792611111111">
<ele>5</ele>
</trkpt>
<trkpt lat="26.60040888888889" lon="127.96785111111112">
<ele>6</ele>
</trkpt>
<trkpt lat="26.600616944444443" lon="127.96763888888889">
<ele>6</ele>
</trkpt>
<trkpt lat="26.600825" lon="127.96742611111111">
<ele>6</ele>
</trkpt>
<trkpt lat="26.6011" lon="127.96707611111111">
<ele>6</ele>
</trkpt>
<trkpt lat="26.601275" lon="127.96680111111111">
<ele>6</ele>
</trkpt>
<trkpt lat="26.601391944444444" lon="127.96653888888889">
<ele>7</ele>
</trkpt>
<trkpt lat="26.60150888888889" lon="127.96621388888889">
<ele>7</ele>
</trkpt>
<trkpt lat="26.601616944444444" lon="127.96587611111111">
<ele>8</ele>
</trkpt>
<trkpt lat="26.60193388888889" lon="127.9647761111111">
<ele>9</ele>
</trkpt>
<trkpt lat="26.602116944444443" lon="127.96415111111111">
<ele>9</ele>
</trkpt>
<trkpt lat="26.602408055555557" lon="127.9632511111111">
<ele>9</ele>
</trkpt>
<trkpt lat="26.602558055555555" lon="127.9627888888889">
<ele>9</ele>
</trkpt>
<trkpt lat="26.602708055555556" lon="127.96242611111111">
<ele>9</ele>
</trkpt>
<trkpt lat="26.603025" lon="127.96165111111111">
<ele>9</ele>
</trkpt>
<trkpt lat="26.603383055555554" lon="127.9609261111111">
<ele>8</ele>
</trkpt>
<trkpt lat="26.604091944444445" lon="127.95962694444444">
<ele>9</ele>
</trkpt>
<trkpt lat="26.604175" lon="127.95946388888889">
<ele>9</ele>
</trkpt>
<trkpt lat="26.604475" lon="127.95887694444444">
<ele>7</ele>
</trkpt>
<trkpt lat="26.605908055555556" lon="127.95625194444445">
<ele>9</ele>
</trkpt>
<trkpt lat="26.60628388888889" lon="127.955555">
<ele>11</ele>
</trkpt>
<trkpt lat="26.60628388888889" lon="127.955555">
<ele>11</ele>
</trkpt>
<trkpt lat="26.60679111111111" lon="127.95461388888889">
<ele>13</ele>
</trkpt>
<trkpt lat="26.606941111111112" lon="127.95427694444444">
<ele>5</ele>
</trkpt>
<trkpt lat="26.607058055555555" lon="127.95395194444444">
<ele>5</ele>
</trkpt>
<trkpt lat="26.60712388888889" lon="127.95370194444445">
<ele>6</ele>
</trkpt>
<trkpt lat="26.607158055555555" lon="127.95353888888889">
<ele>9</ele>
</trkpt>
<trkpt lat="26.607183055555556" lon="127.95330194444445">
<ele>21</ele>
</trkpt>
<trkpt lat="26.607183055555556" lon="127.95291388888889">
<ele>25</ele>
</trkpt>
<trkpt lat="26.607173888888887" lon="127.95268888888889">
<ele>32</ele>
</trkpt>
<trkpt lat="26.607141111111112" lon="127.95243888888889">
<ele>35</ele>
</trkpt>
<trkpt lat="26.60709111111111" lon="127.95218888888888">
<ele>28</ele>
</trkpt>
<trkpt lat="26.606933055555555" lon="127.95154">
<ele>26</ele>
</trkpt>
<trkpt lat="26.606883055555556" lon="127.951365">
<ele>25</ele>
</trkpt>
<trkpt lat="26.606858055555556" lon="127.95127694444444">
<ele>19</ele>
</trkpt>
<trkpt lat="26.605983055555555" lon="127.94800305555556">
<ele>8</ele>
</trkpt>
<trkpt lat="26.60561611111111" lon="127.94665194444444">
<ele>8</ele>
</trkpt>
<trkpt lat="26.605533055555554" lon="127.94639">
<ele>8</ele>
</trkpt>
<trkpt lat="26.60542388888889" lon="127.94617805555555">
<ele>8</ele>
</trkpt>
<trkpt lat="26.60531611111111" lon="127.94600305555555">
<ele>8</ele>
</trkpt>
<trkpt lat="26.60516611111111" lon="127.94580305555556">
<ele>8</ele>
</trkpt>
<trkpt lat="26.60499888888889" lon="127.94564">
<ele>9</ele>
</trkpt>
<trkpt lat="26.60469888888889" lon="127.94540305555556">
<ele>9</ele>
</trkpt>
<trkpt lat="26.604375" lon="127.945165">
<ele>8</ele>
</trkpt>
<trkpt lat="26.60391611111111" lon="127.94484">
<ele>8</ele>
</trkpt>
<trkpt lat="26.603733055555555" lon="127.94470305555555">
<ele>7</ele>
</trkpt>
<trkpt lat="26.60359111111111" lon="127.94459">
<ele>7</ele>
</trkpt>
<trkpt lat="26.603458055555556" lon="127.94445305555556">
<ele>7</ele>
</trkpt>
<trkpt lat="26.603308055555555" lon="127.94424">
<ele>6</ele>
</trkpt>
<trkpt lat="26.603191111111112" lon="127.94402805555555">
<ele>5</ele>
</trkpt>
<trkpt lat="26.603075" lon="127.94375305555556">
<ele>3</ele>
</trkpt>
<trkpt lat="26.60301611111111" lon="127.94356611111111">
<ele>4</ele>
</trkpt>
<trkpt lat="26.602975" lon="127.94336611111112">
<ele>2</ele>
</trkpt>
<trkpt lat="26.602766111111112" lon="127.94215305555555">
<ele>11</ele>
</trkpt>
<trkpt lat="26.602608055555557" lon="127.94125305555555">
<ele>10</ele>
</trkpt>
<trkpt lat="26.602575" lon="127.94096611111111">
<ele>7</ele>
</trkpt>
<trkpt lat="26.602558055555555" lon="127.94076611111112">
<ele>8</ele>
</trkpt>
<trkpt lat="26.602575" lon="127.94049111111111">
<ele>8</ele>
</trkpt>
<trkpt lat="26.602625" lon="127.94021611111111">
<ele>6</ele>
</trkpt>
<trkpt lat="26.60269111111111" lon="127.9400161111111">
<ele>6</ele>
</trkpt>
<trkpt lat="26.60279111111111" lon="127.9397911111111">
<ele>6</ele>
</trkpt>
<trkpt lat="26.60339111111111" lon="127.93866611111112">
<ele>4</ele>
</trkpt>
<trkpt lat="26.603633055555555" lon="127.93820305555556">
<ele>4</ele>
</trkpt>
<trkpt lat="26.603758055555556" lon="127.93792805555556">
<ele>4</ele>
</trkpt>
<trkpt lat="26.60381611111111" lon="127.93772805555555">
<ele>4</ele>
</trkpt>
<trkpt lat="26.603873888888888" lon="127.93749111111111">
<ele>4</ele>
</trkpt>
<trkpt lat="26.60391611111111" lon="127.93727805555555">
<ele>4</ele>
</trkpt>
<trkpt lat="26.603941111111112" lon="127.9369661111111">
<ele>4</ele>
</trkpt>
<trkpt lat="26.603958055555555" lon="127.93665388888888">
<ele>4</ele>
</trkpt>
<trkpt lat="26.60391611111111" lon="127.93619111111111">
<ele>3</ele>
</trkpt>
<trkpt lat="26.603858055555555" lon="127.93557888888888">
<ele>1</ele>
</trkpt>
<trkpt lat="26.603873888888888" lon="127.93516611111112">
<ele>0</ele>
</trkpt>
<trkpt lat="26.603958055555555" lon="127.93477888888889">
<ele>0</ele>
</trkpt>
<trkpt lat="26.60411611111111" lon="127.93439111111111">
<ele>0</ele>
</trkpt>
<trkpt lat="26.604266111111112" lon="127.93407888888889">
<ele>0</ele>
</trkpt>
<trkpt lat="26.60454111111111" lon="127.93370388888889">
<ele>0</ele>
</trkpt>
<trkpt lat="26.604816111111113" lon="127.93335388888889">
<ele>0</ele>
</trkpt>
<trkpt lat="26.605806944444446" lon="127.9322661111111">
<ele>1</ele>
</trkpt>
<trkpt lat="26.606706944444444" lon="127.93132888888888">
<ele>1</ele>
</trkpt>
<trkpt lat="26.60757388888889" lon="127.9303288888889">
<ele>0</ele>
</trkpt>
<trkpt lat="26.607723888888888" lon="127.9301538888889">
<ele>0</ele>
</trkpt>
<trkpt lat="26.60816611111111" lon="127.92955388888889">
<ele>1</ele>
</trkpt>
<trkpt lat="26.60829888888889" lon="127.92932888888889">
<ele>1</ele>
</trkpt>
<trkpt lat="26.608556944444445" lon="127.92887888888889">
<ele>0</ele>
</trkpt>
<trkpt lat="26.608856944444444" lon="127.9282288888889">
<ele>0</ele>
</trkpt>
<trkpt lat="26.60914111111111" lon="127.9275661111111">
<ele>0</ele>
</trkpt>
<trkpt lat="26.609331944444445" lon="127.92705388888889">
<ele>1</ele>
</trkpt>
<trkpt lat="26.609423888888887" lon="127.92677888888889">
<ele>1</ele>
</trkpt>
<trkpt lat="26.60959888888889" lon="127.92617888888888">
<ele>1</ele>
</trkpt>
<trkpt lat="26.609765" lon="127.92564194444445">
<ele>1</ele>
</trkpt>
<trkpt lat="26.609881944444446" lon="127.92510388888888">
<ele>1</ele>
</trkpt>
<trkpt lat="26.60992388888889" lon="127.92479194444445">
<ele>1</ele>
</trkpt>
<trkpt lat="26.609965" lon="127.92396694444444">
<ele>0</ele>
</trkpt>
<trkpt lat="26.609965" lon="127.92386694444444">
<ele>0</ele>
</trkpt>
<trkpt lat="26.609965" lon="127.92362888888889">
<ele>0</ele>
</trkpt>
<trkpt lat="26.609915" lon="127.9224538888889">
<ele>3</ele>
</trkpt>
<trkpt lat="26.609848888888887" lon="127.9219538888889">
<ele>3</ele>
</trkpt>
<trkpt lat="26.609715" lon="127.92135388888889">
<ele>3</ele>
</trkpt>
<trkpt lat="26.60962388888889" lon="127.9209288888889">
<ele>3</ele>
</trkpt>
<trkpt lat="26.609548888888888" lon="127.92061694444445">
<ele>2</ele>
</trkpt>
<trkpt lat="26.609456944444446" lon="127.92021694444445">
<ele>3</ele>
</trkpt>
<trkpt lat="26.60934888888889" lon="127.91974194444444">
<ele>3</ele>
</trkpt>
<trkpt lat="26.609256944444443" lon="127.919455">
<ele>4</ele>
</trkpt>
<trkpt lat="26.60914888888889" lon="127.91926694444444">
<ele>4</ele>
</trkpt>
<trkpt lat="26.60874888888889" lon="127.918905">
<ele>3</ele>
</trkpt>
<trkpt lat="26.608215" lon="127.91849194444444">
<ele>1</ele>
</trkpt>
<trkpt lat="26.60787388888889" lon="127.91829194444445">
<ele>2</ele>
</trkpt>
<trkpt lat="26.607556944444443" lon="127.918105">
<ele>3</ele>
</trkpt>
<trkpt lat="26.60729111111111" lon="127.91794305555555">
<ele>3</ele>
</trkpt>
<trkpt lat="26.607031944444444" lon="127.91778">
<ele>3</ele>
</trkpt>
<trkpt lat="26.606648888888888" lon="127.91758">
<ele>4</ele>
</trkpt>
<trkpt lat="26.606091111111112" lon="127.91743">
<ele>3</ele>
</trkpt>
<trkpt lat="26.605541111111112" lon="127.917305">
<ele>2</ele>
</trkpt>
<trkpt lat="26.604823888888887" lon="127.91714194444444">
<ele>1</ele>
</trkpt>
<trkpt lat="26.60442388888889" lon="127.91701805555556">
<ele>0</ele>
</trkpt>
<trkpt lat="26.60389111111111" lon="127.916755">
<ele>1</ele>
</trkpt>
<trkpt lat="26.603406944444444" lon="127.91638">
<ele>1</ele>
</trkpt>
<trkpt lat="26.60282388888889" lon="127.91559305555556">
<ele>2</ele>
</trkpt>
<trkpt lat="26.602306944444443" lon="127.91484305555555">
<ele>5</ele>
</trkpt>
<trkpt lat="26.601948888888888" lon="127.9142311111111">
<ele>5</ele>
</trkpt>
<trkpt lat="26.60161611111111" lon="127.91343111111111">
<ele>2</ele>
</trkpt>
<trkpt lat="26.60154888888889" lon="127.91321805555556">
<ele>1</ele>
</trkpt>
<trkpt lat="26.601498888888887" lon="127.91300611111112">
<ele>2</ele>
</trkpt>
<trkpt lat="26.601483055555555" lon="127.91276805555556">
<ele>2</ele>
</trkpt>
<trkpt lat="26.601483055555555" lon="127.91229305555555">
<ele>1</ele>
</trkpt>
<trkpt lat="26.60154888888889" lon="127.91183111111111">
<ele>1</ele>
</trkpt>
<trkpt lat="26.601691111111112" lon="127.91120611111111">
<ele>1</ele>
</trkpt>
<trkpt lat="26.602383055555556" lon="127.90845611111111">
<ele>0</ele>
</trkpt>
<trkpt lat="26.603506944444444" lon="127.9045561111111">
<ele>2</ele>
</trkpt>
<trkpt lat="26.60414111111111" lon="127.90246888888889">
<ele>1</ele>
</trkpt>
<trkpt lat="26.60524" lon="127.89919388888889">
<ele>1</ele>
</trkpt>
<trkpt lat="26.605573888888888" lon="127.89828194444445">
<ele>2</ele>
</trkpt>
<trkpt lat="26.605856944444444" lon="127.89749388888889">
<ele>0</ele>
</trkpt>
<trkpt lat="26.606323888888888" lon="127.89628194444444">
<ele>0</ele>
</trkpt>
<trkpt lat="26.60647388888889" lon="127.8959938888889">
<ele>1</ele>
</trkpt>
<trkpt lat="26.60669888888889" lon="127.8957188888889">
<ele>1</ele>
</trkpt>
<trkpt lat="26.607006944444443" lon="127.89546888888889">
<ele>2</ele>
</trkpt>
<trkpt lat="26.60734" lon="127.89529388888889">
<ele>1</ele>
</trkpt>
<trkpt lat="26.607715" lon="127.89520694444444">
<ele>1</ele>
</trkpt>
<trkpt lat="26.608065" lon="127.89519388888888">
<ele>4</ele>
</trkpt>
<trkpt lat="26.608681944444445" lon="127.89520694444444">
<ele>10</ele>
</trkpt>
<trkpt lat="26.61024" lon="127.8953188888889">
<ele>7</ele>
</trkpt>
<trkpt lat="26.611273055555557" lon="127.89539388888889">
<ele>8</ele>
</trkpt>
<trkpt lat="26.612713888888887" lon="127.89548111111111">
<ele>4</ele>
</trkpt>
<trkpt lat="26.61308111111111" lon="127.89548111111111">
<ele>4</ele>
</trkpt>
<trkpt lat="26.613456111111113" lon="127.89545611111112">
<ele>5</ele>
</trkpt>
<trkpt lat="26.613773055555555" lon="127.89541888888888">
<ele>8</ele>
</trkpt>
<trkpt lat="26.614173055555554" lon="127.8953311111111">
<ele>6</ele>
</trkpt>
<trkpt lat="26.614498055555554" lon="127.89521888888889">
<ele>3</ele>
</trkpt>
<trkpt lat="26.61478111111111" lon="127.8951061111111">
<ele>5</ele>
</trkpt>
<trkpt lat="26.61513111111111" lon="127.89494388888889">
<ele>5</ele>
</trkpt>
<trkpt lat="26.615548055555557" lon="127.8946938888889">
<ele>5</ele>
</trkpt>
<trkpt lat="26.615738888888888" lon="127.89456888888888">
<ele>4</ele>
</trkpt>
<trkpt lat="26.615738888888888" lon="127.89456888888888">
<ele>4</ele>
</trkpt>
<trkpt lat="26.615796944444444" lon="127.8945311111111">
<ele>4</ele>
</trkpt>
<trkpt lat="26.616148055555556" lon="127.8942561111111">
<ele>4</ele>
</trkpt>
<trkpt lat="26.616321944444444" lon="127.89409388888889">
<ele>3</ele>
</trkpt>
<trkpt lat="26.616563888888887" lon="127.89386888888889">
<ele>4</ele>
</trkpt>
<trkpt lat="26.616946944444443" lon="127.89348111111111">
<ele>5</ele>
</trkpt>
<trkpt lat="26.617521944444444" lon="127.89288111111111">
<ele>5</ele>
</trkpt>
<trkpt lat="26.61860611111111" lon="127.89176888888889">
<ele>4</ele>
</trkpt>
<trkpt lat="26.618813888888887" lon="127.89156888888888">
<ele>5</ele>
</trkpt>
<trkpt lat="26.61903" lon="127.89143194444445">
<ele>3</ele>
</trkpt>
<trkpt lat="26.61906388888889" lon="127.89140694444444">
<ele>3</ele>
</trkpt>
<trkpt lat="26.61923" lon="127.89131888888889">
<ele>5</ele>
</trkpt>
<trkpt lat="26.619446944444444" lon="127.8912438888889">
<ele>7</ele>
</trkpt>
<trkpt lat="26.61963888888889" lon="127.89118194444444">
<ele>7</ele>
</trkpt>
<trkpt lat="26.619855" lon="127.89115694444445">
<ele>8</ele>
</trkpt>
<trkpt lat="26.62006388888889" lon="127.89114388888889">
<ele>9</ele>
</trkpt>
<trkpt lat="26.620746944444445" lon="127.89109388888889">
<ele>7</ele>
</trkpt>
<trkpt lat="26.62093888888889" lon="127.8910811111111">
<ele>6</ele>
</trkpt>
<trkpt lat="26.62103888888889" lon="127.8910688888889">
<ele>6</ele>
</trkpt>
<trkpt lat="26.621305" lon="127.8910188888889">
<ele>5</ele>
</trkpt>
<trkpt lat="26.62141388888889" lon="127.89099388888889">
<ele>4</ele>
</trkpt>
<trkpt lat="26.621546944444443" lon="127.89094388888888">
<ele>5</ele>
</trkpt>
<trkpt lat="26.621705" lon="127.89088111111111">
<ele>5</ele>
</trkpt>
<trkpt lat="26.621905" lon="127.89075611111112">
<ele>4</ele>
</trkpt>
<trkpt lat="26.622088055555555" lon="127.8906188888889">
<ele>3</ele>
</trkpt>
<trkpt lat="26.622263055555557" lon="127.8904561111111">
<ele>2</ele>
</trkpt>
<trkpt lat="26.622313055555555" lon="127.8903938888889">
<ele>2</ele>
</trkpt>
<trkpt lat="26.622446944444444" lon="127.89024388888889">
<ele>2</ele>
</trkpt>
<trkpt lat="26.624255" lon="127.88805694444444">
<ele>3</ele>
</trkpt>
<trkpt lat="26.624488055555556" lon="127.88780694444445">
<ele>3</ele>
</trkpt>
<trkpt lat="26.624663055555555" lon="127.88765694444444">
<ele>2</ele>
</trkpt>
<trkpt lat="26.624888055555555" lon="127.88748194444445">
<ele>1</ele>
</trkpt>
<trkpt lat="26.625155" lon="127.88733194444444">
<ele>3</ele>
</trkpt>
<trkpt lat="26.62538" lon="127.8872188888889">
<ele>3</ele>
</trkpt>
<trkpt lat="26.625605" lon="127.88713194444445">
<ele>3</ele>
</trkpt>
<trkpt lat="26.625855" lon="127.88705694444444">
<ele>3</ele>
</trkpt>
<trkpt lat="26.626138055555554" lon="127.88700694444445">
<ele>5</ele>
</trkpt>
<trkpt lat="26.62642111111111" lon="127.88698194444444">
<ele>3</ele>
</trkpt>
<trkpt lat="26.62704611111111" lon="127.8869938888889">
<ele>4</ele>
</trkpt>
<trkpt lat="26.62869611111111" lon="127.88703111111111">
<ele>0</ele>
</trkpt>
<trkpt lat="26.62915388888889" lon="127.88703111111111">
<ele>0</ele>
</trkpt>
<trkpt lat="26.62944611111111" lon="127.8870061111111">
<ele>0</ele>
</trkpt>
<trkpt lat="26.629728888888888" lon="127.88698111111111">
<ele>0</ele>
</trkpt>
<trkpt lat="26.630153888888888" lon="127.88689388888889">
<ele>0</ele>
</trkpt>
<trkpt lat="26.630661944444444" lon="127.88675611111111">
<ele>0</ele>
</trkpt>
<trkpt lat="26.630996111111113" lon="127.88664388888888">
<ele>0</ele>
</trkpt>
<trkpt lat="26.631753888888888" lon="127.8863688888889">
<ele>1</ele>
</trkpt>
<trkpt lat="26.632271111111113" lon="127.88611888888889">
<ele>5</ele>
</trkpt>
<trkpt lat="26.632503888888888" lon="127.88598111111111">
<ele>4</ele>
</trkpt>
<trkpt lat="26.63280388888889" lon="127.88579388888888">
<ele>4</ele>
</trkpt>
<trkpt lat="26.633153888888888" lon="127.88555611111111">
<ele>4</ele>
</trkpt>
<trkpt lat="26.63392" lon="127.88503111111112">
<ele>3</ele>
</trkpt>
<trkpt lat="26.637086944444444" lon="127.88284388888889">
<ele>5</ele>
</trkpt>
<trkpt lat="26.637478055555555" lon="127.88258111111111">
<ele>6</ele>
</trkpt>
<trkpt lat="26.637545" lon="127.8825311111111">
<ele>5</ele>
</trkpt>
<trkpt lat="26.637911944444443" lon="127.88234388888888">
<ele>9</ele>
</trkpt>
<trkpt lat="26.638228055555555" lon="127.88219388888889">
<ele>9</ele>
</trkpt>
<trkpt lat="26.639303055555555" lon="127.88174388888889">
<ele>8</ele>
</trkpt>
<trkpt lat="26.63958611111111" lon="127.8816311111111">
<ele>8</ele>
</trkpt>
<trkpt lat="26.64017" lon="127.88148111111111">
<ele>9</ele>
</trkpt>
<trkpt lat="26.640503055555556" lon="127.8814438888889">
<ele>8</ele>
</trkpt>
<trkpt lat="26.640903055555555" lon="127.8814438888889">
<ele>9</ele>
</trkpt>
<trkpt lat="26.641253055555556" lon="127.88148111111111">
<ele>8</ele>
</trkpt>
<trkpt lat="26.641603055555557" lon="127.88154388888888">
<ele>8</ele>
</trkpt>
<trkpt lat="26.642528055555555" lon="127.88174388888889">
<ele>9</ele>
</trkpt>
<trkpt lat="26.64281888888889" lon="127.88178111111111">
<ele>9</ele>
</trkpt>
<trkpt lat="26.642936111111112" lon="127.8817938888889">
<ele>11</ele>
</trkpt>
<trkpt lat="26.643078055555556" lon="127.88181888888889">
<ele>15</ele>
</trkpt>
<trkpt lat="26.643603055555555" lon="127.88183111111111">
<ele>21</ele>
</trkpt>
<trkpt lat="26.643901944444444" lon="127.88180611111112">
<ele>15</ele>
</trkpt>
<trkpt lat="26.644253055555556" lon="127.88175611111112">
<ele>10</ele>
</trkpt>
<trkpt lat="26.645318888888887" lon="127.8816188888889">
<ele>15</ele>
</trkpt>
<trkpt lat="26.64571888888889" lon="127.88155611111111">
<ele>8</ele>
</trkpt>
<trkpt lat="26.645936111111112" lon="127.88153111111112">
<ele>10</ele>
</trkpt>
<trkpt lat="26.646161111111113" lon="127.88151888888889">
<ele>14</ele>
</trkpt>
<trkpt lat="26.64651111111111" lon="127.88150611111111">
<ele>5</ele>
</trkpt>
<trkpt lat="26.646911111111113" lon="127.88149388888888">
<ele>9</ele>
</trkpt>
<trkpt lat="26.64823611111111" lon="127.88153111111112">
<ele>9</ele>
</trkpt>
<trkpt lat="26.648526944444445" lon="127.88150611111111">
<ele>9</ele>
</trkpt>
<trkpt lat="26.648735" lon="127.88148111111111">
<ele>10</ele>
</trkpt>
<trkpt lat="26.648968888888888" lon="127.8814438888889">
<ele>9</ele>
</trkpt>
<trkpt lat="26.64921" lon="127.8814061111111">
<ele>8</ele>
</trkpt>
<trkpt lat="26.64946888888889" lon="127.88133111111111">
<ele>7</ele>
</trkpt>
<trkpt lat="26.649651944444443" lon="127.88125611111111">
<ele>8</ele>
</trkpt>
<trkpt lat="26.64979388888889" lon="127.88120611111111">
<ele>7</ele>
</trkpt>
<trkpt lat="26.65029388888889" lon="127.8809938888889">
<ele>6</ele>
</trkpt>
<trkpt lat="26.650385" lon="127.88095611111112">
<ele>7</ele>
</trkpt>
<trkpt lat="26.651176944444444" lon="127.88065611111111">
<ele>3</ele>
</trkpt>
<trkpt lat="26.651626944444445" lon="127.88048111111111">
<ele>4</ele>
</trkpt>
<trkpt lat="26.651926944444444" lon="127.8803811111111">
<ele>0</ele>
</trkpt>
<trkpt lat="26.652135" lon="127.8803311111111">
<ele>0</ele>
</trkpt>
<trkpt lat="26.652401944444446" lon="127.88029305555555">
<ele>0</ele>
</trkpt>
<trkpt lat="26.652526944444446" lon="127.88031805555555">
<ele>0</ele>
</trkpt>
<trkpt lat="26.652718055555557" lon="127.88030611111111">
<ele>1</ele>
</trkpt>
<trkpt lat="26.652926944444445" lon="127.8803311111111">
<ele>1</ele>
</trkpt>
<trkpt lat="26.653101944444444" lon="127.88041805555555">
<ele>2</ele>
</trkpt>
<trkpt lat="26.65377611111111" lon="127.88116805555556">
<ele>5</ele>
</trkpt>
<trkpt lat="26.65441" lon="127.88186805555556">
<ele>4</ele>
</trkpt>
<trkpt lat="26.65507611111111" lon="127.88260611111112">
<ele>1</ele>
</trkpt>
<trkpt lat="26.65576" lon="127.88336805555555">
<ele>1</ele>
</trkpt>
<trkpt lat="26.65641" lon="127.88408111111112">
<ele>3</ele>
</trkpt>
<trkpt lat="26.656468055555557" lon="127.88413111111112">
<ele>3</ele>
</trkpt>
<trkpt lat="26.657168055555555" lon="127.88494305555555">
<ele>3</ele>
</trkpt>
<trkpt lat="26.657833888888888" lon="127.885655">
<ele>3</ele>
</trkpt>
<trkpt lat="26.658518055555554" lon="127.88641805555555">
<ele>3</ele>
</trkpt>
<trkpt lat="26.65892611111111" lon="127.886855">
<ele>2</ele>
</trkpt>
<trkpt lat="26.65955111111111" lon="127.887555">
<ele>0</ele>
</trkpt>
<trkpt lat="26.66247611111111" lon="127.89084194444445">
<ele>3</ele>
</trkpt>
<trkpt lat="26.66252611111111" lon="127.890905">
<ele>6</ele>
</trkpt>
<trkpt lat="26.66280111111111" lon="127.89114194444444">
<ele>12</ele>
</trkpt>
<trkpt lat="26.66298388888889" lon="127.89124194444445">
<ele>14</ele>
</trkpt>
<trkpt lat="26.664091944444444" lon="127.89102888888888">
<ele>14</ele>
</trkpt>
<trkpt lat="26.667691944444446" lon="127.89024194444444">
<ele>7</ele>
</trkpt>
<trkpt lat="26.668066944444444" lon="127.8901288888889">
<ele>6</ele>
</trkpt>
<trkpt lat="26.668553888888887" lon="127.89024305555556">
<ele>7</ele>
</trkpt>
<trkpt lat="26.668553888888887" lon="127.89024305555556">
<ele>7</ele>
</trkpt>
<trkpt lat="26.668066944444444" lon="127.8901288888889">
<ele>6</ele>
</trkpt>
<trkpt lat="26.669625" lon="127.88971694444444">
<ele>0</ele>
</trkpt>
<trkpt lat="26.670125" lon="127.8896288888889">
<ele>0</ele>
</trkpt>
<trkpt lat="26.67055" lon="127.88959194444445">
<ele>0</ele>
</trkpt>
<trkpt lat="26.67065" lon="127.88959194444445">
<ele>0</ele>
</trkpt>
<trkpt lat="26.670975" lon="127.88957888888889">
<ele>0</ele>
</trkpt>
<trkpt lat="26.67121611111111" lon="127.88959194444445">
<ele>0</ele>
</trkpt>
<trkpt lat="26.671583055555555" lon="127.8896288888889">
<ele>1</ele>
</trkpt>
<trkpt lat="26.671825" lon="127.8896788888889">
<ele>1</ele>
</trkpt>
<trkpt lat="26.672216111111112" lon="127.88979194444444">
<ele>4</ele>
</trkpt>
<trkpt lat="26.672625" lon="127.88997888888889">
<ele>5</ele>
</trkpt>
<trkpt lat="26.673423888888887" lon="127.89037888888889">
<ele>11</ele>
</trkpt>
<trkpt lat="26.674366111111112" lon="127.89084194444445">
<ele>8</ele>
</trkpt>
<trkpt lat="26.67487388888889" lon="127.89100388888889">
<ele>9</ele>
</trkpt>
<trkpt lat="26.675248888888888" lon="127.89107888888888">
<ele>10</ele>
</trkpt>
<trkpt lat="26.675558055555555" lon="127.89114111111111">
<ele>11</ele>
</trkpt>
<trkpt lat="26.67696611111111" lon="127.89140388888889">
<ele>14</ele>
</trkpt>
<trkpt lat="26.67774888888889" lon="127.89154111111111">
<ele>16</ele>
</trkpt>
<trkpt lat="26.67776611111111" lon="127.89117888888889">
<ele>15</ele>
</trkpt>
<trkpt lat="26.677698888888887" lon="127.88965388888889">
<ele>10</ele>
</trkpt>
<trkpt lat="26.677708055555556" lon="127.88947888888889">
<ele>10</ele>
</trkpt>
<trkpt lat="26.677731944444446" lon="127.88909194444444">
<ele>12</ele>
</trkpt>
<trkpt lat="26.67786611111111" lon="127.8887788888889">
<ele>12</ele>
</trkpt>
<trkpt lat="26.67829888888889" lon="127.88827888888889">
<ele>8</ele>
</trkpt>
<trkpt lat="26.678573888888888" lon="127.88805388888889">
<ele>8</ele>
</trkpt>
<trkpt lat="26.678931944444443" lon="127.8877538888889">
<ele>9</ele>
</trkpt>
<trkpt lat="26.67979888888889" lon="127.88697888888889">
<ele>20</ele>
</trkpt>
<trkpt lat="26.68034888888889" lon="127.88640388888889">
<ele>23</ele>
</trkpt>
<trkpt lat="26.680781944444444" lon="127.88581694444444">
<ele>26</ele>
</trkpt>
<trkpt lat="26.680956944444443" lon="127.88545388888889">
<ele>27</ele>
</trkpt>
<trkpt lat="26.681031944444445" lon="127.88530388888888">
<ele>28</ele>
</trkpt>
<trkpt lat="26.68129888888889" lon="127.88454194444445">
<ele>31</ele>
</trkpt>
<trkpt lat="26.681506944444443" lon="127.88382888888889">
<ele>38</ele>
</trkpt>
<trkpt lat="26.681915" lon="127.88246694444445">
<ele>41</ele>
</trkpt>
<trkpt lat="26.682156944444444" lon="127.88172888888889">
<ele>46</ele>
</trkpt>
<trkpt lat="26.682631944444445" lon="127.88096694444444">
<ele>45</ele>
</trkpt>
<trkpt lat="26.683481944444445" lon="127.87994194444444">
<ele>51</ele>
</trkpt>
<trkpt lat="26.68384" lon="127.87950388888889">
<ele>51</ele>
</trkpt>
<trkpt lat="26.684406944444444" lon="127.87881694444444">
<ele>52</ele>
</trkpt>
<trkpt lat="26.684815" lon="127.878205">
<ele>48</ele>
</trkpt>
<trkpt lat="26.68498111111111" lon="127.877855">
<ele>47</ele>
</trkpt>
<trkpt lat="26.68518111111111" lon="127.87763">
<ele>47</ele>
</trkpt>
<trkpt lat="26.68564" lon="127.87738">
<ele>47</ele>
</trkpt>
<trkpt lat="26.686073055555557" lon="127.87728">
<ele>47</ele>
</trkpt>
<trkpt lat="26.686656111111112" lon="127.87729194444445">
<ele>50</ele>
</trkpt>
<trkpt lat="26.687048055555554" lon="127.877355">
<ele>51</ele>
</trkpt>
<trkpt lat="26.68733888888889" lon="127.87749194444444">
<ele>50</ele>
</trkpt>
<trkpt lat="26.687963888888888" lon="127.87784194444444">
<ele>51</ele>
</trkpt>
<trkpt lat="26.68826388888889" lon="127.87800388888888">
<ele>52</ele>
</trkpt>
<trkpt lat="26.68930611111111" lon="127.8785788888889">
<ele>57</ele>
</trkpt>
<trkpt lat="26.68991388888889" lon="127.8789288888889">
<ele>57</ele>
</trkpt>
<trkpt lat="26.69088888888889" lon="127.87950388888889">
<ele>55</ele>
</trkpt>
<trkpt lat="26.690998055555557" lon="127.87956694444445">
<ele>56</ele>
</trkpt>
<trkpt lat="26.69213111111111" lon="127.88021694444444">
<ele>52</ele>
</trkpt>
<trkpt lat="26.692363888888888" lon="127.88029194444445">
<ele>50</ele>
</trkpt>
<trkpt lat="26.692796944444446" lon="127.8802288888889">
<ele>48</ele>
</trkpt>
<trkpt lat="26.69305611111111" lon="127.88014194444445">
<ele>45</ele>
</trkpt>
<trkpt lat="26.69328888888889" lon="127.87999194444444">
<ele>43</ele>
</trkpt>
<trkpt lat="26.69358888888889" lon="127.87972888888889">
<ele>41</ele>
</trkpt>
<trkpt lat="26.693796944444443" lon="127.8796038888889">
<ele>40</ele>
</trkpt>
<trkpt lat="26.693996944444443" lon="127.87955388888889">
<ele>38</ele>
</trkpt>
<trkpt lat="26.69443111111111" lon="127.87957888888889">
<ele>36</ele>
</trkpt>
<trkpt lat="26.696821944444444" lon="127.87990388888889">
<ele>26</ele>
</trkpt>
<trkpt lat="26.697405" lon="127.8800038888889">
<ele>23</ele>
</trkpt>
<trkpt lat="26.69763888888889" lon="127.88004111111111">
<ele>22</ele>
</trkpt>
<trkpt lat="26.698621944444444" lon="127.8801161111111">
<ele>15</ele>
</trkpt>
<trkpt lat="26.698863055555556" lon="127.88020388888889">
<ele>14</ele>
</trkpt>
<trkpt lat="26.69948" lon="127.88076611111111">
<ele>12</ele>
</trkpt>
<trkpt lat="26.699638055555557" lon="127.8809038888889">
<ele>12</ele>
</trkpt>
<trkpt lat="26.700255" lon="127.88149111111112">
<ele>11</ele>
</trkpt>
<trkpt lat="26.700371944444445" lon="127.88160388888889">
<ele>11</ele>
</trkpt>
<trkpt lat="26.70103" lon="127.8822038888889">
<ele>8</ele>
</trkpt>
<trkpt lat="26.701213055555556" lon="127.8823788888889">
<ele>8</ele>
</trkpt>
<trkpt lat="26.701605" lon="127.88276611111111">
<ele>8</ele>
</trkpt>
<trkpt lat="26.70184611111111" lon="127.88309111111111">
<ele>10</ele>
</trkpt>
<trkpt lat="26.70212111111111" lon="127.88367805555555">
<ele>12</ele>
</trkpt>
<trkpt lat="26.70233" lon="127.88432805555556">
<ele>17</ele>
</trkpt>
<trkpt lat="26.702488055555555" lon="127.88486611111111">
<ele>16</ele>
</trkpt>
<trkpt lat="26.70252111111111" lon="127.88509111111111">
<ele>17</ele>
</trkpt>
<trkpt lat="26.702568055555556" lon="127.885465">
<ele>20</ele>
</trkpt>
<trkpt lat="26.702568055555556" lon="127.885465">
<ele>20</ele>
</trkpt>
<trkpt lat="26.702571111111112" lon="127.88549111111111">
<ele>20</ele>
</trkpt>
<trkpt lat="26.70254611111111" lon="127.88567805555556">
<ele>22</ele>
</trkpt>
<trkpt lat="26.702455" lon="127.8858911111111">
<ele>23</ele>
</trkpt>
<trkpt lat="26.701963055555556" lon="127.88645305555555">
<ele>28</ele>
</trkpt>
<trkpt lat="26.701788055555557" lon="127.88672805555555">
<ele>30</ele>
</trkpt>
<trkpt lat="26.701613055555555" lon="127.88705305555555">
<ele>32</ele>
</trkpt>
<trkpt lat="26.701413055555555" lon="127.88771611111112">
<ele>33</ele>
</trkpt>
<trkpt lat="26.701446944444445" lon="127.88814111111111">
<ele>32</ele>
</trkpt>
<trkpt lat="26.701505" lon="127.88920305555556">
<ele>31</ele>
</trkpt>
<trkpt lat="26.701521944444444" lon="127.88950305555555">
<ele>30</ele>
</trkpt>
<trkpt lat="26.701563055555557" lon="127.89034">
<ele>26</ele>
</trkpt>
<trkpt lat="26.70138" lon="127.89112805555555">
<ele>27</ele>
</trkpt>
<trkpt lat="26.701163055555554" lon="127.891915">
<ele>24</ele>
</trkpt>
<trkpt lat="26.701138055555557" lon="127.892015">
<ele>24</ele>
</trkpt>
<trkpt lat="26.70103" lon="127.89237805555555">
<ele>22</ele>
</trkpt>
<trkpt lat="26.700888055555556" lon="127.89264">
<ele>24</ele>
</trkpt>
<trkpt lat="26.69983" lon="127.893815">
<ele>13</ele>
</trkpt>
<trkpt lat="26.699146944444443" lon="127.894565">
<ele>12</ele>
</trkpt>
<trkpt lat="26.698471944444446" lon="127.895315">
<ele>9</ele>
</trkpt>
<trkpt lat="26.69798888888889" lon="127.89584">
<ele>9</ele>
</trkpt>
<trkpt lat="26.697596944444445" lon="127.896465">
<ele>8</ele>
</trkpt>
<trkpt lat="26.697363888888887" lon="127.89695194444444">
<ele>8</ele>
</trkpt>
<trkpt lat="26.697221944444443" lon="127.89752694444445">
<ele>8</ele>
</trkpt>
<trkpt lat="26.697156111111113" lon="127.89784">
<ele>8</ele>
</trkpt>
<trkpt lat="26.697146944444444" lon="127.898065">
<ele>7</ele>
</trkpt>
<trkpt lat="26.69718111111111" lon="127.89835194444444">
<ele>7</ele>
</trkpt>
<trkpt lat="26.697263888888887" lon="127.89860194444445">
<ele>6</ele>
</trkpt>
<trkpt lat="26.697321944444443" lon="127.89880194444444">
<ele>6</ele>
</trkpt>
<trkpt lat="26.69761388888889" lon="127.900065">
<ele>8</ele>
</trkpt>
<trkpt lat="26.69763111111111" lon="127.90039">
<ele>8</ele>
</trkpt>
<trkpt lat="26.697646944444443" lon="127.900665">
<ele>8</ele>
</trkpt>
<trkpt lat="26.697588888888887" lon="127.90100194444445">
<ele>5</ele>
</trkpt>
<trkpt lat="26.697271944444445" lon="127.90352694444445">
<ele>5</ele>
</trkpt>
<trkpt lat="26.697246944444444" lon="127.90362694444444">
<ele>5</ele>
</trkpt>
<trkpt lat="26.697146944444444" lon="127.90400194444445">
<ele>7</ele>
</trkpt>
<trkpt lat="26.696938888888887" lon="127.9043638888889">
<ele>6</ele>
</trkpt>
<trkpt lat="26.69675611111111" lon="127.90443888888889">
<ele>6</ele>
</trkpt>
<trkpt lat="26.69720611111111" lon="127.90581388888889">
<ele>8</ele>
</trkpt>
<trkpt lat="26.69723888888889" lon="127.90602694444445">
<ele>8</ele>
</trkpt>
<trkpt lat="26.697421944444443" lon="127.90725194444444">
<ele>7</ele>
</trkpt>
<trkpt lat="26.697556111111112" lon="127.90815194444444">
<ele>6</ele>
</trkpt>
<trkpt lat="26.69763888888889" lon="127.90860111111111">
<ele>5</ele>
</trkpt>
<trkpt lat="26.697946944444446" lon="127.91022611111111">
<ele>12</ele>
</trkpt>
<trkpt lat="26.69796388888889" lon="127.91033888888889">
<ele>12</ele>
</trkpt>
<trkpt lat="26.698021944444445" lon="127.91051388888889">
<ele>12</ele>
</trkpt>
<trkpt lat="26.698071944444443" lon="127.91066388888889">
<ele>12</ele>
</trkpt>
<trkpt lat="26.698296944444444" lon="127.91135111111112">
<ele>15</ele>
</trkpt>
<trkpt lat="26.698471944444446" lon="127.91186388888889">
<ele>15</ele>
</trkpt>
<trkpt lat="26.698631111111112" lon="127.9125138888889">
<ele>13</ele>
</trkpt>
<trkpt lat="26.69881388888889" lon="127.91342611111111">
<ele>11</ele>
</trkpt>
<trkpt lat="26.698956111111112" lon="127.91378888888889">
<ele>16</ele>
</trkpt>
<trkpt lat="26.699413888888888" lon="127.91453805555555">
<ele>20</ele>
</trkpt>
<trkpt lat="26.699521944444445" lon="127.91471305555555">
<ele>21</ele>
</trkpt>
<trkpt lat="26.69958888888889" lon="127.91482611111111">
<ele>21</ele>
</trkpt>
<trkpt lat="26.700171944444445" lon="127.91571305555556">
<ele>17</ele>
</trkpt>
<trkpt lat="26.70028888888889" lon="127.91595111111111">
<ele>16</ele>
</trkpt>
<trkpt lat="26.70031388888889" lon="127.91613805555555">
<ele>16</ele>
</trkpt>
<trkpt lat="26.70015611111111" lon="127.91723805555556">
<ele>13</ele>
</trkpt>
<trkpt lat="26.700196944444443" lon="127.91758805555556">
<ele>13</ele>
</trkpt>
<trkpt lat="26.700296944444446" lon="127.91777611111111">
<ele>11</ele>
</trkpt>
<trkpt lat="26.700571944444444" lon="127.91832611111111">
<ele>8</ele>
</trkpt>
<trkpt lat="26.700621944444446" lon="127.91850111111111">
<ele>7</ele>
</trkpt>
<trkpt lat="26.700671944444444" lon="127.91876305555556">
<ele>6</ele>
</trkpt>
<trkpt lat="26.70073111111111" lon="127.91903805555556">
<ele>7</ele>
</trkpt>
<trkpt lat="26.700821944444446" lon="127.91985111111111">
<ele>11</ele>
</trkpt>
<trkpt lat="26.700881111111112" lon="127.920175">
<ele>14</ele>
</trkpt>
<trkpt lat="26.700896944444445" lon="127.92058805555556">
<ele>13</ele>
</trkpt>
<trkpt lat="26.700896944444445" lon="127.92095">
<ele>13</ele>
</trkpt>
<trkpt lat="26.700896944444445" lon="127.92103805555556">
<ele>12</ele>
</trkpt>
<trkpt lat="26.700896944444445" lon="127.92155">
<ele>11</ele>
</trkpt>
<trkpt lat="26.700913888888888" lon="127.92191305555555">
<ele>9</ele>
</trkpt>
<trkpt lat="26.70093888888889" lon="127.92233805555556">
<ele>7</ele>
</trkpt>
<trkpt lat="26.701006111111113" lon="127.922925">
<ele>4</ele>
</trkpt>
<trkpt lat="26.701013888888887" lon="127.92298805555555">
<ele>4</ele>
</trkpt>
<trkpt lat="26.70115611111111" lon="127.92376194444445">
<ele>3</ele>
</trkpt>
<trkpt lat="26.70128111111111" lon="127.92446194444445">
<ele>3</ele>
</trkpt>
<trkpt lat="26.701346944444445" lon="127.92506194444445">
<ele>2</ele>
</trkpt>
<trkpt lat="26.70138111111111" lon="127.92546194444445">
<ele>1</ele>
</trkpt>
<trkpt lat="26.70138111111111" lon="127.925625">
<ele>1</ele>
</trkpt>
<trkpt lat="26.701338888888888" lon="127.92583805555556">
<ele>1</ele>
</trkpt>
<trkpt lat="26.701246944444446" lon="127.92611305555556">
<ele>1</ele>
</trkpt>
<trkpt lat="26.700996944444444" lon="127.92675">
<ele>3</ele>
</trkpt>
<trkpt lat="26.70095611111111" lon="127.92683694444445">
<ele>3</ele>
</trkpt>
<trkpt lat="26.700781111111112" lon="127.9273">
<ele>3</ele>
</trkpt>
<trkpt lat="26.700588888888888" lon="127.92778694444445">
<ele>4</ele>
</trkpt>
<trkpt lat="26.70043888888889" lon="127.928175">
<ele>6</ele>
</trkpt>
<trkpt lat="26.70018111111111" lon="127.92891194444445">
<ele>6</ele>
</trkpt>
<trkpt lat="26.69986388888889" lon="127.92976194444445">
<ele>7</ele>
</trkpt>
<trkpt lat="26.699771944444443" lon="127.93">
<ele>5</ele>
</trkpt>
<trkpt lat="26.69968888888889" lon="127.93008694444444">
<ele>9</ele>
</trkpt>
<trkpt lat="26.69958888888889" lon="127.93035">
<ele>9</ele>
</trkpt>
<trkpt lat="26.699446944444446" lon="127.93075">
<ele>9</ele>
</trkpt>
<trkpt lat="26.69938888888889" lon="127.9309988888889">
<ele>8</ele>
</trkpt>
<trkpt lat="26.699321944444446" lon="127.93129888888889">
<ele>8</ele>
</trkpt>
<trkpt lat="26.69910611111111" lon="127.93233694444444">
<ele>9</ele>
</trkpt>
<trkpt lat="26.69906388888889" lon="127.9325238888889">
<ele>9</ele>
</trkpt>
<trkpt lat="26.69898111111111" lon="127.93277388888889">
<ele>8</ele>
</trkpt>
<trkpt lat="26.698896944444446" lon="127.93294888888889">
<ele>6</ele>
</trkpt>
<trkpt lat="26.69883111111111" lon="127.93303694444444">
<ele>5</ele>
</trkpt>
<trkpt lat="26.698623055555554" lon="127.93327388888889">
<ele>6</ele>
</trkpt>
<trkpt lat="26.69773888888889" lon="127.93417388888889">
<ele>12</ele>
</trkpt>
<trkpt lat="26.697648055555554" lon="127.9342738888889">
<ele>12</ele>
</trkpt>
<trkpt lat="26.697456111111112" lon="127.93454888888888">
<ele>13</ele>
</trkpt>
<trkpt lat="26.696998055555557" lon="127.93546194444444">
<ele>15</ele>
</trkpt>
<trkpt lat="26.696931111111113" lon="127.93561194444445">
<ele>15</ele>
</trkpt>
<trkpt lat="26.696823055555555" lon="127.9359238888889">
<ele>16</ele>
</trkpt>
<trkpt lat="26.696648055555556" lon="127.93664888888888">
<ele>18</ele>
</trkpt>
<trkpt lat="26.69658111111111" lon="127.93697388888889">
<ele>16</ele>
</trkpt>
<trkpt lat="26.69653111111111" lon="127.93738694444444">
<ele>16</ele>
</trkpt>
<trkpt lat="26.696523055555556" lon="127.93747388888889">
<ele>16</ele>
</trkpt>
<trkpt lat="26.69648111111111" lon="127.93836194444444">
<ele>11</ele>
</trkpt>
<trkpt lat="26.696473055555554" lon="127.93851194444444">
<ele>12</ele>
</trkpt>
<trkpt lat="26.69645611111111" lon="127.93878694444444">
<ele>11</ele>
</trkpt>
<trkpt lat="26.696465" lon="127.93889888888889">
<ele>10</ele>
</trkpt>
<trkpt lat="26.69649" lon="127.93906194444445">
<ele>9</ele>
</trkpt>
<trkpt lat="26.696573055555554" lon="127.9393861111111">
<ele>8</ele>
</trkpt>
<trkpt lat="26.696948055555556" lon="127.94037388888889">
<ele>5</ele>
</trkpt>
<trkpt lat="26.69699" lon="127.94048611111111">
<ele>5</ele>
</trkpt>
<trkpt lat="26.697123055555554" lon="127.94083611111111">
<ele>6</ele>
</trkpt>
<trkpt lat="26.697148055555555" lon="127.94094888888888">
<ele>6</ele>
</trkpt>
<trkpt lat="26.697165" lon="127.94114888888889">
<ele>6</ele>
</trkpt>
<trkpt lat="26.697173055555556" lon="127.94126111111112">
<ele>6</ele>
</trkpt>
<trkpt lat="26.697148055555555" lon="127.94142388888889">
<ele>6</ele>
</trkpt>
<trkpt lat="26.697123055555554" lon="127.94151111111111">
<ele>6</ele>
</trkpt>
<trkpt lat="26.696931111111113" lon="127.9419738888889">
<ele>5</ele>
</trkpt>
<trkpt lat="26.696865" lon="127.94212388888889">
<ele>5</ele>
</trkpt>
<trkpt lat="26.696706111111112" lon="127.94249888888889">
<ele>5</ele>
</trkpt>
<trkpt lat="26.696648055555556" lon="127.94262388888889">
<ele>6</ele>
</trkpt>
<trkpt lat="26.696465" lon="127.9430488888889">
<ele>7</ele>
</trkpt>
<trkpt lat="26.69643111111111" lon="127.94312388888889">
<ele>8</ele>
</trkpt>
<trkpt lat="26.696315" lon="127.9433988888889">
<ele>8</ele>
</trkpt>
<trkpt lat="26.696223055555556" lon="127.94359888888889">
<ele>7</ele>
</trkpt>
<trkpt lat="26.696181111111112" lon="127.94376111111112">
<ele>8</ele>
</trkpt>
<trkpt lat="26.696165" lon="127.9438488888889">
<ele>7</ele>
</trkpt>
<trkpt lat="26.69614" lon="127.94412388888888">
<ele>5</ele>
</trkpt>
<trkpt lat="26.696115" lon="127.94434888888888">
<ele>6</ele>
</trkpt>
<trkpt lat="26.69610611111111" lon="127.94441111111111">
<ele>7</ele>
</trkpt>
<trkpt lat="26.69603111111111" lon="127.94562388888889">
<ele>7</ele>
</trkpt>
<trkpt lat="26.695965" lon="127.94611111111111">
<ele>7</ele>
</trkpt>
<trkpt lat="26.69588111111111" lon="127.94657305555556">
<ele>5</ele>
</trkpt>
<trkpt lat="26.695748055555555" lon="127.94716111111111">
<ele>6</ele>
</trkpt>
<trkpt lat="26.69569" lon="127.94744805555555">
<ele>5</ele>
</trkpt>
<trkpt lat="26.695665" lon="127.94767305555555">
<ele>6</ele>
</trkpt>
<trkpt lat="26.695673055555556" lon="127.94792305555555">
<ele>5</ele>
</trkpt>
<trkpt lat="26.695715" lon="127.94833611111112">
<ele>5</ele>
</trkpt>
<trkpt lat="26.695765" lon="127.94873611111112">
<ele>5</ele>
</trkpt>
<trkpt lat="26.695781944444445" lon="127.94916111111111">
<ele>5</ele>
</trkpt>
<trkpt lat="26.695773055555556" lon="127.94966111111111">
<ele>5</ele>
</trkpt>
<trkpt lat="26.695765" lon="127.94998611111112">
<ele>6</ele>
</trkpt>
<trkpt lat="26.695765" lon="127.95004805555556">
<ele>6</ele>
</trkpt>
<trkpt lat="26.695773055555556" lon="127.95029805555555">
<ele>7</ele>
</trkpt>
<trkpt lat="26.695756944444444" lon="127.95099805555556">
<ele>8</ele>
</trkpt>
<trkpt lat="26.695748055555555" lon="127.95126111111111">
<ele>9</ele>
</trkpt>
<trkpt lat="26.69574" lon="127.95168611111112">
<ele>8</ele>
</trkpt>
<trkpt lat="26.695731944444443" lon="127.9518361111111">
<ele>8</ele>
</trkpt>
<trkpt lat="26.695706944444446" lon="127.95202305555556">
<ele>8</ele>
</trkpt>
<trkpt lat="26.695656944444444" lon="127.95224805555556">
<ele>7</ele>
</trkpt>
<trkpt lat="26.695623055555554" lon="127.95237305555555">
<ele>6</ele>
</trkpt>
<trkpt lat="26.695573055555556" lon="127.95249805555555">
<ele>6</ele>
</trkpt>
<trkpt lat="26.695431944444444" lon="127.95279805555556">
<ele>8</ele>
</trkpt>
<trkpt lat="26.695365" lon="127.95292305555556">
<ele>8</ele>
</trkpt>
<trkpt lat="26.695231944444444" lon="127.95309805555556">
<ele>8</ele>
</trkpt>
<trkpt lat="26.695106944444444" lon="127.95323611111111">
<ele>8</ele>
</trkpt>
<trkpt lat="26.694956944444446" lon="127.95338611111112">
<ele>8</ele>
</trkpt>
<trkpt lat="26.694631944444446" lon="127.95366">
<ele>8</ele>
</trkpt>
<trkpt lat="26.694273055555556" lon="127.95394805555556">
<ele>9</ele>
</trkpt>
<trkpt lat="26.694156944444444" lon="127.95404805555556">
<ele>8</ele>
</trkpt>
<trkpt lat="26.69404888888889" lon="127.95414805555555">
<ele>9</ele>
</trkpt>
<trkpt lat="26.69392388888889" lon="127.954335">
<ele>9</ele>
</trkpt>
<trkpt lat="26.693781944444446" lon="127.954535">
<ele>9</ele>
</trkpt>
<trkpt lat="26.693356944444446" lon="127.95519805555556">
<ele>5</ele>
</trkpt>
<trkpt lat="26.69317388888889" lon="127.95557305555556">
<ele>5</ele>
</trkpt>
<trkpt lat="26.69314" lon="127.955635">
<ele>5</ele>
</trkpt>
<trkpt lat="26.69307388888889" lon="127.95576">
<ele>5</ele>
</trkpt>
<trkpt lat="26.692978888888888" lon="127.95597305555556">
<ele>4</ele>
</trkpt>
<trkpt lat="26.692978888888888" lon="127.95597305555556">
<ele>4</ele>
</trkpt>
<trkpt lat="26.69292388888889" lon="127.95609805555556">
<ele>4</ele>
</trkpt>
<trkpt lat="26.692806944444445" lon="127.95634805555555">
<ele>5</ele>
</trkpt>
<trkpt lat="26.69267388888889" lon="127.95671">
<ele>6</ele>
</trkpt>
<trkpt lat="26.692373888888888" lon="127.95756">
<ele>6</ele>
</trkpt>
<trkpt lat="26.692206944444443" lon="127.95796">
<ele>6</ele>
</trkpt>
<trkpt lat="26.692116111111112" lon="127.958135">
<ele>6</ele>
</trkpt>
<trkpt lat="26.691956944444446" lon="127.95846">
<ele>11</ele>
</trkpt>
<trkpt lat="26.691806944444444" lon="127.95876">
<ele>11</ele>
</trkpt>
<trkpt lat="26.69149888888889" lon="127.95941">
<ele>11</ele>
</trkpt>
<trkpt lat="26.691281944444444" lon="127.95987305555556">
<ele>12</ele>
</trkpt>
<trkpt lat="26.69121611111111" lon="127.96006">
<ele>11</ele>
</trkpt>
<trkpt lat="26.691166111111112" lon="127.960235">
<ele>10</ele>
</trkpt>
<trkpt lat="26.69112388888889" lon="127.96046">
<ele>10</ele>
</trkpt>
<trkpt lat="26.691056944444444" lon="127.96106">
<ele>12</ele>
</trkpt>
<trkpt lat="26.69099111111111" lon="127.96161">
<ele>12</ele>
</trkpt>
<trkpt lat="26.690941111111112" lon="127.96187194444444">
<ele>14</ele>
</trkpt>
<trkpt lat="26.690873888888888" lon="127.96212194444445">
<ele>15</ele>
</trkpt>
<trkpt lat="26.690773888888888" lon="127.962385">
<ele>16</ele>
</trkpt>
<trkpt lat="26.690541111111113" lon="127.96294694444444">
<ele>19</ele>
</trkpt>
<trkpt lat="26.690408055555555" lon="127.96316">
<ele>19</ele>
</trkpt>
<trkpt lat="26.690283055555554" lon="127.96332194444444">
<ele>19</ele>
</trkpt>
<trkpt lat="26.69009888888889" lon="127.96346">
<ele>19</ele>
</trkpt>
<trkpt lat="26.68996611111111" lon="127.96357194444444">
<ele>20</ele>
</trkpt>
<trkpt lat="26.68939111111111" lon="127.963985">
<ele>21</ele>
</trkpt>
<trkpt lat="26.68837388888889" lon="127.96487194444444">
<ele>20</ele>
</trkpt>
<trkpt lat="26.688333055555557" lon="127.96491">
<ele>20</ele>
</trkpt>
<trkpt lat="26.688266111111112" lon="127.96497194444444">
<ele>20</ele>
</trkpt>
<trkpt lat="26.688166111111112" lon="127.96502194444444">
<ele>21</ele>
</trkpt>
<trkpt lat="26.688008055555557" lon="127.96511">
<ele>20</ele>
</trkpt>
<trkpt lat="26.687508055555554" lon="127.96541">
<ele>19</ele>
</trkpt>
<trkpt lat="26.687233055555556" lon="127.96557194444445">
<ele>18</ele>
</trkpt>
<trkpt lat="26.68691611111111" lon="127.96579694444445">
<ele>17</ele>
</trkpt>
<trkpt lat="26.68677388888889" lon="127.96592194444445">
<ele>17</ele>
</trkpt>
<trkpt lat="26.686498888888888" lon="127.966185">
<ele>16</ele>
</trkpt>
<trkpt lat="26.686408055555557" lon="127.96627194444444">
<ele>16</ele>
</trkpt>
<trkpt lat="26.686058055555556" lon="127.96659694444445">
<ele>11</ele>
</trkpt>
<trkpt lat="26.6858" lon="127.96687194444445">
<ele>13</ele>
</trkpt>
<trkpt lat="26.68569111111111" lon="127.96701">
<ele>16</ele>
</trkpt>
<trkpt lat="26.68544111111111" lon="127.96742194444444">
<ele>18</ele>
</trkpt>
<trkpt lat="26.685066111111112" lon="127.96809694444444">
<ele>19</ele>
</trkpt>
<trkpt lat="26.68481611111111" lon="127.968485">
<ele>18</ele>
</trkpt>
<trkpt lat="26.684633055555555" lon="127.96874694444445">
<ele>19</ele>
</trkpt>
<trkpt lat="26.684091111111112" lon="127.96959694444445">
<ele>15</ele>
</trkpt>
<trkpt lat="26.683825" lon="127.96993388888889">
<ele>13</ele>
</trkpt>
<trkpt lat="26.683775" lon="127.96998388888889">
<ele>13</ele>
</trkpt>
<trkpt lat="26.683708055555556" lon="127.97004694444445">
<ele>13</ele>
</trkpt>
<trkpt lat="26.683375" lon="127.9703588888889">
<ele>12</ele>
</trkpt>
<trkpt lat="26.683241944444443" lon="127.97050888888889">
<ele>12</ele>
</trkpt>
<trkpt lat="26.68315" lon="127.97063388888888">
<ele>12</ele>
</trkpt>
<trkpt lat="26.682958055555556" lon="127.97097194444444">
<ele>6</ele>
</trkpt>
<trkpt lat="26.682491944444443" lon="127.97209694444444">
<ele>6</ele>
</trkpt>
<trkpt lat="26.682241944444446" lon="127.97272194444444">
<ele>6</ele>
</trkpt>
<trkpt lat="26.682208055555556" lon="127.97288388888889">
<ele>6</ele>
</trkpt>
<trkpt lat="26.6822" lon="127.97317194444445">
<ele>5</ele>
</trkpt>
<trkpt lat="26.682266944444443" lon="127.97340888888888">
<ele>5</ele>
</trkpt>
<trkpt lat="26.68245" lon="127.97387194444444">
<ele>5</ele>
</trkpt>
<trkpt lat="26.682541944444445" lon="127.97414694444444">
<ele>6</ele>
</trkpt>
<trkpt lat="26.682591944444443" lon="127.97440888888889">
<ele>6</ele>
</trkpt>
<trkpt lat="26.682625" lon="127.9748338888889">
<ele>6</ele>
</trkpt>
<trkpt lat="26.682633055555556" lon="127.97498388888889">
<ele>6</ele>
</trkpt>
<trkpt lat="26.68265" lon="127.97518388888889">
<ele>6</ele>
</trkpt>
<trkpt lat="26.682633055555556" lon="127.97550888888888">
<ele>6</ele>
</trkpt>
<trkpt lat="26.682616944444444" lon="127.97562194444444">
<ele>5</ele>
</trkpt>
<trkpt lat="26.682575" lon="127.97573388888888">
<ele>5</ele>
</trkpt>
<trkpt lat="26.682508055555555" lon="127.9758588888889">
<ele>5</ele>
</trkpt>
<trkpt lat="26.682433055555556" lon="127.97597194444444">
<ele>5</ele>
</trkpt>
<trkpt lat="26.682325" lon="127.97609694444445">
<ele>5</ele>
</trkpt>
<trkpt lat="26.682133888888888" lon="127.97623388888888">
<ele>6</ele>
</trkpt>
<trkpt lat="26.681966944444444" lon="127.97633388888889">
<ele>6</ele>
</trkpt>
<trkpt lat="26.6818" lon="127.97643388888889">
<ele>6</ele>
</trkpt>
<trkpt lat="26.681366944444445" lon="127.97667194444445">
<ele>6</ele>
</trkpt>
<trkpt lat="26.68118388888889" lon="127.9767588888889">
<ele>6</ele>
</trkpt>
<trkpt lat="26.681" lon="127.97685888888888">
<ele>5</ele>
</trkpt>
<trkpt lat="26.680825" lon="127.97697194444444">
<ele>5</ele>
</trkpt>
<trkpt lat="26.68058388888889" lon="127.97712194444445">
<ele>5</ele>
</trkpt>
<trkpt lat="26.68038388888889" lon="127.97727194444444">
<ele>5</ele>
</trkpt>
<trkpt lat="26.67995888888889" lon="127.97758388888889">
<ele>5</ele>
</trkpt>
<trkpt lat="26.679791944444446" lon="127.97769694444445">
<ele>5</ele>
</trkpt>
<trkpt lat="26.679458888888888" lon="127.97790888888889">
<ele>6</ele>
</trkpt>
<trkpt lat="26.679233888888888" lon="127.97803388888889">
<ele>6</ele>
</trkpt>
<trkpt lat="26.678966944444443" lon="127.97818388888889">
<ele>6</ele>
</trkpt>
<trkpt lat="26.678666944444444" lon="127.97835888888889">
<ele>5</ele>
</trkpt>
<trkpt lat="26.678583888888888" lon="127.9784088888889">
<ele>6</ele>
</trkpt>
<trkpt lat="26.678491944444445" lon="127.97849694444444">
<ele>7</ele>
</trkpt>
<trkpt lat="26.67840111111111" lon="127.9786338888889">
<ele>12</ele>
</trkpt>
<trkpt lat="26.67820888888889" lon="127.97900888888888">
<ele>14</ele>
</trkpt>
<trkpt lat="26.678058888888888" lon="127.97920888888889">
<ele>14</ele>
</trkpt>
<trkpt lat="26.677826111111113" lon="127.97934694444444">
<ele>12</ele>
</trkpt>
<trkpt lat="26.67735111111111" lon="127.9795338888889">
<ele>17</ele>
</trkpt>
<trkpt lat="26.67710111111111" lon="127.97960888888889">
<ele>21</ele>
</trkpt>
<trkpt lat="26.676966944444445" lon="127.97960888888889">
<ele>23</ele>
</trkpt>
<trkpt lat="26.676793055555557" lon="127.97958388888888">
<ele>26</ele>
</trkpt>
<trkpt lat="26.676668055555556" lon="127.97952194444444">
<ele>29</ele>
</trkpt>
<trkpt lat="26.676466944444446" lon="127.97939694444445">
<ele>30</ele>
</trkpt>
<trkpt lat="26.676193055555554" lon="127.97923388888888">
<ele>36</ele>
</trkpt>
<trkpt lat="26.67592611111111" lon="127.97912194444444">
<ele>35</ele>
</trkpt>
<trkpt lat="26.674993055555557" lon="127.97882194444445">
<ele>37</ele>
</trkpt>
<trkpt lat="26.674843055555556" lon="127.97880888888889">
<ele>37</ele>
</trkpt>
<trkpt lat="26.67467611111111" lon="127.97880888888889">
<ele>37</ele>
</trkpt>
<trkpt lat="26.673783888888888" lon="127.97895888888888">
<ele>38</ele>
</trkpt>
<trkpt lat="26.673318055555555" lon="127.97905888888889">
<ele>39</ele>
</trkpt>
<trkpt lat="26.673033888888888" lon="127.97909694444445">
<ele>43</ele>
</trkpt>
<trkpt lat="26.672818055555556" lon="127.97909694444445">
<ele>43</ele>
</trkpt>
<trkpt lat="26.672718055555556" lon="127.97942194444444">
<ele>38</ele>
</trkpt>
<trkpt lat="26.672618055555557" lon="127.97972194444445">
<ele>40</ele>
</trkpt>
<trkpt lat="26.671918055555555" lon="127.9816838888889">
<ele>48</ele>
</trkpt>
<trkpt lat="26.67147611111111" lon="127.98294694444445">
<ele>56</ele>
</trkpt>
<trkpt lat="26.67130111111111" lon="127.98345888888889">
<ele>60</ele>
</trkpt>
<trkpt lat="26.67126" lon="127.9835588888889">
<ele>60</ele>
</trkpt>
<trkpt lat="26.67116" lon="127.98387111111111">
<ele>60</ele>
</trkpt>
<trkpt lat="26.67108111111111" lon="127.98409388888889">
<ele>60</ele>
</trkpt>
<trkpt lat="26.67108111111111" lon="127.98409388888889">
<ele>60</ele>
</trkpt>
<trkpt lat="26.670868055555555" lon="127.9846961111111">
<ele>59</ele>
</trkpt>
<trkpt lat="26.670651944444444" lon="127.9853088888889">
<ele>57</ele>
</trkpt>
<trkpt lat="26.670551944444444" lon="127.98559611111111">
<ele>55</ele>
</trkpt>
<trkpt lat="26.670068055555557" lon="127.98710888888888">
<ele>64</ele>
</trkpt>
<trkpt lat="26.669726944444445" lon="127.98834611111111">
<ele>73</ele>
</trkpt>
<trkpt lat="26.669501944444445" lon="127.98924611111111">
<ele>75</ele>
</trkpt>
<trkpt lat="26.669243055555555" lon="127.99027111111111">
<ele>73</ele>
</trkpt>
<trkpt lat="26.669035" lon="127.99100888888889">
<ele>76</ele>
</trkpt>
<trkpt lat="26.66876" lon="127.99185805555555">
<ele>67</ele>
</trkpt>
<trkpt lat="26.668635" lon="127.99215805555555">
<ele>56</ele>
</trkpt>
<trkpt lat="26.66829388888889" lon="127.99293305555555">
<ele>50</ele>
</trkpt>
<trkpt lat="26.66826888888889" lon="127.99300805555555">
<ele>50</ele>
</trkpt>
<trkpt lat="26.66799388888889" lon="127.99359611111112">
<ele>45</ele>
</trkpt>
<trkpt lat="26.666751944444446" lon="127.99637111111112">
<ele>35</ele>
</trkpt>
<trkpt lat="26.666586111111112" lon="127.99675805555556">
<ele>36</ele>
</trkpt>
<trkpt lat="26.66644388888889" lon="127.9970961111111">
<ele>38</ele>
</trkpt>
<trkpt lat="26.666193888888888" lon="127.99783305555556">
<ele>36</ele>
</trkpt>
<trkpt lat="26.66613611111111" lon="127.99808305555555">
<ele>36</ele>
</trkpt>
<trkpt lat="26.66611111111111" lon="127.99818305555556">
<ele>34</ele>
</trkpt>
<trkpt lat="26.666076944444445" lon="127.99835805555556">
<ele>31</ele>
</trkpt>
<trkpt lat="26.665968888888887" lon="127.99890805555556">
<ele>32</ele>
</trkpt>
<trkpt lat="26.665961111111113" lon="127.99897111111112">
<ele>32</ele>
</trkpt>
<trkpt lat="26.665861111111113" lon="127.99955805555555">
<ele>32</ele>
</trkpt>
<trkpt lat="26.665568888888888" lon="127.99960805555556">
<ele>31</ele>
</trkpt>
<trkpt lat="26.665076944444444" lon="127.99979611111111">
<ele>31</ele>
</trkpt>
<trkpt lat="26.66463611111111" lon="127.99995805555555">
<ele>31</ele>
</trkpt>
<trkpt lat="26.66411888888889" lon="127.99994611111111">
<ele>31</ele>
</trkpt>
<trkpt lat="26.663386111111112" lon="127.99980805555556">
<ele>31</ele>
</trkpt>
<trkpt lat="26.66316888888889" lon="127.99970805555556">
<ele>29</ele>
</trkpt>
<trkpt lat="26.663076944444445" lon="127.99960805555556">
<ele>28</ele>
</trkpt>
<trkpt lat="26.66301888888889" lon="127.99948305555556">
<ele>28</ele>
</trkpt>
<trkpt lat="26.662951944444444" lon="127.99923305555555">
<ele>26</ele>
</trkpt>
<trkpt lat="26.662903055555557" lon="127.99900805555555">
<ele>25</ele>
</trkpt>
<trkpt lat="26.662826944444443" lon="127.9987961111111">
<ele>25</ele>
</trkpt>
<trkpt lat="26.662728055555554" lon="127.9986211111111">
<ele>26</ele>
</trkpt>
<trkpt lat="26.66259388888889" lon="127.99840805555556">
<ele>28</ele>
</trkpt>
<trkpt lat="26.662501944444443" lon="127.99827111111111">
<ele>28</ele>
</trkpt>
<trkpt lat="26.662403055555554" lon="127.99818305555556">
<ele>26</ele>
</trkpt>
<trkpt lat="26.662278055555557" lon="127.99812111111112">
<ele>25</ele>
</trkpt>
<trkpt lat="26.662178055555554" lon="127.99809611111111">
<ele>22</ele>
</trkpt>
<trkpt lat="26.662103055555555" lon="127.99808305555555">
<ele>22</ele>
</trkpt>
<trkpt lat="26.661778055555555" lon="127.99815805555555">
<ele>21</ele>
</trkpt>
<trkpt lat="26.66173611111111" lon="127.99818305555556">
<ele>21</ele>
</trkpt>
<trkpt lat="26.66146888888889" lon="127.99835805555556">
<ele>20</ele>
</trkpt>
<trkpt lat="26.66101888888889" lon="127.99890805555556">
<ele>17</ele>
</trkpt>
<trkpt lat="26.66091888888889" lon="127.99899611111111">
<ele>16</ele>
</trkpt>
<trkpt lat="26.66079388888889" lon="127.99903305555556">
<ele>16</ele>
</trkpt>
<trkpt lat="26.660618888888887" lon="127.99904611111111">
<ele>13</ele>
</trkpt>
<trkpt lat="26.66044388888889" lon="127.9990211111111">
<ele>11</ele>
</trkpt>
<trkpt lat="26.660253055555554" lon="127.99895805555556">
<ele>10</ele>
</trkpt>
<trkpt lat="26.660078055555555" lon="127.99887111111111">
<ele>9</ele>
</trkpt>
<trkpt lat="26.659795" lon="127.99869611111112">
<ele>7</ele>
</trkpt>
<trkpt lat="26.65967" lon="127.99860805555555">
<ele>5</ele>
</trkpt>
<trkpt lat="26.659111111111113" lon="127.99818305555556">
<ele>8</ele>
</trkpt>
<trkpt lat="26.658978055555554" lon="127.99808305555555">
<ele>8</ele>
</trkpt>
<trkpt lat="26.65876" lon="127.99794305555555">
<ele>8</ele>
</trkpt>
<trkpt lat="26.65876" lon="127.99794305555555">
<ele>8</ele>
</trkpt>
<trkpt lat="26.658178055555556" lon="127.99757111111111">
<ele>9</ele>
</trkpt>
<trkpt lat="26.658095" lon="127.9975461111111">
<ele>9</ele>
</trkpt>
<trkpt lat="26.65802" lon="127.99758305555555">
<ele>9</ele>
</trkpt>
<trkpt lat="26.65796111111111" lon="127.99765805555556">
<ele>9</ele>
</trkpt>
<trkpt lat="26.657828055555555" lon="127.99808305555555">
<ele>9</ele>
</trkpt>
<trkpt lat="26.657811111111112" lon="127.99818305555556">
<ele>9</ele>
</trkpt>
<trkpt lat="26.657803055555554" lon="127.9982211111111">
<ele>9</ele>
</trkpt>
<trkpt lat="26.65752" lon="127.99913305555556">
<ele>2</ele>
</trkpt>
<trkpt lat="26.65747" lon="127.99937111111112">
<ele>2</ele>
</trkpt>
<trkpt lat="26.657453055555557" lon="127.99959611111112">
<ele>3</ele>
</trkpt>
<trkpt lat="26.657453055555557" lon="127.99979611111111">
<ele>5</ele>
</trkpt>
<trkpt lat="26.657486944444443" lon="128.00000805555555">
<ele>8</ele>
</trkpt>
<trkpt lat="26.657645" lon="128.0005211111111">
<ele>9</ele>
</trkpt>
<trkpt lat="26.657728055555555" lon="128.00078305555556">
<ele>9</ele>
</trkpt>
<trkpt lat="26.65787" lon="128.00143305555557">
<ele>7</ele>
</trkpt>
<trkpt lat="26.657928055555555" lon="128.00170805555555">
<ele>7</ele>
</trkpt>
<trkpt lat="26.657936111111113" lon="128.00185805555554">
<ele>7</ele>
</trkpt>
<trkpt lat="26.657936111111113" lon="128.00219611111112">
<ele>7</ele>
</trkpt>
<trkpt lat="26.657861944444445" lon="128.0023711111111">
<ele>8</ele>
</trkpt>
<trkpt lat="26.657745" lon="128.0025711111111">
<ele>7</ele>
</trkpt>
<trkpt lat="26.657586944444443" lon="128.00280805555556">
<ele>7</ele>
</trkpt>
<trkpt lat="26.657395" lon="128.0030711111111">
<ele>3</ele>
</trkpt>
<trkpt lat="26.65692" lon="128.0038211111111">
<ele>2</ele>
</trkpt>
<trkpt lat="26.656711944444446" lon="128.00415805555556">
<ele>2</ele>
</trkpt>
<trkpt lat="26.656628055555554" lon="128.0043711111111">
<ele>4</ele>
</trkpt>
<trkpt lat="26.656603055555557" lon="128.00457111111112">
<ele>5</ele>
</trkpt>
<trkpt lat="26.65657" lon="128.0047711111111">
<ele>5</ele>
</trkpt>
<trkpt lat="26.656536944444444" lon="128.00507">
<ele>7</ele>
</trkpt>
<trkpt lat="26.656503055555557" lon="128.00532">
<ele>8</ele>
</trkpt>
<trkpt lat="26.656478055555556" lon="128.00565805555556">
<ele>9</ele>
</trkpt>
<trkpt lat="26.656478055555556" lon="128.00572">
<ele>9</ele>
</trkpt>
<trkpt lat="26.656486944444445" lon="128.00618305555557">
<ele>9</ele>
</trkpt>
<trkpt lat="26.656536944444444" lon="128.00658305555555">
<ele>8</ele>
</trkpt>
<trkpt lat="26.656553055555555" lon="128.006945">
<ele>7</ele>
</trkpt>
<trkpt lat="26.656561944444444" lon="128.00740805555554">
<ele>4</ele>
</trkpt>
<trkpt lat="26.656586944444445" lon="128.008095">
<ele>4</ele>
</trkpt>
<trkpt lat="26.656603055555557" lon="128.008645">
<ele>4</ele>
</trkpt>
<trkpt lat="26.65662" lon="128.00913305555557">
<ele>4</ele>
</trkpt>
<trkpt lat="26.656645" lon="128.00962">
<ele>4</ele>
</trkpt>
<trkpt lat="26.656653055555555" lon="128.00972">
<ele>4</ele>
</trkpt>
<trkpt lat="26.656753055555555" lon="128.00995805555556">
<ele>4</ele>
</trkpt>
<trkpt lat="26.657111944444445" lon="128.01040805555556">
<ele>4</ele>
</trkpt>
<trkpt lat="26.657378055555554" lon="128.010745">
<ele>4</ele>
</trkpt>
<trkpt lat="26.657461944444446" lon="128.01090805555555">
<ele>4</ele>
</trkpt>
<trkpt lat="26.657495" lon="128.010995">
<ele>4</ele>
</trkpt>
<trkpt lat="26.657561944444446" lon="128.011195">
<ele>3</ele>
</trkpt>
<trkpt lat="26.657661944444445" lon="128.011595">
<ele>2</ele>
</trkpt>
<trkpt lat="26.657836944444444" lon="128.01230694444445">
<ele>2</ele>
</trkpt>
<trkpt lat="26.657995" lon="128.01297">
<ele>3</ele>
</trkpt>
<trkpt lat="26.658053055555555" lon="128.01323194444444">
<ele>3</ele>
</trkpt>
<trkpt lat="26.658078055555556" lon="128.01350694444446">
<ele>4</ele>
</trkpt>
<trkpt lat="26.658045" lon="128.013895">
<ele>4</ele>
</trkpt>
<trkpt lat="26.658003055555554" lon="128.0149438888889">
<ele>5</ele>
</trkpt>
<trkpt lat="26.65802" lon="128.01565694444446">
<ele>7</ele>
</trkpt>
<trkpt lat="26.657995" lon="128.01614388888888">
<ele>3</ele>
</trkpt>
<trkpt lat="26.65797" lon="128.01633194444443">
<ele>3</ele>
</trkpt>
<trkpt lat="26.657895" lon="128.01660694444445">
<ele>3</ele>
</trkpt>
<trkpt lat="26.657786944444446" lon="128.01693194444445">
<ele>3</ele>
</trkpt>
<trkpt lat="26.657736944444444" lon="128.01718194444445">
<ele>5</ele>
</trkpt>
<trkpt lat="26.657745" lon="128.01735694444446">
<ele>6</ele>
</trkpt>
<trkpt lat="26.657786944444446" lon="128.01750694444445">
<ele>7</ele>
</trkpt>
<trkpt lat="26.657495" lon="128.01769388888889">
<ele>9</ele>
</trkpt>
<trkpt lat="26.65717" lon="128.0178938888889">
<ele>9</ele>
</trkpt>
<trkpt lat="26.656961944444443" lon="128.01806888888888">
<ele>8</ele>
</trkpt>
<trkpt lat="26.656861944444444" lon="128.01816888888888">
<ele>8</ele>
</trkpt>
<trkpt lat="26.656811944444446" lon="128.0182438888889">
<ele>8</ele>
</trkpt>
<trkpt lat="26.656678888888887" lon="128.0184438888889">
<ele>7</ele>
</trkpt>
<trkpt lat="26.656478888888888" lon="128.01884388888888">
<ele>7</ele>
</trkpt>
<trkpt lat="26.656411944444443" lon="128.0190438888889">
<ele>7</ele>
</trkpt>
<trkpt lat="26.656261944444445" lon="128.0192688888889">
<ele>7</ele>
</trkpt>
<trkpt lat="26.65620388888889" lon="128.01935694444444">
<ele>7</ele>
</trkpt>
<trkpt lat="26.656145" lon="128.0194438888889">
<ele>7</ele>
</trkpt>
<trkpt lat="26.655986944444443" lon="128.01960694444443">
<ele>6</ele>
</trkpt>
<trkpt lat="26.655761944444443" lon="128.01986888888888">
<ele>6</ele>
</trkpt>
<trkpt lat="26.655496111111113" lon="128.0201438888889">
<ele>4</ele>
</trkpt>
<trkpt lat="26.655271111111112" lon="128.02035694444444">
<ele>4</ele>
</trkpt>
<trkpt lat="26.654986944444445" lon="128.0205938888889">
<ele>3</ele>
</trkpt>
<trkpt lat="26.654328888888887" lon="128.02110694444445">
<ele>2</ele>
</trkpt>
<trkpt lat="26.654186944444444" lon="128.02130694444443">
<ele>3</ele>
</trkpt>
<trkpt lat="26.653803888888888" lon="128.02295694444445">
<ele>3</ele>
</trkpt>
<trkpt lat="26.65362111111111" lon="128.02395611111112">
<ele>4</ele>
</trkpt>
<trkpt lat="26.653536944444443" lon="128.0243188888889">
<ele>4</ele>
</trkpt>
<trkpt lat="26.653338055555555" lon="128.02551888888888">
<ele>8</ele>
</trkpt>
<trkpt lat="26.65322111111111" lon="128.02631888888888">
<ele>8</ele>
</trkpt>
<trkpt lat="26.65320388888889" lon="128.02689388888888">
<ele>19</ele>
</trkpt>
<trkpt lat="26.65323611111111" lon="128.02712305555556">
<ele>17</ele>
</trkpt>
<trkpt lat="26.65323611111111" lon="128.02712305555556">
<ele>17</ele>
</trkpt>
<trkpt lat="26.65327111111111" lon="128.0273811111111">
<ele>15</ele>
</trkpt>
<trkpt lat="26.65320388888889" lon="128.0275938888889">
<ele>11</ele>
</trkpt>
<trkpt lat="26.65310388888889" lon="128.0277561111111">
<ele>11</ele>
</trkpt>
<trkpt lat="26.65300388888889" lon="128.02780611111112">
<ele>10</ele>
</trkpt>
<trkpt lat="26.652711944444444" lon="128.02793111111112">
<ele>9</ele>
</trkpt>
<trkpt lat="26.652486944444444" lon="128.02801888888888">
<ele>9</ele>
</trkpt>
<trkpt lat="26.65187111111111" lon="128.0282688888889">
<ele>8</ele>
</trkpt>
<trkpt lat="26.65147888888889" lon="128.0284561111111">
<ele>6</ele>
</trkpt>
<trkpt lat="26.651421111111112" lon="128.0284938888889">
<ele>6</ele>
</trkpt>
<trkpt lat="26.65130388888889" lon="128.0285561111111">
<ele>5</ele>
</trkpt>
<trkpt lat="26.65117111111111" lon="128.0286561111111">
<ele>4</ele>
</trkpt>
<trkpt lat="26.651028888888888" lon="128.0287811111111">
<ele>3</ele>
</trkpt>
<trkpt lat="26.65095388888889" lon="128.0289061111111">
<ele>1</ele>
</trkpt>
<trkpt lat="26.650863055555554" lon="128.02915611111112">
<ele>1</ele>
</trkpt>
<trkpt lat="26.650813055555556" lon="128.02928111111112">
<ele>1</ele>
</trkpt>
<trkpt lat="26.65069611111111" lon="128.0295811111111">
<ele>2</ele>
</trkpt>
<trkpt lat="26.650603888888888" lon="128.02981888888888">
<ele>4</ele>
</trkpt>
<trkpt lat="26.65042111111111" lon="128.0302061111111">
<ele>1</ele>
</trkpt>
<trkpt lat="26.65022111111111" lon="128.03061888888888">
<ele>1</ele>
</trkpt>
<trkpt lat="26.649953888888888" lon="128.03106888888888">
<ele>0</ele>
</trkpt>
<trkpt lat="26.649763055555557" lon="128.03131888888888">
<ele>0</ele>
</trkpt>
<trkpt lat="26.649105" lon="128.03198111111112">
<ele>0</ele>
</trkpt>
<trkpt lat="26.64848" lon="128.0326311111111">
<ele>0</ele>
</trkpt>
<trkpt lat="26.64814611111111" lon="128.03290611111112">
<ele>2</ele>
</trkpt>
<trkpt lat="26.647796111111113" lon="128.03310611111112">
<ele>2</ele>
</trkpt>
<trkpt lat="26.64752111111111" lon="128.03321805555555">
<ele>2</ele>
</trkpt>
<trkpt lat="26.647105" lon="128.0332688888889">
<ele>4</ele>
</trkpt>
<trkpt lat="26.646655" lon="128.03325611111111">
<ele>3</ele>
</trkpt>
<trkpt lat="26.646221944444445" lon="128.0331811111111">
<ele>0</ele>
</trkpt>
<trkpt lat="26.645405" lon="128.03299388888888">
<ele>0</ele>
</trkpt>
<trkpt lat="26.642421944444443" lon="128.0323061111111">
<ele>2</ele>
</trkpt>
<trkpt lat="26.64201388888889" lon="128.0322438888889">
<ele>7</ele>
</trkpt>
<trkpt lat="26.64201" lon="128.0322438888889">
<ele>7</ele>
</trkpt>
<trkpt lat="26.64201" lon="128.0322438888889">
<ele>7</ele>
</trkpt>
<trkpt lat="26.641646944444446" lon="128.0322438888889">
<ele>5</ele>
</trkpt>
<trkpt lat="26.64136388888889" lon="128.0323061111111">
<ele>7</ele>
</trkpt>
<trkpt lat="26.640721944444444" lon="128.03255611111112">
<ele>7</ele>
</trkpt>
<trkpt lat="26.640421944444444" lon="128.0325811111111">
<ele>7</ele>
</trkpt>
<trkpt lat="26.63988888888889" lon="128.03254388888888">
<ele>4</ele>
</trkpt>
<trkpt lat="26.63921388888889" lon="128.0325061111111">
<ele>4</ele>
</trkpt>
<trkpt lat="26.638623055555556" lon="128.03254388888888">
<ele>7</ele>
</trkpt>
<trkpt lat="26.63843888888889" lon="128.0325811111111">
<ele>8</ele>
</trkpt>
<trkpt lat="26.63813111111111" lon="128.0327188888889">
<ele>8</ele>
</trkpt>
<trkpt lat="26.63788111111111" lon="128.03288111111112">
<ele>6</ele>
</trkpt>
<trkpt lat="26.637521944444444" lon="128.0331438888889">
<ele>6</ele>
</trkpt>
<trkpt lat="26.63686388888889" lon="128.03366888888888">
<ele>2</ele>
</trkpt>
<trkpt lat="26.636681111111113" lon="128.0337688888889">
<ele>1</ele>
</trkpt>
<trkpt lat="26.636573055555555" lon="128.03380611111112">
<ele>2</ele>
</trkpt>
<trkpt lat="26.63631388888889" lon="128.0338688888889">
<ele>0</ele>
</trkpt>
<trkpt lat="26.635923055555555" lon="128.03391888888888">
<ele>0</ele>
</trkpt>
<trkpt lat="26.635848055555556" lon="128.03393111111112">
<ele>0</ele>
</trkpt>
<trkpt lat="26.63533111111111" lon="128.0340438888889">
<ele>0</ele>
</trkpt>
<trkpt lat="26.634348055555556" lon="128.0345188888889">
<ele>0</ele>
</trkpt>
<trkpt lat="26.634065" lon="128.0346561111111">
<ele>0</ele>
</trkpt>
<trkpt lat="26.633906111111113" lon="128.0347561111111">
<ele>0</ele>
</trkpt>
<trkpt lat="26.633523055555557" lon="128.03505611111112">
<ele>0</ele>
</trkpt>
<trkpt lat="26.63340611111111" lon="128.0348938888889">
<ele>0</ele>
</trkpt>
<trkpt lat="26.633298055555557" lon="128.0347311111111">
<ele>0</ele>
</trkpt>
<trkpt lat="26.633031111111112" lon="128.0343188888889">
<ele>0</ele>
</trkpt>
<trkpt lat="26.632823055555555" lon="128.03401888888888">
<ele>0</ele>
</trkpt>
<trkpt lat="26.632515" lon="128.03355694444446">
<ele>0</ele>
</trkpt>
<trkpt lat="26.631981944444444" lon="128.03275805555555">
<ele>0</ele>
</trkpt>
<trkpt lat="26.631981944444444" lon="128.03275805555555">
<ele>0</ele>
</trkpt>
<trkpt lat="26.631973055555555" lon="128.0327438888889">
<ele>0</ele>
</trkpt>
<trkpt lat="26.631315" lon="128.03173194444443">
<ele>0</ele>
</trkpt>
<trkpt lat="26.629656944444445" lon="128.02923194444443">
<ele>0</ele>
</trkpt>
<trkpt lat="26.629398055555555" lon="128.028845">
<ele>0</ele>
</trkpt>
<trkpt lat="26.628756944444444" lon="128.027895">
<ele>0</ele>
</trkpt>
<trkpt lat="26.628715" lon="128.02782">
<ele>0</ele>
</trkpt>
<trkpt lat="26.628115" lon="128.026945">
<ele>0</ele>
</trkpt>
<trkpt lat="26.62764888888889" lon="128.02633194444445">
<ele>3</ele>
</trkpt>
<trkpt lat="26.627298888888888" lon="128.02593194444444">
<ele>1</ele>
</trkpt>
<trkpt lat="26.627073888888887" lon="128.02568194444444">
<ele>0</ele>
</trkpt>
<trkpt lat="26.62652388888889" lon="128.025145">
<ele>2</ele>
</trkpt>
<trkpt lat="26.625781944444444" lon="128.02452">
<ele>8</ele>
</trkpt>
<trkpt lat="26.62534" lon="128.024195">
<ele>8</ele>
</trkpt>
<trkpt lat="26.625181944444446" lon="128.02403305555555">
<ele>8</ele>
</trkpt>
<trkpt lat="26.62499111111111" lon="128.02383305555554">
<ele>8</ele>
</trkpt>
<trkpt lat="26.624723888888887" lon="128.02352">
<ele>9</ele>
</trkpt>
<trkpt lat="26.624506944444445" lon="128.02323305555555">
<ele>9</ele>
</trkpt>
<trkpt lat="26.62427388888889" lon="128.02283305555557">
<ele>9</ele>
</trkpt>
<trkpt lat="26.624231944444446" lon="128.02273305555556">
<ele>9</ele>
</trkpt>
<trkpt lat="26.623866111111113" lon="128.02180805555557">
<ele>9</ele>
</trkpt>
<trkpt lat="26.62369111111111" lon="128.02189611111112">
<ele>9</ele>
</trkpt>
<trkpt lat="26.623541111111113" lon="128.02198305555555">
<ele>9</ele>
</trkpt>
<trkpt lat="26.62339111111111" lon="128.0220711111111">
<ele>9</ele>
</trkpt>
<trkpt lat="26.623281944444443" lon="128.0221711111111">
<ele>9</ele>
</trkpt>
<trkpt lat="26.623181944444443" lon="128.02228305555556">
<ele>9</ele>
</trkpt>
<trkpt lat="26.622923888888888" lon="128.0228711111111">
<ele>19</ele>
</trkpt>
<trkpt lat="26.62275888888889" lon="128.0232161111111">
<ele>19</ele>
</trkpt>
    </trkseg>
  </trk>
</gpx>