<?xml version="1.0" encoding="UTF-8"?>
<gpx version="1.1"
     creator="KMLtoGPX"
     xmlns="http://www.topografix.com/GPX/1/1">
  <metadata>
    <name>A course that goes around the foot of Mount Shiso and the banks of the river</name>
    <desc>しそうの山麓と川のほとりを巡るコース</desc>
    <bounds minlat="35.003147" minlon="134.419495" maxlat="35.161781" maxlon="134.589403"/>
  </metadata>
  <trk>
    <name>A course that goes around the foot of Mount Shiso and the banks of the river</name>
    <trkseg>
<trkpt lat="35.003476" lon="134.549399">
<ele>91</ele>
</trkpt>
<trkpt lat="35.003347" lon="134.549896">
<ele>90</ele>
</trkpt>
<trkpt lat="35.003314" lon="134.549996">
<ele>90</ele>
</trkpt>
<trkpt lat="35.003206" lon="134.550434">
<ele>90</ele>
</trkpt>
<trkpt lat="35.003147" lon="134.550659">
<ele>90</ele>
</trkpt>
<trkpt lat="35.003147" lon="134.550721">
<ele>89</ele>
</trkpt>
<trkpt lat="35.003172" lon="134.551246">
<ele>87</ele>
</trkpt>
<trkpt lat="35.003197" lon="134.551634">
<ele>88</ele>
</trkpt>
<trkpt lat="35.003206" lon="134.551809">
<ele>88</ele>
</trkpt>
<trkpt lat="35.003247" lon="134.551946">
<ele>88</ele>
</trkpt>
<trkpt lat="35.003739" lon="134.551896">
<ele>89</ele>
</trkpt>
<trkpt lat="35.004639" lon="134.551834">
<ele>91</ele>
</trkpt>
<trkpt lat="35.005147" lon="134.551759">
<ele>91</ele>
</trkpt>
<trkpt lat="35.005705" lon="134.551684">
<ele>91</ele>
</trkpt>
<trkpt lat="35.005739" lon="134.551684">
<ele>91</ele>
</trkpt>
<trkpt lat="35.005964" lon="134.551646">
<ele>90</ele>
</trkpt>
<trkpt lat="35.006247" lon="134.551659">
<ele>90</ele>
</trkpt>
<trkpt lat="35.006405" lon="134.551709">
<ele>91</ele>
</trkpt>
<trkpt lat="35.006572" lon="134.551771">
<ele>90</ele>
</trkpt>
<trkpt lat="35.00668" lon="134.551846">
<ele>90</ele>
</trkpt>
<trkpt lat="35.006789" lon="134.551921">
<ele>91</ele>
</trkpt>
<trkpt lat="35.006889" lon="134.552034">
<ele>91</ele>
</trkpt>
<trkpt lat="35.007055" lon="134.552234">
<ele>91</ele>
</trkpt>
<trkpt lat="35.007272" lon="134.552458">
<ele>93</ele>
</trkpt>
<trkpt lat="35.007905" lon="134.552933">
<ele>94</ele>
</trkpt>
<trkpt lat="35.008105" lon="134.553071">
<ele>94</ele>
</trkpt>
<trkpt lat="35.008322" lon="134.553196">
<ele>94</ele>
</trkpt>
<trkpt lat="35.00858" lon="134.553308">
<ele>94</ele>
</trkpt>
<trkpt lat="35.008764" lon="134.553371">
<ele>94</ele>
</trkpt>
<trkpt lat="35.008872" lon="134.553408">
<ele>94</ele>
</trkpt>
<trkpt lat="35.009055" lon="134.553496">
<ele>94</ele>
</trkpt>
<trkpt lat="35.009238" lon="134.553583">
<ele>94</ele>
</trkpt>
<trkpt lat="35.009455" lon="134.553696">
<ele>94</ele>
</trkpt>
<trkpt lat="35.009788" lon="134.553858">
<ele>96</ele>
</trkpt>
<trkpt lat="35.009933" lon="134.553929">
<ele>97</ele>
</trkpt>
<trkpt lat="35.010197" lon="134.554058">
<ele>98</ele>
</trkpt>
<trkpt lat="35.010372" lon="134.554146">
<ele>99</ele>
</trkpt>
<trkpt lat="35.01063" lon="134.554271">
<ele>99</ele>
</trkpt>
<trkpt lat="35.011155" lon="134.554521">
<ele>99</ele>
</trkpt>
<trkpt lat="35.011213" lon="134.554558">
<ele>99</ele>
</trkpt>
<trkpt lat="35.011563" lon="134.554721">
<ele>99</ele>
</trkpt>
<trkpt lat="35.011805" lon="134.554821">
<ele>99</ele>
</trkpt>
<trkpt lat="35.011955" lon="134.554883">
<ele>99</ele>
</trkpt>
<trkpt lat="35.012105" lon="134.554921">
<ele>99</ele>
</trkpt>
<trkpt lat="35.01238" lon="134.554971">
<ele>99</ele>
</trkpt>
<trkpt lat="35.012496" lon="134.554983">
<ele>99</ele>
</trkpt>
<trkpt lat="35.012721" lon="134.554996">
<ele>99</ele>
</trkpt>
<trkpt lat="35.013671" lon="134.555008">
<ele>99</ele>
</trkpt>
<trkpt lat="35.013905" lon="134.555021">
<ele>99</ele>
</trkpt>
<trkpt lat="35.014146" lon="134.555058">
<ele>99</ele>
</trkpt>
<trkpt lat="35.014396" lon="134.555096">
<ele>99</ele>
</trkpt>
<trkpt lat="35.01528" lon="134.555333">
<ele>100</ele>
</trkpt>
<trkpt lat="35.015471" lon="134.555396">
<ele>100</ele>
</trkpt>
<trkpt lat="35.015738" lon="134.555446">
<ele>100</ele>
</trkpt>
<trkpt lat="35.015888" lon="134.555471">
<ele>100</ele>
</trkpt>
<trkpt lat="35.016379" lon="134.555545">
<ele>100</ele>
</trkpt>
<trkpt lat="35.016771" lon="134.555595">
<ele>100</ele>
</trkpt>
<trkpt lat="35.017496" lon="134.555645">
<ele>103</ele>
</trkpt>
<trkpt lat="35.018979" lon="134.555733">
<ele>105</ele>
</trkpt>
<trkpt lat="35.019754" lon="134.555808">
<ele>104</ele>
</trkpt>
<trkpt lat="35.020054" lon="134.55582">
<ele>104</ele>
</trkpt>
<trkpt lat="35.020288" lon="134.555845">
<ele>104</ele>
</trkpt>
<trkpt lat="35.020929" lon="134.555833">
<ele>103</ele>
</trkpt>
<trkpt lat="35.021462" lon="134.55582">
<ele>102</ele>
</trkpt>
<trkpt lat="35.021904" lon="134.55582">
<ele>102</ele>
</trkpt>
<trkpt lat="35.022029" lon="134.55582">
<ele>102</ele>
</trkpt>
<trkpt lat="35.022621" lon="134.555858">
<ele>102</ele>
</trkpt>
<trkpt lat="35.023204" lon="134.555908">
<ele>105</ele>
</trkpt>
<trkpt lat="35.024137" lon="134.556045">
<ele>105</ele>
</trkpt>
<trkpt lat="35.025796" lon="134.55627">
<ele>106</ele>
</trkpt>
<trkpt lat="35.026112" lon="134.556308">
<ele>106</ele>
</trkpt>
<trkpt lat="35.026721" lon="134.55637">
<ele>107</ele>
</trkpt>
<trkpt lat="35.026854" lon="134.556383">
<ele>107</ele>
</trkpt>
<trkpt lat="35.027454" lon="134.55642">
<ele>107</ele>
</trkpt>
<trkpt lat="35.028204" lon="134.556457">
<ele>108</ele>
</trkpt>
<trkpt lat="35.029324" lon="134.556509">
<ele>109</ele>
</trkpt>
<trkpt lat="35.029554" lon="134.55652">
<ele>109</ele>
</trkpt>
<trkpt lat="35.030612" lon="134.55657">
<ele>114</ele>
</trkpt>
<trkpt lat="35.031104" lon="134.556582">
<ele>114</ele>
</trkpt>
<trkpt lat="35.031387" lon="134.556595">
<ele>114</ele>
</trkpt>
<trkpt lat="35.031562" lon="134.556607">
<ele>114</ele>
</trkpt>
<trkpt lat="35.032653" lon="134.556657">
<ele>113</ele>
</trkpt>
<trkpt lat="35.032837" lon="134.55667">
<ele>113</ele>
</trkpt>
<trkpt lat="35.033003" lon="134.556695">
<ele>113</ele>
</trkpt>
<trkpt lat="35.033153" lon="134.556732">
<ele>113</ele>
</trkpt>
<trkpt lat="35.033353" lon="134.55682">
<ele>112</ele>
</trkpt>
<trkpt lat="35.03342" lon="134.556857">
<ele>112</ele>
</trkpt>
<trkpt lat="35.033545" lon="134.556932">
<ele>112</ele>
</trkpt>
<trkpt lat="35.03382" lon="134.557157">
<ele>112</ele>
</trkpt>
<trkpt lat="35.033953" lon="134.55732">
<ele>112</ele>
</trkpt>
<trkpt lat="35.034262" lon="134.557745">
<ele>112</ele>
</trkpt>
<trkpt lat="35.034753" lon="134.558482">
<ele>113</ele>
</trkpt>
<trkpt lat="35.034912" lon="134.558782">
<ele>112</ele>
</trkpt>
<trkpt lat="35.034987" lon="134.558994">
<ele>112</ele>
</trkpt>
<trkpt lat="35.035053" lon="134.559219">
<ele>112</ele>
</trkpt>
<trkpt lat="35.035103" lon="134.559407">
<ele>112</ele>
</trkpt>
<trkpt lat="35.03517" lon="134.559907">
<ele>112</ele>
</trkpt>
<trkpt lat="35.035203" lon="134.560107">
<ele>112</ele>
</trkpt>
<trkpt lat="35.03527" lon="134.560482">
<ele>112</ele>
</trkpt>
<trkpt lat="35.035345" lon="134.560782">
<ele>112</ele>
</trkpt>
<trkpt lat="35.03542" lon="134.561019">
<ele>113</ele>
</trkpt>
<trkpt lat="35.03562" lon="134.561582">
<ele>113</ele>
</trkpt>
<trkpt lat="35.035778" lon="134.561969">
<ele>113</ele>
</trkpt>
<trkpt lat="35.035853" lon="134.562169">
<ele>114</ele>
</trkpt>
<trkpt lat="35.036078" lon="134.562657">
<ele>114</ele>
</trkpt>
<trkpt lat="35.036153" lon="134.562844">
<ele>114</ele>
</trkpt>
<trkpt lat="35.036978" lon="134.564656">
<ele>117</ele>
</trkpt>
<trkpt lat="35.037053" lon="134.564856">
<ele>117</ele>
</trkpt>
<trkpt lat="35.037128" lon="134.565206">
<ele>116</ele>
</trkpt>
<trkpt lat="35.037187" lon="134.566056">
<ele>117</ele>
</trkpt>
<trkpt lat="35.037403" lon="134.566644">
<ele>114</ele>
</trkpt>
<trkpt lat="35.03752" lon="134.566931">
<ele>116</ele>
</trkpt>
<trkpt lat="35.037837" lon="134.567719">
<ele>117</ele>
</trkpt>
<trkpt lat="35.038278" lon="134.568556">
<ele>118</ele>
</trkpt>
<trkpt lat="35.038928" lon="134.568981">
<ele>117</ele>
</trkpt>
<trkpt lat="35.039278" lon="134.569181">
<ele>118</ele>
</trkpt>
<trkpt lat="35.039537" lon="134.569319">
<ele>118</ele>
</trkpt>
<trkpt lat="35.03967" lon="134.569394">
<ele>118</ele>
</trkpt>
<trkpt lat="35.040345" lon="134.569756">
<ele>118</ele>
</trkpt>
<trkpt lat="35.041128" lon="134.570118">
<ele>119</ele>
</trkpt>
<trkpt lat="35.042203" lon="134.570681">
<ele>118</ele>
</trkpt>
<trkpt lat="35.04282" lon="134.570981">
<ele>119</ele>
</trkpt>
<trkpt lat="35.042911" lon="134.571018">
<ele>119</ele>
</trkpt>
<trkpt lat="35.043103" lon="134.571143">
<ele>119</ele>
</trkpt>
<trkpt lat="35.043311" lon="134.571318">
<ele>119</ele>
</trkpt>
<trkpt lat="35.043736" lon="134.571768">
<ele>121</ele>
</trkpt>
<trkpt lat="35.044261" lon="134.572431">
<ele>123</ele>
</trkpt>
<trkpt lat="35.044294" lon="134.572468">
<ele>124</ele>
</trkpt>
<trkpt lat="35.044653" lon="134.572968">
<ele>125</ele>
</trkpt>
<trkpt lat="35.044869" lon="134.573343">
<ele>126</ele>
</trkpt>
<trkpt lat="35.045069" lon="134.573693">
<ele>127</ele>
</trkpt>
<trkpt lat="35.045178" lon="134.573818">
<ele>127</ele>
</trkpt>
<trkpt lat="35.045403" lon="134.574006">
<ele>127</ele>
</trkpt>
<trkpt lat="35.045753" lon="134.574206">
<ele>126</ele>
</trkpt>
<trkpt lat="35.046394" lon="134.574593">
<ele>125</ele>
</trkpt>
<trkpt lat="35.046544" lon="134.574606">
<ele>125</ele>
</trkpt>
<trkpt lat="35.046886" lon="134.574406">
<ele>122</ele>
</trkpt>
<trkpt lat="35.048003" lon="134.573743">
<ele>120</ele>
</trkpt>
<trkpt lat="35.048869" lon="134.573293">
<ele>122</ele>
</trkpt>
<trkpt lat="35.048919" lon="134.573243">
<ele>122</ele>
</trkpt>
<trkpt lat="35.049061" lon="134.573093">
<ele>122</ele>
</trkpt>
<trkpt lat="35.049878" lon="134.572131">
<ele>124</ele>
</trkpt>
<trkpt lat="35.050652" lon="134.573356">
<ele>126</ele>
</trkpt>
<trkpt lat="35.050902" lon="134.573655">
<ele>126</ele>
</trkpt>
<trkpt lat="35.051061" lon="134.573743">
<ele>127</ele>
</trkpt>
<trkpt lat="35.051286" lon="134.573855">
<ele>127</ele>
</trkpt>
<trkpt lat="35.051869" lon="134.574118">
<ele>127</ele>
</trkpt>
<trkpt lat="35.052272" lon="134.574306">
<ele>128</ele>
</trkpt>
<trkpt lat="35.052619" lon="134.574468">
<ele>128</ele>
</trkpt>
<trkpt lat="35.053044" lon="134.574668">
<ele>128</ele>
</trkpt>
<trkpt lat="35.05426" lon="134.57523">
<ele>126</ele>
</trkpt>
<trkpt lat="35.05431" lon="134.575243">
<ele>126</ele>
</trkpt>
<trkpt lat="35.055127" lon="134.575605">
<ele>128</ele>
</trkpt>
<trkpt lat="35.055227" lon="134.575655">
<ele>129</ele>
</trkpt>
<trkpt lat="35.055494" lon="134.575767">
<ele>129</ele>
</trkpt>
<trkpt lat="35.055727" lon="134.575842">
<ele>129</ele>
</trkpt>
<trkpt lat="35.055869" lon="134.575855">
<ele>129</ele>
</trkpt>
<trkpt lat="35.056044" lon="134.575842">
<ele>129</ele>
</trkpt>
<trkpt lat="35.056177" lon="134.575817">
<ele>129</ele>
</trkpt>
<trkpt lat="35.056277" lon="134.575767">
<ele>129</ele>
</trkpt>
<trkpt lat="35.056435" lon="134.575668">
<ele>129</ele>
</trkpt>
<trkpt lat="35.056835" lon="134.575318">
<ele>129</ele>
</trkpt>
<trkpt lat="35.057318" lon="134.574842">
<ele>133</ele>
</trkpt>
<trkpt lat="35.057502" lon="134.574668">
<ele>135</ele>
</trkpt>
<trkpt lat="35.058018" lon="134.574168">
<ele>134</ele>
</trkpt>
<trkpt lat="35.058935" lon="134.573255">
<ele>132</ele>
</trkpt>
<trkpt lat="35.059135" lon="134.573118">
<ele>132</ele>
</trkpt>
<trkpt lat="35.059268" lon="134.57303">
<ele>133</ele>
</trkpt>
<trkpt lat="35.059318" lon="134.572993">
<ele>131</ele>
</trkpt>
<trkpt lat="35.059585" lon="134.57293">
<ele>132</ele>
</trkpt>
<trkpt lat="35.05986" lon="134.57288">
<ele>131</ele>
</trkpt>
<trkpt lat="35.06006" lon="134.57288">
<ele>131</ele>
</trkpt>
<trkpt lat="35.060351" lon="134.572943">
<ele>132</ele>
</trkpt>
<trkpt lat="35.06156" lon="134.57328">
<ele>133</ele>
</trkpt>
<trkpt lat="35.061751" lon="134.573368">
<ele>137</ele>
</trkpt>
<trkpt lat="35.061943" lon="134.573517">
<ele>136</ele>
</trkpt>
<trkpt lat="35.062568" lon="134.573818">
<ele>138</ele>
</trkpt>
<trkpt lat="35.062859" lon="134.57388">
<ele>138</ele>
</trkpt>
<trkpt lat="35.063259" lon="134.573918">
<ele>139</ele>
</trkpt>
<trkpt lat="35.063901" lon="134.57393">
<ele>139</ele>
</trkpt>
<trkpt lat="35.064493" lon="134.574005">
<ele>138</ele>
</trkpt>
<trkpt lat="35.065217" lon="134.574055">
<ele>139</ele>
</trkpt>
<trkpt lat="35.065326" lon="134.574068">
<ele>139</ele>
</trkpt>
<trkpt lat="35.065459" lon="134.57413">
<ele>142</ele>
</trkpt>
<trkpt lat="35.065534" lon="134.574193">
<ele>142</ele>
</trkpt>
<trkpt lat="35.065701" lon="134.574418">
<ele>144</ele>
</trkpt>
<trkpt lat="35.065984" lon="134.574892">
<ele>145</ele>
</trkpt>
<trkpt lat="35.066184" lon="134.57523">
<ele>148</ele>
</trkpt>
<trkpt lat="35.066434" lon="134.57568">
<ele>148</ele>
</trkpt>
<trkpt lat="35.066526" lon="134.57598">
<ele>146</ele>
</trkpt>
<trkpt lat="35.066601" lon="134.576267">
<ele>146</ele>
</trkpt>
<trkpt lat="35.066634" lon="134.576517">
<ele>147</ele>
</trkpt>
<trkpt lat="35.066601" lon="134.57678">
<ele>147</ele>
</trkpt>
<trkpt lat="35.066426" lon="134.577292">
<ele>148</ele>
</trkpt>
<trkpt lat="35.066276" lon="134.577817">
<ele>147</ele>
</trkpt>
<trkpt lat="35.066176" lon="134.578267">
<ele>148</ele>
</trkpt>
<trkpt lat="35.066126" lon="134.579055">
<ele>146</ele>
</trkpt>
<trkpt lat="35.066117" lon="134.579567">
<ele>145</ele>
</trkpt>
<trkpt lat="35.066101" lon="134.580479">
<ele>146</ele>
</trkpt>
<trkpt lat="35.066059" lon="134.581129">
<ele>146</ele>
</trkpt>
<trkpt lat="35.066043" lon="134.581742">
<ele>147</ele>
</trkpt>
<trkpt lat="35.066092" lon="134.582479">
<ele>146</ele>
</trkpt>
<trkpt lat="35.066168" lon="134.583154">
<ele>148</ele>
</trkpt>
<trkpt lat="35.066293" lon="134.583479">
<ele>148</ele>
</trkpt>
<trkpt lat="35.066426" lon="134.583729">
<ele>148</ele>
</trkpt>
<trkpt lat="35.067242" lon="134.584879">
<ele>147</ele>
</trkpt>
<trkpt lat="35.068076" lon="134.585929">
<ele>148</ele>
</trkpt>
<trkpt lat="35.068342" lon="134.586154">
<ele>146</ele>
</trkpt>
<trkpt lat="35.068876" lon="134.586541">
<ele>151</ele>
</trkpt>
<trkpt lat="35.069667" lon="134.586979">
<ele>150</ele>
</trkpt>
<trkpt lat="35.070159" lon="134.587204">
<ele>151</ele>
</trkpt>
<trkpt lat="35.070517" lon="134.587304">
<ele>151</ele>
</trkpt>
<trkpt lat="35.070859" lon="134.587329">
<ele>150</ele>
</trkpt>
<trkpt lat="35.071392" lon="134.587354">
<ele>148</ele>
</trkpt>
<trkpt lat="35.071792" lon="134.587379">
<ele>148</ele>
</trkpt>
<trkpt lat="35.072417" lon="134.587404">
<ele>148</ele>
</trkpt>
<trkpt lat="35.072867" lon="134.587429">
<ele>148</ele>
</trkpt>
<trkpt lat="35.073775" lon="134.587516">
<ele>148</ele>
</trkpt>
<trkpt lat="35.074442" lon="134.587591">
<ele>149</ele>
</trkpt>
<trkpt lat="35.07455" lon="134.587604">
<ele>149</ele>
</trkpt>
<trkpt lat="35.07495" lon="134.587654">
<ele>152</ele>
</trkpt>
<trkpt lat="35.075775" lon="134.587766">
<ele>156</ele>
</trkpt>
<trkpt lat="35.076592" lon="134.587879">
<ele>156</ele>
</trkpt>
<trkpt lat="35.076892" lon="134.587916">
<ele>156</ele>
</trkpt>
<trkpt lat="35.077575" lon="134.588016">
<ele>156</ele>
</trkpt>
<trkpt lat="35.078216" lon="134.588116">
<ele>158</ele>
</trkpt>
<trkpt lat="35.078725" lon="134.588166">
<ele>160</ele>
</trkpt>
<trkpt lat="35.078975" lon="134.588228">
<ele>160</ele>
</trkpt>
<trkpt lat="35.079375" lon="134.588353">
<ele>160</ele>
</trkpt>
<trkpt lat="35.079475" lon="134.588378">
<ele>160</ele>
</trkpt>
<trkpt lat="35.080774" lon="134.588753">
<ele>158</ele>
</trkpt>
<trkpt lat="35.081249" lon="134.588878">
<ele>158</ele>
</trkpt>
<trkpt lat="35.082699" lon="134.589278">
<ele>157</ele>
</trkpt>
<trkpt lat="35.082982" lon="134.589316">
<ele>158</ele>
</trkpt>
<trkpt lat="35.083366" lon="134.589328">
<ele>158</ele>
</trkpt>
<trkpt lat="35.083999" lon="134.589403">
<ele>157</ele>
</trkpt>
<trkpt lat="35.084308" lon="134.589391">
<ele>157</ele>
</trkpt>
<trkpt lat="35.084466" lon="134.589341">
<ele>157</ele>
</trkpt>
<trkpt lat="35.084966" lon="134.589078">
<ele>157</ele>
</trkpt>
<trkpt lat="35.085516" lon="134.588766">
<ele>156</ele>
</trkpt>
<trkpt lat="35.086207" lon="134.588378">
<ele>156</ele>
</trkpt>
<trkpt lat="35.086482" lon="134.588241">
<ele>157</ele>
</trkpt>
<trkpt lat="35.086532" lon="134.588216">
<ele>157</ele>
</trkpt>
<trkpt lat="35.088324" lon="134.587528">
<ele>161</ele>
</trkpt>
<trkpt lat="35.088565" lon="134.587403">
<ele>161</ele>
</trkpt>
<trkpt lat="35.088699" lon="134.587278">
<ele>161</ele>
</trkpt>
<trkpt lat="35.088865" lon="134.587116">
<ele>161</ele>
</trkpt>
<trkpt lat="35.089632" lon="134.586391">
<ele>162</ele>
</trkpt>
<trkpt lat="35.089882" lon="134.586203">
<ele>163</ele>
</trkpt>
<trkpt lat="35.090023" lon="134.586103">
<ele>164</ele>
</trkpt>
<trkpt lat="35.090182" lon="134.586041">
<ele>165</ele>
</trkpt>
<trkpt lat="35.091032" lon="134.585891">
<ele>165</ele>
</trkpt>
<trkpt lat="35.092856" lon="134.585553">
<ele>165</ele>
</trkpt>
<trkpt lat="35.093181" lon="134.585441">
<ele>165</ele>
</trkpt>
<trkpt lat="35.094223" lon="134.585091">
<ele>165</ele>
</trkpt>
<trkpt lat="35.094365" lon="134.585041">
<ele>165</ele>
</trkpt>
<trkpt lat="35.095081" lon="134.584953">
<ele>165</ele>
</trkpt>
<trkpt lat="35.095589" lon="134.584891">
<ele>165</ele>
</trkpt>
<trkpt lat="35.095698" lon="134.584878">
<ele>165</ele>
</trkpt>
<trkpt lat="35.096631" lon="134.584728">
<ele>162</ele>
</trkpt>
<trkpt lat="35.096698" lon="134.584716">
<ele>162</ele>
</trkpt>
<trkpt lat="35.096939" lon="134.584691">
<ele>161</ele>
</trkpt>
<trkpt lat="35.097256" lon="134.584603">
<ele>163</ele>
</trkpt>
<trkpt lat="35.097372" lon="134.584553">
<ele>163</ele>
</trkpt>
<trkpt lat="35.097547" lon="134.584491">
<ele>163</ele>
</trkpt>
<trkpt lat="35.097822" lon="134.584366">
<ele>164</ele>
</trkpt>
<trkpt lat="35.098089" lon="134.584253">
<ele>165</ele>
</trkpt>
<trkpt lat="35.099681" lon="134.583603">
<ele>163</ele>
</trkpt>
<trkpt lat="35.100181" lon="134.583416">
<ele>163</ele>
</trkpt>
<trkpt lat="35.101555" lon="134.582778">
<ele>164</ele>
</trkpt>
<trkpt lat="35.101964" lon="134.582591">
<ele>166</ele>
</trkpt>
<trkpt lat="35.103155" lon="134.582041">
<ele>166</ele>
</trkpt>
<trkpt lat="35.103772" lon="134.581779">
<ele>167</ele>
</trkpt>
<trkpt lat="35.104322" lon="134.581554">
<ele>166</ele>
</trkpt>
<trkpt lat="35.104972" lon="134.581179">
<ele>167</ele>
</trkpt>
<trkpt lat="35.105313" lon="134.581079">
<ele>168</ele>
</trkpt>
<trkpt lat="35.105588" lon="134.581016">
<ele>169</ele>
</trkpt>
<trkpt lat="35.105713" lon="134.581004">
<ele>169</ele>
</trkpt>
<trkpt lat="35.106263" lon="134.581016">
<ele>172</ele>
</trkpt>
<trkpt lat="35.106863" lon="134.581016">
<ele>172</ele>
</trkpt>
<trkpt lat="35.107346" lon="134.581028">
<ele>170</ele>
</trkpt>
<trkpt lat="35.107388" lon="134.580991">
<ele>169</ele>
</trkpt>
<trkpt lat="35.107463" lon="134.580929">
<ele>169</ele>
</trkpt>
<trkpt lat="35.107838" lon="134.580379">
<ele>170</ele>
</trkpt>
<trkpt lat="35.108104" lon="134.579991">
<ele>170</ele>
</trkpt>
<trkpt lat="35.108638" lon="134.579179">
<ele>170</ele>
</trkpt>
<trkpt lat="35.108804" lon="134.578904">
<ele>171</ele>
</trkpt>
<trkpt lat="35.108888" lon="134.578779">
<ele>171</ele>
</trkpt>
<trkpt lat="35.109729" lon="134.577579">
<ele>172</ele>
</trkpt>
<trkpt lat="35.111279" lon="134.575354">
<ele>176</ele>
</trkpt>
<trkpt lat="35.111729" lon="134.574691">
<ele>177</ele>
</trkpt>
<trkpt lat="35.112054" lon="134.574216">
<ele>178</ele>
</trkpt>
<trkpt lat="35.112412" lon="134.573691">
<ele>179</ele>
</trkpt>
<trkpt lat="35.112637" lon="134.573441">
<ele>179</ele>
</trkpt>
<trkpt lat="35.112887" lon="134.573254">
<ele>179</ele>
</trkpt>
<trkpt lat="35.114304" lon="134.572154">
<ele>179</ele>
</trkpt>
<trkpt lat="35.11562" lon="134.571067">
<ele>182</ele>
</trkpt>
<trkpt lat="35.116137" lon="134.570654">
<ele>183</ele>
</trkpt>
<trkpt lat="35.116337" lon="134.570467">
<ele>184</ele>
</trkpt>
<trkpt lat="35.11657" lon="134.570204">
<ele>185</ele>
</trkpt>
<trkpt lat="35.11667" lon="134.570067">
<ele>186</ele>
</trkpt>
<trkpt lat="35.117037" lon="134.569417">
<ele>185</ele>
</trkpt>
<trkpt lat="35.117378" lon="134.568792">
<ele>182</ele>
</trkpt>
<trkpt lat="35.117403" lon="134.568742">
<ele>183</ele>
</trkpt>
<trkpt lat="35.117536" lon="134.568579">
<ele>184</ele>
</trkpt>
<trkpt lat="35.11767" lon="134.568479">
<ele>185</ele>
</trkpt>
<trkpt lat="35.117828" lon="134.568367">
<ele>186</ele>
</trkpt>
<trkpt lat="35.118053" lon="134.568279">
<ele>187</ele>
</trkpt>
<trkpt lat="35.118203" lon="134.568267">
<ele>187</ele>
</trkpt>
<trkpt lat="35.118303" lon="134.568254">
<ele>188</ele>
</trkpt>
<trkpt lat="35.118428" lon="134.568279">
<ele>188</ele>
</trkpt>
<trkpt lat="35.118686" lon="134.568342">
<ele>188</ele>
</trkpt>
<trkpt lat="35.11907" lon="134.568504">
<ele>187</ele>
</trkpt>
<trkpt lat="35.119853" lon="134.568804">
<ele>187</ele>
</trkpt>
<trkpt lat="35.120211" lon="134.568967">
<ele>188</ele>
</trkpt>
<trkpt lat="35.120728" lon="134.569142">
<ele>188</ele>
</trkpt>
<trkpt lat="35.120853" lon="134.569167">
<ele>188</ele>
</trkpt>
<trkpt lat="35.120961" lon="134.569167">
<ele>188</ele>
</trkpt>
<trkpt lat="35.121069" lon="134.569154">
<ele>188</ele>
</trkpt>
<trkpt lat="35.121194" lon="134.569142">
<ele>188</ele>
</trkpt>
<trkpt lat="35.121386" lon="134.569117">
<ele>188</ele>
</trkpt>
<trkpt lat="35.122294" lon="134.568917">
<ele>189</ele>
</trkpt>
<trkpt lat="35.122419" lon="134.568892">
<ele>189</ele>
</trkpt>
<trkpt lat="35.122811" lon="134.568804">
<ele>189</ele>
</trkpt>
<trkpt lat="35.123711" lon="134.568617">
<ele>195</ele>
</trkpt>
<trkpt lat="35.124594" lon="134.568429">
<ele>195</ele>
</trkpt>
<trkpt lat="35.125752" lon="134.568192">
<ele>197</ele>
</trkpt>
<trkpt lat="35.126435" lon="134.568054">
<ele>202</ele>
</trkpt>
<trkpt lat="35.127127" lon="134.567904">
<ele>202</ele>
</trkpt>
<trkpt lat="35.127669" lon="134.567792">
<ele>204</ele>
</trkpt>
<trkpt lat="35.12796" lon="134.567742">
<ele>205</ele>
</trkpt>
<trkpt lat="35.128068" lon="134.567704">
<ele>205</ele>
</trkpt>
<trkpt lat="35.128193" lon="134.567654">
<ele>206</ele>
</trkpt>
<trkpt lat="35.128343" lon="134.567542">
<ele>206</ele>
</trkpt>
<trkpt lat="35.128418" lon="134.567467">
<ele>206</ele>
</trkpt>
<trkpt lat="35.128693" lon="134.567104">
<ele>207</ele>
</trkpt>
<trkpt lat="35.129035" lon="134.566629">
<ele>203</ele>
</trkpt>
<trkpt lat="35.129085" lon="134.566542">
<ele>204</ele>
</trkpt>
<trkpt lat="35.129193" lon="134.566267">
<ele>203</ele>
</trkpt>
<trkpt lat="35.129235" lon="134.565942">
<ele>201</ele>
</trkpt>
<trkpt lat="35.129335" lon="134.564654">
<ele>199</ele>
</trkpt>
<trkpt lat="35.129393" lon="134.564404">
<ele>199</ele>
</trkpt>
<trkpt lat="35.129585" lon="134.564029">
<ele>199</ele>
</trkpt>
<trkpt lat="35.130135" lon="134.563254">
<ele>203</ele>
</trkpt>
<trkpt lat="35.13061" lon="134.562592">
<ele>204</ele>
</trkpt>
<trkpt lat="35.131026" lon="134.561917">
<ele>203</ele>
</trkpt>
<trkpt lat="35.131793" lon="134.560492">
<ele>211</ele>
</trkpt>
<trkpt lat="35.132059" lon="134.560205">
<ele>214</ele>
</trkpt>
<trkpt lat="35.132726" lon="134.55963">
<ele>211</ele>
</trkpt>
<trkpt lat="35.133093" lon="134.559317">
<ele>215</ele>
</trkpt>
<trkpt lat="35.133668" lon="134.55883">
<ele>213</ele>
</trkpt>
<trkpt lat="35.133809" lon="134.558705">
<ele>214</ele>
</trkpt>
<trkpt lat="35.133909" lon="134.558667">
<ele>213</ele>
</trkpt>
<trkpt lat="35.134509" lon="134.558417">
<ele>216</ele>
</trkpt>
<trkpt lat="35.134801" lon="134.558255">
<ele>214</ele>
</trkpt>
<trkpt lat="35.134884" lon="134.558192">
<ele>216</ele>
</trkpt>
<trkpt lat="35.134968" lon="134.558092">
<ele>216</ele>
</trkpt>
<trkpt lat="35.135967" lon="134.55723">
<ele>216</ele>
</trkpt>
<trkpt lat="35.136217" lon="134.55703">
<ele>216</ele>
</trkpt>
<trkpt lat="35.136417" lon="134.556892">
<ele>215</ele>
</trkpt>
<trkpt lat="35.136634" lon="134.556767">
<ele>217</ele>
</trkpt>
<trkpt lat="35.137326" lon="134.556405">
<ele>215</ele>
</trkpt>
<trkpt lat="35.137784" lon="134.556192">
<ele>217</ele>
</trkpt>
<trkpt lat="35.138284" lon="134.555955">
<ele>218</ele>
</trkpt>
<trkpt lat="35.1384" lon="134.555867">
<ele>219</ele>
</trkpt>
<trkpt lat="35.138534" lon="134.55573">
<ele>219</ele>
</trkpt>
<trkpt lat="35.138659" lon="134.555605">
<ele>219</ele>
</trkpt>
<trkpt lat="35.1388" lon="134.55543">
<ele>218</ele>
</trkpt>
<trkpt lat="35.13895" lon="134.555192">
<ele>219</ele>
</trkpt>
<trkpt lat="35.139025" lon="134.55508">
<ele>218</ele>
</trkpt>
<trkpt lat="35.139783" lon="134.553855">
<ele>217</ele>
</trkpt>
<trkpt lat="35.139892" lon="134.553617">
<ele>217</ele>
</trkpt>
<trkpt lat="35.140025" lon="134.553342">
<ele>216</ele>
</trkpt>
<trkpt lat="35.140125" lon="134.553042">
<ele>216</ele>
</trkpt>
<trkpt lat="35.140375" lon="134.55218">
<ele>216</ele>
</trkpt>
<trkpt lat="35.140633" lon="134.551355">
<ele>216</ele>
</trkpt>
<trkpt lat="35.140925" lon="134.550305">
<ele>217</ele>
</trkpt>
<trkpt lat="35.141133" lon="134.54923">
<ele>218</ele>
</trkpt>
<trkpt lat="35.141491" lon="134.547668">
<ele>221</ele>
</trkpt>
<trkpt lat="35.141741" lon="134.546605">
<ele>221</ele>
</trkpt>
<trkpt lat="35.142125" lon="134.544906">
<ele>221</ele>
</trkpt>
<trkpt lat="35.142141" lon="134.544831">
<ele>221</ele>
</trkpt>
<trkpt lat="35.142491" lon="134.543343">
<ele>222</ele>
</trkpt>
<trkpt lat="35.142566" lon="134.543006">
<ele>222</ele>
</trkpt>
<trkpt lat="35.142608" lon="134.542668">
<ele>223</ele>
</trkpt>
<trkpt lat="35.142583" lon="134.542043">
<ele>225</ele>
</trkpt>
<trkpt lat="35.1426" lon="134.541743">
<ele>226</ele>
</trkpt>
<trkpt lat="35.142633" lon="134.541543">
<ele>228</ele>
</trkpt>
<trkpt lat="35.142766" lon="134.541193">
<ele>228</ele>
</trkpt>
<trkpt lat="35.142908" lon="134.540931">
<ele>227</ele>
</trkpt>
<trkpt lat="35.143124" lon="134.540618">
<ele>227</ele>
</trkpt>
<trkpt lat="35.143283" lon="134.540406">
<ele>227</ele>
</trkpt>
<trkpt lat="35.143441" lon="134.540231">
<ele>227</ele>
</trkpt>
<trkpt lat="35.143741" lon="134.539918">
<ele>227</ele>
</trkpt>
<trkpt lat="35.143958" lon="134.539793">
<ele>227</ele>
</trkpt>
<trkpt lat="35.144091" lon="134.539743">
<ele>227</ele>
</trkpt>
<trkpt lat="35.145133" lon="134.539356">
<ele>227</ele>
</trkpt>
<trkpt lat="35.145724" lon="134.539131">
<ele>227</ele>
</trkpt>
<trkpt lat="35.145758" lon="134.539118">
<ele>227</ele>
</trkpt>
<trkpt lat="35.145899" lon="134.539093">
<ele>228</ele>
</trkpt>
<trkpt lat="35.146066" lon="134.539056">
<ele>228</ele>
</trkpt>
<trkpt lat="35.146141" lon="134.539043">
<ele>228</ele>
</trkpt>
<trkpt lat="35.146199" lon="134.539031">
<ele>228</ele>
</trkpt>
<trkpt lat="35.146291" lon="134.539043">
<ele>228</ele>
</trkpt>
<trkpt lat="35.146466" lon="134.539056">
<ele>229</ele>
</trkpt>
<trkpt lat="35.146683" lon="134.539093">
<ele>229</ele>
</trkpt>
<trkpt lat="35.146774" lon="134.539106">
<ele>229</ele>
</trkpt>
<trkpt lat="35.147566" lon="134.539243">
<ele>229</ele>
</trkpt>
<trkpt lat="35.147841" lon="134.539318">
<ele>229</ele>
</trkpt>
<trkpt lat="35.147866" lon="134.539331">
<ele>229</ele>
</trkpt>
<trkpt lat="35.148524" lon="134.539681">
<ele>232</ele>
</trkpt>
<trkpt lat="35.152024" lon="134.542768">
<ele>238</ele>
</trkpt>
<trkpt lat="35.15264" lon="134.543305">
<ele>240</ele>
</trkpt>
<trkpt lat="35.152873" lon="134.543505">
<ele>240</ele>
</trkpt>
<trkpt lat="35.153407" lon="134.54398">
<ele>241</ele>
</trkpt>
<trkpt lat="35.153465" lon="134.54403">
<ele>241</ele>
</trkpt>
<trkpt lat="35.154215" lon="134.544543">
<ele>243</ele>
</trkpt>
<trkpt lat="35.154473" lon="134.544705">
<ele>244</ele>
</trkpt>
<trkpt lat="35.154923" lon="134.54498">
<ele>244</ele>
</trkpt>
<trkpt lat="35.155206" lon="134.54513">
<ele>244</ele>
</trkpt>
<trkpt lat="35.155923" lon="134.545542">
<ele>246</ele>
</trkpt>
<trkpt lat="35.156156" lon="134.545655">
<ele>247</ele>
</trkpt>
<trkpt lat="35.156531" lon="134.545792">
<ele>247</ele>
</trkpt>
<trkpt lat="35.156664" lon="134.545842">
<ele>247</ele>
</trkpt>
<trkpt lat="35.156798" lon="134.545892">
<ele>247</ele>
</trkpt>
<trkpt lat="35.157006" lon="134.54588">
<ele>247</ele>
</trkpt>
<trkpt lat="35.157231" lon="134.545817">
<ele>248</ele>
</trkpt>
<trkpt lat="35.157473" lon="134.545717">
<ele>248</ele>
</trkpt>
<trkpt lat="35.157723" lon="134.545605">
<ele>248</ele>
</trkpt>
<trkpt lat="35.158014" lon="134.54548">
<ele>247</ele>
</trkpt>
<trkpt lat="35.158073" lon="134.545442">
<ele>247</ele>
</trkpt>
<trkpt lat="35.158256" lon="134.545355">
<ele>245</ele>
</trkpt>
<trkpt lat="35.158606" lon="134.545205">
<ele>248</ele>
</trkpt>
<trkpt lat="35.160381" lon="134.544392">
<ele>254</ele>
</trkpt>
<trkpt lat="35.160547" lon="134.544318">
<ele>253</ele>
</trkpt>
<trkpt lat="35.160664" lon="134.54428">
<ele>254</ele>
</trkpt>
<trkpt lat="35.160731" lon="134.544267">
<ele>254</ele>
</trkpt>
<trkpt lat="35.160731" lon="134.54418">
<ele>252</ele>
</trkpt>
<trkpt lat="35.160739" lon="134.54363">
<ele>249</ele>
</trkpt>
<trkpt lat="35.160764" lon="134.54353">
<ele>250</ele>
</trkpt>
<trkpt lat="35.160772" lon="134.543492">
<ele>250</ele>
</trkpt>
<trkpt lat="35.160856" lon="134.543255">
<ele>252</ele>
</trkpt>
<trkpt lat="35.161022" lon="134.542755">
<ele>255</ele>
</trkpt>
<trkpt lat="35.161372" lon="134.541718">
<ele>260</ele>
</trkpt>
<trkpt lat="35.161739" lon="134.54073">
<ele>264</ele>
</trkpt>
<trkpt lat="35.161781" lon="134.540493">
<ele>265</ele>
</trkpt>
<trkpt lat="35.161772" lon="134.54028">
<ele>266</ele>
</trkpt>
<trkpt lat="35.161722" lon="134.540143">
<ele>266</ele>
</trkpt>
<trkpt lat="35.161531" lon="134.539793">
<ele>265</ele>
</trkpt>
<trkpt lat="35.161347" lon="134.539493">
<ele>266</ele>
</trkpt>
<trkpt lat="35.161114" lon="134.539168">
<ele>267</ele>
</trkpt>
<trkpt lat="35.160864" lon="134.538843">
<ele>272</ele>
</trkpt>
<trkpt lat="35.160397" lon="134.538306">
<ele>274</ele>
</trkpt>
<trkpt lat="35.160239" lon="134.537993">
<ele>275</ele>
</trkpt>
<trkpt lat="35.159573" lon="134.536381">
<ele>282</ele>
</trkpt>
<trkpt lat="35.159356" lon="134.535918">
<ele>286</ele>
</trkpt>
<trkpt lat="35.158754" lon="134.534571">
<ele>292</ele>
</trkpt>
<trkpt lat="35.158289" lon="134.533531">
<ele>297</ele>
</trkpt>
<trkpt lat="35.158098" lon="134.533081">
<ele>296</ele>
</trkpt>
<trkpt lat="35.157931" lon="134.532631">
<ele>302</ele>
</trkpt>
<trkpt lat="35.157573" lon="134.531594">
<ele>302</ele>
</trkpt>
<trkpt lat="35.157448" lon="134.531219">
<ele>301</ele>
</trkpt>
<trkpt lat="35.157064" lon="134.530194">
<ele>303</ele>
</trkpt>
<trkpt lat="35.156648" lon="134.529032">
<ele>307</ele>
</trkpt>
<trkpt lat="35.156448" lon="134.528694">
<ele>308</ele>
</trkpt>
<trkpt lat="35.156114" lon="134.528132">
<ele>313</ele>
</trkpt>
<trkpt lat="35.154939" lon="134.526132">
<ele>325</ele>
</trkpt>
<trkpt lat="35.154581" lon="134.525369">
<ele>329</ele>
</trkpt>
<trkpt lat="35.154498" lon="134.52502">
<ele>334</ele>
</trkpt>
<trkpt lat="35.154373" lon="134.524032">
<ele>333</ele>
</trkpt>
<trkpt lat="35.154148" lon="134.523082">
<ele>339</ele>
</trkpt>
<trkpt lat="35.153748" lon="134.522045">
<ele>346</ele>
</trkpt>
<trkpt lat="35.153723" lon="134.521695">
<ele>346</ele>
</trkpt>
<trkpt lat="35.153731" lon="134.52157">
<ele>346</ele>
</trkpt>
<trkpt lat="35.153831" lon="134.520533">
<ele>355</ele>
</trkpt>
<trkpt lat="35.153815" lon="134.520433">
<ele>355</ele>
</trkpt>
<trkpt lat="35.153765" lon="134.519995">
<ele>355</ele>
</trkpt>
<trkpt lat="35.153723" lon="134.519658">
<ele>362</ele>
</trkpt>
<trkpt lat="35.153673" lon="134.519558">
<ele>362</ele>
</trkpt>
<trkpt lat="35.153623" lon="134.519395">
<ele>362</ele>
</trkpt>
<trkpt lat="35.153548" lon="134.519108">
<ele>360</ele>
</trkpt>
<trkpt lat="35.153498" lon="134.518583">
<ele>362</ele>
</trkpt>
<trkpt lat="35.153515" lon="134.517458">
<ele>366</ele>
</trkpt>
<trkpt lat="35.153548" lon="134.516608">
<ele>371</ele>
</trkpt>
<trkpt lat="35.153648" lon="134.516096">
<ele>376</ele>
</trkpt>
<trkpt lat="35.153648" lon="134.515783">
<ele>376</ele>
</trkpt>
<trkpt lat="35.153656" lon="134.515271">
<ele>380</ele>
</trkpt>
<trkpt lat="35.153615" lon="134.514971">
<ele>384</ele>
</trkpt>
<trkpt lat="35.153556" lon="134.514796">
<ele>385</ele>
</trkpt>
<trkpt lat="35.153456" lon="134.514471">
<ele>388</ele>
</trkpt>
<trkpt lat="35.153281" lon="134.513746">
<ele>394</ele>
</trkpt>
<trkpt lat="35.153106" lon="134.513109">
<ele>398</ele>
</trkpt>
<trkpt lat="35.15309" lon="134.512859">
<ele>401</ele>
</trkpt>
<trkpt lat="35.152957" lon="134.511646">
<ele>411</ele>
</trkpt>
<trkpt lat="35.153006" lon="134.511184">
<ele>415</ele>
</trkpt>
<trkpt lat="35.153106" lon="134.510834">
<ele>420</ele>
</trkpt>
<trkpt lat="35.153131" lon="134.510496">
<ele>425</ele>
</trkpt>
<trkpt lat="35.153098" lon="134.510259">
<ele>421</ele>
</trkpt>
<trkpt lat="35.153015" lon="134.509997">
<ele>425</ele>
</trkpt>
<trkpt lat="35.15284" lon="134.509747">
<ele>428</ele>
</trkpt>
<trkpt lat="35.152648" lon="134.509597">
<ele>428</ele>
</trkpt>
<trkpt lat="35.152515" lon="134.509534">
<ele>429</ele>
</trkpt>
<trkpt lat="35.152382" lon="134.509484">
<ele>428</ele>
</trkpt>
<trkpt lat="35.152132" lon="134.509409">
<ele>428</ele>
</trkpt>
<trkpt lat="35.151823" lon="134.509272">
<ele>430</ele>
</trkpt>
<trkpt lat="35.151682" lon="134.509184">
<ele>433</ele>
</trkpt>
<trkpt lat="35.151498" lon="134.509022">
<ele>438</ele>
</trkpt>
<trkpt lat="35.151423" lon="134.508834">
<ele>444</ele>
</trkpt>
<trkpt lat="35.151357" lon="134.508597">
<ele>443</ele>
</trkpt>
<trkpt lat="35.151348" lon="134.508322">
<ele>446</ele>
</trkpt>
<trkpt lat="35.151407" lon="134.507422">
<ele>452</ele>
</trkpt>
<trkpt lat="35.151415" lon="134.507122">
<ele>453</ele>
</trkpt>
<trkpt lat="35.151399" lon="134.506797">
<ele>455</ele>
</trkpt>
<trkpt lat="35.151365" lon="134.50656">
<ele>457</ele>
</trkpt>
<trkpt lat="35.15119" lon="134.505585">
<ele>475</ele>
</trkpt>
<trkpt lat="35.151115" lon="134.505147">
<ele>476</ele>
</trkpt>
<trkpt lat="35.150874" lon="134.503797">
<ele>496</ele>
</trkpt>
<trkpt lat="35.150699" lon="134.50271">
<ele>499</ele>
</trkpt>
<trkpt lat="35.149941" lon="134.497774">
<ele>511</ele>
</trkpt>
<trkpt lat="35.149866" lon="134.497274">
<ele>512</ele>
</trkpt>
<trkpt lat="35.149633" lon="134.495711">
<ele>516</ele>
</trkpt>
<trkpt lat="35.149441" lon="134.494499">
<ele>519</ele>
</trkpt>
<trkpt lat="35.149282" lon="134.493436">
<ele>522</ele>
</trkpt>
<trkpt lat="35.149091" lon="134.492111">
<ele>525</ele>
</trkpt>
<trkpt lat="35.149066" lon="134.490749">
<ele>528</ele>
</trkpt>
<trkpt lat="35.149074" lon="134.489799">
<ele>521</ele>
</trkpt>
<trkpt lat="35.149041" lon="134.489499">
<ele>519</ele>
</trkpt>
<trkpt lat="35.148966" lon="134.489174">
<ele>516</ele>
</trkpt>
<trkpt lat="35.148832" lon="134.488837">
<ele>516</ele>
</trkpt>
<trkpt lat="35.148533" lon="134.488287">
<ele>514</ele>
</trkpt>
<trkpt lat="35.148408" lon="134.488124">
<ele>514</ele>
</trkpt>
<trkpt lat="35.148332" lon="134.487849">
<ele>508</ele>
</trkpt>
<trkpt lat="35.148316" lon="134.487524">
<ele>506</ele>
</trkpt>
<trkpt lat="35.148416" lon="134.487024">
<ele>506</ele>
</trkpt>
<trkpt lat="35.148749" lon="134.486399">
<ele>506</ele>
</trkpt>
<trkpt lat="35.149057" lon="134.486024">
<ele>500</ele>
</trkpt>
<trkpt lat="35.149649" lon="134.485499">
<ele>496</ele>
</trkpt>
<trkpt lat="35.150216" lon="134.485137">
<ele>494</ele>
</trkpt>
<trkpt lat="35.150341" lon="134.485074">
<ele>489</ele>
</trkpt>
<trkpt lat="35.150549" lon="134.484924">
<ele>488</ele>
</trkpt>
<trkpt lat="35.150791" lon="134.484762">
<ele>485</ele>
</trkpt>
<trkpt lat="35.150932" lon="134.484624">
<ele>484</ele>
</trkpt>
<trkpt lat="35.151157" lon="134.484462">
<ele>481</ele>
</trkpt>
<trkpt lat="35.151307" lon="134.484287">
<ele>483</ele>
</trkpt>
<trkpt lat="35.151799" lon="134.483574">
<ele>479</ele>
</trkpt>
<trkpt lat="35.152015" lon="134.483224">
<ele>471</ele>
</trkpt>
<trkpt lat="35.152574" lon="134.481612">
<ele>457</ele>
</trkpt>
<trkpt lat="35.15269" lon="134.48135">
<ele>456</ele>
</trkpt>
<trkpt lat="35.153007" lon="134.480987">
<ele>456</ele>
</trkpt>
<trkpt lat="35.15314" lon="134.480937">
<ele>454</ele>
</trkpt>
<trkpt lat="35.153415" lon="134.480862">
<ele>456</ele>
</trkpt>
<trkpt lat="35.153848" lon="134.48085">
<ele>447</ele>
</trkpt>
<trkpt lat="35.154157" lon="134.480712">
<ele>443</ele>
</trkpt>
<trkpt lat="35.15429" lon="134.4806">
<ele>439</ele>
</trkpt>
<trkpt lat="35.154382" lon="134.4805">
<ele>438</ele>
</trkpt>
<trkpt lat="35.154598" lon="134.480087">
<ele>436</ele>
</trkpt>
<trkpt lat="35.155007" lon="134.479087">
<ele>432</ele>
</trkpt>
<trkpt lat="35.155173" lon="134.478762">
<ele>432</ele>
</trkpt>
<trkpt lat="35.155332" lon="134.47855">
<ele>434</ele>
</trkpt>
<trkpt lat="35.155573" lon="134.478237">
<ele>431</ele>
</trkpt>
<trkpt lat="35.156173" lon="134.477412">
<ele>430</ele>
</trkpt>
<trkpt lat="35.15684" lon="134.476412">
<ele>417</ele>
</trkpt>
<trkpt lat="35.156956" lon="134.4762">
<ele>416</ele>
</trkpt>
<trkpt lat="35.157015" lon="134.476">
<ele>415</ele>
</trkpt>
<trkpt lat="35.157106" lon="134.4757">
<ele>415</ele>
</trkpt>
<trkpt lat="35.15719" lon="134.475437">
<ele>414</ele>
</trkpt>
<trkpt lat="35.157356" lon="134.474875">
<ele>410</ele>
</trkpt>
<trkpt lat="35.15724" lon="134.473075">
<ele>402</ele>
</trkpt>
<trkpt lat="35.157323" lon="134.472788">
<ele>402</ele>
</trkpt>
<trkpt lat="35.157523" lon="134.472262">
<ele>398</ele>
</trkpt>
<trkpt lat="35.157773" lon="134.471675">
<ele>397</ele>
</trkpt>
<trkpt lat="35.157864" lon="134.471475">
<ele>397</ele>
</trkpt>
<trkpt lat="35.158048" lon="134.471013">
<ele>396</ele>
</trkpt>
<trkpt lat="35.158181" lon="134.4706">
<ele>394</ele>
</trkpt>
<trkpt lat="35.158231" lon="134.4704">
<ele>394</ele>
</trkpt>
<trkpt lat="35.158256" lon="134.47025">
<ele>394</ele>
</trkpt>
<trkpt lat="35.158239" lon="134.4698">
<ele>392</ele>
</trkpt>
<trkpt lat="35.158223" lon="134.469125">
<ele>392</ele>
</trkpt>
<trkpt lat="35.158223" lon="134.468875">
<ele>391</ele>
</trkpt>
<trkpt lat="35.158239" lon="134.4685">
<ele>391</ele>
</trkpt>
<trkpt lat="35.158439" lon="134.465438">
<ele>378</ele>
</trkpt>
<trkpt lat="35.158123" lon="134.464901">
<ele>378</ele>
</trkpt>
<trkpt lat="35.157989" lon="134.464588">
<ele>376</ele>
</trkpt>
<trkpt lat="35.157989" lon="134.464338">
<ele>376</ele>
</trkpt>
<trkpt lat="35.158023" lon="134.463901">
<ele>377</ele>
</trkpt>
<trkpt lat="35.158114" lon="134.462813">
<ele>372</ele>
</trkpt>
<trkpt lat="35.158172" lon="134.461938">
<ele>369</ele>
</trkpt>
<trkpt lat="35.158172" lon="134.461688">
<ele>368</ele>
</trkpt>
<trkpt lat="35.158131" lon="134.461301">
<ele>369</ele>
</trkpt>
<trkpt lat="35.158031" lon="134.460651">
<ele>366</ele>
</trkpt>
<trkpt lat="35.158039" lon="134.460526">
<ele>366</ele>
</trkpt>
<trkpt lat="35.158073" lon="134.460201">
<ele>364</ele>
</trkpt>
<trkpt lat="35.158164" lon="134.459463">
<ele>361</ele>
</trkpt>
<trkpt lat="35.158314" lon="134.458413">
<ele>360</ele>
</trkpt>
<trkpt lat="35.158323" lon="134.458301">
<ele>359</ele>
</trkpt>
<trkpt lat="35.158273" lon="134.458001">
<ele>358</ele>
</trkpt>
<trkpt lat="35.158073" lon="134.457114">
<ele>355</ele>
</trkpt>
<trkpt lat="35.158089" lon="134.456939">
<ele>355</ele>
</trkpt>
<trkpt lat="35.158131" lon="134.456739">
<ele>355</ele>
</trkpt>
<trkpt lat="35.158223" lon="134.456314">
<ele>354</ele>
</trkpt>
<trkpt lat="35.158381" lon="134.455451">
<ele>351</ele>
</trkpt>
<trkpt lat="35.158431" lon="134.454964">
<ele>350</ele>
</trkpt>
<trkpt lat="35.158522" lon="134.454176">
<ele>351</ele>
</trkpt>
<trkpt lat="35.158531" lon="134.453939">
<ele>349</ele>
</trkpt>
<trkpt lat="35.158547" lon="134.453801">
<ele>348</ele>
</trkpt>
<trkpt lat="35.158539" lon="134.453301">
<ele>347</ele>
</trkpt>
<trkpt lat="35.158531" lon="134.453139">
<ele>347</ele>
</trkpt>
<trkpt lat="35.158531" lon="134.452726">
<ele>346</ele>
</trkpt>
<trkpt lat="35.158414" lon="134.452401">
<ele>344</ele>
</trkpt>
<trkpt lat="35.158247" lon="134.452051">
<ele>343</ele>
</trkpt>
<trkpt lat="35.158147" lon="134.451889">
<ele>342</ele>
</trkpt>
<trkpt lat="35.157889" lon="134.451276">
<ele>342</ele>
</trkpt>
<trkpt lat="35.157772" lon="134.450964">
<ele>340</ele>
</trkpt>
<trkpt lat="35.157497" lon="134.450202">
<ele>337</ele>
</trkpt>
<trkpt lat="35.157314" lon="134.449764">
<ele>336</ele>
</trkpt>
<trkpt lat="35.157139" lon="134.449289">
<ele>335</ele>
</trkpt>
<trkpt lat="35.156989" lon="134.448977">
<ele>334</ele>
</trkpt>
<trkpt lat="35.156831" lon="134.448727">
<ele>333</ele>
</trkpt>
<trkpt lat="35.156564" lon="134.448352">
<ele>332</ele>
</trkpt>
<trkpt lat="35.156372" lon="134.448064">
<ele>331</ele>
</trkpt>
<trkpt lat="35.156298" lon="134.447952">
<ele>331</ele>
</trkpt>
<trkpt lat="35.156214" lon="134.447777">
<ele>330</ele>
</trkpt>
<trkpt lat="35.156147" lon="134.447577">
<ele>330</ele>
</trkpt>
<trkpt lat="35.156064" lon="134.447177">
<ele>329</ele>
</trkpt>
<trkpt lat="35.155889" lon="134.446402">
<ele>327</ele>
</trkpt>
<trkpt lat="35.155723" lon="134.446327">
<ele>326</ele>
</trkpt>
<trkpt lat="35.155448" lon="134.446177">
<ele>326</ele>
</trkpt>
<trkpt lat="35.155139" lon="134.446014">
<ele>325</ele>
</trkpt>
<trkpt lat="35.154939" lon="134.445914">
<ele>326</ele>
</trkpt>
<trkpt lat="35.154681" lon="134.445739">
<ele>326</ele>
</trkpt>
<trkpt lat="35.154573" lon="134.445639">
<ele>326</ele>
</trkpt>
<trkpt lat="35.154439" lon="134.445502">
<ele>327</ele>
</trkpt>
<trkpt lat="35.154256" lon="134.445227">
<ele>324</ele>
</trkpt>
<trkpt lat="35.154164" lon="134.445152">
<ele>324</ele>
</trkpt>
<trkpt lat="35.153997" lon="134.445127">
<ele>323</ele>
</trkpt>
<trkpt lat="35.153623" lon="134.445202">
<ele>323</ele>
</trkpt>
<trkpt lat="35.153031" lon="134.445315">
<ele>322</ele>
</trkpt>
<trkpt lat="35.152231" lon="134.44554">
<ele>321</ele>
</trkpt>
<trkpt lat="35.152173" lon="134.445552">
<ele>321</ele>
</trkpt>
<trkpt lat="35.151973" lon="134.445627">
<ele>323</ele>
</trkpt>
<trkpt lat="35.151831" lon="134.445665">
<ele>323</ele>
</trkpt>
<trkpt lat="35.151714" lon="134.445652">
<ele>323</ele>
</trkpt>
<trkpt lat="35.151573" lon="134.445627">
<ele>320</ele>
</trkpt>
<trkpt lat="35.151281" lon="134.44549">
<ele>318</ele>
</trkpt>
<trkpt lat="35.150915" lon="134.445415">
<ele>318</ele>
</trkpt>
<trkpt lat="35.15084" lon="134.445402">
<ele>318</ele>
</trkpt>
<trkpt lat="35.14969" lon="134.445215">
<ele>318</ele>
</trkpt>
<trkpt lat="35.149465" lon="134.44514">
<ele>317</ele>
</trkpt>
<trkpt lat="35.149248" lon="134.445078">
<ele>316</ele>
</trkpt>
<trkpt lat="35.149098" lon="134.445028">
<ele>316</ele>
</trkpt>
<trkpt lat="35.149023" lon="134.44499">
<ele>316</ele>
</trkpt>
<trkpt lat="35.148565" lon="134.444652">
<ele>316</ele>
</trkpt>
<trkpt lat="35.148273" lon="134.44449">
<ele>317</ele>
</trkpt>
<trkpt lat="35.147332" lon="134.44429">
<ele>317</ele>
</trkpt>
<trkpt lat="35.146848" lon="134.444203">
<ele>317</ele>
</trkpt>
<trkpt lat="35.146707" lon="134.444165">
<ele>317</ele>
</trkpt>
<trkpt lat="35.14659" lon="134.444103">
<ele>316</ele>
</trkpt>
<trkpt lat="35.14649" lon="134.444003">
<ele>316</ele>
</trkpt>
<trkpt lat="35.146423" lon="134.443903">
<ele>314</ele>
</trkpt>
<trkpt lat="35.146365" lon="134.443728">
<ele>311</ele>
</trkpt>
<trkpt lat="35.146323" lon="134.443465">
<ele>311</ele>
</trkpt>
<trkpt lat="35.146332" lon="134.443228">
<ele>310</ele>
</trkpt>
<trkpt lat="35.146382" lon="134.442928">
<ele>308</ele>
</trkpt>
<trkpt lat="35.145615" lon="134.442478">
<ele>307</ele>
</trkpt>
<trkpt lat="35.145449" lon="134.44234">
<ele>306</ele>
</trkpt>
<trkpt lat="35.145182" lon="134.442078">
<ele>306</ele>
</trkpt>
<trkpt lat="35.144815" lon="134.441591">
<ele>305</ele>
</trkpt>
<trkpt lat="35.144682" lon="134.441391">
<ele>305</ele>
</trkpt>
<trkpt lat="35.144654" lon="134.441323">
<ele>305</ele>
</trkpt>
<trkpt lat="35.144574" lon="134.441128">
<ele>305</ele>
</trkpt>
<trkpt lat="35.144524" lon="134.440953">
<ele>306</ele>
</trkpt>
<trkpt lat="35.144449" lon="134.440666">
<ele>305</ele>
</trkpt>
<trkpt lat="35.144374" lon="134.440353">
<ele>306</ele>
</trkpt>
<trkpt lat="35.144249" lon="134.440128">
<ele>307</ele>
</trkpt>
<trkpt lat="35.144132" lon="134.439991">
<ele>307</ele>
</trkpt>
<trkpt lat="35.144032" lon="134.439891">
<ele>308</ele>
</trkpt>
<trkpt lat="35.143882" lon="134.439778">
<ele>308</ele>
</trkpt>
<trkpt lat="35.143649" lon="134.439666">
<ele>305</ele>
</trkpt>
<trkpt lat="35.143457" lon="134.439603">
<ele>304</ele>
</trkpt>
<trkpt lat="35.142907" lon="134.439566">
<ele>305</ele>
</trkpt>
<trkpt lat="35.141257" lon="134.439641">
<ele>299</ele>
</trkpt>
<trkpt lat="35.140874" lon="134.439678">
<ele>298</ele>
</trkpt>
<trkpt lat="35.139566" lon="134.439816">
<ele>297</ele>
</trkpt>
<trkpt lat="35.139332" lon="134.439841">
<ele>294</ele>
</trkpt>
<trkpt lat="35.138957" lon="134.439991">
<ele>294</ele>
</trkpt>
<trkpt lat="35.138624" lon="134.440116">
<ele>298</ele>
</trkpt>
<trkpt lat="35.138449" lon="134.440129">
<ele>298</ele>
</trkpt>
<trkpt lat="35.138258" lon="134.440129">
<ele>298</ele>
</trkpt>
<trkpt lat="35.137841" lon="134.440054">
<ele>297</ele>
</trkpt>
<trkpt lat="35.137208" lon="134.439904">
<ele>296</ele>
</trkpt>
<trkpt lat="35.136991" lon="134.439804">
<ele>296</ele>
</trkpt>
<trkpt lat="35.136849" lon="134.439716">
<ele>295</ele>
</trkpt>
<trkpt lat="35.136691" lon="134.439579">
<ele>293</ele>
</trkpt>
<trkpt lat="35.136308" lon="134.439191">
<ele>292</ele>
</trkpt>
<trkpt lat="35.135749" lon="134.438629">
<ele>289</ele>
</trkpt>
<trkpt lat="35.135449" lon="134.438391">
<ele>288</ele>
</trkpt>
<trkpt lat="35.135233" lon="134.438316">
<ele>288</ele>
</trkpt>
<trkpt lat="35.134641" lon="134.438141">
<ele>288</ele>
</trkpt>
<trkpt lat="35.134058" lon="134.437941">
<ele>288</ele>
</trkpt>
<trkpt lat="35.133616" lon="134.437679">
<ele>288</ele>
</trkpt>
<trkpt lat="35.1324" lon="134.436954">
<ele>287</ele>
</trkpt>
<trkpt lat="35.131417" lon="134.436467">
<ele>288</ele>
</trkpt>
<trkpt lat="35.130825" lon="134.436292">
<ele>287</ele>
</trkpt>
<trkpt lat="35.129367" lon="134.435992">
<ele>286</ele>
</trkpt>
<trkpt lat="35.128242" lon="134.435792">
<ele>286</ele>
</trkpt>
<trkpt lat="35.128025" lon="134.435717">
<ele>285</ele>
</trkpt>
<trkpt lat="35.127825" lon="134.435604">
<ele>285</ele>
</trkpt>
<trkpt lat="35.127542" lon="134.435367">
<ele>285</ele>
</trkpt>
<trkpt lat="35.1274" lon="134.435179">
<ele>284</ele>
</trkpt>
<trkpt lat="35.127175" lon="134.434779">
<ele>284</ele>
</trkpt>
<trkpt lat="35.127059" lon="134.434704">
<ele>284</ele>
</trkpt>
<trkpt lat="35.126792" lon="134.434717">
<ele>285</ele>
</trkpt>
<trkpt lat="35.126701" lon="134.434842">
<ele>286</ele>
</trkpt>
<trkpt lat="35.126617" lon="134.435029">
<ele>285</ele>
</trkpt>
<trkpt lat="35.126592" lon="134.435354">
<ele>286</ele>
</trkpt>
<trkpt lat="35.126584" lon="134.435704">
<ele>286</ele>
</trkpt>
<trkpt lat="35.126734" lon="134.437167">
<ele>278</ele>
</trkpt>
<trkpt lat="35.126742" lon="134.437504">
<ele>277</ele>
</trkpt>
<trkpt lat="35.126526" lon="134.438479">
<ele>275</ele>
</trkpt>
<trkpt lat="35.126492" lon="134.438604">
<ele>276</ele>
</trkpt>
<trkpt lat="35.126351" lon="134.439029">
<ele>276</ele>
</trkpt>
<trkpt lat="35.126259" lon="134.439229">
<ele>276</ele>
</trkpt>
<trkpt lat="35.126117" lon="134.439529">
<ele>274</ele>
</trkpt>
<trkpt lat="35.125976" lon="134.439754">
<ele>272</ele>
</trkpt>
<trkpt lat="35.125642" lon="134.440167">
<ele>273</ele>
</trkpt>
<trkpt lat="35.125334" lon="134.440492">
<ele>269</ele>
</trkpt>
<trkpt lat="35.125226" lon="134.440579">
<ele>269</ele>
</trkpt>
<trkpt lat="35.124592" lon="134.440917">
<ele>269</ele>
</trkpt>
<trkpt lat="35.124192" lon="134.441104">
<ele>269</ele>
</trkpt>
<trkpt lat="35.123976" lon="134.441204">
<ele>268</ele>
</trkpt>
<trkpt lat="35.122109" lon="134.441867">
<ele>265</ele>
</trkpt>
<trkpt lat="35.121751" lon="134.442029">
<ele>265</ele>
</trkpt>
<trkpt lat="35.120618" lon="134.442667">
<ele>266</ele>
</trkpt>
<trkpt lat="35.120443" lon="134.442742">
<ele>265</ele>
</trkpt>
<trkpt lat="35.120276" lon="134.442779">
<ele>266</ele>
</trkpt>
<trkpt lat="35.119926" lon="134.442804">
<ele>266</ele>
</trkpt>
<trkpt lat="35.119868" lon="134.442804">
<ele>266</ele>
</trkpt>
<trkpt lat="35.11871" lon="134.442879">
<ele>262</ele>
</trkpt>
<trkpt lat="35.11836" lon="134.442879">
<ele>260</ele>
</trkpt>
<trkpt lat="35.117068" lon="134.442917">
<ele>259</ele>
</trkpt>
<trkpt lat="35.116785" lon="134.442967">
<ele>258</ele>
</trkpt>
<trkpt lat="35.116477" lon="134.443042">
<ele>258</ele>
</trkpt>
<trkpt lat="35.116243" lon="134.443117">
<ele>259</ele>
</trkpt>
<trkpt lat="35.114627" lon="134.443954">
<ele>258</ele>
</trkpt>
<trkpt lat="35.114402" lon="134.444042">
<ele>258</ele>
</trkpt>
<trkpt lat="35.113352" lon="134.444279">
<ele>257</ele>
</trkpt>
<trkpt lat="35.112627" lon="134.444442">
<ele>262</ele>
</trkpt>
<trkpt lat="35.112419" lon="134.444479">
<ele>264</ele>
</trkpt>
<trkpt lat="35.112298" lon="134.444497">
<ele>264</ele>
</trkpt>
<trkpt lat="35.112244" lon="134.444504">
<ele>264</ele>
</trkpt>
<trkpt lat="35.112119" lon="134.444479">
<ele>264</ele>
</trkpt>
<trkpt lat="35.111952" lon="134.444342">
<ele>264</ele>
</trkpt>
<trkpt lat="35.111827" lon="134.444204">
<ele>262</ele>
</trkpt>
<trkpt lat="35.111119" lon="134.443454">
<ele>265</ele>
</trkpt>
<trkpt lat="35.111052" lon="134.443379">
<ele>264</ele>
</trkpt>
<trkpt lat="35.110852" lon="134.443267">
<ele>259</ele>
</trkpt>
<trkpt lat="35.110011" lon="134.442917">
<ele>254</ele>
</trkpt>
<trkpt lat="35.109852" lon="134.442867">
<ele>253</ele>
</trkpt>
<trkpt lat="35.109669" lon="134.442792">
<ele>251</ele>
</trkpt>
<trkpt lat="35.109469" lon="134.442617">
<ele>247</ele>
</trkpt>
<trkpt lat="35.109119" lon="134.442179">
<ele>248</ele>
</trkpt>
<trkpt lat="35.108927" lon="134.442005">
<ele>247</ele>
</trkpt>
<trkpt lat="35.108652" lon="134.441842">
<ele>248</ele>
</trkpt>
<trkpt lat="35.108369" lon="134.44173">
<ele>247</ele>
</trkpt>
<trkpt lat="35.108136" lon="134.441605">
<ele>247</ele>
</trkpt>
<trkpt lat="35.108036" lon="134.441505">
<ele>248</ele>
</trkpt>
<trkpt lat="35.107927" lon="134.44133">
<ele>248</ele>
</trkpt>
<trkpt lat="35.107827" lon="134.44113">
<ele>247</ele>
</trkpt>
<trkpt lat="35.107753" lon="134.440817">
<ele>247</ele>
</trkpt>
<trkpt lat="35.107736" lon="134.440605">
<ele>247</ele>
</trkpt>
<trkpt lat="35.107752" lon="134.44043">
<ele>247</ele>
</trkpt>
<trkpt lat="35.107794" lon="134.440167">
<ele>248</ele>
</trkpt>
<trkpt lat="35.107877" lon="134.439842">
<ele>247</ele>
</trkpt>
<trkpt lat="35.107911" lon="134.439605">
<ele>248</ele>
</trkpt>
<trkpt lat="35.107936" lon="134.439167">
<ele>247</ele>
</trkpt>
<trkpt lat="35.107961" lon="134.438168">
<ele>244</ele>
</trkpt>
<trkpt lat="35.108002" lon="134.437668">
<ele>247</ele>
</trkpt>
<trkpt lat="35.108019" lon="134.43723">
<ele>247</ele>
</trkpt>
<trkpt lat="35.108019" lon="134.437017">
<ele>247</ele>
</trkpt>
<trkpt lat="35.107969" lon="134.436793">
<ele>245</ele>
</trkpt>
<trkpt lat="35.107811" lon="134.43648">
<ele>246</ele>
</trkpt>
<trkpt lat="35.107686" lon="134.436293">
<ele>246</ele>
</trkpt>
<trkpt lat="35.107319" lon="134.435755">
<ele>245</ele>
</trkpt>
<trkpt lat="35.107227" lon="134.435705">
<ele>245</ele>
</trkpt>
<trkpt lat="35.107077" lon="134.43568">
<ele>240</ele>
</trkpt>
<trkpt lat="35.106552" lon="134.435655">
<ele>238</ele>
</trkpt>
<trkpt lat="35.106152" lon="134.435755">
<ele>238</ele>
</trkpt>
<trkpt lat="35.104819" lon="134.436318">
<ele>238</ele>
</trkpt>
<trkpt lat="35.104461" lon="134.43648">
<ele>237</ele>
</trkpt>
<trkpt lat="35.103944" lon="134.43668">
<ele>237</ele>
</trkpt>
<trkpt lat="35.103544" lon="134.43678">
<ele>237</ele>
</trkpt>
<trkpt lat="35.102794" lon="134.43693">
<ele>236</ele>
</trkpt>
<trkpt lat="35.102386" lon="134.436968">
<ele>237</ele>
</trkpt>
<trkpt lat="35.102219" lon="134.43698">
<ele>236</ele>
</trkpt>
<trkpt lat="35.102111" lon="134.436943">
<ele>236</ele>
</trkpt>
<trkpt lat="35.101944" lon="134.436743">
<ele>235</ele>
</trkpt>
<trkpt lat="35.101653" lon="134.436355">
<ele>232</ele>
</trkpt>
<trkpt lat="35.101336" lon="134.435743">
<ele>237</ele>
</trkpt>
<trkpt lat="35.100903" lon="134.43478">
<ele>231</ele>
</trkpt>
<trkpt lat="35.099811" lon="134.431956">
<ele>227</ele>
</trkpt>
<trkpt lat="35.09967" lon="134.431606">
<ele>228</ele>
</trkpt>
<trkpt lat="35.099611" lon="134.431493">
<ele>227</ele>
</trkpt>
<trkpt lat="35.09952" lon="134.431393">
<ele>226</ele>
</trkpt>
<trkpt lat="35.099278" lon="134.431231">
<ele>226</ele>
</trkpt>
<trkpt lat="35.098503" lon="134.430731">
<ele>227</ele>
</trkpt>
<trkpt lat="35.098103" lon="134.430381">
<ele>226</ele>
</trkpt>
<trkpt lat="35.097895" lon="134.430156">
<ele>227</ele>
</trkpt>
<trkpt lat="35.097553" lon="134.429768">
<ele>227</ele>
</trkpt>
<trkpt lat="35.096845" lon="134.428969">
<ele>225</ele>
</trkpt>
<trkpt lat="35.096528" lon="134.428494">
<ele>222</ele>
</trkpt>
<trkpt lat="35.096237" lon="134.428056">
<ele>219</ele>
</trkpt>
<trkpt lat="35.096062" lon="134.427806">
<ele>218</ele>
</trkpt>
<trkpt lat="35.094745" lon="134.426181">
<ele>217</ele>
</trkpt>
<trkpt lat="35.094645" lon="134.426094">
<ele>217</ele>
</trkpt>
<trkpt lat="35.094537" lon="134.426069">
<ele>216</ele>
</trkpt>
<trkpt lat="35.094087" lon="134.426131">
<ele>216</ele>
</trkpt>
<trkpt lat="35.093912" lon="134.426094">
<ele>217</ele>
</trkpt>
<trkpt lat="35.09362" lon="134.425969">
<ele>218</ele>
</trkpt>
<trkpt lat="35.093004" lon="134.425681">
<ele>218</ele>
</trkpt>
<trkpt lat="35.092754" lon="134.425569">
<ele>218</ele>
</trkpt>
<trkpt lat="35.092562" lon="134.425456">
<ele>217</ele>
</trkpt>
<trkpt lat="35.092412" lon="134.425419">
<ele>216</ele>
</trkpt>
<trkpt lat="35.092079" lon="134.425407">
<ele>216</ele>
</trkpt>
<trkpt lat="35.090962" lon="134.425632">
<ele>215</ele>
</trkpt>
<trkpt lat="35.090787" lon="134.425707">
<ele>216</ele>
</trkpt>
<trkpt lat="35.090462" lon="134.425869">
<ele>216</ele>
</trkpt>
<trkpt lat="35.090321" lon="134.425982">
<ele>216</ele>
</trkpt>
<trkpt lat="35.090221" lon="134.426082">
<ele>216</ele>
</trkpt>
<trkpt lat="35.090029" lon="134.426307">
<ele>216</ele>
</trkpt>
<trkpt lat="35.089862" lon="134.426557">
<ele>213</ele>
</trkpt>
<trkpt lat="35.089579" lon="134.426994">
<ele>213</ele>
</trkpt>
<trkpt lat="35.089421" lon="134.427356">
<ele>212</ele>
</trkpt>
<trkpt lat="35.089337" lon="134.427619">
<ele>215</ele>
</trkpt>
<trkpt lat="35.089304" lon="134.427744">
<ele>213</ele>
</trkpt>
<trkpt lat="35.089271" lon="134.427919">
<ele>214</ele>
</trkpt>
<trkpt lat="35.089087" lon="134.429006">
<ele>209</ele>
</trkpt>
<trkpt lat="35.088787" lon="134.430781">
<ele>219</ele>
</trkpt>
<trkpt lat="35.088646" lon="134.431519">
<ele>213</ele>
</trkpt>
<trkpt lat="35.088479" lon="134.431844">
<ele>209</ele>
</trkpt>
<trkpt lat="35.086888" lon="134.433744">
<ele>203</ele>
</trkpt>
<trkpt lat="35.086571" lon="134.434094">
<ele>203</ele>
</trkpt>
<trkpt lat="35.086529" lon="134.434144">
<ele>204</ele>
</trkpt>
<trkpt lat="35.086396" lon="134.434256">
<ele>204</ele>
</trkpt>
<trkpt lat="35.086279" lon="134.434331">
<ele>204</ele>
</trkpt>
<trkpt lat="35.086104" lon="134.434381">
<ele>205</ele>
</trkpt>
<trkpt lat="35.085479" lon="134.434419">
<ele>205</ele>
</trkpt>
<trkpt lat="35.085229" lon="134.434419">
<ele>205</ele>
</trkpt>
<trkpt lat="35.085013" lon="134.434394">
<ele>206</ele>
</trkpt>
<trkpt lat="35.08483" lon="134.434281">
<ele>206</ele>
</trkpt>
<trkpt lat="35.08458" lon="134.434106">
<ele>205</ele>
</trkpt>
<trkpt lat="35.082921" lon="134.432944">
<ele>204</ele>
</trkpt>
<trkpt lat="35.082617" lon="134.432732">
<ele>204</ele>
</trkpt>
<trkpt lat="35.08188" lon="134.432219">
<ele>203</ele>
</trkpt>
<trkpt lat="35.080747" lon="134.431419">
<ele>206</ele>
</trkpt>
<trkpt lat="35.080597" lon="134.431306">
<ele>206</ele>
</trkpt>
<trkpt lat="35.080413" lon="134.431106">
<ele>206</ele>
</trkpt>
<trkpt lat="35.079955" lon="134.430494">
<ele>206</ele>
</trkpt>
<trkpt lat="35.079855" lon="134.430344">
<ele>207</ele>
</trkpt>
<trkpt lat="35.079697" lon="134.430007">
<ele>203</ele>
</trkpt>
<trkpt lat="35.079288" lon="134.429007">
<ele>205</ele>
</trkpt>
<trkpt lat="35.079047" lon="134.428419">
<ele>204</ele>
</trkpt>
<trkpt lat="35.078922" lon="134.428194">
<ele>204</ele>
</trkpt>
<trkpt lat="35.078738" lon="134.427919">
<ele>205</ele>
</trkpt>
<trkpt lat="35.07858" lon="134.427707">
<ele>203</ele>
</trkpt>
<trkpt lat="35.078422" lon="134.427544">
<ele>202</ele>
</trkpt>
<trkpt lat="35.078255" lon="134.427407">
<ele>202</ele>
</trkpt>
<trkpt lat="35.07813" lon="134.427357">
<ele>202</ele>
</trkpt>
<trkpt lat="35.077914" lon="134.427307">
<ele>202</ele>
</trkpt>
<trkpt lat="35.077739" lon="134.427294">
<ele>203</ele>
</trkpt>
<trkpt lat="35.077472" lon="134.427282">
<ele>204</ele>
</trkpt>
<trkpt lat="35.077305" lon="134.427307">
<ele>202</ele>
</trkpt>
<trkpt lat="35.077039" lon="134.427482">
<ele>201</ele>
</trkpt>
<trkpt lat="35.075447" lon="134.428594">
<ele>196</ele>
</trkpt>
<trkpt lat="35.075331" lon="134.428669">
<ele>197</ele>
</trkpt>
<trkpt lat="35.074681" lon="134.429294">
<ele>194</ele>
</trkpt>
<trkpt lat="35.074431" lon="134.429544">
<ele>192</ele>
</trkpt>
<trkpt lat="35.074281" lon="134.429682">
<ele>193</ele>
</trkpt>
<trkpt lat="35.074197" lon="134.429719">
<ele>193</ele>
</trkpt>
<trkpt lat="35.074106" lon="134.429744">
<ele>193</ele>
</trkpt>
<trkpt lat="35.073989" lon="134.429744">
<ele>193</ele>
</trkpt>
<trkpt lat="35.073614" lon="134.429669">
<ele>195</ele>
</trkpt>
<trkpt lat="35.073406" lon="134.429594">
<ele>194</ele>
</trkpt>
<trkpt lat="35.072973" lon="134.429432">
<ele>194</ele>
</trkpt>
<trkpt lat="35.072764" lon="134.429307">
<ele>195</ele>
</trkpt>
<trkpt lat="35.072389" lon="134.429019">
<ele>193</ele>
</trkpt>
<trkpt lat="35.072231" lon="134.428869">
<ele>192</ele>
</trkpt>
<trkpt lat="35.071981" lon="134.428569">
<ele>193</ele>
</trkpt>
<trkpt lat="35.071798" lon="134.428294">
<ele>193</ele>
</trkpt>
<trkpt lat="35.071681" lon="134.428019">
<ele>191</ele>
</trkpt>
<trkpt lat="35.071606" lon="134.427632">
<ele>190</ele>
</trkpt>
<trkpt lat="35.071348" lon="134.425982">
<ele>186</ele>
</trkpt>
<trkpt lat="35.071214" lon="134.424957">
<ele>183</ele>
</trkpt>
<trkpt lat="35.071173" lon="134.424807">
<ele>183</ele>
</trkpt>
<trkpt lat="35.071047" lon="134.42432">
<ele>182</ele>
</trkpt>
<trkpt lat="35.070806" lon="134.42357">
<ele>185</ele>
</trkpt>
<trkpt lat="35.070456" lon="134.42252">
<ele>185</ele>
</trkpt>
<trkpt lat="35.070256" lon="134.422157">
<ele>185</ele>
</trkpt>
<trkpt lat="35.070056" lon="134.421908">
<ele>185</ele>
</trkpt>
<trkpt lat="35.069839" lon="134.421707">
<ele>185</ele>
</trkpt>
<trkpt lat="35.069173" lon="134.421207">
<ele>185</ele>
</trkpt>
<trkpt lat="35.067306" lon="134.41982">
<ele>181</ele>
</trkpt>
<trkpt lat="35.066998" lon="134.41962">
<ele>181</ele>
</trkpt>
<trkpt lat="35.066948" lon="134.419595">
<ele>181</ele>
</trkpt>
<trkpt lat="35.066698" lon="134.41952">
<ele>180</ele>
</trkpt>
<trkpt lat="35.066356" lon="134.419495">
<ele>181</ele>
</trkpt>
<trkpt lat="35.06609" lon="134.41952">
<ele>180</ele>
</trkpt>
<trkpt lat="35.065781" lon="134.419633">
<ele>180</ele>
</trkpt>
<trkpt lat="35.065506" lon="134.41982">
<ele>179</ele>
</trkpt>
<trkpt lat="35.062815" lon="134.421957">
<ele>173</ele>
</trkpt>
<trkpt lat="35.062132" lon="134.422507">
<ele>172</ele>
</trkpt>
<trkpt lat="35.061907" lon="134.42272">
<ele>172</ele>
</trkpt>
<trkpt lat="35.061765" lon="134.422945">
<ele>172</ele>
</trkpt>
<trkpt lat="35.061632" lon="134.423207">
<ele>173</ele>
</trkpt>
<trkpt lat="35.061474" lon="134.423695">
<ele>172</ele>
</trkpt>
<trkpt lat="35.061415" lon="134.423908">
<ele>171</ele>
</trkpt>
<trkpt lat="35.06129" lon="134.42417">
<ele>170</ele>
</trkpt>
<trkpt lat="35.061132" lon="134.42432">
<ele>170</ele>
</trkpt>
<trkpt lat="35.061049" lon="134.424395">
<ele>171</ele>
</trkpt>
<trkpt lat="35.06089" lon="134.424457">
<ele>172</ele>
</trkpt>
<trkpt lat="35.060091" lon="134.42467">
<ele>173</ele>
</trkpt>
<trkpt lat="35.059899" lon="134.424745">
<ele>173</ele>
</trkpt>
<trkpt lat="35.059832" lon="134.424782">
<ele>173</ele>
</trkpt>
<trkpt lat="35.059699" lon="134.424895">
<ele>173</ele>
</trkpt>
<trkpt lat="35.059382" lon="134.425207">
<ele>172</ele>
</trkpt>
<trkpt lat="35.059099" lon="134.425432">
<ele>172</ele>
</trkpt>
<trkpt lat="35.058432" lon="134.42587">
<ele>171</ele>
</trkpt>
<trkpt lat="35.058432" lon="134.426457">
<ele>176</ele>
</trkpt>
<trkpt lat="35.058391" lon="134.42662">
<ele>177</ele>
</trkpt>
<trkpt lat="35.058299" lon="134.426745">
<ele>176</ele>
</trkpt>
<trkpt lat="35.058166" lon="134.426832">
<ele>176</ele>
</trkpt>
<trkpt lat="35.057216" lon="134.427045">
<ele>176</ele>
</trkpt>
<trkpt lat="35.057024" lon="134.427145">
<ele>180</ele>
</trkpt>
<trkpt lat="35.056866" lon="134.42727">
<ele>182</ele>
</trkpt>
<trkpt lat="35.056757" lon="134.427395">
<ele>183</ele>
</trkpt>
<trkpt lat="35.056716" lon="134.42752">
<ele>184</ele>
</trkpt>
<trkpt lat="35.056741" lon="134.427783">
<ele>185</ele>
</trkpt>
<trkpt lat="35.056857" lon="134.428195">
<ele>186</ele>
</trkpt>
<trkpt lat="35.056874" lon="134.428908">
<ele>184</ele>
</trkpt>
<trkpt lat="35.056908" lon="134.429245">
<ele>185</ele>
</trkpt>
<trkpt lat="35.05694" lon="134.429427">
<ele>184</ele>
</trkpt>
<trkpt lat="35.056941" lon="134.429432">
<ele>184</ele>
</trkpt>
<trkpt lat="35.057007" lon="134.429532">
<ele>185</ele>
</trkpt>
<trkpt lat="35.057108" lon="134.429645">
<ele>183</ele>
</trkpt>
<trkpt lat="35.057308" lon="134.42982">
<ele>186</ele>
</trkpt>
<trkpt lat="35.057774" lon="134.43017">
<ele>194</ele>
</trkpt>
<trkpt lat="35.058066" lon="134.430407">
<ele>195</ele>
</trkpt>
<trkpt lat="35.058149" lon="134.430495">
<ele>196</ele>
</trkpt>
<trkpt lat="35.058432" lon="134.43092">
<ele>194</ele>
</trkpt>
<trkpt lat="35.058549" lon="134.431007">
<ele>195</ele>
</trkpt>
<trkpt lat="35.058616" lon="134.431032">
<ele>196</ele>
</trkpt>
<trkpt lat="35.058682" lon="134.431032">
<ele>199</ele>
</trkpt>
<trkpt lat="35.058957" lon="134.43087">
<ele>207</ele>
</trkpt>
<trkpt lat="35.059082" lon="134.430857">
<ele>208</ele>
</trkpt>
<trkpt lat="35.059166" lon="134.430882">
<ele>208</ele>
</trkpt>
<trkpt lat="35.059282" lon="134.430982">
<ele>202</ele>
</trkpt>
<trkpt lat="35.059374" lon="134.431145">
<ele>206</ele>
</trkpt>
<trkpt lat="35.059582" lon="134.431657">
<ele>206</ele>
</trkpt>
<trkpt lat="35.059566" lon="134.431782">
<ele>204</ele>
</trkpt>
<trkpt lat="35.059524" lon="134.431919">
<ele>205</ele>
</trkpt>
<trkpt lat="35.059424" lon="134.432057">
<ele>206</ele>
</trkpt>
<trkpt lat="35.059241" lon="134.432232">
<ele>209</ele>
</trkpt>
<trkpt lat="35.058807" lon="134.432519">
<ele>214</ele>
</trkpt>
<trkpt lat="35.058666" lon="134.432669">
<ele>212</ele>
</trkpt>
<trkpt lat="35.058574" lon="134.432819">
<ele>213</ele>
</trkpt>
<trkpt lat="35.058308" lon="134.433507">
<ele>216</ele>
</trkpt>
<trkpt lat="35.058199" lon="134.433669">
<ele>223</ele>
</trkpt>
<trkpt lat="35.058099" lon="134.433782">
<ele>224</ele>
</trkpt>
<trkpt lat="35.057799" lon="134.433944">
<ele>224</ele>
</trkpt>
<trkpt lat="35.057507" lon="134.434144">
<ele>224</ele>
</trkpt>
<trkpt lat="35.057416" lon="134.434219">
<ele>222</ele>
</trkpt>
<trkpt lat="35.057308" lon="134.434382">
<ele>231</ele>
</trkpt>
<trkpt lat="35.057049" lon="134.434882">
<ele>234</ele>
</trkpt>
<trkpt lat="35.056849" lon="134.435182">
<ele>233</ele>
</trkpt>
<trkpt lat="35.056732" lon="134.435357">
<ele>234</ele>
</trkpt>
<trkpt lat="35.056591" lon="134.435507">
<ele>234</ele>
</trkpt>
<trkpt lat="35.055924" lon="134.436144">
<ele>238</ele>
</trkpt>
<trkpt lat="35.055708" lon="134.436444">
<ele>244</ele>
</trkpt>
<trkpt lat="35.055566" lon="134.436657">
<ele>245</ele>
</trkpt>
<trkpt lat="35.055133" lon="134.437557">
<ele>247</ele>
</trkpt>
<trkpt lat="35.054283" lon="134.439294">
<ele>239</ele>
</trkpt>
<trkpt lat="35.053575" lon="134.440719">
<ele>231</ele>
</trkpt>
<trkpt lat="35.053116" lon="134.441769">
<ele>228</ele>
</trkpt>
<trkpt lat="35.0525" lon="134.443244">
<ele>217</ele>
</trkpt>
<trkpt lat="35.052208" lon="134.443869">
<ele>212</ele>
</trkpt>
<trkpt lat="35.052169" lon="134.44394">
<ele>212</ele>
</trkpt>
<trkpt lat="35.051983" lon="134.444281">
<ele>210</ele>
</trkpt>
<trkpt lat="35.051758" lon="134.444756">
<ele>206</ele>
</trkpt>
<trkpt lat="35.051717" lon="134.444819">
<ele>206</ele>
</trkpt>
<trkpt lat="35.051467" lon="134.445194">
<ele>207</ele>
</trkpt>
<trkpt lat="35.051325" lon="134.445406">
<ele>208</ele>
</trkpt>
<trkpt lat="35.051208" lon="134.445606">
<ele>208</ele>
</trkpt>
<trkpt lat="35.05115" lon="134.445731">
<ele>208</ele>
</trkpt>
<trkpt lat="35.050267" lon="134.447631">
<ele>210</ele>
</trkpt>
<trkpt lat="35.050209" lon="134.447731">
<ele>211</ele>
</trkpt>
<trkpt lat="35.050092" lon="134.447881">
<ele>212</ele>
</trkpt>
<trkpt lat="35.049967" lon="134.447981">
<ele>213</ele>
</trkpt>
<trkpt lat="35.049734" lon="134.448169">
<ele>214</ele>
</trkpt>
<trkpt lat="35.049375" lon="134.448519">
<ele>213</ele>
</trkpt>
<trkpt lat="35.048742" lon="134.449269">
<ele>214</ele>
</trkpt>
<trkpt lat="35.048584" lon="134.449381">
<ele>215</ele>
</trkpt>
<trkpt lat="35.048059" lon="134.449731">
<ele>216</ele>
</trkpt>
<trkpt lat="35.047634" lon="134.450081">
<ele>223</ele>
</trkpt>
<trkpt lat="35.047526" lon="134.450194">
<ele>223</ele>
</trkpt>
<trkpt lat="35.047417" lon="134.450344">
<ele>225</ele>
</trkpt>
<trkpt lat="35.047351" lon="134.450469">
<ele>226</ele>
</trkpt>
<trkpt lat="35.047176" lon="134.450919">
<ele>226</ele>
</trkpt>
<trkpt lat="35.047076" lon="134.451119">
<ele>226</ele>
</trkpt>
<trkpt lat="35.046901" lon="134.451319">
<ele>225</ele>
</trkpt>
<trkpt lat="35.046301" lon="134.451819">
<ele>227</ele>
</trkpt>
<trkpt lat="35.046043" lon="134.452006">
<ele>223</ele>
</trkpt>
<trkpt lat="35.045884" lon="134.452119">
<ele>218</ele>
</trkpt>
<trkpt lat="35.045842" lon="134.452181">
<ele>218</ele>
</trkpt>
<trkpt lat="35.045817" lon="134.452231">
<ele>217</ele>
</trkpt>
<trkpt lat="35.045817" lon="134.452344">
<ele>217</ele>
</trkpt>
<trkpt lat="35.045834" lon="134.452481">
<ele>217</ele>
</trkpt>
<trkpt lat="35.045876" lon="134.452769">
<ele>216</ele>
</trkpt>
<trkpt lat="35.045909" lon="134.452918">
<ele>217</ele>
</trkpt>
<trkpt lat="35.046134" lon="134.453456">
<ele>218</ele>
</trkpt>
<trkpt lat="35.046401" lon="134.454181">
<ele>218</ele>
</trkpt>
<trkpt lat="35.046517" lon="134.454493">
<ele>218</ele>
</trkpt>
<trkpt lat="35.046759" lon="134.455056">
<ele>215</ele>
</trkpt>
<trkpt lat="35.046959" lon="134.455518">
<ele>209</ele>
</trkpt>
<trkpt lat="35.047142" lon="134.455918">
<ele>214</ele>
</trkpt>
<trkpt lat="35.047367" lon="134.456293">
<ele>216</ele>
</trkpt>
<trkpt lat="35.047701" lon="134.456793">
<ele>215</ele>
</trkpt>
<trkpt lat="35.048051" lon="134.457318">
<ele>217</ele>
</trkpt>
<trkpt lat="35.048117" lon="134.457543">
<ele>218</ele>
</trkpt>
<trkpt lat="35.048167" lon="134.457743">
<ele>218</ele>
</trkpt>
<trkpt lat="35.048201" lon="134.458268">
<ele>215</ele>
</trkpt>
<trkpt lat="35.048217" lon="134.458443">
<ele>214</ele>
</trkpt>
<trkpt lat="35.048209" lon="134.458706">
<ele>217</ele>
</trkpt>
<trkpt lat="35.048209" lon="134.458893">
<ele>219</ele>
</trkpt>
<trkpt lat="35.048184" lon="134.459231">
<ele>224</ele>
</trkpt>
<trkpt lat="35.048117" lon="134.459456">
<ele>228</ele>
</trkpt>
<trkpt lat="35.047892" lon="134.459843">
<ele>227</ele>
</trkpt>
<trkpt lat="35.047434" lon="134.460555">
<ele>232</ele>
</trkpt>
<trkpt lat="35.046626" lon="134.46168">
<ele>236</ele>
</trkpt>
<trkpt lat="35.046217" lon="134.46228">
<ele>244</ele>
</trkpt>
<trkpt lat="35.045401" lon="134.46338">
<ele>245</ele>
</trkpt>
<trkpt lat="35.044951" lon="134.463993">
<ele>244</ele>
</trkpt>
<trkpt lat="35.044643" lon="134.464493">
<ele>246</ele>
</trkpt>
<trkpt lat="35.044343" lon="134.465043">
<ele>248</ele>
</trkpt>
<trkpt lat="35.044168" lon="134.465317">
<ele>247</ele>
</trkpt>
<trkpt lat="35.043951" lon="134.465805">
<ele>255</ele>
</trkpt>
<trkpt lat="35.043793" lon="134.466105">
<ele>258</ele>
</trkpt>
<trkpt lat="35.043601" lon="134.466367">
<ele>265</ele>
</trkpt>
<trkpt lat="35.042601" lon="134.46813">
<ele>269</ele>
</trkpt>
<trkpt lat="35.042176" lon="134.468617">
<ele>266</ele>
</trkpt>
<trkpt lat="35.041718" lon="134.469117">
<ele>249</ele>
</trkpt>
<trkpt lat="35.041176" lon="134.46978">
<ele>237</ele>
</trkpt>
<trkpt lat="35.040935" lon="134.470142">
<ele>235</ele>
</trkpt>
<trkpt lat="35.040568" lon="134.470755">
<ele>234</ele>
</trkpt>
<trkpt lat="35.03881" lon="134.473842">
<ele>206</ele>
</trkpt>
<trkpt lat="35.038485" lon="134.474404">
<ele>205</ele>
</trkpt>
<trkpt lat="35.038419" lon="134.474554">
<ele>203</ele>
</trkpt>
<trkpt lat="35.038352" lon="134.474842">
<ele>204</ele>
</trkpt>
<trkpt lat="35.038319" lon="134.475067">
<ele>196</ele>
</trkpt>
<trkpt lat="35.038252" lon="134.475267">
<ele>196</ele>
</trkpt>
<trkpt lat="35.038035" lon="134.475554">
<ele>196</ele>
</trkpt>
<trkpt lat="35.037894" lon="134.475804">
<ele>196</ele>
</trkpt>
<trkpt lat="35.037777" lon="134.476041">
<ele>190</ele>
</trkpt>
<trkpt lat="35.037735" lon="134.476204">
<ele>189</ele>
</trkpt>
<trkpt lat="35.037719" lon="134.476454">
<ele>188</ele>
</trkpt>
<trkpt lat="35.037661" lon="134.477441">
<ele>186</ele>
</trkpt>
<trkpt lat="35.037636" lon="134.477716">
<ele>186</ele>
</trkpt>
<trkpt lat="35.037569" lon="134.477979">
<ele>187</ele>
</trkpt>
<trkpt lat="35.037311" lon="134.478604">
<ele>183</ele>
</trkpt>
<trkpt lat="35.037252" lon="134.478841">
<ele>185</ele>
</trkpt>
<trkpt lat="35.037211" lon="134.479129">
<ele>183</ele>
</trkpt>
<trkpt lat="35.037152" lon="134.479529">
<ele>185</ele>
</trkpt>
<trkpt lat="35.037094" lon="134.479716">
<ele>183</ele>
</trkpt>
<trkpt lat="35.036977" lon="134.479928">
<ele>177</ele>
</trkpt>
<trkpt lat="35.036752" lon="134.480253">
<ele>177</ele>
</trkpt>
<trkpt lat="35.036402" lon="134.480753">
<ele>175</ele>
</trkpt>
<trkpt lat="35.036277" lon="134.480978">
<ele>175</ele>
</trkpt>
<trkpt lat="35.035794" lon="134.481978">
<ele>174</ele>
</trkpt>
<trkpt lat="35.035077" lon="134.483691">
<ele>166</ele>
</trkpt>
<trkpt lat="35.034594" lon="134.484815">
<ele>165</ele>
</trkpt>
<trkpt lat="35.034428" lon="134.485203">
<ele>162</ele>
</trkpt>
<trkpt lat="35.034319" lon="134.48539">
<ele>160</ele>
</trkpt>
<trkpt lat="35.033878" lon="134.486078">
<ele>159</ele>
</trkpt>
<trkpt lat="35.033553" lon="134.48659">
<ele>156</ele>
</trkpt>
<trkpt lat="35.033336" lon="134.48694">
<ele>154</ele>
</trkpt>
<trkpt lat="35.032903" lon="134.487628">
<ele>155</ele>
</trkpt>
<trkpt lat="35.032828" lon="134.487752">
<ele>154</ele>
</trkpt>
<trkpt lat="35.032753" lon="134.487915">
<ele>154</ele>
</trkpt>
<trkpt lat="35.032095" lon="134.489252">
<ele>153</ele>
</trkpt>
<trkpt lat="35.031928" lon="134.48944">
<ele>152</ele>
</trkpt>
<trkpt lat="35.031761" lon="134.489577">
<ele>153</ele>
</trkpt>
<trkpt lat="35.03117" lon="134.489927">
<ele>153</ele>
</trkpt>
<trkpt lat="35.03102" lon="134.490015">
<ele>153</ele>
</trkpt>
<trkpt lat="35.030945" lon="134.490102">
<ele>152</ele>
</trkpt>
<trkpt lat="35.03067" lon="134.490639">
<ele>153</ele>
</trkpt>
<trkpt lat="35.03032" lon="134.491427">
<ele>151</ele>
</trkpt>
<trkpt lat="35.029962" lon="134.492214">
<ele>149</ele>
</trkpt>
<trkpt lat="35.029837" lon="134.492439">
<ele>148</ele>
</trkpt>
<trkpt lat="35.029753" lon="134.492564">
<ele>149</ele>
</trkpt>
<trkpt lat="35.029253" lon="134.492964">
<ele>148</ele>
</trkpt>
<trkpt lat="35.028553" lon="134.493502">
<ele>148</ele>
</trkpt>
<trkpt lat="35.02837" lon="134.493652">
<ele>148</ele>
</trkpt>
<trkpt lat="35.028245" lon="134.493789">
<ele>148</ele>
</trkpt>
<trkpt lat="35.028087" lon="134.494052">
<ele>148</ele>
</trkpt>
<trkpt lat="35.027487" lon="134.495164">
<ele>144</ele>
</trkpt>
<trkpt lat="35.027412" lon="134.495314">
<ele>144</ele>
</trkpt>
<trkpt lat="35.027145" lon="134.495789">
<ele>144</ele>
</trkpt>
<trkpt lat="35.026754" lon="134.496576">
<ele>143</ele>
</trkpt>
<trkpt lat="35.026395" lon="134.497276">
<ele>141</ele>
</trkpt>
<trkpt lat="35.026104" lon="134.497789">
<ele>140</ele>
</trkpt>
<trkpt lat="35.025971" lon="134.498064">
<ele>139</ele>
</trkpt>
<trkpt lat="35.025629" lon="134.498739">
<ele>138</ele>
</trkpt>
<trkpt lat="35.025004" lon="134.499976">
<ele>138</ele>
</trkpt>
<trkpt lat="35.024487" lon="134.501001">
<ele>138</ele>
</trkpt>
<trkpt lat="35.024196" lon="134.501613">
<ele>138</ele>
</trkpt>
<trkpt lat="35.023971" lon="134.502088">
<ele>136</ele>
</trkpt>
<trkpt lat="35.023725" lon="134.502623">
<ele>134</ele>
</trkpt>
<trkpt lat="35.023696" lon="134.502688">
<ele>134</ele>
</trkpt>
<trkpt lat="35.021929" lon="134.5068">
<ele>129</ele>
</trkpt>
<trkpt lat="35.021762" lon="134.507188">
<ele>128</ele>
</trkpt>
<trkpt lat="35.021621" lon="134.507525">
<ele>129</ele>
</trkpt>
<trkpt lat="35.021246" lon="134.508263">
<ele>129</ele>
</trkpt>
<trkpt lat="35.021079" lon="134.508563">
<ele>129</ele>
</trkpt>
<trkpt lat="35.020971" lon="134.5087">
<ele>129</ele>
</trkpt>
<trkpt lat="35.020846" lon="134.508837">
<ele>128</ele>
</trkpt>
<trkpt lat="35.020679" lon="134.50895">
<ele>128</ele>
</trkpt>
<trkpt lat="35.020471" lon="134.508987">
<ele>127</ele>
</trkpt>
<trkpt lat="35.019613" lon="134.50905">
<ele>125</ele>
</trkpt>
<trkpt lat="35.019263" lon="134.509112">
<ele>124</ele>
</trkpt>
<trkpt lat="35.018821" lon="134.509212">
<ele>122</ele>
</trkpt>
<trkpt lat="35.018529" lon="134.5093">
<ele>121</ele>
</trkpt>
<trkpt lat="35.018379" lon="134.5094">
<ele>121</ele>
</trkpt>
<trkpt lat="35.018313" lon="134.509462">
<ele>121</ele>
</trkpt>
<trkpt lat="35.018121" lon="134.509862">
<ele>121</ele>
</trkpt>
<trkpt lat="35.018021" lon="134.51015">
<ele>120</ele>
</trkpt>
<trkpt lat="35.017946" lon="134.510388">
<ele>120</ele>
</trkpt>
<trkpt lat="35.017888" lon="134.510562">
<ele>120</ele>
</trkpt>
<trkpt lat="35.017638" lon="134.5113">
<ele>120</ele>
</trkpt>
<trkpt lat="35.017446" lon="134.511787">
<ele>119</ele>
</trkpt>
<trkpt lat="35.017079" lon="134.512562">
<ele>118</ele>
</trkpt>
<trkpt lat="35.016871" lon="134.512987">
<ele>118</ele>
</trkpt>
<trkpt lat="35.016013" lon="134.514837">
<ele>117</ele>
</trkpt>
<trkpt lat="35.015663" lon="134.515624">
<ele>116</ele>
</trkpt>
<trkpt lat="35.015596" lon="134.515737">
<ele>116</ele>
</trkpt>
<trkpt lat="35.015171" lon="134.516649">
<ele>115</ele>
</trkpt>
<trkpt lat="35.014763" lon="134.517537">
<ele>114</ele>
</trkpt>
<trkpt lat="35.014254" lon="134.518624">
<ele>114</ele>
</trkpt>
<trkpt lat="35.014029" lon="134.519111">
<ele>115</ele>
</trkpt>
<trkpt lat="35.013929" lon="134.519336">
<ele>115</ele>
</trkpt>
<trkpt lat="35.013704" lon="134.519811">
<ele>115</ele>
</trkpt>
<trkpt lat="35.013454" lon="134.520324">
<ele>114</ele>
</trkpt>
<trkpt lat="35.013338" lon="134.520524">
<ele>114</ele>
</trkpt>
<trkpt lat="35.013129" lon="134.520774">
<ele>113</ele>
</trkpt>
<trkpt lat="35.012896" lon="134.520974">
<ele>112</ele>
</trkpt>
<trkpt lat="35.012696" lon="134.521161">
<ele>112</ele>
</trkpt>
<trkpt lat="35.012563" lon="134.521286">
<ele>112</ele>
</trkpt>
<trkpt lat="35.012413" lon="134.521424">
<ele>112</ele>
</trkpt>
<trkpt lat="35.012305" lon="134.521549">
<ele>112</ele>
</trkpt>
<trkpt lat="35.012146" lon="134.521799">
<ele>113</ele>
</trkpt>
<trkpt lat="35.012005" lon="134.522086">
<ele>113</ele>
</trkpt>
<trkpt lat="35.011705" lon="134.522649">
<ele>114</ele>
</trkpt>
<trkpt lat="35.011513" lon="134.522924">
<ele>114</ele>
</trkpt>
<trkpt lat="35.011355" lon="134.523136">
<ele>114</ele>
</trkpt>
<trkpt lat="35.011146" lon="134.523561">
<ele>112</ele>
</trkpt>
<trkpt lat="35.010921" lon="134.524099">
<ele>111</ele>
</trkpt>
<trkpt lat="35.010705" lon="134.524574">
<ele>109</ele>
</trkpt>
<trkpt lat="35.01058" lon="134.524861">
<ele>109</ele>
</trkpt>
<trkpt lat="35.010455" lon="134.525036">
<ele>108</ele>
</trkpt>
<trkpt lat="35.010271" lon="134.525161">
<ele>107</ele>
</trkpt>
<trkpt lat="35.010038" lon="134.525423">
<ele>106</ele>
</trkpt>
<trkpt lat="35.010013" lon="134.525473">
<ele>106</ele>
</trkpt>
<trkpt lat="35.009955" lon="134.525573">
<ele>105</ele>
</trkpt>
<trkpt lat="35.009913" lon="134.525648">
<ele>105</ele>
</trkpt>
<trkpt lat="35.009855" lon="134.525886">
<ele>105</ele>
</trkpt>
<trkpt lat="35.009838" lon="134.525986">
<ele>105</ele>
</trkpt>
<trkpt lat="35.009846" lon="134.526861">
<ele>106</ele>
</trkpt>
<trkpt lat="35.009805" lon="134.527123">
<ele>106</ele>
</trkpt>
<trkpt lat="35.009763" lon="134.527286">
<ele>105</ele>
</trkpt>
<trkpt lat="35.009721" lon="134.527386">
<ele>105</ele>
</trkpt>
<trkpt lat="35.009505" lon="134.527823">
<ele>105</ele>
</trkpt>
<trkpt lat="35.009238" lon="134.528236">
<ele>106</ele>
</trkpt>
<trkpt lat="35.008655" lon="134.529173">
<ele>106</ele>
</trkpt>
<trkpt lat="35.008363" lon="134.529648">
<ele>105</ele>
</trkpt>
<trkpt lat="35.008071" lon="134.530123">
<ele>103</ele>
</trkpt>
<trkpt lat="35.00753" lon="134.530973">
<ele>101</ele>
</trkpt>
<trkpt lat="35.007105" lon="134.531598">
<ele>101</ele>
</trkpt>
<trkpt lat="35.006288" lon="134.532885">
<ele>101</ele>
</trkpt>
<trkpt lat="35.005897" lon="134.533498">
<ele>99</ele>
</trkpt>
<trkpt lat="35.005863" lon="134.533548">
<ele>98</ele>
</trkpt>
<trkpt lat="35.005588" lon="134.533935">
<ele>98</ele>
</trkpt>
<trkpt lat="35.005163" lon="134.534535">
<ele>97</ele>
</trkpt>
<trkpt lat="35.005047" lon="134.53471">
<ele>97</ele>
</trkpt>
<trkpt lat="35.004955" lon="134.534948">
<ele>97</ele>
</trkpt>
<trkpt lat="35.00493" lon="134.535122">
<ele>97</ele>
</trkpt>
<trkpt lat="35.004872" lon="134.536047">
<ele>98</ele>
</trkpt>
<trkpt lat="35.004805" lon="134.536985">
<ele>99</ele>
</trkpt>
<trkpt lat="35.004797" lon="134.53711">
<ele>99</ele>
</trkpt>
<trkpt lat="35.004714" lon="134.537872">
<ele>98</ele>
</trkpt>
<trkpt lat="35.004664" lon="134.538297">
<ele>98</ele>
</trkpt>
<trkpt lat="35.004605" lon="134.53881">
<ele>98</ele>
</trkpt>
<trkpt lat="35.004522" lon="134.539547">
<ele>98</ele>
</trkpt>
<trkpt lat="35.004414" lon="134.54036">
<ele>98</ele>
</trkpt>
<trkpt lat="35.004189" lon="134.541809">
<ele>98</ele>
</trkpt>
<trkpt lat="35.004114" lon="134.542397">
<ele>96</ele>
</trkpt>
<trkpt lat="35.003947" lon="134.543747">
<ele>95</ele>
</trkpt>
<trkpt lat="35.003939" lon="134.543834">
<ele>95</ele>
</trkpt>
<trkpt lat="35.003872" lon="134.544284">
<ele>95</ele>
</trkpt>
<trkpt lat="35.003781" lon="134.544997">
<ele>92</ele>
</trkpt>
<trkpt lat="35.003739" lon="134.545322">
<ele>91</ele>
</trkpt>
<trkpt lat="35.003656" lon="134.545972">
<ele>90</ele>
</trkpt>
<trkpt lat="35.003606" lon="134.546322">
<ele>92</ele>
</trkpt>
<trkpt lat="35.003572" lon="134.546597">
<ele>92</ele>
</trkpt>
<trkpt lat="35.003431" lon="134.547646">
<ele>91</ele>
</trkpt>
<trkpt lat="35.003939" lon="134.547684">
<ele>92</ele>
</trkpt>
<trkpt lat="35.003656" lon="134.548709">
<ele>92</ele>
</trkpt>
<trkpt lat="35.003575" lon="134.549019">
<ele>91</ele>
</trkpt>
    </trkseg>
  </trk>
</gpx>