<?xml version="1.0" encoding="UTF-8"?>
<gpx version="1.1"
     creator="KMLtoGPX"
     xmlns="http://www.topografix.com/GPX/1/1">
  <metadata>
    <name>Kongo Katsuragi Route (T9)</name>
    <desc>金剛葛城ルート(T9)</desc>
    <bounds minlat="34.35162611111111" minlon="135.68265083333333" maxlat="34.463639722222226" maxlon="135.72468361111112"/>
  </metadata>
  <trk>
    <name>Kongo Katsuragi Route (T9)</name>
    <trkseg>
<trkpt lat="34.46362" lon="135.72468361111112">
<ele>107</ele>
</trkpt>
<trkpt lat="34.463639722222226" lon="135.72468361111112">
<ele>107</ele>
</trkpt>
<trkpt lat="34.46362444444444" lon="135.72371444444445">
<ele>110</ele>
</trkpt>
<trkpt lat="34.463609166666664" lon="135.72274555555555">
<ele>114</ele>
</trkpt>
<trkpt lat="34.46359833333333" lon="135.72240277777777">
<ele>115</ele>
</trkpt>
<trkpt lat="34.46358305555555" lon="135.72234833333334">
<ele>115</ele>
</trkpt>
<trkpt lat="34.4635625" lon="135.72231055555557">
<ele>115</ele>
</trkpt>
<trkpt lat="34.46353222222222" lon="135.72228777777778">
<ele>115</ele>
</trkpt>
<trkpt lat="34.46347138888889" lon="135.7222725">
<ele>115</ele>
</trkpt>
<trkpt lat="34.463232777777776" lon="135.722265">
<ele>115</ele>
</trkpt>
<trkpt lat="34.463170833333336" lon="135.72223444444444">
<ele>115</ele>
</trkpt>
<trkpt lat="34.463140555555555" lon="135.72221166666668">
<ele>115</ele>
</trkpt>
<trkpt lat="34.46312527777778" lon="135.72215111111112">
<ele>115</ele>
</trkpt>
<trkpt lat="34.46312527777778" lon="135.72199055555555">
<ele>116</ele>
</trkpt>
<trkpt lat="34.463115555555554" lon="135.72156305555555">
<ele>117</ele>
</trkpt>
<trkpt lat="34.46310472222222" lon="135.72136472222223">
<ele>117</ele>
</trkpt>
<trkpt lat="34.463115555555554" lon="135.7211975">
<ele>118</ele>
</trkpt>
<trkpt lat="34.463140555555555" lon="135.72081555555556">
<ele>119</ele>
</trkpt>
<trkpt lat="34.463140555555555" lon="135.72072444444444">
<ele>119</ele>
</trkpt>
<trkpt lat="34.463115555555554" lon="135.7206625">
<ele>119</ele>
</trkpt>
<trkpt lat="34.462815" lon="135.72011361111112">
<ele>121</ele>
</trkpt>
<trkpt lat="34.46276388888889" lon="135.72001472222223">
<ele>122</ele>
</trkpt>
<trkpt lat="34.462738888888886" lon="135.719915">
<ele>122</ele>
</trkpt>
<trkpt lat="34.46268805555555" lon="135.71961">
<ele>120</ele>
</trkpt>
<trkpt lat="34.4626825" lon="135.7193963888889">
<ele>120</ele>
</trkpt>
<trkpt lat="34.462738888888886" lon="135.71923666666666">
<ele>120</ele>
</trkpt>
<trkpt lat="34.46299833333333" lon="135.71880916666666">
<ele>120</ele>
</trkpt>
<trkpt lat="34.46330861111111" lon="135.7183136111111">
<ele>122</ele>
</trkpt>
<trkpt lat="34.46346611111111" lon="135.71803916666667">
<ele>121</ele>
</trkpt>
<trkpt lat="34.4635375" lon="135.7178252777778">
<ele>123</ele>
</trkpt>
<trkpt lat="34.46359833333333" lon="135.71762666666666">
<ele>123</ele>
</trkpt>
<trkpt lat="34.463613611111114" lon="135.71749666666668">
<ele>124</ele>
</trkpt>
<trkpt lat="34.463613611111114" lon="135.71735222222222">
<ele>125</ele>
</trkpt>
<trkpt lat="34.46360388888889" lon="135.71729916666666">
<ele>126</ele>
</trkpt>
<trkpt lat="34.46358861111111" lon="135.71712333333332">
<ele>128</ele>
</trkpt>
<trkpt lat="34.463573333333336" lon="135.7170397222222">
<ele>128</ele>
</trkpt>
<trkpt lat="34.4635475" lon="135.71673388888888">
<ele>132</ele>
</trkpt>
<trkpt lat="34.46348111111111" lon="135.71616194444445">
<ele>136</ele>
</trkpt>
<trkpt lat="34.46344111111111" lon="135.71586472222222">
<ele>138</ele>
</trkpt>
<trkpt lat="34.463365" lon="135.71539916666666">
<ele>140</ele>
</trkpt>
<trkpt lat="34.46298861111111" lon="135.71538416666667">
<ele>141</ele>
</trkpt>
<trkpt lat="34.46282027777778" lon="135.7153538888889">
<ele>141</ele>
</trkpt>
<trkpt lat="34.46225611111111" lon="135.71518555555556">
<ele>143</ele>
</trkpt>
<trkpt lat="34.461996666666664" lon="135.7151022222222">
<ele>145</ele>
</trkpt>
<trkpt lat="34.461355833333336" lon="135.71487305555556">
<ele>147</ele>
</trkpt>
<trkpt lat="34.46116277777778" lon="135.7148275">
<ele>147</ele>
</trkpt>
<trkpt lat="34.46093361111111" lon="135.71477333333334">
<ele>147</ele>
</trkpt>
<trkpt lat="34.46059833333333" lon="135.71476583333333">
<ele>147</ele>
</trkpt>
<trkpt lat="34.46053222222222" lon="135.71476583333333">
<ele>147</ele>
</trkpt>
<trkpt lat="34.46049111111111" lon="135.71476583333333">
<ele>147</ele>
</trkpt>
<trkpt lat="34.460364166666665" lon="135.71477333333334">
<ele>147</ele>
</trkpt>
<trkpt lat="34.45988111111111" lon="135.7148275">
<ele>145</ele>
</trkpt>
<trkpt lat="34.459408333333336" lon="135.71486555555555">
<ele>145</ele>
</trkpt>
<trkpt lat="34.459138333333335" lon="135.71488833333333">
<ele>144</ele>
</trkpt>
<trkpt lat="34.4584925" lon="135.71494166666668">
<ele>143</ele>
</trkpt>
<trkpt lat="34.45784694444445" lon="135.71498722222222">
<ele>141</ele>
</trkpt>
<trkpt lat="34.457414166666666" lon="135.71504027777777">
<ele>148</ele>
</trkpt>
<trkpt lat="34.45697166666667" lon="135.71507166666666">
<ele>151</ele>
</trkpt>
<trkpt lat="34.45679916666667" lon="135.71508694444444">
<ele>152</ele>
</trkpt>
<trkpt lat="34.45643777777778" lon="135.715125">
<ele>154</ele>
</trkpt>
<trkpt lat="34.456316111111114" lon="135.71514">
<ele>153</ele>
</trkpt>
<trkpt lat="34.45612305555556" lon="135.7151477777778">
<ele>153</ele>
</trkpt>
<trkpt lat="34.455756666666666" lon="135.71516277777778">
<ele>153</ele>
</trkpt>
<trkpt lat="34.45558833333333" lon="135.71516277777778">
<ele>153</ele>
</trkpt>
<trkpt lat="34.455506944444444" lon="135.7151477777778">
<ele>154</ele>
</trkpt>
<trkpt lat="34.45515666666667" lon="135.71508694444444">
<ele>155</ele>
</trkpt>
<trkpt lat="34.454658611111114" lon="135.71496472222222">
<ele>155</ele>
</trkpt>
<trkpt lat="34.454011944444446" lon="135.7148038888889">
<ele>155</ele>
</trkpt>
<trkpt lat="34.453939166666665" lon="135.71478333333334">
<ele>155</ele>
</trkpt>
<trkpt lat="34.453938055555554" lon="135.71478333333334">
<ele>155</ele>
</trkpt>
<trkpt lat="34.453875" lon="135.71476611111112">
<ele>155</ele>
</trkpt>
<trkpt lat="34.45322861111111" lon="135.71461416666668">
<ele>152</ele>
</trkpt>
<trkpt lat="34.453158055555555" lon="135.7145913888889">
<ele>152</ele>
</trkpt>
<trkpt lat="34.45271555555556" lon="135.7144763888889">
<ele>149</ele>
</trkpt>
<trkpt lat="34.45216638888889" lon="135.71433972222223">
<ele>147</ele>
</trkpt>
<trkpt lat="34.45194722222222" lon="135.71432333333334">
<ele>143</ele>
</trkpt>
<trkpt lat="34.45167305555555" lon="135.71432333333334">
<ele>140</ele>
</trkpt>
<trkpt lat="34.451256388888886" lon="135.71440027777777">
<ele>140</ele>
</trkpt>
<trkpt lat="34.450609722222225" lon="135.71451416666667">
<ele>141</ele>
</trkpt>
<trkpt lat="34.44996388888889" lon="135.71462166666666">
<ele>142</ele>
</trkpt>
<trkpt lat="34.4498675" lon="135.71463694444444">
<ele>143</ele>
</trkpt>
<trkpt lat="34.449714444444446" lon="135.71465972222222">
<ele>143</ele>
</trkpt>
<trkpt lat="34.449440277777775" lon="135.71471277777778">
<ele>144</ele>
</trkpt>
<trkpt lat="34.44900833333333" lon="135.7148038888889">
<ele>143</ele>
</trkpt>
<trkpt lat="34.44883472222222" lon="135.71481166666666">
<ele>143</ele>
</trkpt>
<trkpt lat="34.448366944444444" lon="135.7148038888889">
<ele>139</ele>
</trkpt>
<trkpt lat="34.447924444444446" lon="135.7147736111111">
<ele>131</ele>
</trkpt>
<trkpt lat="34.44727888888889" lon="135.71473555555556">
<ele>131</ele>
</trkpt>
<trkpt lat="34.44698388888889" lon="135.71471305555556">
<ele>130</ele>
</trkpt>
<trkpt lat="34.44633833333334" lon="135.71468277777777">
<ele>132</ele>
</trkpt>
<trkpt lat="34.446332777777776" lon="135.7146752777778">
<ele>133</ele>
</trkpt>
<trkpt lat="34.44609416666667" lon="135.71466">
<ele>132</ele>
</trkpt>
<trkpt lat="34.445859722222224" lon="135.7146525">
<ele>132</ele>
</trkpt>
<trkpt lat="34.44556055555555" lon="135.71462194444445">
<ele>134</ele>
</trkpt>
<trkpt lat="34.44550944444445" lon="135.71461444444444">
<ele>135</ele>
</trkpt>
<trkpt lat="34.445117777777774" lon="135.71458388888888">
<ele>137</ele>
</trkpt>
<trkpt lat="34.44447111111111" lon="135.714545">
<ele>140</ele>
</trkpt>
<trkpt lat="34.443825555555556" lon="135.71450694444445">
<ele>144</ele>
</trkpt>
<trkpt lat="34.44318" lon="135.7144688888889">
<ele>148</ele>
</trkpt>
<trkpt lat="34.44253444444445" lon="135.71443861111112">
<ele>151</ele>
</trkpt>
<trkpt lat="34.44188777777778" lon="135.71440055555556">
<ele>154</ele>
</trkpt>
<trkpt lat="34.4412425" lon="135.71436277777778">
<ele>156</ele>
</trkpt>
<trkpt lat="34.440983055555556" lon="135.71434">
<ele>157</ele>
</trkpt>
<trkpt lat="34.44063166666667" lon="135.7143236111111">
<ele>158</ele>
</trkpt>
<trkpt lat="34.43998611111111" lon="135.71428555555556">
<ele>160</ele>
</trkpt>
<trkpt lat="34.439615" lon="135.71426305555556">
<ele>162</ele>
</trkpt>
<trkpt lat="34.438969444444446" lon="135.71422527777779">
<ele>164</ele>
</trkpt>
<trkpt lat="34.43864388888889" lon="135.7142022222222">
<ele>165</ele>
</trkpt>
<trkpt lat="34.43855722222222" lon="135.71419472222223">
<ele>165</ele>
</trkpt>
<trkpt lat="34.437911666666665" lon="135.71417944444445">
<ele>165</ele>
</trkpt>
<trkpt lat="34.437936666666666" lon="135.71424805555554">
<ele>164</ele>
</trkpt>
<trkpt lat="34.437936666666666" lon="135.7142577777778">
<ele>164</ele>
</trkpt>
<trkpt lat="34.437936666666666" lon="135.71425666666667">
<ele>164</ele>
</trkpt>
<trkpt lat="34.437936666666666" lon="135.71424805555554">
<ele>164</ele>
</trkpt>
<trkpt lat="34.437911666666665" lon="135.71417944444445">
<ele>165</ele>
</trkpt>
<trkpt lat="34.43767722222222" lon="135.71414166666668">
<ele>164</ele>
</trkpt>
<trkpt lat="34.43749916666667" lon="135.71408722222222">
<ele>164</ele>
</trkpt>
<trkpt lat="34.43731611111111" lon="135.71401138888888">
<ele>164</ele>
</trkpt>
<trkpt lat="34.437016666666665" lon="135.71387472222222">
<ele>164</ele>
</trkpt>
<trkpt lat="34.43683333333333" lon="135.71375194444445">
<ele>164</ele>
</trkpt>
<trkpt lat="34.436659722222224" lon="135.71359916666665">
<ele>164</ele>
</trkpt>
<trkpt lat="34.4364925" lon="135.71343944444445">
<ele>164</ele>
</trkpt>
<trkpt lat="34.43646666666667" lon="135.71341666666666">
<ele>164</ele>
</trkpt>
<trkpt lat="34.43630388888889" lon="135.71320305555557">
<ele>163</ele>
</trkpt>
<trkpt lat="34.43611611111111" lon="135.71287527777778">
<ele>163</ele>
</trkpt>
<trkpt lat="34.43607472222222" lon="135.71281333333334">
<ele>162</ele>
</trkpt>
<trkpt lat="34.43595888888889" lon="135.7125925">
<ele>162</ele>
</trkpt>
<trkpt lat="34.435764444444445" lon="135.71225722222223">
<ele>162</ele>
</trkpt>
<trkpt lat="34.435226388888886" lon="135.71128805555554">
<ele>161</ele>
</trkpt>
<trkpt lat="34.43507888888889" lon="135.71108944444444">
<ele>163</ele>
</trkpt>
<trkpt lat="34.43476833333333" lon="135.71073916666666">
<ele>172</ele>
</trkpt>
<trkpt lat="34.434443055555555" lon="135.71046444444445">
<ele>178</ele>
</trkpt>
<trkpt lat="34.434269444444446" lon="135.71034194444445">
<ele>181</ele>
</trkpt>
<trkpt lat="34.433949444444444" lon="135.7101361111111">
<ele>182</ele>
</trkpt>
<trkpt lat="34.43366944444445" lon="135.70997666666668">
<ele>186</ele>
</trkpt>
<trkpt lat="34.43332111111111" lon="135.70976611111112">
<ele>186</ele>
</trkpt>
<trkpt lat="34.43332111111111" lon="135.70976611111112">
<ele>187</ele>
</trkpt>
<trkpt lat="34.43317694444445" lon="135.70967805555554">
<ele>188</ele>
</trkpt>
<trkpt lat="34.43293722222222" lon="135.70957944444444">
<ele>188</ele>
</trkpt>
<trkpt lat="34.432876388888886" lon="135.70954916666668">
<ele>189</ele>
</trkpt>
<trkpt lat="34.43272888888889" lon="135.7095111111111">
<ele>188</ele>
</trkpt>
<trkpt lat="34.432566111111115" lon="135.70948833333333">
<ele>187</ele>
</trkpt>
<trkpt lat="34.432316388888886" lon="135.70948833333333">
<ele>188</ele>
</trkpt>
<trkpt lat="34.432195" lon="135.7095111111111">
<ele>191</ele>
</trkpt>
<trkpt lat="34.431869722222224" lon="135.70958694444445">
<ele>195</ele>
</trkpt>
<trkpt lat="34.431803611111114" lon="135.7096175">
<ele>195</ele>
</trkpt>
<trkpt lat="34.43174694444444" lon="135.70964777777777">
<ele>196</ele>
</trkpt>
<trkpt lat="34.43110138888889" lon="135.70999944444443">
<ele>205</ele>
</trkpt>
<trkpt lat="34.430969166666664" lon="135.7100372222222">
<ele>205</ele>
</trkpt>
<trkpt lat="34.4305525" lon="135.71009805555556">
<ele>207</ele>
</trkpt>
<trkpt lat="34.43051111111111" lon="135.71009805555556">
<ele>207</ele>
</trkpt>
<trkpt lat="34.4302475" lon="135.71006888888888">
<ele>207</ele>
</trkpt>
<trkpt lat="34.43024638888889" lon="135.71006888888888">
<ele>211</ele>
</trkpt>
<trkpt lat="34.430236666666666" lon="135.71006777777777">
<ele>211</ele>
</trkpt>
<trkpt lat="34.43001861111111" lon="135.71001444444445">
<ele>214</ele>
</trkpt>
<trkpt lat="34.42946861111111" lon="135.70974">
<ele>217</ele>
</trkpt>
<trkpt lat="34.42933638888889" lon="135.70966305555555">
<ele>219</ele>
</trkpt>
<trkpt lat="34.42922027777778" lon="135.709625">
<ele>221</ele>
</trkpt>
<trkpt lat="34.42906722222222" lon="135.70958694444445">
<ele>223</ele>
</trkpt>
<trkpt lat="34.42886861111111" lon="135.70956416666667">
<ele>226</ele>
</trkpt>
<trkpt lat="34.428650555555556" lon="135.70956416666667">
<ele>226</ele>
</trkpt>
<trkpt lat="34.42844111111111" lon="135.70957944444444">
<ele>226</ele>
</trkpt>
<trkpt lat="34.428309722222224" lon="135.7096175">
<ele>227</ele>
</trkpt>
<trkpt lat="34.42816666666667" lon="135.70964777777777">
<ele>228</ele>
</trkpt>
<trkpt lat="34.427551666666666" lon="135.70989944444443">
<ele>232</ele>
</trkpt>
<trkpt lat="34.427394444444445" lon="135.7099538888889">
<ele>233</ele>
</trkpt>
<trkpt lat="34.42735861111111" lon="135.70996888888888">
<ele>233</ele>
</trkpt>
<trkpt lat="34.42677027777778" lon="135.71020555555555">
<ele>240</ele>
</trkpt>
<trkpt lat="34.42677027777778" lon="135.71020555555555">
<ele>240</ele>
</trkpt>
<trkpt lat="34.42671277777778" lon="135.71022833333333">
<ele>241</ele>
</trkpt>
<trkpt lat="34.42664666666667" lon="135.71025111111112">
<ele>242</ele>
</trkpt>
<trkpt lat="34.426412222222226" lon="135.71030416666667">
<ele>244</ele>
</trkpt>
<trkpt lat="34.426071666666665" lon="135.71028916666666">
<ele>245</ele>
</trkpt>
<trkpt lat="34.42585361111111" lon="135.71022833333333">
<ele>246</ele>
</trkpt>
<trkpt lat="34.425619166666664" lon="135.71009055555555">
<ele>247</ele>
</trkpt>
<trkpt lat="34.42542611111111" lon="135.7099375">
<ele>252</ele>
</trkpt>
<trkpt lat="34.425333888888886" lon="135.7098388888889">
<ele>253</ele>
</trkpt>
<trkpt lat="34.42514611111111" lon="135.7096175">
<ele>257</ele>
</trkpt>
<trkpt lat="34.424953333333335" lon="135.7094036111111">
<ele>258</ele>
</trkpt>
<trkpt lat="34.42466777777778" lon="135.70916722222222">
<ele>262</ele>
</trkpt>
<trkpt lat="34.424458333333334" lon="135.70898472222223">
<ele>263</ele>
</trkpt>
<trkpt lat="34.42445722222222" lon="135.7089836111111">
<ele>263</ele>
</trkpt>
<trkpt lat="34.42437805555556" lon="135.70891527777778">
<ele>263</ele>
</trkpt>
<trkpt lat="34.42427166666667" lon="135.7088547222222">
<ele>264</ele>
</trkpt>
<trkpt lat="34.42414472222222" lon="135.70881666666668">
<ele>263</ele>
</trkpt>
<trkpt lat="34.42381916666667" lon="135.70876333333334">
<ele>266</ele>
</trkpt>
<trkpt lat="34.42319333333333" lon="135.70872555555556">
<ele>272</ele>
</trkpt>
<trkpt lat="34.42290361111111" lon="135.70868638888888">
<ele>272</ele>
</trkpt>
<trkpt lat="34.42283722222222" lon="135.70868638888888">
<ele>272</ele>
</trkpt>
<trkpt lat="34.42219194444444" lon="135.7084575">
<ele>280</ele>
</trkpt>
<trkpt lat="34.42196722222222" lon="135.7083738888889">
<ele>283</ele>
</trkpt>
<trkpt lat="34.421438888888886" lon="135.70817527777777">
<ele>285</ele>
</trkpt>
<trkpt lat="34.42097138888889" lon="135.7080161111111">
<ele>287</ele>
</trkpt>
<trkpt lat="34.420721666666665" lon="135.7079238888889">
<ele>288</ele>
</trkpt>
<trkpt lat="34.42057944444444" lon="135.70788583333334">
<ele>290</ele>
</trkpt>
<trkpt lat="34.4204775" lon="135.7078402777778">
<ele>291</ele>
</trkpt>
<trkpt lat="34.420320277777776" lon="135.70774916666667">
<ele>292</ele>
</trkpt>
<trkpt lat="34.41995333333333" lon="135.70751277777777">
<ele>295</ele>
</trkpt>
<trkpt lat="34.41990277777778" lon="135.7074888888889">
<ele>295</ele>
</trkpt>
<trkpt lat="34.419826666666665" lon="135.7074127777778">
<ele>297</ele>
</trkpt>
<trkpt lat="34.41977027777778" lon="135.70736722222222">
<ele>299</ele>
</trkpt>
<trkpt lat="34.41973027777778" lon="135.70731416666666">
<ele>299</ele>
</trkpt>
<trkpt lat="34.41946" lon="135.706955">
<ele>305</ele>
</trkpt>
<trkpt lat="34.41933861111111" lon="135.7067638888889">
<ele>306</ele>
</trkpt>
<trkpt lat="34.41923638888889" lon="135.70660444444445">
<ele>307</ele>
</trkpt>
<trkpt lat="34.41880888888889" lon="135.70592527777777">
<ele>314</ele>
</trkpt>
<trkpt lat="34.41865166666667" lon="135.70574944444445">
<ele>316</ele>
</trkpt>
<trkpt lat="34.418575833333335" lon="135.70566583333334">
<ele>318</ele>
</trkpt>
<trkpt lat="34.418479166666664" lon="135.70557472222222">
<ele>316</ele>
</trkpt>
<trkpt lat="34.41836194444444" lon="135.70549">
<ele>315</ele>
</trkpt>
<trkpt lat="34.418235" lon="135.70539888888888">
<ele>317</ele>
</trkpt>
<trkpt lat="34.41783777777778" lon="135.7051627777778">
<ele>322</ele>
</trkpt>
<trkpt lat="34.41761861111111" lon="135.70505527777777">
<ele>325</ele>
</trkpt>
<trkpt lat="34.41697305555556" lon="135.70469722222222">
<ele>327</ele>
</trkpt>
<trkpt lat="34.41696777777778" lon="135.70468944444445">
<ele>328</ele>
</trkpt>
<trkpt lat="34.41632222222222" lon="135.70433138888887">
<ele>334</ele>
</trkpt>
<trkpt lat="34.416159444444446" lon="135.70423916666667">
<ele>335</ele>
</trkpt>
<trkpt lat="34.41561055555555" lon="135.70392666666666">
<ele>341</ele>
</trkpt>
<trkpt lat="34.415463055555556" lon="135.70384333333334">
<ele>342</ele>
</trkpt>
<trkpt lat="34.41508638888889" lon="135.70363694444444">
<ele>349</ele>
</trkpt>
<trkpt lat="34.41488777777778" lon="135.7035675">
<ele>351</ele>
</trkpt>
<trkpt lat="34.41473055555556" lon="135.7035297222222">
<ele>352</ele>
</trkpt>
<trkpt lat="34.41436916666667" lon="135.7034763888889">
<ele>352</ele>
</trkpt>
<trkpt lat="34.414186111111114" lon="135.70346138888888">
<ele>352</ele>
</trkpt>
<trkpt lat="34.41415666666666" lon="135.70345916666668">
<ele>352</ele>
</trkpt>
<trkpt lat="34.41415555555555" lon="135.70345916666668">
<ele>353</ele>
</trkpt>
<trkpt lat="34.41388666666667" lon="135.70343861111112">
<ele>353</ele>
</trkpt>
<trkpt lat="34.41324111111111" lon="135.70342333333335">
<ele>352</ele>
</trkpt>
<trkpt lat="34.41320944444445" lon="135.70341583333334">
<ele>352</ele>
</trkpt>
<trkpt lat="34.412594166666665" lon="135.70337777777777">
<ele>343</ele>
</trkpt>
<trkpt lat="34.411948611111114" lon="135.7033463888889">
<ele>345</ele>
</trkpt>
<trkpt lat="34.41153666666667" lon="135.70332333333334">
<ele>346</ele>
</trkpt>
<trkpt lat="34.41149111111111" lon="135.70332333333334">
<ele>346</ele>
</trkpt>
<trkpt lat="34.410845555555554" lon="135.70332333333334">
<ele>348</ele>
</trkpt>
<trkpt lat="34.41058611111111" lon="135.703355">
<ele>346</ele>
</trkpt>
<trkpt lat="34.41036694444445" lon="135.70340055555556">
<ele>346</ele>
</trkpt>
<trkpt lat="34.40972138888889" lon="135.7035297222222">
<ele>346</ele>
</trkpt>
<trkpt lat="34.40930361111111" lon="135.7035675">
<ele>349</ele>
</trkpt>
<trkpt lat="34.40910638888889" lon="135.7035675">
<ele>349</ele>
</trkpt>
<trkpt lat="34.408902222222224" lon="135.7035525">
<ele>348</ele>
</trkpt>
<trkpt lat="34.408586666666665" lon="135.70349166666668">
<ele>348</ele>
</trkpt>
<trkpt lat="34.40835333333333" lon="135.70340055555556">
<ele>349</ele>
</trkpt>
<trkpt lat="34.40808861111111" lon="135.703255">
<ele>348</ele>
</trkpt>
<trkpt lat="34.40784444444444" lon="135.70308722222222">
<ele>349</ele>
</trkpt>
<trkpt lat="34.40774777777778" lon="135.70301138888888">
<ele>348</ele>
</trkpt>
<trkpt lat="34.40751888888889" lon="135.702805">
<ele>346</ele>
</trkpt>
<trkpt lat="34.40723888888889" lon="135.70250027777777">
<ele>346</ele>
</trkpt>
<trkpt lat="34.40691888888889" lon="135.70210305555557">
<ele>345</ele>
</trkpt>
<trkpt lat="34.406731111111114" lon="135.70192833333334">
<ele>335</ele>
</trkpt>
<trkpt lat="34.40652722222222" lon="135.70180583333334">
<ele>334</ele>
</trkpt>
<trkpt lat="34.406328611111114" lon="135.7017375">
<ele>338</ele>
</trkpt>
<trkpt lat="34.40615638888889" lon="135.7017525">
<ele>339</ele>
</trkpt>
<trkpt lat="34.40600333333333" lon="135.70179055555556">
<ele>343</ele>
</trkpt>
<trkpt lat="34.40537277777778" lon="135.70211833333335">
<ele>346</ele>
</trkpt>
<trkpt lat="34.40527083333333" lon="135.70214972222223">
<ele>345</ele>
</trkpt>
<trkpt lat="34.4050375" lon="135.70224083333332">
<ele>345</ele>
</trkpt>
<trkpt lat="34.40489" lon="135.7022636111111">
<ele>347</ele>
</trkpt>
<trkpt lat="34.40473166666666" lon="135.7022561111111">
<ele>347</ele>
</trkpt>
<trkpt lat="34.40442138888889" lon="135.70218">
<ele>351</ele>
</trkpt>
<trkpt lat="34.40393944444445" lon="135.70199027777778">
<ele>355</ele>
</trkpt>
<trkpt lat="34.40393944444445" lon="135.70199027777778">
<ele>355</ele>
</trkpt>
<trkpt lat="34.403841944444444" lon="135.7019511111111">
<ele>356</ele>
</trkpt>
<trkpt lat="34.40319638888889" lon="135.70169944444444">
<ele>362</ele>
</trkpt>
<trkpt lat="34.40321388888889" lon="135.70163">
<ele>355</ele>
</trkpt>
<trkpt lat="34.40321388888889" lon="135.70163">
<ele>362</ele>
</trkpt>
<trkpt lat="34.40319638888889" lon="135.70169944444444">
<ele>362</ele>
</trkpt>
<trkpt lat="34.40262138888889" lon="135.70159194444443">
<ele>360</ele>
</trkpt>
<trkpt lat="34.402255833333335" lon="135.7015538888889">
<ele>358</ele>
</trkpt>
<trkpt lat="34.40160916666667" lon="135.7015236111111">
<ele>353</ele>
</trkpt>
<trkpt lat="34.401538611111114" lon="135.70151611111112">
<ele>353</ele>
</trkpt>
<trkpt lat="34.40127388888889" lon="135.70149333333333">
<ele>352</ele>
</trkpt>
<trkpt lat="34.401024444444445" lon="135.70144">
<ele>348</ele>
</trkpt>
<trkpt lat="34.40070444444444" lon="135.70134027777777">
<ele>346</ele>
</trkpt>
<trkpt lat="34.400058888888886" lon="135.70108083333332">
<ele>349</ele>
</trkpt>
<trkpt lat="34.39989611111111" lon="135.7010125">
<ele>349</ele>
</trkpt>
<trkpt lat="34.399748333333335" lon="135.70096694444445">
<ele>347</ele>
</trkpt>
<trkpt lat="34.39958027777778" lon="135.70096694444445">
<ele>342</ele>
</trkpt>
<trkpt lat="34.399407777777775" lon="135.70098972222223">
<ele>338</ele>
</trkpt>
<trkpt lat="34.39893472222222" lon="135.70108861111112">
<ele>326</ele>
</trkpt>
<trkpt lat="34.398690555555554" lon="135.70114166666667">
<ele>319</ele>
</trkpt>
<trkpt lat="34.3985125" lon="135.70115805555557">
<ele>306</ele>
</trkpt>
<trkpt lat="34.39850722222222" lon="135.70116555555555">
<ele>306</ele>
</trkpt>
<trkpt lat="34.398095" lon="135.70118833333333">
<ele>313</ele>
</trkpt>
<trkpt lat="34.39798861111111" lon="135.7012036111111">
<ele>314</ele>
</trkpt>
<trkpt lat="34.39742888888889" lon="135.70139333333333">
<ele>313</ele>
</trkpt>
<trkpt lat="34.396930833333336" lon="135.70149333333333">
<ele>316</ele>
</trkpt>
<trkpt lat="34.39671166666667" lon="135.7015538888889">
<ele>317</ele>
</trkpt>
<trkpt lat="34.39646194444445" lon="135.70166138888888">
<ele>307</ele>
</trkpt>
<trkpt lat="34.39625361111111" lon="135.70171472222222">
<ele>304</ele>
</trkpt>
<trkpt lat="34.396055277777776" lon="135.7017297222222">
<ele>307</ele>
</trkpt>
<trkpt lat="34.39575583333333" lon="135.7017297222222">
<ele>302</ele>
</trkpt>
<trkpt lat="34.39546611111111" lon="135.7016375">
<ele>297</ele>
</trkpt>
<trkpt lat="34.39521666666667" lon="135.7015236111111">
<ele>297</ele>
</trkpt>
<trkpt lat="34.39496277777778" lon="135.70135555555555">
<ele>292</ele>
</trkpt>
<trkpt lat="34.39486083333333" lon="135.70127944444445">
<ele>290</ele>
</trkpt>
<trkpt lat="34.394215277777775" lon="135.70083666666667">
<ele>279</ele>
</trkpt>
<trkpt lat="34.39392" lon="135.70063861111112">
<ele>277</ele>
</trkpt>
<trkpt lat="34.39327333333333" lon="135.70022722222222">
<ele>272</ele>
</trkpt>
<trkpt lat="34.39273" lon="135.69979972222222">
<ele>276</ele>
</trkpt>
<trkpt lat="34.39290805555556" lon="135.69970111111112">
<ele>279</ele>
</trkpt>
<trkpt lat="34.39297388888889" lon="135.69966194444444">
<ele>279</ele>
</trkpt>
<trkpt lat="34.39299222222222" lon="135.69965333333334">
<ele>280</ele>
</trkpt>
<trkpt lat="34.39299222222222" lon="135.69965333333334">
<ele>280</ele>
</trkpt>
<trkpt lat="34.39297388888889" lon="135.69966194444444">
<ele>279</ele>
</trkpt>
<trkpt lat="34.39290805555556" lon="135.69970111111112">
<ele>279</ele>
</trkpt>
<trkpt lat="34.39273" lon="135.69979972222222">
<ele>276</ele>
</trkpt>
<trkpt lat="34.392495555555556" lon="135.69963916666666">
<ele>276</ele>
</trkpt>
<trkpt lat="34.39216583333334" lon="135.69932666666668">
<ele>278</ele>
</trkpt>
<trkpt lat="34.3919975" lon="135.69914333333332">
<ele>278</ele>
</trkpt>
<trkpt lat="34.39165694444444" lon="135.69869305555557">
<ele>274</ele>
</trkpt>
<trkpt lat="34.39151916666667" lon="135.69850305555556">
<ele>274</ele>
</trkpt>
<trkpt lat="34.39087333333333" lon="135.69762527777777">
<ele>273</ele>
</trkpt>
<trkpt lat="34.390639166666666" lon="135.69732833333333">
<ele>275</ele>
</trkpt>
<trkpt lat="34.390521944444444" lon="135.6971675">
<ele>275</ele>
</trkpt>
<trkpt lat="34.39013111111111" lon="135.69668694444445">
<ele>285</ele>
</trkpt>
<trkpt lat="34.38980027777778" lon="135.69634416666668">
<ele>286</ele>
</trkpt>
<trkpt lat="34.38918972222222" lon="135.69570277777777">
<ele>283</ele>
</trkpt>
<trkpt lat="34.38874805555555" lon="135.69522972222222">
<ele>289</ele>
</trkpt>
<trkpt lat="34.38865472222222" lon="135.69512">
<ele>291</ele>
</trkpt>
<trkpt lat="34.38865138888889" lon="135.69511694444444">
<ele>291</ele>
</trkpt>
<trkpt lat="34.388131666666666" lon="135.694505">
<ele>300</ele>
</trkpt>
<trkpt lat="34.38778111111111" lon="135.69413194444445">
<ele>301</ele>
</trkpt>
<trkpt lat="34.387654166666664" lon="135.69399416666667">
<ele>301</ele>
</trkpt>
<trkpt lat="34.387414444444445" lon="135.69368916666667">
<ele>302</ele>
</trkpt>
<trkpt lat="34.38719638888889" lon="135.69346777777778">
<ele>301</ele>
</trkpt>
<trkpt lat="34.386672222222224" lon="135.69286555555556">
<ele>306</ele>
</trkpt>
<trkpt lat="34.38664194444444" lon="135.69282666666666">
<ele>306</ele>
</trkpt>
<trkpt lat="34.386229722222225" lon="135.69243805555556">
<ele>312</ele>
</trkpt>
<trkpt lat="34.38560888888889" lon="135.6917513888889">
<ele>307</ele>
</trkpt>
<trkpt lat="34.38496333333333" lon="135.69104194444444">
<ele>302</ele>
</trkpt>
<trkpt lat="34.384856944444444" lon="135.69092805555556">
<ele>301</ele>
</trkpt>
<trkpt lat="34.38478" lon="135.69084333333333">
<ele>298</ele>
</trkpt>
<trkpt lat="34.384755" lon="135.69081305555557">
<ele>298</ele>
</trkpt>
<trkpt lat="34.38420055555556" lon="135.6901186111111">
<ele>285</ele>
</trkpt>
<trkpt lat="34.3839" lon="135.68973">
<ele>281</ele>
</trkpt>
<trkpt lat="34.383473611111114" lon="135.6891877777778">
<ele>286</ele>
</trkpt>
<trkpt lat="34.38332055555556" lon="135.6890813888889">
<ele>288</ele>
</trkpt>
<trkpt lat="34.38292888888889" lon="135.68887527777778">
<ele>292</ele>
</trkpt>
<trkpt lat="34.3828475" lon="135.6887688888889">
<ele>293</ele>
</trkpt>
<trkpt lat="34.382781111111115" lon="135.68867666666668">
<ele>287</ele>
</trkpt>
<trkpt lat="34.38269972222222" lon="135.68857805555555">
<ele>287</ele>
</trkpt>
<trkpt lat="34.38248194444444" lon="135.6883261111111">
<ele>285</ele>
</trkpt>
<trkpt lat="34.381835277777775" lon="135.68765444444443">
<ele>285</ele>
</trkpt>
<trkpt lat="34.38176472222222" lon="135.68757861111112">
<ele>285</ele>
</trkpt>
<trkpt lat="34.38158138888889" lon="135.6873647222222">
<ele>285</ele>
</trkpt>
<trkpt lat="34.381545555555554" lon="135.68732694444444">
<ele>286</ele>
</trkpt>
<trkpt lat="34.38130694444445" lon="135.68695277777778">
<ele>275</ele>
</trkpt>
<trkpt lat="34.380873888888885" lon="135.68616722222222">
<ele>265</ele>
</trkpt>
<trkpt lat="34.38083805555556" lon="135.68609138888888">
<ele>266</ele>
</trkpt>
<trkpt lat="34.38037583333333" lon="135.68512222222222">
<ele>261</ele>
</trkpt>
<trkpt lat="34.3799125" lon="135.68415333333334">
<ele>256</ele>
</trkpt>
<trkpt lat="34.37974972222222" lon="135.68381722222222">
<ele>254</ele>
</trkpt>
<trkpt lat="34.37952083333333" lon="135.68337555555556">
<ele>247</ele>
</trkpt>
<trkpt lat="34.3793125" lon="135.6830772222222">
<ele>242</ele>
</trkpt>
<trkpt lat="34.37905861111111" lon="135.68285694444444">
<ele>238</ele>
</trkpt>
<trkpt lat="34.378814444444444" lon="135.68275722222222">
<ele>241</ele>
</trkpt>
<trkpt lat="34.37877972222222" lon="135.6827463888889">
<ele>242</ele>
</trkpt>
<trkpt lat="34.37877861111111" lon="135.68274527777777">
<ele>242</ele>
</trkpt>
<trkpt lat="34.378575833333336" lon="135.68268111111112">
<ele>244</ele>
</trkpt>
<trkpt lat="34.378504166666666" lon="135.6826661111111">
<ele>245</ele>
</trkpt>
<trkpt lat="34.37838166666667" lon="135.68265083333333">
<ele>245</ele>
</trkpt>
<trkpt lat="34.37822416666667" lon="135.6826661111111">
<ele>247</ele>
</trkpt>
<trkpt lat="34.37809722222222" lon="135.68268111111112">
<ele>246</ele>
</trkpt>
<trkpt lat="34.37778138888889" lon="135.68272666666667">
<ele>244</ele>
</trkpt>
<trkpt lat="34.377491944444444" lon="135.68274194444444">
<ele>245</ele>
</trkpt>
<trkpt lat="34.37738972222222" lon="135.68274194444444">
<ele>246</ele>
</trkpt>
<trkpt lat="34.37674416666667" lon="135.6826963888889">
<ele>242</ele>
</trkpt>
<trkpt lat="34.376687777777775" lon="135.6826888888889">
<ele>242</ele>
</trkpt>
<trkpt lat="34.376439166666664" lon="135.68268111111112">
<ele>246</ele>
</trkpt>
<trkpt lat="34.37622555555556" lon="135.68270388888888">
<ele>244</ele>
</trkpt>
<trkpt lat="34.37600666666667" lon="135.68278">
<ele>242</ele>
</trkpt>
<trkpt lat="34.375798333333336" lon="135.68296333333333">
<ele>238</ele>
</trkpt>
<trkpt lat="34.3754425" lon="135.68338333333332">
<ele>235</ele>
</trkpt>
<trkpt lat="34.37479666666667" lon="135.68413083333334">
<ele>229</ele>
</trkpt>
<trkpt lat="34.374405" lon="135.6845886111111">
<ele>227</ele>
</trkpt>
<trkpt lat="34.37420638888889" lon="135.6847786111111">
<ele>225</ele>
</trkpt>
<trkpt lat="34.37403388888889" lon="135.68490111111112">
<ele>225</ele>
</trkpt>
<trkpt lat="34.37385611111111" lon="135.6849925">
<ele>223</ele>
</trkpt>
<trkpt lat="34.37337194444444" lon="135.68516805555555">
<ele>219</ele>
</trkpt>
<trkpt lat="34.37284833333333" lon="135.68535138888888">
<ele>217</ele>
</trkpt>
<trkpt lat="34.372329722222226" lon="135.685535">
<ele>213</ele>
</trkpt>
<trkpt lat="34.37168388888889" lon="135.6857552777778">
<ele>209</ele>
</trkpt>
<trkpt lat="34.37103833333333" lon="135.68596888888888">
<ele>205</ele>
</trkpt>
<trkpt lat="34.37039166666667" lon="135.68619027777777">
<ele>201</ele>
</trkpt>
<trkpt lat="34.37034611111111" lon="135.68621305555556">
<ele>201</ele>
</trkpt>
<trkpt lat="34.37007166666667" lon="135.68631277777777">
<ele>199</ele>
</trkpt>
<trkpt lat="34.36942611111111" lon="135.68654194444446">
<ele>195</ele>
</trkpt>
<trkpt lat="34.36949666666667" lon="135.68683916666666">
<ele>196</ele>
</trkpt>
<trkpt lat="34.369522777777775" lon="135.6869375">
<ele>195</ele>
</trkpt>
<trkpt lat="34.36975611111111" lon="135.68790666666666">
<ele>192</ele>
</trkpt>
<trkpt lat="34.369791944444444" lon="135.68805944444443">
<ele>191</ele>
</trkpt>
<trkpt lat="34.37000555555556" lon="135.6890286111111">
<ele>185</ele>
</trkpt>
<trkpt lat="34.37005666666666" lon="135.68939416666666">
<ele>185</ele>
</trkpt>
<trkpt lat="34.370081666666664" lon="135.6897913888889">
<ele>184</ele>
</trkpt>
<trkpt lat="34.370081666666664" lon="135.689905">
<ele>183</ele>
</trkpt>
<trkpt lat="34.3700925" lon="135.69080555555556">
<ele>178</ele>
</trkpt>
<trkpt lat="34.3700925" lon="135.69111805555556">
<ele>177</ele>
</trkpt>
<trkpt lat="34.370081666666664" lon="135.69145444444445">
<ele>176</ele>
</trkpt>
<trkpt lat="34.370081666666664" lon="135.69153805555555">
<ele>175</ele>
</trkpt>
<trkpt lat="34.37005666666666" lon="135.691805">
<ele>172</ele>
</trkpt>
<trkpt lat="34.370015555555554" lon="135.69200361111112">
<ele>172</ele>
</trkpt>
<trkpt lat="34.36993944444445" lon="135.6922172222222">
<ele>171</ele>
</trkpt>
<trkpt lat="34.369818055555555" lon="135.69240055555557">
<ele>171</ele>
</trkpt>
<trkpt lat="34.36964972222222" lon="135.6925525">
<ele>171</ele>
</trkpt>
<trkpt lat="34.369522777777775" lon="135.6926447222222">
<ele>171</ele>
</trkpt>
<trkpt lat="34.369390833333334" lon="135.6927511111111">
<ele>171</ele>
</trkpt>
<trkpt lat="34.36884166666667" lon="135.6931786111111">
<ele>167</ele>
</trkpt>
<trkpt lat="34.368465" lon="135.69347555555555">
<ele>165</ele>
</trkpt>
<trkpt lat="34.368225277777775" lon="135.69368194444445">
<ele>162</ele>
</trkpt>
<trkpt lat="34.36822111111111" lon="135.69368944444443">
<ele>162</ele>
</trkpt>
<trkpt lat="34.367574166666664" lon="135.69417777777778">
<ele>165</ele>
</trkpt>
<trkpt lat="34.36730527777778" lon="135.69433083333334">
<ele>162</ele>
</trkpt>
<trkpt lat="34.367133055555556" lon="135.6943913888889">
<ele>162</ele>
</trkpt>
<trkpt lat="34.366705555555555" lon="135.69451305555555">
<ele>162</ele>
</trkpt>
<trkpt lat="34.36646666666667" lon="135.69460527777778">
<ele>157</ele>
</trkpt>
<trkpt lat="34.366308333333336" lon="135.6946888888889">
<ele>155</ele>
</trkpt>
<trkpt lat="34.366126111111114" lon="135.69481888888888">
<ele>155</ele>
</trkpt>
<trkpt lat="34.36575916666666" lon="135.6951163888889">
<ele>155</ele>
</trkpt>
<trkpt lat="34.36566805555555" lon="135.6952">
<ele>155</ele>
</trkpt>
<trkpt lat="34.3655" lon="135.69535277777777">
<ele>156</ele>
</trkpt>
<trkpt lat="34.36549027777778" lon="135.69535277777777">
<ele>156</ele>
</trkpt>
<trkpt lat="34.36539805555555" lon="135.6954438888889">
<ele>155</ele>
</trkpt>
<trkpt lat="34.36530138888889" lon="135.69551222222222">
<ele>155</ele>
</trkpt>
<trkpt lat="34.365138611111114" lon="135.6956502777778">
<ele>155</ele>
</trkpt>
<trkpt lat="34.364957777777775" lon="135.69581944444445">
<ele>155</ele>
</trkpt>
<trkpt lat="34.364957777777775" lon="135.69581944444445">
<ele>155</ele>
</trkpt>
<trkpt lat="34.365138611111114" lon="135.6956502777778">
<ele>155</ele>
</trkpt>
<trkpt lat="34.36530138888889" lon="135.69551222222222">
<ele>155</ele>
</trkpt>
<trkpt lat="34.365250277777776" lon="135.69548194444445">
<ele>155</ele>
</trkpt>
<trkpt lat="34.36514944444444" lon="135.69536805555555">
<ele>154</ele>
</trkpt>
<trkpt lat="34.364731666666664" lon="135.69470388888888">
<ele>148</ele>
</trkpt>
<trkpt lat="34.364335555555556" lon="135.69400222222222">
<ele>150</ele>
</trkpt>
<trkpt lat="34.36378555555556" lon="135.69303333333335">
<ele>151</ele>
</trkpt>
<trkpt lat="34.36359777777778" lon="135.69271305555554">
<ele>151</ele>
</trkpt>
<trkpt lat="34.36339916666667" lon="135.6923538888889">
<ele>150</ele>
</trkpt>
<trkpt lat="34.36316472222222" lon="135.69198833333334">
<ele>145</ele>
</trkpt>
<trkpt lat="34.363013055555555" lon="135.69176694444445">
<ele>145</ele>
</trkpt>
<trkpt lat="34.36236611111111" lon="135.6908513888889">
<ele>145</ele>
</trkpt>
<trkpt lat="34.361913888888886" lon="135.6903175">
<ele>145</ele>
</trkpt>
<trkpt lat="34.36158388888889" lon="135.68994444444445">
<ele>144</ele>
</trkpt>
<trkpt lat="34.36102416666667" lon="135.6893411111111">
<ele>141</ele>
</trkpt>
<trkpt lat="34.360973333333334" lon="135.68928777777776">
<ele>140</ele>
</trkpt>
<trkpt lat="34.360327777777776" lon="135.68873916666666">
<ele>141</ele>
</trkpt>
<trkpt lat="34.36017472222222" lon="135.68860138888888">
<ele>142</ele>
</trkpt>
<trkpt lat="34.359716666666664" lon="135.6881888888889">
<ele>147</ele>
</trkpt>
<trkpt lat="34.35962555555555" lon="135.68802944444445">
<ele>147</ele>
</trkpt>
<trkpt lat="34.35955944444444" lon="135.6878763888889">
<ele>145</ele>
</trkpt>
<trkpt lat="34.35955944444444" lon="135.6878688888889">
<ele>145</ele>
</trkpt>
<trkpt lat="34.3594575" lon="135.68770055555555">
<ele>145</ele>
</trkpt>
<trkpt lat="34.359325" lon="135.6875261111111">
<ele>140</ele>
</trkpt>
<trkpt lat="34.359315277777775" lon="135.68747944444445">
<ele>140</ele>
</trkpt>
<trkpt lat="34.35931" lon="135.68746416666667">
<ele>140</ele>
</trkpt>
<trkpt lat="34.35919277777778" lon="135.6873425">
<ele>128</ele>
</trkpt>
<trkpt lat="34.359188333333336" lon="135.687335">
<ele>128</ele>
</trkpt>
<trkpt lat="34.35907111111111" lon="135.68723833333334">
<ele>130</ele>
</trkpt>
<trkpt lat="34.35906888888889" lon="135.6872363888889">
<ele>130</ele>
</trkpt>
<trkpt lat="34.35854194444445" lon="135.68680111111112">
<ele>138</ele>
</trkpt>
<trkpt lat="34.358399722222224" lon="135.68665583333333">
<ele>141</ele>
</trkpt>
<trkpt lat="34.358293333333336" lon="135.6864647222222">
<ele>142</ele>
</trkpt>
<trkpt lat="34.35822722222222" lon="135.68610666666666">
<ele>144</ele>
</trkpt>
<trkpt lat="34.35807416666667" lon="135.68634333333333">
<ele>144</ele>
</trkpt>
<trkpt lat="34.357865833333335" lon="135.68670138888888">
<ele>144</ele>
</trkpt>
<trkpt lat="34.35767277777778" lon="135.687015">
<ele>143</ele>
</trkpt>
<trkpt lat="34.35760666666667" lon="135.68712888888888">
<ele>143</ele>
</trkpt>
<trkpt lat="34.35744388888889" lon="135.68740333333332">
<ele>142</ele>
</trkpt>
<trkpt lat="34.35725083333333" lon="135.68773972222223">
<ele>141</ele>
</trkpt>
<trkpt lat="34.35708277777778" lon="135.68804472222223">
<ele>137</ele>
</trkpt>
<trkpt lat="34.35697638888889" lon="135.68818861111112">
<ele>137</ele>
</trkpt>
<trkpt lat="34.356859166666666" lon="135.6883036111111">
<ele>138</ele>
</trkpt>
<trkpt lat="34.35666611111111" lon="135.6884327777778">
<ele>132</ele>
</trkpt>
<trkpt lat="34.35657388888889" lon="135.68849472222223">
<ele>132</ele>
</trkpt>
<trkpt lat="34.35640138888889" lon="135.6886313888889">
<ele>129</ele>
</trkpt>
<trkpt lat="34.35628416666667" lon="135.6887538888889">
<ele>128</ele>
</trkpt>
<trkpt lat="34.356233055555556" lon="135.68883">
<ele>127</ele>
</trkpt>
<trkpt lat="34.356051111111114" lon="135.6892575">
<ele>125</ele>
</trkpt>
<trkpt lat="34.356025" lon="135.68930305555557">
<ele>125</ele>
</trkpt>
<trkpt lat="34.355867777777775" lon="135.6896686111111">
<ele>122</ele>
</trkpt>
<trkpt lat="34.355765833333336" lon="135.68989">
<ele>118</ele>
</trkpt>
<trkpt lat="34.355385" lon="135.6907675">
<ele>117</ele>
</trkpt>
<trkpt lat="34.35534361111111" lon="135.69086638888888">
<ele>117</ele>
</trkpt>
<trkpt lat="34.35531861111111" lon="135.69094333333334">
<ele>116</ele>
</trkpt>
<trkpt lat="34.35529805555556" lon="135.69101944444444">
<ele>116</ele>
</trkpt>
<trkpt lat="34.355267777777776" lon="135.69122555555555">
<ele>115</ele>
</trkpt>
<trkpt lat="34.35525694444444" lon="135.6912636111111">
<ele>115</ele>
</trkpt>
<trkpt lat="34.355241666666664" lon="135.69131666666667">
<ele>115</ele>
</trkpt>
<trkpt lat="34.355201666666666" lon="135.69139361111112">
<ele>114</ele>
</trkpt>
<trkpt lat="34.35506916666667" lon="135.69153805555555">
<ele>114</ele>
</trkpt>
<trkpt lat="34.3549675" lon="135.69165305555555">
<ele>113</ele>
</trkpt>
<trkpt lat="34.35492722222222" lon="135.6916911111111">
<ele>113</ele>
</trkpt>
<trkpt lat="34.35430111111111" lon="135.69225527777778">
<ele>114</ele>
</trkpt>
<trkpt lat="34.354235" lon="135.6923161111111">
<ele>114</ele>
</trkpt>
<trkpt lat="34.35369138888889" lon="135.69282722222223">
<ele>114</ele>
</trkpt>
<trkpt lat="34.35355361111111" lon="135.69298">
<ele>114</ele>
</trkpt>
<trkpt lat="34.35338138888889" lon="135.69319388888889">
<ele>113</ele>
</trkpt>
<trkpt lat="34.35273472222222" lon="135.6939638888889">
<ele>109</ele>
</trkpt>
<trkpt lat="34.35259805555555" lon="135.6941322222222">
<ele>108</ele>
</trkpt>
<trkpt lat="34.35195138888889" lon="135.69487972222223">
<ele>105</ele>
</trkpt>
<trkpt lat="34.351733333333335" lon="135.69515416666667">
<ele>108</ele>
</trkpt>
<trkpt lat="34.35162611111111" lon="135.69530722222223">
<ele>109</ele>
</trkpt>
<trkpt lat="34.351663888888886" lon="135.69530416666666">
<ele>109</ele>
</trkpt>
    </trkseg>
  </trk>
</gpx>