<?xml version="1.0" encoding="UTF-8"?>
<gpx version="1.1"
     creator="KMLtoGPX"
     xmlns="http://www.topografix.com/GPX/1/1">
  <metadata>
    <name>Murouji Temple Route (T13)</name>
    <desc>室生寺ルート(T13)</desc>
    <bounds minlat="34.48254416666666" minlon="135.95905694444446" maxlat="34.55887361111111" maxlon="136.0565125"/>
  </metadata>
  <trk>
    <name>Murouji Temple Route (T13)</name>
    <trkseg>
<trkpt lat="34.53051055555556" lon="135.95905694444446">
<ele>307</ele>
</trkpt>
<trkpt lat="34.530459444444446" lon="135.959145">
<ele>307</ele>
</trkpt>
<trkpt lat="34.530393333333336" lon="135.95929">
<ele>307</ele>
</trkpt>
<trkpt lat="34.530007222222224" lon="135.9602588888889">
<ele>306</ele>
</trkpt>
<trkpt lat="34.52995083333333" lon="135.96038805555557">
<ele>305</ele>
</trkpt>
<trkpt lat="34.52988472222222" lon="135.96055638888888">
<ele>305</ele>
</trkpt>
<trkpt lat="34.52984444444444" lon="135.96065611111112">
<ele>305</ele>
</trkpt>
<trkpt lat="34.52961" lon="135.96120527777776">
<ele>304</ele>
</trkpt>
<trkpt lat="34.5294625" lon="135.96155555555555">
<ele>304</ele>
</trkpt>
<trkpt lat="34.529401666666665" lon="135.9617388888889">
<ele>307</ele>
</trkpt>
<trkpt lat="34.52938666666667" lon="135.96183027777778">
<ele>307</ele>
</trkpt>
<trkpt lat="34.529376944444444" lon="135.96194527777777">
<ele>307</ele>
</trkpt>
<trkpt lat="34.52935083333333" lon="135.96225777777778">
<ele>307</ele>
</trkpt>
<trkpt lat="34.52936166666667" lon="135.96251666666666">
<ele>307</ele>
</trkpt>
<trkpt lat="34.529426666666666" lon="135.96327944444445">
<ele>305</ele>
</trkpt>
<trkpt lat="34.529426666666666" lon="135.96344">
<ele>305</ele>
</trkpt>
<trkpt lat="34.529335555555555" lon="135.96389055555557">
<ele>304</ele>
</trkpt>
<trkpt lat="34.52930527777778" lon="135.96410416666666">
<ele>306</ele>
</trkpt>
<trkpt lat="34.529310555555554" lon="135.96431805555557">
<ele>306</ele>
</trkpt>
<trkpt lat="34.52937138888889" lon="135.96476722222224">
<ele>303</ele>
</trkpt>
<trkpt lat="34.52948861111111" lon="135.9654763888889">
<ele>304</ele>
</trkpt>
<trkpt lat="34.529493055555555" lon="135.96584333333334">
<ele>304</ele>
</trkpt>
<trkpt lat="34.52948888888889" lon="135.9660875">
<ele>304</ele>
</trkpt>
<trkpt lat="34.52946277777778" lon="135.96623166666666">
<ele>303</ele>
</trkpt>
<trkpt lat="34.529447777777776" lon="135.9663011111111">
<ele>303</ele>
</trkpt>
<trkpt lat="34.52937722222222" lon="135.9665061111111">
<ele>304</ele>
</trkpt>
<trkpt lat="34.529203611111114" lon="135.9667125">
<ele>306</ele>
</trkpt>
<trkpt lat="34.52906138888889" lon="135.96692611111112">
<ele>305</ele>
</trkpt>
<trkpt lat="34.52899527777778" lon="135.96701833333333">
<ele>305</ele>
</trkpt>
<trkpt lat="34.52883777777778" lon="135.96721583333334">
<ele>304</ele>
</trkpt>
<trkpt lat="34.52847638888889" lon="135.96761305555555">
<ele>304</ele>
</trkpt>
<trkpt lat="34.52822694444444" lon="135.96784194444444">
<ele>303</ele>
</trkpt>
<trkpt lat="34.5279525" lon="135.9681013888889">
<ele>305</ele>
</trkpt>
<trkpt lat="34.52786138888889" lon="135.96821527777777">
<ele>305</ele>
</trkpt>
<trkpt lat="34.52771388888889" lon="135.96847555555556">
<ele>302</ele>
</trkpt>
<trkpt lat="34.52770861111111" lon="135.9684875">
<ele>302</ele>
</trkpt>
<trkpt lat="34.52770861111111" lon="135.9684875">
<ele>302</ele>
</trkpt>
<trkpt lat="34.52762166666667" lon="135.96868083333334">
<ele>303</ele>
</trkpt>
<trkpt lat="34.527545833333335" lon="135.96893972222222">
<ele>305</ele>
</trkpt>
<trkpt lat="34.52749472222222" lon="135.96916861111112">
<ele>303</ele>
</trkpt>
<trkpt lat="34.52743944444445" lon="135.96954305555556">
<ele>305</ele>
</trkpt>
<trkpt lat="34.52741888888889" lon="135.96982527777777">
<ele>305</ele>
</trkpt>
<trkpt lat="34.52741888888889" lon="135.96999333333332">
<ele>305</ele>
</trkpt>
<trkpt lat="34.52744388888889" lon="135.97038944444444">
<ele>301</ele>
</trkpt>
<trkpt lat="34.52753055555556" lon="135.9710536111111">
<ele>303</ele>
</trkpt>
<trkpt lat="34.52753611111111" lon="135.97113694444445">
<ele>304</ele>
</trkpt>
<trkpt lat="34.52760222222222" lon="135.971405">
<ele>302</ele>
</trkpt>
<trkpt lat="34.52760222222222" lon="135.97151888888888">
<ele>303</ele>
</trkpt>
<trkpt lat="34.52760222222222" lon="135.9717025">
<ele>304</ele>
</trkpt>
<trkpt lat="34.52756111111111" lon="135.97191583333333">
<ele>303</ele>
</trkpt>
<trkpt lat="34.5273375" lon="135.97288472222223">
<ele>306</ele>
</trkpt>
<trkpt lat="34.527235555555556" lon="135.97331888888888">
<ele>308</ele>
</trkpt>
<trkpt lat="34.52711388888889" lon="135.97379194444446">
<ele>308</ele>
</trkpt>
<trkpt lat="34.52706305555556" lon="135.9738538888889">
<ele>308</ele>
</trkpt>
<trkpt lat="34.526762777777776" lon="135.97401333333335">
<ele>308</ele>
</trkpt>
<trkpt lat="34.52662055555555" lon="135.97408277777777">
<ele>308</ele>
</trkpt>
<trkpt lat="34.526514166666665" lon="135.97409027777778">
<ele>308</ele>
</trkpt>
<trkpt lat="34.52605638888889" lon="135.97402861111112">
<ele>308</ele>
</trkpt>
<trkpt lat="34.52561361111111" lon="135.97401333333335">
<ele>307</ele>
</trkpt>
<trkpt lat="34.52527277777778" lon="135.97397527777778">
<ele>308</ele>
</trkpt>
<trkpt lat="34.52484527777778" lon="135.97393">
<ele>308</ele>
</trkpt>
<trkpt lat="34.52471305555556" lon="135.97393">
<ele>308</ele>
</trkpt>
<trkpt lat="34.524595833333336" lon="135.97399083333335">
<ele>308</ele>
</trkpt>
<trkpt lat="34.52444388888889" lon="135.97409055555556">
<ele>308</ele>
</trkpt>
<trkpt lat="34.52433666666666" lon="135.9742425">
<ele>308</ele>
</trkpt>
<trkpt lat="34.524230277777775" lon="135.97447916666667">
<ele>307</ele>
</trkpt>
<trkpt lat="34.5240775" lon="135.9748913888889">
<ele>307</ele>
</trkpt>
<trkpt lat="34.52395583333333" lon="135.97515083333334">
<ele>308</ele>
</trkpt>
<trkpt lat="34.52385388888889" lon="135.9753263888889">
<ele>308</ele>
</trkpt>
<trkpt lat="34.52375194444444" lon="135.97546333333332">
<ele>309</ele>
</trkpt>
<trkpt lat="34.52343722222222" lon="135.9758527777778">
<ele>309</ele>
</trkpt>
<trkpt lat="34.523202777777776" lon="135.97608166666666">
<ele>309</ele>
</trkpt>
<trkpt lat="34.52306055555555" lon="135.97618055555554">
<ele>309</ele>
</trkpt>
<trkpt lat="34.52283611111111" lon="135.9762802777778">
<ele>309</ele>
</trkpt>
<trkpt lat="34.5225725" lon="135.9763638888889">
<ele>309</ele>
</trkpt>
<trkpt lat="34.52238916666666" lon="135.9764625">
<ele>309</ele>
</trkpt>
<trkpt lat="34.522262222222224" lon="135.9765775">
<ele>309</ele>
</trkpt>
<trkpt lat="34.521615555555556" lon="135.97721777777778">
<ele>311</ele>
</trkpt>
<trkpt lat="34.52151472222222" lon="135.97732527777777">
<ele>311</ele>
</trkpt>
<trkpt lat="34.52128027777778" lon="135.97755416666666">
<ele>313</ele>
</trkpt>
<trkpt lat="34.5211275" lon="135.97791222222222">
<ele>313</ele>
</trkpt>
<trkpt lat="34.52073166666667" lon="135.97888083333333">
<ele>314</ele>
</trkpt>
<trkpt lat="34.520538333333334" lon="135.979225">
<ele>316</ele>
</trkpt>
<trkpt lat="34.52031916666667" lon="135.97957527777777">
<ele>317</ele>
</trkpt>
<trkpt lat="34.520069722222225" lon="135.97998">
<ele>318</ele>
</trkpt>
<trkpt lat="34.520024166666666" lon="135.98021666666668">
<ele>318</ele>
</trkpt>
<trkpt lat="34.52010555555555" lon="135.98118555555556">
<ele>318</ele>
</trkpt>
<trkpt lat="34.520131666666664" lon="135.98142972222223">
<ele>318</ele>
</trkpt>
<trkpt lat="34.52010555555555" lon="135.98158916666668">
<ele>319</ele>
</trkpt>
<trkpt lat="34.51987222222222" lon="135.98255833333334">
<ele>320</ele>
</trkpt>
<trkpt lat="34.51974444444444" lon="135.98305416666668">
<ele>321</ele>
</trkpt>
<trkpt lat="34.51969888888889" lon="135.9831538888889">
<ele>321</ele>
</trkpt>
<trkpt lat="34.519598055555555" lon="135.9832375">
<ele>321</ele>
</trkpt>
<trkpt lat="34.518996944444446" lon="135.98364222222222">
<ele>326</ele>
</trkpt>
<trkpt lat="34.51863111111111" lon="135.98393944444445">
<ele>327</ele>
</trkpt>
<trkpt lat="34.51852916666667" lon="135.9840925">
<ele>327</ele>
</trkpt>
<trkpt lat="34.51848916666667" lon="135.9841911111111">
<ele>327</ele>
</trkpt>
<trkpt lat="34.51830555555556" lon="135.98505277777778">
<ele>327</ele>
</trkpt>
<trkpt lat="34.51820361111111" lon="135.98538916666666">
<ele>327</ele>
</trkpt>
<trkpt lat="34.517939166666665" lon="135.98567888888888">
<ele>327</ele>
</trkpt>
<trkpt lat="34.51786333333333" lon="135.9857775">
<ele>328</ele>
</trkpt>
<trkpt lat="34.51777194444445" lon="135.98601416666668">
<ele>328</ele>
</trkpt>
<trkpt lat="34.51767" lon="135.98617472222222">
<ele>327</ele>
</trkpt>
<trkpt lat="34.51752805555556" lon="135.9863125">
<ele>329</ele>
</trkpt>
<trkpt lat="34.517405277777776" lon="135.98638083333333">
<ele>329</ele>
</trkpt>
<trkpt lat="34.51723833333333" lon="135.9864263888889">
<ele>331</ele>
</trkpt>
<trkpt lat="34.517136111111114" lon="135.9864797222222">
<ele>330</ele>
</trkpt>
<trkpt lat="34.51700388888889" lon="135.98656416666665">
<ele>330</ele>
</trkpt>
<trkpt lat="34.51683138888889" lon="135.98673888888888">
<ele>333</ele>
</trkpt>
<trkpt lat="34.51674444444444" lon="135.98686916666668">
<ele>334</ele>
</trkpt>
<trkpt lat="34.51670333333333" lon="135.98700583333334">
<ele>333</ele>
</trkpt>
<trkpt lat="34.516688055555555" lon="135.9871513888889">
<ele>333</ele>
</trkpt>
<trkpt lat="34.51672388888889" lon="135.9873802777778">
<ele>334</ele>
</trkpt>
<trkpt lat="34.51686611111111" lon="135.98775472222223">
<ele>336</ele>
</trkpt>
<trkpt lat="34.51688111111111" lon="135.98792916666667">
<ele>337</ele>
</trkpt>
<trkpt lat="34.51686611111111" lon="135.988105">
<ele>337</ele>
</trkpt>
<trkpt lat="34.51680527777778" lon="135.98824277777777">
<ele>337</ele>
</trkpt>
<trkpt lat="34.51656138888889" lon="135.98846305555554">
<ele>337</ele>
</trkpt>
<trkpt lat="34.516464722222224" lon="135.98848694444445">
<ele>338</ele>
</trkpt>
<trkpt lat="34.51629666666667" lon="135.98848694444445">
<ele>344</ele>
</trkpt>
<trkpt lat="34.516058055555554" lon="135.9884175">
<ele>345</ele>
</trkpt>
<trkpt lat="34.51594083333333" lon="135.9884175">
<ele>345</ele>
</trkpt>
<trkpt lat="34.51582888888889" lon="135.98845555555556">
<ele>343</ele>
</trkpt>
<trkpt lat="34.5157475" lon="135.9885175">
<ele>345</ele>
</trkpt>
<trkpt lat="34.515656388888885" lon="135.98863138888888">
<ele>347</ele>
</trkpt>
<trkpt lat="34.515564166666664" lon="135.98879944444445">
<ele>343</ele>
</trkpt>
<trkpt lat="34.51524944444444" lon="135.9895547222222">
<ele>344</ele>
</trkpt>
<trkpt lat="34.5151475" lon="135.9896913888889">
<ele>344</ele>
</trkpt>
<trkpt lat="34.51482194444444" lon="135.98992805555557">
<ele>345</ele>
</trkpt>
<trkpt lat="34.51455722222222" lon="135.98995194444444">
<ele>346</ele>
</trkpt>
<trkpt lat="34.51455305555555" lon="135.98995194444444">
<ele>346</ele>
</trkpt>
<trkpt lat="34.51390638888889" lon="135.98995194444444">
<ele>346</ele>
</trkpt>
<trkpt lat="34.5136625" lon="135.98998972222222">
<ele>347</ele>
</trkpt>
<trkpt lat="34.51354083333333" lon="135.99005055555557">
<ele>349</ele>
</trkpt>
<trkpt lat="34.51338777777778" lon="135.99017972222222">
<ele>350</ele>
</trkpt>
<trkpt lat="34.51289972222222" lon="135.99071444444445">
<ele>350</ele>
</trkpt>
<trkpt lat="34.512812777777775" lon="135.99088916666668">
<ele>351</ele>
</trkpt>
<trkpt lat="34.51276277777778" lon="135.991065">
<ele>354</ele>
</trkpt>
<trkpt lat="34.512655555555554" lon="135.99185055555554">
<ele>356</ele>
</trkpt>
<trkpt lat="34.512574444444446" lon="135.99249944444443">
<ele>356</ele>
</trkpt>
<trkpt lat="34.51250805555556" lon="135.99280416666667">
<ele>356</ele>
</trkpt>
<trkpt lat="34.51243222222222" lon="135.9929647222222">
<ele>357</ele>
</trkpt>
<trkpt lat="34.512030833333334" lon="135.99337722222222">
<ele>357</ele>
</trkpt>
<trkpt lat="34.51174527777778" lon="135.9936136111111">
<ele>356</ele>
</trkpt>
<trkpt lat="34.51159222222222" lon="135.9936972222222">
<ele>358</ele>
</trkpt>
<trkpt lat="34.51094666666667" lon="135.99401722222223">
<ele>364</ele>
</trkpt>
<trkpt lat="34.51030138888889" lon="135.99432222222222">
<ele>369</ele>
</trkpt>
<trkpt lat="34.50965472222222" lon="135.99463583333332">
<ele>374</ele>
</trkpt>
<trkpt lat="34.50942138888889" lon="135.99474972222222">
<ele>376</ele>
</trkpt>
<trkpt lat="34.50938027777778" lon="135.99478027777778">
<ele>379</ele>
</trkpt>
<trkpt lat="34.50934" lon="135.9947877777778">
<ele>379</ele>
</trkpt>
<trkpt lat="34.509304166666666" lon="135.99481805555556">
<ele>378</ele>
</trkpt>
<trkpt lat="34.509166388888886" lon="135.99486472222222">
<ele>377</ele>
</trkpt>
<trkpt lat="34.50899944444444" lon="135.99490277777778">
<ele>378</ele>
</trkpt>
<trkpt lat="34.50869888888889" lon="135.99495583333334">
<ele>377</ele>
</trkpt>
<trkpt lat="34.508495833333335" lon="135.99495583333334">
<ele>377</ele>
</trkpt>
<trkpt lat="34.508271111111114" lon="135.99492555555557">
<ele>377</ele>
</trkpt>
<trkpt lat="34.507824444444445" lon="135.99478027777778">
<ele>377</ele>
</trkpt>
<trkpt lat="34.50717888888889" lon="135.99459027777777">
<ele>377</ele>
</trkpt>
<trkpt lat="34.50653222222222" lon="135.99439916666665">
<ele>376</ele>
</trkpt>
<trkpt lat="34.5062575" lon="135.99432972222223">
<ele>372</ele>
</trkpt>
<trkpt lat="34.506166388888886" lon="135.99429194444446">
<ele>372</ele>
</trkpt>
<trkpt lat="34.506054722222224" lon="135.9942311111111">
<ele>373</ele>
</trkpt>
<trkpt lat="34.505896388888885" lon="135.99411722222223">
<ele>374</ele>
</trkpt>
<trkpt lat="34.505449166666665" lon="135.99375027777776">
<ele>374</ele>
</trkpt>
<trkpt lat="34.504803611111114" lon="135.9931861111111">
<ele>378</ele>
</trkpt>
<trkpt lat="34.504325" lon="135.9927663888889">
<ele>380</ele>
</trkpt>
<trkpt lat="34.50423833333333" lon="135.99271305555556">
<ele>380</ele>
</trkpt>
<trkpt lat="34.50411666666667" lon="135.99269027777777">
<ele>383</ele>
</trkpt>
<trkpt lat="34.50347" lon="135.99264472222222">
<ele>380</ele>
</trkpt>
<trkpt lat="34.50333888888889" lon="135.99262833333333">
<ele>379</ele>
</trkpt>
<trkpt lat="34.5032825" lon="135.99262833333333">
<ele>383</ele>
</trkpt>
<trkpt lat="34.50295722222222" lon="135.99261333333334">
<ele>386</ele>
</trkpt>
<trkpt lat="34.50231138888889" lon="135.99259055555555">
<ele>384</ele>
</trkpt>
<trkpt lat="34.50166472222222" lon="135.99256777777777">
<ele>383</ele>
</trkpt>
<trkpt lat="34.501512777777776" lon="135.99261333333334">
<ele>383</ele>
</trkpt>
<trkpt lat="34.50136527777778" lon="135.99272833333333">
<ele>385</ele>
</trkpt>
<trkpt lat="34.501289444444446" lon="135.99282694444443">
<ele>384</ele>
</trkpt>
<trkpt lat="34.501242777777776" lon="135.9929647222222">
<ele>385</ele>
</trkpt>
<trkpt lat="34.50116694444444" lon="135.9934">
<ele>386</ele>
</trkpt>
<trkpt lat="34.50105527777778" lon="135.99436888888889">
<ele>388</ele>
</trkpt>
<trkpt lat="34.50104" lon="135.99447527777778">
<ele>388</ele>
</trkpt>
<trkpt lat="34.50098361111111" lon="135.99459027777777">
<ele>388</ele>
</trkpt>
<trkpt lat="34.50087194444444" lon="135.9946813888889">
<ele>388</ele>
</trkpt>
<trkpt lat="34.50076555555555" lon="135.99470416666668">
<ele>389</ele>
</trkpt>
<trkpt lat="34.50011888888889" lon="135.99459027777777">
<ele>391</ele>
</trkpt>
<trkpt lat="34.49959055555556" lon="135.99449055555556">
<ele>393</ele>
</trkpt>
<trkpt lat="34.49919361111111" lon="135.99439166666667">
<ele>392</ele>
</trkpt>
<trkpt lat="34.49888333333333" lon="135.9943375">
<ele>391</ele>
</trkpt>
<trkpt lat="34.49860861111111" lon="135.99432972222223">
<ele>391</ele>
</trkpt>
<trkpt lat="34.49847638888889" lon="135.99436888888889">
<ele>391</ele>
</trkpt>
<trkpt lat="34.49836444444445" lon="135.9944525">
<ele>392</ele>
</trkpt>
<trkpt lat="34.4982225" lon="135.99462055555554">
<ele>395</ele>
</trkpt>
<trkpt lat="34.4976225" lon="135.99533027777778">
<ele>407</ele>
</trkpt>
<trkpt lat="34.497515" lon="135.99543666666668">
<ele>407</ele>
</trkpt>
<trkpt lat="34.497373055555556" lon="135.99555055555555">
<ele>407</ele>
</trkpt>
<trkpt lat="34.49704222222222" lon="135.99577944444445">
<ele>408</ele>
</trkpt>
<trkpt lat="34.49653444444444" lon="135.99610055555556">
<ele>405</ele>
</trkpt>
<trkpt lat="34.496386666666666" lon="135.99620694444445">
<ele>406</ele>
</trkpt>
<trkpt lat="34.49574" lon="135.99664972222223">
<ele>412</ele>
</trkpt>
<trkpt lat="34.49560888888889" lon="135.9967636111111">
<ele>413</ele>
</trkpt>
<trkpt lat="34.49547666666667" lon="135.99691666666666">
<ele>413</ele>
</trkpt>
<trkpt lat="34.49531388888889" lon="135.99715305555554">
<ele>413</ele>
</trkpt>
<trkpt lat="34.495043611111115" lon="135.99774">
<ele>415</ele>
</trkpt>
<trkpt lat="34.494931944444446" lon="135.99791583333334">
<ele>416</ele>
</trkpt>
<trkpt lat="34.494865833333336" lon="135.99807638888888">
<ele>417</ele>
</trkpt>
<trkpt lat="34.494835277777774" lon="135.99829">
<ele>416</ele>
</trkpt>
<trkpt lat="34.49476388888889" lon="135.99896833333332">
<ele>415</ele>
</trkpt>
<trkpt lat="34.49467277777778" lon="135.99993722222223">
<ele>414</ele>
</trkpt>
<trkpt lat="34.49458138888889" lon="136.0009061111111">
<ele>413</ele>
</trkpt>
<trkpt lat="34.49453611111111" lon="136.0011047222222">
<ele>413</ele>
</trkpt>
<trkpt lat="34.494500277777774" lon="136.0012272222222">
<ele>412</ele>
</trkpt>
<trkpt lat="34.49388527777778" lon="136.00219611111112">
<ele>416</ele>
</trkpt>
<trkpt lat="34.49326888888889" lon="136.003165">
<ele>421</ele>
</trkpt>
<trkpt lat="34.49272555555556" lon="136.0040113888889">
<ele>424</ele>
</trkpt>
<trkpt lat="34.49259305555555" lon="136.00427833333333">
<ele>425</ele>
</trkpt>
<trkpt lat="34.49221111111111" lon="136.0052472222222">
<ele>426</ele>
</trkpt>
<trkpt lat="34.49194194444444" lon="136.0059263888889">
<ele>426</ele>
</trkpt>
<trkpt lat="34.491616666666665" lon="136.00667388888888">
<ele>430</ele>
</trkpt>
<trkpt lat="34.491225" lon="136.0076427777778">
<ele>433</ele>
</trkpt>
<trkpt lat="34.49082805555555" lon="136.00861166666667">
<ele>436</ele>
</trkpt>
<trkpt lat="34.49058388888889" lon="136.00919888888887">
<ele>438</ele>
</trkpt>
<trkpt lat="34.4905025" lon="136.0093975">
<ele>439</ele>
</trkpt>
<trkpt lat="34.49010638888889" lon="136.01036638888888">
<ele>444</ele>
</trkpt>
<trkpt lat="34.49004027777778" lon="136.0106861111111">
<ele>445</ele>
</trkpt>
<trkpt lat="34.49001972222222" lon="136.01097694444445">
<ele>449</ele>
</trkpt>
<trkpt lat="34.489999166666664" lon="136.0112513888889">
<ele>457</ele>
</trkpt>
<trkpt lat="34.48997972222222" lon="136.01222055555556">
<ele>455</ele>
</trkpt>
<trkpt lat="34.48997444444444" lon="136.01242666666667">
<ele>455</ele>
</trkpt>
<trkpt lat="34.48995361111111" lon="136.01263916666667">
<ele>455</ele>
</trkpt>
<trkpt lat="34.489893055555555" lon="136.01285305555555">
<ele>456</ele>
</trkpt>
<trkpt lat="34.48967388888889" lon="136.01341083333332">
<ele>456</ele>
</trkpt>
<trkpt lat="34.48946" lon="136.01391416666667">
<ele>456</ele>
</trkpt>
<trkpt lat="34.48922666666667" lon="136.0145163888889">
<ele>465</ele>
</trkpt>
<trkpt lat="34.48922666666667" lon="136.01517277777776">
<ele>466</ele>
</trkpt>
<trkpt lat="34.489200555555556" lon="136.01538638888888">
<ele>465</ele>
</trkpt>
<trkpt lat="34.48904888888889" lon="136.0157825">
<ele>469</ele>
</trkpt>
<trkpt lat="34.48867805555555" lon="136.01675138888888">
<ele>476</ele>
</trkpt>
<trkpt lat="34.488483611111114" lon="136.017255">
<ele>477</ele>
</trkpt>
<trkpt lat="34.488235277777775" lon="136.01794166666667">
<ele>477</ele>
</trkpt>
<trkpt lat="34.488082222222225" lon="136.01856027777777">
<ele>477</ele>
</trkpt>
<trkpt lat="34.488169166666665" lon="136.01901027777777">
<ele>483</ele>
</trkpt>
<trkpt lat="34.488173333333336" lon="136.01901777777778">
<ele>483</ele>
</trkpt>
<trkpt lat="34.48846861111111" lon="136.01998694444444">
<ele>495</ele>
</trkpt>
<trkpt lat="34.488702777777775" lon="136.0208786111111">
<ele>497</ele>
</trkpt>
<trkpt lat="34.48882444444445" lon="136.02132916666667">
<ele>501</ele>
</trkpt>
<trkpt lat="34.48889055555556" lon="136.02168833333334">
<ele>507</ele>
</trkpt>
<trkpt lat="34.48889055555556" lon="136.02231305555554">
<ele>507</ele>
</trkpt>
<trkpt lat="34.48885055555556" lon="136.02281638888888">
<ele>513</ele>
</trkpt>
<trkpt lat="34.488799444444446" lon="136.02326666666667">
<ele>516</ele>
</trkpt>
<trkpt lat="34.488860277777775" lon="136.0237475">
<ele>516</ele>
</trkpt>
<trkpt lat="34.48896777777778" lon="136.02432694444445">
<ele>525</ele>
</trkpt>
<trkpt lat="34.48896777777778" lon="136.02454055555555">
<ele>525</ele>
</trkpt>
<trkpt lat="34.48890138888889" lon="136.02495277777777">
<ele>537</ele>
</trkpt>
<trkpt lat="34.488611666666664" lon="136.02572333333333">
<ele>543</ele>
</trkpt>
<trkpt lat="34.488525" lon="136.02605083333333">
<ele>543</ele>
</trkpt>
<trkpt lat="34.488499166666664" lon="136.0261886111111">
<ele>544</ele>
</trkpt>
<trkpt lat="34.48846888888889" lon="136.02656166666668">
<ele>548</ele>
</trkpt>
<trkpt lat="34.488434166666664" lon="136.02689805555556">
<ele>546</ele>
</trkpt>
<trkpt lat="34.48829083333333" lon="136.02772166666668">
<ele>549</ele>
</trkpt>
<trkpt lat="34.48815833333333" lon="136.02818722222221">
<ele>554</ele>
</trkpt>
<trkpt lat="34.488036944444445" lon="136.02862222222222">
<ele>554</ele>
</trkpt>
<trkpt lat="34.48781777777778" lon="136.0292938888889">
<ele>558</ele>
</trkpt>
<trkpt lat="34.4875075" lon="136.03026277777778">
<ele>563</ele>
</trkpt>
<trkpt lat="34.48735" lon="136.03062833333334">
<ele>566</ele>
</trkpt>
<trkpt lat="34.4872025" lon="136.03102555555554">
<ele>565</ele>
</trkpt>
<trkpt lat="34.487009444444446" lon="136.0313911111111">
<ele>567</ele>
</trkpt>
<trkpt lat="34.48675027777778" lon="136.03169722222222">
<ele>567</ele>
</trkpt>
<trkpt lat="34.48636833333333" lon="136.03218555555554">
<ele>574</ele>
</trkpt>
<trkpt lat="34.48603305555555" lon="136.0324977777778">
<ele>571</ele>
</trkpt>
<trkpt lat="34.485595833333335" lon="136.03272694444445">
<ele>574</ele>
</trkpt>
<trkpt lat="34.48553944444444" lon="136.03275722222222">
<ele>575</ele>
</trkpt>
<trkpt lat="34.48489388888889" lon="136.03302416666668">
<ele>583</ele>
</trkpt>
<trkpt lat="34.48475166666667" lon="136.03317722222224">
<ele>582</ele>
</trkpt>
<trkpt lat="34.48462888888889" lon="136.0334288888889">
<ele>584</ele>
</trkpt>
<trkpt lat="34.484502222222225" lon="136.033825">
<ele>593</ele>
</trkpt>
<trkpt lat="34.48437527777778" lon="136.03453472222222">
<ele>603</ele>
</trkpt>
<trkpt lat="34.484345" lon="136.03474305555557">
<ele>604</ele>
</trkpt>
<trkpt lat="34.484345" lon="136.03474194444445">
<ele>604</ele>
</trkpt>
<trkpt lat="34.48430916666667" lon="136.034985">
<ele>606</ele>
</trkpt>
<trkpt lat="34.48439611111111" lon="136.03529722222223">
<ele>606</ele>
</trkpt>
<trkpt lat="34.484502222222225" lon="136.03572472222223">
<ele>609</ele>
</trkpt>
<trkpt lat="34.484502222222225" lon="136.03601444444445">
<ele>610</ele>
</trkpt>
<trkpt lat="34.48443611111111" lon="136.03635083333333">
<ele>614</ele>
</trkpt>
<trkpt lat="34.48442638888889" lon="136.03703638888888">
<ele>623</ele>
</trkpt>
<trkpt lat="34.48444166666667" lon="136.03717416666666">
<ele>624</ele>
</trkpt>
<trkpt lat="34.48464444444444" lon="136.03741083333333">
<ele>627</ele>
</trkpt>
<trkpt lat="34.48471055555556" lon="136.03752472222223">
<ele>629</ele>
</trkpt>
<trkpt lat="34.48468583333333" lon="136.03760194444445">
<ele>632</ele>
</trkpt>
<trkpt lat="34.484629166666664" lon="136.03762472222223">
<ele>632</ele>
</trkpt>
<trkpt lat="34.484227777777775" lon="136.03760944444446">
<ele>634</ele>
</trkpt>
<trkpt lat="34.48411055555555" lon="136.03763972222222">
<ele>633</ele>
</trkpt>
<trkpt lat="34.48396861111111" lon="136.03772333333333">
<ele>634</ele>
</trkpt>
<trkpt lat="34.483465" lon="136.03837222222222">
<ele>646</ele>
</trkpt>
<trkpt lat="34.48310361111111" lon="136.0388377777778">
<ele>655</ele>
</trkpt>
<trkpt lat="34.48302777777778" lon="136.03908916666666">
<ele>656</ele>
</trkpt>
<trkpt lat="34.482976944444445" lon="136.03962305555555">
<ele>665</ele>
</trkpt>
<trkpt lat="34.482976944444445" lon="136.03975333333332">
<ele>666</ele>
</trkpt>
<trkpt lat="34.482971666666664" lon="136.04002777777777">
<ele>666</ele>
</trkpt>
<trkpt lat="34.48280333333334" lon="136.0407136111111">
<ele>666</ele>
</trkpt>
<trkpt lat="34.482595" lon="136.0413472222222">
<ele>664</ele>
</trkpt>
<trkpt lat="34.48254416666666" lon="136.04158361111112">
<ele>668</ele>
</trkpt>
<trkpt lat="34.48255916666667" lon="136.04197333333335">
<ele>664</ele>
</trkpt>
<trkpt lat="34.48262555555556" lon="136.04230083333334">
<ele>664</ele>
</trkpt>
<trkpt lat="34.482753611111114" lon="136.04259805555554">
<ele>664</ele>
</trkpt>
<trkpt lat="34.48285444444444" lon="136.04282694444444">
<ele>664</ele>
</trkpt>
<trkpt lat="34.48294666666666" lon="136.04303305555555">
<ele>660</ele>
</trkpt>
<trkpt lat="34.48298666666667" lon="136.04322416666668">
<ele>658</ele>
</trkpt>
<trkpt lat="34.483043333333335" lon="136.04392611111112">
<ele>657</ele>
</trkpt>
<trkpt lat="34.48312888888889" lon="136.04428416666667">
<ele>655</ele>
</trkpt>
<trkpt lat="34.48312888888889" lon="136.04461194444445">
<ele>654</ele>
</trkpt>
<trkpt lat="34.48302805555556" lon="136.0450622222222">
<ele>651</ele>
</trkpt>
<trkpt lat="34.48302805555556" lon="136.04552777777778">
<ele>654</ele>
</trkpt>
<trkpt lat="34.48318527777778" lon="136.0463975">
<ele>648</ele>
</trkpt>
<trkpt lat="34.48318527777778" lon="136.04723638888888">
<ele>646</ele>
</trkpt>
<trkpt lat="34.48308333333333" lon="136.04770194444444">
<ele>646</ele>
</trkpt>
<trkpt lat="34.48309416666667" lon="136.04792333333333">
<ele>645</ele>
</trkpt>
<trkpt lat="34.483111666666666" lon="136.04796777777779">
<ele>645</ele>
</trkpt>
<trkpt lat="34.483111666666666" lon="136.04796777777779">
<ele>645</ele>
</trkpt>
<trkpt lat="34.48312888888889" lon="136.04801444444445">
<ele>645</ele>
</trkpt>
<trkpt lat="34.48327638888889" lon="136.048175">
<ele>646</ele>
</trkpt>
<trkpt lat="34.483399166666665" lon="136.0482661111111">
<ele>646</ele>
</trkpt>
<trkpt lat="34.48404472222222" lon="136.04870861111112">
<ele>643</ele>
</trkpt>
<trkpt lat="34.484090277777774" lon="136.04873138888888">
<ele>643</ele>
</trkpt>
<trkpt lat="34.48473694444444" lon="136.04901333333333">
<ele>641</ele>
</trkpt>
<trkpt lat="34.48522527777778" lon="136.04915888888888">
<ele>642</ele>
</trkpt>
<trkpt lat="34.48562138888889" lon="136.04923472222222">
<ele>643</ele>
</trkpt>
<trkpt lat="34.48582527777778" lon="136.04927388888888">
<ele>637</ele>
</trkpt>
<trkpt lat="34.486307777777775" lon="136.0492272222222">
<ele>635</ele>
</trkpt>
<trkpt lat="34.486445833333335" lon="136.04929666666666">
<ele>634</ele>
</trkpt>
<trkpt lat="34.486979444444444" lon="136.04984555555555">
<ele>626</ele>
</trkpt>
<trkpt lat="34.48710638888889" lon="136.05081444444446">
<ele>620</ele>
</trkpt>
<trkpt lat="34.48712722222222" lon="136.0509586111111">
<ele>619</ele>
</trkpt>
<trkpt lat="34.487295277777775" lon="136.0509586111111">
<ele>619</ele>
</trkpt>
<trkpt lat="34.48740166666666" lon="136.05103583333334">
<ele>616</ele>
</trkpt>
<trkpt lat="34.487452777777776" lon="136.05112694444443">
<ele>614</ele>
</trkpt>
<trkpt lat="34.4874375" lon="136.0512875">
<ele>615</ele>
</trkpt>
<trkpt lat="34.48739611111111" lon="136.05152388888888">
<ele>615</ele>
</trkpt>
<trkpt lat="34.487386388888886" lon="136.0519125">
<ele>613</ele>
</trkpt>
<trkpt lat="34.48744166666667" lon="136.05230194444445">
<ele>615</ele>
</trkpt>
<trkpt lat="34.487569722222226" lon="136.0525763888889">
<ele>613</ele>
</trkpt>
<trkpt lat="34.48772722222222" lon="136.05281277777777">
<ele>614</ele>
</trkpt>
<trkpt lat="34.4880375" lon="136.05308722222222">
<ele>612</ele>
</trkpt>
<trkpt lat="34.48846944444445" lon="136.05334666666667">
<ele>613</ele>
</trkpt>
<trkpt lat="34.488795" lon="136.05343888888888">
<ele>602</ele>
</trkpt>
<trkpt lat="34.489105277777774" lon="136.05349972222223">
<ele>602</ele>
</trkpt>
<trkpt lat="34.48975194444444" lon="136.0536136111111">
<ele>602</ele>
</trkpt>
<trkpt lat="34.48999055555556" lon="136.05372111111112">
<ele>599</ele>
</trkpt>
<trkpt lat="34.490635833333336" lon="136.05398805555555">
<ele>591</ele>
</trkpt>
<trkpt lat="34.49088" lon="136.05400305555557">
<ele>589</ele>
</trkpt>
<trkpt lat="34.491526666666665" lon="136.05403361111112">
<ele>583</ele>
</trkpt>
<trkpt lat="34.491745" lon="136.05410916666668">
<ele>581</ele>
</trkpt>
<trkpt lat="34.49193361111111" lon="136.0542088888889">
<ele>580</ele>
</trkpt>
<trkpt lat="34.492111666666666" lon="136.05436083333333">
<ele>583</ele>
</trkpt>
<trkpt lat="34.49219305555555" lon="136.0545138888889">
<ele>582</ele>
</trkpt>
<trkpt lat="34.49220277777778" lon="136.05465166666667">
<ele>583</ele>
</trkpt>
<trkpt lat="34.49220277777778" lon="136.05487194444444">
<ele>585</ele>
</trkpt>
<trkpt lat="34.49213666666667" lon="136.0551086111111">
<ele>584</ele>
</trkpt>
<trkpt lat="34.49207583333333" lon="136.05523888888888">
<ele>584</ele>
</trkpt>
<trkpt lat="34.491994444444444" lon="136.055345">
<ele>584</ele>
</trkpt>
<trkpt lat="34.49197916666667" lon="136.05536027777777">
<ele>584</ele>
</trkpt>
<trkpt lat="34.491434444444444" lon="136.05593305555556">
<ele>578</ele>
</trkpt>
<trkpt lat="34.49137916666667" lon="136.05603194444444">
<ele>577</ele>
</trkpt>
<trkpt lat="34.49137916666667" lon="136.0562077777778">
<ele>577</ele>
</trkpt>
<trkpt lat="34.49147027777778" lon="136.05633694444444">
<ele>575</ele>
</trkpt>
<trkpt lat="34.49156694444444" lon="136.05644416666667">
<ele>579</ele>
</trkpt>
<trkpt lat="34.49163305555555" lon="136.0565125">
<ele>579</ele>
</trkpt>
<trkpt lat="34.49183611111111" lon="136.05604722222222">
<ele>575</ele>
</trkpt>
<trkpt lat="34.4919175" lon="136.05594833333333">
<ele>574</ele>
</trkpt>
<trkpt lat="34.491994444444444" lon="136.05592555555555">
<ele>574</ele>
</trkpt>
<trkpt lat="34.49220277777778" lon="136.05593305555556">
<ele>573</ele>
</trkpt>
<trkpt lat="34.49232" lon="136.0559863888889">
<ele>572</ele>
</trkpt>
<trkpt lat="34.4924525" lon="136.05600916666666">
<ele>577</ele>
</trkpt>
<trkpt lat="34.492558611111114" lon="136.05592555555555">
<ele>576</ele>
</trkpt>
<trkpt lat="34.492645555555555" lon="136.05579527777778">
<ele>573</ele>
</trkpt>
<trkpt lat="34.49276694444445" lon="136.05559694444443">
<ele>566</ele>
</trkpt>
<trkpt lat="34.49291" lon="136.05548277777777">
<ele>567</ele>
</trkpt>
<trkpt lat="34.49297083333333" lon="136.055345">
<ele>565</ele>
</trkpt>
<trkpt lat="34.49301638888889" lon="136.0550477777778">
<ele>557</ele>
</trkpt>
<trkpt lat="34.493118333333335" lon="136.05493388888888">
<ele>555</ele>
</trkpt>
<trkpt lat="34.49345888888889" lon="136.05478833333333">
<ele>557</ele>
</trkpt>
<trkpt lat="34.49355027777778" lon="136.05468222222223">
<ele>554</ele>
</trkpt>
<trkpt lat="34.493652222222224" lon="136.05454444444445">
<ele>553</ele>
</trkpt>
<trkpt lat="34.49379972222222" lon="136.0540711111111">
<ele>550</ele>
</trkpt>
<trkpt lat="34.49393638888889" lon="136.05384972222222">
<ele>545</ele>
</trkpt>
<trkpt lat="34.49402861111111" lon="136.05384972222222">
<ele>543</ele>
</trkpt>
<trkpt lat="34.494135" lon="136.0539572222222">
<ele>544</ele>
</trkpt>
<trkpt lat="34.49434333333333" lon="136.05424694444446">
<ele>545</ele>
</trkpt>
<trkpt lat="34.49448666666667" lon="136.05430777777778">
<ele>542</ele>
</trkpt>
<trkpt lat="34.49480111111111" lon="136.05446083333334">
<ele>537</ele>
</trkpt>
<trkpt lat="34.49498444444444" lon="136.05444555555556">
<ele>538</ele>
</trkpt>
<trkpt lat="34.495060277777775" lon="136.0544075">
<ele>536</ele>
</trkpt>
<trkpt lat="34.49524916666667" lon="136.0541472222222">
<ele>536</ele>
</trkpt>
<trkpt lat="34.49544222222222" lon="136.0539572222222">
<ele>531</ele>
</trkpt>
<trkpt lat="34.49559527777778" lon="136.05391166666666">
<ele>528</ele>
</trkpt>
<trkpt lat="34.49604222222222" lon="136.05391916666667">
<ele>522</ele>
</trkpt>
<trkpt lat="34.49623555555556" lon="136.05391166666666">
<ele>524</ele>
</trkpt>
<trkpt lat="34.49673444444444" lon="136.0537511111111">
<ele>521</ele>
</trkpt>
<trkpt lat="34.49691694444444" lon="136.0537511111111">
<ele>514</ele>
</trkpt>
<trkpt lat="34.49709444444444" lon="136.05378916666666">
<ele>515</ele>
</trkpt>
<trkpt lat="34.497395" lon="136.05393444444445">
<ele>514</ele>
</trkpt>
<trkpt lat="34.49754277777778" lon="136.0539572222222">
<ele>513</ele>
</trkpt>
<trkpt lat="34.49776083333333" lon="136.05393444444445">
<ele>511</ele>
</trkpt>
<trkpt lat="34.4984075" lon="136.05372833333334">
<ele>506</ele>
</trkpt>
<trkpt lat="34.498733055555554" lon="136.05361333333335">
<ele>503</ele>
</trkpt>
<trkpt lat="34.49896638888889" lon="136.05361333333335">
<ele>502</ele>
</trkpt>
<trkpt lat="34.499155" lon="136.0536872222222">
<ele>502</ele>
</trkpt>
<trkpt lat="34.499155" lon="136.0536872222222">
<ele>502</ele>
</trkpt>
<trkpt lat="34.49961277777778" lon="136.053865">
<ele>502</ele>
</trkpt>
<trkpt lat="34.499658333333336" lon="136.0538877777778">
<ele>502</ele>
</trkpt>
<trkpt lat="34.49995777777778" lon="136.0538875">
<ele>490</ele>
</trkpt>
<trkpt lat="34.50009" lon="136.05379638888888">
<ele>493</ele>
</trkpt>
<trkpt lat="34.50020722222222" lon="136.05357527777778">
<ele>492</ele>
</trkpt>
<trkpt lat="34.500252777777774" lon="136.05319444444444">
<ele>495</ele>
</trkpt>
<trkpt lat="34.50033416666667" lon="136.05287333333334">
<ele>488</ele>
</trkpt>
<trkpt lat="34.500523055555554" lon="136.05262166666665">
<ele>487</ele>
</trkpt>
<trkpt lat="34.50079222222222" lon="136.05246194444445">
<ele>487</ele>
</trkpt>
<trkpt lat="34.501174166666665" lon="136.05233194444443">
<ele>485</ele>
</trkpt>
<trkpt lat="34.50167722222222" lon="136.0522102777778">
<ele>479</ele>
</trkpt>
<trkpt lat="34.50199194444444" lon="136.0521636111111">
<ele>478</ele>
</trkpt>
<trkpt lat="34.50209944444445" lon="136.05201944444445">
<ele>477</ele>
</trkpt>
<trkpt lat="34.502160277777776" lon="136.05168305555554">
<ele>477</ele>
</trkpt>
<trkpt lat="34.502226388888886" lon="136.05121">
<ele>477</ele>
</trkpt>
<trkpt lat="34.50235861111111" lon="136.05087472222223">
<ele>476</ele>
</trkpt>
<trkpt lat="34.50252694444445" lon="136.050585">
<ele>475</ele>
</trkpt>
<trkpt lat="34.502724444444446" lon="136.05031027777778">
<ele>473</ele>
</trkpt>
<trkpt lat="34.503009722222224" lon="136.05001305555555">
<ele>471</ele>
</trkpt>
<trkpt lat="34.50311611111111" lon="136.0499511111111">
<ele>470</ele>
</trkpt>
<trkpt lat="34.503284444444446" lon="136.049845">
<ele>468</ele>
</trkpt>
<trkpt lat="34.50357361111111" lon="136.04952472222223">
<ele>460</ele>
</trkpt>
<trkpt lat="34.50380277777778" lon="136.04960083333333">
<ele>459</ele>
</trkpt>
<trkpt lat="34.50396555555555" lon="136.0497375">
<ele>460</ele>
</trkpt>
<trkpt lat="34.50414333333333" lon="136.04970694444444">
<ele>464</ele>
</trkpt>
<trkpt lat="34.50456111111111" lon="136.04947055555556">
<ele>462</ele>
</trkpt>
<trkpt lat="34.50465777777778" lon="136.04947055555556">
<ele>462</ele>
</trkpt>
<trkpt lat="34.50472388888889" lon="136.0495475">
<ele>462</ele>
</trkpt>
<trkpt lat="34.50470861111111" lon="136.05036361111112">
<ele>461</ele>
</trkpt>
<trkpt lat="34.50477388888889" lon="136.0506">
<ele>457</ele>
</trkpt>
<trkpt lat="34.505068888888886" lon="136.0510125">
<ele>456</ele>
</trkpt>
<trkpt lat="34.50532388888889" lon="136.0512261111111">
<ele>457</ele>
</trkpt>
<trkpt lat="34.50562333333333" lon="136.0513475">
<ele>455</ele>
</trkpt>
<trkpt lat="34.5058575" lon="136.05137027777778">
<ele>454</ele>
</trkpt>
<trkpt lat="34.506015" lon="136.05140055555555">
<ele>455</ele>
</trkpt>
<trkpt lat="34.50609194444444" lon="136.05137027777778">
<ele>455</ele>
</trkpt>
<trkpt lat="34.50619277777778" lon="136.05128666666667">
<ele>454</ele>
</trkpt>
<trkpt lat="34.506325277777776" lon="136.05111083333333">
<ele>452</ele>
</trkpt>
<trkpt lat="34.50656388888889" lon="136.0506761111111">
<ele>448</ele>
</trkpt>
<trkpt lat="34.506773333333335" lon="136.050485">
<ele>447</ele>
</trkpt>
<trkpt lat="34.50681888888889" lon="136.05047">
<ele>447</ele>
</trkpt>
<trkpt lat="34.50704777777778" lon="136.05047">
<ele>447</ele>
</trkpt>
<trkpt lat="34.507215" lon="136.05059972222222">
<ele>447</ele>
</trkpt>
<trkpt lat="34.507307222222224" lon="136.05076027777778">
<ele>447</ele>
</trkpt>
<trkpt lat="34.50747527777778" lon="136.05154611111112">
<ele>445</ele>
</trkpt>
<trkpt lat="34.507530833333334" lon="136.05175972222222">
<ele>445</ele>
</trkpt>
<trkpt lat="34.507825833333335" lon="136.05221">
<ele>443</ele>
</trkpt>
<trkpt lat="34.5082075" lon="136.05268194444446">
<ele>443</ele>
</trkpt>
<trkpt lat="34.50841055555556" lon="136.05288833333333">
<ele>442</ele>
</trkpt>
<trkpt lat="34.508685" lon="136.05305638888888">
<ele>445</ele>
</trkpt>
<trkpt lat="34.50888361111111" lon="136.05307166666665">
<ele>445</ele>
</trkpt>
<trkpt lat="34.509524722222224" lon="136.05268194444446">
<ele>443</ele>
</trkpt>
<trkpt lat="34.50952916666667" lon="136.05267444444445">
<ele>443</ele>
</trkpt>
<trkpt lat="34.510175833333335" lon="136.05243777777778">
<ele>443</ele>
</trkpt>
<trkpt lat="34.51029722222222" lon="136.05232388888888">
<ele>441</ele>
</trkpt>
<trkpt lat="34.51064861111111" lon="136.05189638888888">
<ele>438</ele>
</trkpt>
<trkpt lat="34.51085166666667" lon="136.05159916666668">
<ele>437</ele>
</trkpt>
<trkpt lat="34.51100888888889" lon="136.05123361111112">
<ele>434</ele>
</trkpt>
<trkpt lat="34.51101444444444" lon="136.0509502777778">
<ele>437</ele>
</trkpt>
<trkpt lat="34.51101444444444" lon="136.05092">
<ele>437</ele>
</trkpt>
<trkpt lat="34.510963333333336" lon="136.05071361111112">
<ele>435</ele>
</trkpt>
<trkpt lat="34.510933055555554" lon="136.05056194444444">
<ele>436</ele>
</trkpt>
<trkpt lat="34.510938333333335" lon="136.05038611111112">
<ele>435</ele>
</trkpt>
<trkpt lat="34.51101444444444" lon="136.05023305555557">
<ele>435</ele>
</trkpt>
<trkpt lat="34.51125833333333" lon="136.05013444444444">
<ele>435</ele>
</trkpt>
<trkpt lat="34.511650277777775" lon="136.05013444444444">
<ele>435</ele>
</trkpt>
<trkpt lat="34.512056666666666" lon="136.05023305555557">
<ele>429</ele>
</trkpt>
<trkpt lat="34.51244305555556" lon="136.05038611111112">
<ele>427</ele>
</trkpt>
<trkpt lat="34.512880277777775" lon="136.05038611111112">
<ele>427</ele>
</trkpt>
<trkpt lat="34.513063611111114" lon="136.05034805555556">
<ele>429</ele>
</trkpt>
<trkpt lat="34.51318083333334" lon="136.05021027777778">
<ele>426</ele>
</trkpt>
<trkpt lat="34.51329805555556" lon="136.05003555555555">
<ele>427</ele>
</trkpt>
<trkpt lat="34.51363888888889" lon="136.04906666666668">
<ele>425</ele>
</trkpt>
<trkpt lat="34.51376583333333" lon="136.0487225">
<ele>424</ele>
</trkpt>
<trkpt lat="34.5138675" lon="136.04854805555556">
<ele>423</ele>
</trkpt>
<trkpt lat="34.51410611111111" lon="136.04847083333334">
<ele>426</ele>
</trkpt>
<trkpt lat="34.514625" lon="136.04850888888888">
<ele>425</ele>
</trkpt>
<trkpt lat="34.514741944444445" lon="136.048395">
<ele>424</ele>
</trkpt>
<trkpt lat="34.51495583333333" lon="136.0481127777778">
<ele>421</ele>
</trkpt>
<trkpt lat="34.51514888888889" lon="136.04801305555554">
<ele>424</ele>
</trkpt>
<trkpt lat="34.51535722222222" lon="136.04795972222223">
<ele>423</ele>
</trkpt>
<trkpt lat="34.515775" lon="136.0479447222222">
<ele>423</ele>
</trkpt>
<trkpt lat="34.515992777777775" lon="136.04787638888888">
<ele>423</ele>
</trkpt>
<trkpt lat="34.51658305555556" lon="136.0474336111111">
<ele>422</ele>
</trkpt>
<trkpt lat="34.51671555555556" lon="136.04733472222222">
<ele>425</ele>
</trkpt>
<trkpt lat="34.517116944444446" lon="136.04704388888888">
<ele>424</ele>
</trkpt>
<trkpt lat="34.51727" lon="136.046915">
<ele>422</ele>
</trkpt>
<trkpt lat="34.517915277777774" lon="136.0463886111111">
<ele>416</ele>
</trkpt>
<trkpt lat="34.518205" lon="136.0461063888889">
<ele>414</ele>
</trkpt>
<trkpt lat="34.51859666666667" lon="136.04590027777778">
<ele>414</ele>
</trkpt>
<trkpt lat="34.5189375" lon="136.04580055555556">
<ele>411</ele>
</trkpt>
<trkpt lat="34.51912083333333" lon="136.0457702777778">
<ele>407</ele>
</trkpt>
<trkpt lat="34.51928888888889" lon="136.04578527777778">
<ele>409</ele>
</trkpt>
<trkpt lat="34.51948222222222" lon="136.04587">
<ele>407</ele>
</trkpt>
<trkpt lat="34.51963416666667" lon="136.0458625">
<ele>406</ele>
</trkpt>
<trkpt lat="34.520046111111114" lon="136.04594583333332">
<ele>403</ele>
</trkpt>
<trkpt lat="34.52010694444444" lon="136.04598388888888">
<ele>403</ele>
</trkpt>
<trkpt lat="34.520157777777776" lon="136.04600666666667">
<ele>404</ele>
</trkpt>
<trkpt lat="34.52025" lon="136.04613694444444">
<ele>404</ele>
</trkpt>
<trkpt lat="34.5204325" lon="136.0467847222222">
<ele>404</ele>
</trkpt>
<trkpt lat="34.520539722222225" lon="136.04702111111112">
<ele>405</ele>
</trkpt>
<trkpt lat="34.52061583333333" lon="136.04717416666668">
<ele>406</ele>
</trkpt>
<trkpt lat="34.521098611111114" lon="136.04814305555556">
<ele>407</ele>
</trkpt>
<trkpt lat="34.521124722222226" lon="136.0481886111111">
<ele>407</ele>
</trkpt>
<trkpt lat="34.521480555555556" lon="136.04888305555556">
<ele>399</ele>
</trkpt>
<trkpt lat="34.52162277777778" lon="136.04905861111112">
<ele>398</ele>
</trkpt>
<trkpt lat="34.52179638888889" lon="136.04922583333334">
<ele>396</ele>
</trkpt>
<trkpt lat="34.52202416666667" lon="136.04934833333334">
<ele>396</ele>
</trkpt>
<trkpt lat="34.52216194444444" lon="136.04952416666666">
<ele>394</ele>
</trkpt>
<trkpt lat="34.52240583333333" lon="136.05018722222223">
<ele>395</ele>
</trkpt>
<trkpt lat="34.522441666666666" lon="136.05021">
<ele>395</ele>
</trkpt>
<trkpt lat="34.522553333333335" lon="136.05036305555555">
<ele>396</ele>
</trkpt>
<trkpt lat="34.522598888888886" lon="136.05050083333333">
<ele>395</ele>
</trkpt>
<trkpt lat="34.52288444444444" lon="136.05146944444445">
<ele>392</ele>
</trkpt>
<trkpt lat="34.52292444444444" lon="136.0516061111111">
<ele>391</ele>
</trkpt>
<trkpt lat="34.52299083333333" lon="136.05175916666667">
<ele>394</ele>
</trkpt>
<trkpt lat="34.523132777777775" lon="136.0519338888889">
<ele>391</ele>
</trkpt>
<trkpt lat="34.52347361111111" lon="136.05214777777778">
<ele>392</ele>
</trkpt>
<trkpt lat="34.524008611111114" lon="136.05239944444443">
<ele>389</ele>
</trkpt>
<trkpt lat="34.52419611111111" lon="136.0524372222222">
<ele>388</ele>
</trkpt>
<trkpt lat="34.52483194444444" lon="136.0525372222222">
<ele>389</ele>
</trkpt>
<trkpt lat="34.5254775" lon="136.05250666666666">
<ele>395</ele>
</trkpt>
<trkpt lat="34.52563055555556" lon="136.05249916666668">
<ele>396</ele>
</trkpt>
<trkpt lat="34.5257725" lon="136.0525827777778">
<ele>397</ele>
</trkpt>
<trkpt lat="34.525889722222225" lon="136.05274333333332">
<ele>395</ele>
</trkpt>
<trkpt lat="34.52596583333333" lon="136.0530102777778">
<ele>393</ele>
</trkpt>
<trkpt lat="34.52603194444445" lon="136.05348305555555">
<ele>390</ele>
</trkpt>
<trkpt lat="34.52609805555556" lon="136.05361222222223">
<ele>391</ele>
</trkpt>
<trkpt lat="34.52619027777778" lon="136.0537197222222">
<ele>391</ele>
</trkpt>
<trkpt lat="34.52675444444444" lon="136.0538486111111">
<ele>385</ele>
</trkpt>
<trkpt lat="34.526871666666665" lon="136.05393333333333">
<ele>384</ele>
</trkpt>
<trkpt lat="34.52716111111111" lon="136.05443694444443">
<ele>382</ele>
</trkpt>
<trkpt lat="34.52739" lon="136.05453555555556">
<ele>382</ele>
</trkpt>
<trkpt lat="34.52776111111111" lon="136.05453555555556">
<ele>381</ele>
</trkpt>
<trkpt lat="34.52794472222222" lon="136.05445972222222">
<ele>386</ele>
</trkpt>
<trkpt lat="34.52816277777778" lon="136.05430666666666">
<ele>385</ele>
</trkpt>
<trkpt lat="34.52841222222222" lon="136.05399416666666">
<ele>385</ele>
</trkpt>
<trkpt lat="34.52860527777778" lon="136.05357416666666">
<ele>385</ele>
</trkpt>
<trkpt lat="34.52860527777778" lon="136.05316194444444">
<ele>372</ele>
</trkpt>
<trkpt lat="34.52860527777778" lon="136.0531086111111">
<ele>370</ele>
</trkpt>
<trkpt lat="34.52869666666667" lon="136.05295694444445">
<ele>372</ele>
</trkpt>
<trkpt lat="34.52883944444444" lon="136.05281888888888">
<ele>371</ele>
</trkpt>
<trkpt lat="34.529165" lon="136.05274305555557">
<ele>371</ele>
</trkpt>
<trkpt lat="34.52981055555556" lon="136.05274305555557">
<ele>373</ele>
</trkpt>
<trkpt lat="34.52991277777778" lon="136.05273555555556">
<ele>373</ele>
</trkpt>
<trkpt lat="34.530187222222224" lon="136.05261277777777">
<ele>374</ele>
</trkpt>
<trkpt lat="34.53040527777778" lon="136.0523611111111">
<ele>375</ele>
</trkpt>
<trkpt lat="34.53054861111111" lon="136.0520486111111">
<ele>372</ele>
</trkpt>
<trkpt lat="34.530705555555556" lon="136.05146944444445">
<ele>372</ele>
</trkpt>
<trkpt lat="34.530838055555556" lon="136.0508738888889">
<ele>367</ele>
</trkpt>
<trkpt lat="34.530955" lon="136.05071305555555">
<ele>368</ele>
</trkpt>
<trkpt lat="34.5311275" lon="136.05052333333333">
<ele>367</ele>
</trkpt>
<trkpt lat="34.53126972222222" lon="136.05048416666668">
<ele>367</ele>
</trkpt>
<trkpt lat="34.53145305555555" lon="136.05053083333334">
<ele>366</ele>
</trkpt>
<trkpt lat="34.531905555555554" lon="136.0510875">
<ele>366</ele>
</trkpt>
<trkpt lat="34.53214" lon="136.05118638888888">
<ele>366</ele>
</trkpt>
<trkpt lat="34.53223111111111" lon="136.05120916666667">
<ele>366</ele>
</trkpt>
<trkpt lat="34.53232777777778" lon="136.05123277777778">
<ele>368</ele>
</trkpt>
<trkpt lat="34.53261277777778" lon="136.051225">
<ele>366</ele>
</trkpt>
<trkpt lat="34.53277027777778" lon="136.05113277777778">
<ele>367</ele>
</trkpt>
<trkpt lat="34.53301416666667" lon="136.05091166666668">
<ele>368</ele>
</trkpt>
<trkpt lat="34.533187777777776" lon="136.05068277777778">
<ele>367</ele>
</trkpt>
<trkpt lat="34.53333" lon="136.05038555555555">
<ele>366</ele>
</trkpt>
<trkpt lat="34.53349722222222" lon="136.04997305555557">
<ele>365</ele>
</trkpt>
<trkpt lat="34.53362944444444" lon="136.04942416666665">
<ele>365</ele>
</trkpt>
<trkpt lat="34.53367611111111" lon="136.04845527777778">
<ele>364</ele>
</trkpt>
<trkpt lat="34.53370666666667" lon="136.04788333333335">
<ele>363</ele>
</trkpt>
<trkpt lat="34.53375222222222" lon="136.04764666666668">
<ele>363</ele>
</trkpt>
<trkpt lat="34.53404694444444" lon="136.04731916666665">
<ele>364</ele>
</trkpt>
<trkpt lat="34.53436166666667" lon="136.04701333333333">
<ele>363</ele>
</trkpt>
<trkpt lat="34.53486083333333" lon="136.04660972222223">
<ele>359</ele>
</trkpt>
<trkpt lat="34.535247222222225" lon="136.04639583333332">
<ele>358</ele>
</trkpt>
<trkpt lat="34.535404444444445" lon="136.04638833333334">
<ele>357</ele>
</trkpt>
<trkpt lat="34.535877222222226" lon="136.04635027777778">
<ele>358</ele>
</trkpt>
<trkpt lat="34.53598888888889" lon="136.0463188888889">
<ele>357</ele>
</trkpt>
<trkpt lat="34.53611166666666" lon="136.04625055555556">
<ele>358</ele>
</trkpt>
<trkpt lat="34.53621361111111" lon="136.04609861111112">
<ele>357</ele>
</trkpt>
<trkpt lat="34.53626888888889" lon="136.04590777777778">
<ele>358</ele>
</trkpt>
<trkpt lat="34.53626888888889" lon="136.04553333333334">
<ele>356</ele>
</trkpt>
<trkpt lat="34.53608555555556" lon="136.0446488888889">
<ele>355</ele>
</trkpt>
<trkpt lat="34.53608555555556" lon="136.04445055555556">
<ele>355</ele>
</trkpt>
<trkpt lat="34.53635583333333" lon="136.04374833333333">
<ele>353</ele>
</trkpt>
<trkpt lat="34.536564166666665" lon="136.0429088888889">
<ele>357</ele>
</trkpt>
<trkpt lat="34.536564166666665" lon="136.04263416666666">
<ele>356</ele>
</trkpt>
<trkpt lat="34.53646222222222" lon="136.0422761111111">
<ele>356</ele>
</trkpt>
<trkpt lat="34.536431666666665" lon="136.0421611111111">
<ele>358</ele>
</trkpt>
<trkpt lat="34.536228888888886" lon="136.0416502777778">
<ele>357</ele>
</trkpt>
<trkpt lat="34.5361725" lon="136.04138333333333">
<ele>357</ele>
</trkpt>
<trkpt lat="34.5361625" lon="136.04063555555555">
<ele>355</ele>
</trkpt>
<trkpt lat="34.53608555555556" lon="136.0401325">
<ele>351</ele>
</trkpt>
<trkpt lat="34.535918611111114" lon="136.03975916666667">
<ele>353</ele>
</trkpt>
<trkpt lat="34.53583166666667" lon="136.03943805555556">
<ele>356</ele>
</trkpt>
<trkpt lat="34.53583722222222" lon="136.03904944444446">
<ele>354</ele>
</trkpt>
<trkpt lat="34.535872777777776" lon="136.03882055555556">
<ele>352</ele>
</trkpt>
<trkpt lat="34.535877222222226" lon="136.03875861111112">
<ele>353</ele>
</trkpt>
<trkpt lat="34.53604555555555" lon="136.0383627777778">
<ele>346</ele>
</trkpt>
<trkpt lat="34.53617777777778" lon="136.03818694444445">
<ele>347</ele>
</trkpt>
<trkpt lat="34.53639555555556" lon="136.03809583333333">
<ele>347</ele>
</trkpt>
<trkpt lat="34.536904444444446" lon="136.03807305555554">
<ele>347</ele>
</trkpt>
<trkpt lat="34.53729611111111" lon="136.03820972222223">
<ele>346</ele>
</trkpt>
<trkpt lat="34.537535" lon="136.0383322222222">
<ele>343</ele>
</trkpt>
<trkpt lat="34.537621666666666" lon="136.03838555555555">
<ele>344</ele>
</trkpt>
<trkpt lat="34.53801333333333" lon="136.03863722222223">
<ele>344</ele>
</trkpt>
<trkpt lat="34.538196944444444" lon="136.03869805555556">
<ele>340</ele>
</trkpt>
<trkpt lat="34.5385925" lon="136.03872083333334">
<ele>337</ele>
</trkpt>
<trkpt lat="34.538959444444444" lon="136.03862194444446">
<ele>336</ele>
</trkpt>
<trkpt lat="34.5391775" lon="136.0384613888889">
<ele>336</ele>
</trkpt>
<trkpt lat="34.53929472222222" lon="136.03822472222222">
<ele>336</ele>
</trkpt>
<trkpt lat="34.539320833333335" lon="136.03778222222223">
<ele>335</ele>
</trkpt>
<trkpt lat="34.53913722222222" lon="136.03743166666666">
<ele>332</ele>
</trkpt>
<trkpt lat="34.539122222222225" lon="136.03738611111112">
<ele>332</ele>
</trkpt>
<trkpt lat="34.53907111111111" lon="136.03726361111111">
<ele>333</ele>
</trkpt>
<trkpt lat="34.53903527777778" lon="136.0370736111111">
<ele>332</ele>
</trkpt>
<trkpt lat="34.53903527777778" lon="136.03677555555555">
<ele>331</ele>
</trkpt>
<trkpt lat="34.53908083333334" lon="136.03660083333332">
<ele>333</ele>
</trkpt>
<trkpt lat="34.53926416666667" lon="136.03640972222223">
<ele>329</ele>
</trkpt>
<trkpt lat="34.539605" lon="136.03617333333332">
<ele>329</ele>
</trkpt>
<trkpt lat="34.539722222222224" lon="136.03618833333334">
<ele>328</ele>
</trkpt>
<trkpt lat="34.54000222222222" lon="136.03650083333332">
<ele>328</ele>
</trkpt>
<trkpt lat="34.54021027777778" lon="136.03660805555555">
<ele>328</ele>
</trkpt>
<trkpt lat="34.54045444444444" lon="136.03660805555555">
<ele>328</ele>
</trkpt>
<trkpt lat="34.54089694444444" lon="136.036425">
<ele>326</ele>
</trkpt>
<trkpt lat="34.54154277777778" lon="136.03615805555555">
<ele>324</ele>
</trkpt>
<trkpt lat="34.54193444444444" lon="136.03605833333333">
<ele>324</ele>
</trkpt>
<trkpt lat="34.54257972222222" lon="136.03589861111112">
<ele>324</ele>
</trkpt>
<trkpt lat="34.54260027777778" lon="136.0358836111111">
<ele>324</ele>
</trkpt>
<trkpt lat="34.54324583333333" lon="136.03547111111112">
<ele>323</ele>
</trkpt>
<trkpt lat="34.5438925" lon="136.0350588888889">
<ele>323</ele>
</trkpt>
<trkpt lat="34.54427861111111" lon="136.03487666666666">
<ele>320</ele>
</trkpt>
<trkpt lat="34.54466055555555" lon="136.03478444444445">
<ele>321</ele>
</trkpt>
<trkpt lat="34.54521944444444" lon="136.03476166666667">
<ele>317</ele>
</trkpt>
<trkpt lat="34.5456925" lon="136.03477666666666">
<ele>316</ele>
</trkpt>
<trkpt lat="34.54622611111111" lon="136.03470083333335">
<ele>317</ele>
</trkpt>
<trkpt lat="34.546460555555555" lon="136.03458583333332">
<ele>317</ele>
</trkpt>
<trkpt lat="34.54709638888889" lon="136.03402166666666">
<ele>315</ele>
</trkpt>
<trkpt lat="34.54731" lon="136.03384583333334">
<ele>313</ele>
</trkpt>
<trkpt lat="34.547446388888886" lon="136.033785">
<ele>314</ele>
</trkpt>
<trkpt lat="34.547624444444445" lon="136.033785">
<ele>313</ele>
</trkpt>
<trkpt lat="34.54783388888889" lon="136.03393805555555">
<ele>313</ele>
</trkpt>
<trkpt lat="34.54830138888889" lon="136.03438833333334">
<ele>315</ele>
</trkpt>
<trkpt lat="34.548519722222224" lon="136.03446416666668">
<ele>312</ele>
</trkpt>
<trkpt lat="34.54873333333333" lon="136.03444916666666">
<ele>309</ele>
</trkpt>
<trkpt lat="34.54887111111111" lon="136.03436444444444">
<ele>309</ele>
</trkpt>
<trkpt lat="34.54900777777778" lon="136.03415166666667">
<ele>309</ele>
</trkpt>
<trkpt lat="34.54901861111111" lon="136.0338761111111">
<ele>308</ele>
</trkpt>
<trkpt lat="34.54888638888889" lon="136.03333472222224">
<ele>306</ele>
</trkpt>
<trkpt lat="34.54872888888889" lon="136.0329236111111">
<ele>307</ele>
</trkpt>
<trkpt lat="34.54850972222222" lon="136.03248833333333">
<ele>305</ele>
</trkpt>
<trkpt lat="34.548519722222224" lon="136.03235833333332">
<ele>304</ele>
</trkpt>
<trkpt lat="34.548585833333334" lon="136.03231277777778">
<ele>304</ele>
</trkpt>
<trkpt lat="34.54872888888889" lon="136.03231277777778">
<ele>304</ele>
</trkpt>
<trkpt lat="34.54926694444445" lon="136.03245805555557">
<ele>306</ele>
</trkpt>
<trkpt lat="34.54949583333333" lon="136.03247305555556">
<ele>306</ele>
</trkpt>
<trkpt lat="34.54965444444444" lon="136.0324113888889">
<ele>304</ele>
</trkpt>
<trkpt lat="34.5498875" lon="136.0322213888889">
<ele>304</ele>
</trkpt>
<trkpt lat="34.55035083333333" lon="136.03178666666668">
<ele>306</ele>
</trkpt>
<trkpt lat="34.55064027777778" lon="136.03160333333332">
<ele>305</ele>
</trkpt>
<trkpt lat="34.55128611111111" lon="136.03121472222222">
<ele>303</ele>
</trkpt>
<trkpt lat="34.5513425" lon="136.03117583333332">
<ele>306</ele>
</trkpt>
<trkpt lat="34.551988055555555" lon="136.030695">
<ele>306</ele>
</trkpt>
<trkpt lat="34.552216666666666" lon="136.03052027777778">
<ele>306</ele>
</trkpt>
<trkpt lat="34.552282777777776" lon="136.0304747222222">
<ele>300</ele>
</trkpt>
<trkpt lat="34.55292861111111" lon="136.02990944444446">
<ele>293</ele>
</trkpt>
<trkpt lat="34.55293388888889" lon="136.02990194444445">
<ele>293</ele>
</trkpt>
<trkpt lat="34.553086944444445" lon="136.02971083333333">
<ele>294</ele>
</trkpt>
<trkpt lat="34.55316833333333" lon="136.02948944444444">
<ele>295</ele>
</trkpt>
<trkpt lat="34.55325944444444" lon="136.02916194444444">
<ele>293</ele>
</trkpt>
<trkpt lat="34.55332027777778" lon="136.02877333333333">
<ele>294</ele>
</trkpt>
<trkpt lat="34.55333111111111" lon="136.0278047222222">
<ele>293</ele>
</trkpt>
<trkpt lat="34.55333527777778" lon="136.02763638888888">
<ele>292</ele>
</trkpt>
<trkpt lat="34.55340694444445" lon="136.02701027777778">
<ele>294</ele>
</trkpt>
<trkpt lat="34.55354444444445" lon="136.0265525">
<ele>289</ele>
</trkpt>
<trkpt lat="34.55376805555556" lon="136.02614888888888">
<ele>287</ele>
</trkpt>
<trkpt lat="34.554052222222225" lon="136.02579722222222">
<ele>287</ele>
</trkpt>
<trkpt lat="34.55419027777778" lon="136.02569861111112">
<ele>288</ele>
</trkpt>
<trkpt lat="34.55442444444444" lon="136.02569861111112">
<ele>286</ele>
</trkpt>
<trkpt lat="34.554703333333336" lon="136.0258125">
<ele>286</ele>
</trkpt>
<trkpt lat="34.555095" lon="136.0260111111111">
<ele>285</ele>
</trkpt>
<trkpt lat="34.5552425" lon="136.02609583333333">
<ele>285</ele>
</trkpt>
<trkpt lat="34.555476666666664" lon="136.0261336111111">
<ele>283</ele>
</trkpt>
<trkpt lat="34.55564916666667" lon="136.0260338888889">
<ele>284</ele>
</trkpt>
<trkpt lat="34.55602583333334" lon="136.0255">
<ele>284</ele>
</trkpt>
<trkpt lat="34.55627527777778" lon="136.0249963888889">
<ele>279</ele>
</trkpt>
<trkpt lat="34.55627527777778" lon="136.02478305555556">
<ele>278</ele>
</trkpt>
<trkpt lat="34.55615805555556" lon="136.02461583333334">
<ele>277</ele>
</trkpt>
<trkpt lat="34.5558575" lon="136.02428722222223">
<ele>276</ele>
</trkpt>
<trkpt lat="34.55571555555556" lon="136.0239975">
<ele>276</ele>
</trkpt>
<trkpt lat="34.55573611111111" lon="136.02372305555556">
<ele>273</ele>
</trkpt>
<trkpt lat="34.55589333333333" lon="136.02341055555556">
<ele>273</ele>
</trkpt>
<trkpt lat="34.556000833333336" lon="136.02332583333333">
<ele>272</ele>
</trkpt>
<trkpt lat="34.556152777777775" lon="136.02333333333334">
<ele>274</ele>
</trkpt>
<trkpt lat="34.55627527777778" lon="136.02341055555556">
<ele>273</ele>
</trkpt>
<trkpt lat="34.556920833333336" lon="136.02396694444445">
<ele>273</ele>
</trkpt>
<trkpt lat="34.557053055555556" lon="136.02408861111113">
<ele>273</ele>
</trkpt>
<trkpt lat="34.55740888888889" lon="136.02447055555555">
<ele>274</ele>
</trkpt>
<trkpt lat="34.55755666666666" lon="136.02446305555554">
<ele>268</ele>
</trkpt>
<trkpt lat="34.55795805555555" lon="136.02417333333332">
<ele>268</ele>
</trkpt>
<trkpt lat="34.55809055555556" lon="136.0239975">
<ele>268</ele>
</trkpt>
<trkpt lat="34.558324444444445" lon="136.02341055555556">
<ele>268</ele>
</trkpt>
<trkpt lat="34.55830944444445" lon="136.02311194444445">
<ele>268</ele>
</trkpt>
<trkpt lat="34.558009166666665" lon="136.0227236111111">
<ele>265</ele>
</trkpt>
<trkpt lat="34.557765" lon="136.0223263888889">
<ele>265</ele>
</trkpt>
<trkpt lat="34.55764333333333" lon="136.02202166666666">
<ele>264</ele>
</trkpt>
<trkpt lat="34.557653055555555" lon="136.02183805555555">
<ele>263</ele>
</trkpt>
<trkpt lat="34.55774972222222" lon="136.02162444444446">
<ele>262</ele>
</trkpt>
<trkpt lat="34.55790666666667" lon="136.02148777777776">
<ele>264</ele>
</trkpt>
<trkpt lat="34.55833416666667" lon="136.02127388888889">
<ele>264</ele>
</trkpt>
<trkpt lat="34.558574166666666" lon="136.02117416666667">
<ele>259</ele>
</trkpt>
<trkpt lat="34.55879222222222" lon="136.021015">
<ele>259</ele>
</trkpt>
<trkpt lat="34.55885833333333" lon="136.02086194444445">
<ele>256</ele>
</trkpt>
<trkpt lat="34.55887361111111" lon="136.02039638888888">
<ele>257</ele>
</trkpt>
<trkpt lat="34.5588075" lon="136.02022166666666">
<ele>257</ele>
</trkpt>
<trkpt lat="34.558614166666665" lon="136.02012194444444">
<ele>258</ele>
</trkpt>
<trkpt lat="34.55824305555556" lon="136.02011416666667">
<ele>259</ele>
</trkpt>
<trkpt lat="34.55759777777778" lon="136.02022916666667">
<ele>265</ele>
</trkpt>
<trkpt lat="34.55749027777778" lon="136.02025194444445">
<ele>266</ele>
</trkpt>
<trkpt lat="34.55710944444444" lon="136.0202747222222">
<ele>263</ele>
</trkpt>
<trkpt lat="34.55666138888889" lon="136.02021305555556">
<ele>253</ele>
</trkpt>
<trkpt lat="34.55652361111111" lon="136.0201522222222">
<ele>256</ele>
</trkpt>
<trkpt lat="34.556426944444446" lon="136.0199775">
<ele>256</ele>
</trkpt>
<trkpt lat="34.55638138888889" lon="136.01966388888889">
<ele>255</ele>
</trkpt>
<trkpt lat="34.5564075" lon="136.0189088888889">
<ele>257</ele>
</trkpt>
<trkpt lat="34.55645305555556" lon="136.0186875">
<ele>256</ele>
</trkpt>
<trkpt lat="34.55656472222222" lon="136.01845833333334">
<ele>256</ele>
</trkpt>
<trkpt lat="34.55721027777778" lon="136.01774138888888">
<ele>255</ele>
</trkpt>
<trkpt lat="34.557607222222224" lon="136.0173">
<ele>255</ele>
</trkpt>
<trkpt lat="34.55774944444445" lon="136.01698638888888">
<ele>255</ele>
</trkpt>
<trkpt lat="34.557764722222224" lon="136.01671166666668">
<ele>255</ele>
</trkpt>
<trkpt lat="34.55773416666667" lon="136.01659027777777">
<ele>254</ele>
</trkpt>
<trkpt lat="34.55714944444444" lon="136.0157125">
<ele>248</ele>
</trkpt>
<trkpt lat="34.556915" lon="136.015285">
<ele>247</ele>
</trkpt>
<trkpt lat="34.55679888888889" lon="136.0149875">
<ele>247</ele>
</trkpt>
<trkpt lat="34.55672194444445" lon="136.01464805555557">
<ele>251</ele>
</trkpt>
<trkpt lat="34.55672194444445" lon="136.01464694444445">
<ele>251</ele>
</trkpt>
<trkpt lat="34.55667638888889" lon="136.0144463888889">
<ele>253</ele>
</trkpt>
<trkpt lat="34.556691388888886" lon="136.01406444444444">
<ele>253</ele>
</trkpt>
<trkpt lat="34.556844444444444" lon="136.01377472222222">
<ele>254</ele>
</trkpt>
<trkpt lat="34.556935555555555" lon="136.01343944444446">
<ele>255</ele>
</trkpt>
<trkpt lat="34.55705833333333" lon="136.01295888888887">
<ele>257</ele>
</trkpt>
<trkpt lat="34.55727638888889" lon="136.01258444444446">
<ele>253</ele>
</trkpt>
<trkpt lat="34.55749" lon="136.01234027777778">
<ele>257</ele>
</trkpt>
<trkpt lat="34.55768305555556" lon="136.01218833333334">
<ele>268</ele>
</trkpt>
<trkpt lat="34.55808555555556" lon="136.01187472222222">
<ele>260</ele>
</trkpt>
<trkpt lat="34.55780027777778" lon="136.01160027777777">
<ele>264</ele>
</trkpt>
<trkpt lat="34.55765805555556" lon="136.0114636111111">
<ele>266</ele>
</trkpt>
<trkpt lat="34.5573025" lon="136.01134861111112">
<ele>269</ele>
</trkpt>
<trkpt lat="34.557134166666664" lon="136.01112722222223">
<ele>266</ele>
</trkpt>
<trkpt lat="34.55705277777778" lon="136.01079972222223">
<ele>268</ele>
</trkpt>
<trkpt lat="34.557007222222225" lon="136.01033416666667">
<ele>272</ele>
</trkpt>
<trkpt lat="34.556910555555554" lon="136.0098536111111">
<ele>272</ele>
</trkpt>
<trkpt lat="34.55695638888889" lon="136.0094488888889">
<ele>274</ele>
</trkpt>
<trkpt lat="34.55692583333333" lon="136.00929694444446">
<ele>272</ele>
</trkpt>
<trkpt lat="34.55683361111111" lon="136.00915916666668">
<ele>274</ele>
</trkpt>
<trkpt lat="34.556574166666664" lon="136.0091136111111">
<ele>279</ele>
</trkpt>
<trkpt lat="34.555949166666664" lon="136.00897583333332">
<ele>284</ele>
</trkpt>
<trkpt lat="34.55562388888889" lon="136.00882388888888">
<ele>294</ele>
</trkpt>
<trkpt lat="34.55559777777778" lon="136.00882388888888">
<ele>294</ele>
</trkpt>
<trkpt lat="34.55529277777778" lon="136.00870138888888">
<ele>297</ele>
</trkpt>
<trkpt lat="34.55525277777778" lon="136.0086025">
<ele>297</ele>
</trkpt>
<trkpt lat="34.555256944444444" lon="136.0082747222222">
<ele>301</ele>
</trkpt>
<trkpt lat="34.55516055555555" lon="136.00813694444443">
<ele>303</ele>
</trkpt>
<trkpt lat="34.55499777777778" lon="136.00801555555555">
<ele>303</ele>
</trkpt>
<trkpt lat="34.55474944444445" lon="136.00788527777777">
<ele>303</ele>
</trkpt>
<trkpt lat="34.55461722222222" lon="136.00770222222224">
<ele>305</ele>
</trkpt>
<trkpt lat="34.55446944444444" lon="136.00735166666666">
<ele>305</ele>
</trkpt>
<trkpt lat="34.5543675" lon="136.00742777777776">
<ele>306</ele>
</trkpt>
<trkpt lat="34.55410833333333" lon="136.00743527777777">
<ele>304</ele>
</trkpt>
<trkpt lat="34.55372638888889" lon="136.00764138888889">
<ele>305</ele>
</trkpt>
<trkpt lat="34.55348222222222" lon="136.0076261111111">
<ele>306</ele>
</trkpt>
<trkpt lat="34.55328472222222" lon="136.00757305555555">
<ele>306</ele>
</trkpt>
<trkpt lat="34.55307555555556" lon="136.00760333333332">
<ele>304</ele>
</trkpt>
<trkpt lat="34.55295944444445" lon="136.00774027777777">
<ele>303</ele>
</trkpt>
<trkpt lat="34.55295944444445" lon="136.00792361111112">
<ele>304</ele>
</trkpt>
<trkpt lat="34.55300944444444" lon="136.0081525">
<ele>308</ele>
</trkpt>
<trkpt lat="34.55291805555556" lon="136.00851166666666">
<ele>307</ele>
</trkpt>
<trkpt lat="34.552842222222225" lon="136.00867888888888">
<ele>309</ele>
</trkpt>
<trkpt lat="34.55269888888889" lon="136.0086636111111">
<ele>305</ele>
</trkpt>
<trkpt lat="34.55254166666667" lon="136.0085725">
<ele>307</ele>
</trkpt>
<trkpt lat="34.55239944444445" lon="136.0085725">
<ele>305</ele>
</trkpt>
<trkpt lat="34.55231805555555" lon="136.00864833333333">
<ele>302</ele>
</trkpt>
<trkpt lat="34.55225194444444" lon="136.00895333333332">
<ele>305</ele>
</trkpt>
<trkpt lat="34.55218583333333" lon="136.0091138888889">
<ele>307</ele>
</trkpt>
<trkpt lat="34.55206861111111" lon="136.0092125">
<ele>305</ele>
</trkpt>
<trkpt lat="34.551565277777776" lon="136.00929722222222">
<ele>304</ele>
</trkpt>
<trkpt lat="34.55135166666667" lon="136.0094036111111">
<ele>305</ele>
</trkpt>
<trkpt lat="34.55122472222222" lon="136.00952611111111">
<ele>306</ele>
</trkpt>
<trkpt lat="34.550985833333336" lon="136.0100525">
<ele>304</ele>
</trkpt>
<trkpt lat="34.55092527777778" lon="136.01015083333334">
<ele>307</ele>
</trkpt>
<trkpt lat="34.550736388888886" lon="136.01019666666667">
<ele>303</ele>
</trkpt>
<trkpt lat="34.550518333333336" lon="136.01030416666666">
<ele>303</ele>
</trkpt>
<trkpt lat="34.55039027777778" lon="136.01040277777778">
<ele>303</ele>
</trkpt>
<trkpt lat="34.550218055555554" lon="136.0107011111111">
<ele>303</ele>
</trkpt>
<trkpt lat="34.549928333333334" lon="136.01089861111112">
<ele>305</ele>
</trkpt>
<trkpt lat="34.549816388888885" lon="136.0111275">
<ele>305</ele>
</trkpt>
<trkpt lat="34.54980138888889" lon="136.01132611111112">
<ele>306</ele>
</trkpt>
<trkpt lat="34.549816388888885" lon="136.01175361111112">
<ele>305</ele>
</trkpt>
<trkpt lat="34.54976" lon="136.01191305555557">
<ele>304</ele>
</trkpt>
<trkpt lat="34.54963305555555" lon="136.01201277777778">
<ele>305</ele>
</trkpt>
<trkpt lat="34.54950083333333" lon="136.01206611111112">
<ele>305</ele>
</trkpt>
<trkpt lat="34.549434444444444" lon="136.01202805555556">
<ele>308</ele>
</trkpt>
<trkpt lat="34.549394444444445" lon="136.01186">
<ele>299</ele>
</trkpt>
<trkpt lat="34.549368333333334" lon="136.01163861111112">
<ele>299</ele>
</trkpt>
<trkpt lat="34.54935527777778" lon="136.01136194444445">
<ele>305</ele>
</trkpt>
<trkpt lat="34.54935527777778" lon="136.01136083333333">
<ele>305</ele>
</trkpt>
<trkpt lat="34.54934333333333" lon="136.01109722222222">
<ele>311</ele>
</trkpt>
<trkpt lat="34.549368333333334" lon="136.010785">
<ele>312</ele>
</trkpt>
<trkpt lat="34.54950083333333" lon="136.01052555555555">
<ele>306</ele>
</trkpt>
<trkpt lat="34.54990222222222" lon="136.00999166666668">
<ele>302</ele>
</trkpt>
<trkpt lat="34.550111666666666" lon="136.0095488888889">
<ele>306</ele>
</trkpt>
<trkpt lat="34.5502275" lon="136.00938833333333">
<ele>306</ele>
</trkpt>
<trkpt lat="34.55034472222222" lon="136.0093125">
<ele>307</ele>
</trkpt>
<trkpt lat="34.550467222222224" lon="136.00928972222223">
<ele>304</ele>
</trkpt>
<trkpt lat="34.55059972222222" lon="136.00913666666668">
<ele>303</ele>
</trkpt>
<trkpt lat="34.55072666666667" lon="136.008885">
<ele>306</ele>
</trkpt>
<trkpt lat="34.55079277777778" lon="136.0087786111111">
<ele>305</ele>
</trkpt>
<trkpt lat="34.55096527777778" lon="136.0086636111111">
<ele>307</ele>
</trkpt>
<trkpt lat="34.55119416666667" lon="136.00860277777778">
<ele>304</ele>
</trkpt>
<trkpt lat="34.55133638888889" lon="136.00854972222223">
<ele>306</ele>
</trkpt>
<trkpt lat="34.551453611111114" lon="136.00852694444444">
<ele>302</ele>
</trkpt>
<trkpt lat="34.551535" lon="136.00837388888888">
<ele>304</ele>
</trkpt>
<trkpt lat="34.551499166666666" lon="136.0079538888889">
<ele>304</ele>
</trkpt>
<trkpt lat="34.55157583333333" lon="136.00780194444445">
<ele>304</ele>
</trkpt>
<trkpt lat="34.55169194444444" lon="136.007725">
<ele>305</ele>
</trkpt>
<trkpt lat="34.551941666666664" lon="136.00760333333332">
<ele>305</ele>
</trkpt>
<trkpt lat="34.552032777777775" lon="136.00747333333334">
<ele>304</ele>
</trkpt>
<trkpt lat="34.55205888888889" lon="136.00723666666667">
<ele>305</ele>
</trkpt>
<trkpt lat="34.551966666666665" lon="136.0067636111111">
<ele>315</ele>
</trkpt>
<trkpt lat="34.55198277777778" lon="136.00655083333334">
<ele>319</ele>
</trkpt>
<trkpt lat="34.55206861111111" lon="136.0064663888889">
<ele>315</ele>
</trkpt>
<trkpt lat="34.5525775" lon="136.00612333333333">
<ele>312</ele>
</trkpt>
<trkpt lat="34.55314138888889" lon="136.00588694444446">
<ele>311</ele>
</trkpt>
<trkpt lat="34.55368611111111" lon="136.00590194444445">
<ele>301</ele>
</trkpt>
<trkpt lat="34.55379777777778" lon="136.00586416666667">
<ele>303</ele>
</trkpt>
<trkpt lat="34.553981388888886" lon="136.00561222222223">
<ele>307</ele>
</trkpt>
<trkpt lat="34.55403222222222" lon="136.00547444444445">
<ele>305</ele>
</trkpt>
<trkpt lat="34.55396611111111" lon="136.00531388888888">
<ele>303</ele>
</trkpt>
<trkpt lat="34.55394" lon="136.0052836111111">
<ele>304</ele>
</trkpt>
<trkpt lat="34.55329444444445" lon="136.00459777777778">
<ele>306</ele>
</trkpt>
<trkpt lat="34.55288222222222" lon="136.0043613888889">
<ele>309</ele>
</trkpt>
<trkpt lat="34.552841944444445" lon="136.00425388888888">
<ele>306</ele>
</trkpt>
<trkpt lat="34.55287777777778" lon="136.0041475">
<ele>307</ele>
</trkpt>
<trkpt lat="34.55294833333333" lon="136.00408555555555">
<ele>306</ele>
</trkpt>
<trkpt lat="34.5531675" lon="136.00400972222224">
<ele>300</ele>
</trkpt>
<trkpt lat="34.553218333333334" lon="136.00394138888888">
<ele>301</ele>
</trkpt>
<trkpt lat="34.553177222222224" lon="136.00378833333335">
<ele>302</ele>
</trkpt>
<trkpt lat="34.553040555555555" lon="136.00369722222223">
<ele>304</ele>
</trkpt>
<trkpt lat="34.55282666666667" lon="136.00367444444444">
<ele>305</ele>
</trkpt>
<trkpt lat="34.55257722222222" lon="136.00369722222223">
<ele>305</ele>
</trkpt>
<trkpt lat="34.552216111111115" lon="136.00380388888888">
<ele>307</ele>
</trkpt>
<trkpt lat="34.55205888888889" lon="136.00375055555557">
<ele>303</ele>
</trkpt>
<trkpt lat="34.55186027777778" lon="136.00372777777778">
<ele>305</ele>
</trkpt>
<trkpt lat="34.55174861111111" lon="136.00369">
<ele>307</ele>
</trkpt>
<trkpt lat="34.55166166666667" lon="136.00357472222223">
<ele>308</ele>
</trkpt>
<trkpt lat="34.55162583333333" lon="136.00343805555556">
<ele>305</ele>
</trkpt>
<trkpt lat="34.55160083333333" lon="136.0032775">
<ele>304</ele>
</trkpt>
<trkpt lat="34.55153472222222" lon="136.00318638888888">
<ele>304</ele>
</trkpt>
<trkpt lat="34.55135666666666" lon="136.00316361111112">
<ele>305</ele>
</trkpt>
<trkpt lat="34.55116916666667" lon="136.00310166666668">
<ele>306</ele>
</trkpt>
<trkpt lat="34.55106694444444" lon="136.002965">
<ele>307</ele>
</trkpt>
<trkpt lat="34.551025833333334" lon="136.0028272222222">
<ele>306</ele>
</trkpt>
<trkpt lat="34.55100083333333" lon="136.0026286111111">
<ele>303</ele>
</trkpt>
<trkpt lat="34.55094444444445" lon="136.00238444444443">
<ele>304</ele>
</trkpt>
<trkpt lat="34.550853333333336" lon="136.0023011111111">
<ele>303</ele>
</trkpt>
<trkpt lat="34.550736111111114" lon="136.00227833333332">
<ele>304</ele>
</trkpt>
<trkpt lat="34.55045194444445" lon="136.0023238888889">
<ele>303</ele>
</trkpt>
<trkpt lat="34.55035" lon="136.00240083333333">
<ele>304</ele>
</trkpt>
<trkpt lat="34.5502275" lon="136.0025222222222">
<ele>305</ele>
</trkpt>
<trkpt lat="34.550176388888886" lon="136.00257555555555">
<ele>306</ele>
</trkpt>
<trkpt lat="34.55000944444444" lon="136.0026525">
<ele>306</ele>
</trkpt>
<trkpt lat="34.549460277777776" lon="136.00266027777778">
<ele>305</ele>
</trkpt>
<trkpt lat="34.54935305555556" lon="136.0026286111111">
<ele>305</ele>
</trkpt>
<trkpt lat="34.54927694444444" lon="136.0025222222222">
<ele>307</ele>
</trkpt>
<trkpt lat="34.54927694444444" lon="136.00236166666667">
<ele>308</ele>
</trkpt>
<trkpt lat="34.54935833333333" lon="136.00220222222222">
<ele>306</ele>
</trkpt>
<trkpt lat="34.54951027777778" lon="136.00204916666667">
<ele>304</ele>
</trkpt>
<trkpt lat="34.54971972222222" lon="136.0018736111111">
<ele>305</ele>
</trkpt>
<trkpt lat="34.54980111111111" lon="136.00173666666666">
<ele>302</ele>
</trkpt>
<trkpt lat="34.549841111111114" lon="136.00156083333334">
<ele>303</ele>
</trkpt>
<trkpt lat="34.54987694444444" lon="136.0008286111111">
<ele>307</ele>
</trkpt>
<trkpt lat="34.54991722222222" lon="136.00071472222223">
<ele>303</ele>
</trkpt>
<trkpt lat="34.55000944444444" lon="136.00057694444445">
<ele>300</ele>
</trkpt>
<trkpt lat="34.550024444444446" lon="136.00038583333333">
<ele>305</ele>
</trkpt>
<trkpt lat="34.55000944444444" lon="136.0003025">
<ele>302</ele>
</trkpt>
<trkpt lat="34.549958333333336" lon="136.00026472222223">
<ele>301</ele>
</trkpt>
<trkpt lat="34.54970888888889" lon="136.00014944444445">
<ele>298</ele>
</trkpt>
<trkpt lat="34.54966861111111" lon="136.00008888888888">
<ele>298</ele>
</trkpt>
<trkpt lat="34.54965361111111" lon="136.00002805555556">
<ele>302</ele>
</trkpt>
<trkpt lat="34.549657777777774" lon="135.9999672222222">
<ele>305</ele>
</trkpt>
<trkpt lat="34.54969916666667" lon="135.9998977777778">
<ele>301</ele>
</trkpt>
<trkpt lat="34.549928055555554" lon="135.99972305555556">
<ele>301</ele>
</trkpt>
<trkpt lat="34.550045" lon="135.99966138888888">
<ele>302</ele>
</trkpt>
<trkpt lat="34.55012638888889" lon="135.99958527777778">
<ele>301</ele>
</trkpt>
<trkpt lat="34.55015138888889" lon="135.99951694444445">
<ele>304</ele>
</trkpt>
<trkpt lat="34.55015138888889" lon="135.99944">
<ele>303</ele>
</trkpt>
<trkpt lat="34.55012638888889" lon="135.9993638888889">
<ele>303</ele>
</trkpt>
<trkpt lat="34.55007" lon="135.99930333333333">
<ele>302</ele>
</trkpt>
<trkpt lat="34.54983583333333" lon="135.9991275">
<ele>305</ele>
</trkpt>
<trkpt lat="34.549500555555554" lon="135.99889861111112">
<ele>303</ele>
</trkpt>
<trkpt lat="34.54941916666667" lon="135.99885277777778">
<ele>299</ele>
</trkpt>
<trkpt lat="34.54935305555556" lon="135.99883777777777">
<ele>299</ele>
</trkpt>
<trkpt lat="34.54926611111111" lon="135.9988225">
<ele>299</ele>
</trkpt>
<trkpt lat="34.54921083333333" lon="135.99885277777778">
<ele>299</ele>
</trkpt>
<trkpt lat="34.54915972222222" lon="135.99887583333333">
<ele>299</ele>
</trkpt>
<trkpt lat="34.548966666666665" lon="135.99908944444445">
<ele>299</ele>
</trkpt>
<trkpt lat="34.54891027777778" lon="135.9991275">
<ele>302</ele>
</trkpt>
<trkpt lat="34.548676944444445" lon="135.99918833333334">
<ele>299</ele>
</trkpt>
<trkpt lat="34.548610833333335" lon="135.99922722222223">
<ele>299</ele>
</trkpt>
<trkpt lat="34.548503333333336" lon="135.99930333333333">
<ele>299</ele>
</trkpt>
<trkpt lat="34.548366666666666" lon="135.99941722222223">
<ele>299</ele>
</trkpt>
<trkpt lat="34.5481325" lon="135.99971555555555">
<ele>300</ele>
</trkpt>
<trkpt lat="34.54806638888889" lon="135.99977638888888">
<ele>299</ele>
</trkpt>
<trkpt lat="34.54792416666667" lon="135.999875">
<ele>299</ele>
</trkpt>
<trkpt lat="34.5478275" lon="135.99992833333334">
<ele>299</ele>
</trkpt>
<trkpt lat="34.547583333333336" lon="135.99999">
<ele>299</ele>
</trkpt>
<trkpt lat="34.54728277777778" lon="136.00003555555554">
<ele>299</ele>
</trkpt>
<trkpt lat="34.54702888888889" lon="136.00005083333335">
<ele>299</ele>
</trkpt>
<trkpt lat="34.54687638888889" lon="136.00006611111112">
<ele>299</ele>
</trkpt>
<trkpt lat="34.546775277777776" lon="136.00005083333335">
<ele>300</ele>
</trkpt>
<trkpt lat="34.54667777777778" lon="136.00002805555556">
<ele>300</ele>
</trkpt>
<trkpt lat="34.546550833333335" lon="135.999975">
<ele>300</ele>
</trkpt>
<trkpt lat="34.5463575" lon="135.99985222222222">
<ele>299</ele>
</trkpt>
<trkpt lat="34.546261111111114" lon="135.9997913888889">
<ele>299</ele>
</trkpt>
<trkpt lat="34.54617416666667" lon="135.9997611111111">
<ele>299</ele>
</trkpt>
<trkpt lat="34.5460625" lon="135.99973833333334">
<ele>299</ele>
</trkpt>
<trkpt lat="34.54586944444444" lon="135.99973833333334">
<ele>304</ele>
</trkpt>
<trkpt lat="34.54580305555555" lon="135.99971555555555">
<ele>304</ele>
</trkpt>
<trkpt lat="34.545767222222224" lon="135.99966138888888">
<ele>307</ele>
</trkpt>
<trkpt lat="34.54569138888889" lon="135.9994475">
<ele>303</ele>
</trkpt>
<trkpt lat="34.54567083333333" lon="135.99940194444446">
<ele>299</ele>
</trkpt>
<trkpt lat="34.54546777777778" lon="135.99918833333334">
<ele>299</ele>
</trkpt>
<trkpt lat="34.54541694444445" lon="135.9991652777778">
<ele>299</ele>
</trkpt>
<trkpt lat="34.54519361111111" lon="135.99908944444445">
<ele>302</ele>
</trkpt>
<trkpt lat="34.5451425" lon="135.9990363888889">
<ele>302</ele>
</trkpt>
<trkpt lat="34.54511222222222" lon="135.99897444444446">
<ele>307</ele>
</trkpt>
<trkpt lat="34.545091666666664" lon="135.99889861111112">
<ele>307</ele>
</trkpt>
<trkpt lat="34.545116666666665" lon="135.99863944444445">
<ele>305</ele>
</trkpt>
<trkpt lat="34.54511222222222" lon="135.9985027777778">
<ele>309</ele>
</trkpt>
<trkpt lat="34.545091666666664" lon="135.99834972222223">
<ele>306</ele>
</trkpt>
<trkpt lat="34.54506111111111" lon="135.99821194444445">
<ele>299</ele>
</trkpt>
<trkpt lat="34.54500055555555" lon="135.99812833333334">
<ele>299</ele>
</trkpt>
<trkpt lat="34.54494388888889" lon="135.9980525">
<ele>299</ele>
</trkpt>
<trkpt lat="34.54485277777778" lon="135.99796027777776">
<ele>299</ele>
</trkpt>
<trkpt lat="34.544735555555555" lon="135.99789944444444">
<ele>299</ele>
</trkpt>
<trkpt lat="34.54446111111111" lon="135.99780055555556">
<ele>299</ele>
</trkpt>
<trkpt lat="34.5442875" lon="135.9976477777778">
<ele>299</ele>
</trkpt>
<trkpt lat="34.544201944444445" lon="135.99756416666668">
<ele>301</ele>
</trkpt>
<trkpt lat="34.54412055555556" lon="135.9975186111111">
<ele>299</ele>
</trkpt>
<trkpt lat="34.544043333333335" lon="135.99748722222222">
<ele>299</ele>
</trkpt>
<trkpt lat="34.543886111111114" lon="135.99746444444443">
<ele>301</ele>
</trkpt>
<trkpt lat="34.54382527777778" lon="135.9974413888889">
<ele>299</ele>
</trkpt>
<trkpt lat="34.54378416666667" lon="135.9974036111111">
<ele>299</ele>
</trkpt>
<trkpt lat="34.543728888888886" lon="135.997205">
<ele>299</ele>
</trkpt>
<trkpt lat="34.543708055555555" lon="135.99715194444445">
<ele>299</ele>
</trkpt>
<trkpt lat="34.543708055555555" lon="135.99705305555557">
<ele>299</ele>
</trkpt>
<trkpt lat="34.543728888888886" lon="135.9969988888889">
<ele>299</ele>
</trkpt>
<trkpt lat="34.54385027777778" lon="135.9967775">
<ele>300</ele>
</trkpt>
<trkpt lat="34.54387083333334" lon="135.99671666666666">
<ele>300</ele>
</trkpt>
<trkpt lat="34.543886111111114" lon="135.99606138888888">
<ele>301</ele>
</trkpt>
<trkpt lat="34.54389361111111" lon="135.996005">
<ele>301</ele>
</trkpt>
<trkpt lat="34.54389361111111" lon="135.99600388888888">
<ele>301</ele>
</trkpt>
<trkpt lat="34.54392722222222" lon="135.99574">
<ele>300</ele>
</trkpt>
<trkpt lat="34.54435388888889" lon="135.9955111111111">
<ele>299</ele>
</trkpt>
<trkpt lat="34.544512222222224" lon="135.99538972222223">
<ele>299</ele>
</trkpt>
<trkpt lat="34.544578333333334" lon="135.995305">
<ele>299</ele>
</trkpt>
<trkpt lat="34.54458277777778" lon="135.9951911111111">
<ele>300</ele>
</trkpt>
<trkpt lat="34.544557777777776" lon="135.99512277777777">
<ele>300</ele>
</trkpt>
<trkpt lat="34.54445027777778" lon="135.99506083333333">
<ele>303</ele>
</trkpt>
<trkpt lat="34.54425277777778" lon="135.99501527777778">
<ele>306</ele>
</trkpt>
<trkpt lat="34.544109722222224" lon="135.99497722222222">
<ele>304</ele>
</trkpt>
<trkpt lat="34.544018333333334" lon="135.99487861111112">
<ele>302</ele>
</trkpt>
<trkpt lat="34.54391638888889" lon="135.99472555555556">
<ele>300</ele>
</trkpt>
<trkpt lat="34.543795" lon="135.99461166666666">
<ele>299</ele>
</trkpt>
<trkpt lat="34.54328611111111" lon="135.99451222222223">
<ele>303</ele>
</trkpt>
<trkpt lat="34.543235" lon="135.99445138888888">
<ele>303</ele>
</trkpt>
<trkpt lat="34.543235" lon="135.99437527777778">
<ele>299</ele>
</trkpt>
<trkpt lat="34.54367777777778" lon="135.99363527777777">
<ele>299</ele>
</trkpt>
<trkpt lat="34.54371777777778" lon="135.9933761111111">
<ele>299</ele>
</trkpt>
<trkpt lat="34.54376888888889" lon="135.99325333333334">
<ele>299</ele>
</trkpt>
<trkpt lat="34.5439675" lon="135.99300166666666">
<ele>299</ele>
</trkpt>
<trkpt lat="34.54396194444445" lon="135.99288777777778">
<ele>299</ele>
</trkpt>
<trkpt lat="34.54385027777778" lon="135.99271194444444">
<ele>300</ele>
</trkpt>
<trkpt lat="34.54382" lon="135.99261222222222">
<ele>300</ele>
</trkpt>
<trkpt lat="34.54382527777778" lon="135.99239944444443">
<ele>302</ele>
</trkpt>
<trkpt lat="34.54392722222222" lon="135.9921163888889">
<ele>302</ele>
</trkpt>
<trkpt lat="34.544003333333336" lon="135.99175055555557">
<ele>304</ele>
</trkpt>
<trkpt lat="34.54400833333333" lon="135.99160527777778">
<ele>303</ele>
</trkpt>
<trkpt lat="34.54387083333334" lon="135.99129277777777">
<ele>301</ele>
</trkpt>
<trkpt lat="34.54385027777778" lon="135.991155">
<ele>300</ele>
</trkpt>
<trkpt lat="34.54387083333334" lon="135.99098027777777">
<ele>299</ele>
</trkpt>
<trkpt lat="34.543845833333336" lon="135.99086527777777">
<ele>299</ele>
</trkpt>
<trkpt lat="34.543753611111114" lon="135.99078916666667">
<ele>300</ele>
</trkpt>
<trkpt lat="34.54325027777778" lon="135.99059833333334">
<ele>306</ele>
</trkpt>
<trkpt lat="34.54293444444444" lon="135.990415">
<ele>303</ele>
</trkpt>
<trkpt lat="34.54234527777778" lon="135.98972916666668">
<ele>303</ele>
</trkpt>
<trkpt lat="34.542141388888886" lon="135.98961416666666">
<ele>303</ele>
</trkpt>
<trkpt lat="34.54170416666667" lon="135.98942333333332">
<ele>303</ele>
</trkpt>
<trkpt lat="34.541134722222225" lon="135.98905027777778">
<ele>301</ele>
</trkpt>
<trkpt lat="34.54071805555556" lon="135.98888944444445">
<ele>304</ele>
</trkpt>
<trkpt lat="34.540443333333336" lon="135.98867583333333">
<ele>304</ele>
</trkpt>
<trkpt lat="34.540194166666666" lon="135.98853916666667">
<ele>305</ele>
</trkpt>
<trkpt lat="34.54006722222222" lon="135.98836333333333">
<ele>306</ele>
</trkpt>
<trkpt lat="34.53999555555556" lon="135.9881875">
<ele>305</ele>
</trkpt>
<trkpt lat="34.53998583333333" lon="135.98817222222223">
<ele>305</ele>
</trkpt>
<trkpt lat="34.539634166666666" lon="135.98720333333333">
<ele>304</ele>
</trkpt>
<trkpt lat="34.53963" lon="135.98715777777778">
<ele>304</ele>
</trkpt>
<trkpt lat="34.539609166666665" lon="135.98618888888888">
<ele>303</ele>
</trkpt>
<trkpt lat="34.53958333333333" lon="135.9859675">
<ele>302</ele>
</trkpt>
<trkpt lat="34.53949222222222" lon="135.98579166666667">
<ele>302</ele>
</trkpt>
<trkpt lat="34.53947138888889" lon="135.98567777777777">
<ele>302</ele>
</trkpt>
<trkpt lat="34.53944666666667" lon="135.9853425">
<ele>304</ele>
</trkpt>
<trkpt lat="34.53946166666667" lon="135.98505166666666">
<ele>303</ele>
</trkpt>
<trkpt lat="34.53951694444444" lon="135.9848388888889">
<ele>303</ele>
</trkpt>
<trkpt lat="34.539501944444446" lon="135.9846861111111">
<ele>303</ele>
</trkpt>
<trkpt lat="34.539451944444444" lon="135.9845636111111">
<ele>302</ele>
</trkpt>
<trkpt lat="34.53937055555556" lon="135.98448">
<ele>302</ele>
</trkpt>
<trkpt lat="34.53922722222222" lon="135.98440416666668">
<ele>301</ele>
</trkpt>
<trkpt lat="34.53874444444445" lon="135.98422833333333">
<ele>303</ele>
</trkpt>
<trkpt lat="34.538561111111115" lon="135.98420555555555">
<ele>301</ele>
</trkpt>
<trkpt lat="34.53806888888889" lon="135.9842361111111">
<ele>303</ele>
</trkpt>
<trkpt lat="34.53789527777778" lon="135.98434333333333">
<ele>304</ele>
</trkpt>
<trkpt lat="34.53765638888889" lon="135.984595">
<ele>305</ele>
</trkpt>
<trkpt lat="34.53701083333333" lon="135.98525055555555">
<ele>307</ele>
</trkpt>
<trkpt lat="34.53684583333333" lon="135.985295">
<ele>304</ele>
</trkpt>
<trkpt lat="34.53684472222222" lon="135.985295">
<ele>304</ele>
</trkpt>
<trkpt lat="34.536812222222224" lon="135.9853036111111">
<ele>303</ele>
</trkpt>
<trkpt lat="34.53628833333333" lon="135.98555638888888">
<ele>298</ele>
</trkpt>
<trkpt lat="34.53608444444444" lon="135.98561722222223">
<ele>297</ele>
</trkpt>
<trkpt lat="34.53572861111111" lon="135.98600583333334">
<ele>299</ele>
</trkpt>
<trkpt lat="34.535185" lon="135.98631166666667">
<ele>298</ele>
</trkpt>
<trkpt lat="34.534869444444446" lon="135.98641805555556">
<ele>298</ele>
</trkpt>
<trkpt lat="34.53451888888889" lon="135.98650166666667">
<ele>299</ele>
</trkpt>
<trkpt lat="34.53411222222222" lon="135.98683027777778">
<ele>301</ele>
</trkpt>
<trkpt lat="34.53391888888889" lon="135.9868911111111">
<ele>300</ele>
</trkpt>
<trkpt lat="34.53356194444444" lon="135.9871427777778">
<ele>300</ele>
</trkpt>
<trkpt lat="34.533120555555556" lon="135.98683027777778">
<ele>302</ele>
</trkpt>
<trkpt lat="34.53300333333333" lon="135.9866775">
<ele>304</ele>
</trkpt>
<trkpt lat="34.53267777777778" lon="135.98620416666665">
<ele>305</ele>
</trkpt>
<trkpt lat="34.532585555555556" lon="135.98599083333335">
<ele>308</ele>
</trkpt>
<trkpt lat="34.53241305555556" lon="135.98557944444445">
<ele>315</ele>
</trkpt>
<trkpt lat="34.53238805555556" lon="135.98554055555556">
<ele>314</ele>
</trkpt>
<trkpt lat="34.532337222222225" lon="135.98555666666667">
<ele>314</ele>
</trkpt>
<trkpt lat="34.532295833333336" lon="135.98557944444445">
<ele>318</ele>
</trkpt>
<trkpt lat="34.53225583333333" lon="135.98564027777778">
<ele>318</ele>
</trkpt>
<trkpt lat="34.532178888888886" lon="135.98597555555557">
<ele>322</ele>
</trkpt>
<trkpt lat="34.53212888888889" lon="135.98607555555554">
<ele>321</ele>
</trkpt>
<trkpt lat="34.5320725" lon="135.9861286111111">
<ele>323</ele>
</trkpt>
<trkpt lat="34.532000833333335" lon="135.9861286111111">
<ele>323</ele>
</trkpt>
<trkpt lat="34.531955277777776" lon="135.98611333333332">
<ele>326</ele>
</trkpt>
<trkpt lat="34.531909722222224" lon="135.98606777777778">
<ele>327</ele>
</trkpt>
<trkpt lat="34.53187916666667" lon="135.98597555555557">
<ele>331</ele>
</trkpt>
<trkpt lat="34.531864166666665" lon="135.98580083333334">
<ele>331</ele>
</trkpt>
<trkpt lat="34.531822777777776" lon="135.98567833333334">
<ele>332</ele>
</trkpt>
<trkpt lat="34.531777222222225" lon="135.98558722222222">
<ele>332</ele>
</trkpt>
<trkpt lat="34.53173722222222" lon="135.98552527777778">
<ele>333</ele>
</trkpt>
<trkpt lat="34.53176222222222" lon="135.98544944444444">
<ele>333</ele>
</trkpt>
<trkpt lat="34.53176222222222" lon="135.9853811111111">
<ele>332</ele>
</trkpt>
<trkpt lat="34.531686111111114" lon="135.98521277777778">
<ele>330</ele>
</trkpt>
<trkpt lat="34.53166" lon="135.9850686111111">
<ele>333</ele>
</trkpt>
<trkpt lat="34.5317675" lon="135.9849686111111">
<ele>332</ele>
</trkpt>
<trkpt lat="34.5320475" lon="135.9846411111111">
<ele>326</ele>
</trkpt>
<trkpt lat="34.53237722222222" lon="135.9840377777778">
<ele>322</ele>
</trkpt>
<trkpt lat="34.53250416666667" lon="135.98387805555555">
<ele>323</ele>
</trkpt>
<trkpt lat="34.53304333333333" lon="135.98332805555555">
<ele>311</ele>
</trkpt>
<trkpt lat="34.53313555555555" lon="135.9831761111111">
<ele>307</ele>
</trkpt>
<trkpt lat="34.53319638888889" lon="135.9829775">
<ele>311</ele>
</trkpt>
<trkpt lat="34.53320166666666" lon="135.98283972222222">
<ele>312</ele>
</trkpt>
<trkpt lat="34.533186388888886" lon="135.98272583333335">
<ele>313</ele>
</trkpt>
<trkpt lat="34.53313" lon="135.98258805555557">
<ele>313</ele>
</trkpt>
<trkpt lat="34.53304333333333" lon="135.98248916666665">
<ele>314</ele>
</trkpt>
<trkpt lat="34.53284472222222" lon="135.98236666666668">
<ele>312</ele>
</trkpt>
<trkpt lat="34.53274805555556" lon="135.98232861111111">
<ele>313</ele>
</trkpt>
<trkpt lat="34.53210277777778" lon="135.98213">
<ele>313</ele>
</trkpt>
<trkpt lat="34.531955277777776" lon="135.9820388888889">
<ele>312</ele>
</trkpt>
<trkpt lat="34.531915" lon="135.9820086111111">
<ele>312</ele>
</trkpt>
<trkpt lat="34.53126833333334" lon="135.98154305555556">
<ele>309</ele>
</trkpt>
<trkpt lat="34.531014444444445" lon="135.98132944444444">
<ele>309</ele>
</trkpt>
<trkpt lat="34.53078555555555" lon="135.98115388888888">
<ele>311</ele>
</trkpt>
<trkpt lat="34.530520833333334" lon="135.98100194444444">
<ele>314</ele>
</trkpt>
<trkpt lat="34.530251944444444" lon="135.98088694444445">
<ele>314</ele>
</trkpt>
<trkpt lat="34.530119722222224" lon="135.98081861111112">
<ele>313</ele>
</trkpt>
<trkpt lat="34.530028333333334" lon="135.9807047222222">
<ele>313</ele>
</trkpt>
<trkpt lat="34.52997194444445" lon="135.98057444444444">
<ele>310</ele>
</trkpt>
<trkpt lat="34.52992638888889" lon="135.98046805555555">
<ele>307</ele>
</trkpt>
<trkpt lat="34.52986027777778" lon="135.97991805555554">
<ele>304</ele>
</trkpt>
<trkpt lat="34.52981472222222" lon="135.9793386111111">
<ele>304</ele>
</trkpt>
<trkpt lat="34.52978111111111" lon="135.97877416666665">
<ele>311</ele>
</trkpt>
<trkpt lat="34.52978111111111" lon="135.97877333333332">
<ele>311</ele>
</trkpt>
<trkpt lat="34.52977888888889" lon="135.9787286111111">
<ele>312</ele>
</trkpt>
<trkpt lat="34.52978861111111" lon="135.9786061111111">
<ele>312</ele>
</trkpt>
<trkpt lat="34.52988055555556" lon="135.97831638888889">
<ele>314</ele>
</trkpt>
<trkpt lat="34.52989027777778" lon="135.9782936111111">
<ele>314</ele>
</trkpt>
<trkpt lat="34.530276666666666" lon="135.97732472222222">
<ele>311</ele>
</trkpt>
<trkpt lat="34.53040361111111" lon="135.97705">
<ele>311</ele>
</trkpt>
<trkpt lat="34.53046" lon="135.9769122222222">
<ele>310</ele>
</trkpt>
<trkpt lat="34.53056194444444" lon="135.9767363888889">
<ele>311</ele>
</trkpt>
<trkpt lat="34.53066833333333" lon="135.9766302777778">
<ele>310</ele>
</trkpt>
<trkpt lat="34.530770277777776" lon="135.97655416666666">
<ele>312</ele>
</trkpt>
<trkpt lat="34.53118694444444" lon="135.97621777777778">
<ele>305</ele>
</trkpt>
<trkpt lat="34.531304166666665" lon="135.97608861111112">
<ele>304</ele>
</trkpt>
<trkpt lat="34.531375833333335" lon="135.97595083333334">
<ele>302</ele>
</trkpt>
<trkpt lat="34.53140611111111" lon="135.9757675">
<ele>303</ele>
</trkpt>
<trkpt lat="34.53138555555556" lon="135.97549305555555">
<ele>303</ele>
</trkpt>
<trkpt lat="34.53129444444444" lon="135.97485277777778">
<ele>304</ele>
</trkpt>
<trkpt lat="34.53120222222222" lon="135.97450138888888">
<ele>304</ele>
</trkpt>
<trkpt lat="34.53106" lon="135.97424944444444">
<ele>304</ele>
</trkpt>
<trkpt lat="34.5308875" lon="135.97404333333333">
<ele>306</ele>
</trkpt>
<trkpt lat="34.530745277777775" lon="135.97391416666667">
<ele>306</ele>
</trkpt>
<trkpt lat="34.53064444444444" lon="135.97386138888888">
<ele>306</ele>
</trkpt>
<trkpt lat="34.53064333333333" lon="135.97386138888888">
<ele>306</ele>
</trkpt>
<trkpt lat="34.53051111111111" lon="135.97379194444446">
<ele>307</ele>
</trkpt>
<trkpt lat="34.53033861111111" lon="135.9737311111111">
<ele>306</ele>
</trkpt>
<trkpt lat="34.530144166666666" lon="135.97370083333334">
<ele>306</ele>
</trkpt>
<trkpt lat="34.530028055555555" lon="135.97371611111112">
<ele>306</ele>
</trkpt>
<trkpt lat="34.52947805555556" lon="135.9738538888889">
<ele>305</ele>
</trkpt>
<trkpt lat="34.529361944444446" lon="135.97387666666665">
<ele>303</ele>
</trkpt>
<trkpt lat="34.52907666666667" lon="135.97396777777777">
<ele>300</ele>
</trkpt>
<trkpt lat="34.529061666666664" lon="135.97396777777777">
<ele>300</ele>
</trkpt>
<trkpt lat="34.528695" lon="135.9740663888889">
<ele>300</ele>
</trkpt>
<trkpt lat="34.5285375" lon="135.97409027777778">
<ele>300</ele>
</trkpt>
<trkpt lat="34.528395277777776" lon="135.9740436111111">
<ele>301</ele>
</trkpt>
<trkpt lat="34.52826833333334" lon="135.97396777777777">
<ele>301</ele>
</trkpt>
<trkpt lat="34.52817611111111" lon="135.97381472222222">
<ele>301</ele>
</trkpt>
<trkpt lat="34.528130555555556" lon="135.97366277777778">
<ele>300</ele>
</trkpt>
<trkpt lat="34.52804388888889" lon="135.97331888888888">
<ele>301</ele>
</trkpt>
<trkpt lat="34.52797861111111" lon="135.97303666666667">
<ele>302</ele>
</trkpt>
<trkpt lat="34.527810555555554" lon="135.97240416666668">
<ele>301</ele>
</trkpt>
<trkpt lat="34.52775416666667" lon="135.97212972222223">
<ele>302</ele>
</trkpt>
<trkpt lat="34.52768805555556" lon="135.9720375">
<ele>302</ele>
</trkpt>
<trkpt lat="34.52756111111111" lon="135.97191583333333">
<ele>303</ele>
</trkpt>
<trkpt lat="34.52760222222222" lon="135.9717025">
<ele>304</ele>
</trkpt>
<trkpt lat="34.52760222222222" lon="135.9717025">
<ele>304</ele>
</trkpt>
    </trkseg>
  </trk>
</gpx>