<?xml version="1.0" encoding="UTF-8"?>
<gpx version="1.1"
     creator="KMLtoGPX"
     xmlns="http://www.topografix.com/GPX/1/1">
  <metadata>
    <name>Nanbu Petit Hill Climb Course</name>
    <desc>南部ぷちヒルクライムコース</desc>
    <bounds minlat="34.85406" minlon="134.79455194444444" maxlat="34.89532111111111" maxlon="134.856295"/>
  </metadata>
  <trk>
    <name>Nanbu Petit Hill Climb Course</name>
    <trkseg>
<trkpt lat="34.874428888888886" lon="134.8561261111111">
<ele>37</ele>
</trkpt>
<trkpt lat="34.87443388888889" lon="134.85628194444445">
<ele>37</ele>
</trkpt>
<trkpt lat="34.874055" lon="134.85623194444443">
<ele>37</ele>
</trkpt>
<trkpt lat="34.874055" lon="134.85623194444443">
<ele>37</ele>
</trkpt>
<trkpt lat="34.873958888888886" lon="134.85622">
<ele>37</ele>
</trkpt>
<trkpt lat="34.87394305555556" lon="134.854845">
<ele>36</ele>
</trkpt>
<trkpt lat="34.87394305555556" lon="134.85473194444444">
<ele>36</ele>
</trkpt>
<trkpt lat="34.87393388888889" lon="134.85422">
<ele>37</ele>
</trkpt>
<trkpt lat="34.87392611111111" lon="134.85413194444445">
<ele>37</ele>
</trkpt>
<trkpt lat="34.87392611111111" lon="134.854095">
<ele>37</ele>
</trkpt>
<trkpt lat="34.87392611111111" lon="134.853845">
<ele>37</ele>
</trkpt>
<trkpt lat="34.87390888888889" lon="134.85325805555556">
<ele>39</ele>
</trkpt>
<trkpt lat="34.87390111111111" lon="134.85250805555555">
<ele>40</ele>
</trkpt>
<trkpt lat="34.87390888888889" lon="134.852145">
<ele>40</ele>
</trkpt>
<trkpt lat="34.873918055555556" lon="134.85200805555556">
<ele>40</ele>
</trkpt>
<trkpt lat="34.87392611111111" lon="134.8519388888889">
<ele>40</ele>
</trkpt>
<trkpt lat="34.87392611111111" lon="134.8519388888889">
<ele>40</ele>
</trkpt>
<trkpt lat="34.87395111111111" lon="134.851745">
<ele>40</ele>
</trkpt>
<trkpt lat="34.87410111111111" lon="134.85088305555556">
<ele>40</ele>
</trkpt>
<trkpt lat="34.87421805555555" lon="134.85022">
<ele>40</ele>
</trkpt>
<trkpt lat="34.874251111111114" lon="134.850045">
<ele>40</ele>
</trkpt>
<trkpt lat="34.87435888888889" lon="134.849445">
<ele>41</ele>
</trkpt>
<trkpt lat="34.87445888888889" lon="134.84880805555557">
<ele>41</ele>
</trkpt>
<trkpt lat="34.87450111111111" lon="134.84850805555556">
<ele>41</ele>
</trkpt>
<trkpt lat="34.87450888888889" lon="134.84815805555556">
<ele>41</ele>
</trkpt>
<trkpt lat="34.874493055555554" lon="134.84787111111112">
<ele>41</ele>
</trkpt>
<trkpt lat="34.87444305555555" lon="134.84753305555554">
<ele>41</ele>
</trkpt>
<trkpt lat="34.874383888888886" lon="134.8472211111111">
<ele>41</ele>
</trkpt>
<trkpt lat="34.87432611111111" lon="134.84697111111112">
<ele>41</ele>
</trkpt>
<trkpt lat="34.87417611111111" lon="134.8465461111111">
<ele>41</ele>
</trkpt>
<trkpt lat="34.873918055555556" lon="134.84584611111111">
<ele>42</ele>
</trkpt>
<trkpt lat="34.87345111111111" lon="134.84460805555557">
<ele>43</ele>
</trkpt>
<trkpt lat="34.87313388888889" lon="134.84377111111112">
<ele>45</ele>
</trkpt>
<trkpt lat="34.87302611111111" lon="134.84354611111112">
<ele>46</ele>
</trkpt>
<trkpt lat="34.87307305555556" lon="134.84357888888889">
<ele>46</ele>
</trkpt>
<trkpt lat="34.87307305555556" lon="134.84357888888889">
<ele>46</ele>
</trkpt>
<trkpt lat="34.87302611111111" lon="134.84354611111112">
<ele>46</ele>
</trkpt>
<trkpt lat="34.87287611111111" lon="134.8433711111111">
<ele>47</ele>
</trkpt>
<trkpt lat="34.87263388888889" lon="134.8431588888889">
<ele>48</ele>
</trkpt>
<trkpt lat="34.87256694444444" lon="134.84310888888888">
<ele>48</ele>
</trkpt>
<trkpt lat="34.872326111111114" lon="134.84289611111112">
<ele>47</ele>
</trkpt>
<trkpt lat="34.87209305555555" lon="134.8426961111111">
<ele>47</ele>
</trkpt>
<trkpt lat="34.871743055555555" lon="134.84232111111112">
<ele>48</ele>
</trkpt>
<trkpt lat="34.87155111111111" lon="134.84209611111112">
<ele>48</ele>
</trkpt>
<trkpt lat="34.87140111111111" lon="134.84187111111112">
<ele>48</ele>
</trkpt>
<trkpt lat="34.87125888888889" lon="134.8415838888889">
<ele>48</ele>
</trkpt>
<trkpt lat="34.87100888888889" lon="134.8410338888889">
<ele>49</ele>
</trkpt>
<trkpt lat="34.87092611111111" lon="134.84084611111112">
<ele>49</ele>
</trkpt>
<trkpt lat="34.87072611111111" lon="134.84034694444443">
<ele>49</ele>
</trkpt>
<trkpt lat="34.87055111111111" lon="134.83990888888889">
<ele>49</ele>
</trkpt>
<trkpt lat="34.870401111111114" lon="134.83952194444444">
<ele>49</ele>
</trkpt>
<trkpt lat="34.87013388888889" lon="134.8388338888889">
<ele>49</ele>
</trkpt>
<trkpt lat="34.870066944444446" lon="134.83868388888888">
<ele>49</ele>
</trkpt>
<trkpt lat="34.86991694444445" lon="134.83829694444444">
<ele>49</ele>
</trkpt>
<trkpt lat="34.86989194444445" lon="134.83817194444444">
<ele>49</ele>
</trkpt>
<trkpt lat="34.869841944444445" lon="134.83772194444444">
<ele>49</ele>
</trkpt>
<trkpt lat="34.86983388888889" lon="134.83757194444445">
<ele>49</ele>
</trkpt>
<trkpt lat="34.86980111111111" lon="134.83719694444446">
<ele>50</ele>
</trkpt>
<trkpt lat="34.869751111111114" lon="134.836635">
<ele>50</ele>
</trkpt>
<trkpt lat="34.86972611111111" lon="134.83642194444445">
<ele>52</ele>
</trkpt>
<trkpt lat="34.86971694444444" lon="134.836335">
<ele>52</ele>
</trkpt>
<trkpt lat="34.86969194444445" lon="134.83606">
<ele>52</ele>
</trkpt>
<trkpt lat="34.86969194444445" lon="134.8359861111111">
<ele>52</ele>
</trkpt>
<trkpt lat="34.86969194444445" lon="134.8359861111111">
<ele>52</ele>
</trkpt>
<trkpt lat="34.86969194444445" lon="134.83579694444444">
<ele>52</ele>
</trkpt>
<trkpt lat="34.86954194444444" lon="134.83574694444445">
<ele>51</ele>
</trkpt>
<trkpt lat="34.86938388888889" lon="134.83564694444445">
<ele>50</ele>
</trkpt>
<trkpt lat="34.86906694444444" lon="134.835335">
<ele>50</ele>
</trkpt>
<trkpt lat="34.868941944444444" lon="134.83521">
<ele>50</ele>
</trkpt>
<trkpt lat="34.86885888888889" lon="134.83514805555555">
<ele>50</ele>
</trkpt>
<trkpt lat="34.86830888888889" lon="134.83459805555555">
<ele>50</ele>
</trkpt>
<trkpt lat="34.86797611111111" lon="134.83427305555554">
<ele>50</ele>
</trkpt>
<trkpt lat="34.86787611111111" lon="134.83416">
<ele>50</ele>
</trkpt>
<trkpt lat="34.86770888888889" lon="134.833935">
<ele>50</ele>
</trkpt>
<trkpt lat="34.867601111111114" lon="134.83374805555556">
<ele>50</ele>
</trkpt>
<trkpt lat="34.867308888888886" lon="134.8330861111111">
<ele>51</ele>
</trkpt>
<trkpt lat="34.86715111111111" lon="134.83274805555556">
<ele>52</ele>
</trkpt>
<trkpt lat="34.86699194444444" lon="134.83242305555555">
<ele>52</ele>
</trkpt>
<trkpt lat="34.86657611111111" lon="134.83169805555556">
<ele>54</ele>
</trkpt>
<trkpt lat="34.86654194444444" lon="134.83163611111112">
<ele>54</ele>
</trkpt>
<trkpt lat="34.86627611111111" lon="134.83119805555555">
<ele>54</ele>
</trkpt>
<trkpt lat="34.86615888888889" lon="134.83102305555556">
<ele>54</ele>
</trkpt>
<trkpt lat="34.86600888888889" lon="134.83086111111112">
<ele>55</ele>
</trkpt>
<trkpt lat="34.86589194444444" lon="134.83074805555555">
<ele>55</ele>
</trkpt>
<trkpt lat="34.865116944444445" lon="134.8301238888889">
<ele>57</ele>
</trkpt>
<trkpt lat="34.86485111111111" lon="134.82994888888888">
<ele>59</ele>
</trkpt>
<trkpt lat="34.864691944444445" lon="134.82984888888888">
<ele>60</ele>
</trkpt>
<trkpt lat="34.86460888888889" lon="134.8297738888889">
<ele>62</ele>
</trkpt>
<trkpt lat="34.86455888888889" lon="134.82971111111112">
<ele>62</ele>
</trkpt>
<trkpt lat="34.86435888888889" lon="134.8293361111111">
<ele>64</ele>
</trkpt>
<trkpt lat="34.864266944444445" lon="134.82916111111112">
<ele>66</ele>
</trkpt>
<trkpt lat="34.86415888888889" lon="134.8289988888889">
<ele>66</ele>
</trkpt>
<trkpt lat="34.86398388888889" lon="134.8287738888889">
<ele>68</ele>
</trkpt>
<trkpt lat="34.86380888888889" lon="134.82858611111112">
<ele>68</ele>
</trkpt>
<trkpt lat="34.863368055555554" lon="134.8280988888889">
<ele>68</ele>
</trkpt>
<trkpt lat="34.863216944444446" lon="134.8279488888889">
<ele>68</ele>
</trkpt>
<trkpt lat="34.86315111111111" lon="134.82791111111112">
<ele>68</ele>
</trkpt>
<trkpt lat="34.863146944444445" lon="134.82790888888889">
<ele>68</ele>
</trkpt>
<trkpt lat="34.863146944444445" lon="134.82790888888889">
<ele>68</ele>
</trkpt>
<trkpt lat="34.86302611111111" lon="134.8278238888889">
<ele>68</ele>
</trkpt>
<trkpt lat="34.86295111111111" lon="134.82781194444445">
<ele>68</ele>
</trkpt>
<trkpt lat="34.86284194444445" lon="134.82779888888888">
<ele>68</ele>
</trkpt>
<trkpt lat="34.862543055555555" lon="134.8278738888889">
<ele>69</ele>
</trkpt>
<trkpt lat="34.86237611111111" lon="134.82791194444445">
<ele>70</ele>
</trkpt>
<trkpt lat="34.86221694444444" lon="134.82793694444445">
<ele>74</ele>
</trkpt>
<trkpt lat="34.86205888888889" lon="134.8279488888889">
<ele>74</ele>
</trkpt>
<trkpt lat="34.86165111111111" lon="134.82791194444445">
<ele>76</ele>
</trkpt>
<trkpt lat="34.86145888888889" lon="134.82793694444445">
<ele>77</ele>
</trkpt>
<trkpt lat="34.861243055555555" lon="134.8280988888889">
<ele>77</ele>
</trkpt>
<trkpt lat="34.86070111111111" lon="134.8284988888889">
<ele>78</ele>
</trkpt>
<trkpt lat="34.86047611111111" lon="134.82868611111113">
<ele>81</ele>
</trkpt>
<trkpt lat="34.860393055555555" lon="134.82871111111112">
<ele>83</ele>
</trkpt>
<trkpt lat="34.86027611111111" lon="134.8286738888889">
<ele>84</ele>
</trkpt>
<trkpt lat="34.86022611111111" lon="134.8286238888889">
<ele>83</ele>
</trkpt>
<trkpt lat="34.86017611111111" lon="134.8285488888889">
<ele>82</ele>
</trkpt>
<trkpt lat="34.86015888888889" lon="134.82837388888888">
<ele>82</ele>
</trkpt>
<trkpt lat="34.86017611111111" lon="134.8282988888889">
<ele>83</ele>
</trkpt>
<trkpt lat="34.86024305555556" lon="134.82814888888888">
<ele>82</ele>
</trkpt>
<trkpt lat="34.860393055555555" lon="134.8278738888889">
<ele>84</ele>
</trkpt>
<trkpt lat="34.860418055555556" lon="134.82781111111112">
<ele>84</ele>
</trkpt>
<trkpt lat="34.86040888888889" lon="134.82769888888888">
<ele>84</ele>
</trkpt>
<trkpt lat="34.86037611111111" lon="134.82761194444444">
<ele>83</ele>
</trkpt>
<trkpt lat="34.86024305555556" lon="134.82744888888888">
<ele>84</ele>
</trkpt>
<trkpt lat="34.86018388888889" lon="134.8274238888889">
<ele>84</ele>
</trkpt>
<trkpt lat="34.86008388888889" lon="134.8273988888889">
<ele>84</ele>
</trkpt>
<trkpt lat="34.85993388888889" lon="134.8273988888889">
<ele>85</ele>
</trkpt>
<trkpt lat="34.85977611111111" lon="134.8274238888889">
<ele>91</ele>
</trkpt>
<trkpt lat="34.85967611111111" lon="134.82746111111112">
<ele>91</ele>
</trkpt>
<trkpt lat="34.85944305555556" lon="134.82756111111112">
<ele>96</ele>
</trkpt>
<trkpt lat="34.85935888888889" lon="134.82758611111112">
<ele>96</ele>
</trkpt>
<trkpt lat="34.85879305555556" lon="134.8276488888889">
<ele>102</ele>
</trkpt>
<trkpt lat="34.85852611111111" lon="134.8276611111111">
<ele>101</ele>
</trkpt>
<trkpt lat="34.85836805555556" lon="134.8276238888889">
<ele>101</ele>
</trkpt>
<trkpt lat="34.858201111111114" lon="134.82758611111112">
<ele>103</ele>
</trkpt>
<trkpt lat="34.85810111111111" lon="134.8275238888889">
<ele>103</ele>
</trkpt>
<trkpt lat="34.858068055555556" lon="134.8274238888889">
<ele>102</ele>
</trkpt>
<trkpt lat="34.85807611111111" lon="134.8273111111111">
<ele>104</ele>
</trkpt>
<trkpt lat="34.85812611111111" lon="134.82722388888888">
<ele>107</ele>
</trkpt>
<trkpt lat="34.85831" lon="134.82712388888888">
<ele>112</ele>
</trkpt>
<trkpt lat="34.858401111111114" lon="134.8270611111111">
<ele>112</ele>
</trkpt>
<trkpt lat="34.858468055555555" lon="134.82701111111112">
<ele>110</ele>
</trkpt>
<trkpt lat="34.85856" lon="134.8267988888889">
<ele>110</ele>
</trkpt>
<trkpt lat="34.85857611111111" lon="134.82666194444445">
<ele>111</ele>
</trkpt>
<trkpt lat="34.85852611111111" lon="134.82648694444444">
<ele>113</ele>
</trkpt>
<trkpt lat="34.85847611111111" lon="134.82636194444444">
<ele>112</ele>
</trkpt>
<trkpt lat="34.85841" lon="134.82626194444444">
<ele>112</ele>
</trkpt>
<trkpt lat="34.85834305555556" lon="134.82619888888888">
<ele>110</ele>
</trkpt>
<trkpt lat="34.85805111111111" lon="134.82603694444444">
<ele>113</ele>
</trkpt>
<trkpt lat="34.85801" lon="134.82596194444446">
<ele>111</ele>
</trkpt>
<trkpt lat="34.858018055555554" lon="134.82587388888888">
<ele>111</ele>
</trkpt>
<trkpt lat="34.858085" lon="134.82571194444444">
<ele>111</ele>
</trkpt>
<trkpt lat="34.85810111111111" lon="134.82563694444445">
<ele>111</ele>
</trkpt>
<trkpt lat="34.85811" lon="134.82554888888887">
<ele>112</ele>
</trkpt>
<trkpt lat="34.858085" lon="134.82536194444444">
<ele>112</ele>
</trkpt>
<trkpt lat="34.85813388888889" lon="134.82501194444444">
<ele>109</ele>
</trkpt>
<trkpt lat="34.85814305555556" lon="134.82491194444444">
<ele>109</ele>
</trkpt>
<trkpt lat="34.858108888888886" lon="134.82481194444443">
<ele>112</ele>
</trkpt>
<trkpt lat="34.85803388888889" lon="134.82462388888888">
<ele>113</ele>
</trkpt>
<trkpt lat="34.85800888888889" lon="134.82452388888888">
<ele>113</ele>
</trkpt>
<trkpt lat="34.85802611111111" lon="134.82439888888888">
<ele>114</ele>
</trkpt>
<trkpt lat="34.858068055555556" lon="134.82417388888888">
<ele>115</ele>
</trkpt>
<trkpt lat="34.85808388888889" lon="134.82392388888888">
<ele>116</ele>
</trkpt>
<trkpt lat="34.85809305555556" lon="134.82366194444444">
<ele>120</ele>
</trkpt>
<trkpt lat="34.85809305555556" lon="134.823475">
<ele>123</ele>
</trkpt>
<trkpt lat="34.858068055555556" lon="134.8232">
<ele>123</ele>
</trkpt>
<trkpt lat="34.85800888888889" lon="134.8227">
<ele>117</ele>
</trkpt>
<trkpt lat="34.85796805555555" lon="134.822475">
<ele>114</ele>
</trkpt>
<trkpt lat="34.857883888888885" lon="134.82218694444444">
<ele>108</ele>
</trkpt>
<trkpt lat="34.857818055555555" lon="134.822075">
<ele>108</ele>
</trkpt>
<trkpt lat="34.85774305555555" lon="134.82201194444445">
<ele>105</ele>
</trkpt>
<trkpt lat="34.85755888888889" lon="134.82193694444445">
<ele>105</ele>
</trkpt>
<trkpt lat="34.85734305555555" lon="134.82195">
<ele>108</ele>
</trkpt>
<trkpt lat="34.85705111111111" lon="134.82201194444445">
<ele>107</ele>
</trkpt>
<trkpt lat="34.85691805555555" lon="134.821925">
<ele>103</ele>
</trkpt>
<trkpt lat="34.856901111111114" lon="134.82185">
<ele>101</ele>
</trkpt>
<trkpt lat="34.856901111111114" lon="134.821775">
<ele>99</ele>
</trkpt>
<trkpt lat="34.856935" lon="134.82166194444446">
<ele>99</ele>
</trkpt>
<trkpt lat="34.857218055555556" lon="134.821375">
<ele>98</ele>
</trkpt>
<trkpt lat="34.85731805555555" lon="134.821275">
<ele>97</ele>
</trkpt>
<trkpt lat="34.857368055555554" lon="134.82121194444446">
<ele>96</ele>
</trkpt>
<trkpt lat="34.85740111111111" lon="134.821125">
<ele>96</ele>
</trkpt>
<trkpt lat="34.857458888888885" lon="134.820975">
<ele>95</ele>
</trkpt>
<trkpt lat="34.85755888888889" lon="134.82053805555555">
<ele>95</ele>
</trkpt>
<trkpt lat="34.85762611111111" lon="134.820275">
<ele>95</ele>
</trkpt>
<trkpt lat="34.85770888888889" lon="134.8199">
<ele>92</ele>
</trkpt>
<trkpt lat="34.85780111111111" lon="134.81948694444444">
<ele>89</ele>
</trkpt>
<trkpt lat="34.85782611111111" lon="134.81936194444444">
<ele>89</ele>
</trkpt>
<trkpt lat="34.857843055555556" lon="134.81918694444445">
<ele>89</ele>
</trkpt>
<trkpt lat="34.857818055555555" lon="134.8187">
<ele>88</ele>
</trkpt>
<trkpt lat="34.85782611111111" lon="134.81826305555555">
<ele>87</ele>
</trkpt>
<trkpt lat="34.85785888888889" lon="134.818">
<ele>87</ele>
</trkpt>
<trkpt lat="34.857976111111114" lon="134.8176">
<ele>86</ele>
</trkpt>
<trkpt lat="34.858018055555554" lon="134.8174">
<ele>86</ele>
</trkpt>
<trkpt lat="34.85803388888889" lon="134.81726305555554">
<ele>86</ele>
</trkpt>
<trkpt lat="34.85803388888889" lon="134.8171888888889">
<ele>86</ele>
</trkpt>
<trkpt lat="34.85803388888889" lon="134.8171888888889">
<ele>86</ele>
</trkpt>
<trkpt lat="34.85803388888889" lon="134.817125">
<ele>86</ele>
</trkpt>
<trkpt lat="34.85800111111111" lon="134.816975">
<ele>85</ele>
</trkpt>
<trkpt lat="34.85785888888889" lon="134.816375">
<ele>85</ele>
</trkpt>
<trkpt lat="34.85780888888889" lon="134.81593805555556">
<ele>87</ele>
</trkpt>
<trkpt lat="34.857818055555555" lon="134.8157">
<ele>87</ele>
</trkpt>
<trkpt lat="34.85785111111111" lon="134.815275">
<ele>83</ele>
</trkpt>
<trkpt lat="34.85791805555556" lon="134.814625">
<ele>82</ele>
</trkpt>
<trkpt lat="34.858043055555555" lon="134.81338805555555">
<ele>78</ele>
</trkpt>
<trkpt lat="34.85802611111111" lon="134.81298805555556">
<ele>76</ele>
</trkpt>
<trkpt lat="34.85799305555555" lon="134.81282611111112">
<ele>77</ele>
</trkpt>
<trkpt lat="34.85791888888889" lon="134.8126161111111">
<ele>78</ele>
</trkpt>
<trkpt lat="34.85791888888889" lon="134.8126161111111">
<ele>78</ele>
</trkpt>
<trkpt lat="34.857908888888886" lon="134.81258805555555">
<ele>78</ele>
</trkpt>
<trkpt lat="34.85782611111111" lon="134.81243805555556">
<ele>79</ele>
</trkpt>
<trkpt lat="34.85772611111111" lon="134.81228805555557">
<ele>79</ele>
</trkpt>
<trkpt lat="34.85760111111111" lon="134.81216305555554">
<ele>79</ele>
</trkpt>
<trkpt lat="34.857458888888885" lon="134.81206305555557">
<ele>79</ele>
</trkpt>
<trkpt lat="34.855835" lon="134.811025">
<ele>70</ele>
</trkpt>
<trkpt lat="34.85531" lon="134.81053805555555">
<ele>69</ele>
</trkpt>
<trkpt lat="34.854168888888886" lon="134.80944305555556">
<ele>64</ele>
</trkpt>
<trkpt lat="34.854168888888886" lon="134.80944305555556">
<ele>64</ele>
</trkpt>
<trkpt lat="34.85406" lon="134.80933805555554">
<ele>64</ele>
</trkpt>
<trkpt lat="34.85440194444445" lon="134.8086761111111">
<ele>70</ele>
</trkpt>
<trkpt lat="34.85456805555555" lon="134.80842611111112">
<ele>70</ele>
</trkpt>
<trkpt lat="34.85486" lon="134.8080261111111">
<ele>70</ele>
</trkpt>
<trkpt lat="34.85507694444444" lon="134.80773805555555">
<ele>70</ele>
</trkpt>
<trkpt lat="34.85646" lon="134.80563805555556">
<ele>84</ele>
</trkpt>
<trkpt lat="34.85684305555556" lon="134.80515111111112">
<ele>86</ele>
</trkpt>
<trkpt lat="34.857393055555555" lon="134.8045261111111">
<ele>87</ele>
</trkpt>
<trkpt lat="34.85760888888889" lon="134.8042888888889">
<ele>86</ele>
</trkpt>
<trkpt lat="34.85786805555556" lon="134.80401388888887">
<ele>80</ele>
</trkpt>
<trkpt lat="34.85823388888889" lon="134.80365111111112">
<ele>79</ele>
</trkpt>
<trkpt lat="34.85867611111111" lon="134.80322611111112">
<ele>78</ele>
</trkpt>
<trkpt lat="34.859143055555556" lon="134.8027888888889">
<ele>74</ele>
</trkpt>
<trkpt lat="34.85948388888889" lon="134.8024888888889">
<ele>73</ele>
</trkpt>
<trkpt lat="34.86010111111111" lon="134.80196388888888">
<ele>69</ele>
</trkpt>
<trkpt lat="34.86030111111111" lon="134.8017761111111">
<ele>69</ele>
</trkpt>
<trkpt lat="34.86049194444445" lon="134.8015761111111">
<ele>71</ele>
</trkpt>
<trkpt lat="34.86074194444444" lon="134.80127611111112">
<ele>71</ele>
</trkpt>
<trkpt lat="34.86118388888889" lon="134.80068888888889">
<ele>69</ele>
</trkpt>
<trkpt lat="34.861516944444446" lon="134.80023888888888">
<ele>68</ele>
</trkpt>
<trkpt lat="34.86188388888889" lon="134.79977694444443">
<ele>64</ele>
</trkpt>
<trkpt lat="34.862383888888886" lon="134.79935194444445">
<ele>63</ele>
</trkpt>
<trkpt lat="34.862825" lon="134.79902694444445">
<ele>63</ele>
</trkpt>
<trkpt lat="34.86315805555556" lon="134.79880194444445">
<ele>62</ele>
</trkpt>
<trkpt lat="34.863375" lon="134.79868888888888">
<ele>62</ele>
</trkpt>
<trkpt lat="34.863658055555554" lon="134.7985888888889">
<ele>64</ele>
</trkpt>
<trkpt lat="34.8641" lon="134.7984138888889">
<ele>63</ele>
</trkpt>
<trkpt lat="34.86445" lon="134.79823888888887">
<ele>59</ele>
</trkpt>
<trkpt lat="34.864916944444445" lon="134.7979638888889">
<ele>59</ele>
</trkpt>
<trkpt lat="34.86529111111111" lon="134.7977388888889">
<ele>59</ele>
</trkpt>
<trkpt lat="34.86571611111111" lon="134.79747694444444">
<ele>57</ele>
</trkpt>
<trkpt lat="34.865991111111114" lon="134.79732694444445">
<ele>55</ele>
</trkpt>
<trkpt lat="34.86625" lon="134.79721388888888">
<ele>53</ele>
</trkpt>
<trkpt lat="34.86635" lon="134.79717694444443">
<ele>53</ele>
</trkpt>
<trkpt lat="34.866475" lon="134.7971388888889">
<ele>53</ele>
</trkpt>
<trkpt lat="34.866641111111115" lon="134.79709">
<ele>53</ele>
</trkpt>
<trkpt lat="34.866641111111115" lon="134.79709111111111">
<ele>53</ele>
</trkpt>
<trkpt lat="34.866858055555554" lon="134.79702694444444">
<ele>54</ele>
</trkpt>
<trkpt lat="34.867083055555554" lon="134.79697694444445">
<ele>56</ele>
</trkpt>
<trkpt lat="34.86722388888889" lon="134.7968888888889">
<ele>58</ele>
</trkpt>
<trkpt lat="34.86736611111111" lon="134.79673888888888">
<ele>58</ele>
</trkpt>
<trkpt lat="34.86747388888889" lon="134.79651388888888">
<ele>58</ele>
</trkpt>
<trkpt lat="34.867583055555556" lon="134.7961388888889">
<ele>58</ele>
</trkpt>
<trkpt lat="34.86767388888889" lon="134.79583888888888">
<ele>59</ele>
</trkpt>
<trkpt lat="34.86776611111111" lon="134.7955888888889">
<ele>57</ele>
</trkpt>
<trkpt lat="34.86789888888889" lon="134.79532694444444">
<ele>56</ele>
</trkpt>
<trkpt lat="34.86803305555556" lon="134.79513888888889">
<ele>56</ele>
</trkpt>
<trkpt lat="34.86819111111111" lon="134.7949638888889">
<ele>54</ele>
</trkpt>
<trkpt lat="34.86834888888889" lon="134.79483888888888">
<ele>56</ele>
</trkpt>
<trkpt lat="34.868633055555556" lon="134.79467694444443">
<ele>57</ele>
</trkpt>
<trkpt lat="34.86897388888889" lon="134.79457694444446">
<ele>57</ele>
</trkpt>
<trkpt lat="34.86909888888889" lon="134.79456305555556">
<ele>56</ele>
</trkpt>
<trkpt lat="34.86909888888889" lon="134.79456305555556">
<ele>56</ele>
</trkpt>
<trkpt lat="34.869191111111114" lon="134.79455194444444">
<ele>55</ele>
</trkpt>
<trkpt lat="34.869416111111114" lon="134.79457694444446">
<ele>57</ele>
</trkpt>
<trkpt lat="34.86960805555555" lon="134.79461388888888">
<ele>56</ele>
</trkpt>
<trkpt lat="34.86980805555555" lon="134.79470194444445">
<ele>57</ele>
</trkpt>
<trkpt lat="34.870041111111114" lon="134.79483888888888">
<ele>58</ele>
</trkpt>
<trkpt lat="34.87029888888889" lon="134.7949888888889">
<ele>57</ele>
</trkpt>
<trkpt lat="34.870491111111114" lon="134.79510194444444">
<ele>57</ele>
</trkpt>
<trkpt lat="34.87088305555555" lon="134.7953388888889">
<ele>59</ele>
</trkpt>
<trkpt lat="34.87110694444444" lon="134.7955388888889">
<ele>58</ele>
</trkpt>
<trkpt lat="34.87139111111111" lon="134.79580194444443">
<ele>59</ele>
</trkpt>
<trkpt lat="34.87158194444444" lon="134.79593888888888">
<ele>59</ele>
</trkpt>
<trkpt lat="34.87200694444444" lon="134.79615194444443">
<ele>58</ele>
</trkpt>
<trkpt lat="34.87284888888889" lon="134.79655194444445">
<ele>58</ele>
</trkpt>
<trkpt lat="34.87308194444444" lon="134.79662694444445">
<ele>59</ele>
</trkpt>
<trkpt lat="34.87352388888889" lon="134.7967888888889">
<ele>59</ele>
</trkpt>
<trkpt lat="34.87385694444445" lon="134.79695194444446">
<ele>59</ele>
</trkpt>
<trkpt lat="34.87439" lon="134.79720194444445">
<ele>58</ele>
</trkpt>
<trkpt lat="34.87459" lon="134.7972888888889">
<ele>58</ele>
</trkpt>
<trkpt lat="34.874856944444446" lon="134.79740194444443">
<ele>58</ele>
</trkpt>
<trkpt lat="34.87504" lon="134.7974638888889">
<ele>59</ele>
</trkpt>
<trkpt lat="34.87518194444444" lon="134.79750194444443">
<ele>59</ele>
</trkpt>
<trkpt lat="34.87554" lon="134.79757694444444">
<ele>59</ele>
</trkpt>
<trkpt lat="34.87609805555556" lon="134.7976888888889">
<ele>59</ele>
</trkpt>
<trkpt lat="34.876306944444444" lon="134.7977511111111">
<ele>59</ele>
</trkpt>
<trkpt lat="34.87652305555556" lon="134.7978511111111">
<ele>59</ele>
</trkpt>
<trkpt lat="34.87697305555555" lon="134.7980638888889">
<ele>59</ele>
</trkpt>
<trkpt lat="34.87705694444445" lon="134.79810111111112">
<ele>60</ele>
</trkpt>
<trkpt lat="34.87725694444445" lon="134.7981388888889">
<ele>60</ele>
</trkpt>
<trkpt lat="34.877723055555556" lon="134.79821388888888">
<ele>61</ele>
</trkpt>
<trkpt lat="34.878065" lon="134.7982761111111">
<ele>61</ele>
</trkpt>
<trkpt lat="34.87827305555555" lon="134.7983888888889">
<ele>62</ele>
</trkpt>
<trkpt lat="34.87839" lon="134.7984761111111">
<ele>62</ele>
</trkpt>
<trkpt lat="34.878481944444445" lon="134.7985888888889">
<ele>62</ele>
</trkpt>
<trkpt lat="34.87878111111111" lon="134.7990761111111">
<ele>62</ele>
</trkpt>
<trkpt lat="34.87894" lon="134.7992888888889">
<ele>63</ele>
</trkpt>
<trkpt lat="34.87912305555555" lon="134.79946388888888">
<ele>63</ele>
</trkpt>
<trkpt lat="34.87930611111111" lon="134.79960111111112">
<ele>63</ele>
</trkpt>
<trkpt lat="34.87950611111111" lon="134.79970111111112">
<ele>63</ele>
</trkpt>
<trkpt lat="34.87967305555556" lon="134.7997138888889">
<ele>63</ele>
</trkpt>
<trkpt lat="34.879781111111114" lon="134.7997138888889">
<ele>64</ele>
</trkpt>
<trkpt lat="34.880048055555555" lon="134.7996511111111">
<ele>64</ele>
</trkpt>
<trkpt lat="34.88015611111111" lon="134.7996261111111">
<ele>64</ele>
</trkpt>
<trkpt lat="34.88039805555555" lon="134.79957611111112">
<ele>64</ele>
</trkpt>
<trkpt lat="34.88095611111111" lon="134.79958888888888">
<ele>64</ele>
</trkpt>
<trkpt lat="34.88099805555556" lon="134.79958888888888">
<ele>64</ele>
</trkpt>
<trkpt lat="34.88131388888889" lon="134.7996138888889">
<ele>64</ele>
</trkpt>
<trkpt lat="34.881523055555554" lon="134.7997138888889">
<ele>65</ele>
</trkpt>
<trkpt lat="34.88167305555555" lon="134.79981388888888">
<ele>66</ele>
</trkpt>
<trkpt lat="34.881906111111114" lon="134.7999638888889">
<ele>67</ele>
</trkpt>
<trkpt lat="34.882756111111114" lon="134.80060111111112">
<ele>67</ele>
</trkpt>
<trkpt lat="34.88292305555556" lon="134.80071388888888">
<ele>68</ele>
</trkpt>
<trkpt lat="34.883631111111114" lon="134.80113805555555">
<ele>68</ele>
</trkpt>
<trkpt lat="34.88417194444445" lon="134.8014761111111">
<ele>68</ele>
</trkpt>
<trkpt lat="34.88435611111111" lon="134.80161305555555">
<ele>69</ele>
</trkpt>
<trkpt lat="34.88522305555556" lon="134.80230111111112">
<ele>69</ele>
</trkpt>
<trkpt lat="34.88529805555556" lon="134.8023761111111">
<ele>69</ele>
</trkpt>
<trkpt lat="34.88543111111111" lon="134.80256305555557">
<ele>69</ele>
</trkpt>
<trkpt lat="34.88549694444445" lon="134.80266305555554">
<ele>69</ele>
</trkpt>
<trkpt lat="34.88567194444445" lon="134.80301305555557">
<ele>69</ele>
</trkpt>
<trkpt lat="34.88675611111111" lon="134.8052011111111">
<ele>75</ele>
</trkpt>
<trkpt lat="34.886963888888886" lon="134.8056261111111">
<ele>76</ele>
</trkpt>
<trkpt lat="34.88743111111111" lon="134.806575">
<ele>78</ele>
</trkpt>
<trkpt lat="34.88756388888889" lon="134.80681305555555">
<ele>79</ele>
</trkpt>
<trkpt lat="34.88778888888889" lon="134.80708805555557">
<ele>79</ele>
</trkpt>
<trkpt lat="34.88792194444444" lon="134.807175">
<ele>80</ele>
</trkpt>
<trkpt lat="34.88808111111111" lon="134.80725">
<ele>83</ele>
</trkpt>
<trkpt lat="34.88928111111111" lon="134.80761305555555">
<ele>90</ele>
</trkpt>
<trkpt lat="34.889471944444445" lon="134.80765">
<ele>95</ele>
</trkpt>
<trkpt lat="34.88958888888889" lon="134.80765">
<ele>95</ele>
</trkpt>
<trkpt lat="34.88970611111111" lon="134.807625">
<ele>94</ele>
</trkpt>
<trkpt lat="34.88982194444444" lon="134.80756305555556">
<ele>94</ele>
</trkpt>
<trkpt lat="34.88998111111111" lon="134.80745">
<ele>96</ele>
</trkpt>
<trkpt lat="34.89021388888889" lon="134.80725">
<ele>96</ele>
</trkpt>
<trkpt lat="34.89078" lon="134.806825">
<ele>95</ele>
</trkpt>
<trkpt lat="34.89088888888889" lon="134.806775">
<ele>97</ele>
</trkpt>
<trkpt lat="34.89103" lon="134.806725">
<ele>93</ele>
</trkpt>
<trkpt lat="34.89118888888889" lon="134.806725">
<ele>90</ele>
</trkpt>
<trkpt lat="34.89177194444444" lon="134.80686305555557">
<ele>86</ele>
</trkpt>
<trkpt lat="34.89192194444445" lon="134.806875">
<ele>84</ele>
</trkpt>
<trkpt lat="34.89208" lon="134.80686305555557">
<ele>83</ele>
</trkpt>
<trkpt lat="34.89243" lon="134.80678805555556">
<ele>79</ele>
</trkpt>
<trkpt lat="34.89306388888889" lon="134.80661305555554">
<ele>75</ele>
</trkpt>
<trkpt lat="34.893255" lon="134.80658805555555">
<ele>73</ele>
</trkpt>
<trkpt lat="34.893505" lon="134.80661305555554">
<ele>71</ele>
</trkpt>
<trkpt lat="34.89373" lon="134.806675">
<ele>73</ele>
</trkpt>
<trkpt lat="34.89388805555556" lon="134.806725">
<ele>69</ele>
</trkpt>
<trkpt lat="34.89412194444444" lon="134.80681305555555">
<ele>66</ele>
</trkpt>
<trkpt lat="34.894196944444445" lon="134.806825">
<ele>66</ele>
</trkpt>
<trkpt lat="34.89428" lon="134.80683805555554">
<ele>66</ele>
</trkpt>
<trkpt lat="34.894505" lon="134.80683805555554">
<ele>65</ele>
</trkpt>
<trkpt lat="34.894621111111114" lon="134.80682388888889">
<ele>65</ele>
</trkpt>
<trkpt lat="34.894621111111114" lon="134.80682388888889">
<ele>65</ele>
</trkpt>
<trkpt lat="34.89506305555555" lon="134.806775">
<ele>62</ele>
</trkpt>
<trkpt lat="34.89519694444444" lon="134.80675">
<ele>61</ele>
</trkpt>
<trkpt lat="34.89532111111111" lon="134.80675">
<ele>59</ele>
</trkpt>
<trkpt lat="34.89532111111111" lon="134.80675">
<ele>59</ele>
</trkpt>
<trkpt lat="34.89519694444444" lon="134.80675">
<ele>61</ele>
</trkpt>
<trkpt lat="34.89514694444444" lon="134.806975">
<ele>60</ele>
</trkpt>
<trkpt lat="34.89503" lon="134.80735">
<ele>60</ele>
</trkpt>
<trkpt lat="34.895005" lon="134.80751305555555">
<ele>60</ele>
</trkpt>
<trkpt lat="34.89503" lon="134.80763694444445">
<ele>60</ele>
</trkpt>
<trkpt lat="34.89506305555555" lon="134.807775">
<ele>60</ele>
</trkpt>
<trkpt lat="34.89508" lon="134.807975">
<ele>61</ele>
</trkpt>
<trkpt lat="34.89508" lon="134.80818805555555">
<ele>61</ele>
</trkpt>
<trkpt lat="34.89499694444444" lon="134.80871194444444">
<ele>62</ele>
</trkpt>
<trkpt lat="34.894821944444445" lon="134.8093">
<ele>61</ele>
</trkpt>
<trkpt lat="34.89463805555555" lon="134.8099">
<ele>59</ele>
</trkpt>
<trkpt lat="34.89461305555555" lon="134.81001194444445">
<ele>59</ele>
</trkpt>
<trkpt lat="34.894605" lon="134.81031305555555">
<ele>59</ele>
</trkpt>
<trkpt lat="34.894605" lon="134.81061194444445">
<ele>58</ele>
</trkpt>
<trkpt lat="34.89458888888889" lon="134.810775">
<ele>58</ele>
</trkpt>
<trkpt lat="34.89454694444444" lon="134.81095">
<ele>58</ele>
</trkpt>
<trkpt lat="34.89429694444444" lon="134.811775">
<ele>59</ele>
</trkpt>
<trkpt lat="34.894105" lon="134.812425">
<ele>60</ele>
</trkpt>
<trkpt lat="34.89401388888889" lon="134.812725">
<ele>59</ele>
</trkpt>
<trkpt lat="34.89368" lon="134.8139">
<ele>59</ele>
</trkpt>
<trkpt lat="34.89348888888889" lon="134.81458694444444">
<ele>59</ele>
</trkpt>
<trkpt lat="34.89341388888889" lon="134.81487388888888">
<ele>59</ele>
</trkpt>
<trkpt lat="34.89333111111111" lon="134.81511194444445">
<ele>59</ele>
</trkpt>
<trkpt lat="34.89308888888889" lon="134.8157238888889">
<ele>59</ele>
</trkpt>
<trkpt lat="34.89298888888889" lon="134.8160738888889">
<ele>59</ele>
</trkpt>
<trkpt lat="34.89282194444444" lon="134.8167488888889">
<ele>59</ele>
</trkpt>
<trkpt lat="34.89277" lon="134.81688888888888">
<ele>59</ele>
</trkpt>
<trkpt lat="34.89277" lon="134.81688888888888">
<ele>59</ele>
</trkpt>
<trkpt lat="34.89270611111111" lon="134.81706194444445">
<ele>59</ele>
</trkpt>
<trkpt lat="34.89258888888889" lon="134.8172988888889">
<ele>59</ele>
</trkpt>
<trkpt lat="34.89232194444445" lon="134.8177488888889">
<ele>61</ele>
</trkpt>
<trkpt lat="34.892088888888885" lon="134.81816194444446">
<ele>61</ele>
</trkpt>
<trkpt lat="34.892046944444445" lon="134.81823694444444">
<ele>60</ele>
</trkpt>
<trkpt lat="34.89188111111111" lon="134.81863694444445">
<ele>61</ele>
</trkpt>
<trkpt lat="34.891756111111114" lon="134.81894888888888">
<ele>61</ele>
</trkpt>
<trkpt lat="34.891688888888886" lon="134.81911194444444">
<ele>60</ele>
</trkpt>
<trkpt lat="34.89163888888889" lon="134.8192238888889">
<ele>60</ele>
</trkpt>
<trkpt lat="34.89148888888889" lon="134.81962388888888">
<ele>60</ele>
</trkpt>
<trkpt lat="34.89108888888889" lon="134.82063694444443">
<ele>62</ele>
</trkpt>
<trkpt lat="34.89095611111111" lon="134.82096194444443">
<ele>62</ele>
</trkpt>
<trkpt lat="34.89073111111111" lon="134.82144888888888">
<ele>63</ele>
</trkpt>
<trkpt lat="34.89023111111111" lon="134.82244888888889">
<ele>63</ele>
</trkpt>
<trkpt lat="34.89013111111111" lon="134.8226611111111">
<ele>63</ele>
</trkpt>
<trkpt lat="34.89000611111111" lon="134.82302388888888">
<ele>62</ele>
</trkpt>
<trkpt lat="34.88988888888889" lon="134.82338611111112">
<ele>62</ele>
</trkpt>
<trkpt lat="34.889698055555556" lon="134.8240361111111">
<ele>63</ele>
</trkpt>
<trkpt lat="34.889498055555556" lon="134.8246988888889">
<ele>64</ele>
</trkpt>
<trkpt lat="34.889406111111114" lon="134.82498611111112">
<ele>64</ele>
</trkpt>
<trkpt lat="34.88930611111111" lon="134.8253488888889">
<ele>64</ele>
</trkpt>
<trkpt lat="34.889248055555555" lon="134.8255611111111">
<ele>63</ele>
</trkpt>
<trkpt lat="34.88914805555556" lon="134.82587388888888">
<ele>63</ele>
</trkpt>
<trkpt lat="34.88906388888889" lon="134.82611111111112">
<ele>64</ele>
</trkpt>
<trkpt lat="34.88881388888889" lon="134.82669805555557">
<ele>64</ele>
</trkpt>
<trkpt lat="34.88870611111111" lon="134.82697305555556">
<ele>63</ele>
</trkpt>
<trkpt lat="34.888598055555555" lon="134.8271861111111">
<ele>62</ele>
</trkpt>
<trkpt lat="34.888531111111114" lon="134.8272611111111">
<ele>62</ele>
</trkpt>
<trkpt lat="34.88830611111111" lon="134.82744805555555">
<ele>62</ele>
</trkpt>
<trkpt lat="34.88819" lon="134.8275361111111">
<ele>64</ele>
</trkpt>
<trkpt lat="34.887815" lon="134.8277611111111">
<ele>63</ele>
</trkpt>
<trkpt lat="34.887115" lon="134.82816111111111">
<ele>59</ele>
</trkpt>
<trkpt lat="34.88688111111111" lon="134.82829805555556">
<ele>60</ele>
</trkpt>
<trkpt lat="34.88645694444445" lon="134.82854805555556">
<ele>59</ele>
</trkpt>
<trkpt lat="34.88632305555556" lon="134.8286611111111">
<ele>59</ele>
</trkpt>
<trkpt lat="34.88609805555556" lon="134.82889805555556">
<ele>59</ele>
</trkpt>
<trkpt lat="34.88589" lon="134.8291111111111">
<ele>59</ele>
</trkpt>
<trkpt lat="34.88545694444444" lon="134.8293111111111">
<ele>59</ele>
</trkpt>
<trkpt lat="34.885115" lon="134.82942305555557">
<ele>59</ele>
</trkpt>
<trkpt lat="34.884656944444444" lon="134.82957305555556">
<ele>59</ele>
</trkpt>
<trkpt lat="34.88449888888889" lon="134.82967305555556">
<ele>59</ele>
</trkpt>
<trkpt lat="34.88427388888889" lon="134.82987305555557">
<ele>59</ele>
</trkpt>
<trkpt lat="34.88415694444444" lon="134.83006111111112">
<ele>59</ele>
</trkpt>
<trkpt lat="34.884081944444446" lon="134.8302361111111">
<ele>59</ele>
</trkpt>
<trkpt lat="34.884031944444445" lon="134.8304361111111">
<ele>59</ele>
</trkpt>
<trkpt lat="34.88397388888889" lon="134.83069805555556">
<ele>59</ele>
</trkpt>
<trkpt lat="34.88394888888889" lon="134.83092305555556">
<ele>59</ele>
</trkpt>
<trkpt lat="34.88384" lon="134.83164805555555">
<ele>58</ele>
</trkpt>
<trkpt lat="34.88349888888889" lon="134.83384805555556">
<ele>56</ele>
</trkpt>
<trkpt lat="34.88342388888889" lon="134.834235">
<ele>57</ele>
</trkpt>
<trkpt lat="34.883316111111114" lon="134.83466">
<ele>57</ele>
</trkpt>
<trkpt lat="34.88321611111111" lon="134.83499694444444">
<ele>58</ele>
</trkpt>
<trkpt lat="34.88304888888889" lon="134.835485">
<ele>59</ele>
</trkpt>
<trkpt lat="34.883023888888886" lon="134.83562194444445">
<ele>59</ele>
</trkpt>
<trkpt lat="34.883023888888886" lon="134.83576">
<ele>59</ele>
</trkpt>
<trkpt lat="34.88303194444445" lon="134.83592194444444">
<ele>58</ele>
</trkpt>
<trkpt lat="34.883158055555555" lon="134.83651">
<ele>56</ele>
</trkpt>
<trkpt lat="34.88317388888889" lon="134.836735">
<ele>56</ele>
</trkpt>
<trkpt lat="34.883158055555555" lon="134.836885">
<ele>56</ele>
</trkpt>
<trkpt lat="34.88312388888889" lon="134.83702194444444">
<ele>55</ele>
</trkpt>
<trkpt lat="34.88309888888889" lon="134.83709694444445">
<ele>55</ele>
</trkpt>
<trkpt lat="34.88306611111111" lon="134.83716">
<ele>55</ele>
</trkpt>
<trkpt lat="34.88254888888889" lon="134.837885">
<ele>55</ele>
</trkpt>
<trkpt lat="34.88239111111111" lon="134.838135">
<ele>54</ele>
</trkpt>
<trkpt lat="34.88232388888889" lon="134.83827194444444">
<ele>54</ele>
</trkpt>
<trkpt lat="34.88219888888889" lon="134.83852194444444">
<ele>54</ele>
</trkpt>
<trkpt lat="34.88207388888889" lon="134.8388588888889">
<ele>54</ele>
</trkpt>
<trkpt lat="34.88201611111111" lon="134.83902194444445">
<ele>54</ele>
</trkpt>
<trkpt lat="34.88189388888889" lon="134.83943805555555">
<ele>54</ele>
</trkpt>
<trkpt lat="34.88189388888889" lon="134.83943805555555">
<ele>54</ele>
</trkpt>
<trkpt lat="34.881858055555554" lon="134.8395588888889">
<ele>54</ele>
</trkpt>
<trkpt lat="34.88179888888889" lon="134.83979694444446">
<ele>54</ele>
</trkpt>
<trkpt lat="34.88177388888889" lon="134.8400088888889">
<ele>54</ele>
</trkpt>
<trkpt lat="34.88167388888889" lon="134.84012194444443">
<ele>54</ele>
</trkpt>
<trkpt lat="34.881458055555555" lon="134.84034694444443">
<ele>54</ele>
</trkpt>
<trkpt lat="34.88097388888889" lon="134.84083388888888">
<ele>54</ele>
</trkpt>
<trkpt lat="34.880833055555556" lon="134.84097194444445">
<ele>54</ele>
</trkpt>
<trkpt lat="34.88075" lon="134.84104694444446">
<ele>54</ele>
</trkpt>
<trkpt lat="34.880475" lon="134.8412588888889">
<ele>54</ele>
</trkpt>
<trkpt lat="34.88039111111111" lon="134.84132194444445">
<ele>54</ele>
</trkpt>
<trkpt lat="34.87961611111111" lon="134.84185888888888">
<ele>53</ele>
</trkpt>
<trkpt lat="34.87945805555555" lon="134.84197194444445">
<ele>53</ele>
</trkpt>
<trkpt lat="34.879025" lon="134.8423461111111">
<ele>53</ele>
</trkpt>
<trkpt lat="34.878858055555554" lon="134.8424711111111">
<ele>53</ele>
</trkpt>
<trkpt lat="34.87875" lon="134.84252111111113">
<ele>53</ele>
</trkpt>
<trkpt lat="34.8786" lon="134.8425588888889">
<ele>53</ele>
</trkpt>
<trkpt lat="34.878458055555555" lon="134.8425711111111">
<ele>54</ele>
</trkpt>
<trkpt lat="34.878033055555555" lon="134.84254611111112">
<ele>53</ele>
</trkpt>
<trkpt lat="34.87789194444444" lon="134.84253388888888">
<ele>53</ele>
</trkpt>
<trkpt lat="34.877566944444446" lon="134.84252111111113">
<ele>52</ele>
</trkpt>
<trkpt lat="34.876925" lon="134.8424838888889">
<ele>52</ele>
</trkpt>
<trkpt lat="34.87678388888889" lon="134.8424711111111">
<ele>53</ele>
</trkpt>
<trkpt lat="34.87641694444444" lon="134.84244611111112">
<ele>53</ele>
</trkpt>
<trkpt lat="34.87595888888889" lon="134.8423961111111">
<ele>52</ele>
</trkpt>
<trkpt lat="34.87566694444445" lon="134.8423711111111">
<ele>51</ele>
</trkpt>
<trkpt lat="34.87549194444444" lon="134.8423838888889">
<ele>50</ele>
</trkpt>
<trkpt lat="34.87525888888889" lon="134.8423838888889">
<ele>50</ele>
</trkpt>
<trkpt lat="34.8751" lon="134.84240888888888">
<ele>52</ele>
</trkpt>
<trkpt lat="34.87501694444445" lon="134.84243388888888">
<ele>52</ele>
</trkpt>
<trkpt lat="34.87486694444444" lon="134.8424961111111">
<ele>52</ele>
</trkpt>
<trkpt lat="34.87473388888889" lon="134.8425711111111">
<ele>51</ele>
</trkpt>
<trkpt lat="34.87441694444444" lon="134.8427461111111">
<ele>52</ele>
</trkpt>
<trkpt lat="34.87395111111111" lon="134.8430211111111">
<ele>49</ele>
</trkpt>
<trkpt lat="34.87347611111111" lon="134.8432838888889">
<ele>48</ele>
</trkpt>
<trkpt lat="34.87329305555556" lon="134.8433961111111">
<ele>48</ele>
</trkpt>
<trkpt lat="34.87302611111111" lon="134.84354611111112">
<ele>46</ele>
</trkpt>
<trkpt lat="34.87313388888889" lon="134.84377111111112">
<ele>45</ele>
</trkpt>
<trkpt lat="34.87345111111111" lon="134.84460805555557">
<ele>43</ele>
</trkpt>
<trkpt lat="34.87347611111111" lon="134.8446761111111">
<ele>43</ele>
</trkpt>
<trkpt lat="34.87347611111111" lon="134.8446761111111">
<ele>43</ele>
</trkpt>
<trkpt lat="34.873918055555556" lon="134.84584611111111">
<ele>42</ele>
</trkpt>
<trkpt lat="34.87417611111111" lon="134.8465461111111">
<ele>41</ele>
</trkpt>
<trkpt lat="34.87432611111111" lon="134.84697111111112">
<ele>41</ele>
</trkpt>
<trkpt lat="34.874383888888886" lon="134.8472211111111">
<ele>41</ele>
</trkpt>
<trkpt lat="34.87444305555555" lon="134.84753305555554">
<ele>41</ele>
</trkpt>
<trkpt lat="34.874493055555554" lon="134.84787111111112">
<ele>41</ele>
</trkpt>
<trkpt lat="34.87450888888889" lon="134.84815805555556">
<ele>41</ele>
</trkpt>
<trkpt lat="34.87450888888889" lon="134.84815805555556">
<ele>41</ele>
</trkpt>
<trkpt lat="34.87450111111111" lon="134.84850805555556">
<ele>41</ele>
</trkpt>
<trkpt lat="34.87445888888889" lon="134.84880805555557">
<ele>41</ele>
</trkpt>
<trkpt lat="34.87435888888889" lon="134.849445">
<ele>41</ele>
</trkpt>
<trkpt lat="34.874251111111114" lon="134.850045">
<ele>40</ele>
</trkpt>
<trkpt lat="34.87421805555555" lon="134.85022">
<ele>40</ele>
</trkpt>
<trkpt lat="34.87410111111111" lon="134.85088305555556">
<ele>40</ele>
</trkpt>
<trkpt lat="34.87395111111111" lon="134.851745">
<ele>40</ele>
</trkpt>
<trkpt lat="34.873918055555556" lon="134.85200805555556">
<ele>40</ele>
</trkpt>
<trkpt lat="34.87390888888889" lon="134.852145">
<ele>40</ele>
</trkpt>
<trkpt lat="34.87390111111111" lon="134.85250805555555">
<ele>40</ele>
</trkpt>
<trkpt lat="34.87390888888889" lon="134.85325805555556">
<ele>39</ele>
</trkpt>
<trkpt lat="34.87392611111111" lon="134.853845">
<ele>37</ele>
</trkpt>
<trkpt lat="34.87392611111111" lon="134.854095">
<ele>37</ele>
</trkpt>
<trkpt lat="34.87392611111111" lon="134.85413194444445">
<ele>37</ele>
</trkpt>
<trkpt lat="34.87393388888889" lon="134.85422">
<ele>37</ele>
</trkpt>
<trkpt lat="34.87394305555556" lon="134.85473194444444">
<ele>36</ele>
</trkpt>
<trkpt lat="34.87394305555556" lon="134.854845">
<ele>36</ele>
</trkpt>
<trkpt lat="34.873958888888886" lon="134.85622">
<ele>37</ele>
</trkpt>
<trkpt lat="34.87443388888889" lon="134.85628194444445">
<ele>37</ele>
</trkpt>
<trkpt lat="34.874543055555556" lon="134.856295">
<ele>37</ele>
</trkpt>
<trkpt lat="34.875143055555554" lon="134.85625694444445">
<ele>38</ele>
</trkpt>
    </trkseg>
  </trk>
</gpx>