<?xml version="1.0" encoding="UTF-8"?>
<gpx version="1.1"
     creator="KMLtoGPX"
     xmlns="http://www.topografix.com/GPX/1/1">
  <metadata>
    <name>Senboku green course</name>
    <desc>泉北　緑のコース</desc>
    <bounds minlat="34.45887611111111" minlon="135.47154305555554" maxlat="34.50400111111111" maxlon="135.53120166666668"/>
  </metadata>
  <trk>
    <name>Senboku green course</name>
    <trkseg>
<trkpt lat="34.50400111111111" lon="135.4947238888889">
<ele>45</ele>
</trkpt>
<trkpt lat="34.503908055555556" lon="135.49470694444443">
<ele>45</ele>
</trkpt>
<trkpt lat="34.50354194444444" lon="135.49388305555556">
<ele>38</ele>
</trkpt>
<trkpt lat="34.503275" lon="135.49333194444444">
<ele>36</ele>
</trkpt>
<trkpt lat="34.50264194444444" lon="135.491995">
<ele>30</ele>
</trkpt>
<trkpt lat="34.502516944444444" lon="135.49175805555555">
<ele>30</ele>
</trkpt>
<trkpt lat="34.50225805555556" lon="135.49115805555556">
<ele>30</ele>
</trkpt>
<trkpt lat="34.5022" lon="135.491045">
<ele>30</ele>
</trkpt>
<trkpt lat="34.502158055555554" lon="135.49095805555555">
<ele>30</ele>
</trkpt>
<trkpt lat="34.50205805555556" lon="135.490745">
<ele>31</ele>
</trkpt>
<trkpt lat="34.502" lon="135.490645">
<ele>31</ele>
</trkpt>
<trkpt lat="34.50190888888889" lon="135.49045805555556">
<ele>32</ele>
</trkpt>
<trkpt lat="34.501725" lon="135.49008305555554">
<ele>33</ele>
</trkpt>
<trkpt lat="34.50128388888889" lon="135.4891211111111">
<ele>40</ele>
</trkpt>
<trkpt lat="34.50080888888889" lon="135.48813305555555">
<ele>40</ele>
</trkpt>
<trkpt lat="34.5001" lon="135.4866461111111">
<ele>41</ele>
</trkpt>
<trkpt lat="34.4994" lon="135.48519611111112">
<ele>44</ele>
</trkpt>
<trkpt lat="34.49881694444444" lon="135.48397111111112">
<ele>45</ele>
</trkpt>
<trkpt lat="34.498491944444446" lon="135.48328388888888">
<ele>45</ele>
</trkpt>
<trkpt lat="34.49828388888889" lon="135.4828588888889">
<ele>45</ele>
</trkpt>
<trkpt lat="34.497883888888886" lon="135.4819961111111">
<ele>45</ele>
</trkpt>
<trkpt lat="34.49780111111111" lon="135.48182111111112">
<ele>45</ele>
</trkpt>
<trkpt lat="34.49724194444445" lon="135.48044611111112">
<ele>43</ele>
</trkpt>
<trkpt lat="34.49704194444445" lon="135.4799088888889">
<ele>42</ele>
</trkpt>
<trkpt lat="34.496566944444446" lon="135.47864611111112">
<ele>38</ele>
</trkpt>
<trkpt lat="34.49646694444444" lon="135.47838388888889">
<ele>38</ele>
</trkpt>
<trkpt lat="34.495958888888886" lon="135.4770088888889">
<ele>34</ele>
</trkpt>
<trkpt lat="34.49570888888889" lon="135.4763088888889">
<ele>31</ele>
</trkpt>
<trkpt lat="34.494883888888886" lon="135.4741338888889">
<ele>30</ele>
</trkpt>
<trkpt lat="34.49487611111111" lon="135.47410888888888">
<ele>30</ele>
</trkpt>
<trkpt lat="34.494793055555554" lon="135.47388388888888">
<ele>32</ele>
</trkpt>
<trkpt lat="34.494768055555554" lon="135.47379694444444">
<ele>32</ele>
</trkpt>
<trkpt lat="34.49467611111111" lon="135.4734588888889">
<ele>34</ele>
</trkpt>
<trkpt lat="34.494658888888885" lon="135.473395">
<ele>34</ele>
</trkpt>
<trkpt lat="34.494658888888885" lon="135.473395">
<ele>34</ele>
</trkpt>
<trkpt lat="34.49467611111111" lon="135.4734588888889">
<ele>34</ele>
</trkpt>
<trkpt lat="34.49456694444444" lon="135.4734588888889">
<ele>34</ele>
</trkpt>
<trkpt lat="34.494258888888886" lon="135.47362194444443">
<ele>33</ele>
</trkpt>
<trkpt lat="34.49326805555555" lon="135.47414694444444">
<ele>34</ele>
</trkpt>
<trkpt lat="34.493276944444446" lon="135.4741838888889">
<ele>34</ele>
</trkpt>
<trkpt lat="34.493276944444446" lon="135.4741838888889">
<ele>34</ele>
</trkpt>
<trkpt lat="34.49326805555555" lon="135.47414694444444">
<ele>34</ele>
</trkpt>
<trkpt lat="34.49317611111111" lon="135.47392194444444">
<ele>36</ele>
</trkpt>
<trkpt lat="34.492958888888886" lon="135.47342194444445">
<ele>37</ele>
</trkpt>
<trkpt lat="34.492868055555554" lon="135.4732838888889">
<ele>38</ele>
</trkpt>
<trkpt lat="34.49276805555556" lon="135.47317194444443">
<ele>38</ele>
</trkpt>
<trkpt lat="34.492626111111115" lon="135.47307194444446">
<ele>38</ele>
</trkpt>
<trkpt lat="34.492468055555555" lon="135.47299694444445">
<ele>38</ele>
</trkpt>
<trkpt lat="34.49245305555556" lon="135.47299305555555">
<ele>38</ele>
</trkpt>
<trkpt lat="34.49245305555556" lon="135.47299305555555">
<ele>38</ele>
</trkpt>
<trkpt lat="34.492468055555555" lon="135.47299694444445">
<ele>38</ele>
</trkpt>
<trkpt lat="34.49243805555555" lon="135.47308694444445">
<ele>39</ele>
</trkpt>
<trkpt lat="34.49243805555555" lon="135.47308694444445">
<ele>39</ele>
</trkpt>
<trkpt lat="34.49196305555556" lon="135.47299805555556">
<ele>39</ele>
</trkpt>
<trkpt lat="34.49196305555556" lon="135.47299805555556">
<ele>39</ele>
</trkpt>
<trkpt lat="34.49138416666667" lon="135.47290972222223">
<ele>40</ele>
</trkpt>
<trkpt lat="34.49138416666667" lon="135.47290972222223">
<ele>40</ele>
</trkpt>
<trkpt lat="34.49064638888889" lon="135.472915">
<ele>45</ele>
</trkpt>
<trkpt lat="34.49064638888889" lon="135.472915">
<ele>45</ele>
</trkpt>
<trkpt lat="34.4900325" lon="135.4727275">
<ele>48</ele>
</trkpt>
<trkpt lat="34.4900325" lon="135.4727275">
<ele>48</ele>
</trkpt>
<trkpt lat="34.488548333333334" lon="135.4727436111111">
<ele>50</ele>
</trkpt>
<trkpt lat="34.488548333333334" lon="135.4727436111111">
<ele>50</ele>
</trkpt>
<trkpt lat="34.48757666666667" lon="135.47273805555557">
<ele>51</ele>
</trkpt>
<trkpt lat="34.48757666666667" lon="135.47273805555557">
<ele>51</ele>
</trkpt>
<trkpt lat="34.487453055555555" lon="135.4727436111111">
<ele>51</ele>
</trkpt>
<trkpt lat="34.487453055555555" lon="135.4727436111111">
<ele>51</ele>
</trkpt>
<trkpt lat="34.4868525" lon="135.47245944444444">
<ele>52</ele>
</trkpt>
<trkpt lat="34.4868525" lon="135.47245944444444">
<ele>52</ele>
</trkpt>
<trkpt lat="34.48627805555556" lon="135.47219166666667">
<ele>56</ele>
</trkpt>
<trkpt lat="34.48627805555556" lon="135.47219166666667">
<ele>56</ele>
</trkpt>
<trkpt lat="34.48590277777778" lon="135.4721272222222">
<ele>59</ele>
</trkpt>
<trkpt lat="34.48590277777778" lon="135.4721272222222">
<ele>59</ele>
</trkpt>
<trkpt lat="34.485390277777775" lon="135.47208972222222">
<ele>60</ele>
</trkpt>
<trkpt lat="34.485390277777775" lon="135.47208972222222">
<ele>60</ele>
</trkpt>
<trkpt lat="34.48493083333334" lon="135.47197722222222">
<ele>60</ele>
</trkpt>
<trkpt lat="34.48493083333334" lon="135.47197722222222">
<ele>60</ele>
</trkpt>
<trkpt lat="34.48468361111111" lon="135.4719663888889">
<ele>60</ele>
</trkpt>
<trkpt lat="34.48468361111111" lon="135.4719663888889">
<ele>60</ele>
</trkpt>
<trkpt lat="34.48448916666667" lon="135.47202555555555">
<ele>60</ele>
</trkpt>
<trkpt lat="34.48448916666667" lon="135.47202555555555">
<ele>60</ele>
</trkpt>
<trkpt lat="34.48432138888889" lon="135.472095">
<ele>60</ele>
</trkpt>
<trkpt lat="34.48432138888889" lon="135.472095">
<ele>60</ele>
</trkpt>
<trkpt lat="34.48406527777778" lon="135.47230416666667">
<ele>60</ele>
</trkpt>
<trkpt lat="34.48406527777778" lon="135.47230416666667">
<ele>60</ele>
</trkpt>
<trkpt lat="34.48391055555555" lon="135.47223444444444">
<ele>60</ele>
</trkpt>
<trkpt lat="34.48391055555555" lon="135.47223444444444">
<ele>60</ele>
</trkpt>
<trkpt lat="34.48359694444444" lon="135.4716288888889">
<ele>59</ele>
</trkpt>
<trkpt lat="34.48359694444444" lon="135.4716288888889">
<ele>59</ele>
</trkpt>
<trkpt lat="34.48341583333333" lon="135.47154305555554">
<ele>60</ele>
</trkpt>
<trkpt lat="34.48341583333333" lon="135.47154305555554">
<ele>60</ele>
</trkpt>
<trkpt lat="34.48275777777778" lon="135.47161805555555">
<ele>63</ele>
</trkpt>
<trkpt lat="34.48275777777778" lon="135.47161805555555">
<ele>63</ele>
</trkpt>
<trkpt lat="34.482528055555555" lon="135.4716877777778">
<ele>62</ele>
</trkpt>
<trkpt lat="34.482528055555555" lon="135.4716877777778">
<ele>62</ele>
</trkpt>
<trkpt lat="34.48207305555555" lon="135.47167166666668">
<ele>62</ele>
</trkpt>
<trkpt lat="34.48207305555555" lon="135.47167166666668">
<ele>62</ele>
</trkpt>
<trkpt lat="34.48114555555556" lon="135.47191305555555">
<ele>63</ele>
</trkpt>
<trkpt lat="34.48114555555556" lon="135.47191305555555">
<ele>63</ele>
</trkpt>
<trkpt lat="34.480805833333335" lon="135.47198">
<ele>63</ele>
</trkpt>
<trkpt lat="34.480805833333335" lon="135.47198">
<ele>63</ele>
</trkpt>
<trkpt lat="34.47989583333333" lon="135.4720736111111">
<ele>64</ele>
</trkpt>
<trkpt lat="34.47989583333333" lon="135.4720736111111">
<ele>64</ele>
</trkpt>
<trkpt lat="34.4796175" lon="135.47210055555556">
<ele>64</ele>
</trkpt>
<trkpt lat="34.4796175" lon="135.47210055555556">
<ele>64</ele>
</trkpt>
<trkpt lat="34.479219444444446" lon="135.4720147222222">
<ele>64</ele>
</trkpt>
<trkpt lat="34.479219444444446" lon="135.4720147222222">
<ele>64</ele>
</trkpt>
<trkpt lat="34.478967777777775" lon="135.47199333333333">
<ele>64</ele>
</trkpt>
<trkpt lat="34.478967777777775" lon="135.47199333333333">
<ele>64</ele>
</trkpt>
<trkpt lat="34.47813722222222" lon="135.47212194444444">
<ele>66</ele>
</trkpt>
<trkpt lat="34.47813722222222" lon="135.47212194444444">
<ele>66</ele>
</trkpt>
<trkpt lat="34.47797194444444" lon="135.4721675">
<ele>66</ele>
</trkpt>
<trkpt lat="34.47797194444444" lon="135.4721675">
<ele>66</ele>
</trkpt>
<trkpt lat="34.47772472222222" lon="135.47236027777777">
<ele>67</ele>
</trkpt>
<trkpt lat="34.47772472222222" lon="135.47236027777777">
<ele>67</ele>
</trkpt>
<trkpt lat="34.47751916666667" lon="135.4724461111111">
<ele>68</ele>
</trkpt>
<trkpt lat="34.47751916666667" lon="135.4724461111111">
<ele>68</ele>
</trkpt>
<trkpt lat="34.47702" lon="135.47260944444446">
<ele>68</ele>
</trkpt>
<trkpt lat="34.47702" lon="135.47260944444446">
<ele>68</ele>
</trkpt>
<trkpt lat="34.476661944444444" lon="135.47284805555554">
<ele>67</ele>
</trkpt>
<trkpt lat="34.476661944444444" lon="135.47284805555554">
<ele>67</ele>
</trkpt>
<trkpt lat="34.475720833333334" lon="135.47387694444444">
<ele>66</ele>
</trkpt>
<trkpt lat="34.475720833333334" lon="135.47387694444444">
<ele>66</ele>
</trkpt>
<trkpt lat="34.47470055555556" lon="135.47476111111112">
<ele>68</ele>
</trkpt>
<trkpt lat="34.47470055555556" lon="135.47476111111112">
<ele>68</ele>
</trkpt>
<trkpt lat="34.47391416666667" lon="135.47542555555555">
<ele>68</ele>
</trkpt>
<trkpt lat="34.47391416666667" lon="135.47542555555555">
<ele>68</ele>
</trkpt>
<trkpt lat="34.47398472222222" lon="135.47551666666666">
<ele>68</ele>
</trkpt>
<trkpt lat="34.47398472222222" lon="135.47551666666666">
<ele>68</ele>
</trkpt>
<trkpt lat="34.472906944444446" lon="135.47658833333332">
<ele>66</ele>
</trkpt>
<trkpt lat="34.472906944444446" lon="135.47658833333332">
<ele>66</ele>
</trkpt>
<trkpt lat="34.47195694444444" lon="135.47518444444444">
<ele>67</ele>
</trkpt>
<trkpt lat="34.47194805555556" lon="135.4751938888889">
<ele>68</ele>
</trkpt>
<trkpt lat="34.47191194444444" lon="135.47514694444445">
<ele>68</ele>
</trkpt>
<trkpt lat="34.47082888888889" lon="135.476085">
<ele>66</ele>
</trkpt>
<trkpt lat="34.470845" lon="135.476185">
<ele>65</ele>
</trkpt>
<trkpt lat="34.470728888888885" lon="135.4762838888889">
<ele>64</ele>
</trkpt>
<trkpt lat="34.47065388888889" lon="135.47635888888888">
<ele>64</ele>
</trkpt>
<trkpt lat="34.47027" lon="135.47674694444444">
<ele>66</ele>
</trkpt>
<trkpt lat="34.46991194444445" lon="135.4772088888889">
<ele>68</ele>
</trkpt>
<trkpt lat="34.46982611111111" lon="135.4773311111111">
<ele>68</ele>
</trkpt>
<trkpt lat="34.46982611111111" lon="135.4773311111111">
<ele>68</ele>
</trkpt>
<trkpt lat="34.46957583333333" lon="135.4770922222222">
<ele>69</ele>
</trkpt>
<trkpt lat="34.46957583333333" lon="135.4770922222222">
<ele>69</ele>
</trkpt>
<trkpt lat="34.46923555555556" lon="135.47710833333332">
<ele>68</ele>
</trkpt>
<trkpt lat="34.46923555555556" lon="135.47710833333332">
<ele>68</ele>
</trkpt>
<trkpt lat="34.46896666666667" lon="135.47720194444443">
<ele>68</ele>
</trkpt>
<trkpt lat="34.46896666666667" lon="135.47720194444443">
<ele>68</ele>
</trkpt>
<trkpt lat="34.46873027777778" lon="135.47759861111112">
<ele>69</ele>
</trkpt>
<trkpt lat="34.46873027777778" lon="135.47759861111112">
<ele>69</ele>
</trkpt>
<trkpt lat="34.46849388888889" lon="135.47769222222223">
<ele>71</ele>
</trkpt>
<trkpt lat="34.46849388888889" lon="135.47769222222223">
<ele>71</ele>
</trkpt>
<trkpt lat="34.468178055555555" lon="135.47798444444444">
<ele>77</ele>
</trkpt>
<trkpt lat="34.468178055555555" lon="135.47798444444444">
<ele>77</ele>
</trkpt>
<trkpt lat="34.467765" lon="135.47766805555557">
<ele>70</ele>
</trkpt>
<trkpt lat="34.467765" lon="135.47766805555557">
<ele>70</ele>
</trkpt>
<trkpt lat="34.467285555555556" lon="135.47738944444444">
<ele>69</ele>
</trkpt>
<trkpt lat="34.467285555555556" lon="135.47738944444444">
<ele>69</ele>
</trkpt>
<trkpt lat="34.46711111111111" lon="135.47736277777778">
<ele>69</ele>
</trkpt>
<trkpt lat="34.46711111111111" lon="135.47736277777778">
<ele>69</ele>
</trkpt>
<trkpt lat="34.466925555555555" lon="135.47746722222223">
<ele>69</ele>
</trkpt>
<trkpt lat="34.466925555555555" lon="135.47746722222223">
<ele>69</ele>
</trkpt>
<trkpt lat="34.46680416666667" lon="135.47764416666666">
<ele>69</ele>
</trkpt>
<trkpt lat="34.46680416666667" lon="135.47764416666666">
<ele>69</ele>
</trkpt>
<trkpt lat="34.46677527777778" lon="135.4777672222222">
<ele>69</ele>
</trkpt>
<trkpt lat="34.46677527777778" lon="135.4777672222222">
<ele>69</ele>
</trkpt>
<trkpt lat="34.466859166666666" lon="135.47811027777777">
<ele>73</ele>
</trkpt>
<trkpt lat="34.466859166666666" lon="135.47811027777777">
<ele>73</ele>
</trkpt>
<trkpt lat="34.46684388888889" lon="135.4782175">
<ele>74</ele>
</trkpt>
<trkpt lat="34.46684388888889" lon="135.4782175">
<ele>74</ele>
</trkpt>
<trkpt lat="34.46675111111111" lon="135.47828444444445">
<ele>75</ele>
</trkpt>
<trkpt lat="34.46675111111111" lon="135.47828444444445">
<ele>75</ele>
</trkpt>
<trkpt lat="34.466633888888886" lon="135.47828972222223">
<ele>74</ele>
</trkpt>
<trkpt lat="34.466633888888886" lon="135.47828972222223">
<ele>74</ele>
</trkpt>
<trkpt lat="34.466450555555554" lon="135.47843722222223">
<ele>74</ele>
</trkpt>
<trkpt lat="34.466450555555554" lon="135.47843722222223">
<ele>74</ele>
</trkpt>
<trkpt lat="34.46637333333334" lon="135.47856583333333">
<ele>78</ele>
</trkpt>
<trkpt lat="34.46637333333334" lon="135.47856583333333">
<ele>78</ele>
</trkpt>
<trkpt lat="34.46636888888889" lon="135.47868888888888">
<ele>80</ele>
</trkpt>
<trkpt lat="34.46636888888889" lon="135.47868888888888">
<ele>80</ele>
</trkpt>
<trkpt lat="34.46647277777778" lon="135.47916583333333">
<ele>80</ele>
</trkpt>
<trkpt lat="34.46647277777778" lon="135.47916583333333">
<ele>80</ele>
</trkpt>
<trkpt lat="34.46615444444444" lon="135.47920888888888">
<ele>87</ele>
</trkpt>
<trkpt lat="34.46615444444444" lon="135.47920888888888">
<ele>87</ele>
</trkpt>
<trkpt lat="34.466079444444446" lon="135.47933194444445">
<ele>88</ele>
</trkpt>
<trkpt lat="34.466079444444446" lon="135.47933194444445">
<ele>88</ele>
</trkpt>
<trkpt lat="34.46599111111111" lon="135.4793427777778">
<ele>89</ele>
</trkpt>
<trkpt lat="34.46599111111111" lon="135.4793427777778">
<ele>89</ele>
</trkpt>
<trkpt lat="34.46588722222222" lon="135.4792488888889">
<ele>88</ele>
</trkpt>
<trkpt lat="34.46588722222222" lon="135.4792488888889">
<ele>88</ele>
</trkpt>
<trkpt lat="34.46579222222222" lon="135.4789086111111">
<ele>85</ele>
</trkpt>
<trkpt lat="34.46579222222222" lon="135.4789086111111">
<ele>85</ele>
</trkpt>
<trkpt lat="34.46579861111111" lon="135.47854694444445">
<ele>82</ele>
</trkpt>
<trkpt lat="34.46579861111111" lon="135.47854694444445">
<ele>82</ele>
</trkpt>
<trkpt lat="34.46556888888889" lon="135.47790388888887">
<ele>81</ele>
</trkpt>
<trkpt lat="34.46556888888889" lon="135.47790388888887">
<ele>81</ele>
</trkpt>
<trkpt lat="34.46478222222222" lon="135.47584083333334">
<ele>82</ele>
</trkpt>
<trkpt lat="34.46478222222222" lon="135.47584083333334">
<ele>82</ele>
</trkpt>
<trkpt lat="34.464663055555555" lon="135.47589444444444">
<ele>84</ele>
</trkpt>
<trkpt lat="34.464663055555555" lon="135.47589444444444">
<ele>84</ele>
</trkpt>
<trkpt lat="34.46453944444445" lon="135.4759427777778">
<ele>86</ele>
</trkpt>
<trkpt lat="34.46453944444445" lon="135.4759427777778">
<ele>86</ele>
</trkpt>
<trkpt lat="34.46441111111111" lon="135.47613555555554">
<ele>87</ele>
</trkpt>
<trkpt lat="34.46441111111111" lon="135.47613555555554">
<ele>87</ele>
</trkpt>
<trkpt lat="34.46432277777778" lon="135.4762213888889">
<ele>88</ele>
</trkpt>
<trkpt lat="34.46432277777778" lon="135.4762213888889">
<ele>88</ele>
</trkpt>
<trkpt lat="34.46414611111111" lon="135.47624277777777">
<ele>88</ele>
</trkpt>
<trkpt lat="34.46414611111111" lon="135.47624277777777">
<ele>88</ele>
</trkpt>
<trkpt lat="34.46394277777778" lon="135.4763338888889">
<ele>88</ele>
</trkpt>
<trkpt lat="34.46394277777778" lon="135.4763338888889">
<ele>88</ele>
</trkpt>
<trkpt lat="34.4638325" lon="135.47639805555556">
<ele>89</ele>
</trkpt>
<trkpt lat="34.4638325" lon="135.47639805555556">
<ele>89</ele>
</trkpt>
<trkpt lat="34.46353194444445" lon="135.4764088888889">
<ele>89</ele>
</trkpt>
<trkpt lat="34.46353194444445" lon="135.4764088888889">
<ele>89</ele>
</trkpt>
<trkpt lat="34.46331555555555" lon="135.47633916666666">
<ele>88</ele>
</trkpt>
<trkpt lat="34.46331555555555" lon="135.47633916666666">
<ele>88</ele>
</trkpt>
<trkpt lat="34.46319166666667" lon="135.4762375">
<ele>88</ele>
</trkpt>
<trkpt lat="34.46319166666667" lon="135.4762375">
<ele>88</ele>
</trkpt>
<trkpt lat="34.463143333333335" lon="135.47596944444444">
<ele>87</ele>
</trkpt>
<trkpt lat="34.463143333333335" lon="135.47596944444444">
<ele>87</ele>
</trkpt>
<trkpt lat="34.463076944444445" lon="135.47581944444445">
<ele>85</ele>
</trkpt>
<trkpt lat="34.463076944444445" lon="135.47581944444445">
<ele>85</ele>
</trkpt>
<trkpt lat="34.46293555555555" lon="135.4757872222222">
<ele>84</ele>
</trkpt>
<trkpt lat="34.46293555555555" lon="135.4757872222222">
<ele>84</ele>
</trkpt>
<trkpt lat="34.46279416666667" lon="135.4758302777778">
<ele>84</ele>
</trkpt>
<trkpt lat="34.46279416666667" lon="135.4758302777778">
<ele>84</ele>
</trkpt>
<trkpt lat="34.46271027777778" lon="135.47591055555554">
<ele>84</ele>
</trkpt>
<trkpt lat="34.46271027777778" lon="135.47591055555554">
<ele>84</ele>
</trkpt>
<trkpt lat="34.462626388888886" lon="135.47592666666668">
<ele>85</ele>
</trkpt>
<trkpt lat="34.462626388888886" lon="135.47592666666668">
<ele>85</ele>
</trkpt>
<trkpt lat="34.46144666666667" lon="135.47533166666668">
<ele>90</ele>
</trkpt>
<trkpt lat="34.46144666666667" lon="135.47533166666668">
<ele>90</ele>
</trkpt>
<trkpt lat="34.46104888888889" lon="135.47671444444444">
<ele>85</ele>
</trkpt>
<trkpt lat="34.46104888888889" lon="135.47671444444444">
<ele>85</ele>
</trkpt>
<trkpt lat="34.46130083333333" lon="135.47686444444443">
<ele>87</ele>
</trkpt>
<trkpt lat="34.46130083333333" lon="135.47686444444443">
<ele>87</ele>
</trkpt>
<trkpt lat="34.46146861111111" lon="135.47747527777778">
<ele>87</ele>
</trkpt>
<trkpt lat="34.46146861111111" lon="135.47747527777778">
<ele>87</ele>
</trkpt>
<trkpt lat="34.461345" lon="135.4775825">
<ele>87</ele>
</trkpt>
<trkpt lat="34.461345" lon="135.4775825">
<ele>87</ele>
</trkpt>
<trkpt lat="34.46116388888889" lon="135.47752888888888">
<ele>88</ele>
</trkpt>
<trkpt lat="34.46116388888889" lon="135.47752888888888">
<ele>88</ele>
</trkpt>
<trkpt lat="34.46101361111111" lon="135.47755555555557">
<ele>88</ele>
</trkpt>
<trkpt lat="34.46101361111111" lon="135.47755555555557">
<ele>88</ele>
</trkpt>
<trkpt lat="34.46073527777778" lon="135.47736805555556">
<ele>88</ele>
</trkpt>
<trkpt lat="34.46073527777778" lon="135.47736805555556">
<ele>88</ele>
</trkpt>
<trkpt lat="34.46042166666667" lon="135.47744305555557">
<ele>88</ele>
</trkpt>
<trkpt lat="34.46042166666667" lon="135.47744305555557">
<ele>88</ele>
</trkpt>
<trkpt lat="34.45971027777778" lon="135.4775663888889">
<ele>86</ele>
</trkpt>
<trkpt lat="34.45965611111111" lon="135.47758">
<ele>87</ele>
</trkpt>
<trkpt lat="34.459696944444445" lon="135.47781">
<ele>88</ele>
</trkpt>
<trkpt lat="34.459696944444445" lon="135.47807194444445">
<ele>91</ele>
</trkpt>
<trkpt lat="34.459671944444445" lon="135.478285">
<ele>92</ele>
</trkpt>
<trkpt lat="34.45957194444444" lon="135.47864694444445">
<ele>91</ele>
</trkpt>
<trkpt lat="34.45887611111111" lon="135.48053611111112">
<ele>95</ele>
</trkpt>
<trkpt lat="34.45887611111111" lon="135.48053611111112">
<ele>95</ele>
</trkpt>
<trkpt lat="34.459449444444445" lon="135.48079777777778">
<ele>90</ele>
</trkpt>
<trkpt lat="34.459449444444445" lon="135.48079777777778">
<ele>90</ele>
</trkpt>
<trkpt lat="34.45991333333333" lon="135.4814086111111">
<ele>92</ele>
</trkpt>
<trkpt lat="34.45991333333333" lon="135.4814086111111">
<ele>92</ele>
</trkpt>
<trkpt lat="34.46015638888889" lon="135.48149972222222">
<ele>92</ele>
</trkpt>
<trkpt lat="34.46015638888889" lon="135.48149972222222">
<ele>92</ele>
</trkpt>
<trkpt lat="34.46029333333333" lon="135.48191222222223">
<ele>94</ele>
</trkpt>
<trkpt lat="34.46029333333333" lon="135.48191222222223">
<ele>94</ele>
</trkpt>
<trkpt lat="34.46053194444445" lon="135.48207305555556">
<ele>94</ele>
</trkpt>
<trkpt lat="34.46053194444445" lon="135.48207305555556">
<ele>94</ele>
</trkpt>
<trkpt lat="34.46066444444445" lon="135.482475">
<ele>92</ele>
</trkpt>
<trkpt lat="34.46066444444445" lon="135.482475">
<ele>92</ele>
</trkpt>
<trkpt lat="34.46050555555556" lon="135.4828447222222">
<ele>94</ele>
</trkpt>
<trkpt lat="34.46050555555556" lon="135.4828447222222">
<ele>94</ele>
</trkpt>
<trkpt lat="34.460430277777775" lon="135.48334833333334">
<ele>91</ele>
</trkpt>
<trkpt lat="34.460430277777775" lon="135.48334833333334">
<ele>91</ele>
</trkpt>
<trkpt lat="34.46021388888889" lon="135.48343416666665">
<ele>93</ele>
</trkpt>
<trkpt lat="34.46021388888889" lon="135.48343416666665">
<ele>93</ele>
</trkpt>
<trkpt lat="34.460076944444445" lon="135.48334305555557">
<ele>92</ele>
</trkpt>
<trkpt lat="34.460076944444445" lon="135.48334305555557">
<ele>92</ele>
</trkpt>
<trkpt lat="34.45986472222222" lon="135.48319305555555">
<ele>96</ele>
</trkpt>
<trkpt lat="34.45986472222222" lon="135.48319305555555">
<ele>96</ele>
</trkpt>
<trkpt lat="34.45964388888889" lon="135.48317166666666">
<ele>96</ele>
</trkpt>
<trkpt lat="34.45964388888889" lon="135.48317166666666">
<ele>96</ele>
</trkpt>
<trkpt lat="34.459423055555554" lon="135.48325194444445">
<ele>93</ele>
</trkpt>
<trkpt lat="34.459423055555554" lon="135.48325194444445">
<ele>93</ele>
</trkpt>
<trkpt lat="34.45933027777778" lon="135.48335916666667">
<ele>95</ele>
</trkpt>
<trkpt lat="34.45933027777778" lon="135.48335916666667">
<ele>95</ele>
</trkpt>
<trkpt lat="34.45921083333333" lon="135.48358416666667">
<ele>97</ele>
</trkpt>
<trkpt lat="34.45921083333333" lon="135.48358416666667">
<ele>97</ele>
</trkpt>
<trkpt lat="34.458936944444446" lon="135.4836325">
<ele>98</ele>
</trkpt>
<trkpt lat="34.458936944444446" lon="135.4836325">
<ele>98</ele>
</trkpt>
<trkpt lat="34.459003333333335" lon="135.48579722222223">
<ele>90</ele>
</trkpt>
<trkpt lat="34.459003333333335" lon="135.48579722222223">
<ele>90</ele>
</trkpt>
<trkpt lat="34.45920638888889" lon="135.48592583333334">
<ele>90</ele>
</trkpt>
<trkpt lat="34.45920638888889" lon="135.48592583333334">
<ele>90</ele>
</trkpt>
<trkpt lat="34.459316944444446" lon="135.486135">
<ele>91</ele>
</trkpt>
<trkpt lat="34.459316944444446" lon="135.486135">
<ele>91</ele>
</trkpt>
<trkpt lat="34.45917111111111" lon="135.48627416666668">
<ele>91</ele>
</trkpt>
<trkpt lat="34.45917111111111" lon="135.48627416666668">
<ele>91</ele>
</trkpt>
<trkpt lat="34.45939194444444" lon="135.48655833333333">
<ele>92</ele>
</trkpt>
<trkpt lat="34.45939194444444" lon="135.48655833333333">
<ele>92</ele>
</trkpt>
<trkpt lat="34.46003722222222" lon="135.48855722222223">
<ele>92</ele>
</trkpt>
<trkpt lat="34.46004888888889" lon="135.48855111111112">
<ele>92</ele>
</trkpt>
<trkpt lat="34.46003805555556" lon="135.4885211111111">
<ele>92</ele>
</trkpt>
<trkpt lat="34.460413055555556" lon="135.48823388888889">
<ele>93</ele>
</trkpt>
<trkpt lat="34.460496944444444" lon="135.48817111111111">
<ele>93</ele>
</trkpt>
<trkpt lat="34.46103" lon="135.4876711111111">
<ele>95</ele>
</trkpt>
<trkpt lat="34.46124611111111" lon="135.4874461111111">
<ele>95</ele>
</trkpt>
<trkpt lat="34.46134611111111" lon="135.48735888888888">
<ele>96</ele>
</trkpt>
<trkpt lat="34.461705" lon="135.4869711111111">
<ele>97</ele>
</trkpt>
<trkpt lat="34.461863055555554" lon="135.4868088888889">
<ele>98</ele>
</trkpt>
<trkpt lat="34.462305" lon="135.48647111111111">
<ele>98</ele>
</trkpt>
<trkpt lat="34.462763055555556" lon="135.48623388888888">
<ele>98</ele>
</trkpt>
<trkpt lat="34.46306305555556" lon="135.48612111111112">
<ele>96</ele>
</trkpt>
<trkpt lat="34.463138055555554" lon="135.48609611111112">
<ele>97</ele>
</trkpt>
<trkpt lat="34.46355388888889" lon="135.48599611111112">
<ele>98</ele>
</trkpt>
<trkpt lat="34.463638055555556" lon="135.4860211111111">
<ele>98</ele>
</trkpt>
<trkpt lat="34.464193055555555" lon="135.48589194444443">
<ele>98</ele>
</trkpt>
<trkpt lat="34.464193055555555" lon="135.48589194444443">
<ele>98</ele>
</trkpt>
<trkpt lat="34.46422888888889" lon="135.48588388888888">
<ele>98</ele>
</trkpt>
<trkpt lat="34.464288055555556" lon="135.4861338888889">
<ele>96</ele>
</trkpt>
<trkpt lat="34.464396111111114" lon="135.4865961111111">
<ele>94</ele>
</trkpt>
<trkpt lat="34.46450388888889" lon="135.4870338888889">
<ele>92</ele>
</trkpt>
<trkpt lat="34.46474611111111" lon="135.48804611111112">
<ele>88</ele>
</trkpt>
<trkpt lat="34.46498805555556" lon="135.48907111111112">
<ele>82</ele>
</trkpt>
<trkpt lat="34.465046111111114" lon="135.4893461111111">
<ele>80</ele>
</trkpt>
<trkpt lat="34.46521305555556" lon="135.4901211111111">
<ele>77</ele>
</trkpt>
<trkpt lat="34.46535388888889" lon="135.49087111111112">
<ele>73</ele>
</trkpt>
<trkpt lat="34.46559611111111" lon="135.49212111111112">
<ele>65</ele>
</trkpt>
<trkpt lat="34.46581305555556" lon="135.4932961111111">
<ele>63</ele>
</trkpt>
<trkpt lat="34.46585388888889" lon="135.49347111111112">
<ele>60</ele>
</trkpt>
<trkpt lat="34.46587111111111" lon="135.49358305555555">
<ele>60</ele>
</trkpt>
<trkpt lat="34.46608805555555" lon="135.49475805555556">
<ele>65</ele>
</trkpt>
<trkpt lat="34.466213055555556" lon="135.495345">
<ele>72</ele>
</trkpt>
<trkpt lat="34.46624611111111" lon="135.49545805555556">
<ele>74</ele>
</trkpt>
<trkpt lat="34.46642111111111" lon="135.49645805555556">
<ele>75</ele>
</trkpt>
<trkpt lat="34.46648805555556" lon="135.49682">
<ele>74</ele>
</trkpt>
<trkpt lat="34.466563055555554" lon="135.497195">
<ele>76</ele>
</trkpt>
<trkpt lat="34.466638055555556" lon="135.497595">
<ele>77</ele>
</trkpt>
<trkpt lat="34.46665388888889" lon="135.49767">
<ele>77</ele>
</trkpt>
<trkpt lat="34.46675388888889" lon="135.49815694444445">
<ele>78</ele>
</trkpt>
<trkpt lat="34.46687111111111" lon="135.498545">
<ele>79</ele>
</trkpt>
<trkpt lat="34.46712111111111" lon="135.49925694444445">
<ele>78</ele>
</trkpt>
<trkpt lat="34.467303888888885" lon="135.499645">
<ele>79</ele>
</trkpt>
<trkpt lat="34.46734611111111" lon="135.49962">
<ele>79</ele>
</trkpt>
<trkpt lat="34.46734611111111" lon="135.49962">
<ele>79</ele>
</trkpt>
<trkpt lat="34.468201944444445" lon="135.49936555555556">
<ele>78</ele>
</trkpt>
<trkpt lat="34.468201944444445" lon="135.49936555555556">
<ele>78</ele>
</trkpt>
<trkpt lat="34.468626111111114" lon="135.49896916666665">
<ele>78</ele>
</trkpt>
<trkpt lat="34.468626111111114" lon="135.49896916666665">
<ele>78</ele>
</trkpt>
<trkpt lat="34.469005833333334" lon="135.49890472222222">
<ele>77</ele>
</trkpt>
<trkpt lat="34.469005833333334" lon="135.49890472222222">
<ele>77</ele>
</trkpt>
<trkpt lat="34.46916944444445" lon="135.49989083333332">
<ele>75</ele>
</trkpt>
<trkpt lat="34.46916944444445" lon="135.49989083333332">
<ele>75</ele>
</trkpt>
<trkpt lat="34.46934611111111" lon="135.50034083333333">
<ele>74</ele>
</trkpt>
<trkpt lat="34.46934611111111" lon="135.50034083333333">
<ele>74</ele>
</trkpt>
<trkpt lat="34.469699444444444" lon="135.50089277777778">
<ele>71</ele>
</trkpt>
<trkpt lat="34.469699444444444" lon="135.50089277777778">
<ele>71</ele>
</trkpt>
<trkpt lat="34.468851388888886" lon="135.50165388888888">
<ele>76</ele>
</trkpt>
<trkpt lat="34.468851388888886" lon="135.50165388888888">
<ele>76</ele>
</trkpt>
<trkpt lat="34.46840944444445" lon="135.50220027777777">
<ele>79</ele>
</trkpt>
<trkpt lat="34.46840944444445" lon="135.50220027777777">
<ele>79</ele>
</trkpt>
<trkpt lat="34.468201944444445" lon="135.50226472222224">
<ele>80</ele>
</trkpt>
<trkpt lat="34.468201944444445" lon="135.50226472222224">
<ele>80</ele>
</trkpt>
<trkpt lat="34.468630555555556" lon="135.50431694444444">
<ele>74</ele>
</trkpt>
<trkpt lat="34.468630555555556" lon="135.50431694444444">
<ele>74</ele>
</trkpt>
<trkpt lat="34.468493611111114" lon="135.50463333333335">
<ele>71</ele>
</trkpt>
<trkpt lat="34.468493611111114" lon="135.50463333333335">
<ele>71</ele>
</trkpt>
<trkpt lat="34.46908111111111" lon="135.50525472222222">
<ele>69</ele>
</trkpt>
<trkpt lat="34.46908111111111" lon="135.50525472222222">
<ele>69</ele>
</trkpt>
<trkpt lat="34.46940361111111" lon="135.50510472222223">
<ele>70</ele>
</trkpt>
<trkpt lat="34.46940361111111" lon="135.50510472222223">
<ele>70</ele>
</trkpt>
<trkpt lat="34.46959361111111" lon="135.50510472222223">
<ele>69</ele>
</trkpt>
<trkpt lat="34.46959361111111" lon="135.50510472222223">
<ele>69</ele>
</trkpt>
<trkpt lat="34.469735" lon="135.50528694444444">
<ele>69</ele>
</trkpt>
<trkpt lat="34.469735" lon="135.50528694444444">
<ele>69</ele>
</trkpt>
<trkpt lat="34.469765833333334" lon="135.5055013888889">
<ele>69</ele>
</trkpt>
<trkpt lat="34.469765833333334" lon="135.5055013888889">
<ele>69</ele>
</trkpt>
<trkpt lat="34.46957138888889" lon="135.50576388888888">
<ele>69</ele>
</trkpt>
<trkpt lat="34.46957138888889" lon="135.50576388888888">
<ele>69</ele>
</trkpt>
<trkpt lat="34.46942555555555" lon="135.50593527777778">
<ele>69</ele>
</trkpt>
<trkpt lat="34.46942555555555" lon="135.50593527777778">
<ele>69</ele>
</trkpt>
<trkpt lat="34.4696025" lon="135.5071947222222">
<ele>62</ele>
</trkpt>
<trkpt lat="34.4696025" lon="135.5071947222222">
<ele>62</ele>
</trkpt>
<trkpt lat="34.468736388888885" lon="135.50729666666666">
<ele>65</ele>
</trkpt>
<trkpt lat="34.468736388888885" lon="135.50729666666666">
<ele>65</ele>
</trkpt>
<trkpt lat="34.468290277777776" lon="135.50754305555554">
<ele>64</ele>
</trkpt>
<trkpt lat="34.468290277777776" lon="135.50754305555554">
<ele>64</ele>
</trkpt>
<trkpt lat="34.46698694444444" lon="135.50798777777777">
<ele>67</ele>
</trkpt>
<trkpt lat="34.46698694444444" lon="135.50798777777777">
<ele>67</ele>
</trkpt>
<trkpt lat="34.46664666666667" lon="135.50806805555555">
<ele>66</ele>
</trkpt>
<trkpt lat="34.46664666666667" lon="135.50806805555555">
<ele>66</ele>
</trkpt>
<trkpt lat="34.464844166666666" lon="135.50786444444444">
<ele>67</ele>
</trkpt>
<trkpt lat="34.464844166666666" lon="135.50786444444444">
<ele>67</ele>
</trkpt>
<trkpt lat="34.464844166666666" lon="135.5080788888889">
<ele>65</ele>
</trkpt>
<trkpt lat="34.464844166666666" lon="135.5080788888889">
<ele>65</ele>
</trkpt>
<trkpt lat="34.46594416666667" lon="135.5085611111111">
<ele>64</ele>
</trkpt>
<trkpt lat="34.46594416666667" lon="135.5085611111111">
<ele>64</ele>
</trkpt>
<trkpt lat="34.4663375" lon="135.50865222222222">
<ele>63</ele>
</trkpt>
<trkpt lat="34.4663375" lon="135.50865222222222">
<ele>63</ele>
</trkpt>
<trkpt lat="34.46573138888889" lon="135.5095525">
<ele>62</ele>
</trkpt>
<trkpt lat="34.46571888888889" lon="135.5095288888889">
<ele>62</ele>
</trkpt>
<trkpt lat="34.46562111111111" lon="135.50960694444444">
<ele>64</ele>
</trkpt>
<trkpt lat="34.46552111111111" lon="135.50966888888888">
<ele>67</ele>
</trkpt>
<trkpt lat="34.46530388888889" lon="135.5097438888889">
<ele>65</ele>
</trkpt>
<trkpt lat="34.46514611111111" lon="135.5098188888889">
<ele>66</ele>
</trkpt>
<trkpt lat="34.465046111111114" lon="135.50990694444445">
<ele>67</ele>
</trkpt>
<trkpt lat="34.464855" lon="135.51015694444445">
<ele>67</ele>
</trkpt>
<trkpt lat="34.46458805555555" lon="135.5107311111111">
<ele>69</ele>
</trkpt>
<trkpt lat="34.46447111111111" lon="135.5109938888889">
<ele>68</ele>
</trkpt>
<trkpt lat="34.464255" lon="135.51146888888888">
<ele>73</ele>
</trkpt>
<trkpt lat="34.464148055555555" lon="135.51166194444446">
<ele>74</ele>
</trkpt>
<trkpt lat="34.464148055555555" lon="135.51166194444446">
<ele>74</ele>
</trkpt>
<trkpt lat="34.46389611111111" lon="135.5121188888889">
<ele>77</ele>
</trkpt>
<trkpt lat="34.463805" lon="135.5122561111111">
<ele>77</ele>
</trkpt>
<trkpt lat="34.46373805555555" lon="135.5123311111111">
<ele>74</ele>
</trkpt>
<trkpt lat="34.46363" lon="135.5124311111111">
<ele>72</ele>
</trkpt>
<trkpt lat="34.46346305555556" lon="135.5126061111111">
<ele>74</ele>
</trkpt>
<trkpt lat="34.46328" lon="135.5128188888889">
<ele>77</ele>
</trkpt>
<trkpt lat="34.46323" lon="135.5129188888889">
<ele>78</ele>
</trkpt>
<trkpt lat="34.46319611111111" lon="135.51306888888888">
<ele>78</ele>
</trkpt>
<trkpt lat="34.463105" lon="135.51353111111112">
<ele>79</ele>
</trkpt>
<trkpt lat="34.46306305555556" lon="135.5138188888889">
<ele>79</ele>
</trkpt>
<trkpt lat="34.46304611111111" lon="135.5139061111111">
<ele>79</ele>
</trkpt>
<trkpt lat="34.46301305555556" lon="135.51400611111112">
<ele>80</ele>
</trkpt>
<trkpt lat="34.462938055555554" lon="135.5141688888889">
<ele>82</ele>
</trkpt>
<trkpt lat="34.46288" lon="135.5143438888889">
<ele>84</ele>
</trkpt>
<trkpt lat="34.462696944444446" lon="135.5147438888889">
<ele>88</ele>
</trkpt>
<trkpt lat="34.46258805555556" lon="135.51500611111112">
<ele>89</ele>
</trkpt>
<trkpt lat="34.46257194444444" lon="135.5150688888889">
<ele>89</ele>
</trkpt>
<trkpt lat="34.46252194444445" lon="135.5153061111111">
<ele>88</ele>
</trkpt>
<trkpt lat="34.462455" lon="135.51554388888889">
<ele>90</ele>
</trkpt>
<trkpt lat="34.46239694444444" lon="135.5157438888889">
<ele>91</ele>
</trkpt>
<trkpt lat="34.46212194444445" lon="135.5162061111111">
<ele>94</ele>
</trkpt>
<trkpt lat="34.46203805555555" lon="135.51636888888888">
<ele>97</ele>
</trkpt>
<trkpt lat="34.46201305555556" lon="135.5164311111111">
<ele>97</ele>
</trkpt>
<trkpt lat="34.46203" lon="135.5165061111111">
<ele>99</ele>
</trkpt>
<trkpt lat="34.462021944444444" lon="135.51703111111112">
<ele>99</ele>
</trkpt>
<trkpt lat="34.461996944444444" lon="135.51714388888888">
<ele>102</ele>
</trkpt>
<trkpt lat="34.461955" lon="135.51725611111112">
<ele>103</ele>
</trkpt>
<trkpt lat="34.461905" lon="135.5173561111111">
<ele>105</ele>
</trkpt>
<trkpt lat="34.461755" lon="135.51754305555556">
<ele>105</ele>
</trkpt>
<trkpt lat="34.461605" lon="135.51771805555555">
<ele>106</ele>
</trkpt>
<trkpt lat="34.46158" lon="135.51776805555556">
<ele>106</ele>
</trkpt>
<trkpt lat="34.46156305555556" lon="135.51785611111112">
<ele>108</ele>
</trkpt>
<trkpt lat="34.46152194444444" lon="135.51796805555554">
<ele>110</ele>
</trkpt>
<trkpt lat="34.46152" lon="135.51797">
<ele>109</ele>
</trkpt>
<trkpt lat="34.46152" lon="135.51797">
<ele>109</ele>
</trkpt>
<trkpt lat="34.46152194444444" lon="135.51796805555554">
<ele>110</ele>
</trkpt>
<trkpt lat="34.46156305555556" lon="135.51785611111112">
<ele>108</ele>
</trkpt>
<trkpt lat="34.46158805555555" lon="135.5179061111111">
<ele>107</ele>
</trkpt>
<trkpt lat="34.461638055555554" lon="135.51799305555556">
<ele>107</ele>
</trkpt>
<trkpt lat="34.461821944444445" lon="135.5182311111111">
<ele>106</ele>
</trkpt>
<trkpt lat="34.46197194444444" lon="135.5183311111111">
<ele>108</ele>
</trkpt>
<trkpt lat="34.462063055555554" lon="135.5183311111111">
<ele>108</ele>
</trkpt>
<trkpt lat="34.46218805555556" lon="135.51828111111112">
<ele>107</ele>
</trkpt>
<trkpt lat="34.462313055555555" lon="135.5182311111111">
<ele>105</ele>
</trkpt>
<trkpt lat="34.462405" lon="135.51819305555554">
<ele>106</ele>
</trkpt>
<trkpt lat="34.462555" lon="135.51819305555554">
<ele>106</ele>
</trkpt>
<trkpt lat="34.46263805555556" lon="135.5182311111111">
<ele>105</ele>
</trkpt>
<trkpt lat="34.46281305555556" lon="135.51828111111112">
<ele>99</ele>
</trkpt>
<trkpt lat="34.462963055555555" lon="135.51829305555555">
<ele>97</ele>
</trkpt>
<trkpt lat="34.46311305555555" lon="135.51828111111112">
<ele>93</ele>
</trkpt>
<trkpt lat="34.46328" lon="135.51826805555555">
<ele>91</ele>
</trkpt>
<trkpt lat="34.463363055555554" lon="135.51824305555556">
<ele>90</ele>
</trkpt>
<trkpt lat="34.46357111111111" lon="135.51819305555554">
<ele>88</ele>
</trkpt>
<trkpt lat="34.464196111111114" lon="135.51799305555556">
<ele>85</ele>
</trkpt>
<trkpt lat="34.46431305555556" lon="135.51794305555555">
<ele>83</ele>
</trkpt>
<trkpt lat="34.464638055555554" lon="135.5177811111111">
<ele>80</ele>
</trkpt>
<trkpt lat="34.464863055555554" lon="135.51761805555554">
<ele>79</ele>
</trkpt>
<trkpt lat="34.46518" lon="135.5173561111111">
<ele>78</ele>
</trkpt>
<trkpt lat="34.465246111111114" lon="135.51734305555556">
<ele>78</ele>
</trkpt>
<trkpt lat="34.465313055555555" lon="135.51734305555556">
<ele>78</ele>
</trkpt>
<trkpt lat="34.46532611111111" lon="135.51734611111112">
<ele>78</ele>
</trkpt>
<trkpt lat="34.46532611111111" lon="135.51734611111112">
<ele>78</ele>
</trkpt>
<trkpt lat="34.46544611111111" lon="135.51736805555555">
<ele>78</ele>
</trkpt>
<trkpt lat="34.46549611111111" lon="135.51739305555554">
<ele>78</ele>
</trkpt>
<trkpt lat="34.46582111111111" lon="135.5175311111111">
<ele>79</ele>
</trkpt>
<trkpt lat="34.46619611111111" lon="135.51773111111112">
<ele>78</ele>
</trkpt>
<trkpt lat="34.46652111111111" lon="135.5178811111111">
<ele>77</ele>
</trkpt>
<trkpt lat="34.467038055555555" lon="135.51818111111112">
<ele>71</ele>
</trkpt>
<trkpt lat="34.46711305555556" lon="135.51821805555556">
<ele>69</ele>
</trkpt>
<trkpt lat="34.46733805555556" lon="135.51819305555554">
<ele>67</ele>
</trkpt>
<trkpt lat="34.46738805555555" lon="135.51815611111113">
<ele>67</ele>
</trkpt>
<trkpt lat="34.46747111111111" lon="135.51818111111112">
<ele>66</ele>
</trkpt>
<trkpt lat="34.46759611111111" lon="135.51815611111113">
<ele>65</ele>
</trkpt>
<trkpt lat="34.46773805555556" lon="135.51818111111112">
<ele>64</ele>
</trkpt>
<trkpt lat="34.46797888888889" lon="135.51824305555556">
<ele>62</ele>
</trkpt>
<trkpt lat="34.46801305555555" lon="135.5182561111111">
<ele>61</ele>
</trkpt>
<trkpt lat="34.46815388888889" lon="135.51830611111112">
<ele>62</ele>
</trkpt>
<trkpt lat="34.46834611111111" lon="135.5183811111111">
<ele>64</ele>
</trkpt>
<trkpt lat="34.468471111111114" lon="135.51844305555557">
<ele>65</ele>
</trkpt>
<trkpt lat="34.468738055555555" lon="135.5185811111111">
<ele>68</ele>
</trkpt>
<trkpt lat="34.46878111111111" lon="135.51857305555555">
<ele>68</ele>
</trkpt>
<trkpt lat="34.46878111111111" lon="135.51857305555555">
<ele>68</ele>
</trkpt>
<trkpt lat="34.46881194444445" lon="135.51856805555556">
<ele>69</ele>
</trkpt>
<trkpt lat="34.46917888888889" lon="135.51836805555556">
<ele>75</ele>
</trkpt>
<trkpt lat="34.469228888888885" lon="135.51830611111112">
<ele>76</ele>
</trkpt>
<trkpt lat="34.46950388888889" lon="135.5177811111111">
<ele>77</ele>
</trkpt>
<trkpt lat="34.46960388888889" lon="135.51761805555554">
<ele>77</ele>
</trkpt>
<trkpt lat="34.46965388888889" lon="135.51756805555556">
<ele>77</ele>
</trkpt>
<trkpt lat="34.46977888888889" lon="135.5174561111111">
<ele>80</ele>
</trkpt>
<trkpt lat="34.470286944444446" lon="135.51701805555555">
<ele>81</ele>
</trkpt>
<trkpt lat="34.47045388888889" lon="135.51689305555556">
<ele>81</ele>
</trkpt>
<trkpt lat="34.470445" lon="135.51691194444444">
<ele>81</ele>
</trkpt>
<trkpt lat="34.470445" lon="135.51691194444444">
<ele>81</ele>
</trkpt>
<trkpt lat="34.469988055555554" lon="135.5178811111111">
<ele>81</ele>
</trkpt>
<trkpt lat="34.46960388888889" lon="135.5186811111111">
<ele>84</ele>
</trkpt>
<trkpt lat="34.469363055555554" lon="135.51919305555555">
<ele>89</ele>
</trkpt>
<trkpt lat="34.469321111111114" lon="135.5192311111111">
<ele>90</ele>
</trkpt>
<trkpt lat="34.469186944444445" lon="135.51933111111111">
<ele>90</ele>
</trkpt>
<trkpt lat="34.46914611111111" lon="135.51939305555555">
<ele>91</ele>
</trkpt>
<trkpt lat="34.46913694444444" lon="135.51946805555556">
<ele>91</ele>
</trkpt>
<trkpt lat="34.46914611111111" lon="135.5195061111111">
<ele>91</ele>
</trkpt>
<trkpt lat="34.46929611111111" lon="135.51974305555555">
<ele>93</ele>
</trkpt>
<trkpt lat="34.46934611111111" lon="135.51999305555555">
<ele>94</ele>
</trkpt>
<trkpt lat="34.46939611111111" lon="135.52011805555554">
<ele>95</ele>
</trkpt>
<trkpt lat="34.469453888888886" lon="135.52019305555555">
<ele>96</ele>
</trkpt>
<trkpt lat="34.469476944444445" lon="135.52020194444444">
<ele>96</ele>
</trkpt>
<trkpt lat="34.469476944444445" lon="135.52020194444444">
<ele>96</ele>
</trkpt>
<trkpt lat="34.469546111111114" lon="135.52023111111112">
<ele>96</ele>
</trkpt>
<trkpt lat="34.46962111111111" lon="135.5202561111111">
<ele>96</ele>
</trkpt>
<trkpt lat="34.46977888888889" lon="135.5202561111111">
<ele>98</ele>
</trkpt>
<trkpt lat="34.46985388888889" lon="135.5202561111111">
<ele>98</ele>
</trkpt>
<trkpt lat="34.470261944444445" lon="135.5202561111111">
<ele>100</ele>
</trkpt>
<trkpt lat="34.47042111111111" lon="135.5202561111111">
<ele>100</ele>
</trkpt>
<trkpt lat="34.47067888888889" lon="135.52020611111112">
<ele>97</ele>
</trkpt>
<trkpt lat="34.470838055555554" lon="135.52020611111112">
<ele>94</ele>
</trkpt>
<trkpt lat="34.470863055555554" lon="135.52021805555555">
<ele>94</ele>
</trkpt>
<trkpt lat="34.47109611111111" lon="135.52036805555556">
<ele>92</ele>
</trkpt>
<trkpt lat="34.47138694444445" lon="135.52055611111112">
<ele>92</ele>
</trkpt>
<trkpt lat="34.47150388888889" lon="135.52061805555556">
<ele>91</ele>
</trkpt>
<trkpt lat="34.47155388888889" lon="135.5206311111111">
<ele>91</ele>
</trkpt>
<trkpt lat="34.471696111111115" lon="135.52065611111112">
<ele>92</ele>
</trkpt>
<trkpt lat="34.47183694444445" lon="135.52065611111112">
<ele>91</ele>
</trkpt>
<trkpt lat="34.471961944444445" lon="135.52064305555555">
<ele>91</ele>
</trkpt>
<trkpt lat="34.47207888888889" lon="135.5205811111111">
<ele>91</ele>
</trkpt>
<trkpt lat="34.47223694444445" lon="135.5204811111111">
<ele>92</ele>
</trkpt>
<trkpt lat="34.47250388888889" lon="135.52026805555556">
<ele>92</ele>
</trkpt>
<trkpt lat="34.472586944444444" lon="135.52023111111112">
<ele>91</ele>
</trkpt>
<trkpt lat="34.47296194444444" lon="135.5201311111111">
<ele>90</ele>
</trkpt>
<trkpt lat="34.473261944444445" lon="135.51998111111112">
<ele>91</ele>
</trkpt>
<trkpt lat="34.47327888888889" lon="135.51996888888888">
<ele>91</ele>
</trkpt>
<trkpt lat="34.47327888888889" lon="135.51996888888888">
<ele>91</ele>
</trkpt>
<trkpt lat="34.473261944444445" lon="135.51998111111112">
<ele>91</ele>
</trkpt>
<trkpt lat="34.47365388888889" lon="135.5208561111111">
<ele>89</ele>
</trkpt>
<trkpt lat="34.47362888888889" lon="135.52094305555556">
<ele>88</ele>
</trkpt>
<trkpt lat="34.47362" lon="135.5209811111111">
<ele>88</ele>
</trkpt>
<trkpt lat="34.47333694444445" lon="135.5215061111111">
<ele>82</ele>
</trkpt>
<trkpt lat="34.473303888888886" lon="135.52158111111112">
<ele>80</ele>
</trkpt>
<trkpt lat="34.473286944444446" lon="135.52168111111112">
<ele>79</ele>
</trkpt>
<trkpt lat="34.47329611111111" lon="135.521855">
<ele>76</ele>
</trkpt>
<trkpt lat="34.47331194444445" lon="135.52191805555555">
<ele>74</ele>
</trkpt>
<trkpt lat="34.47337111111111" lon="135.52206805555556">
<ele>75</ele>
</trkpt>
<trkpt lat="34.47342888888889" lon="135.522155">
<ele>72</ele>
</trkpt>
<trkpt lat="34.47352111111111" lon="135.52224305555555">
<ele>71</ele>
</trkpt>
<trkpt lat="34.473686944444445" lon="135.52231805555556">
<ele>72</ele>
</trkpt>
<trkpt lat="34.47427888888889" lon="135.52253">
<ele>67</ele>
</trkpt>
<trkpt lat="34.47447" lon="135.52261805555557">
<ele>63</ele>
</trkpt>
<trkpt lat="34.47456611111111" lon="135.522695">
<ele>61</ele>
</trkpt>
<trkpt lat="34.47456611111111" lon="135.522695">
<ele>61</ele>
</trkpt>
<trkpt lat="34.47457888888889" lon="135.522705">
<ele>61</ele>
</trkpt>
<trkpt lat="34.47472888888889" lon="135.52286805555556">
<ele>60</ele>
</trkpt>
<trkpt lat="34.474845" lon="135.52303">
<ele>60</ele>
</trkpt>
<trkpt lat="34.47511194444444" lon="135.523555">
<ele>66</ele>
</trkpt>
<trkpt lat="34.47523694444445" lon="135.523805">
<ele>66</ele>
</trkpt>
<trkpt lat="34.47573694444444" lon="135.524755">
<ele>68</ele>
</trkpt>
<trkpt lat="34.47612888888889" lon="135.525505">
<ele>68</ele>
</trkpt>
<trkpt lat="34.476236944444445" lon="135.52566694444445">
<ele>68</ele>
</trkpt>
<trkpt lat="34.47632888888889" lon="135.525805">
<ele>69</ele>
</trkpt>
<trkpt lat="34.47676194444445" lon="135.52623">
<ele>69</ele>
</trkpt>
<trkpt lat="34.477086944444444" lon="135.526555">
<ele>73</ele>
</trkpt>
<trkpt lat="34.47721194444444" lon="135.52671694444444">
<ele>78</ele>
</trkpt>
<trkpt lat="34.47725305555556" lon="135.526805">
<ele>79</ele>
</trkpt>
<trkpt lat="34.47727" lon="135.52689194444446">
<ele>80</ele>
</trkpt>
<trkpt lat="34.47728111111111" lon="135.52711888888888">
<ele>81</ele>
</trkpt>
<trkpt lat="34.47728111111111" lon="135.52711805555555">
<ele>81</ele>
</trkpt>
<trkpt lat="34.47730305555555" lon="135.527555">
<ele>82</ele>
</trkpt>
<trkpt lat="34.477353055555554" lon="135.52783">
<ele>83</ele>
</trkpt>
<trkpt lat="34.477403055555556" lon="135.527955">
<ele>84</ele>
</trkpt>
<trkpt lat="34.477736944444445" lon="135.52854194444444">
<ele>86</ele>
</trkpt>
<trkpt lat="34.47781194444445" lon="135.52853">
<ele>87</ele>
</trkpt>
<trkpt lat="34.47812" lon="135.52846694444443">
<ele>88</ele>
</trkpt>
<trkpt lat="34.47817" lon="135.52849194444445">
<ele>88</ele>
</trkpt>
<trkpt lat="34.478211944444446" lon="135.52853">
<ele>88</ele>
</trkpt>
<trkpt lat="34.47833694444444" lon="135.52866694444444">
<ele>86</ele>
</trkpt>
<trkpt lat="34.47848694444444" lon="135.52851694444445">
<ele>85</ele>
</trkpt>
<trkpt lat="34.47853694444444" lon="135.52843">
<ele>87</ele>
</trkpt>
<trkpt lat="34.478561944444444" lon="135.528405">
<ele>86</ele>
</trkpt>
<trkpt lat="34.478695" lon="135.52834194444443">
<ele>85</ele>
</trkpt>
<trkpt lat="34.47877805555556" lon="135.52828">
<ele>86</ele>
</trkpt>
<trkpt lat="34.478895" lon="135.528105">
<ele>87</ele>
</trkpt>
<trkpt lat="34.478928055555556" lon="135.52808">
<ele>87</ele>
</trkpt>
<trkpt lat="34.47905305555555" lon="135.52808">
<ele>87</ele>
</trkpt>
<trkpt lat="34.47920305555556" lon="135.52801694444443">
<ele>87</ele>
</trkpt>
<trkpt lat="34.47944888888889" lon="135.5278438888889">
<ele>85</ele>
</trkpt>
<trkpt lat="34.47944888888889" lon="135.5278438888889">
<ele>85</ele>
</trkpt>
<trkpt lat="34.47947" lon="135.52783">
<ele>85</ele>
</trkpt>
<trkpt lat="34.47951111111111" lon="135.52781694444445">
<ele>85</ele>
</trkpt>
<trkpt lat="34.47962805555556" lon="135.52779194444443">
<ele>85</ele>
</trkpt>
<trkpt lat="34.47972111111111" lon="135.52777111111112">
<ele>85</ele>
</trkpt>
<trkpt lat="34.47972111111111" lon="135.52777111111112">
<ele>85</ele>
</trkpt>
<trkpt lat="34.47973611111111" lon="135.52776694444444">
<ele>85</ele>
</trkpt>
<trkpt lat="34.47971111111111" lon="135.52814194444446">
<ele>88</ele>
</trkpt>
<trkpt lat="34.47971111111111" lon="135.52846694444443">
<ele>89</ele>
</trkpt>
<trkpt lat="34.479753055555555" lon="135.52889194444444">
<ele>89</ele>
</trkpt>
<trkpt lat="34.47978611111111" lon="135.52913">
<ele>87</ele>
</trkpt>
<trkpt lat="34.479845" lon="135.529405">
<ele>91</ele>
</trkpt>
<trkpt lat="34.479895" lon="135.529605">
<ele>93</ele>
</trkpt>
<trkpt lat="34.47992" lon="135.52971694444443">
<ele>94</ele>
</trkpt>
<trkpt lat="34.48032805555555" lon="135.53096694444446">
<ele>104</ele>
</trkpt>
<trkpt lat="34.48036388888889" lon="135.5309511111111">
<ele>104</ele>
</trkpt>
<trkpt lat="34.48036388888889" lon="135.5309511111111">
<ele>104</ele>
</trkpt>
<trkpt lat="34.480578055555554" lon="135.53085388888888">
<ele>104</ele>
</trkpt>
<trkpt lat="34.480961111111114" lon="135.53066694444445">
<ele>105</ele>
</trkpt>
<trkpt lat="34.481095" lon="135.53061694444443">
<ele>104</ele>
</trkpt>
<trkpt lat="34.48132805555556" lon="135.53059194444444">
<ele>102</ele>
</trkpt>
<trkpt lat="34.481628055555554" lon="135.5306788888889">
<ele>101</ele>
</trkpt>
<trkpt lat="34.48171888888889" lon="135.53069194444444">
<ele>102</ele>
</trkpt>
<trkpt lat="34.48197805555556" lon="135.5307038888889">
<ele>101</ele>
</trkpt>
<trkpt lat="34.48236888888889" lon="135.5307038888889">
<ele>102</ele>
</trkpt>
<trkpt lat="34.48240305555556" lon="135.5307038888889">
<ele>102</ele>
</trkpt>
<trkpt lat="34.48240305555556" lon="135.5307038888889">
<ele>102</ele>
</trkpt>
<trkpt lat="34.48238666666666" lon="135.53041944444445">
<ele>99</ele>
</trkpt>
<trkpt lat="34.48238666666666" lon="135.53041944444445">
<ele>99</ele>
</trkpt>
<trkpt lat="34.482572222222224" lon="135.5303336111111">
<ele>101</ele>
</trkpt>
<trkpt lat="34.482572222222224" lon="135.5303336111111">
<ele>101</ele>
</trkpt>
<trkpt lat="34.48265166666667" lon="135.53039805555557">
<ele>101</ele>
</trkpt>
<trkpt lat="34.48265166666667" lon="135.53039805555557">
<ele>101</ele>
</trkpt>
<trkpt lat="34.48309777777778" lon="135.53043555555556">
<ele>99</ele>
</trkpt>
<trkpt lat="34.48309777777778" lon="135.53043555555556">
<ele>99</ele>
</trkpt>
<trkpt lat="34.48371638888889" lon="135.53062305555557">
<ele>101</ele>
</trkpt>
<trkpt lat="34.48371638888889" lon="135.53062305555557">
<ele>101</ele>
</trkpt>
<trkpt lat="34.48424194444444" lon="135.53077305555556">
<ele>103</ele>
</trkpt>
<trkpt lat="34.48424194444444" lon="135.53077305555556">
<ele>103</ele>
</trkpt>
<trkpt lat="34.484604166666664" lon="135.53115888888888">
<ele>105</ele>
</trkpt>
<trkpt lat="34.484604166666664" lon="135.53115888888888">
<ele>105</ele>
</trkpt>
<trkpt lat="34.485010555555554" lon="135.53120166666668">
<ele>107</ele>
</trkpt>
<trkpt lat="34.485010555555554" lon="135.53120166666668">
<ele>107</ele>
</trkpt>
<trkpt lat="34.48555805555556" lon="135.5310786111111">
<ele>108</ele>
</trkpt>
<trkpt lat="34.48555805555556" lon="135.5310786111111">
<ele>108</ele>
</trkpt>
<trkpt lat="34.485770277777775" lon="135.53091777777777">
<ele>109</ele>
</trkpt>
<trkpt lat="34.485770277777775" lon="135.53091777777777">
<ele>109</ele>
</trkpt>
<trkpt lat="34.486128055555554" lon="135.53032305555556">
<ele>108</ele>
</trkpt>
<trkpt lat="34.486128055555554" lon="135.53032305555556">
<ele>108</ele>
</trkpt>
<trkpt lat="34.4863975" lon="135.530055">
<ele>108</ele>
</trkpt>
<trkpt lat="34.4863975" lon="135.530055">
<ele>108</ele>
</trkpt>
<trkpt lat="34.4868525" lon="135.52982444444444">
<ele>108</ele>
</trkpt>
<trkpt lat="34.4868525" lon="135.52982444444444">
<ele>108</ele>
</trkpt>
<trkpt lat="34.487298611111115" lon="135.52974944444443">
<ele>105</ele>
</trkpt>
<trkpt lat="34.487298611111115" lon="135.52974944444443">
<ele>105</ele>
</trkpt>
<trkpt lat="34.48764305555556" lon="135.5297336111111">
<ele>103</ele>
</trkpt>
<trkpt lat="34.48764305555556" lon="135.5297336111111">
<ele>103</ele>
</trkpt>
<trkpt lat="34.48800972222222" lon="135.52964777777777">
<ele>99</ele>
</trkpt>
<trkpt lat="34.48800972222222" lon="135.52964777777777">
<ele>99</ele>
</trkpt>
<trkpt lat="34.4883675" lon="135.52936916666667">
<ele>99</ele>
</trkpt>
<trkpt lat="34.4883675" lon="135.52936916666667">
<ele>99</ele>
</trkpt>
<trkpt lat="34.4890475" lon="135.52868305555555">
<ele>99</ele>
</trkpt>
<trkpt lat="34.4890475" lon="135.52868305555555">
<ele>99</ele>
</trkpt>
<trkpt lat="34.48931694444445" lon="135.52854916666666">
<ele>99</ele>
</trkpt>
<trkpt lat="34.48931694444445" lon="135.52854916666666">
<ele>99</ele>
</trkpt>
<trkpt lat="34.490006111111114" lon="135.52864555555556">
<ele>98</ele>
</trkpt>
<trkpt lat="34.490006111111114" lon="135.52864555555556">
<ele>98</ele>
</trkpt>
<trkpt lat="34.49043888888889" lon="135.5287152777778">
<ele>98</ele>
</trkpt>
<trkpt lat="34.49043888888889" lon="135.5287152777778">
<ele>98</ele>
</trkpt>
<trkpt lat="34.49080111111111" lon="135.52856527777777">
<ele>97</ele>
</trkpt>
<trkpt lat="34.49080111111111" lon="135.52856527777777">
<ele>97</ele>
</trkpt>
<trkpt lat="34.491216111111115" lon="135.52806166666667">
<ele>95</ele>
</trkpt>
<trkpt lat="34.491216111111115" lon="135.52806166666667">
<ele>95</ele>
</trkpt>
<trkpt lat="34.49144583333333" lon="135.52761666666666">
<ele>93</ele>
</trkpt>
<trkpt lat="34.49144583333333" lon="135.52761666666666">
<ele>93</ele>
</trkpt>
<trkpt lat="34.491710833333336" lon="135.52741305555554">
<ele>91</ele>
</trkpt>
<trkpt lat="34.491710833333336" lon="135.52741305555554">
<ele>91</ele>
</trkpt>
<trkpt lat="34.492395555555554" lon="135.52723083333333">
<ele>89</ele>
</trkpt>
<trkpt lat="34.492395555555554" lon="135.52723083333333">
<ele>89</ele>
</trkpt>
<trkpt lat="34.49278861111111" lon="135.52718277777777">
<ele>90</ele>
</trkpt>
<trkpt lat="34.49278861111111" lon="135.52718277777777">
<ele>90</ele>
</trkpt>
<trkpt lat="34.49304027777778" lon="135.52713444444444">
<ele>89</ele>
</trkpt>
<trkpt lat="34.49304027777778" lon="135.52713444444444">
<ele>89</ele>
</trkpt>
<trkpt lat="34.49342444444444" lon="135.52718277777777">
<ele>88</ele>
</trkpt>
<trkpt lat="34.49342444444444" lon="135.52718277777777">
<ele>88</ele>
</trkpt>
<trkpt lat="34.49364527777778" lon="135.52717194444443">
<ele>88</ele>
</trkpt>
<trkpt lat="34.49364527777778" lon="135.52717194444443">
<ele>88</ele>
</trkpt>
<trkpt lat="34.49386166666667" lon="135.52702722222222">
<ele>89</ele>
</trkpt>
<trkpt lat="34.49386166666667" lon="135.52702722222222">
<ele>89</ele>
</trkpt>
<trkpt lat="34.49398111111111" lon="135.52690416666667">
<ele>88</ele>
</trkpt>
<trkpt lat="34.49398111111111" lon="135.52690416666667">
<ele>88</ele>
</trkpt>
<trkpt lat="34.494321666666664" lon="135.52683972222223">
<ele>87</ele>
</trkpt>
<trkpt lat="34.494321666666664" lon="135.52683972222223">
<ele>87</ele>
</trkpt>
<trkpt lat="34.495021666666666" lon="135.52663333333334">
<ele>80</ele>
</trkpt>
<trkpt lat="34.495021666666666" lon="135.52663333333334">
<ele>80</ele>
</trkpt>
<trkpt lat="34.49568194444444" lon="135.5266388888889">
<ele>81</ele>
</trkpt>
<trkpt lat="34.49568194444444" lon="135.5266388888889">
<ele>81</ele>
</trkpt>
<trkpt lat="34.49589388888889" lon="135.52662555555557">
<ele>80</ele>
</trkpt>
<trkpt lat="34.49589388888889" lon="135.52662555555557">
<ele>80</ele>
</trkpt>
<trkpt lat="34.49644111111111" lon="135.5264513888889">
<ele>79</ele>
</trkpt>
<trkpt lat="34.49644111111111" lon="135.5264513888889">
<ele>79</ele>
</trkpt>
<trkpt lat="34.496851666666664" lon="135.52618333333334">
<ele>79</ele>
</trkpt>
<trkpt lat="34.496851666666664" lon="135.52618333333334">
<ele>79</ele>
</trkpt>
<trkpt lat="34.49727583333333" lon="135.525985">
<ele>78</ele>
</trkpt>
<trkpt lat="34.49727583333333" lon="135.525985">
<ele>78</ele>
</trkpt>
<trkpt lat="34.49758972222222" lon="135.52595555555556">
<ele>78</ele>
</trkpt>
<trkpt lat="34.49758972222222" lon="135.52595555555556">
<ele>78</ele>
</trkpt>
<trkpt lat="34.49823444444444" lon="135.52606">
<ele>77</ele>
</trkpt>
<trkpt lat="34.49823444444444" lon="135.52606">
<ele>77</ele>
</trkpt>
<trkpt lat="34.49860555555556" lon="135.52598777777777">
<ele>78</ele>
</trkpt>
<trkpt lat="34.49860555555556" lon="135.52598777777777">
<ele>78</ele>
</trkpt>
<trkpt lat="34.499203888888886" lon="135.52574916666666">
<ele>78</ele>
</trkpt>
<trkpt lat="34.499203888888886" lon="135.52574916666666">
<ele>78</ele>
</trkpt>
<trkpt lat="34.49948166666667" lon="135.52550555555555">
<ele>79</ele>
</trkpt>
<trkpt lat="34.49948166666667" lon="135.52550555555555">
<ele>79</ele>
</trkpt>
<trkpt lat="34.50006388888889" lon="135.5249161111111">
<ele>79</ele>
</trkpt>
<trkpt lat="34.50006388888889" lon="135.5249161111111">
<ele>79</ele>
</trkpt>
<trkpt lat="34.50055833333333" lon="135.52325472222222">
<ele>69</ele>
</trkpt>
<trkpt lat="34.50055833333333" lon="135.52325472222222">
<ele>69</ele>
</trkpt>
<trkpt lat="34.500955833333336" lon="135.521915">
<ele>67</ele>
</trkpt>
<trkpt lat="34.500955833333336" lon="135.521915">
<ele>67</ele>
</trkpt>
<trkpt lat="34.5009825" lon="135.52102555555555">
<ele>68</ele>
</trkpt>
<trkpt lat="34.5009825" lon="135.52102555555555">
<ele>68</ele>
</trkpt>
<trkpt lat="34.50100888888889" lon="135.5198572222222">
<ele>69</ele>
</trkpt>
<trkpt lat="34.50100888888889" lon="135.5198572222222">
<ele>69</ele>
</trkpt>
<trkpt lat="34.501" lon="135.51936444444445">
<ele>68</ele>
</trkpt>
<trkpt lat="34.501" lon="135.51936444444445">
<ele>68</ele>
</trkpt>
<trkpt lat="34.50091166666667" lon="135.51875333333334">
<ele>71</ele>
</trkpt>
<trkpt lat="34.50091166666667" lon="135.51875333333334">
<ele>71</ele>
</trkpt>
<trkpt lat="34.50077916666667" lon="135.5182497222222">
<ele>74</ele>
</trkpt>
<trkpt lat="34.50077916666667" lon="135.5182497222222">
<ele>74</ele>
</trkpt>
<trkpt lat="34.50056722222222" lon="135.51788527777776">
<ele>75</ele>
</trkpt>
<trkpt lat="34.50056722222222" lon="135.51788527777776">
<ele>75</ele>
</trkpt>
<trkpt lat="34.49984833333333" lon="135.5171672222222">
<ele>79</ele>
</trkpt>
<trkpt lat="34.49984833333333" lon="135.5171672222222">
<ele>79</ele>
</trkpt>
<trkpt lat="34.499340277777776" lon="135.51645444444443">
<ele>78</ele>
</trkpt>
<trkpt lat="34.499340277777776" lon="135.51645444444443">
<ele>78</ele>
</trkpt>
<trkpt lat="34.49848361111111" lon="135.51545777777778">
<ele>78</ele>
</trkpt>
<trkpt lat="34.49848361111111" lon="135.51545777777778">
<ele>78</ele>
</trkpt>
<trkpt lat="34.49970166666667" lon="135.51358222222223">
<ele>79</ele>
</trkpt>
<trkpt lat="34.49970166666667" lon="135.51358222222223">
<ele>79</ele>
</trkpt>
<trkpt lat="34.50004611111111" lon="135.51242472222222">
<ele>80</ele>
</trkpt>
<trkpt lat="34.50004611111111" lon="135.51242472222222">
<ele>80</ele>
</trkpt>
<trkpt lat="34.500681944444445" lon="135.51268194444444">
<ele>79</ele>
</trkpt>
<trkpt lat="34.500681944444445" lon="135.51268194444444">
<ele>79</ele>
</trkpt>
<trkpt lat="34.501335555555556" lon="135.51269277777777">
<ele>79</ele>
</trkpt>
<trkpt lat="34.501335555555556" lon="135.51269277777777">
<ele>79</ele>
</trkpt>
<trkpt lat="34.50257222222222" lon="135.51228555555556">
<ele>71</ele>
</trkpt>
<trkpt lat="34.50257222222222" lon="135.51228555555556">
<ele>71</ele>
</trkpt>
<trkpt lat="34.50290777777778" lon="135.5121247222222">
<ele>69</ele>
</trkpt>
<trkpt lat="34.50290305555556" lon="135.51211194444446">
<ele>69</ele>
</trkpt>
<trkpt lat="34.50289194444444" lon="135.51211805555556">
<ele>70</ele>
</trkpt>
<trkpt lat="34.50255888888889" lon="135.51128111111112">
<ele>68</ele>
</trkpt>
<trkpt lat="34.50240888888889" lon="135.5109061111111">
<ele>68</ele>
</trkpt>
<trkpt lat="34.502291944444444" lon="135.5106188888889">
<ele>68</ele>
</trkpt>
<trkpt lat="34.50213388888889" lon="135.51024388888888">
<ele>68</ele>
</trkpt>
<trkpt lat="34.502" lon="135.5099688888889">
<ele>69</ele>
</trkpt>
<trkpt lat="34.501716944444446" lon="135.50945611111112">
<ele>69</ele>
</trkpt>
<trkpt lat="34.50168388888889" lon="135.5094061111111">
<ele>69</ele>
</trkpt>
<trkpt lat="34.50165" lon="135.50935611111112">
<ele>69</ele>
</trkpt>
<trkpt lat="34.5016" lon="135.5092688888889">
<ele>69</ele>
</trkpt>
<trkpt lat="34.50145" lon="135.5089311111111">
<ele>68</ele>
</trkpt>
<trkpt lat="34.501308888888886" lon="135.50844388888888">
<ele>69</ele>
</trkpt>
<trkpt lat="34.501225" lon="135.5080188888889">
<ele>70</ele>
</trkpt>
<trkpt lat="34.50115" lon="135.50763111111112">
<ele>72</ele>
</trkpt>
<trkpt lat="34.50113388888889" lon="135.507635">
<ele>71</ele>
</trkpt>
<trkpt lat="34.50113388888889" lon="135.507635">
<ele>71</ele>
</trkpt>
<trkpt lat="34.50060777777778" lon="135.50763416666666">
<ele>71</ele>
</trkpt>
<trkpt lat="34.50060777777778" lon="135.50763416666666">
<ele>71</ele>
</trkpt>
<trkpt lat="34.50058138888889" lon="135.50817527777778">
<ele>69</ele>
</trkpt>
<trkpt lat="34.50058138888889" lon="135.50817527777778">
<ele>69</ele>
</trkpt>
<trkpt lat="34.50047527777778" lon="135.50773055555555">
<ele>70</ele>
</trkpt>
<trkpt lat="34.50047527777778" lon="135.50773055555555">
<ele>70</ele>
</trkpt>
<trkpt lat="34.500435555555555" lon="135.50735">
<ele>72</ele>
</trkpt>
<trkpt lat="34.500435555555555" lon="135.50735">
<ele>72</ele>
</trkpt>
<trkpt lat="34.50009555555555" lon="135.5066213888889">
<ele>74</ele>
</trkpt>
<trkpt lat="34.50009555555555" lon="135.5066213888889">
<ele>74</ele>
</trkpt>
<trkpt lat="34.49919916666666" lon="135.5066588888889">
<ele>76</ele>
</trkpt>
<trkpt lat="34.49919916666666" lon="135.5066588888889">
<ele>76</ele>
</trkpt>
<trkpt lat="34.499137222222224" lon="135.50662666666668">
<ele>76</ele>
</trkpt>
<trkpt lat="34.499137222222224" lon="135.50662666666668">
<ele>76</ele>
</trkpt>
<trkpt lat="34.49906222222222" lon="135.5066213888889">
<ele>76</ele>
</trkpt>
<trkpt lat="34.49906222222222" lon="135.5066213888889">
<ele>76</ele>
</trkpt>
<trkpt lat="34.49773722222222" lon="135.5047563888889">
<ele>79</ele>
</trkpt>
<trkpt lat="34.49773722222222" lon="135.5047563888889">
<ele>79</ele>
</trkpt>
<trkpt lat="34.49751638888889" lon="135.5042636111111">
<ele>79</ele>
</trkpt>
<trkpt lat="34.49751638888889" lon="135.5042636111111">
<ele>79</ele>
</trkpt>
<trkpt lat="34.497565" lon="135.50367416666666">
<ele>75</ele>
</trkpt>
<trkpt lat="34.497565" lon="135.50367416666666">
<ele>75</ele>
</trkpt>
<trkpt lat="34.49764888888889" lon="135.50338472222222">
<ele>74</ele>
</trkpt>
<trkpt lat="34.49764888888889" lon="135.50338472222222">
<ele>74</ele>
</trkpt>
<trkpt lat="34.49767527777778" lon="135.503015">
<ele>72</ele>
</trkpt>
<trkpt lat="34.49767527777778" lon="135.503015">
<ele>72</ele>
</trkpt>
<trkpt lat="34.49818333333333" lon="135.50242555555556">
<ele>70</ele>
</trkpt>
<trkpt lat="34.49818333333333" lon="135.50242555555556">
<ele>70</ele>
</trkpt>
<trkpt lat="34.498625" lon="135.5020986111111">
<ele>70</ele>
</trkpt>
<trkpt lat="34.498625" lon="135.5020986111111">
<ele>70</ele>
</trkpt>
<trkpt lat="34.49907527777778" lon="135.50208777777777">
<ele>71</ele>
</trkpt>
<trkpt lat="34.49907527777778" lon="135.50208777777777">
<ele>71</ele>
</trkpt>
<trkpt lat="34.49919027777778" lon="135.5019325">
<ele>70</ele>
</trkpt>
<trkpt lat="34.49919027777778" lon="135.5019325">
<ele>70</ele>
</trkpt>
<trkpt lat="34.49992777777778" lon="135.50182527777778">
<ele>66</ele>
</trkpt>
<trkpt lat="34.49992777777778" lon="135.50182527777778">
<ele>66</ele>
</trkpt>
<trkpt lat="34.50007388888889" lon="135.50164833333332">
<ele>63</ele>
</trkpt>
<trkpt lat="34.50007388888889" lon="135.50164833333332">
<ele>63</ele>
</trkpt>
<trkpt lat="34.50017777777778" lon="135.5013725">
<ele>61</ele>
</trkpt>
<trkpt lat="34.50017777777778" lon="135.5013725">
<ele>61</ele>
</trkpt>
<trkpt lat="34.500524444444444" lon="135.5009572222222">
<ele>60</ele>
</trkpt>
<trkpt lat="34.500524444444444" lon="135.5009572222222">
<ele>60</ele>
</trkpt>
<trkpt lat="34.500842222222225" lon="135.50080166666666">
<ele>63</ele>
</trkpt>
<trkpt lat="34.500842222222225" lon="135.50080166666666">
<ele>63</ele>
</trkpt>
<trkpt lat="34.50111611111111" lon="135.50082333333333">
<ele>64</ele>
</trkpt>
<trkpt lat="34.50111611111111" lon="135.50082333333333">
<ele>64</ele>
</trkpt>
<trkpt lat="34.50134805555555" lon="135.501">
<ele>64</ele>
</trkpt>
<trkpt lat="34.50134805555555" lon="135.501">
<ele>64</ele>
</trkpt>
<trkpt lat="34.501783055555556" lon="135.50111">
<ele>64</ele>
</trkpt>
<trkpt lat="34.501783055555556" lon="135.50111">
<ele>64</ele>
</trkpt>
<trkpt lat="34.50206333333333" lon="135.50123583333334">
<ele>63</ele>
</trkpt>
<trkpt lat="34.50206333333333" lon="135.50123583333334">
<ele>63</ele>
</trkpt>
<trkpt lat="34.50222472222222" lon="135.50120361111112">
<ele>62</ele>
</trkpt>
<trkpt lat="34.50222472222222" lon="135.50120361111112">
<ele>62</ele>
</trkpt>
<trkpt lat="34.502432222222225" lon="135.50098944444446">
<ele>62</ele>
</trkpt>
<trkpt lat="34.502432222222225" lon="135.50098944444446">
<ele>62</ele>
</trkpt>
<trkpt lat="34.502739166666665" lon="135.50075611111112">
<ele>62</ele>
</trkpt>
<trkpt lat="34.502739166666665" lon="135.50075611111112">
<ele>62</ele>
</trkpt>
<trkpt lat="34.50323138888889" lon="135.50028194444445">
<ele>61</ele>
</trkpt>
<trkpt lat="34.50323138888889" lon="135.50028194444445">
<ele>61</ele>
</trkpt>
<trkpt lat="34.50325361111111" lon="135.50021222222222">
<ele>61</ele>
</trkpt>
<trkpt lat="34.50325361111111" lon="135.50021222222222">
<ele>61</ele>
</trkpt>
<trkpt lat="34.50336611111111" lon="135.5001347222222">
<ele>61</ele>
</trkpt>
<trkpt lat="34.50336611111111" lon="135.5001347222222">
<ele>61</ele>
</trkpt>
<trkpt lat="34.50342138888889" lon="135.50015333333334">
<ele>61</ele>
</trkpt>
<trkpt lat="34.50342138888889" lon="135.50015333333334">
<ele>61</ele>
</trkpt>
<trkpt lat="34.5036775" lon="135.5000275">
<ele>60</ele>
</trkpt>
<trkpt lat="34.5036775" lon="135.5000275">
<ele>60</ele>
</trkpt>
<trkpt lat="34.50362416666667" lon="135.49910583333335">
<ele>60</ele>
</trkpt>
<trkpt lat="34.50362416666667" lon="135.49910583333335">
<ele>60</ele>
</trkpt>
<trkpt lat="34.50340777777778" lon="135.49863944444445">
<ele>60</ele>
</trkpt>
<trkpt lat="34.50340777777778" lon="135.49863944444445">
<ele>60</ele>
</trkpt>
<trkpt lat="34.50327083333333" lon="135.497975">
<ele>61</ele>
</trkpt>
<trkpt lat="34.50327083333333" lon="135.497975">
<ele>61</ele>
</trkpt>
<trkpt lat="34.50358" lon="135.49785722222222">
<ele>60</ele>
</trkpt>
<trkpt lat="34.50358" lon="135.49785722222222">
<ele>60</ele>
</trkpt>
<trkpt lat="34.503845" lon="135.49759444444445">
<ele>60</ele>
</trkpt>
<trkpt lat="34.503845" lon="135.49759444444445">
<ele>60</ele>
</trkpt>
<trkpt lat="34.50392" lon="135.49725694444444">
<ele>60</ele>
</trkpt>
<trkpt lat="34.50392" lon="135.49725694444444">
<ele>60</ele>
</trkpt>
<trkpt lat="34.50376083333333" lon="135.49680138888888">
<ele>49</ele>
</trkpt>
<trkpt lat="34.50376083333333" lon="135.49680138888888">
<ele>49</ele>
</trkpt>
<trkpt lat="34.503699166666664" lon="135.49665666666667">
<ele>49</ele>
</trkpt>
<trkpt lat="34.503699166666664" lon="135.49665666666667">
<ele>49</ele>
</trkpt>
<trkpt lat="34.503699166666664" lon="135.49648527777777">
<ele>49</ele>
</trkpt>
<trkpt lat="34.503699166666664" lon="135.49648527777777">
<ele>49</ele>
</trkpt>
<trkpt lat="34.503747777777775" lon="135.49623888888888">
<ele>49</ele>
</trkpt>
<trkpt lat="34.503747777777775" lon="135.49623888888888">
<ele>49</ele>
</trkpt>
<trkpt lat="34.50387583333333" lon="135.49590666666666">
<ele>49</ele>
</trkpt>
<trkpt lat="34.50387583333333" lon="135.49590666666666">
<ele>49</ele>
</trkpt>
<trkpt lat="34.50386694444445" lon="135.4956011111111">
<ele>49</ele>
</trkpt>
<trkpt lat="34.50386694444445" lon="135.4956011111111">
<ele>49</ele>
</trkpt>
<trkpt lat="34.503482777777776" lon="135.49469027777778">
<ele>44</ele>
</trkpt>
<trkpt lat="34.503482777777776" lon="135.49469027777778">
<ele>44</ele>
</trkpt>
<trkpt lat="34.5039375" lon="135.49474361111112">
<ele>45</ele>
</trkpt>
    </trkseg>
  </trk>
</gpx>