<?xml version="1.0" encoding="UTF-8"?>
<gpx version="1.1"
     creator="KMLtoGPX"
     xmlns="http://www.topografix.com/GPX/1/1">
  <metadata>
    <name>Swiss train course on the tracks</name>
    <desc>線路跡をスイスイ　トレインコース</desc>
    <bounds minlat="35.05245111111111" minlon="134.91774416666667" maxlat="35.07835388888889" maxlon="134.92869805555554"/>
  </metadata>
  <trk>
    <name>Swiss train course on the tracks</name>
    <trkseg>
<trkpt lat="35.07835388888889" lon="134.92508">
<ele>135</ele>
</trkpt>
<trkpt lat="35.07833194444444" lon="134.92509805555557">
<ele>134</ele>
</trkpt>
<trkpt lat="35.07828194444444" lon="134.92516111111112">
<ele>134</ele>
</trkpt>
<trkpt lat="35.07813194444444" lon="134.92527305555555">
<ele>134</ele>
</trkpt>
<trkpt lat="35.07768194444444" lon="134.92541111111112">
<ele>133</ele>
</trkpt>
<trkpt lat="35.077623055555556" lon="134.92544805555556">
<ele>132</ele>
</trkpt>
<trkpt lat="35.07758194444445" lon="134.92552305555554">
<ele>132</ele>
</trkpt>
<trkpt lat="35.077315" lon="134.92632305555554">
<ele>131</ele>
</trkpt>
<trkpt lat="35.076878055555554" lon="134.9276561111111">
<ele>124</ele>
</trkpt>
<trkpt lat="35.076878055555554" lon="134.9276561111111">
<ele>124</ele>
</trkpt>
<trkpt lat="35.07682388888889" lon="134.92782305555556">
<ele>123</ele>
</trkpt>
<trkpt lat="35.07654" lon="134.92869805555554">
<ele>122</ele>
</trkpt>
<trkpt lat="35.076211111111114" lon="134.92851">
<ele>121</ele>
</trkpt>
<trkpt lat="35.076211111111114" lon="134.92851">
<ele>121</ele>
</trkpt>
<trkpt lat="35.07588194444445" lon="134.92832305555555">
<ele>120</ele>
</trkpt>
<trkpt lat="35.075565" lon="134.92814805555557">
<ele>120</ele>
</trkpt>
<trkpt lat="35.07527388888889" lon="134.92796">
<ele>119</ele>
</trkpt>
<trkpt lat="35.07519" lon="134.92792305555557">
<ele>119</ele>
</trkpt>
<trkpt lat="35.074715" lon="134.927735">
<ele>119</ele>
</trkpt>
<trkpt lat="35.07420694444444" lon="134.92756">
<ele>118</ele>
</trkpt>
<trkpt lat="35.074173888888886" lon="134.92754805555555">
<ele>118</ele>
</trkpt>
<trkpt lat="35.07333194444445" lon="134.927285">
<ele>117</ele>
</trkpt>
<trkpt lat="35.07250694444444" lon="134.92699805555554">
<ele>116</ele>
</trkpt>
<trkpt lat="35.07134111111111" lon="134.9265611111111">
<ele>114</ele>
</trkpt>
<trkpt lat="35.07100388888889" lon="134.92642388888888">
<ele>113</ele>
</trkpt>
<trkpt lat="35.07100388888889" lon="134.92642388888888">
<ele>113</ele>
</trkpt>
<trkpt lat="35.070633055555554" lon="134.92627305555555">
<ele>112</ele>
</trkpt>
<trkpt lat="35.07047388888889" lon="134.92622305555557">
<ele>112</ele>
</trkpt>
<trkpt lat="35.07030805555556" lon="134.92617305555555">
<ele>112</ele>
</trkpt>
<trkpt lat="35.070098888888886" lon="134.9261361111111">
<ele>111</ele>
</trkpt>
<trkpt lat="35.06984111111111" lon="134.92654805555554">
<ele>111</ele>
</trkpt>
<trkpt lat="35.06954888888889" lon="134.92684805555555">
<ele>110</ele>
</trkpt>
<trkpt lat="35.06943111111111" lon="134.926945">
<ele>110</ele>
</trkpt>
<trkpt lat="35.06943111111111" lon="134.926945">
<ele>110</ele>
</trkpt>
<trkpt lat="35.06929111111111" lon="134.9270611111111">
<ele>110</ele>
</trkpt>
<trkpt lat="35.06899888888889" lon="134.92724805555557">
<ele>109</ele>
</trkpt>
<trkpt lat="35.06877388888889" lon="134.92733611111112">
<ele>109</ele>
</trkpt>
<trkpt lat="35.068508055555554" lon="134.92739805555556">
<ele>109</ele>
</trkpt>
<trkpt lat="35.06798305555556" lon="134.9274861111111">
<ele>108</ele>
</trkpt>
<trkpt lat="35.06655" lon="134.9277361111111">
<ele>107</ele>
</trkpt>
<trkpt lat="35.065958055555555" lon="134.92782305555556">
<ele>107</ele>
</trkpt>
<trkpt lat="35.065783055555556" lon="134.9278611111111">
<ele>107</ele>
</trkpt>
<trkpt lat="35.06536611111111" lon="134.92792305555557">
<ele>106</ele>
</trkpt>
<trkpt lat="35.06493305555556" lon="134.92801111111112">
<ele>106</ele>
</trkpt>
<trkpt lat="35.064075" lon="134.92811111111112">
<ele>106</ele>
</trkpt>
<trkpt lat="35.06406805555556" lon="134.92811111111112">
<ele>105</ele>
</trkpt>
<trkpt lat="35.06406805555556" lon="134.92811111111112">
<ele>105</ele>
</trkpt>
<trkpt lat="35.064075" lon="134.92811111111112">
<ele>106</ele>
</trkpt>
<trkpt lat="35.06413305555556" lon="134.92677305555554">
<ele>107</ele>
</trkpt>
<trkpt lat="35.06416611111111" lon="134.92607305555555">
<ele>107</ele>
</trkpt>
<trkpt lat="35.06421611111111" lon="134.92571805555556">
<ele>107</ele>
</trkpt>
<trkpt lat="35.064215" lon="134.92571805555556">
<ele>107</ele>
</trkpt>
<trkpt lat="35.06421611111111" lon="134.9257111111111">
<ele>107</ele>
</trkpt>
<trkpt lat="35.06421611111111" lon="134.92549805555555">
<ele>107</ele>
</trkpt>
<trkpt lat="35.06416611111111" lon="134.9254861111111">
<ele>107</ele>
</trkpt>
<trkpt lat="35.06394111111111" lon="134.92547305555556">
<ele>107</ele>
</trkpt>
<trkpt lat="35.06344194444444" lon="134.9254611111111">
<ele>107</ele>
</trkpt>
<trkpt lat="35.0634" lon="134.9254611111111">
<ele>107</ele>
</trkpt>
<trkpt lat="35.063116944444445" lon="134.92544805555556">
<ele>107</ele>
</trkpt>
<trkpt lat="35.062958055555555" lon="134.92544805555556">
<ele>107</ele>
</trkpt>
<trkpt lat="35.062825" lon="134.92542305555557">
<ele>107</ele>
</trkpt>
<trkpt lat="35.06211694444445" lon="134.92534805555556">
<ele>107</ele>
</trkpt>
<trkpt lat="35.061625" lon="134.92529805555554">
<ele>107</ele>
</trkpt>
<trkpt lat="35.0611" lon="134.9252361111111">
<ele>107</ele>
</trkpt>
<trkpt lat="35.06105" lon="134.92522305555556">
<ele>107</ele>
</trkpt>
<trkpt lat="35.06069194444444" lon="134.92517305555555">
<ele>106</ele>
</trkpt>
<trkpt lat="35.06035888888889" lon="134.92514805555555">
<ele>106</ele>
</trkpt>
<trkpt lat="35.060183888888886" lon="134.92514805555555">
<ele>106</ele>
</trkpt>
<trkpt lat="35.059175" lon="134.9251111111111">
<ele>106</ele>
</trkpt>
<trkpt lat="35.0587" lon="134.9250861111111">
<ele>105</ele>
</trkpt>
<trkpt lat="35.05820888888889" lon="134.92506111111112">
<ele>105</ele>
</trkpt>
<trkpt lat="35.05780111111111" lon="134.92502305555556">
<ele>105</ele>
</trkpt>
<trkpt lat="35.05755111111111" lon="134.92499805555556">
<ele>104</ele>
</trkpt>
<trkpt lat="35.05721694444444" lon="134.92497305555557">
<ele>103</ele>
</trkpt>
<trkpt lat="35.05625888888889" lon="134.92489805555556">
<ele>103</ele>
</trkpt>
<trkpt lat="35.05595111111111" lon="134.9248611111111">
<ele>103</ele>
</trkpt>
<trkpt lat="35.05565111111111" lon="134.92479805555556">
<ele>102</ele>
</trkpt>
<trkpt lat="35.055126111111115" lon="134.9246738888889">
<ele>102</ele>
</trkpt>
<trkpt lat="35.054543055555555" lon="134.9245361111111">
<ele>101</ele>
</trkpt>
<trkpt lat="35.05446805555555" lon="134.9245238888889">
<ele>101</ele>
</trkpt>
<trkpt lat="35.05410111111111" lon="134.9244361111111">
<ele>100</ele>
</trkpt>
<trkpt lat="35.05365111111111" lon="134.9243238888889">
<ele>100</ele>
</trkpt>
<trkpt lat="35.05345888888889" lon="134.92426111111112">
<ele>100</ele>
</trkpt>
<trkpt lat="35.053068055555556" lon="134.9240988888889">
<ele>100</ele>
</trkpt>
<trkpt lat="35.053018055555555" lon="134.9240738888889">
<ele>100</ele>
</trkpt>
<trkpt lat="35.05250111111111" lon="134.9238611111111">
<ele>100</ele>
</trkpt>
<trkpt lat="35.05245111111111" lon="134.92383611111111">
<ele>100</ele>
</trkpt>
<trkpt lat="35.05253388888889" lon="134.9237238888889">
<ele>100</ele>
</trkpt>
<trkpt lat="35.05270111111111" lon="134.9235238888889">
<ele>100</ele>
</trkpt>
<trkpt lat="35.05282388888889" lon="134.923335">
<ele>100</ele>
</trkpt>
<trkpt lat="35.05282388888889" lon="134.923335">
<ele>100</ele>
</trkpt>
<trkpt lat="35.05305111111111" lon="134.9229861111111">
<ele>100</ele>
</trkpt>
<trkpt lat="35.05342611111111" lon="134.92234888888888">
<ele>101</ele>
</trkpt>
<trkpt lat="35.05374194444445" lon="134.9217988888889">
<ele>103</ele>
</trkpt>
<trkpt lat="35.053893055555555" lon="134.9215111111111">
<ele>102</ele>
</trkpt>
<trkpt lat="35.05392611111111" lon="134.92153611111112">
<ele>102</ele>
</trkpt>
<trkpt lat="35.05428305555556" lon="134.9217588888889">
<ele>101</ele>
</trkpt>
<trkpt lat="35.05428305555556" lon="134.9217588888889">
<ele>101</ele>
</trkpt>
<trkpt lat="35.05446805555555" lon="134.92187388888888">
<ele>101</ele>
</trkpt>
<trkpt lat="35.05448305555556" lon="134.92188611111112">
<ele>101</ele>
</trkpt>
<trkpt lat="35.05448305555556" lon="134.92188611111112">
<ele>101</ele>
</trkpt>
<trkpt lat="35.05450388888889" lon="134.9218375">
<ele>101</ele>
</trkpt>
<trkpt lat="35.054524444444446" lon="134.9217886111111">
<ele>101</ele>
</trkpt>
<trkpt lat="35.05454527777778" lon="134.92174">
<ele>101</ele>
</trkpt>
<trkpt lat="35.054565833333335" lon="134.9216913888889">
<ele>101</ele>
</trkpt>
<trkpt lat="35.054586666666665" lon="134.92164277777778">
<ele>101</ele>
</trkpt>
<trkpt lat="35.054607222222224" lon="134.92159388888888">
<ele>101</ele>
</trkpt>
<trkpt lat="35.054628055555554" lon="134.92154527777777">
<ele>101</ele>
</trkpt>
<trkpt lat="35.05464861111111" lon="134.92149666666666">
<ele>101</ele>
</trkpt>
<trkpt lat="35.05466944444444" lon="134.92144805555554">
<ele>101</ele>
</trkpt>
<trkpt lat="35.05469027777778" lon="134.92139916666667">
<ele>101</ele>
</trkpt>
<trkpt lat="35.05471083333333" lon="134.92135055555556">
<ele>101</ele>
</trkpt>
<trkpt lat="35.05473166666667" lon="134.92130194444445">
<ele>101</ele>
</trkpt>
<trkpt lat="35.05475222222222" lon="134.92125305555555">
<ele>101</ele>
</trkpt>
<trkpt lat="35.05477305555556" lon="134.92120444444444">
<ele>101</ele>
</trkpt>
<trkpt lat="35.05479361111111" lon="134.92115583333333">
<ele>102</ele>
</trkpt>
<trkpt lat="35.054814444444446" lon="134.92110722222222">
<ele>102</ele>
</trkpt>
<trkpt lat="35.05483527777778" lon="134.92105833333332">
<ele>102</ele>
</trkpt>
<trkpt lat="35.054855833333335" lon="134.9210097222222">
<ele>102</ele>
</trkpt>
<trkpt lat="35.054876666666665" lon="134.9209611111111">
<ele>102</ele>
</trkpt>
<trkpt lat="35.05489722222222" lon="134.9209125">
<ele>102</ele>
</trkpt>
<trkpt lat="35.054918055555554" lon="134.92086361111112">
<ele>102</ele>
</trkpt>
<trkpt lat="35.05493861111111" lon="134.920815">
<ele>102</ele>
</trkpt>
<trkpt lat="35.05495944444444" lon="134.9207663888889">
<ele>102</ele>
</trkpt>
<trkpt lat="35.05498" lon="134.9207175">
<ele>102</ele>
</trkpt>
<trkpt lat="35.05500083333333" lon="134.92066888888888">
<ele>102</ele>
</trkpt>
<trkpt lat="35.05502166666667" lon="134.92062027777777">
<ele>102</ele>
</trkpt>
<trkpt lat="35.05504222222222" lon="134.92057166666666">
<ele>102</ele>
</trkpt>
<trkpt lat="35.05506305555556" lon="134.9205227777778">
<ele>102</ele>
</trkpt>
<trkpt lat="35.05508361111111" lon="134.92047416666668">
<ele>102</ele>
</trkpt>
<trkpt lat="35.055104444444446" lon="134.92042555555557">
<ele>102</ele>
</trkpt>
<trkpt lat="35.055125" lon="134.92037666666667">
<ele>102</ele>
</trkpt>
<trkpt lat="35.055126944444446" lon="134.92037277777777">
<ele>102</ele>
</trkpt>
<trkpt lat="35.055126944444446" lon="134.92037277777777">
<ele>102</ele>
</trkpt>
<trkpt lat="35.05515527777778" lon="134.92032083333334">
<ele>102</ele>
</trkpt>
<trkpt lat="35.05518361111111" lon="134.92026916666666">
<ele>102</ele>
</trkpt>
<trkpt lat="35.055212222222224" lon="134.9202175">
<ele>102</ele>
</trkpt>
<trkpt lat="35.05524055555556" lon="134.92016583333333">
<ele>102</ele>
</trkpt>
<trkpt lat="35.05526888888889" lon="134.92011416666668">
<ele>102</ele>
</trkpt>
<trkpt lat="35.0552975" lon="134.9200625">
<ele>102</ele>
</trkpt>
<trkpt lat="35.055325833333335" lon="134.92001083333332">
<ele>102</ele>
</trkpt>
<trkpt lat="35.05535416666667" lon="134.91995916666667">
<ele>102</ele>
</trkpt>
<trkpt lat="35.05538277777778" lon="134.9199075">
<ele>102</ele>
</trkpt>
<trkpt lat="35.05541111111111" lon="134.91985583333334">
<ele>102</ele>
</trkpt>
<trkpt lat="35.055439444444445" lon="134.91980416666667">
<ele>102</ele>
</trkpt>
<trkpt lat="35.05546805555556" lon="134.9197525">
<ele>102</ele>
</trkpt>
<trkpt lat="35.05549638888889" lon="134.91970083333334">
<ele>102</ele>
</trkpt>
<trkpt lat="35.05552472222222" lon="134.91964916666666">
<ele>102</ele>
</trkpt>
<trkpt lat="35.055553333333336" lon="134.9195975">
<ele>102</ele>
</trkpt>
<trkpt lat="35.05558166666667" lon="134.91954583333333">
<ele>103</ele>
</trkpt>
<trkpt lat="35.05561027777778" lon="134.91949416666668">
<ele>103</ele>
</trkpt>
<trkpt lat="35.055638611111114" lon="134.9194425">
<ele>103</ele>
</trkpt>
<trkpt lat="35.05566694444445" lon="134.91939083333332">
<ele>103</ele>
</trkpt>
<trkpt lat="35.05569555555556" lon="134.91933916666667">
<ele>103</ele>
</trkpt>
<trkpt lat="35.05572388888889" lon="134.9192875">
<ele>103</ele>
</trkpt>
<trkpt lat="35.055752222222225" lon="134.91923583333335">
<ele>103</ele>
</trkpt>
<trkpt lat="35.05578083333333" lon="134.91918416666667">
<ele>103</ele>
</trkpt>
<trkpt lat="35.05580916666667" lon="134.9191325">
<ele>103</ele>
</trkpt>
<trkpt lat="35.0558375" lon="134.91908083333334">
<ele>103</ele>
</trkpt>
<trkpt lat="35.05586611111111" lon="134.91902916666666">
<ele>103</ele>
</trkpt>
<trkpt lat="35.05589444444445" lon="134.9189775">
<ele>103</ele>
</trkpt>
<trkpt lat="35.05592277777778" lon="134.91892583333333">
<ele>103</ele>
</trkpt>
<trkpt lat="35.055951388888886" lon="134.91887416666665">
<ele>103</ele>
</trkpt>
<trkpt lat="35.05597972222222" lon="134.9188225">
<ele>103</ele>
</trkpt>
<trkpt lat="35.05600805555556" lon="134.91877083333333">
<ele>103</ele>
</trkpt>
<trkpt lat="35.056036666666664" lon="134.91871916666668">
<ele>103</ele>
</trkpt>
<trkpt lat="35.056065" lon="134.9186675">
<ele>103</ele>
</trkpt>
<trkpt lat="35.05609333333334" lon="134.91861583333332">
<ele>103</ele>
</trkpt>
<trkpt lat="35.05612194444444" lon="134.91856416666667">
<ele>104</ele>
</trkpt>
<trkpt lat="35.056150277777775" lon="134.9185125">
<ele>104</ele>
</trkpt>
<trkpt lat="35.056178611111115" lon="134.91846083333334">
<ele>104</ele>
</trkpt>
<trkpt lat="35.05620722222222" lon="134.91840916666666">
<ele>104</ele>
</trkpt>
<trkpt lat="35.05620722222222" lon="134.91840916666666">
<ele>104</ele>
</trkpt>
<trkpt lat="35.056243611111114" lon="134.91837722222223">
<ele>104</ele>
</trkpt>
<trkpt lat="35.05628" lon="134.918345">
<ele>104</ele>
</trkpt>
<trkpt lat="35.05631638888889" lon="134.91831277777777">
<ele>104</ele>
</trkpt>
<trkpt lat="35.056352777777775" lon="134.91828083333334">
<ele>104</ele>
</trkpt>
<trkpt lat="35.05638916666667" lon="134.91824861111112">
<ele>104</ele>
</trkpt>
<trkpt lat="35.056425555555556" lon="134.91821638888888">
<ele>104</ele>
</trkpt>
<trkpt lat="35.05646194444444" lon="134.91818444444445">
<ele>104</ele>
</trkpt>
<trkpt lat="35.05649833333333" lon="134.91815222222223">
<ele>104</ele>
</trkpt>
<trkpt lat="35.05652333333333" lon="134.91813027777778">
<ele>104</ele>
</trkpt>
<trkpt lat="35.05652333333333" lon="134.91813027777778">
<ele>104</ele>
</trkpt>
<trkpt lat="35.05656611111111" lon="134.91811388888888">
<ele>104</ele>
</trkpt>
<trkpt lat="35.05660888888889" lon="134.9180975">
<ele>104</ele>
</trkpt>
<trkpt lat="35.05665194444445" lon="134.91808111111112">
<ele>104</ele>
</trkpt>
<trkpt lat="35.056694722222225" lon="134.91806472222223">
<ele>104</ele>
</trkpt>
<trkpt lat="35.0567375" lon="134.91804805555554">
<ele>104</ele>
</trkpt>
<trkpt lat="35.056780555555555" lon="134.91803166666668">
<ele>104</ele>
</trkpt>
<trkpt lat="35.056823333333334" lon="134.91801527777778">
<ele>104</ele>
</trkpt>
<trkpt lat="35.05686611111111" lon="134.9179988888889">
<ele>104</ele>
</trkpt>
<trkpt lat="35.05690888888889" lon="134.9179825">
<ele>104</ele>
</trkpt>
<trkpt lat="35.05695194444444" lon="134.9179661111111">
<ele>104</ele>
</trkpt>
<trkpt lat="35.05697111111111" lon="134.91795861111112">
<ele>104</ele>
</trkpt>
<trkpt lat="35.05697111111111" lon="134.91795861111112">
<ele>104</ele>
</trkpt>
<trkpt lat="35.057026388888886" lon="134.91795472222222">
<ele>104</ele>
</trkpt>
<trkpt lat="35.05708166666667" lon="134.91795083333332">
<ele>104</ele>
</trkpt>
<trkpt lat="35.057136944444444" lon="134.91794666666667">
<ele>104</ele>
</trkpt>
<trkpt lat="35.05719222222222" lon="134.91794277777777">
<ele>104</ele>
</trkpt>
<trkpt lat="35.0572475" lon="134.9179388888889">
<ele>104</ele>
</trkpt>
<trkpt lat="35.0573025" lon="134.917935">
<ele>104</ele>
</trkpt>
<trkpt lat="35.057357777777774" lon="134.9179311111111">
<ele>104</ele>
</trkpt>
<trkpt lat="35.05741305555556" lon="134.91792694444445">
<ele>104</ele>
</trkpt>
<trkpt lat="35.05746833333333" lon="134.91792305555555">
<ele>104</ele>
</trkpt>
<trkpt lat="35.05752361111111" lon="134.91791916666668">
<ele>104</ele>
</trkpt>
<trkpt lat="35.05757888888889" lon="134.91791527777778">
<ele>104</ele>
</trkpt>
<trkpt lat="35.057634166666666" lon="134.91791111111112">
<ele>104</ele>
</trkpt>
<trkpt lat="35.05768916666667" lon="134.91790722222223">
<ele>105</ele>
</trkpt>
<trkpt lat="35.057744444444445" lon="134.91790333333333">
<ele>105</ele>
</trkpt>
<trkpt lat="35.05779972222222" lon="134.91789944444446">
<ele>105</ele>
</trkpt>
<trkpt lat="35.057855" lon="134.91789527777777">
<ele>105</ele>
</trkpt>
<trkpt lat="35.05791027777778" lon="134.91789138888888">
<ele>105</ele>
</trkpt>
<trkpt lat="35.057965555555555" lon="134.9178875">
<ele>105</ele>
</trkpt>
<trkpt lat="35.05802055555556" lon="134.9178836111111">
<ele>105</ele>
</trkpt>
<trkpt lat="35.05807583333333" lon="134.9178797222222">
<ele>105</ele>
</trkpt>
<trkpt lat="35.05813111111111" lon="134.91787555555555">
<ele>105</ele>
</trkpt>
<trkpt lat="35.05818638888889" lon="134.91787166666666">
<ele>105</ele>
</trkpt>
<trkpt lat="35.05824166666667" lon="134.9178677777778">
<ele>105</ele>
</trkpt>
<trkpt lat="35.05829694444444" lon="134.9178638888889">
<ele>105</ele>
</trkpt>
<trkpt lat="35.058352222222226" lon="134.91785972222223">
<ele>105</ele>
</trkpt>
<trkpt lat="35.05840722222222" lon="134.91785583333333">
<ele>105</ele>
</trkpt>
<trkpt lat="35.0584625" lon="134.91785194444444">
<ele>105</ele>
</trkpt>
<trkpt lat="35.05851777777778" lon="134.91784805555557">
<ele>105</ele>
</trkpt>
<trkpt lat="35.058573055555556" lon="134.91784388888888">
<ele>105</ele>
</trkpt>
<trkpt lat="35.05862833333333" lon="134.91784">
<ele>105</ele>
</trkpt>
<trkpt lat="35.058683611111114" lon="134.91783611111111">
<ele>105</ele>
</trkpt>
<trkpt lat="35.05873888888889" lon="134.91783222222222">
<ele>105</ele>
</trkpt>
<trkpt lat="35.058793888888886" lon="134.91782833333335">
<ele>105</ele>
</trkpt>
<trkpt lat="35.05884916666667" lon="134.91782416666666">
<ele>105</ele>
</trkpt>
<trkpt lat="35.058904444444444" lon="134.91782027777776">
<ele>105</ele>
</trkpt>
<trkpt lat="35.05895972222222" lon="134.9178163888889">
<ele>105</ele>
</trkpt>
<trkpt lat="35.059015" lon="134.9178125">
<ele>105</ele>
</trkpt>
<trkpt lat="35.05907027777778" lon="134.91780833333334">
<ele>105</ele>
</trkpt>
<trkpt lat="35.05907027777778" lon="134.91780833333334">
<ele>105</ele>
</trkpt>
<trkpt lat="35.05907027777778" lon="134.91780833333334">
<ele>105</ele>
</trkpt>
<trkpt lat="35.05911472222222" lon="134.91780166666666">
<ele>105</ele>
</trkpt>
<trkpt lat="35.05915944444445" lon="134.917795">
<ele>105</ele>
</trkpt>
<trkpt lat="35.05920388888889" lon="134.91778833333333">
<ele>105</ele>
</trkpt>
<trkpt lat="35.05924861111111" lon="134.91778166666666">
<ele>105</ele>
</trkpt>
<trkpt lat="35.05929305555556" lon="134.917775">
<ele>105</ele>
</trkpt>
<trkpt lat="35.05933777777778" lon="134.91776833333333">
<ele>105</ele>
</trkpt>
<trkpt lat="35.05938222222222" lon="134.91776166666668">
<ele>105</ele>
</trkpt>
<trkpt lat="35.059426944444446" lon="134.917755">
<ele>105</ele>
</trkpt>
<trkpt lat="35.05947138888889" lon="134.91774833333332">
<ele>106</ele>
</trkpt>
<trkpt lat="35.05950055555556" lon="134.91774416666667">
<ele>106</ele>
</trkpt>
<trkpt lat="35.059533888888886" lon="134.9177488888889">
<ele>106</ele>
</trkpt>
<trkpt lat="35.059533055555555" lon="134.9177488888889">
<ele>106</ele>
</trkpt>
<trkpt lat="35.059508055555554" lon="134.91838694444445">
<ele>106</ele>
</trkpt>
<trkpt lat="35.059475" lon="134.9190738888889">
<ele>106</ele>
</trkpt>
<trkpt lat="35.05985111111111" lon="134.91908694444444">
<ele>106</ele>
</trkpt>
<trkpt lat="35.05985111111111" lon="134.91908694444444">
<ele>106</ele>
</trkpt>
<trkpt lat="35.06019194444445" lon="134.9190988888889">
<ele>106</ele>
</trkpt>
<trkpt lat="35.060741944444445" lon="134.9191238888889">
<ele>106</ele>
</trkpt>
<trkpt lat="35.061375" lon="134.91914888888888">
<ele>107</ele>
</trkpt>
<trkpt lat="35.06216611111111" lon="134.91917388888888">
<ele>107</ele>
</trkpt>
<trkpt lat="35.062466111111114" lon="134.91918611111112">
<ele>108</ele>
</trkpt>
<trkpt lat="35.06335111111111" lon="134.9192211111111">
<ele>108</ele>
</trkpt>
<trkpt lat="35.06335111111111" lon="134.9192211111111">
<ele>108</ele>
</trkpt>
<trkpt lat="35.063425" lon="134.9192238888889">
<ele>108</ele>
</trkpt>
<trkpt lat="35.06330805555555" lon="134.921135">
<ele>108</ele>
</trkpt>
<trkpt lat="35.06330805555555" lon="134.921135">
<ele>108</ele>
</trkpt>
<trkpt lat="35.06329111111111" lon="134.9214111111111">
<ele>108</ele>
</trkpt>
<trkpt lat="35.063725" lon="134.92142388888888">
<ele>108</ele>
</trkpt>
<trkpt lat="35.06431611111111" lon="134.9214738888889">
<ele>108</ele>
</trkpt>
<trkpt lat="35.06431611111111" lon="134.92109888888888">
<ele>108</ele>
</trkpt>
<trkpt lat="35.064348055555556" lon="134.92019611111112">
<ele>108</ele>
</trkpt>
<trkpt lat="35.064348055555556" lon="134.92019611111112">
<ele>108</ele>
</trkpt>
<trkpt lat="35.064375" lon="134.91939888888888">
<ele>109</ele>
</trkpt>
<trkpt lat="35.06438305555555" lon="134.9192611111111">
<ele>109</ele>
</trkpt>
<trkpt lat="35.06489111111111" lon="134.91928611111112">
<ele>109</ele>
</trkpt>
<trkpt lat="35.06539111111111" lon="134.9193111111111">
<ele>109</ele>
</trkpt>
<trkpt lat="35.065891111111114" lon="134.9193238888889">
<ele>109</ele>
</trkpt>
<trkpt lat="35.06636611111111" lon="134.9193488888889">
<ele>110</ele>
</trkpt>
<trkpt lat="35.06684111111111" lon="134.9193611111111">
<ele>109</ele>
</trkpt>
<trkpt lat="35.06740805555555" lon="134.91937388888888">
<ele>110</ele>
</trkpt>
<trkpt lat="35.06784888888889" lon="134.91938611111112">
<ele>110</ele>
</trkpt>
<trkpt lat="35.06854111111111" lon="134.91941111111112">
<ele>110</ele>
</trkpt>
<trkpt lat="35.06884111111111" lon="134.9194488888889">
<ele>110</ele>
</trkpt>
<trkpt lat="35.06914611111111" lon="134.919455">
<ele>110</ele>
</trkpt>
<trkpt lat="35.06914611111111" lon="134.919455">
<ele>110</ele>
</trkpt>
<trkpt lat="35.06945694444445" lon="134.9194611111111">
<ele>110</ele>
</trkpt>
<trkpt lat="35.070391111111114" lon="134.91949888888888">
<ele>112</ele>
</trkpt>
<trkpt lat="35.07037611111111" lon="134.92015388888888">
<ele>111</ele>
</trkpt>
<trkpt lat="35.07037611111111" lon="134.92015305555555">
<ele>111</ele>
</trkpt>
<trkpt lat="35.07035805555556" lon="134.92097388888888">
<ele>111</ele>
</trkpt>
<trkpt lat="35.07035805555556" lon="134.92108611111112">
<ele>111</ele>
</trkpt>
<trkpt lat="35.07087388888889" lon="134.9211238888889">
<ele>113</ele>
</trkpt>
<trkpt lat="35.07100694444444" lon="134.9211238888889">
<ele>114</ele>
</trkpt>
<trkpt lat="35.07097388888889" lon="134.92142388888888">
<ele>113</ele>
</trkpt>
<trkpt lat="35.070928888888886" lon="134.9217138888889">
<ele>113</ele>
</trkpt>
<trkpt lat="35.070928888888886" lon="134.9217138888889">
<ele>113</ele>
</trkpt>
<trkpt lat="35.07057388888889" lon="134.9240111111111">
<ele>112</ele>
</trkpt>
<trkpt lat="35.07113805555556" lon="134.92419388888888">
<ele>113</ele>
</trkpt>
<trkpt lat="35.07113805555556" lon="134.92419388888888">
<ele>113</ele>
</trkpt>
<trkpt lat="35.071531944444445" lon="134.92432305555556">
<ele>114</ele>
</trkpt>
<trkpt lat="35.072156944444444" lon="134.9245611111111">
<ele>114</ele>
</trkpt>
<trkpt lat="35.072356944444444" lon="134.92464805555556">
<ele>115</ele>
</trkpt>
<trkpt lat="35.07246611111111" lon="134.92471111111112">
<ele>115</ele>
</trkpt>
<trkpt lat="35.07253194444444" lon="134.92474805555557">
<ele>115</ele>
</trkpt>
<trkpt lat="35.07277388888889" lon="134.9249111111111">
<ele>116</ele>
</trkpt>
<trkpt lat="35.07294111111111" lon="134.92502305555556">
<ele>116</ele>
</trkpt>
<trkpt lat="35.07310694444445" lon="134.9251361111111">
<ele>117</ele>
</trkpt>
<trkpt lat="35.07351611111111" lon="134.92542305555557">
<ele>117</ele>
</trkpt>
<trkpt lat="35.07369111111111" lon="134.9255611111111">
<ele>117</ele>
</trkpt>
<trkpt lat="35.074041111111114" lon="134.92534805555556">
<ele>118</ele>
</trkpt>
<trkpt lat="35.07416805555555" lon="134.92534805555556">
<ele>118</ele>
</trkpt>
<trkpt lat="35.07416805555555" lon="134.92534805555556">
<ele>118</ele>
</trkpt>
<trkpt lat="35.074556944444446" lon="134.92534805555556">
<ele>119</ele>
</trkpt>
<trkpt lat="35.074765" lon="134.92542305555557">
<ele>119</ele>
</trkpt>
<trkpt lat="35.075115" lon="134.9254861111111">
<ele>119</ele>
</trkpt>
<trkpt lat="35.075156944444444" lon="134.92552305555554">
<ele>119</ele>
</trkpt>
<trkpt lat="35.07519" lon="134.92553611111111">
<ele>119</ele>
</trkpt>
<trkpt lat="35.07533194444444" lon="134.92552305555554">
<ele>119</ele>
</trkpt>
<trkpt lat="35.07544" lon="134.92549805555555">
<ele>119</ele>
</trkpt>
<trkpt lat="35.075715" lon="134.92537305555555">
<ele>123</ele>
</trkpt>
<trkpt lat="35.07594888888889" lon="134.9252361111111">
<ele>123</ele>
</trkpt>
<trkpt lat="35.07615694444444" lon="134.92527305555555">
<ele>124</ele>
</trkpt>
<trkpt lat="35.07639" lon="134.9253111111111">
<ele>128</ele>
</trkpt>
<trkpt lat="35.076715" lon="134.9253361111111">
<ele>128</ele>
</trkpt>
<trkpt lat="35.076923055555554" lon="134.9253611111111">
<ele>130</ele>
</trkpt>
<trkpt lat="35.077506944444444" lon="134.92541111111112">
<ele>132</ele>
</trkpt>
<trkpt lat="35.077623055555556" lon="134.92544805555556">
<ele>132</ele>
</trkpt>
<trkpt lat="35.07768194444444" lon="134.92541111111112">
<ele>133</ele>
</trkpt>
<trkpt lat="35.07813194444444" lon="134.92527305555555">
<ele>134</ele>
</trkpt>
<trkpt lat="35.07828194444444" lon="134.92516111111112">
<ele>134</ele>
</trkpt>
<trkpt lat="35.07833194444444" lon="134.92509805555557">
<ele>134</ele>
</trkpt>
<trkpt lat="35.07834805555556" lon="134.92508388888888">
<ele>135</ele>
</trkpt>
    </trkseg>
  </trk>
</gpx>