<?xml version="1.0" encoding="UTF-8"?>
<gpx version="1.1"
     creator="KMLtoGPX"
     xmlns="http://www.topografix.com/GPX/1/1">
  <metadata>
    <name>Gourmet street course</name>
    <desc>グルメ街道コース</desc>
    <bounds minlat="33.415555" minlon="132.18447305555554" maxlat="33.44788611111111" maxlon="132.26006611111112"/>
  </metadata>
  <trk>
    <name>Gourmet street course</name>
    <trkseg>
<trkpt lat="33.42157888888889" lon="132.1989661111111">
<ele>317</ele>
</trkpt>
<trkpt lat="33.421636944444444" lon="132.19866">
<ele>315</ele>
</trkpt>
<trkpt lat="33.42170388888889" lon="132.19826">
<ele>317</ele>
</trkpt>
<trkpt lat="33.421728888888886" lon="132.19782194444446">
<ele>311</ele>
</trkpt>
<trkpt lat="33.42170388888889" lon="132.19742194444444">
<ele>304</ele>
</trkpt>
<trkpt lat="33.42164611111111" lon="132.19714694444446">
<ele>304</ele>
</trkpt>
<trkpt lat="33.42153694444445" lon="132.19706">
<ele>304</ele>
</trkpt>
<trkpt lat="33.42137888888889" lon="132.19704694444445">
<ele>303</ele>
</trkpt>
<trkpt lat="33.421171111111114" lon="132.19716">
<ele>302</ele>
</trkpt>
<trkpt lat="33.42073805555555" lon="132.197485">
<ele>292</ele>
</trkpt>
<trkpt lat="33.42062888888889" lon="132.197635">
<ele>287</ele>
</trkpt>
<trkpt lat="33.420563055555554" lon="132.198135">
<ele>284</ele>
</trkpt>
<trkpt lat="33.420588055555555" lon="132.198385">
<ele>282</ele>
</trkpt>
<trkpt lat="33.420746111111114" lon="132.19871">
<ele>282</ele>
</trkpt>
<trkpt lat="33.42076194444444" lon="132.198885">
<ele>280</ele>
</trkpt>
<trkpt lat="33.42068805555556" lon="132.19901">
<ele>277</ele>
</trkpt>
<trkpt lat="33.42057888888889" lon="132.199035">
<ele>273</ele>
</trkpt>
<trkpt lat="33.42048805555556" lon="132.19897194444445">
<ele>272</ele>
</trkpt>
<trkpt lat="33.42041305555556" lon="132.19884694444445">
<ele>269</ele>
</trkpt>
<trkpt lat="33.42024611111111" lon="132.19829694444445">
<ele>266</ele>
</trkpt>
<trkpt lat="33.42007111111111" lon="132.19721">
<ele>254</ele>
</trkpt>
<trkpt lat="33.42005388888889" lon="132.19661">
<ele>253</ele>
</trkpt>
<trkpt lat="33.42014611111111" lon="132.19602194444445">
<ele>244</ele>
</trkpt>
<trkpt lat="33.420186944444445" lon="132.19562194444444">
<ele>233</ele>
</trkpt>
<trkpt lat="33.42027111111111" lon="132.195135">
<ele>232</ele>
</trkpt>
<trkpt lat="33.420411944444446" lon="132.19471">
<ele>234</ele>
</trkpt>
<trkpt lat="33.420411944444446" lon="132.19444694444445">
<ele>233</ele>
</trkpt>
<trkpt lat="33.42037888888889" lon="132.19434694444445">
<ele>232</ele>
</trkpt>
<trkpt lat="33.42019611111111" lon="132.19431">
<ele>226</ele>
</trkpt>
<trkpt lat="33.420161944444445" lon="132.193935">
<ele>226</ele>
</trkpt>
<trkpt lat="33.42001194444445" lon="132.19361">
<ele>225</ele>
</trkpt>
<trkpt lat="33.41988694444444" lon="132.19344805555556">
<ele>221</ele>
</trkpt>
<trkpt lat="33.41977111111111" lon="132.193185">
<ele>222</ele>
</trkpt>
<trkpt lat="33.41967888888889" lon="132.19282305555555">
<ele>224</ele>
</trkpt>
<trkpt lat="33.41967888888889" lon="132.19282305555555">
<ele>224</ele>
</trkpt>
<trkpt lat="33.41964611111111" lon="132.19252305555557">
<ele>222</ele>
</trkpt>
<trkpt lat="33.41964611111111" lon="132.19232305555556">
<ele>222</ele>
</trkpt>
<trkpt lat="33.41963805555555" lon="132.19117305555557">
<ele>204</ele>
</trkpt>
<trkpt lat="33.41962111111111" lon="132.19076">
<ele>214</ele>
</trkpt>
<trkpt lat="33.41962888888889" lon="132.19021">
<ele>216</ele>
</trkpt>
<trkpt lat="33.41954611111111" lon="132.18849805555556">
<ele>212</ele>
</trkpt>
<trkpt lat="33.419561944444446" lon="132.18804805555556">
<ele>215</ele>
</trkpt>
<trkpt lat="33.419603888888886" lon="132.18786111111112">
<ele>214</ele>
</trkpt>
<trkpt lat="33.41960888888889" lon="132.18775305555556">
<ele>214</ele>
</trkpt>
<trkpt lat="33.41960888888889" lon="132.18775305555556">
<ele>214</ele>
</trkpt>
<trkpt lat="33.419603611111114" lon="132.18769972222222">
<ele>214</ele>
</trkpt>
<trkpt lat="33.419598055555554" lon="132.18764611111112">
<ele>214</ele>
</trkpt>
<trkpt lat="33.41959277777778" lon="132.18759277777778">
<ele>214</ele>
</trkpt>
<trkpt lat="33.41958722222222" lon="132.18753944444444">
<ele>214</ele>
</trkpt>
<trkpt lat="33.419581944444445" lon="132.18748583333334">
<ele>214</ele>
</trkpt>
<trkpt lat="33.419576666666664" lon="132.1874325">
<ele>214</ele>
</trkpt>
<trkpt lat="33.41957111111111" lon="132.18737916666666">
<ele>214</ele>
</trkpt>
<trkpt lat="33.41956583333333" lon="132.18732555555556">
<ele>214</ele>
</trkpt>
<trkpt lat="33.41956027777778" lon="132.18727222222222">
<ele>214</ele>
</trkpt>
<trkpt lat="33.419555" lon="132.18721888888888">
<ele>211</ele>
</trkpt>
<trkpt lat="33.41954972222222" lon="132.18716527777778">
<ele>211</ele>
</trkpt>
<trkpt lat="33.41954416666667" lon="132.18711194444444">
<ele>211</ele>
</trkpt>
<trkpt lat="33.41954111111111" lon="132.18708027777777">
<ele>210</ele>
</trkpt>
<trkpt lat="33.41954111111111" lon="132.18708027777777">
<ele>210</ele>
</trkpt>
<trkpt lat="33.41950638888889" lon="132.18711472222222">
<ele>211</ele>
</trkpt>
<trkpt lat="33.419471944444446" lon="132.18714916666667">
<ele>211</ele>
</trkpt>
<trkpt lat="33.41943722222222" lon="132.18718333333334">
<ele>206</ele>
</trkpt>
<trkpt lat="33.41941111111111" lon="132.18720944444445">
<ele>206</ele>
</trkpt>
<trkpt lat="33.41941111111111" lon="132.18720944444445">
<ele>206</ele>
</trkpt>
<trkpt lat="33.41939888888889" lon="132.1872611111111">
<ele>207</ele>
</trkpt>
<trkpt lat="33.41938666666667" lon="132.18731277777778">
<ele>207</ele>
</trkpt>
<trkpt lat="33.41937444444444" lon="132.1873647222222">
<ele>207</ele>
</trkpt>
<trkpt lat="33.41936194444445" lon="132.1874163888889">
<ele>207</ele>
</trkpt>
<trkpt lat="33.41934972222222" lon="132.18746805555554">
<ele>207</ele>
</trkpt>
<trkpt lat="33.4193375" lon="132.18752">
<ele>207</ele>
</trkpt>
<trkpt lat="33.41932527777778" lon="132.18757166666666">
<ele>203</ele>
</trkpt>
<trkpt lat="33.419312777777776" lon="132.18762333333333">
<ele>203</ele>
</trkpt>
<trkpt lat="33.41930055555556" lon="132.18767527777777">
<ele>203</ele>
</trkpt>
<trkpt lat="33.419288333333334" lon="132.18772694444445">
<ele>203</ele>
</trkpt>
<trkpt lat="33.41927611111111" lon="132.1877786111111">
<ele>203</ele>
</trkpt>
<trkpt lat="33.41926361111111" lon="132.18783055555556">
<ele>203</ele>
</trkpt>
<trkpt lat="33.41925138888889" lon="132.1878822222222">
<ele>203</ele>
</trkpt>
<trkpt lat="33.419239166666664" lon="132.1879338888889">
<ele>202</ele>
</trkpt>
<trkpt lat="33.419226944444446" lon="132.18798583333333">
<ele>202</ele>
</trkpt>
<trkpt lat="33.41921444444444" lon="132.1880375">
<ele>200</ele>
</trkpt>
<trkpt lat="33.419202222222225" lon="132.18808916666666">
<ele>200</ele>
</trkpt>
<trkpt lat="33.41919583333333" lon="132.1881161111111">
<ele>202</ele>
</trkpt>
<trkpt lat="33.41919583333333" lon="132.1881161111111">
<ele>202</ele>
</trkpt>
<trkpt lat="33.4191875" lon="132.18806305555555">
<ele>202</ele>
</trkpt>
<trkpt lat="33.419179444444445" lon="132.18801027777778">
<ele>200</ele>
</trkpt>
<trkpt lat="33.41917111111111" lon="132.1879575">
<ele>200</ele>
</trkpt>
<trkpt lat="33.41916277777778" lon="132.18790444444446">
<ele>200</ele>
</trkpt>
<trkpt lat="33.419154444444445" lon="132.18785166666666">
<ele>200</ele>
</trkpt>
<trkpt lat="33.41914611111111" lon="132.1877986111111">
<ele>200</ele>
</trkpt>
<trkpt lat="33.41913777777778" lon="132.18774583333334">
<ele>200</ele>
</trkpt>
<trkpt lat="33.41912972222222" lon="132.18769305555554">
<ele>197</ele>
</trkpt>
<trkpt lat="33.41912138888889" lon="132.18764">
<ele>197</ele>
</trkpt>
<trkpt lat="33.419113055555556" lon="132.18758722222222">
<ele>197</ele>
</trkpt>
<trkpt lat="33.41910472222222" lon="132.18753416666667">
<ele>197</ele>
</trkpt>
<trkpt lat="33.41909638888889" lon="132.1874813888889">
<ele>198</ele>
</trkpt>
<trkpt lat="33.41909111111111" lon="132.18744722222223">
<ele>198</ele>
</trkpt>
<trkpt lat="33.41909111111111" lon="132.18744722222223">
<ele>198</ele>
</trkpt>
<trkpt lat="33.41901194444444" lon="132.18716111111112">
<ele>190</ele>
</trkpt>
<trkpt lat="33.41887111111111" lon="132.18671111111112">
<ele>181</ele>
</trkpt>
<trkpt lat="33.418821111111114" lon="132.18648611111112">
<ele>180</ele>
</trkpt>
<trkpt lat="33.41880388888889" lon="132.1863111111111">
<ele>179</ele>
</trkpt>
<trkpt lat="33.41877888888889" lon="132.18607305555557">
<ele>180</ele>
</trkpt>
<trkpt lat="33.41874305555555" lon="132.18593305555555">
<ele>177</ele>
</trkpt>
<trkpt lat="33.41874305555555" lon="132.18593305555555">
<ele>177</ele>
</trkpt>
<trkpt lat="33.41873805555556" lon="132.18591111111112">
<ele>176</ele>
</trkpt>
<trkpt lat="33.418686944444445" lon="132.1857361111111">
<ele>177</ele>
</trkpt>
<trkpt lat="33.418636944444444" lon="132.18562305555557">
<ele>174</ele>
</trkpt>
<trkpt lat="33.41844611111111" lon="132.1852861111111">
<ele>170</ele>
</trkpt>
<trkpt lat="33.418303888888886" lon="132.1850861111111">
<ele>167</ele>
</trkpt>
<trkpt lat="33.41799611111111" lon="132.18478611111112">
<ele>161</ele>
</trkpt>
<trkpt lat="33.41771305555555" lon="132.18452305555556">
<ele>165</ele>
</trkpt>
<trkpt lat="33.41762111111111" lon="132.18447305555554">
<ele>162</ele>
</trkpt>
<trkpt lat="33.41757111111111" lon="132.18447305555554">
<ele>162</ele>
</trkpt>
<trkpt lat="33.41753805555555" lon="132.18454805555555">
<ele>158</ele>
</trkpt>
<trkpt lat="33.41754611111111" lon="132.18459805555557">
<ele>154</ele>
</trkpt>
<trkpt lat="33.41785388888889" lon="132.1849861111111">
<ele>154</ele>
</trkpt>
<trkpt lat="33.41787111111111" lon="132.18503611111112">
<ele>152</ele>
</trkpt>
<trkpt lat="33.417878888888886" lon="132.18509805555556">
<ele>152</ele>
</trkpt>
<trkpt lat="33.41788694444445" lon="132.18572305555554">
<ele>143</ele>
</trkpt>
<trkpt lat="33.41789611111111" lon="132.18581111111112">
<ele>147</ele>
</trkpt>
<trkpt lat="33.41792111111111" lon="132.18591111111112">
<ele>145</ele>
</trkpt>
<trkpt lat="33.417971111111115" lon="132.18603611111112">
<ele>142</ele>
</trkpt>
<trkpt lat="33.418078888888886" lon="132.18622305555556">
<ele>144</ele>
</trkpt>
<trkpt lat="33.418078888888886" lon="132.18628611111112">
<ele>144</ele>
</trkpt>
<trkpt lat="33.41800388888889" lon="132.1863611111111">
<ele>149</ele>
</trkpt>
<trkpt lat="33.417811944444445" lon="132.18651111111112">
<ele>142</ele>
</trkpt>
<trkpt lat="33.41772111111111" lon="132.18662305555554">
<ele>142</ele>
</trkpt>
<trkpt lat="33.417588055555555" lon="132.1868611111111">
<ele>135</ele>
</trkpt>
<trkpt lat="33.41755388888889" lon="132.18699805555556">
<ele>131</ele>
</trkpt>
<trkpt lat="33.41754611111111" lon="132.18714805555555">
<ele>127</ele>
</trkpt>
<trkpt lat="33.417588055555555" lon="132.18749805555555">
<ele>128</ele>
</trkpt>
<trkpt lat="33.41757888888889" lon="132.18763611111112">
<ele>128</ele>
</trkpt>
<trkpt lat="33.417563055555554" lon="132.18769805555556">
<ele>128</ele>
</trkpt>
<trkpt lat="33.41747111111111" lon="132.18798611111112">
<ele>126</ele>
</trkpt>
<trkpt lat="33.41743694444445" lon="132.18812305555556">
<ele>122</ele>
</trkpt>
<trkpt lat="33.41742888888889" lon="132.18822305555557">
<ele>122</ele>
</trkpt>
<trkpt lat="33.417453888888886" lon="132.1883861111111">
<ele>126</ele>
</trkpt>
<trkpt lat="33.41757888888889" lon="132.1887361111111">
<ele>124</ele>
</trkpt>
<trkpt lat="33.41764611111111" lon="132.1889111111111">
<ele>115</ele>
</trkpt>
<trkpt lat="33.41760388888889" lon="132.18908611111112">
<ele>114</ele>
</trkpt>
<trkpt lat="33.41732888888889" lon="132.18956111111112">
<ele>112</ele>
</trkpt>
<trkpt lat="33.41715388888889" lon="132.1898361111111">
<ele>108</ele>
</trkpt>
<trkpt lat="33.417028888888886" lon="132.18999805555555">
<ele>104</ele>
</trkpt>
<trkpt lat="33.41698805555556" lon="132.19012305555555">
<ele>102</ele>
</trkpt>
<trkpt lat="33.41694611111111" lon="132.190485">
<ele>102</ele>
</trkpt>
<trkpt lat="33.41692111111111" lon="132.190585">
<ele>101</ele>
</trkpt>
<trkpt lat="33.41690388888889" lon="132.19074805555556">
<ele>98</ele>
</trkpt>
<trkpt lat="33.416913055555554" lon="132.190835">
<ele>95</ele>
</trkpt>
<trkpt lat="33.41694611111111" lon="132.190885">
<ele>95</ele>
</trkpt>
<trkpt lat="33.417028888888886" lon="132.19096">
<ele>94</ele>
</trkpt>
<trkpt lat="33.417163055555555" lon="132.19099805555555">
<ele>97</ele>
</trkpt>
<trkpt lat="33.41728805555555" lon="132.19106">
<ele>94</ele>
</trkpt>
<trkpt lat="33.41737888888889" lon="132.19112305555555">
<ele>93</ele>
</trkpt>
<trkpt lat="33.41743805555556" lon="132.191185">
<ele>93</ele>
</trkpt>
<trkpt lat="33.41744611111111" lon="132.19126">
<ele>97</ele>
</trkpt>
<trkpt lat="33.41742888888889" lon="132.19132305555556">
<ele>91</ele>
</trkpt>
<trkpt lat="33.41737888888889" lon="132.19139805555557">
<ele>92</ele>
</trkpt>
<trkpt lat="33.41727888888889" lon="132.19151">
<ele>86</ele>
</trkpt>
<trkpt lat="33.41724611111111" lon="132.191635">
<ele>87</ele>
</trkpt>
<trkpt lat="33.41725388888889" lon="132.191935">
<ele>87</ele>
</trkpt>
<trkpt lat="33.41723805555556" lon="132.19199805555556">
<ele>87</ele>
</trkpt>
<trkpt lat="33.41721305555556" lon="132.19204805555555">
<ele>84</ele>
</trkpt>
<trkpt lat="33.41707888888889" lon="132.19212305555556">
<ele>84</ele>
</trkpt>
<trkpt lat="33.41686305555555" lon="132.19221">
<ele>80</ele>
</trkpt>
<trkpt lat="33.41670388888889" lon="132.19231">
<ele>74</ele>
</trkpt>
<trkpt lat="33.41659611111111" lon="132.19236">
<ele>75</ele>
</trkpt>
<trkpt lat="33.416513055555555" lon="132.192435">
<ele>70</ele>
</trkpt>
<trkpt lat="33.41639611111111" lon="132.19256">
<ele>67</ele>
</trkpt>
<trkpt lat="33.416338055555556" lon="132.192685">
<ele>68</ele>
</trkpt>
<trkpt lat="33.416338055555556" lon="132.19282305555555">
<ele>68</ele>
</trkpt>
<trkpt lat="33.41639611111111" lon="132.19292305555555">
<ele>65</ele>
</trkpt>
<trkpt lat="33.41652111111111" lon="132.19306">
<ele>64</ele>
</trkpt>
<trkpt lat="33.41664611111111" lon="132.19317305555555">
<ele>65</ele>
</trkpt>
<trkpt lat="33.41666305555555" lon="132.19324805555556">
<ele>64</ele>
</trkpt>
<trkpt lat="33.41665388888889" lon="132.19331">
<ele>64</ele>
</trkpt>
<trkpt lat="33.41663805555556" lon="132.19336">
<ele>64</ele>
</trkpt>
<trkpt lat="33.41659611111111" lon="132.193385">
<ele>64</ele>
</trkpt>
<trkpt lat="33.41643" lon="132.19344805555556">
<ele>63</ele>
</trkpt>
<trkpt lat="33.416288055555555" lon="132.193485">
<ele>60</ele>
</trkpt>
<trkpt lat="33.41618805555556" lon="132.19357305555556">
<ele>53</ele>
</trkpt>
<trkpt lat="33.416088055555555" lon="132.19372305555555">
<ele>51</ele>
</trkpt>
<trkpt lat="33.416005" lon="132.19391">
<ele>57</ele>
</trkpt>
<trkpt lat="33.41596305555556" lon="132.19407305555555">
<ele>54</ele>
</trkpt>
<trkpt lat="33.41593" lon="132.19421">
<ele>55</ele>
</trkpt>
<trkpt lat="33.415905" lon="132.19444805555557">
<ele>49</ele>
</trkpt>
<trkpt lat="33.415888055555556" lon="132.19471">
<ele>46</ele>
</trkpt>
<trkpt lat="33.415888055555556" lon="132.19477194444445">
<ele>46</ele>
</trkpt>
<trkpt lat="33.415905" lon="132.19482305555556">
<ele>49</ele>
</trkpt>
<trkpt lat="33.41598" lon="132.194935">
<ele>48</ele>
</trkpt>
<trkpt lat="33.41594611111111" lon="132.195085">
<ele>48</ele>
</trkpt>
<trkpt lat="33.415821111111114" lon="132.195185">
<ele>46</ele>
</trkpt>
<trkpt lat="33.41587111111111" lon="132.19532305555555">
<ele>46</ele>
</trkpt>
<trkpt lat="33.415805" lon="132.195635">
<ele>48</ele>
</trkpt>
<trkpt lat="33.41577111111111" lon="132.19592194444445">
<ele>45</ele>
</trkpt>
<trkpt lat="33.41578" lon="132.19616">
<ele>48</ele>
</trkpt>
<trkpt lat="33.41587111111111" lon="132.196685">
<ele>46</ele>
</trkpt>
<trkpt lat="33.41588" lon="132.197085">
<ele>47</ele>
</trkpt>
<trkpt lat="33.415888055555556" lon="132.19731">
<ele>47</ele>
</trkpt>
<trkpt lat="33.41608" lon="132.197885">
<ele>54</ele>
</trkpt>
<trkpt lat="33.416185" lon="132.1980988888889">
<ele>54</ele>
</trkpt>
<trkpt lat="33.416185" lon="132.1980988888889">
<ele>54</ele>
</trkpt>
<trkpt lat="33.41622111111111" lon="132.19817194444445">
<ele>54</ele>
</trkpt>
<trkpt lat="33.416355" lon="132.198385">
<ele>57</ele>
</trkpt>
<trkpt lat="33.416555" lon="132.19846">
<ele>62</ele>
</trkpt>
<trkpt lat="33.416671111111114" lon="132.198535">
<ele>65</ele>
</trkpt>
<trkpt lat="33.41668" lon="132.19874694444445">
<ele>65</ele>
</trkpt>
<trkpt lat="33.41661305555556" lon="132.19889694444444">
<ele>69</ele>
</trkpt>
<trkpt lat="33.41637111111111" lon="132.199035">
<ele>66</ele>
</trkpt>
<trkpt lat="33.416105" lon="132.199235">
<ele>64</ele>
</trkpt>
<trkpt lat="33.41594694444444" lon="132.19941">
<ele>63</ele>
</trkpt>
<trkpt lat="33.415771944444444" lon="132.19966">
<ele>61</ele>
</trkpt>
<trkpt lat="33.415655" lon="132.19986">
<ele>62</ele>
</trkpt>
<trkpt lat="33.41558805555555" lon="132.20016">
<ele>67</ele>
</trkpt>
<trkpt lat="33.415555" lon="132.20042194444446">
<ele>63</ele>
</trkpt>
<trkpt lat="33.41556305555556" lon="132.20066">
<ele>71</ele>
</trkpt>
<trkpt lat="33.41573805555556" lon="132.20119694444443">
<ele>72</ele>
</trkpt>
<trkpt lat="33.41578" lon="132.201485">
<ele>74</ele>
</trkpt>
<trkpt lat="33.415846944444446" lon="132.20162194444444">
<ele>73</ele>
</trkpt>
<trkpt lat="33.41633" lon="132.20204694444445">
<ele>74</ele>
</trkpt>
<trkpt lat="33.416455" lon="132.202235">
<ele>75</ele>
</trkpt>
<trkpt lat="33.41672194444445" lon="132.2027838888889">
<ele>73</ele>
</trkpt>
<trkpt lat="33.41683" lon="132.20292194444445">
<ele>74</ele>
</trkpt>
<trkpt lat="33.417105" lon="132.20302194444446">
<ele>75</ele>
</trkpt>
<trkpt lat="33.41719694444444" lon="132.20309694444444">
<ele>77</ele>
</trkpt>
<trkpt lat="33.41733" lon="132.2032338888889">
<ele>73</ele>
</trkpt>
<trkpt lat="33.41764694444444" lon="132.2038588888889">
<ele>75</ele>
</trkpt>
<trkpt lat="33.41778" lon="132.20422194444444">
<ele>78</ele>
</trkpt>
<trkpt lat="33.41793" lon="132.2046838888889">
<ele>75</ele>
</trkpt>
<trkpt lat="33.41808805555556" lon="132.20520888888888">
<ele>75</ele>
</trkpt>
<trkpt lat="33.418143055555554" lon="132.2053511111111">
<ele>75</ele>
</trkpt>
<trkpt lat="33.418143055555554" lon="132.20535">
<ele>75</ele>
</trkpt>
<trkpt lat="33.418346944444444" lon="132.20587194444445">
<ele>77</ele>
</trkpt>
<trkpt lat="33.418613055555554" lon="132.20647194444444">
<ele>73</ele>
</trkpt>
<trkpt lat="33.41883" lon="132.20678388888888">
<ele>75</ele>
</trkpt>
<trkpt lat="33.41908" lon="132.20702194444445">
<ele>76</ele>
</trkpt>
<trkpt lat="33.41943" lon="132.20724694444445">
<ele>83</ele>
</trkpt>
<trkpt lat="33.41957111111111" lon="132.20737194444445">
<ele>86</ele>
</trkpt>
<trkpt lat="33.41966305555555" lon="132.20754694444443">
<ele>84</ele>
</trkpt>
<trkpt lat="33.41972111111111" lon="132.20782194444445">
<ele>84</ele>
</trkpt>
<trkpt lat="33.41978" lon="132.20800888888888">
<ele>84</ele>
</trkpt>
<trkpt lat="33.41986305555555" lon="132.20819694444444">
<ele>82</ele>
</trkpt>
<trkpt lat="33.42001305555556" lon="132.20835888888888">
<ele>84</ele>
</trkpt>
<trkpt lat="33.420138055555555" lon="132.2085338888889">
<ele>84</ele>
</trkpt>
<trkpt lat="33.42019611111111" lon="132.20869694444445">
<ele>83</ele>
</trkpt>
<trkpt lat="33.42021305555556" lon="132.20902194444446">
<ele>81</ele>
</trkpt>
<trkpt lat="33.42023805555556" lon="132.20915888888888">
<ele>84</ele>
</trkpt>
<trkpt lat="33.42028805555555" lon="132.20927111111112">
<ele>83</ele>
</trkpt>
<trkpt lat="33.42037111111111" lon="132.20939611111112">
<ele>84</ele>
</trkpt>
<trkpt lat="33.420613055555556" lon="132.20973388888888">
<ele>76</ele>
</trkpt>
<trkpt lat="33.42078" lon="132.21005888888888">
<ele>77</ele>
</trkpt>
<trkpt lat="33.42079611111111" lon="132.2101088888889">
<ele>77</ele>
</trkpt>
<trkpt lat="33.421005" lon="132.2106588888889">
<ele>75</ele>
</trkpt>
<trkpt lat="33.42112111111111" lon="132.21107111111112">
<ele>74</ele>
</trkpt>
<trkpt lat="33.42122111111111" lon="132.21129611111112">
<ele>72</ele>
</trkpt>
<trkpt lat="33.421438055555555" lon="132.2115838888889">
<ele>72</ele>
</trkpt>
<trkpt lat="33.42148805555556" lon="132.21163388888888">
<ele>74</ele>
</trkpt>
<trkpt lat="33.421688055555556" lon="132.21189611111112">
<ele>73</ele>
</trkpt>
<trkpt lat="33.42174611111111" lon="132.2120338888889">
<ele>70</ele>
</trkpt>
<trkpt lat="33.42176305555556" lon="132.2122461111111">
<ele>64</ele>
</trkpt>
<trkpt lat="33.42176305555556" lon="132.2128588888889">
<ele>64</ele>
</trkpt>
<trkpt lat="33.42177111111111" lon="132.2129461111111">
<ele>65</ele>
</trkpt>
<trkpt lat="33.421805" lon="132.21298388888889">
<ele>67</ele>
</trkpt>
<trkpt lat="33.421863055555555" lon="132.21300888888888">
<ele>64</ele>
</trkpt>
<trkpt lat="33.42238" lon="132.2129338888889">
<ele>66</ele>
</trkpt>
<trkpt lat="33.42263" lon="132.21299611111112">
<ele>67</ele>
</trkpt>
<trkpt lat="33.42267611111111" lon="132.21303111111112">
<ele>66</ele>
</trkpt>
<trkpt lat="33.42267611111111" lon="132.21303111111112">
<ele>66</ele>
</trkpt>
<trkpt lat="33.422763055555556" lon="132.2130961111111">
<ele>66</ele>
</trkpt>
<trkpt lat="33.42293" lon="132.21323388888888">
<ele>64</ele>
</trkpt>
<trkpt lat="33.42314611111111" lon="132.21344611111112">
<ele>58</ele>
</trkpt>
<trkpt lat="33.42328805555555" lon="132.2137461111111">
<ele>56</ele>
</trkpt>
<trkpt lat="33.423605" lon="132.2147338888889">
<ele>56</ele>
</trkpt>
<trkpt lat="33.42378" lon="132.2154088888889">
<ele>56</ele>
</trkpt>
<trkpt lat="33.42378" lon="132.2156588888889">
<ele>57</ele>
</trkpt>
<trkpt lat="33.423755" lon="132.2157711111111">
<ele>54</ele>
</trkpt>
<trkpt lat="33.423613055555556" lon="132.21615805555555">
<ele>45</ele>
</trkpt>
<trkpt lat="33.42358" lon="132.21629611111112">
<ele>45</ele>
</trkpt>
<trkpt lat="33.423588055555555" lon="132.21648305555556">
<ele>46</ele>
</trkpt>
<trkpt lat="33.42358" lon="132.21665805555557">
<ele>47</ele>
</trkpt>
<trkpt lat="33.42354611111111" lon="132.21670805555556">
<ele>42</ele>
</trkpt>
<trkpt lat="33.42353" lon="132.21688305555554">
<ele>43</ele>
</trkpt>
<trkpt lat="33.423538055555554" lon="132.21708305555555">
<ele>43</ele>
</trkpt>
<trkpt lat="33.42358" lon="132.21729611111112">
<ele>46</ele>
</trkpt>
<trkpt lat="33.42367111111111" lon="132.21754611111112">
<ele>48</ele>
</trkpt>
<trkpt lat="33.42367111111111" lon="132.21764611111112">
<ele>47</ele>
</trkpt>
<trkpt lat="33.42364611111111" lon="132.21809611111112">
<ele>42</ele>
</trkpt>
<trkpt lat="33.42364611111111" lon="132.2184711111111">
<ele>43</ele>
</trkpt>
<trkpt lat="33.42368" lon="132.21875805555555">
<ele>46</ele>
</trkpt>
<trkpt lat="33.423705" lon="132.2188711111111">
<ele>44</ele>
</trkpt>
<trkpt lat="33.42378" lon="132.21892111111111">
<ele>44</ele>
</trkpt>
<trkpt lat="33.423855" lon="132.21893305555557">
<ele>44</ele>
</trkpt>
<trkpt lat="33.423988055555554" lon="132.21893305555557">
<ele>45</ele>
</trkpt>
<trkpt lat="33.42438805555555" lon="132.21888305555555">
<ele>46</ele>
</trkpt>
<trkpt lat="33.42478" lon="132.2187461111111">
<ele>38</ele>
</trkpt>
<trkpt lat="33.42492111111111" lon="132.2187211111111">
<ele>37</ele>
</trkpt>
<trkpt lat="33.425021111111114" lon="132.2187211111111">
<ele>37</ele>
</trkpt>
<trkpt lat="33.425353888888885" lon="132.21888305555555">
<ele>36</ele>
</trkpt>
<trkpt lat="33.42585388888889" lon="132.21893305555557">
<ele>35</ele>
</trkpt>
<trkpt lat="33.42612888888889" lon="132.21895805555556">
<ele>34</ele>
</trkpt>
<trkpt lat="33.42627888888889" lon="132.2189461111111">
<ele>34</ele>
</trkpt>
<trkpt lat="33.42637888888889" lon="132.21890805555554">
<ele>33</ele>
</trkpt>
<trkpt lat="33.42650388888889" lon="132.21883305555556">
<ele>34</ele>
</trkpt>
<trkpt lat="33.426566111111114" lon="132.21878">
<ele>34</ele>
</trkpt>
<trkpt lat="33.426566111111114" lon="132.21878">
<ele>34</ele>
</trkpt>
<trkpt lat="33.42667888888889" lon="132.21868305555554">
<ele>33</ele>
</trkpt>
<trkpt lat="33.42693805555555" lon="132.21844611111112">
<ele>34</ele>
</trkpt>
<trkpt lat="33.42712111111111" lon="132.21830805555555">
<ele>34</ele>
</trkpt>
<trkpt lat="33.42716305555555" lon="132.2182961111111">
<ele>34</ele>
</trkpt>
<trkpt lat="33.42729611111111" lon="132.2183711111111">
<ele>27</ele>
</trkpt>
<trkpt lat="33.42733805555556" lon="132.2184211111111">
<ele>25</ele>
</trkpt>
<trkpt lat="33.42734611111111" lon="132.21843305555555">
<ele>25</ele>
</trkpt>
<trkpt lat="33.42736305555555" lon="132.2185961111111">
<ele>26</ele>
</trkpt>
<trkpt lat="33.427303888888886" lon="132.21885805555556">
<ele>23</ele>
</trkpt>
<trkpt lat="33.42727111111111" lon="132.21918305555556">
<ele>24</ele>
</trkpt>
<trkpt lat="33.42719611111111" lon="132.2193211111111">
<ele>25</ele>
</trkpt>
<trkpt lat="33.427013055555555" lon="132.2193961111111">
<ele>26</ele>
</trkpt>
<trkpt lat="33.42673805555555" lon="132.21953305555556">
<ele>22</ele>
</trkpt>
<trkpt lat="33.42652888888889" lon="132.2200961111111">
<ele>22</ele>
</trkpt>
<trkpt lat="33.42651305555555" lon="132.2201711111111">
<ele>23</ele>
</trkpt>
<trkpt lat="33.42640388888889" lon="132.22040805555557">
<ele>24</ele>
</trkpt>
<trkpt lat="33.42635388888889" lon="132.22045805555555">
<ele>25</ele>
</trkpt>
<trkpt lat="33.42626305555556" lon="132.22053305555556">
<ele>21</ele>
</trkpt>
<trkpt lat="33.42594611111111" lon="132.22060805555554">
<ele>14</ele>
</trkpt>
<trkpt lat="33.42588805555555" lon="132.22063305555557">
<ele>12</ele>
</trkpt>
<trkpt lat="33.425455" lon="132.22072111111112">
<ele>4</ele>
</trkpt>
<trkpt lat="33.42549611111111" lon="132.22158305555556">
<ele>6</ele>
</trkpt>
<trkpt lat="33.42552111111111" lon="132.22210805555557">
<ele>7</ele>
</trkpt>
<trkpt lat="33.42557" lon="132.222885">
<ele>6</ele>
</trkpt>
<trkpt lat="33.42557111111111" lon="132.2228838888889">
<ele>6</ele>
</trkpt>
<trkpt lat="33.42558" lon="132.22303305555556">
<ele>6</ele>
</trkpt>
<trkpt lat="33.425688055555554" lon="132.22520805555556">
<ele>6</ele>
</trkpt>
<trkpt lat="33.425713055555555" lon="132.22545805555555">
<ele>8</ele>
</trkpt>
<trkpt lat="33.425755" lon="132.22567">
<ele>8</ele>
</trkpt>
<trkpt lat="33.426005" lon="132.22610805555556">
<ele>14</ele>
</trkpt>
<trkpt lat="33.426296111111114" lon="132.22670805555555">
<ele>11</ele>
</trkpt>
<trkpt lat="33.42664611111111" lon="132.22733194444444">
<ele>13</ele>
</trkpt>
<trkpt lat="33.42686305555556" lon="132.227695">
<ele>15</ele>
</trkpt>
<trkpt lat="33.42691305555555" lon="132.22790805555556">
<ele>17</ele>
</trkpt>
<trkpt lat="33.42697111111111" lon="132.22813305555556">
<ele>17</ele>
</trkpt>
<trkpt lat="33.427005" lon="132.22885805555555">
<ele>26</ele>
</trkpt>
<trkpt lat="33.42698" lon="132.22930694444443">
<ele>22</ele>
</trkpt>
<trkpt lat="33.42693805555555" lon="132.229845">
<ele>28</ele>
</trkpt>
<trkpt lat="33.42691305555555" lon="132.22995694444444">
<ele>32</ele>
</trkpt>
<trkpt lat="33.426805" lon="132.23043194444443">
<ele>34</ele>
</trkpt>
<trkpt lat="33.426721111111114" lon="132.230645">
<ele>33</ele>
</trkpt>
<trkpt lat="33.426721111111114" lon="132.23075694444444">
<ele>34</ele>
</trkpt>
<trkpt lat="33.426746111111115" lon="132.23085694444444">
<ele>33</ele>
</trkpt>
<trkpt lat="33.42689611111111" lon="132.23118194444444">
<ele>37</ele>
</trkpt>
<trkpt lat="33.42693" lon="132.231545">
<ele>35</ele>
</trkpt>
<trkpt lat="33.42691305555555" lon="132.23182">
<ele>35</ele>
</trkpt>
<trkpt lat="33.42683" lon="132.23197">
<ele>33</ele>
</trkpt>
<trkpt lat="33.42658" lon="132.23250694444445">
<ele>34</ele>
</trkpt>
<trkpt lat="33.42638" lon="132.2330438888889">
<ele>35</ele>
</trkpt>
<trkpt lat="33.426205" lon="132.2333688888889">
<ele>39</ele>
</trkpt>
<trkpt lat="33.42608" lon="132.2335688888889">
<ele>41</ele>
</trkpt>
<trkpt lat="33.42603" lon="132.23384388888888">
<ele>48</ele>
</trkpt>
<trkpt lat="33.426046944444444" lon="132.2339438888889">
<ele>45</ele>
</trkpt>
<trkpt lat="33.426113055555554" lon="132.23408194444445">
<ele>45</ele>
</trkpt>
<trkpt lat="33.42623805555556" lon="132.23421888888888">
<ele>47</ele>
</trkpt>
<trkpt lat="33.42651305555555" lon="132.2346188888889">
<ele>46</ele>
</trkpt>
<trkpt lat="33.426588055555555" lon="132.2347938888889">
<ele>55</ele>
</trkpt>
<trkpt lat="33.426588055555555" lon="132.2349188888889">
<ele>56</ele>
</trkpt>
<trkpt lat="33.42654611111111" lon="132.23503194444444">
<ele>53</ele>
</trkpt>
<trkpt lat="33.426355" lon="132.23535694444445">
<ele>55</ele>
</trkpt>
<trkpt lat="33.426338055555554" lon="132.23556888888888">
<ele>56</ele>
</trkpt>
<trkpt lat="33.42643" lon="132.23579388888888">
<ele>54</ele>
</trkpt>
<trkpt lat="33.426521944444445" lon="132.23593194444445">
<ele>55</ele>
</trkpt>
<trkpt lat="33.42657194444445" lon="132.23601888888888">
<ele>57</ele>
</trkpt>
<trkpt lat="33.42664694444444" lon="132.23620694444443">
<ele>55</ele>
</trkpt>
<trkpt lat="33.42671305555555" lon="132.23635694444445">
<ele>57</ele>
</trkpt>
<trkpt lat="33.426696944444444" lon="132.23685694444444">
<ele>56</ele>
</trkpt>
<trkpt lat="33.42673805555555" lon="132.2370688888889">
<ele>55</ele>
</trkpt>
<trkpt lat="33.42684694444444" lon="132.23730694444444">
<ele>55</ele>
</trkpt>
<trkpt lat="33.42698" lon="132.23746888888888">
<ele>60</ele>
</trkpt>
<trkpt lat="33.42713805555555" lon="132.23759388888888">
<ele>63</ele>
</trkpt>
<trkpt lat="33.42771305555556" lon="132.23793111111112">
<ele>63</ele>
</trkpt>
<trkpt lat="33.42803" lon="132.2381188888889">
<ele>62</ele>
</trkpt>
<trkpt lat="33.428305" lon="132.2382438888889">
<ele>62</ele>
</trkpt>
<trkpt lat="33.42847111111111" lon="132.23826888888888">
<ele>63</ele>
</trkpt>
<trkpt lat="33.42902111111111" lon="132.2381188888889">
<ele>65</ele>
</trkpt>
<trkpt lat="33.42923805555556" lon="132.2381311111111">
<ele>70</ele>
</trkpt>
<trkpt lat="33.429455" lon="132.23830611111111">
<ele>77</ele>
</trkpt>
<trkpt lat="33.42964611111111" lon="132.2385561111111">
<ele>73</ele>
</trkpt>
<trkpt lat="33.42974611111111" lon="132.2386938888889">
<ele>74</ele>
</trkpt>
<trkpt lat="33.429805" lon="132.2387811111111">
<ele>75</ele>
</trkpt>
<trkpt lat="33.43000388888889" lon="132.2393311111111">
<ele>75</ele>
</trkpt>
<trkpt lat="33.43010388888889" lon="132.23961888888888">
<ele>70</ele>
</trkpt>
<trkpt lat="33.43029611111111" lon="132.23999388888888">
<ele>72</ele>
</trkpt>
<trkpt lat="33.43049611111111" lon="132.2402561111111">
<ele>72</ele>
</trkpt>
<trkpt lat="33.43062888888889" lon="132.2404061111111">
<ele>72</ele>
</trkpt>
<trkpt lat="33.43077111111111" lon="132.2405061111111">
<ele>72</ele>
</trkpt>
<trkpt lat="33.43094611111111" lon="132.24055611111112">
<ele>72</ele>
</trkpt>
<trkpt lat="33.431088055555556" lon="132.24054388888888">
<ele>76</ele>
</trkpt>
<trkpt lat="33.431221111111114" lon="132.2404938888889">
<ele>75</ele>
</trkpt>
<trkpt lat="33.431538055555556" lon="132.24031888888888">
<ele>77</ele>
</trkpt>
<trkpt lat="33.43166305555555" lon="132.24029388888889">
<ele>76</ele>
</trkpt>
<trkpt lat="33.43177111111111" lon="132.2403811111111">
<ele>74</ele>
</trkpt>
<trkpt lat="33.43197111111111" lon="132.2406311111111">
<ele>76</ele>
</trkpt>
<trkpt lat="33.43201305555556" lon="132.2407061111111">
<ele>76</ele>
</trkpt>
<trkpt lat="33.43202111111111" lon="132.24076888888888">
<ele>76</ele>
</trkpt>
<trkpt lat="33.43202111111111" lon="132.2409311111111">
<ele>76</ele>
</trkpt>
<trkpt lat="33.43192888888889" lon="132.24133111111112">
<ele>81</ele>
</trkpt>
<trkpt lat="33.43201305555556" lon="132.24178111111112">
<ele>84</ele>
</trkpt>
<trkpt lat="33.43223805555556" lon="132.24224388888888">
<ele>86</ele>
</trkpt>
<trkpt lat="33.432296111111114" lon="132.2425311111111">
<ele>83</ele>
</trkpt>
<trkpt lat="33.43241305555556" lon="132.24280611111112">
<ele>83</ele>
</trkpt>
<trkpt lat="33.43247111111111" lon="132.2428938888889">
<ele>84</ele>
</trkpt>
<trkpt lat="33.432588055555556" lon="132.2430061111111">
<ele>84</ele>
</trkpt>
<trkpt lat="33.43280388888889" lon="132.24319305555557">
<ele>87</ele>
</trkpt>
<trkpt lat="33.432853888888886" lon="132.24328111111112">
<ele>85</ele>
</trkpt>
<trkpt lat="33.43292111111111" lon="132.2434311111111">
<ele>88</ele>
</trkpt>
<trkpt lat="33.43309611111111" lon="132.24384305555554">
<ele>84</ele>
</trkpt>
<trkpt lat="33.43332888888889" lon="132.24444305555556">
<ele>84</ele>
</trkpt>
<trkpt lat="33.43352888888889" lon="132.2448061111111">
<ele>85</ele>
</trkpt>
<trkpt lat="33.43367111111111" lon="132.2450061111111">
<ele>86</ele>
</trkpt>
<trkpt lat="33.43383194444444" lon="132.2451338888889">
<ele>87</ele>
</trkpt>
<trkpt lat="33.43383194444444" lon="132.2451338888889">
<ele>87</ele>
</trkpt>
<trkpt lat="33.43420388888889" lon="132.24543111111112">
<ele>88</ele>
</trkpt>
<trkpt lat="33.43422888888889" lon="132.2454561111111">
<ele>87</ele>
</trkpt>
<trkpt lat="33.43501194444445" lon="132.24598111111112">
<ele>86</ele>
</trkpt>
<trkpt lat="33.43528805555555" lon="132.24616805555556">
<ele>77</ele>
</trkpt>
<trkpt lat="33.435988055555555" lon="132.24671805555556">
<ele>74</ele>
</trkpt>
<trkpt lat="33.43642111111111" lon="132.24710611111112">
<ele>69</ele>
</trkpt>
<trkpt lat="33.43681194444444" lon="132.24751805555556">
<ele>66</ele>
</trkpt>
<trkpt lat="33.43687888888889" lon="132.24761805555556">
<ele>64</ele>
</trkpt>
<trkpt lat="33.43707888888889" lon="132.2478311111111">
<ele>65</ele>
</trkpt>
<trkpt lat="33.43721194444444" lon="132.24794305555557">
<ele>65</ele>
</trkpt>
<trkpt lat="33.43739611111111" lon="132.24801805555555">
<ele>65</ele>
</trkpt>
<trkpt lat="33.43754611111111" lon="132.24811805555555">
<ele>64</ele>
</trkpt>
<trkpt lat="33.43772888888889" lon="132.24834305555555">
<ele>64</ele>
</trkpt>
<trkpt lat="33.43810388888889" lon="132.24898">
<ele>66</ele>
</trkpt>
<trkpt lat="33.438428888888886" lon="132.24958">
<ele>66</ele>
</trkpt>
<trkpt lat="33.43852888888889" lon="132.249905">
<ele>64</ele>
</trkpt>
<trkpt lat="33.43859611111111" lon="132.250155">
<ele>67</ele>
</trkpt>
<trkpt lat="33.438628888888886" lon="132.25048">
<ele>65</ele>
</trkpt>
<trkpt lat="33.43867111111111" lon="132.25096805555555">
<ele>67</ele>
</trkpt>
<trkpt lat="33.438721111111114" lon="132.25134194444445">
<ele>65</ele>
</trkpt>
<trkpt lat="33.43884611111111" lon="132.25191805555556">
<ele>65</ele>
</trkpt>
<trkpt lat="33.43896194444444" lon="132.25214194444445">
<ele>66</ele>
</trkpt>
<trkpt lat="33.43910388888889" lon="132.25234194444445">
<ele>67</ele>
</trkpt>
<trkpt lat="33.43922111111111" lon="132.25246694444445">
<ele>66</ele>
</trkpt>
<trkpt lat="33.43930388888889" lon="132.252505">
<ele>66</ele>
</trkpt>
<trkpt lat="33.43942111111111" lon="132.252455">
<ele>66</ele>
</trkpt>
<trkpt lat="33.43949611111111" lon="132.25236694444445">
<ele>65</ele>
</trkpt>
<trkpt lat="33.43952888888889" lon="132.25219305555555">
<ele>67</ele>
</trkpt>
<trkpt lat="33.43958694444444" lon="132.25196805555555">
<ele>65</ele>
</trkpt>
<trkpt lat="33.43964611111111" lon="132.25184305555555">
<ele>68</ele>
</trkpt>
<trkpt lat="33.439771111111114" lon="132.25178">
<ele>63</ele>
</trkpt>
<trkpt lat="33.43985388888889" lon="132.25179305555557">
<ele>63</ele>
</trkpt>
<trkpt lat="33.440045" lon="132.25203">
<ele>66</ele>
</trkpt>
<trkpt lat="33.440111944444446" lon="132.252205">
<ele>68</ele>
</trkpt>
<trkpt lat="33.44010388888889" lon="132.25239194444444">
<ele>62</ele>
</trkpt>
<trkpt lat="33.44007" lon="132.25259194444445">
<ele>63</ele>
</trkpt>
<trkpt lat="33.43997111111111" lon="132.252855">
<ele>57</ele>
</trkpt>
<trkpt lat="33.43994611111111" lon="132.253055">
<ele>54</ele>
</trkpt>
<trkpt lat="33.43997888888889" lon="132.25324194444445">
<ele>54</ele>
</trkpt>
<trkpt lat="33.44007111111111" lon="132.25346694444445">
<ele>55</ele>
</trkpt>
<trkpt lat="33.44016194444445" lon="132.25361694444445">
<ele>56</ele>
</trkpt>
<trkpt lat="33.440261944444444" lon="132.25369194444445">
<ele>55</ele>
</trkpt>
<trkpt lat="33.44042888888889" lon="132.25368">
<ele>56</ele>
</trkpt>
<trkpt lat="33.44052" lon="132.253605">
<ele>57</ele>
</trkpt>
<trkpt lat="33.44065388888889" lon="132.253555">
<ele>58</ele>
</trkpt>
<trkpt lat="33.44081194444444" lon="132.25354194444444">
<ele>56</ele>
</trkpt>
<trkpt lat="33.44092888888889" lon="132.253555">
<ele>56</ele>
</trkpt>
<trkpt lat="33.44106194444444" lon="132.25363">
<ele>55</ele>
</trkpt>
<trkpt lat="33.44128694444444" lon="132.253855">
<ele>47</ele>
</trkpt>
<trkpt lat="33.44160388888889" lon="132.25423">
<ele>45</ele>
</trkpt>
<trkpt lat="33.44172" lon="132.25444194444444">
<ele>46</ele>
</trkpt>
<trkpt lat="33.441795" lon="132.254705">
<ele>46</ele>
</trkpt>
<trkpt lat="33.441806944444444" lon="132.25473194444444">
<ele>46</ele>
</trkpt>
<trkpt lat="33.441806944444444" lon="132.25473194444444">
<ele>46</ele>
</trkpt>
<trkpt lat="33.44191194444444" lon="132.2549788888889">
<ele>46</ele>
</trkpt>
<trkpt lat="33.44197888888889" lon="132.25517888888888">
<ele>43</ele>
</trkpt>
<trkpt lat="33.44200388888889" lon="132.25534194444444">
<ele>45</ele>
</trkpt>
<trkpt lat="33.44200388888889" lon="132.2555788888889">
<ele>45</ele>
</trkpt>
<trkpt lat="33.442053888888886" lon="132.25571694444446">
<ele>44</ele>
</trkpt>
<trkpt lat="33.44212888888889" lon="132.25584194444446">
<ele>43</ele>
</trkpt>
<trkpt lat="33.442245" lon="132.25591694444444">
<ele>35</ele>
</trkpt>
<trkpt lat="33.442478888888886" lon="132.25589194444444">
<ele>33</ele>
</trkpt>
<trkpt lat="33.44272" lon="132.2557038888889">
<ele>36</ele>
</trkpt>
<trkpt lat="33.44291194444445" lon="132.25556694444444">
<ele>36</ele>
</trkpt>
<trkpt lat="33.44305305555555" lon="132.25549194444446">
<ele>37</ele>
</trkpt>
<trkpt lat="33.443145" lon="132.25549194444446">
<ele>38</ele>
</trkpt>
<trkpt lat="33.44327" lon="132.2555788888889">
<ele>37</ele>
</trkpt>
<trkpt lat="33.44340305555556" lon="132.25561694444445">
<ele>41</ele>
</trkpt>
<trkpt lat="33.44362805555556" lon="132.25541694444445">
<ele>44</ele>
</trkpt>
<trkpt lat="33.44382805555556" lon="132.25514194444443">
<ele>43</ele>
</trkpt>
<trkpt lat="33.443978055555554" lon="132.25484194444445">
<ele>46</ele>
</trkpt>
<trkpt lat="33.443978055555554" lon="132.254555">
<ele>49</ele>
</trkpt>
<trkpt lat="33.444095" lon="132.25436694444446">
<ele>47</ele>
</trkpt>
<trkpt lat="33.444253055555556" lon="132.25416694444445">
<ele>55</ele>
</trkpt>
<trkpt lat="33.44447" lon="132.25394194444445">
<ele>54</ele>
</trkpt>
<trkpt lat="33.444745" lon="132.25358">
<ele>55</ele>
</trkpt>
<trkpt lat="33.44487" lon="132.25344194444443">
<ele>57</ele>
</trkpt>
<trkpt lat="33.44497" lon="132.25339194444445">
<ele>55</ele>
</trkpt>
<trkpt lat="33.44508611111111" lon="132.25341694444444">
<ele>53</ele>
</trkpt>
<trkpt lat="33.44520305555555" lon="132.25349194444445">
<ele>53</ele>
</trkpt>
<trkpt lat="33.445295" lon="132.25364194444444">
<ele>55</ele>
</trkpt>
<trkpt lat="33.44549111111111" lon="132.2547561111111">
<ele>60</ele>
</trkpt>
<trkpt lat="33.44549111111111" lon="132.2547561111111">
<ele>60</ele>
</trkpt>
<trkpt lat="33.445528055555556" lon="132.25496694444445">
<ele>62</ele>
</trkpt>
<trkpt lat="33.44565305555555" lon="132.2551288888889">
<ele>62</ele>
</trkpt>
<trkpt lat="33.44585305555555" lon="132.25519194444445">
<ele>64</ele>
</trkpt>
<trkpt lat="33.44642" lon="132.25504194444446">
<ele>70</ele>
</trkpt>
<trkpt lat="33.44676111111111" lon="132.25495388888888">
<ele>74</ele>
</trkpt>
<trkpt lat="33.44656111111111" lon="132.25536694444443">
<ele>75</ele>
</trkpt>
<trkpt lat="33.446495" lon="132.2555538888889">
<ele>73</ele>
</trkpt>
<trkpt lat="33.446511111111114" lon="132.25654194444445">
<ele>83</ele>
</trkpt>
<trkpt lat="33.446495" lon="132.2569538888889">
<ele>92</ele>
</trkpt>
<trkpt lat="33.44646111111111" lon="132.25720388888888">
<ele>96</ele>
</trkpt>
<trkpt lat="33.44630305555555" lon="132.25767888888888">
<ele>92</ele>
</trkpt>
<trkpt lat="33.446245" lon="132.2579288888889">
<ele>94</ele>
</trkpt>
<trkpt lat="33.446245" lon="132.2580538888889">
<ele>94</ele>
</trkpt>
<trkpt lat="33.44636111111111" lon="132.25834194444445">
<ele>102</ele>
</trkpt>
<trkpt lat="33.446445" lon="132.25849194444444">
<ele>105</ele>
</trkpt>
<trkpt lat="33.44646111111111" lon="132.25859194444445">
<ele>105</ele>
</trkpt>
<trkpt lat="33.446445" lon="132.2587038888889">
<ele>106</ele>
</trkpt>
<trkpt lat="33.44627" lon="132.25904111111112">
<ele>105</ele>
</trkpt>
<trkpt lat="33.445995" lon="132.2594161111111">
<ele>102</ele>
</trkpt>
<trkpt lat="33.445861944444445" lon="132.2596411111111">
<ele>102</ele>
</trkpt>
<trkpt lat="33.44582805555556" lon="132.2597788888889">
<ele>102</ele>
</trkpt>
<trkpt lat="33.44582805555556" lon="132.25990388888889">
<ele>102</ele>
</trkpt>
<trkpt lat="33.44587" lon="132.2600038888889">
<ele>102</ele>
</trkpt>
<trkpt lat="33.44593694444445" lon="132.26006611111112">
<ele>107</ele>
</trkpt>
<trkpt lat="33.44602" lon="132.26005388888888">
<ele>110</ele>
</trkpt>
<trkpt lat="33.44607" lon="132.26002888888888">
<ele>110</ele>
</trkpt>
<trkpt lat="33.44616194444444" lon="132.25992888888888">
<ele>113</ele>
</trkpt>
<trkpt lat="33.44623611111111" lon="132.25981611111112">
<ele>116</ele>
</trkpt>
<trkpt lat="33.44627" lon="132.25971611111112">
<ele>115</ele>
</trkpt>
<trkpt lat="33.446311111111115" lon="132.2595038888889">
<ele>113</ele>
</trkpt>
<trkpt lat="33.44636111111111" lon="132.2593911111111">
<ele>114</ele>
</trkpt>
<trkpt lat="33.44638305555556" lon="132.25936388888888">
<ele>114</ele>
</trkpt>
<trkpt lat="33.44638388888889" lon="132.25936388888888">
<ele>114</ele>
</trkpt>
<trkpt lat="33.446595" lon="132.2591038888889">
<ele>115</ele>
</trkpt>
<trkpt lat="33.44667805555556" lon="132.2589661111111">
<ele>117</ele>
</trkpt>
<trkpt lat="33.44682" lon="132.2586038888889">
<ele>123</ele>
</trkpt>
<trkpt lat="33.44685305555556" lon="132.2584288888889">
<ele>122</ele>
</trkpt>
<trkpt lat="33.44687" lon="132.25806694444444">
<ele>123</ele>
</trkpt>
<trkpt lat="33.44691111111111" lon="132.25787888888888">
<ele>128</ele>
</trkpt>
<trkpt lat="33.44697" lon="132.25771694444444">
<ele>129</ele>
</trkpt>
<trkpt lat="33.44703611111111" lon="132.25759194444444">
<ele>130</ele>
</trkpt>
<trkpt lat="33.447445" lon="132.2571538888889">
<ele>130</ele>
</trkpt>
<trkpt lat="33.44752805555556" lon="132.2570288888889">
<ele>130</ele>
</trkpt>
<trkpt lat="33.44755305555555" lon="132.25674194444446">
<ele>130</ele>
</trkpt>
<trkpt lat="33.44757805555555" lon="132.2565788888889">
<ele>130</ele>
</trkpt>
<trkpt lat="33.44763611111111" lon="132.25651694444446">
<ele>130</ele>
</trkpt>
<trkpt lat="33.44788611111111" lon="132.2564538888889">
<ele>130</ele>
</trkpt>
<trkpt lat="33.447878055555556" lon="132.25641694444445">
<ele>130</ele>
</trkpt>
<trkpt lat="33.44772805555556" lon="132.25566694444444">
<ele>127</ele>
</trkpt>
<trkpt lat="33.44768694444444" lon="132.25545">
<ele>115</ele>
</trkpt>
<trkpt lat="33.44768694444444" lon="132.25545">
<ele>115</ele>
</trkpt>
<trkpt lat="33.44755305555555" lon="132.25474194444445">
<ele>76</ele>
</trkpt>
<trkpt lat="33.447361111111114" lon="132.25366694444443">
<ele>132</ele>
</trkpt>
<trkpt lat="33.44721111111111" lon="132.253005">
<ele>141</ele>
</trkpt>
<trkpt lat="33.44705305555556" lon="132.25236694444445">
<ele>144</ele>
</trkpt>
<trkpt lat="33.44694388888889" lon="132.25204194444444">
<ele>145</ele>
</trkpt>
<trkpt lat="33.44676888888889" lon="132.25161694444444">
<ele>143</ele>
</trkpt>
<trkpt lat="33.446553055555555" lon="132.251205">
<ele>144</ele>
</trkpt>
<trkpt lat="33.446286111111114" lon="132.25081805555556">
<ele>144</ele>
</trkpt>
<trkpt lat="33.445953055555556" lon="132.25041694444445">
<ele>157</ele>
</trkpt>
<trkpt lat="33.44480305555555" lon="132.249155">
<ele>158</ele>
</trkpt>
<trkpt lat="33.44336111111111" lon="132.24751805555556">
<ele>158</ele>
</trkpt>
<trkpt lat="33.442528055555556" lon="132.24653111111112">
<ele>159</ele>
</trkpt>
<trkpt lat="33.441653055555555" lon="132.24559305555556">
<ele>159</ele>
</trkpt>
<trkpt lat="33.44062" lon="132.2443311111111">
<ele>164</ele>
</trkpt>
<trkpt lat="33.44047" lon="132.24404305555555">
<ele>164</ele>
</trkpt>
<trkpt lat="33.440378055555556" lon="132.24376805555556">
<ele>170</ele>
</trkpt>
<trkpt lat="33.440311944444446" lon="132.24339305555554">
<ele>173</ele>
</trkpt>
<trkpt lat="33.44030611111111" lon="132.24319888888888">
<ele>173</ele>
</trkpt>
<trkpt lat="33.44030611111111" lon="132.24319888888888">
<ele>173</ele>
</trkpt>
<trkpt lat="33.44030305555555" lon="132.2431061111111">
<ele>173</ele>
</trkpt>
<trkpt lat="33.440328055555554" lon="132.24269305555555">
<ele>173</ele>
</trkpt>
<trkpt lat="33.44037" lon="132.2421688888889">
<ele>172</ele>
</trkpt>
<trkpt lat="33.440378055555556" lon="132.24156888888888">
<ele>175</ele>
</trkpt>
<trkpt lat="33.440353055555555" lon="132.2410811111111">
<ele>185</ele>
</trkpt>
<trkpt lat="33.440311944444446" lon="132.2407188888889">
<ele>183</ele>
</trkpt>
<trkpt lat="33.44021194444444" lon="132.2402811111111">
<ele>182</ele>
</trkpt>
<trkpt lat="33.440095" lon="132.23985611111112">
<ele>174</ele>
</trkpt>
<trkpt lat="33.439895" lon="132.2393688888889">
<ele>185</ele>
</trkpt>
<trkpt lat="33.43945305555555" lon="132.23850611111112">
<ele>188</ele>
</trkpt>
<trkpt lat="33.438995" lon="132.23773111111112">
<ele>192</ele>
</trkpt>
<trkpt lat="33.437736944444445" lon="132.2359688888889">
<ele>201</ele>
</trkpt>
<trkpt lat="33.43681194444444" lon="132.23485694444443">
<ele>207</ele>
</trkpt>
<trkpt lat="33.436395" lon="132.23421888888888">
<ele>207</ele>
</trkpt>
<trkpt lat="33.43632" lon="132.23408194444445">
<ele>205</ele>
</trkpt>
<trkpt lat="33.43612888888889" lon="132.23365694444445">
<ele>206</ele>
</trkpt>
<trkpt lat="33.435986944444444" lon="132.23319388888888">
<ele>213</ele>
</trkpt>
<trkpt lat="33.435811944444445" lon="132.2326438888889">
<ele>216</ele>
</trkpt>
<trkpt lat="33.43570388888889" lon="132.23235694444443">
<ele>224</ele>
</trkpt>
<trkpt lat="33.43563694444445" lon="132.2322438888889">
<ele>223</ele>
</trkpt>
<trkpt lat="33.435545" lon="132.23210694444444">
<ele>226</ele>
</trkpt>
<trkpt lat="33.43540388888889" lon="132.23195694444445">
<ele>230</ele>
</trkpt>
<trkpt lat="33.435195" lon="132.23177">
<ele>234</ele>
</trkpt>
<trkpt lat="33.43419611111111" lon="132.23092">
<ele>252</ele>
</trkpt>
<trkpt lat="33.43389611111111" lon="132.23067">
<ele>250</ele>
</trkpt>
<trkpt lat="33.43358694444444" lon="132.230395">
<ele>248</ele>
</trkpt>
<trkpt lat="33.43289611111111" lon="132.229795">
<ele>243</ele>
</trkpt>
<trkpt lat="33.43271194444444" lon="132.22963194444444">
<ele>242</ele>
</trkpt>
<trkpt lat="33.43239611111111" lon="132.22928194444444">
<ele>240</ele>
</trkpt>
<trkpt lat="33.43207888888889" lon="132.22882">
<ele>237</ele>
</trkpt>
<trkpt lat="33.43185388888889" lon="132.22840805555555">
<ele>235</ele>
</trkpt>
<trkpt lat="33.43172888888889" lon="132.22795805555555">
<ele>234</ele>
</trkpt>
<trkpt lat="33.43162888888889" lon="132.22760805555555">
<ele>232</ele>
</trkpt>
<trkpt lat="33.43155388888889" lon="132.22713305555556">
<ele>232</ele>
</trkpt>
<trkpt lat="33.43150388888889" lon="132.226645">
<ele>235</ele>
</trkpt>
<trkpt lat="33.431311944444445" lon="132.22478305555555">
<ele>222</ele>
</trkpt>
<trkpt lat="33.43130388888889" lon="132.224245">
<ele>227</ele>
</trkpt>
<trkpt lat="33.43137888888889" lon="132.22372">
<ele>226</ele>
</trkpt>
<trkpt lat="33.43154611111111" lon="132.22313305555556">
<ele>223</ele>
</trkpt>
<trkpt lat="33.43166194444444" lon="132.2225711111111">
<ele>224</ele>
</trkpt>
<trkpt lat="33.43174611111111" lon="132.22205805555555">
<ele>213</ele>
</trkpt>
<trkpt lat="33.43178694444445" lon="132.22130805555557">
<ele>231</ele>
</trkpt>
<trkpt lat="33.431803888888886" lon="132.21924611111112">
<ele>229</ele>
</trkpt>
<trkpt lat="33.43181194444445" lon="132.21878305555555">
<ele>225</ele>
</trkpt>
<trkpt lat="33.43188694444444" lon="132.2181461111111">
<ele>223</ele>
</trkpt>
<trkpt lat="33.43205388888889" lon="132.21705805555555">
<ele>226</ele>
</trkpt>
<trkpt lat="33.432428888888886" lon="132.21447111111112">
<ele>233</ele>
</trkpt>
<trkpt lat="33.432428888888886" lon="132.2141711111111">
<ele>215</ele>
</trkpt>
<trkpt lat="33.43240388888889" lon="132.2139588888889">
<ele>202</ele>
</trkpt>
<trkpt lat="33.43235388888889" lon="132.2137338888889">
<ele>209</ele>
</trkpt>
<trkpt lat="33.43232" lon="132.21359611111112">
<ele>212</ele>
</trkpt>
<trkpt lat="33.43228694444444" lon="132.21347111111112">
<ele>214</ele>
</trkpt>
<trkpt lat="33.43212888888889" lon="132.2131711111111">
<ele>217</ele>
</trkpt>
<trkpt lat="33.43187888888889" lon="132.21277111111112">
<ele>212</ele>
</trkpt>
<trkpt lat="33.431761944444446" lon="132.2126088888889">
<ele>203</ele>
</trkpt>
<trkpt lat="33.431578888888886" lon="132.21245888888888">
<ele>211</ele>
</trkpt>
<trkpt lat="33.431353888888886" lon="132.2122961111111">
<ele>229</ele>
</trkpt>
<trkpt lat="33.42991194444444" lon="132.21164611111112">
<ele>230</ele>
</trkpt>
<trkpt lat="33.428911944444444" lon="132.2111211111111">
<ele>229</ele>
</trkpt>
<trkpt lat="33.42742888888889" lon="132.2103211111111">
<ele>229</ele>
</trkpt>
<trkpt lat="33.42637888888889" lon="132.2098211111111">
<ele>229</ele>
</trkpt>
<trkpt lat="33.42543805555555" lon="132.2093211111111">
<ele>229</ele>
</trkpt>
<trkpt lat="33.42477888888889" lon="132.20889694444443">
<ele>229</ele>
</trkpt>
<trkpt lat="33.424503888888886" lon="132.20860888888888">
<ele>227</ele>
</trkpt>
<trkpt lat="33.42390388888889" lon="132.20782194444445">
<ele>226</ele>
</trkpt>
<trkpt lat="33.42326388888889" lon="132.206955">
<ele>225</ele>
</trkpt>
<trkpt lat="33.42326388888889" lon="132.206955">
<ele>225</ele>
</trkpt>
<trkpt lat="33.423138055555555" lon="132.20678388888888">
<ele>225</ele>
</trkpt>
<trkpt lat="33.42225388888889" lon="132.20557194444444">
<ele>229</ele>
</trkpt>
<trkpt lat="33.42180388888889" lon="132.2048838888889">
<ele>237</ele>
</trkpt>
<trkpt lat="33.42151305555556" lon="132.20438388888888">
<ele>235</ele>
</trkpt>
<trkpt lat="33.42082888888889" lon="132.20313388888889">
<ele>236</ele>
</trkpt>
<trkpt lat="33.42014611111111" lon="132.2018838888889">
<ele>242</ele>
</trkpt>
<trkpt lat="33.42001305555556" lon="132.201585">
<ele>241</ele>
</trkpt>
<trkpt lat="33.41988805555555" lon="132.20121">
<ele>239</ele>
</trkpt>
<trkpt lat="33.41963805555555" lon="132.200385">
<ele>235</ele>
</trkpt>
<trkpt lat="33.41952888888889" lon="132.19997194444446">
<ele>234</ele>
</trkpt>
<trkpt lat="33.41950388888889" lon="132.199685">
<ele>233</ele>
</trkpt>
<trkpt lat="33.41952111111111" lon="132.19904694444443">
<ele>225</ele>
</trkpt>
<trkpt lat="33.41955388888889" lon="132.19866">
<ele>224</ele>
</trkpt>
<trkpt lat="33.41958805555556" lon="132.19809805555556">
<ele>226</ele>
</trkpt>
<trkpt lat="33.41956305555556" lon="132.197635">
<ele>226</ele>
</trkpt>
<trkpt lat="33.41956305555556" lon="132.19674694444444">
<ele>226</ele>
</trkpt>
<trkpt lat="33.41959611111111" lon="132.19634805555555">
<ele>226</ele>
</trkpt>
<trkpt lat="33.41965388888889" lon="132.19602194444445">
<ele>226</ele>
</trkpt>
<trkpt lat="33.41968194444444" lon="132.19587388888888">
<ele>226</ele>
</trkpt>
<trkpt lat="33.41968194444444" lon="132.19587388888888">
<ele>226</ele>
</trkpt>
<trkpt lat="33.41972888888889" lon="132.19562194444444">
<ele>226</ele>
</trkpt>
<trkpt lat="33.42001194444445" lon="132.19511">
<ele>227</ele>
</trkpt>
<trkpt lat="33.420113055555554" lon="132.19491">
<ele>228</ele>
</trkpt>
<trkpt lat="33.420161944444445" lon="132.19466">
<ele>226</ele>
</trkpt>
<trkpt lat="33.42019611111111" lon="132.19431">
<ele>226</ele>
</trkpt>
<trkpt lat="33.42037888888889" lon="132.19434694444445">
<ele>232</ele>
</trkpt>
<trkpt lat="33.420411944444446" lon="132.19444694444445">
<ele>233</ele>
</trkpt>
<trkpt lat="33.420411944444446" lon="132.19471">
<ele>234</ele>
</trkpt>
<trkpt lat="33.42027111111111" lon="132.195135">
<ele>232</ele>
</trkpt>
<trkpt lat="33.420186944444445" lon="132.19562194444444">
<ele>233</ele>
</trkpt>
<trkpt lat="33.42014611111111" lon="132.19602194444445">
<ele>244</ele>
</trkpt>
<trkpt lat="33.42005388888889" lon="132.19661">
<ele>253</ele>
</trkpt>
<trkpt lat="33.42007111111111" lon="132.19721">
<ele>254</ele>
</trkpt>
<trkpt lat="33.42024611111111" lon="132.19829694444445">
<ele>266</ele>
</trkpt>
<trkpt lat="33.42041305555556" lon="132.19884694444445">
<ele>269</ele>
</trkpt>
<trkpt lat="33.42048805555556" lon="132.19897194444445">
<ele>272</ele>
</trkpt>
<trkpt lat="33.42057888888889" lon="132.199035">
<ele>273</ele>
</trkpt>
<trkpt lat="33.42068805555556" lon="132.19901">
<ele>277</ele>
</trkpt>
<trkpt lat="33.42076194444444" lon="132.198885">
<ele>280</ele>
</trkpt>
<trkpt lat="33.420746111111114" lon="132.19871">
<ele>282</ele>
</trkpt>
<trkpt lat="33.420588055555555" lon="132.198385">
<ele>282</ele>
</trkpt>
<trkpt lat="33.420563055555554" lon="132.198135">
<ele>284</ele>
</trkpt>
<trkpt lat="33.42062888888889" lon="132.197635">
<ele>287</ele>
</trkpt>
<trkpt lat="33.42073805555555" lon="132.197485">
<ele>292</ele>
</trkpt>
<trkpt lat="33.421171111111114" lon="132.19716">
<ele>302</ele>
</trkpt>
<trkpt lat="33.42137888888889" lon="132.19704694444445">
<ele>303</ele>
</trkpt>
<trkpt lat="33.42153694444445" lon="132.19706">
<ele>304</ele>
</trkpt>
<trkpt lat="33.42164611111111" lon="132.19714694444446">
<ele>304</ele>
</trkpt>
<trkpt lat="33.42170388888889" lon="132.19742194444444">
<ele>304</ele>
</trkpt>
<trkpt lat="33.421728888888886" lon="132.19782194444446">
<ele>311</ele>
</trkpt>
<trkpt lat="33.42170388888889" lon="132.19826">
<ele>317</ele>
</trkpt>
<trkpt lat="33.421636944444444" lon="132.19866">
<ele>315</ele>
</trkpt>
<trkpt lat="33.42157111111111" lon="132.19901">
<ele>318</ele>
</trkpt>
<trkpt lat="33.421585" lon="132.19922805555555">
<ele>317</ele>
</trkpt>
    </trkseg>
  </trk>
</gpx>