<?xml version="1.0" encoding="UTF-8"?>
<gpx version="1.1"
     creator="KMLtoGPX"
     xmlns="http://www.topografix.com/GPX/1/1">
  <metadata>
    <name>Triangle Course (Mountain) Higashikagawa</name>
    <desc>トライアングルコース（山）東かがわ市</desc>
    <bounds minlat="34.174748055555554" minlon="134.2074738888889" maxlat="34.25901805555556" maxlon="134.33678305555554"/>
  </metadata>
  <trk>
    <name>Triangle Course (Mountain) Higashikagawa</name>
    <trkseg>
<trkpt lat="34.174748055555554" lon="134.3303388888889">
<ele>235</ele>
</trkpt>
<trkpt lat="34.17516388888889" lon="134.3302461111111">
<ele>233</ele>
</trkpt>
<trkpt lat="34.17616388888889" lon="134.33007111111112">
<ele>231</ele>
</trkpt>
<trkpt lat="34.176555" lon="134.3300211111111">
<ele>229</ele>
</trkpt>
<trkpt lat="34.17719694444445" lon="134.3298838888889">
<ele>228</ele>
</trkpt>
<trkpt lat="34.17772194444444" lon="134.32975888888888">
<ele>226</ele>
</trkpt>
<trkpt lat="34.178221944444445" lon="134.3296961111111">
<ele>225</ele>
</trkpt>
<trkpt lat="34.178655" lon="134.32960888888888">
<ele>224</ele>
</trkpt>
<trkpt lat="34.17918" lon="134.32952111111112">
<ele>222</ele>
</trkpt>
<trkpt lat="34.17979611111111" lon="134.32940888888888">
<ele>220</ele>
</trkpt>
<trkpt lat="34.18049611111111" lon="134.3292711111111">
<ele>219</ele>
</trkpt>
<trkpt lat="34.180863055555555" lon="134.3292211111111">
<ele>213</ele>
</trkpt>
<trkpt lat="34.18111305555556" lon="134.32929611111112">
<ele>209</ele>
</trkpt>
<trkpt lat="34.18129611111111" lon="134.32940888888888">
<ele>206</ele>
</trkpt>
<trkpt lat="34.18161305555556" lon="134.32974611111112">
<ele>205</ele>
</trkpt>
<trkpt lat="34.18204611111111" lon="134.3303588888889">
<ele>195</ele>
</trkpt>
<trkpt lat="34.18208805555555" lon="134.33043388888888">
<ele>195</ele>
</trkpt>
<trkpt lat="34.18243805555556" lon="134.33098388888888">
<ele>195</ele>
</trkpt>
<trkpt lat="34.18297111111111" lon="134.33190888888888">
<ele>184</ele>
</trkpt>
<trkpt lat="34.18352111111111" lon="134.3328588888889">
<ele>176</ele>
</trkpt>
<trkpt lat="34.18369611111111" lon="134.33313388888888">
<ele>175</ele>
</trkpt>
<trkpt lat="34.184238055555554" lon="134.33382111111112">
<ele>167</ele>
</trkpt>
<trkpt lat="34.18442888888889" lon="134.3341211111111">
<ele>164</ele>
</trkpt>
<trkpt lat="34.184536944444446" lon="134.33439611111112">
<ele>164</ele>
</trkpt>
<trkpt lat="34.18465388888889" lon="134.33472111111112">
<ele>162</ele>
</trkpt>
<trkpt lat="34.184778888888886" lon="134.33488305555557">
<ele>158</ele>
</trkpt>
<trkpt lat="34.18510388888889" lon="134.3352211111111">
<ele>156</ele>
</trkpt>
<trkpt lat="34.185386944444446" lon="134.3355711111111">
<ele>154</ele>
</trkpt>
<trkpt lat="34.18553694444444" lon="134.3357961111111">
<ele>154</ele>
</trkpt>
<trkpt lat="34.185628888888886" lon="134.33599611111111">
<ele>155</ele>
</trkpt>
<trkpt lat="34.185721111111114" lon="134.33610805555554">
<ele>154</ele>
</trkpt>
<trkpt lat="34.18582888888889" lon="134.33615805555556">
<ele>153</ele>
</trkpt>
<trkpt lat="34.18595388888889" lon="134.3361711111111">
<ele>150</ele>
</trkpt>
<trkpt lat="34.18602888888889" lon="134.33620805555555">
<ele>147</ele>
</trkpt>
<trkpt lat="34.186861944444445" lon="134.33673305555556">
<ele>137</ele>
</trkpt>
<trkpt lat="34.18709611111111" lon="134.33678305555554">
<ele>134</ele>
</trkpt>
<trkpt lat="34.18732111111111" lon="134.33678305555554">
<ele>130</ele>
</trkpt>
<trkpt lat="34.18807" lon="134.3366961111111">
<ele>134</ele>
</trkpt>
<trkpt lat="34.188295" lon="134.33664611111112">
<ele>127</ele>
</trkpt>
<trkpt lat="34.188428888888886" lon="134.3365711111111">
<ele>124</ele>
</trkpt>
<trkpt lat="34.18852" lon="134.33648305555556">
<ele>126</ele>
</trkpt>
<trkpt lat="34.188795" lon="134.33620805555555">
<ele>124</ele>
</trkpt>
<trkpt lat="34.18888694444444" lon="134.33613305555556">
<ele>124</ele>
</trkpt>
<trkpt lat="34.188986944444444" lon="134.33610805555554">
<ele>122</ele>
</trkpt>
<trkpt lat="34.18911194444444" lon="134.33610805555554">
<ele>123</ele>
</trkpt>
<trkpt lat="34.18933694444444" lon="134.33615805555556">
<ele>124</ele>
</trkpt>
<trkpt lat="34.18957888888889" lon="134.33618305555555">
<ele>124</ele>
</trkpt>
<trkpt lat="34.189745" lon="134.33615805555556">
<ele>124</ele>
</trkpt>
<trkpt lat="34.18996194444444" lon="134.33603305555556">
<ele>121</ele>
</trkpt>
<trkpt lat="34.190153055555555" lon="134.33590805555556">
<ele>117</ele>
</trkpt>
<trkpt lat="34.190495" lon="134.33564611111112">
<ele>112</ele>
</trkpt>
<trkpt lat="34.190761944444446" lon="134.3353461111111">
<ele>111</ele>
</trkpt>
<trkpt lat="34.19106194444444" lon="134.33500805555556">
<ele>106</ele>
</trkpt>
<trkpt lat="34.191445" lon="134.33455805555556">
<ele>104</ele>
</trkpt>
<trkpt lat="34.191628055555555" lon="134.3344211111111">
<ele>103</ele>
</trkpt>
<trkpt lat="34.19180305555555" lon="134.3343088888889">
<ele>102</ele>
</trkpt>
<trkpt lat="34.19212" lon="134.33415888888888">
<ele>101</ele>
</trkpt>
<trkpt lat="34.19298611111111" lon="134.33380888888888">
<ele>97</ele>
</trkpt>
<trkpt lat="34.193245" lon="134.33370888888888">
<ele>97</ele>
</trkpt>
<trkpt lat="34.19388611111111" lon="134.3334338888889">
<ele>94</ele>
</trkpt>
<trkpt lat="34.195636111111114" lon="134.3327211111111">
<ele>85</ele>
</trkpt>
<trkpt lat="34.19616111111111" lon="134.3325088888889">
<ele>85</ele>
</trkpt>
<trkpt lat="34.19645194444445" lon="134.33235888888888">
<ele>85</ele>
</trkpt>
<trkpt lat="34.19663611111111" lon="134.33220888888889">
<ele>82</ele>
</trkpt>
<trkpt lat="34.19728611111111" lon="134.3317338888889">
<ele>79</ele>
</trkpt>
<trkpt lat="34.19858611111111" lon="134.3307838888889">
<ele>76</ele>
</trkpt>
<trkpt lat="34.19877694444445" lon="134.33067111111112">
<ele>76</ele>
</trkpt>
<trkpt lat="34.19898611111111" lon="134.3305838888889">
<ele>77</ele>
</trkpt>
<trkpt lat="34.19902694444445" lon="134.3305588888889">
<ele>78</ele>
</trkpt>
<trkpt lat="34.199376944444445" lon="134.3304588888889">
<ele>77</ele>
</trkpt>
<trkpt lat="34.20145194444444" lon="134.3301088888889">
<ele>64</ele>
</trkpt>
<trkpt lat="34.20209305555556" lon="134.32999611111111">
<ele>63</ele>
</trkpt>
<trkpt lat="34.202535" lon="134.3299338888889">
<ele>64</ele>
</trkpt>
<trkpt lat="34.20281" lon="134.3298961111111">
<ele>63</ele>
</trkpt>
<trkpt lat="34.20321" lon="134.32985888888888">
<ele>62</ele>
</trkpt>
<trkpt lat="34.20431" lon="134.3297838888889">
<ele>57</ele>
</trkpt>
<trkpt lat="34.20466805555556" lon="134.32975888888888">
<ele>55</ele>
</trkpt>
<trkpt lat="34.20484305555556" lon="134.32975888888888">
<ele>55</ele>
</trkpt>
<trkpt lat="34.20514305555555" lon="134.3297961111111">
<ele>54</ele>
</trkpt>
<trkpt lat="34.20590111111111" lon="134.32998388888888">
<ele>52</ele>
</trkpt>
<trkpt lat="34.20726805555555" lon="134.3303588888889">
<ele>47</ele>
</trkpt>
<trkpt lat="34.208441944444445" lon="134.33067111111112">
<ele>44</ele>
</trkpt>
<trkpt lat="34.20855888888889" lon="134.3307088888889">
<ele>40</ele>
</trkpt>
<trkpt lat="34.20943388888889" lon="134.3309461111111">
<ele>38</ele>
</trkpt>
<trkpt lat="34.20990111111111" lon="134.33108388888888">
<ele>36</ele>
</trkpt>
<trkpt lat="34.209941944444445" lon="134.3308461111111">
<ele>35</ele>
</trkpt>
<trkpt lat="34.20990111111111" lon="134.3305711111111">
<ele>35</ele>
</trkpt>
<trkpt lat="34.209851111111114" lon="134.3303838888889">
<ele>35</ele>
</trkpt>
<trkpt lat="34.20972611111111" lon="134.3301588888889">
<ele>36</ele>
</trkpt>
<trkpt lat="34.20938388888889" lon="134.3298088888889">
<ele>38</ele>
</trkpt>
<trkpt lat="34.20915111111111" lon="134.3295588888889">
<ele>38</ele>
</trkpt>
<trkpt lat="34.20885111111111" lon="134.32924694444444">
<ele>37</ele>
</trkpt>
<trkpt lat="34.20853388888889" lon="134.32894694444445">
<ele>38</ele>
</trkpt>
<trkpt lat="34.20818388888889" lon="134.3286338888889">
<ele>38</ele>
</trkpt>
<trkpt lat="34.20791805555555" lon="134.32838388888888">
<ele>39</ele>
</trkpt>
<trkpt lat="34.20755888888889" lon="134.32799694444444">
<ele>45</ele>
</trkpt>
<trkpt lat="34.20747611111111" lon="134.32790888888889">
<ele>48</ele>
</trkpt>
<trkpt lat="34.20729305555555" lon="134.32772194444445">
<ele>48</ele>
</trkpt>
<trkpt lat="34.206716944444445" lon="134.3268588888889">
<ele>47</ele>
</trkpt>
<trkpt lat="34.206583888888886" lon="134.32672194444444">
<ele>47</ele>
</trkpt>
<trkpt lat="34.206451111111114" lon="134.32662194444444">
<ele>48</ele>
</trkpt>
<trkpt lat="34.20627611111111" lon="134.32652194444444">
<ele>47</ele>
</trkpt>
<trkpt lat="34.20611805555556" lon="134.32644694444446">
<ele>48</ele>
</trkpt>
<trkpt lat="34.205868055555555" lon="134.32632194444443">
<ele>46</ele>
</trkpt>
<trkpt lat="34.20579305555555" lon="134.3262838888889">
<ele>46</ele>
</trkpt>
<trkpt lat="34.20568388888889" lon="134.32623388888888">
<ele>47</ele>
</trkpt>
<trkpt lat="34.205576111111114" lon="134.32610888888888">
<ele>44</ele>
</trkpt>
<trkpt lat="34.205508888888886" lon="134.32599694444446">
<ele>44</ele>
</trkpt>
<trkpt lat="34.205418055555555" lon="134.32579694444445">
<ele>43</ele>
</trkpt>
<trkpt lat="34.204951111111114" lon="134.3247838888889">
<ele>41</ele>
</trkpt>
<trkpt lat="34.204768055555554" lon="134.32441">
<ele>44</ele>
</trkpt>
<trkpt lat="34.20451805555555" lon="134.32389694444444">
<ele>45</ele>
</trkpt>
<trkpt lat="34.20445111111111" lon="134.32371">
<ele>44</ele>
</trkpt>
<trkpt lat="34.20444305555556" lon="134.32354694444444">
<ele>46</ele>
</trkpt>
<trkpt lat="34.20447611111111" lon="134.32299694444444">
<ele>45</ele>
</trkpt>
<trkpt lat="34.20450888888889" lon="134.322435">
<ele>44</ele>
</trkpt>
<trkpt lat="34.204543055555554" lon="134.32224694444446">
<ele>44</ele>
</trkpt>
<trkpt lat="34.20462611111111" lon="134.32189805555555">
<ele>44</ele>
</trkpt>
<trkpt lat="34.204858888888886" lon="134.32117194444444">
<ele>44</ele>
</trkpt>
<trkpt lat="34.20494305555555" lon="134.32084805555556">
<ele>43</ele>
</trkpt>
<trkpt lat="34.205151111111114" lon="134.32012194444445">
<ele>45</ele>
</trkpt>
<trkpt lat="34.20522611111111" lon="134.31971">
<ele>46</ele>
</trkpt>
<trkpt lat="34.20525888888889" lon="134.31936">
<ele>47</ele>
</trkpt>
<trkpt lat="34.205283888888886" lon="134.31909805555554">
<ele>47</ele>
</trkpt>
<trkpt lat="34.20530888888889" lon="134.31881">
<ele>48</ele>
</trkpt>
<trkpt lat="34.20535111111111" lon="134.31796">
<ele>47</ele>
</trkpt>
<trkpt lat="34.205393055555554" lon="134.31692305555555">
<ele>47</ele>
</trkpt>
<trkpt lat="34.205376111111114" lon="134.31681111111112">
<ele>47</ele>
</trkpt>
<trkpt lat="34.20486694444445" lon="134.31494805555556">
<ele>50</ele>
</trkpt>
<trkpt lat="34.20483388888889" lon="134.31484805555556">
<ele>50</ele>
</trkpt>
<trkpt lat="34.204768055555554" lon="134.31477305555555">
<ele>50</ele>
</trkpt>
<trkpt lat="34.204726111111114" lon="134.31469805555557">
<ele>50</ele>
</trkpt>
<trkpt lat="34.203783888888886" lon="134.31362305555555">
<ele>55</ele>
</trkpt>
<trkpt lat="34.203718055555555" lon="134.31353611111112">
<ele>56</ele>
</trkpt>
<trkpt lat="34.20352611111111" lon="134.31296111111112">
<ele>55</ele>
</trkpt>
<trkpt lat="34.20338388888889" lon="134.31253611111111">
<ele>54</ele>
</trkpt>
<trkpt lat="34.20335111111111" lon="134.31247305555556">
<ele>54</ele>
</trkpt>
<trkpt lat="34.203293055555555" lon="134.31241111111112">
<ele>54</ele>
</trkpt>
<trkpt lat="34.20308388888889" lon="134.31219805555557">
<ele>55</ele>
</trkpt>
<trkpt lat="34.20287611111111" lon="134.31192305555555">
<ele>55</ele>
</trkpt>
<trkpt lat="34.20265888888889" lon="134.3115611111111">
<ele>54</ele>
</trkpt>
<trkpt lat="34.202376111111114" lon="134.31079888888888">
<ele>56</ele>
</trkpt>
<trkpt lat="34.20229305555556" lon="134.31057388888888">
<ele>57</ele>
</trkpt>
<trkpt lat="34.20220888888889" lon="134.31026111111112">
<ele>59</ele>
</trkpt>
<trkpt lat="34.20220111111111" lon="134.31013611111112">
<ele>59</ele>
</trkpt>
<trkpt lat="34.20222611111111" lon="134.30999888888888">
<ele>58</ele>
</trkpt>
<trkpt lat="34.20233388888889" lon="134.30967388888888">
<ele>58</ele>
</trkpt>
<trkpt lat="34.20245888888889" lon="134.3093738888889">
<ele>58</ele>
</trkpt>
<trkpt lat="34.202508888888886" lon="134.3091988888889">
<ele>59</ele>
</trkpt>
<trkpt lat="34.202508888888886" lon="134.30891111111112">
<ele>60</ele>
</trkpt>
<trkpt lat="34.202443055555555" lon="134.3086111111111">
<ele>61</ele>
</trkpt>
<trkpt lat="34.20303388888889" lon="134.30866111111112">
<ele>56</ele>
</trkpt>
<trkpt lat="34.20305111111111" lon="134.30819888888888">
<ele>57</ele>
</trkpt>
<trkpt lat="34.20307611111111" lon="134.30817611111112">
<ele>57</ele>
</trkpt>
<trkpt lat="34.20307611111111" lon="134.30817611111112">
<ele>57</ele>
</trkpt>
<trkpt lat="34.20305111111111" lon="134.30819888888888">
<ele>57</ele>
</trkpt>
<trkpt lat="34.20303388888889" lon="134.30866111111112">
<ele>56</ele>
</trkpt>
<trkpt lat="34.202443055555555" lon="134.3086111111111">
<ele>61</ele>
</trkpt>
<trkpt lat="34.20242611111111" lon="134.30853611111112">
<ele>61</ele>
</trkpt>
<trkpt lat="34.20233388888889" lon="134.3079488888889">
<ele>62</ele>
</trkpt>
<trkpt lat="34.20234305555555" lon="134.3075988888889">
<ele>62</ele>
</trkpt>
<trkpt lat="34.20236805555555" lon="134.3074738888889">
<ele>62</ele>
</trkpt>
<trkpt lat="34.202601111111115" lon="134.30671194444446">
<ele>61</ele>
</trkpt>
<trkpt lat="34.20279305555555" lon="134.30601194444444">
<ele>61</ele>
</trkpt>
<trkpt lat="34.20279305555555" lon="134.30591194444443">
<ele>61</ele>
</trkpt>
<trkpt lat="34.202708888888885" lon="134.30501194444443">
<ele>62</ele>
</trkpt>
<trkpt lat="34.20265888888889" lon="134.3045238888889">
<ele>62</ele>
</trkpt>
<trkpt lat="34.20265888888889" lon="134.30441194444444">
<ele>62</ele>
</trkpt>
<trkpt lat="34.202708888888885" lon="134.3041988888889">
<ele>62</ele>
</trkpt>
<trkpt lat="34.20277611111111" lon="134.30408694444444">
<ele>62</ele>
</trkpt>
<trkpt lat="34.202868055555555" lon="134.30393694444444">
<ele>61</ele>
</trkpt>
<trkpt lat="34.20298388888889" lon="134.30378694444445">
<ele>61</ele>
</trkpt>
<trkpt lat="34.20320888888889" lon="134.30348694444444">
<ele>63</ele>
</trkpt>
<trkpt lat="34.20328388888889" lon="134.30322388888888">
<ele>66</ele>
</trkpt>
<trkpt lat="34.203266944444444" lon="134.30311194444445">
<ele>67</ele>
</trkpt>
<trkpt lat="34.20317611111111" lon="134.30267388888888">
<ele>67</ele>
</trkpt>
<trkpt lat="34.20303388888889" lon="134.30218694444446">
<ele>67</ele>
</trkpt>
<trkpt lat="34.20271694444445" lon="134.30145">
<ele>67</ele>
</trkpt>
<trkpt lat="34.202441944444445" lon="134.30071194444446">
<ele>68</ele>
</trkpt>
<trkpt lat="34.20240111111111" lon="134.30041194444445">
<ele>69</ele>
</trkpt>
<trkpt lat="34.20240111111111" lon="134.30008694444444">
<ele>68</ele>
</trkpt>
<trkpt lat="34.20243388888889" lon="134.29975">
<ele>68</ele>
</trkpt>
<trkpt lat="34.202491944444446" lon="134.2991">
<ele>69</ele>
</trkpt>
<trkpt lat="34.20250111111111" lon="134.29868694444446">
<ele>69</ele>
</trkpt>
<trkpt lat="34.20252611111111" lon="134.29793694444444">
<ele>72</ele>
</trkpt>
<trkpt lat="34.20252611111111" lon="134.29598805555557">
<ele>76</ele>
</trkpt>
<trkpt lat="34.202491944444446" lon="134.295675">
<ele>76</ele>
</trkpt>
<trkpt lat="34.20245888888889" lon="134.295525">
<ele>76</ele>
</trkpt>
<trkpt lat="34.202266944444446" lon="134.295075">
<ele>75</ele>
</trkpt>
<trkpt lat="34.202241944444445" lon="134.29498805555556">
<ele>76</ele>
</trkpt>
<trkpt lat="34.20220888888889" lon="134.294825">
<ele>75</ele>
</trkpt>
<trkpt lat="34.20210888888889" lon="134.29416305555554">
<ele>75</ele>
</trkpt>
<trkpt lat="34.20194194444444" lon="134.29256305555555">
<ele>77</ele>
</trkpt>
<trkpt lat="34.2019" lon="134.2921511111111">
<ele>78</ele>
</trkpt>
<trkpt lat="34.20183388888889" lon="134.29191305555557">
<ele>77</ele>
</trkpt>
<trkpt lat="34.20157611111111" lon="134.29126305555556">
<ele>78</ele>
</trkpt>
<trkpt lat="34.201416944444446" lon="134.2906011111111">
<ele>84</ele>
</trkpt>
<trkpt lat="34.20137611111111" lon="134.2905011111111">
<ele>84</ele>
</trkpt>
<trkpt lat="34.20130888888889" lon="134.29038805555555">
<ele>83</ele>
</trkpt>
<trkpt lat="34.20122611111111" lon="134.2902761111111">
<ele>84</ele>
</trkpt>
<trkpt lat="34.20062611111111" lon="134.2896511111111">
<ele>83</ele>
</trkpt>
<trkpt lat="34.20047611111111" lon="134.2895511111111">
<ele>83</ele>
</trkpt>
<trkpt lat="34.20001694444444" lon="134.28926305555555">
<ele>82</ele>
</trkpt>
<trkpt lat="34.199866944444445" lon="134.28913805555555">
<ele>83</ele>
</trkpt>
<trkpt lat="34.19961694444444" lon="134.28881388888888">
<ele>85</ele>
</trkpt>
<trkpt lat="34.19940888888889" lon="134.2886638888889">
<ele>86</ele>
</trkpt>
<trkpt lat="34.19935888888889" lon="134.2886261111111">
<ele>86</ele>
</trkpt>
<trkpt lat="34.198951111111114" lon="134.28838888888887">
<ele>87</ele>
</trkpt>
<trkpt lat="34.19889194444445" lon="134.2883388888889">
<ele>87</ele>
</trkpt>
<trkpt lat="34.19882611111111" lon="134.28827611111112">
<ele>87</ele>
</trkpt>
<trkpt lat="34.19877611111111" lon="134.28813888888888">
<ele>84</ele>
</trkpt>
<trkpt lat="34.198768055555554" lon="134.2880011111111">
<ele>84</ele>
</trkpt>
<trkpt lat="34.198991944444444" lon="134.2874261111111">
<ele>85</ele>
</trkpt>
<trkpt lat="34.19896694444444" lon="134.28713888888888">
<ele>86</ele>
</trkpt>
<trkpt lat="34.19869194444444" lon="134.28668888888888">
<ele>86</ele>
</trkpt>
<trkpt lat="34.197918055555554" lon="134.2859511111111">
<ele>86</ele>
</trkpt>
<trkpt lat="34.197043055555554" lon="134.28521388888888">
<ele>93</ele>
</trkpt>
<trkpt lat="34.19692611111111" lon="134.28507611111112">
<ele>94</ele>
</trkpt>
<trkpt lat="34.19682611111111" lon="134.2849261111111">
<ele>94</ele>
</trkpt>
<trkpt lat="34.19672611111111" lon="134.2847138888889">
<ele>95</ele>
</trkpt>
<trkpt lat="34.19668388888889" lon="134.28442611111112">
<ele>97</ele>
</trkpt>
<trkpt lat="34.196668055555556" lon="134.28393888888888">
<ele>95</ele>
</trkpt>
<trkpt lat="34.196691944444446" lon="134.2837888888889">
<ele>94</ele>
</trkpt>
<trkpt lat="34.19674194444445" lon="134.2836388888889">
<ele>93</ele>
</trkpt>
<trkpt lat="34.19683388888889" lon="134.28351388888888">
<ele>94</ele>
</trkpt>
<trkpt lat="34.19698388888889" lon="134.2833511111111">
<ele>94</ele>
</trkpt>
<trkpt lat="34.19705111111111" lon="134.28328888888888">
<ele>94</ele>
</trkpt>
<trkpt lat="34.19740111111111" lon="134.28291388888888">
<ele>95</ele>
</trkpt>
<trkpt lat="34.197741944444445" lon="134.2824388888889">
<ele>95</ele>
</trkpt>
<trkpt lat="34.198008888888886" lon="134.2818388888889">
<ele>96</ele>
</trkpt>
<trkpt lat="34.19812611111111" lon="134.2814261111111">
<ele>97</ele>
</trkpt>
<trkpt lat="34.19820888888889" lon="134.28033888888888">
<ele>101</ele>
</trkpt>
<trkpt lat="34.198233888888886" lon="134.27842694444445">
<ele>102</ele>
</trkpt>
<trkpt lat="34.19832611111111" lon="134.2779888888889">
<ele>101</ele>
</trkpt>
<trkpt lat="34.19845888888889" lon="134.2775638888889">
<ele>104</ele>
</trkpt>
<trkpt lat="34.19857611111111" lon="134.2773138888889">
<ele>104</ele>
</trkpt>
<trkpt lat="34.198591944444445" lon="134.27703888888888">
<ele>104</ele>
</trkpt>
<trkpt lat="34.19858388888889" lon="134.2767888888889">
<ele>104</ele>
</trkpt>
<trkpt lat="34.19850888888889" lon="134.27646388888888">
<ele>101</ele>
</trkpt>
<trkpt lat="34.19854194444444" lon="134.2758388888889">
<ele>106</ele>
</trkpt>
<trkpt lat="34.19868388888889" lon="134.27523888888888">
<ele>112</ele>
</trkpt>
<trkpt lat="34.19857611111111" lon="134.27476388888888">
<ele>115</ele>
</trkpt>
<trkpt lat="34.19851694444444" lon="134.27456388888888">
<ele>116</ele>
</trkpt>
<trkpt lat="34.19840888888889" lon="134.2741638888889">
<ele>113</ele>
</trkpt>
<trkpt lat="34.19835111111111" lon="134.27351388888889">
<ele>113</ele>
</trkpt>
<trkpt lat="34.19835888888889" lon="134.2731138888889">
<ele>113</ele>
</trkpt>
<trkpt lat="34.19855888888889" lon="134.2721138888889">
<ele>114</ele>
</trkpt>
<trkpt lat="34.19864194444445" lon="134.2715638888889">
<ele>121</ele>
</trkpt>
<trkpt lat="34.19865111111111" lon="134.27132694444444">
<ele>122</ele>
</trkpt>
<trkpt lat="34.198616944444446" lon="134.27107694444445">
<ele>123</ele>
</trkpt>
<trkpt lat="34.19860888888889" lon="134.27103888888888">
<ele>123</ele>
</trkpt>
<trkpt lat="34.19851694444444" lon="134.27081388888888">
<ele>131</ele>
</trkpt>
<trkpt lat="34.19832611111111" lon="134.2702138888889">
<ele>131</ele>
</trkpt>
<trkpt lat="34.19795888888889" lon="134.26945194444446">
<ele>119</ele>
</trkpt>
<trkpt lat="34.19788388888889" lon="134.26915194444445">
<ele>117</ele>
</trkpt>
<trkpt lat="34.19785111111111" lon="134.26891388888887">
<ele>118</ele>
</trkpt>
<trkpt lat="34.19786805555555" lon="134.26880194444445">
<ele>119</ele>
</trkpt>
<trkpt lat="34.197918055555554" lon="134.2686138888889">
<ele>120</ele>
</trkpt>
<trkpt lat="34.19810888888889" lon="134.26815194444444">
<ele>125</ele>
</trkpt>
<trkpt lat="34.19828388888889" lon="134.26786388888888">
<ele>128</ele>
</trkpt>
<trkpt lat="34.19849194444444" lon="134.2676138888889">
<ele>128</ele>
</trkpt>
<trkpt lat="34.198616944444446" lon="134.26751388888889">
<ele>129</ele>
</trkpt>
<trkpt lat="34.19878388888889" lon="134.26740194444446">
<ele>129</ele>
</trkpt>
<trkpt lat="34.19985888888889" lon="134.26707694444445">
<ele>135</ele>
</trkpt>
<trkpt lat="34.20044194444444" lon="134.26692694444444">
<ele>135</ele>
</trkpt>
<trkpt lat="34.20063388888889" lon="134.26690194444444">
<ele>135</ele>
</trkpt>
<trkpt lat="34.200925" lon="134.26687694444445">
<ele>146</ele>
</trkpt>
<trkpt lat="34.201566944444444" lon="134.26680194444444">
<ele>147</ele>
</trkpt>
<trkpt lat="34.20169194444444" lon="134.2667638888889">
<ele>148</ele>
</trkpt>
<trkpt lat="34.201825" lon="134.26670194444443">
<ele>148</ele>
</trkpt>
<trkpt lat="34.20193305555556" lon="134.26663888888888">
<ele>149</ele>
</trkpt>
<trkpt lat="34.20213305555556" lon="134.2664888888889">
<ele>149</ele>
</trkpt>
<trkpt lat="34.202891944444445" lon="134.2664638888889">
<ele>155</ele>
</trkpt>
<trkpt lat="34.202975" lon="134.26641388888888">
<ele>158</ele>
</trkpt>
<trkpt lat="34.203158055555555" lon="134.26606388888888">
<ele>159</ele>
</trkpt>
<trkpt lat="34.20421611111111" lon="134.26605194444446">
<ele>167</ele>
</trkpt>
<trkpt lat="34.20438305555555" lon="134.26605194444446">
<ele>166</ele>
</trkpt>
<trkpt lat="34.20450805555556" lon="134.2659888888889">
<ele>168</ele>
</trkpt>
<trkpt lat="34.204658055555555" lon="134.26580194444443">
<ele>167</ele>
</trkpt>
<trkpt lat="34.204833055555554" lon="134.26560194444446">
<ele>167</ele>
</trkpt>
<trkpt lat="34.204908055555556" lon="134.2655638888889">
<ele>166</ele>
</trkpt>
<trkpt lat="34.20502388888889" lon="134.2655388888889">
<ele>168</ele>
</trkpt>
<trkpt lat="34.20515805555556" lon="134.26552694444445">
<ele>168</ele>
</trkpt>
<trkpt lat="34.20549111111111" lon="134.26549">
<ele>166</ele>
</trkpt>
<trkpt lat="34.205666111111114" lon="134.26532694444444">
<ele>166</ele>
</trkpt>
<trkpt lat="34.20569888888889" lon="134.26519">
<ele>164</ele>
</trkpt>
<trkpt lat="34.20569888888889" lon="134.26505194444445">
<ele>163</ele>
</trkpt>
<trkpt lat="34.20564111111111" lon="134.26492694444445">
<ele>164</ele>
</trkpt>
<trkpt lat="34.20504888888889" lon="134.26435194444446">
<ele>157</ele>
</trkpt>
<trkpt lat="34.20497388888889" lon="134.26422694444443">
<ele>158</ele>
</trkpt>
<trkpt lat="34.20494111111111" lon="134.26407694444444">
<ele>158</ele>
</trkpt>
<trkpt lat="34.2049" lon="134.26392694444445">
<ele>158</ele>
</trkpt>
<trkpt lat="34.20489111111111" lon="134.26365194444443">
<ele>158</ele>
</trkpt>
<trkpt lat="34.20491611111111" lon="134.26344">
<ele>158</ele>
</trkpt>
<trkpt lat="34.20499111111111" lon="134.26322694444445">
<ele>159</ele>
</trkpt>
<trkpt lat="34.205483055555554" lon="134.26237694444444">
<ele>156</ele>
</trkpt>
<trkpt lat="34.20561611111111" lon="134.26219">
<ele>156</ele>
</trkpt>
<trkpt lat="34.20591611111111" lon="134.26107694444445">
<ele>156</ele>
</trkpt>
<trkpt lat="34.20610805555555" lon="134.26025194444443">
<ele>168</ele>
</trkpt>
<trkpt lat="34.20619888888889" lon="134.25997694444445">
<ele>168</ele>
</trkpt>
<trkpt lat="34.20634111111111" lon="134.25974">
<ele>166</ele>
</trkpt>
<trkpt lat="34.20654888888889" lon="134.259565">
<ele>167</ele>
</trkpt>
<trkpt lat="34.206758055555554" lon="134.25949">
<ele>168</ele>
</trkpt>
<trkpt lat="34.207408055555554" lon="134.25935305555555">
<ele>165</ele>
</trkpt>
<trkpt lat="34.20756611111111" lon="134.25927694444445">
<ele>165</ele>
</trkpt>
<trkpt lat="34.20825694444444" lon="134.25869">
<ele>157</ele>
</trkpt>
<trkpt lat="34.20839888888889" lon="134.25844">
<ele>158</ele>
</trkpt>
<trkpt lat="34.208573888888886" lon="134.25809">
<ele>157</ele>
</trkpt>
<trkpt lat="34.20864888888889" lon="134.257715">
<ele>158</ele>
</trkpt>
<trkpt lat="34.20869111111111" lon="134.25750305555556">
<ele>157</ele>
</trkpt>
<trkpt lat="34.20874888888889" lon="134.25734">
<ele>158</ele>
</trkpt>
<trkpt lat="34.20884888888889" lon="134.257165">
<ele>157</ele>
</trkpt>
<trkpt lat="34.20887388888889" lon="134.25714">
<ele>157</ele>
</trkpt>
<trkpt lat="34.20919111111111" lon="134.25685305555555">
<ele>164</ele>
</trkpt>
<trkpt lat="34.20923194444445" lon="134.256815">
<ele>167</ele>
</trkpt>
<trkpt lat="34.20916611111111" lon="134.25662805555555">
<ele>165</ele>
</trkpt>
<trkpt lat="34.20897388888889" lon="134.25624">
<ele>159</ele>
</trkpt>
<trkpt lat="34.20884111111111" lon="134.25605305555555">
<ele>161</ele>
</trkpt>
<trkpt lat="34.208706944444444" lon="134.25584">
<ele>165</ele>
</trkpt>
<trkpt lat="34.20836611111111" lon="134.25540305555555">
<ele>166</ele>
</trkpt>
<trkpt lat="34.20823194444444" lon="134.25524">
<ele>166</ele>
</trkpt>
<trkpt lat="34.20804888888889" lon="134.25510305555557">
<ele>166</ele>
</trkpt>
<trkpt lat="34.20787388888889" lon="134.25500305555556">
<ele>166</ele>
</trkpt>
<trkpt lat="34.207523888888886" lon="134.254915">
<ele>166</ele>
</trkpt>
<trkpt lat="34.20721611111111" lon="134.254815">
<ele>165</ele>
</trkpt>
<trkpt lat="34.206941111111114" lon="134.254665">
<ele>168</ele>
</trkpt>
<trkpt lat="34.20665694444445" lon="134.25435305555555">
<ele>170</ele>
</trkpt>
<trkpt lat="34.20646611111111" lon="134.25402805555555">
<ele>170</ele>
</trkpt>
<trkpt lat="34.206358055555555" lon="134.25372805555557">
<ele>173</ele>
</trkpt>
<trkpt lat="34.20641611111111" lon="134.25242805555555">
<ele>180</ele>
</trkpt>
<trkpt lat="34.20639888888889" lon="134.252315">
<ele>180</ele>
</trkpt>
<trkpt lat="34.20634888888889" lon="134.252215">
<ele>180</ele>
</trkpt>
<trkpt lat="34.20629111111111" lon="134.25214">
<ele>180</ele>
</trkpt>
<trkpt lat="34.20576611111111" lon="134.251465">
<ele>181</ele>
</trkpt>
<trkpt lat="34.20554111111111" lon="134.25099111111112">
<ele>181</ele>
</trkpt>
<trkpt lat="34.20522388888889" lon="134.25037805555556">
<ele>189</ele>
</trkpt>
<trkpt lat="34.20513305555556" lon="134.2502411111111">
<ele>192</ele>
</trkpt>
<trkpt lat="34.20492388888889" lon="134.25002805555556">
<ele>193</ele>
</trkpt>
<trkpt lat="34.20479888888889" lon="134.2499161111111">
<ele>194</ele>
</trkpt>
<trkpt lat="34.20441611111111" lon="134.24967805555556">
<ele>194</ele>
</trkpt>
<trkpt lat="34.20413305555556" lon="134.2494661111111">
<ele>196</ele>
</trkpt>
<trkpt lat="34.20393305555555" lon="134.2492411111111">
<ele>197</ele>
</trkpt>
<trkpt lat="34.203608055555556" lon="134.2487911111111">
<ele>204</ele>
</trkpt>
<trkpt lat="34.203408055555556" lon="134.2485661111111">
<ele>213</ele>
</trkpt>
<trkpt lat="34.20320805555556" lon="134.24837805555555">
<ele>215</ele>
</trkpt>
<trkpt lat="34.20171694444444" lon="134.2473161111111">
<ele>225</ele>
</trkpt>
<trkpt lat="34.200808888888886" lon="134.24677805555555">
<ele>234</ele>
</trkpt>
<trkpt lat="34.1999" lon="134.24625305555554">
<ele>247</ele>
</trkpt>
<trkpt lat="34.19975111111111" lon="134.24620305555555">
<ele>248</ele>
</trkpt>
<trkpt lat="34.199641944444444" lon="134.24621611111112">
<ele>247</ele>
</trkpt>
<trkpt lat="34.19952611111111" lon="134.2463161111111">
<ele>248</ele>
</trkpt>
<trkpt lat="34.19950111111111" lon="134.24640305555556">
<ele>250</ele>
</trkpt>
<trkpt lat="34.19953388888889" lon="134.2465161111111">
<ele>253</ele>
</trkpt>
<trkpt lat="34.19978388888889" lon="134.24675305555556">
<ele>254</ele>
</trkpt>
<trkpt lat="34.20020888888889" lon="134.24702805555555">
<ele>257</ele>
</trkpt>
<trkpt lat="34.20063388888889" lon="134.2473161111111">
<ele>254</ele>
</trkpt>
<trkpt lat="34.2008" lon="134.24752805555556">
<ele>253</ele>
</trkpt>
<trkpt lat="34.20085888888889" lon="134.2476411111111">
<ele>254</ele>
</trkpt>
<trkpt lat="34.20085888888889" lon="134.24782805555554">
<ele>254</ele>
</trkpt>
<trkpt lat="34.20081694444445" lon="134.24792805555555">
<ele>253</ele>
</trkpt>
<trkpt lat="34.20060888888889" lon="134.24812805555555">
<ele>254</ele>
</trkpt>
<trkpt lat="34.2005" lon="134.2482161111111">
<ele>255</ele>
</trkpt>
<trkpt lat="34.200375" lon="134.24822805555556">
<ele>255</ele>
</trkpt>
<trkpt lat="34.20005888888889" lon="134.2481911111111">
<ele>265</ele>
</trkpt>
<trkpt lat="34.19995888888889" lon="134.24820305555556">
<ele>265</ele>
</trkpt>
<trkpt lat="34.199641944444444" lon="134.24839111111112">
<ele>265</ele>
</trkpt>
<trkpt lat="34.19953388888889" lon="134.24845305555556">
<ele>263</ele>
</trkpt>
<trkpt lat="34.199416944444444" lon="134.24849">
<ele>264</ele>
</trkpt>
<trkpt lat="34.19913388888889" lon="134.24852805555557">
<ele>267</ele>
</trkpt>
<trkpt lat="34.19903388888889" lon="134.24855305555556">
<ele>268</ele>
</trkpt>
<trkpt lat="34.19897611111111" lon="134.24857805555556">
<ele>269</ele>
</trkpt>
<trkpt lat="34.19831694444444" lon="134.249365">
<ele>280</ele>
</trkpt>
<trkpt lat="34.19755111111111" lon="134.250415">
<ele>276</ele>
</trkpt>
<trkpt lat="34.19736694444445" lon="134.25054">
<ele>276</ele>
</trkpt>
<trkpt lat="34.19720888888889" lon="134.250615">
<ele>274</ele>
</trkpt>
<trkpt lat="34.19705111111111" lon="134.25065305555555">
<ele>270</ele>
</trkpt>
<trkpt lat="34.19685888888889" lon="134.25067805555557">
<ele>269</ele>
</trkpt>
<trkpt lat="34.196418055555554" lon="134.250665">
<ele>264</ele>
</trkpt>
<trkpt lat="34.194785" lon="134.25054">
<ele>252</ele>
</trkpt>
<trkpt lat="34.19421805555555" lon="134.25022694444445">
<ele>244</ele>
</trkpt>
<trkpt lat="34.19342694444445" lon="134.249765">
<ele>245</ele>
</trkpt>
<trkpt lat="34.19314305555555" lon="134.24964">
<ele>244</ele>
</trkpt>
<trkpt lat="34.19266805555556" lon="134.24945305555556">
<ele>241</ele>
</trkpt>
<trkpt lat="34.19242694444444" lon="134.249365">
<ele>237</ele>
</trkpt>
<trkpt lat="34.19225194444444" lon="134.24932805555557">
<ele>236</ele>
</trkpt>
<trkpt lat="34.192168055555555" lon="134.24934">
<ele>235</ele>
</trkpt>
<trkpt lat="34.19197694444444" lon="134.249365">
<ele>235</ele>
</trkpt>
<trkpt lat="34.19107694444445" lon="134.24980194444444">
<ele>236</ele>
</trkpt>
<trkpt lat="34.19046" lon="134.25009">
<ele>236</ele>
</trkpt>
<trkpt lat="34.18991888888889" lon="134.25037805555556">
<ele>233</ele>
</trkpt>
<trkpt lat="34.18937694444445" lon="134.250665">
<ele>233</ele>
</trkpt>
<trkpt lat="34.188451944444445" lon="134.25115194444444">
<ele>228</ele>
</trkpt>
<trkpt lat="34.188203055555554" lon="134.25122694444445">
<ele>227</ele>
</trkpt>
<trkpt lat="34.18691111111111" lon="134.251365">
<ele>229</ele>
</trkpt>
<trkpt lat="34.18536111111111" lon="134.25140194444444">
<ele>228</ele>
</trkpt>
<trkpt lat="34.18442" lon="134.251365">
<ele>226</ele>
</trkpt>
<trkpt lat="34.18423611111111" lon="134.251365">
<ele>225</ele>
</trkpt>
<trkpt lat="34.184195" lon="134.25129">
<ele>227</ele>
</trkpt>
<trkpt lat="34.18406111111111" lon="134.25112694444445">
<ele>228</ele>
</trkpt>
<trkpt lat="34.18373694444445" lon="134.25075194444443">
<ele>235</ele>
</trkpt>
<trkpt lat="34.18356194444444" lon="134.250465">
<ele>233</ele>
</trkpt>
<trkpt lat="34.183503055555555" lon="134.25032805555554">
<ele>242</ele>
</trkpt>
<trkpt lat="34.183395" lon="134.249865">
<ele>242</ele>
</trkpt>
<trkpt lat="34.18292" lon="134.247315">
<ele>242</ele>
</trkpt>
<trkpt lat="34.18270305555556" lon="134.24534">
<ele>243</ele>
</trkpt>
<trkpt lat="34.182561944444444" lon="134.24464111111112">
<ele>227</ele>
</trkpt>
<trkpt lat="34.182361944444445" lon="134.24421611111111">
<ele>229</ele>
</trkpt>
<trkpt lat="34.18212888888889" lon="134.24395305555555">
<ele>233</ele>
</trkpt>
<trkpt lat="34.18136194444445" lon="134.24339111111112">
<ele>230</ele>
</trkpt>
<trkpt lat="34.181195" lon="134.24320305555557">
<ele>229</ele>
</trkpt>
<trkpt lat="34.181095" lon="134.24302805555556">
<ele>229</ele>
</trkpt>
<trkpt lat="34.18098694444444" lon="134.24185305555557">
<ele>234</ele>
</trkpt>
<trkpt lat="34.181086944444445" lon="134.2414411111111">
<ele>233</ele>
</trkpt>
<trkpt lat="34.18122888888889" lon="134.24104111111112">
<ele>235</ele>
</trkpt>
<trkpt lat="34.181245" lon="134.24060305555557">
<ele>239</ele>
</trkpt>
<trkpt lat="34.18116194444445" lon="134.24021611111112">
<ele>238</ele>
</trkpt>
<trkpt lat="34.18101194444444" lon="134.2398661111111">
<ele>239</ele>
</trkpt>
<trkpt lat="34.180886944444445" lon="134.23909111111112">
<ele>238</ele>
</trkpt>
<trkpt lat="34.18077111111111" lon="134.23817888888888">
<ele>237</ele>
</trkpt>
<trkpt lat="34.18081194444444" lon="134.23737888888888">
<ele>239</ele>
</trkpt>
<trkpt lat="34.18082888888889" lon="134.2368538888889">
<ele>247</ele>
</trkpt>
<trkpt lat="34.18078694444444" lon="134.2364661111111">
<ele>248</ele>
</trkpt>
<trkpt lat="34.18085388888889" lon="134.2360161111111">
<ele>249</ele>
</trkpt>
<trkpt lat="34.18137888888889" lon="134.23456611111112">
<ele>249</ele>
</trkpt>
<trkpt lat="34.181495" lon="134.2340288888889">
<ele>249</ele>
</trkpt>
<trkpt lat="34.18152888888889" lon="134.23356694444445">
<ele>248</ele>
</trkpt>
<trkpt lat="34.181445" lon="134.23329194444443">
<ele>248</ele>
</trkpt>
<trkpt lat="34.18116194444445" lon="134.2330038888889">
<ele>248</ele>
</trkpt>
<trkpt lat="34.18107" lon="134.2327288888889">
<ele>248</ele>
</trkpt>
<trkpt lat="34.18101194444444" lon="134.23221694444445">
<ele>260</ele>
</trkpt>
<trkpt lat="34.18082111111111" lon="134.23181694444443">
<ele>249</ele>
</trkpt>
<trkpt lat="34.180636944444444" lon="134.23144194444444">
<ele>254</ele>
</trkpt>
<trkpt lat="34.18060388888889" lon="134.23104194444446">
<ele>258</ele>
</trkpt>
<trkpt lat="34.18061194444444" lon="134.23056694444443">
<ele>255</ele>
</trkpt>
<trkpt lat="34.18075388888889" lon="134.2301788888889">
<ele>254</ele>
</trkpt>
<trkpt lat="34.180886944444445" lon="134.22991694444445">
<ele>255</ele>
</trkpt>
<trkpt lat="34.181086944444445" lon="134.22953">
<ele>257</ele>
</trkpt>
<trkpt lat="34.18122" lon="134.22923">
<ele>258</ele>
</trkpt>
<trkpt lat="34.181286944444444" lon="134.22888">
<ele>267</ele>
</trkpt>
<trkpt lat="34.18127888888889" lon="134.22846694444445">
<ele>268</ele>
</trkpt>
<trkpt lat="34.181195" lon="134.228105">
<ele>269</ele>
</trkpt>
<trkpt lat="34.181086944444445" lon="134.22784194444444">
<ele>269</ele>
</trkpt>
<trkpt lat="34.18102" lon="134.22766694444445">
<ele>278</ele>
</trkpt>
<trkpt lat="34.180928888888886" lon="134.22754194444445">
<ele>280</ele>
</trkpt>
<trkpt lat="34.180695" lon="134.22723">
<ele>277</ele>
</trkpt>
<trkpt lat="34.180486944444446" lon="134.22703">
<ele>277</ele>
</trkpt>
<trkpt lat="34.18032" lon="134.226905">
<ele>271</ele>
</trkpt>
<trkpt lat="34.18028694444445" lon="134.22684305555555">
<ele>274</ele>
</trkpt>
<trkpt lat="34.18032" lon="134.22678">
<ele>274</ele>
</trkpt>
<trkpt lat="34.180411944444444" lon="134.22666805555556">
<ele>274</ele>
</trkpt>
<trkpt lat="34.18053694444444" lon="134.226605">
<ele>272</ele>
</trkpt>
<trkpt lat="34.18061194444444" lon="134.226555">
<ele>270</ele>
</trkpt>
<trkpt lat="34.18076194444444" lon="134.226505">
<ele>271</ele>
</trkpt>
<trkpt lat="34.180895" lon="134.226505">
<ele>271</ele>
</trkpt>
<trkpt lat="34.18101194444444" lon="134.22653">
<ele>270</ele>
</trkpt>
<trkpt lat="34.18130388888889" lon="134.22661805555555">
<ele>273</ele>
</trkpt>
<trkpt lat="34.181511944444445" lon="134.22659305555555">
<ele>273</ele>
</trkpt>
<trkpt lat="34.181795" lon="134.22626694444443">
<ele>272</ele>
</trkpt>
<trkpt lat="34.18222" lon="134.22574194444445">
<ele>271</ele>
</trkpt>
<trkpt lat="34.18252" lon="134.22546805555555">
<ele>275</ele>
</trkpt>
<trkpt lat="34.18268694444444" lon="134.22534305555556">
<ele>278</ele>
</trkpt>
<trkpt lat="34.18335305555556" lon="134.225005">
<ele>287</ele>
</trkpt>
<trkpt lat="34.18362" lon="134.22489194444444">
<ele>286</ele>
</trkpt>
<trkpt lat="34.18397" lon="134.22476694444444">
<ele>282</ele>
</trkpt>
<trkpt lat="34.18418611111111" lon="134.224705">
<ele>287</ele>
</trkpt>
<trkpt lat="34.18443611111111" lon="134.224605">
<ele>286</ele>
</trkpt>
<trkpt lat="34.18472805555555" lon="134.22444305555555">
<ele>287</ele>
</trkpt>
<trkpt lat="34.18486111111111" lon="134.22434305555555">
<ele>289</ele>
</trkpt>
<trkpt lat="34.18498611111111" lon="134.224205">
<ele>288</ele>
</trkpt>
<trkpt lat="34.18519388888889" lon="134.22384305555556">
<ele>289</ele>
</trkpt>
<trkpt lat="34.18535305555555" lon="134.22349305555556">
<ele>295</ele>
</trkpt>
<trkpt lat="34.18556111111111" lon="134.22306805555556">
<ele>294</ele>
</trkpt>
<trkpt lat="34.18576111111111" lon="134.22276805555555">
<ele>294</ele>
</trkpt>
<trkpt lat="34.18597805555556" lon="134.22251805555555">
<ele>295</ele>
</trkpt>
<trkpt lat="34.18621888888889" lon="134.22234305555557">
<ele>298</ele>
</trkpt>
<trkpt lat="34.18660194444445" lon="134.22211805555557">
<ele>303</ele>
</trkpt>
<trkpt lat="34.18753611111111" lon="134.2216061111111">
<ele>311</ele>
</trkpt>
<trkpt lat="34.18804388888889" lon="134.22124305555556">
<ele>320</ele>
</trkpt>
<trkpt lat="34.18846888888889" lon="134.22086805555554">
<ele>323</ele>
</trkpt>
<trkpt lat="34.18873611111111" lon="134.2205561111111">
<ele>321</ele>
</trkpt>
<trkpt lat="34.18906" lon="134.22014305555555">
<ele>327</ele>
</trkpt>
<trkpt lat="34.18936" lon="134.21976805555556">
<ele>332</ele>
</trkpt>
<trkpt lat="34.189501944444444" lon="134.21964305555557">
<ele>331</ele>
</trkpt>
<trkpt lat="34.189568888888886" lon="134.21961805555554">
<ele>332</ele>
</trkpt>
<trkpt lat="34.19006888888889" lon="134.21948111111112">
<ele>330</ele>
</trkpt>
<trkpt lat="34.190376944444445" lon="134.21941805555556">
<ele>332</ele>
</trkpt>
<trkpt lat="34.190735" lon="134.21936805555555">
<ele>334</ele>
</trkpt>
<trkpt lat="34.19101805555555" lon="134.21926805555555">
<ele>338</ele>
</trkpt>
<trkpt lat="34.191201944444444" lon="134.21915611111112">
<ele>338</ele>
</trkpt>
<trkpt lat="34.19136805555556" lon="134.2190061111111">
<ele>340</ele>
</trkpt>
<trkpt lat="34.19141805555556" lon="134.21893111111112">
<ele>342</ele>
</trkpt>
<trkpt lat="34.191476944444446" lon="134.21886805555556">
<ele>343</ele>
</trkpt>
<trkpt lat="34.191585" lon="134.21861805555557">
<ele>346</ele>
</trkpt>
<trkpt lat="34.191685" lon="134.21811805555555">
<ele>352</ele>
</trkpt>
<trkpt lat="34.191676944444445" lon="134.21791805555554">
<ele>355</ele>
</trkpt>
<trkpt lat="34.191635" lon="134.21769305555554">
<ele>358</ele>
</trkpt>
<trkpt lat="34.19156805555556" lon="134.21746805555554">
<ele>360</ele>
</trkpt>
<trkpt lat="34.191485" lon="134.21731888888888">
<ele>363</ele>
</trkpt>
<trkpt lat="34.191335" lon="134.21710611111112">
<ele>366</ele>
</trkpt>
<trkpt lat="34.191235" lon="134.21696888888889">
<ele>349</ele>
</trkpt>
<trkpt lat="34.190693055555556" lon="134.21620611111112">
<ele>342</ele>
</trkpt>
<trkpt lat="34.19045194444445" lon="134.2158188888889">
<ele>349</ele>
</trkpt>
<trkpt lat="34.19041" lon="134.21574388888888">
<ele>358</ele>
</trkpt>
<trkpt lat="34.19025194444445" lon="134.21541888888888">
<ele>376</ele>
</trkpt>
<trkpt lat="34.19014305555555" lon="134.21494388888888">
<ele>381</ele>
</trkpt>
<trkpt lat="34.19010194444444" lon="134.2143561111111">
<ele>400</ele>
</trkpt>
<trkpt lat="34.190126944444444" lon="134.2140188888889">
<ele>391</ele>
</trkpt>
<trkpt lat="34.19022694444445" lon="134.2137561111111">
<ele>387</ele>
</trkpt>
<trkpt lat="34.190243055555555" lon="134.21369388888888">
<ele>387</ele>
</trkpt>
<trkpt lat="34.19046" lon="134.2129938888889">
<ele>386</ele>
</trkpt>
<trkpt lat="34.190468055555556" lon="134.2129438888889">
<ele>386</ele>
</trkpt>
<trkpt lat="34.19056805555555" lon="134.2125311111111">
<ele>384</ele>
</trkpt>
<trkpt lat="34.190668055555555" lon="134.2118438888889">
<ele>390</ele>
</trkpt>
<trkpt lat="34.19075111111111" lon="134.2100188888889">
<ele>402</ele>
</trkpt>
<trkpt lat="34.190893055555556" lon="134.20998194444445">
<ele>408</ele>
</trkpt>
<trkpt lat="34.191043055555554" lon="134.20988194444445">
<ele>411</ele>
</trkpt>
<trkpt lat="34.191118055555556" lon="134.2097188888889">
<ele>413</ele>
</trkpt>
<trkpt lat="34.191085" lon="134.20940694444445">
<ele>415</ele>
</trkpt>
<trkpt lat="34.19105111111111" lon="134.2086688888889">
<ele>417</ele>
</trkpt>
<trkpt lat="34.19097611111111" lon="134.20840694444445">
<ele>421</ele>
</trkpt>
<trkpt lat="34.19087611111111" lon="134.20828194444445">
<ele>423</ele>
</trkpt>
<trkpt lat="34.19072611111111" lon="134.20805694444445">
<ele>426</ele>
</trkpt>
<trkpt lat="34.19059305555555" lon="134.20770694444445">
<ele>429</ele>
</trkpt>
<trkpt lat="34.19051888888889" lon="134.2074738888889">
<ele>430</ele>
</trkpt>
<trkpt lat="34.19051888888889" lon="134.2074738888889">
<ele>430</ele>
</trkpt>
<trkpt lat="34.19059305555555" lon="134.20770694444445">
<ele>429</ele>
</trkpt>
<trkpt lat="34.19072611111111" lon="134.20805694444445">
<ele>426</ele>
</trkpt>
<trkpt lat="34.19087611111111" lon="134.20828194444445">
<ele>423</ele>
</trkpt>
<trkpt lat="34.19097611111111" lon="134.20840694444445">
<ele>421</ele>
</trkpt>
<trkpt lat="34.19105111111111" lon="134.2086688888889">
<ele>417</ele>
</trkpt>
<trkpt lat="34.191085" lon="134.20940694444445">
<ele>415</ele>
</trkpt>
<trkpt lat="34.191118055555556" lon="134.2097188888889">
<ele>413</ele>
</trkpt>
<trkpt lat="34.191043055555554" lon="134.20988194444445">
<ele>411</ele>
</trkpt>
<trkpt lat="34.190893055555556" lon="134.20998194444445">
<ele>408</ele>
</trkpt>
<trkpt lat="34.19075111111111" lon="134.2100188888889">
<ele>402</ele>
</trkpt>
<trkpt lat="34.190668055555555" lon="134.2118438888889">
<ele>390</ele>
</trkpt>
<trkpt lat="34.19056805555555" lon="134.2125311111111">
<ele>384</ele>
</trkpt>
<trkpt lat="34.190468055555556" lon="134.2129438888889">
<ele>386</ele>
</trkpt>
<trkpt lat="34.19046" lon="134.2129938888889">
<ele>386</ele>
</trkpt>
<trkpt lat="34.190243055555555" lon="134.21369388888888">
<ele>387</ele>
</trkpt>
<trkpt lat="34.19022694444445" lon="134.2137561111111">
<ele>387</ele>
</trkpt>
<trkpt lat="34.190126944444444" lon="134.2140188888889">
<ele>391</ele>
</trkpt>
<trkpt lat="34.19010194444444" lon="134.2143561111111">
<ele>400</ele>
</trkpt>
<trkpt lat="34.19014305555555" lon="134.21494388888888">
<ele>381</ele>
</trkpt>
<trkpt lat="34.19025194444445" lon="134.21541888888888">
<ele>376</ele>
</trkpt>
<trkpt lat="34.19041" lon="134.21574388888888">
<ele>358</ele>
</trkpt>
<trkpt lat="34.19045194444445" lon="134.2158188888889">
<ele>349</ele>
</trkpt>
<trkpt lat="34.190693055555556" lon="134.21620611111112">
<ele>342</ele>
</trkpt>
<trkpt lat="34.191235" lon="134.21696888888889">
<ele>349</ele>
</trkpt>
<trkpt lat="34.191335" lon="134.21710611111112">
<ele>366</ele>
</trkpt>
<trkpt lat="34.191485" lon="134.21731888888888">
<ele>363</ele>
</trkpt>
<trkpt lat="34.19156805555556" lon="134.21746805555554">
<ele>360</ele>
</trkpt>
<trkpt lat="34.191635" lon="134.21769305555554">
<ele>358</ele>
</trkpt>
<trkpt lat="34.191676944444445" lon="134.21791805555554">
<ele>355</ele>
</trkpt>
<trkpt lat="34.191685" lon="134.21811805555555">
<ele>352</ele>
</trkpt>
<trkpt lat="34.191585" lon="134.21861805555557">
<ele>346</ele>
</trkpt>
<trkpt lat="34.191476944444446" lon="134.21886805555556">
<ele>343</ele>
</trkpt>
<trkpt lat="34.19141805555556" lon="134.21893111111112">
<ele>342</ele>
</trkpt>
<trkpt lat="34.19136805555556" lon="134.2190061111111">
<ele>340</ele>
</trkpt>
<trkpt lat="34.191201944444444" lon="134.21915611111112">
<ele>338</ele>
</trkpt>
<trkpt lat="34.19101805555555" lon="134.21926805555555">
<ele>338</ele>
</trkpt>
<trkpt lat="34.190735" lon="134.21936805555555">
<ele>334</ele>
</trkpt>
<trkpt lat="34.190376944444445" lon="134.21941805555556">
<ele>332</ele>
</trkpt>
<trkpt lat="34.19006888888889" lon="134.21948111111112">
<ele>330</ele>
</trkpt>
<trkpt lat="34.189568888888886" lon="134.21961805555554">
<ele>332</ele>
</trkpt>
<trkpt lat="34.189501944444444" lon="134.21964305555557">
<ele>331</ele>
</trkpt>
<trkpt lat="34.18936" lon="134.21976805555556">
<ele>332</ele>
</trkpt>
<trkpt lat="34.18906" lon="134.22014305555555">
<ele>327</ele>
</trkpt>
<trkpt lat="34.18873611111111" lon="134.2205561111111">
<ele>321</ele>
</trkpt>
<trkpt lat="34.18846888888889" lon="134.22086805555554">
<ele>323</ele>
</trkpt>
<trkpt lat="34.18804388888889" lon="134.22124305555556">
<ele>320</ele>
</trkpt>
<trkpt lat="34.18753611111111" lon="134.2216061111111">
<ele>311</ele>
</trkpt>
<trkpt lat="34.18660194444445" lon="134.22211805555557">
<ele>303</ele>
</trkpt>
<trkpt lat="34.18621888888889" lon="134.22234305555557">
<ele>298</ele>
</trkpt>
<trkpt lat="34.18597805555556" lon="134.22251805555555">
<ele>295</ele>
</trkpt>
<trkpt lat="34.18576111111111" lon="134.22276805555555">
<ele>294</ele>
</trkpt>
<trkpt lat="34.18556111111111" lon="134.22306805555556">
<ele>294</ele>
</trkpt>
<trkpt lat="34.18535305555555" lon="134.22349305555556">
<ele>295</ele>
</trkpt>
<trkpt lat="34.18519388888889" lon="134.22384305555556">
<ele>289</ele>
</trkpt>
<trkpt lat="34.18498611111111" lon="134.224205">
<ele>288</ele>
</trkpt>
<trkpt lat="34.18486111111111" lon="134.22434305555555">
<ele>289</ele>
</trkpt>
<trkpt lat="34.18472805555555" lon="134.22444305555555">
<ele>287</ele>
</trkpt>
<trkpt lat="34.18443611111111" lon="134.224605">
<ele>286</ele>
</trkpt>
<trkpt lat="34.18418611111111" lon="134.224705">
<ele>287</ele>
</trkpt>
<trkpt lat="34.18397" lon="134.22476694444444">
<ele>282</ele>
</trkpt>
<trkpt lat="34.18362" lon="134.22489194444444">
<ele>286</ele>
</trkpt>
<trkpt lat="34.18335305555556" lon="134.225005">
<ele>287</ele>
</trkpt>
<trkpt lat="34.18268694444444" lon="134.22534305555556">
<ele>278</ele>
</trkpt>
<trkpt lat="34.18252" lon="134.22546805555555">
<ele>275</ele>
</trkpt>
<trkpt lat="34.18222" lon="134.22574194444445">
<ele>271</ele>
</trkpt>
<trkpt lat="34.181795" lon="134.22626694444443">
<ele>272</ele>
</trkpt>
<trkpt lat="34.181511944444445" lon="134.22659305555555">
<ele>273</ele>
</trkpt>
<trkpt lat="34.18130388888889" lon="134.22661805555555">
<ele>273</ele>
</trkpt>
<trkpt lat="34.18101194444444" lon="134.22653">
<ele>270</ele>
</trkpt>
<trkpt lat="34.180895" lon="134.226505">
<ele>271</ele>
</trkpt>
<trkpt lat="34.18076194444444" lon="134.226505">
<ele>271</ele>
</trkpt>
<trkpt lat="34.18061194444444" lon="134.226555">
<ele>270</ele>
</trkpt>
<trkpt lat="34.18053694444444" lon="134.226605">
<ele>272</ele>
</trkpt>
<trkpt lat="34.180411944444444" lon="134.22666805555556">
<ele>274</ele>
</trkpt>
<trkpt lat="34.18032" lon="134.22678">
<ele>274</ele>
</trkpt>
<trkpt lat="34.18028694444445" lon="134.22684305555555">
<ele>274</ele>
</trkpt>
<trkpt lat="34.18032" lon="134.226905">
<ele>271</ele>
</trkpt>
<trkpt lat="34.180486944444446" lon="134.22703">
<ele>277</ele>
</trkpt>
<trkpt lat="34.180695" lon="134.22723">
<ele>277</ele>
</trkpt>
<trkpt lat="34.180928888888886" lon="134.22754194444445">
<ele>280</ele>
</trkpt>
<trkpt lat="34.18102" lon="134.22766694444445">
<ele>278</ele>
</trkpt>
<trkpt lat="34.181086944444445" lon="134.22784194444444">
<ele>269</ele>
</trkpt>
<trkpt lat="34.181195" lon="134.228105">
<ele>269</ele>
</trkpt>
<trkpt lat="34.18127888888889" lon="134.22846694444445">
<ele>268</ele>
</trkpt>
<trkpt lat="34.181286944444444" lon="134.22888">
<ele>267</ele>
</trkpt>
<trkpt lat="34.18122" lon="134.22923">
<ele>258</ele>
</trkpt>
<trkpt lat="34.181086944444445" lon="134.22953">
<ele>257</ele>
</trkpt>
<trkpt lat="34.180886944444445" lon="134.22991694444445">
<ele>255</ele>
</trkpt>
<trkpt lat="34.18075388888889" lon="134.2301788888889">
<ele>254</ele>
</trkpt>
<trkpt lat="34.18061194444444" lon="134.23056694444443">
<ele>255</ele>
</trkpt>
<trkpt lat="34.18060388888889" lon="134.23104194444446">
<ele>258</ele>
</trkpt>
<trkpt lat="34.180636944444444" lon="134.23144194444444">
<ele>254</ele>
</trkpt>
<trkpt lat="34.18082111111111" lon="134.23181694444443">
<ele>249</ele>
</trkpt>
<trkpt lat="34.18101194444444" lon="134.23221694444445">
<ele>260</ele>
</trkpt>
<trkpt lat="34.18107" lon="134.2327288888889">
<ele>248</ele>
</trkpt>
<trkpt lat="34.18116194444445" lon="134.2330038888889">
<ele>248</ele>
</trkpt>
<trkpt lat="34.181445" lon="134.23329194444443">
<ele>248</ele>
</trkpt>
<trkpt lat="34.18152888888889" lon="134.23356694444445">
<ele>248</ele>
</trkpt>
<trkpt lat="34.181495" lon="134.2340288888889">
<ele>249</ele>
</trkpt>
<trkpt lat="34.18137888888889" lon="134.23456611111112">
<ele>249</ele>
</trkpt>
<trkpt lat="34.18085388888889" lon="134.2360161111111">
<ele>249</ele>
</trkpt>
<trkpt lat="34.18078694444444" lon="134.2364661111111">
<ele>248</ele>
</trkpt>
<trkpt lat="34.18082888888889" lon="134.2368538888889">
<ele>247</ele>
</trkpt>
<trkpt lat="34.18081194444444" lon="134.23737888888888">
<ele>239</ele>
</trkpt>
<trkpt lat="34.18077111111111" lon="134.23817888888888">
<ele>237</ele>
</trkpt>
<trkpt lat="34.180886944444445" lon="134.23909111111112">
<ele>238</ele>
</trkpt>
<trkpt lat="34.18101194444444" lon="134.2398661111111">
<ele>239</ele>
</trkpt>
<trkpt lat="34.18116194444445" lon="134.24021611111112">
<ele>238</ele>
</trkpt>
<trkpt lat="34.181245" lon="134.24060305555557">
<ele>239</ele>
</trkpt>
<trkpt lat="34.18122888888889" lon="134.24104111111112">
<ele>235</ele>
</trkpt>
<trkpt lat="34.181086944444445" lon="134.2414411111111">
<ele>233</ele>
</trkpt>
<trkpt lat="34.18098694444444" lon="134.24185305555557">
<ele>234</ele>
</trkpt>
<trkpt lat="34.181095" lon="134.24302805555556">
<ele>229</ele>
</trkpt>
<trkpt lat="34.181195" lon="134.24320305555557">
<ele>229</ele>
</trkpt>
<trkpt lat="34.18136194444445" lon="134.24339111111112">
<ele>230</ele>
</trkpt>
<trkpt lat="34.18212888888889" lon="134.24395305555555">
<ele>233</ele>
</trkpt>
<trkpt lat="34.182361944444445" lon="134.24421611111111">
<ele>229</ele>
</trkpt>
<trkpt lat="34.182561944444444" lon="134.24464111111112">
<ele>227</ele>
</trkpt>
<trkpt lat="34.18270305555556" lon="134.24534">
<ele>243</ele>
</trkpt>
<trkpt lat="34.18292" lon="134.247315">
<ele>242</ele>
</trkpt>
<trkpt lat="34.183395" lon="134.249865">
<ele>242</ele>
</trkpt>
<trkpt lat="34.183503055555555" lon="134.25032805555554">
<ele>242</ele>
</trkpt>
<trkpt lat="34.18356194444444" lon="134.250465">
<ele>233</ele>
</trkpt>
<trkpt lat="34.18373694444445" lon="134.25075194444443">
<ele>235</ele>
</trkpt>
<trkpt lat="34.18406111111111" lon="134.25112694444445">
<ele>228</ele>
</trkpt>
<trkpt lat="34.184195" lon="134.25129">
<ele>227</ele>
</trkpt>
<trkpt lat="34.18423611111111" lon="134.251365">
<ele>225</ele>
</trkpt>
<trkpt lat="34.18442" lon="134.251365">
<ele>226</ele>
</trkpt>
<trkpt lat="34.18536111111111" lon="134.25140194444444">
<ele>228</ele>
</trkpt>
<trkpt lat="34.18691111111111" lon="134.251365">
<ele>229</ele>
</trkpt>
<trkpt lat="34.188203055555554" lon="134.25122694444445">
<ele>227</ele>
</trkpt>
<trkpt lat="34.188451944444445" lon="134.25115194444444">
<ele>228</ele>
</trkpt>
<trkpt lat="34.18937694444445" lon="134.250665">
<ele>233</ele>
</trkpt>
<trkpt lat="34.18991888888889" lon="134.25037805555556">
<ele>233</ele>
</trkpt>
<trkpt lat="34.19046" lon="134.25009">
<ele>236</ele>
</trkpt>
<trkpt lat="34.19107694444445" lon="134.24980194444444">
<ele>236</ele>
</trkpt>
<trkpt lat="34.19197694444444" lon="134.249365">
<ele>235</ele>
</trkpt>
<trkpt lat="34.192168055555555" lon="134.24934">
<ele>235</ele>
</trkpt>
<trkpt lat="34.19225194444444" lon="134.24932805555557">
<ele>236</ele>
</trkpt>
<trkpt lat="34.19242694444444" lon="134.249365">
<ele>237</ele>
</trkpt>
<trkpt lat="34.19266805555556" lon="134.24945305555556">
<ele>241</ele>
</trkpt>
<trkpt lat="34.19314305555555" lon="134.24964">
<ele>244</ele>
</trkpt>
<trkpt lat="34.19342694444445" lon="134.249765">
<ele>245</ele>
</trkpt>
<trkpt lat="34.19421805555555" lon="134.25022694444445">
<ele>244</ele>
</trkpt>
<trkpt lat="34.194785" lon="134.25054">
<ele>252</ele>
</trkpt>
<trkpt lat="34.196418055555554" lon="134.250665">
<ele>264</ele>
</trkpt>
<trkpt lat="34.19685888888889" lon="134.25067805555557">
<ele>269</ele>
</trkpt>
<trkpt lat="34.19705111111111" lon="134.25065305555555">
<ele>270</ele>
</trkpt>
<trkpt lat="34.19720888888889" lon="134.250615">
<ele>274</ele>
</trkpt>
<trkpt lat="34.19736694444445" lon="134.25054">
<ele>276</ele>
</trkpt>
<trkpt lat="34.19755111111111" lon="134.250415">
<ele>276</ele>
</trkpt>
<trkpt lat="34.19831694444444" lon="134.249365">
<ele>280</ele>
</trkpt>
<trkpt lat="34.19897611111111" lon="134.24857805555556">
<ele>269</ele>
</trkpt>
<trkpt lat="34.19903388888889" lon="134.24855305555556">
<ele>268</ele>
</trkpt>
<trkpt lat="34.19913388888889" lon="134.24852805555557">
<ele>267</ele>
</trkpt>
<trkpt lat="34.199416944444444" lon="134.24849">
<ele>264</ele>
</trkpt>
<trkpt lat="34.19953388888889" lon="134.24845305555556">
<ele>263</ele>
</trkpt>
<trkpt lat="34.199641944444444" lon="134.24839111111112">
<ele>265</ele>
</trkpt>
<trkpt lat="34.19995888888889" lon="134.24820305555556">
<ele>265</ele>
</trkpt>
<trkpt lat="34.20005888888889" lon="134.2481911111111">
<ele>265</ele>
</trkpt>
<trkpt lat="34.200375" lon="134.24822805555556">
<ele>255</ele>
</trkpt>
<trkpt lat="34.2005" lon="134.2482161111111">
<ele>255</ele>
</trkpt>
<trkpt lat="34.20060888888889" lon="134.24812805555555">
<ele>254</ele>
</trkpt>
<trkpt lat="34.20081694444445" lon="134.24792805555555">
<ele>253</ele>
</trkpt>
<trkpt lat="34.20085888888889" lon="134.24782805555554">
<ele>254</ele>
</trkpt>
<trkpt lat="34.20085888888889" lon="134.2476411111111">
<ele>254</ele>
</trkpt>
<trkpt lat="34.2008" lon="134.24752805555556">
<ele>253</ele>
</trkpt>
<trkpt lat="34.20063388888889" lon="134.2473161111111">
<ele>254</ele>
</trkpt>
<trkpt lat="34.20020888888889" lon="134.24702805555555">
<ele>257</ele>
</trkpt>
<trkpt lat="34.19978388888889" lon="134.24675305555556">
<ele>254</ele>
</trkpt>
<trkpt lat="34.19953388888889" lon="134.2465161111111">
<ele>253</ele>
</trkpt>
<trkpt lat="34.19950111111111" lon="134.24640305555556">
<ele>250</ele>
</trkpt>
<trkpt lat="34.19952611111111" lon="134.2463161111111">
<ele>248</ele>
</trkpt>
<trkpt lat="34.199641944444444" lon="134.24621611111112">
<ele>247</ele>
</trkpt>
<trkpt lat="34.19975111111111" lon="134.24620305555555">
<ele>248</ele>
</trkpt>
<trkpt lat="34.1999" lon="134.24625305555554">
<ele>247</ele>
</trkpt>
<trkpt lat="34.200808888888886" lon="134.24677805555555">
<ele>234</ele>
</trkpt>
<trkpt lat="34.20171694444444" lon="134.2473161111111">
<ele>225</ele>
</trkpt>
<trkpt lat="34.20320805555556" lon="134.24837805555555">
<ele>215</ele>
</trkpt>
<trkpt lat="34.203408055555556" lon="134.2485661111111">
<ele>213</ele>
</trkpt>
<trkpt lat="34.203608055555556" lon="134.2487911111111">
<ele>204</ele>
</trkpt>
<trkpt lat="34.20393305555555" lon="134.2492411111111">
<ele>197</ele>
</trkpt>
<trkpt lat="34.20413305555556" lon="134.2494661111111">
<ele>196</ele>
</trkpt>
<trkpt lat="34.20441611111111" lon="134.24967805555556">
<ele>194</ele>
</trkpt>
<trkpt lat="34.20479888888889" lon="134.2499161111111">
<ele>194</ele>
</trkpt>
<trkpt lat="34.20492388888889" lon="134.25002805555556">
<ele>193</ele>
</trkpt>
<trkpt lat="34.20513305555556" lon="134.2502411111111">
<ele>192</ele>
</trkpt>
<trkpt lat="34.20522388888889" lon="134.25037805555556">
<ele>189</ele>
</trkpt>
<trkpt lat="34.20554111111111" lon="134.25099111111112">
<ele>181</ele>
</trkpt>
<trkpt lat="34.20576611111111" lon="134.251465">
<ele>181</ele>
</trkpt>
<trkpt lat="34.20629111111111" lon="134.25214">
<ele>180</ele>
</trkpt>
<trkpt lat="34.20634888888889" lon="134.252215">
<ele>180</ele>
</trkpt>
<trkpt lat="34.20639888888889" lon="134.252315">
<ele>180</ele>
</trkpt>
<trkpt lat="34.20641611111111" lon="134.25242805555555">
<ele>180</ele>
</trkpt>
<trkpt lat="34.206358055555555" lon="134.25372805555557">
<ele>173</ele>
</trkpt>
<trkpt lat="34.20646611111111" lon="134.25402805555555">
<ele>170</ele>
</trkpt>
<trkpt lat="34.20665694444445" lon="134.25435305555555">
<ele>170</ele>
</trkpt>
<trkpt lat="34.206941111111114" lon="134.254665">
<ele>168</ele>
</trkpt>
<trkpt lat="34.20721611111111" lon="134.254815">
<ele>165</ele>
</trkpt>
<trkpt lat="34.207523888888886" lon="134.254915">
<ele>166</ele>
</trkpt>
<trkpt lat="34.20787388888889" lon="134.25500305555556">
<ele>166</ele>
</trkpt>
<trkpt lat="34.20804888888889" lon="134.25510305555557">
<ele>166</ele>
</trkpt>
<trkpt lat="34.20823194444444" lon="134.25524">
<ele>166</ele>
</trkpt>
<trkpt lat="34.20836611111111" lon="134.25540305555555">
<ele>166</ele>
</trkpt>
<trkpt lat="34.208706944444444" lon="134.25584">
<ele>165</ele>
</trkpt>
<trkpt lat="34.20884111111111" lon="134.25605305555555">
<ele>161</ele>
</trkpt>
<trkpt lat="34.20897388888889" lon="134.25624">
<ele>159</ele>
</trkpt>
<trkpt lat="34.20916611111111" lon="134.25662805555555">
<ele>165</ele>
</trkpt>
<trkpt lat="34.20923194444445" lon="134.256815">
<ele>167</ele>
</trkpt>
<trkpt lat="34.20919111111111" lon="134.25685305555555">
<ele>164</ele>
</trkpt>
<trkpt lat="34.20887388888889" lon="134.25714">
<ele>157</ele>
</trkpt>
<trkpt lat="34.20884888888889" lon="134.257165">
<ele>157</ele>
</trkpt>
<trkpt lat="34.20874888888889" lon="134.25734">
<ele>158</ele>
</trkpt>
<trkpt lat="34.20869111111111" lon="134.25750305555556">
<ele>157</ele>
</trkpt>
<trkpt lat="34.20864888888889" lon="134.257715">
<ele>158</ele>
</trkpt>
<trkpt lat="34.208573888888886" lon="134.25809">
<ele>157</ele>
</trkpt>
<trkpt lat="34.20839888888889" lon="134.25844">
<ele>158</ele>
</trkpt>
<trkpt lat="34.20825694444444" lon="134.25869">
<ele>157</ele>
</trkpt>
<trkpt lat="34.20756611111111" lon="134.25927694444445">
<ele>165</ele>
</trkpt>
<trkpt lat="34.207408055555554" lon="134.25935305555555">
<ele>165</ele>
</trkpt>
<trkpt lat="34.206758055555554" lon="134.25949">
<ele>168</ele>
</trkpt>
<trkpt lat="34.20654888888889" lon="134.259565">
<ele>167</ele>
</trkpt>
<trkpt lat="34.20634111111111" lon="134.25974">
<ele>166</ele>
</trkpt>
<trkpt lat="34.20619888888889" lon="134.25997694444445">
<ele>168</ele>
</trkpt>
<trkpt lat="34.20610805555555" lon="134.26025194444443">
<ele>168</ele>
</trkpt>
<trkpt lat="34.20591611111111" lon="134.26107694444445">
<ele>156</ele>
</trkpt>
<trkpt lat="34.20561611111111" lon="134.26219">
<ele>156</ele>
</trkpt>
<trkpt lat="34.205483055555554" lon="134.26237694444444">
<ele>156</ele>
</trkpt>
<trkpt lat="34.20499111111111" lon="134.26322694444445">
<ele>159</ele>
</trkpt>
<trkpt lat="34.20491611111111" lon="134.26344">
<ele>158</ele>
</trkpt>
<trkpt lat="34.20489111111111" lon="134.26365194444443">
<ele>158</ele>
</trkpt>
<trkpt lat="34.2049" lon="134.26392694444445">
<ele>158</ele>
</trkpt>
<trkpt lat="34.20494111111111" lon="134.26407694444444">
<ele>158</ele>
</trkpt>
<trkpt lat="34.20497388888889" lon="134.26422694444443">
<ele>158</ele>
</trkpt>
<trkpt lat="34.20504888888889" lon="134.26435194444446">
<ele>157</ele>
</trkpt>
<trkpt lat="34.20564111111111" lon="134.26492694444445">
<ele>164</ele>
</trkpt>
<trkpt lat="34.20569888888889" lon="134.26505194444445">
<ele>163</ele>
</trkpt>
<trkpt lat="34.20569888888889" lon="134.26519">
<ele>164</ele>
</trkpt>
<trkpt lat="34.205666111111114" lon="134.26532694444444">
<ele>166</ele>
</trkpt>
<trkpt lat="34.20549111111111" lon="134.26549">
<ele>166</ele>
</trkpt>
<trkpt lat="34.20515805555556" lon="134.26552694444445">
<ele>168</ele>
</trkpt>
<trkpt lat="34.20502388888889" lon="134.2655388888889">
<ele>168</ele>
</trkpt>
<trkpt lat="34.204908055555556" lon="134.2655638888889">
<ele>166</ele>
</trkpt>
<trkpt lat="34.204833055555554" lon="134.26560194444446">
<ele>167</ele>
</trkpt>
<trkpt lat="34.204658055555555" lon="134.26580194444443">
<ele>167</ele>
</trkpt>
<trkpt lat="34.20450805555556" lon="134.2659888888889">
<ele>168</ele>
</trkpt>
<trkpt lat="34.20438305555555" lon="134.26605194444446">
<ele>166</ele>
</trkpt>
<trkpt lat="34.20421611111111" lon="134.26605194444446">
<ele>167</ele>
</trkpt>
<trkpt lat="34.203158055555555" lon="134.26606388888888">
<ele>159</ele>
</trkpt>
<trkpt lat="34.202975" lon="134.26641388888888">
<ele>158</ele>
</trkpt>
<trkpt lat="34.202891944444445" lon="134.2664638888889">
<ele>155</ele>
</trkpt>
<trkpt lat="34.20213305555556" lon="134.2664888888889">
<ele>149</ele>
</trkpt>
<trkpt lat="34.20193305555556" lon="134.26663888888888">
<ele>149</ele>
</trkpt>
<trkpt lat="34.201825" lon="134.26670194444443">
<ele>148</ele>
</trkpt>
<trkpt lat="34.20169194444444" lon="134.2667638888889">
<ele>148</ele>
</trkpt>
<trkpt lat="34.201566944444444" lon="134.26680194444444">
<ele>147</ele>
</trkpt>
<trkpt lat="34.200925" lon="134.26687694444445">
<ele>146</ele>
</trkpt>
<trkpt lat="34.20063388888889" lon="134.26690194444444">
<ele>135</ele>
</trkpt>
<trkpt lat="34.20044194444444" lon="134.26692694444444">
<ele>135</ele>
</trkpt>
<trkpt lat="34.19985888888889" lon="134.26707694444445">
<ele>135</ele>
</trkpt>
<trkpt lat="34.19878388888889" lon="134.26740194444446">
<ele>129</ele>
</trkpt>
<trkpt lat="34.198616944444446" lon="134.26751388888889">
<ele>129</ele>
</trkpt>
<trkpt lat="34.19849194444444" lon="134.2676138888889">
<ele>128</ele>
</trkpt>
<trkpt lat="34.19828388888889" lon="134.26786388888888">
<ele>128</ele>
</trkpt>
<trkpt lat="34.19810888888889" lon="134.26815194444444">
<ele>125</ele>
</trkpt>
<trkpt lat="34.197918055555554" lon="134.2686138888889">
<ele>120</ele>
</trkpt>
<trkpt lat="34.19786805555555" lon="134.26880194444445">
<ele>119</ele>
</trkpt>
<trkpt lat="34.19785111111111" lon="134.26891388888887">
<ele>118</ele>
</trkpt>
<trkpt lat="34.19788388888889" lon="134.26915194444445">
<ele>117</ele>
</trkpt>
<trkpt lat="34.19795888888889" lon="134.26945194444446">
<ele>119</ele>
</trkpt>
<trkpt lat="34.19832611111111" lon="134.2702138888889">
<ele>131</ele>
</trkpt>
<trkpt lat="34.19851694444444" lon="134.27081388888888">
<ele>131</ele>
</trkpt>
<trkpt lat="34.19860888888889" lon="134.27103888888888">
<ele>123</ele>
</trkpt>
<trkpt lat="34.198616944444446" lon="134.27107694444445">
<ele>123</ele>
</trkpt>
<trkpt lat="34.19865111111111" lon="134.27132694444444">
<ele>122</ele>
</trkpt>
<trkpt lat="34.19864194444445" lon="134.2715638888889">
<ele>121</ele>
</trkpt>
<trkpt lat="34.19855888888889" lon="134.2721138888889">
<ele>114</ele>
</trkpt>
<trkpt lat="34.19835888888889" lon="134.2731138888889">
<ele>113</ele>
</trkpt>
<trkpt lat="34.19835111111111" lon="134.27351388888889">
<ele>113</ele>
</trkpt>
<trkpt lat="34.19840888888889" lon="134.2741638888889">
<ele>113</ele>
</trkpt>
<trkpt lat="34.19851694444444" lon="134.27456388888888">
<ele>116</ele>
</trkpt>
<trkpt lat="34.19857611111111" lon="134.27476388888888">
<ele>115</ele>
</trkpt>
<trkpt lat="34.19868388888889" lon="134.27523888888888">
<ele>112</ele>
</trkpt>
<trkpt lat="34.19854194444444" lon="134.2758388888889">
<ele>106</ele>
</trkpt>
<trkpt lat="34.19850888888889" lon="134.27646388888888">
<ele>101</ele>
</trkpt>
<trkpt lat="34.19858388888889" lon="134.2767888888889">
<ele>104</ele>
</trkpt>
<trkpt lat="34.198591944444445" lon="134.27703888888888">
<ele>104</ele>
</trkpt>
<trkpt lat="34.19857611111111" lon="134.2773138888889">
<ele>104</ele>
</trkpt>
<trkpt lat="34.19845888888889" lon="134.2775638888889">
<ele>104</ele>
</trkpt>
<trkpt lat="34.19832611111111" lon="134.2779888888889">
<ele>101</ele>
</trkpt>
<trkpt lat="34.198233888888886" lon="134.27842694444445">
<ele>102</ele>
</trkpt>
<trkpt lat="34.19820888888889" lon="134.28033888888888">
<ele>101</ele>
</trkpt>
<trkpt lat="34.19812611111111" lon="134.2814261111111">
<ele>97</ele>
</trkpt>
<trkpt lat="34.198008888888886" lon="134.2818388888889">
<ele>96</ele>
</trkpt>
<trkpt lat="34.197741944444445" lon="134.2824388888889">
<ele>95</ele>
</trkpt>
<trkpt lat="34.19740111111111" lon="134.28291388888888">
<ele>95</ele>
</trkpt>
<trkpt lat="34.19705111111111" lon="134.28328888888888">
<ele>94</ele>
</trkpt>
<trkpt lat="34.19698388888889" lon="134.2833511111111">
<ele>94</ele>
</trkpt>
<trkpt lat="34.19683388888889" lon="134.28351388888888">
<ele>94</ele>
</trkpt>
<trkpt lat="34.19674194444445" lon="134.2836388888889">
<ele>93</ele>
</trkpt>
<trkpt lat="34.196691944444446" lon="134.2837888888889">
<ele>94</ele>
</trkpt>
<trkpt lat="34.196668055555556" lon="134.28393888888888">
<ele>95</ele>
</trkpt>
<trkpt lat="34.19668388888889" lon="134.28442611111112">
<ele>97</ele>
</trkpt>
<trkpt lat="34.19672611111111" lon="134.2847138888889">
<ele>95</ele>
</trkpt>
<trkpt lat="34.19682611111111" lon="134.2849261111111">
<ele>94</ele>
</trkpt>
<trkpt lat="34.19692611111111" lon="134.28507611111112">
<ele>94</ele>
</trkpt>
<trkpt lat="34.197043055555554" lon="134.28521388888888">
<ele>93</ele>
</trkpt>
<trkpt lat="34.197918055555554" lon="134.2859511111111">
<ele>86</ele>
</trkpt>
<trkpt lat="34.19869194444444" lon="134.28668888888888">
<ele>86</ele>
</trkpt>
<trkpt lat="34.19896694444444" lon="134.28713888888888">
<ele>86</ele>
</trkpt>
<trkpt lat="34.198991944444444" lon="134.2874261111111">
<ele>85</ele>
</trkpt>
<trkpt lat="34.198768055555554" lon="134.2880011111111">
<ele>84</ele>
</trkpt>
<trkpt lat="34.19877611111111" lon="134.28813888888888">
<ele>84</ele>
</trkpt>
<trkpt lat="34.19882611111111" lon="134.28827611111112">
<ele>87</ele>
</trkpt>
<trkpt lat="34.19889194444445" lon="134.2883388888889">
<ele>87</ele>
</trkpt>
<trkpt lat="34.198951111111114" lon="134.28838888888887">
<ele>87</ele>
</trkpt>
<trkpt lat="34.19935888888889" lon="134.2886261111111">
<ele>86</ele>
</trkpt>
<trkpt lat="34.19940888888889" lon="134.2886638888889">
<ele>86</ele>
</trkpt>
<trkpt lat="34.19961694444444" lon="134.28881388888888">
<ele>85</ele>
</trkpt>
<trkpt lat="34.199866944444445" lon="134.28913805555555">
<ele>83</ele>
</trkpt>
<trkpt lat="34.20001694444444" lon="134.28926305555555">
<ele>82</ele>
</trkpt>
<trkpt lat="34.20047611111111" lon="134.2895511111111">
<ele>83</ele>
</trkpt>
<trkpt lat="34.20062611111111" lon="134.2896511111111">
<ele>83</ele>
</trkpt>
<trkpt lat="34.20122611111111" lon="134.2902761111111">
<ele>84</ele>
</trkpt>
<trkpt lat="34.20130888888889" lon="134.29038805555555">
<ele>83</ele>
</trkpt>
<trkpt lat="34.20137611111111" lon="134.2905011111111">
<ele>84</ele>
</trkpt>
<trkpt lat="34.201416944444446" lon="134.2906011111111">
<ele>84</ele>
</trkpt>
<trkpt lat="34.20157611111111" lon="134.29126305555556">
<ele>78</ele>
</trkpt>
<trkpt lat="34.20183388888889" lon="134.29191305555557">
<ele>77</ele>
</trkpt>
<trkpt lat="34.2019" lon="134.2921511111111">
<ele>78</ele>
</trkpt>
<trkpt lat="34.20194194444444" lon="134.29256305555555">
<ele>77</ele>
</trkpt>
<trkpt lat="34.20210888888889" lon="134.29416305555554">
<ele>75</ele>
</trkpt>
<trkpt lat="34.20220888888889" lon="134.294825">
<ele>75</ele>
</trkpt>
<trkpt lat="34.202241944444445" lon="134.29498805555556">
<ele>76</ele>
</trkpt>
<trkpt lat="34.202266944444446" lon="134.295075">
<ele>75</ele>
</trkpt>
<trkpt lat="34.20245888888889" lon="134.295525">
<ele>76</ele>
</trkpt>
<trkpt lat="34.202491944444446" lon="134.295675">
<ele>76</ele>
</trkpt>
<trkpt lat="34.20283388888889" lon="134.29586305555554">
<ele>78</ele>
</trkpt>
<trkpt lat="34.203175" lon="134.2961">
<ele>82</ele>
</trkpt>
<trkpt lat="34.20339194444445" lon="134.2963">
<ele>85</ele>
</trkpt>
<trkpt lat="34.20365" lon="134.29663805555555">
<ele>85</ele>
</trkpt>
<trkpt lat="34.203675" lon="134.296675">
<ele>88</ele>
</trkpt>
<trkpt lat="34.20383388888889" lon="134.29705">
<ele>94</ele>
</trkpt>
<trkpt lat="34.203941944444445" lon="134.29735">
<ele>94</ele>
</trkpt>
<trkpt lat="34.20404194444444" lon="134.29745">
<ele>94</ele>
</trkpt>
<trkpt lat="34.204166944444445" lon="134.297525">
<ele>95</ele>
</trkpt>
<trkpt lat="34.20435888888889" lon="134.29758694444445">
<ele>94</ele>
</trkpt>
<trkpt lat="34.20460888888889" lon="134.297625">
<ele>95</ele>
</trkpt>
<trkpt lat="34.204841944444446" lon="134.297625">
<ele>95</ele>
</trkpt>
<trkpt lat="34.20666694444444" lon="134.2974">
<ele>104</ele>
</trkpt>
<trkpt lat="34.206825" lon="134.2974">
<ele>105</ele>
</trkpt>
<trkpt lat="34.206941944444445" lon="134.29745">
<ele>104</ele>
</trkpt>
<trkpt lat="34.20704111111111" lon="134.29756194444445">
<ele>105</ele>
</trkpt>
<trkpt lat="34.20726611111111" lon="134.29786194444443">
<ele>106</ele>
</trkpt>
<trkpt lat="34.207391111111114" lon="134.29795">
<ele>105</ele>
</trkpt>
<trkpt lat="34.207525" lon="134.29798694444443">
<ele>106</ele>
</trkpt>
<trkpt lat="34.20771611111111" lon="134.297975">
<ele>107</ele>
</trkpt>
<trkpt lat="34.207925" lon="134.29788805555555">
<ele>108</ele>
</trkpt>
<trkpt lat="34.20840805555556" lon="134.297525">
<ele>108</ele>
</trkpt>
<trkpt lat="34.208575" lon="134.29746194444445">
<ele>108</ele>
</trkpt>
<trkpt lat="34.208733055555555" lon="134.29748694444444">
<ele>110</ele>
</trkpt>
<trkpt lat="34.209223888888886" lon="134.29765">
<ele>117</ele>
</trkpt>
<trkpt lat="34.20971611111111" lon="134.29786194444443">
<ele>117</ele>
</trkpt>
<trkpt lat="34.20993305555555" lon="134.29795">
<ele>117</ele>
</trkpt>
<trkpt lat="34.21022388888889" lon="134.29801194444445">
<ele>117</ele>
</trkpt>
<trkpt lat="34.21037388888889" lon="134.29801194444445">
<ele>117</ele>
</trkpt>
<trkpt lat="34.211058055555554" lon="134.29803694444445">
<ele>109</ele>
</trkpt>
<trkpt lat="34.211148888888886" lon="134.298025">
<ele>109</ele>
</trkpt>
<trkpt lat="34.21124888888889" lon="134.29798694444443">
<ele>109</ele>
</trkpt>
<trkpt lat="34.21135694444445" lon="134.29795">
<ele>109</ele>
</trkpt>
<trkpt lat="34.21179111111111" lon="134.297625">
<ele>106</ele>
</trkpt>
<trkpt lat="34.21210694444444" lon="134.29748694444444">
<ele>107</ele>
</trkpt>
<trkpt lat="34.212516111111114" lon="134.29736305555556">
<ele>104</ele>
</trkpt>
<trkpt lat="34.21286611111111" lon="134.29718805555555">
<ele>101</ele>
</trkpt>
<trkpt lat="34.21362388888889" lon="134.2967">
<ele>93</ele>
</trkpt>
<trkpt lat="34.21394111111111" lon="134.29646305555556">
<ele>93</ele>
</trkpt>
<trkpt lat="34.21464" lon="134.295975">
<ele>86</ele>
</trkpt>
<trkpt lat="34.21474" lon="134.29591305555556">
<ele>83</ele>
</trkpt>
<trkpt lat="34.214906944444444" lon="134.29585">
<ele>86</ele>
</trkpt>
<trkpt lat="34.214965" lon="134.29585">
<ele>86</ele>
</trkpt>
<trkpt lat="34.21503194444445" lon="134.295875">
<ele>87</ele>
</trkpt>
<trkpt lat="34.21547388888889" lon="134.29613805555556">
<ele>85</ele>
</trkpt>
<trkpt lat="34.21569888888889" lon="134.29623805555556">
<ele>83</ele>
</trkpt>
<trkpt lat="34.215765" lon="134.29625">
<ele>83</ele>
</trkpt>
<trkpt lat="34.21592388888889" lon="134.296275">
<ele>83</ele>
</trkpt>
<trkpt lat="34.21612388888889" lon="134.29626305555556">
<ele>84</ele>
</trkpt>
<trkpt lat="34.21624" lon="134.296225">
<ele>84</ele>
</trkpt>
<trkpt lat="34.21633194444444" lon="134.296175">
<ele>87</ele>
</trkpt>
<trkpt lat="34.216523055555555" lon="134.29606305555555">
<ele>81</ele>
</trkpt>
<trkpt lat="34.216665" lon="134.295975">
<ele>78</ele>
</trkpt>
<trkpt lat="34.216815" lon="134.295875">
<ele>76</ele>
</trkpt>
<trkpt lat="34.217306944444445" lon="134.2955">
<ele>78</ele>
</trkpt>
<trkpt lat="34.21749805555555" lon="134.2954">
<ele>77</ele>
</trkpt>
<trkpt lat="34.217715" lon="134.29536305555555">
<ele>74</ele>
</trkpt>
<trkpt lat="34.21792305555555" lon="134.29531305555557">
<ele>77</ele>
</trkpt>
<trkpt lat="34.218015" lon="134.29526305555555">
<ele>77</ele>
</trkpt>
<trkpt lat="34.21809805555556" lon="134.295225">
<ele>77</ele>
</trkpt>
<trkpt lat="34.21830611111111" lon="134.29508805555557">
<ele>83</ele>
</trkpt>
<trkpt lat="34.21859" lon="134.29493805555555">
<ele>78</ele>
</trkpt>
<trkpt lat="34.21884" lon="134.29485">
<ele>82</ele>
</trkpt>
<trkpt lat="34.21910611111111" lon="134.294775">
<ele>85</ele>
</trkpt>
<trkpt lat="34.21939805555556" lon="134.29475">
<ele>78</ele>
</trkpt>
<trkpt lat="34.21985611111111" lon="134.29473805555557">
<ele>76</ele>
</trkpt>
<trkpt lat="34.22007305555555" lon="134.294725">
<ele>76</ele>
</trkpt>
<trkpt lat="34.22064805555556" lon="134.29478805555556">
<ele>74</ele>
</trkpt>
<trkpt lat="34.22076388888889" lon="134.294775">
<ele>76</ele>
</trkpt>
<trkpt lat="34.22087305555556" lon="134.29471305555555">
<ele>74</ele>
</trkpt>
<trkpt lat="34.22098888888889" lon="134.29461305555554">
<ele>74</ele>
</trkpt>
<trkpt lat="34.221873055555555" lon="134.29357611111112">
<ele>73</ele>
</trkpt>
<trkpt lat="34.222073055555555" lon="134.2934011111111">
<ele>76</ele>
</trkpt>
<trkpt lat="34.22218888888889" lon="134.2933011111111">
<ele>77</ele>
</trkpt>
<trkpt lat="34.22234805555556" lon="134.29326305555554">
<ele>76</ele>
</trkpt>
<trkpt lat="34.222546944444446" lon="134.29331305555556">
<ele>76</ele>
</trkpt>
<trkpt lat="34.22285611111111" lon="134.2935511111111">
<ele>68</ele>
</trkpt>
<trkpt lat="34.22313111111111" lon="134.29381305555555">
<ele>63</ele>
</trkpt>
<trkpt lat="34.224606111111115" lon="134.29465">
<ele>46</ele>
</trkpt>
<trkpt lat="34.22448888888889" lon="134.294975">
<ele>43</ele>
</trkpt>
<trkpt lat="34.224398055555554" lon="134.295325">
<ele>43</ele>
</trkpt>
<trkpt lat="34.22430611111111" lon="134.29571305555555">
<ele>42</ele>
</trkpt>
<trkpt lat="34.22423888888889" lon="134.2962">
<ele>41</ele>
</trkpt>
<trkpt lat="34.224223055555555" lon="134.29643805555557">
<ele>40</ele>
</trkpt>
<trkpt lat="34.224198055555554" lon="134.29683805555555">
<ele>44</ele>
</trkpt>
<trkpt lat="34.22418888888889" lon="134.29696305555555">
<ele>43</ele>
</trkpt>
<trkpt lat="34.22417305555555" lon="134.29741305555555">
<ele>40</ele>
</trkpt>
<trkpt lat="34.224223055555555" lon="134.29793694444444">
<ele>47</ele>
</trkpt>
<trkpt lat="34.22436388888889" lon="134.298925">
<ele>42</ele>
</trkpt>
<trkpt lat="34.22440611111111" lon="134.29915">
<ele>44</ele>
</trkpt>
<trkpt lat="34.224473055555556" lon="134.299475">
<ele>45</ele>
</trkpt>
<trkpt lat="34.22453111111111" lon="134.299775">
<ele>47</ele>
</trkpt>
<trkpt lat="34.224581111111114" lon="134.30003694444446">
<ele>45</ele>
</trkpt>
<trkpt lat="34.22478111111111" lon="134.30075">
<ele>43</ele>
</trkpt>
<trkpt lat="34.22495611111111" lon="134.30113694444444">
<ele>43</ele>
</trkpt>
<trkpt lat="34.225006111111114" lon="134.30125">
<ele>42</ele>
</trkpt>
<trkpt lat="34.22522305555555" lon="134.30171194444443">
<ele>41</ele>
</trkpt>
<trkpt lat="34.22530611111111" lon="134.3019">
<ele>42</ele>
</trkpt>
<trkpt lat="34.22561388888889" lon="134.30256194444445">
<ele>43</ele>
</trkpt>
<trkpt lat="34.225746944444445" lon="134.30286194444443">
<ele>42</ele>
</trkpt>
<trkpt lat="34.22576388888889" lon="134.30288694444445">
<ele>42</ele>
</trkpt>
<trkpt lat="34.22585611111111" lon="134.30308694444443">
<ele>40</ele>
</trkpt>
<trkpt lat="34.22598888888889" lon="134.30334888888888">
<ele>39</ele>
</trkpt>
<trkpt lat="34.22628111111111" lon="134.3037238888889">
<ele>37</ele>
</trkpt>
<trkpt lat="34.226346944444444" lon="134.30378694444445">
<ele>36</ele>
</trkpt>
<trkpt lat="34.22648111111111" lon="134.30389888888888">
<ele>36</ele>
</trkpt>
<trkpt lat="34.22680611111111" lon="134.3040988888889">
<ele>34</ele>
</trkpt>
<trkpt lat="34.22688888888889" lon="134.30414888888888">
<ele>33</ele>
</trkpt>
<trkpt lat="34.227021944444445" lon="134.30421194444443">
<ele>33</ele>
</trkpt>
<trkpt lat="34.22709694444445" lon="134.30423694444445">
<ele>33</ele>
</trkpt>
<trkpt lat="34.22723111111111" lon="134.30426194444445">
<ele>32</ele>
</trkpt>
<trkpt lat="34.22760611111111" lon="134.30426194444445">
<ele>30</ele>
</trkpt>
<trkpt lat="34.22770611111111" lon="134.30426194444445">
<ele>30</ele>
</trkpt>
<trkpt lat="34.22786388888889" lon="134.30426194444445">
<ele>29</ele>
</trkpt>
<trkpt lat="34.22795611111111" lon="134.30428694444444">
<ele>29</ele>
</trkpt>
<trkpt lat="34.22806388888889" lon="134.3043238888889">
<ele>30</ele>
</trkpt>
<trkpt lat="34.22821388888889" lon="134.30443694444443">
<ele>30</ele>
</trkpt>
<trkpt lat="34.228321944444446" lon="134.30453694444444">
<ele>30</ele>
</trkpt>
<trkpt lat="34.22875611111111" lon="134.30506194444445">
<ele>31</ele>
</trkpt>
<trkpt lat="34.22906388888889" lon="134.30548694444445">
<ele>30</ele>
</trkpt>
<trkpt lat="34.229405" lon="134.30583694444445">
<ele>29</ele>
</trkpt>
<trkpt lat="34.22948" lon="134.30591194444443">
<ele>28</ele>
</trkpt>
<trkpt lat="34.229805" lon="134.30627388888888">
<ele>26</ele>
</trkpt>
<trkpt lat="34.23003888888889" lon="134.30649888888888">
<ele>26</ele>
</trkpt>
<trkpt lat="34.23041388888889" lon="134.30681194444443">
<ele>24</ele>
</trkpt>
<trkpt lat="34.23023888888889" lon="134.3073738888889">
<ele>26</ele>
</trkpt>
<trkpt lat="34.23036388888889" lon="134.30748694444443">
<ele>26</ele>
</trkpt>
<trkpt lat="34.230513888888886" lon="134.30763694444445">
<ele>26</ele>
</trkpt>
<trkpt lat="34.23068888888889" lon="134.30781194444444">
<ele>27</ele>
</trkpt>
<trkpt lat="34.230733055555554" lon="134.30786111111112">
<ele>27</ele>
</trkpt>
<trkpt lat="34.230733055555554" lon="134.30786111111112">
<ele>27</ele>
</trkpt>
<trkpt lat="34.23068888888889" lon="134.30781194444444">
<ele>27</ele>
</trkpt>
<trkpt lat="34.230513888888886" lon="134.30763694444445">
<ele>26</ele>
</trkpt>
<trkpt lat="34.23036388888889" lon="134.30748694444443">
<ele>26</ele>
</trkpt>
<trkpt lat="34.23023888888889" lon="134.3073738888889">
<ele>26</ele>
</trkpt>
<trkpt lat="34.23041388888889" lon="134.30681194444443">
<ele>24</ele>
</trkpt>
<trkpt lat="34.23083" lon="134.3070988888889">
<ele>24</ele>
</trkpt>
<trkpt lat="34.231105" lon="134.30733694444444">
<ele>24</ele>
</trkpt>
<trkpt lat="34.231305" lon="134.3075988888889">
<ele>24</ele>
</trkpt>
<trkpt lat="34.23159694444445" lon="134.3080111111111">
<ele>23</ele>
</trkpt>
<trkpt lat="34.231805" lon="134.30831111111112">
<ele>23</ele>
</trkpt>
<trkpt lat="34.23213805555555" lon="134.3088611111111">
<ele>23</ele>
</trkpt>
<trkpt lat="34.232605" lon="134.3097238888889">
<ele>23</ele>
</trkpt>
<trkpt lat="34.23293" lon="134.3103361111111">
<ele>23</ele>
</trkpt>
<trkpt lat="34.233055" lon="134.3105361111111">
<ele>23</ele>
</trkpt>
<trkpt lat="34.233246944444446" lon="134.31079888888888">
<ele>24</ele>
</trkpt>
<trkpt lat="34.23356305555556" lon="134.3111238888889">
<ele>24</ele>
</trkpt>
<trkpt lat="34.23379694444444" lon="134.3114361111111">
<ele>25</ele>
</trkpt>
<trkpt lat="34.23392194444445" lon="134.31169888888888">
<ele>26</ele>
</trkpt>
<trkpt lat="34.23421305555556" lon="134.31239888888888">
<ele>24</ele>
</trkpt>
<trkpt lat="34.234588055555555" lon="134.31331111111112">
<ele>22</ele>
</trkpt>
<trkpt lat="34.23463805555556" lon="134.3134611111111">
<ele>22</ele>
</trkpt>
<trkpt lat="34.234746944444446" lon="134.3138361111111">
<ele>21</ele>
</trkpt>
<trkpt lat="34.23479694444445" lon="134.31433611111112">
<ele>21</ele>
</trkpt>
<trkpt lat="34.23482194444444" lon="134.31453611111112">
<ele>21</ele>
</trkpt>
<trkpt lat="34.23486305555556" lon="134.3150361111111">
<ele>20</ele>
</trkpt>
<trkpt lat="34.23488" lon="134.3152611111111">
<ele>20</ele>
</trkpt>
<trkpt lat="34.23488" lon="134.31582305555557">
<ele>20</ele>
</trkpt>
<trkpt lat="34.23486305555556" lon="134.3162861111111">
<ele>20</ele>
</trkpt>
<trkpt lat="34.234705" lon="134.31792305555555">
<ele>17</ele>
</trkpt>
<trkpt lat="34.234988055555554" lon="134.31812305555556">
<ele>17</ele>
</trkpt>
<trkpt lat="34.235188055555554" lon="134.31826">
<ele>18</ele>
</trkpt>
<trkpt lat="34.23593805555556" lon="134.31881">
<ele>18</ele>
</trkpt>
<trkpt lat="34.23623805555555" lon="134.31894805555555">
<ele>19</ele>
</trkpt>
<trkpt lat="34.23653" lon="134.31906">
<ele>19</ele>
</trkpt>
<trkpt lat="34.23686305555555" lon="134.31912305555556">
<ele>18</ele>
</trkpt>
<trkpt lat="34.23724611111111" lon="134.31917305555555">
<ele>18</ele>
</trkpt>
<trkpt lat="34.237355" lon="134.31919805555555">
<ele>18</ele>
</trkpt>
<trkpt lat="34.237538055555554" lon="134.31921">
<ele>18</ele>
</trkpt>
<trkpt lat="34.237755" lon="134.31924805555556">
<ele>18</ele>
</trkpt>
<trkpt lat="34.23831305555556" lon="134.31931">
<ele>19</ele>
</trkpt>
<trkpt lat="34.23878805555555" lon="134.319385">
<ele>18</ele>
</trkpt>
<trkpt lat="34.23892111111111" lon="134.31942305555555">
<ele>18</ele>
</trkpt>
<trkpt lat="34.23903" lon="134.31947305555556">
<ele>18</ele>
</trkpt>
<trkpt lat="34.23919611111111" lon="134.31956">
<ele>18</ele>
</trkpt>
<trkpt lat="34.23947888888889" lon="134.319785">
<ele>19</ele>
</trkpt>
<trkpt lat="34.23978805555556" lon="134.32002305555557">
<ele>18</ele>
</trkpt>
<trkpt lat="34.23987888888889" lon="134.32007305555555">
<ele>18</ele>
</trkpt>
<trkpt lat="34.23998805555556" lon="134.32012305555557">
<ele>18</ele>
</trkpt>
<trkpt lat="34.240096111111114" lon="134.32014805555556">
<ele>18</ele>
</trkpt>
<trkpt lat="34.24023805555556" lon="134.32014805555556">
<ele>18</ele>
</trkpt>
<trkpt lat="34.240363055555555" lon="134.32011">
<ele>18</ele>
</trkpt>
<trkpt lat="34.24047111111111" lon="134.32006">
<ele>18</ele>
</trkpt>
<trkpt lat="34.24148805555556" lon="134.319335">
<ele>19</ele>
</trkpt>
<trkpt lat="34.241596111111114" lon="134.319285">
<ele>18</ele>
</trkpt>
<trkpt lat="34.24172111111111" lon="134.31927305555556">
<ele>18</ele>
</trkpt>
<trkpt lat="34.24187888888889" lon="134.31929805555555">
<ele>19</ele>
</trkpt>
<trkpt lat="34.24247888888889" lon="134.31952305555555">
<ele>18</ele>
</trkpt>
<trkpt lat="34.242646111111114" lon="134.31961">
<ele>19</ele>
</trkpt>
<trkpt lat="34.24298805555556" lon="134.31982305555556">
<ele>18</ele>
</trkpt>
<trkpt lat="34.24302888888889" lon="134.31986">
<ele>18</ele>
</trkpt>
<trkpt lat="34.24359611111111" lon="134.320285">
<ele>16</ele>
</trkpt>
<trkpt lat="34.24367888888889" lon="134.320335">
<ele>15</ele>
</trkpt>
<trkpt lat="34.24379611111111" lon="134.32039694444444">
<ele>15</ele>
</trkpt>
<trkpt lat="34.24387888888889" lon="134.32042194444443">
<ele>15</ele>
</trkpt>
<trkpt lat="34.244011944444445" lon="134.320435">
<ele>13</ele>
</trkpt>
<trkpt lat="34.24422111111111" lon="134.32044805555554">
<ele>12</ele>
</trkpt>
<trkpt lat="34.24432111111111" lon="134.320435">
<ele>13</ele>
</trkpt>
<trkpt lat="34.24447111111111" lon="134.32042194444443">
<ele>12</ele>
</trkpt>
<trkpt lat="34.245061944444444" lon="134.320385">
<ele>9</ele>
</trkpt>
<trkpt lat="34.24538694444445" lon="134.320385">
<ele>9</ele>
</trkpt>
<trkpt lat="34.24575388888889" lon="134.32042194444443">
<ele>9</ele>
</trkpt>
<trkpt lat="34.24673694444444" lon="134.32056">
<ele>9</ele>
</trkpt>
<trkpt lat="34.246811944444445" lon="134.32057194444445">
<ele>8</ele>
</trkpt>
<trkpt lat="34.24787" lon="134.32071">
<ele>7</ele>
</trkpt>
<trkpt lat="34.24827" lon="134.32077305555555">
<ele>6</ele>
</trkpt>
<trkpt lat="34.24867805555556" lon="134.32082305555556">
<ele>5</ele>
</trkpt>
<trkpt lat="34.248761944444446" lon="134.320835">
<ele>5</ele>
</trkpt>
<trkpt lat="34.25040305555556" lon="134.32106">
<ele>5</ele>
</trkpt>
<trkpt lat="34.25035305555556" lon="134.32142194444444">
<ele>5</ele>
</trkpt>
<trkpt lat="34.250145" lon="134.32276">
<ele>5</ele>
</trkpt>
<trkpt lat="34.25000305555555" lon="134.32374694444445">
<ele>5</ele>
</trkpt>
<trkpt lat="34.25056194444444" lon="134.32384694444445">
<ele>5</ele>
</trkpt>
<trkpt lat="34.25105305555556" lon="134.323935">
<ele>4</ele>
</trkpt>
<trkpt lat="34.25125305555556" lon="134.32397194444445">
<ele>4</ele>
</trkpt>
<trkpt lat="34.25150305555555" lon="134.3240088888889">
<ele>4</ele>
</trkpt>
<trkpt lat="34.251578055555555" lon="134.32402194444444">
<ele>4</ele>
</trkpt>
<trkpt lat="34.251603055555556" lon="134.3240338888889">
<ele>4</ele>
</trkpt>
<trkpt lat="34.252445" lon="134.32418388888888">
<ele>4</ele>
</trkpt>
<trkpt lat="34.25252805555556" lon="134.32420888888888">
<ele>4</ele>
</trkpt>
<trkpt lat="34.25295305555556" lon="134.32428388888889">
<ele>4</ele>
</trkpt>
<trkpt lat="34.25328611111111" lon="134.32434694444444">
<ele>4</ele>
</trkpt>
<trkpt lat="34.25351111111111" lon="134.3243838888889">
<ele>3</ele>
</trkpt>
<trkpt lat="34.25456888888889" lon="134.3245838888889">
<ele>3</ele>
</trkpt>
<trkpt lat="34.25626888888889" lon="134.32498388888888">
<ele>3</ele>
</trkpt>
<trkpt lat="34.25669388888889" lon="134.32507194444443">
<ele>2</ele>
</trkpt>
<trkpt lat="34.25719388888889" lon="134.32514694444444">
<ele>2</ele>
</trkpt>
<trkpt lat="34.25901805555556" lon="134.3254211111111">
<ele>2</ele>
</trkpt>
    </trkseg>
  </trk>
</gpx>