<?xml version="1.0" encoding="UTF-8"?>
<gpx version="1.1"
     creator="KMLtoGPX"
     xmlns="http://www.topografix.com/GPX/1/1">
  <metadata>
    <name>UwakaiSeto Inland Sea Crossing Course</name>
    <desc>宇和海・瀬戸内海踏破コース</desc>
    <bounds minlat="33.46371805555555" minlon="132.2759761111111" maxlat="33.501756944444445" maxlon="132.36214"/>
  </metadata>
  <trk>
    <name>UwakaiSeto Inland Sea Crossing Course</name>
    <trkseg>
<trkpt lat="33.46465805555555" lon="132.28064694444444">
<ele>9</ele>
</trkpt>
<trkpt lat="33.46471805555556" lon="132.2808511111111">
<ele>9</ele>
</trkpt>
<trkpt lat="33.464785" lon="132.28111305555555">
<ele>9</ele>
</trkpt>
<trkpt lat="33.464801111111115" lon="132.28128805555556">
<ele>9</ele>
</trkpt>
<trkpt lat="33.46475111111111" lon="132.28176305555556">
<ele>9</ele>
</trkpt>
<trkpt lat="33.46475111111111" lon="132.28241305555557">
<ele>9</ele>
</trkpt>
<trkpt lat="33.46469305555556" lon="132.28272611111112">
<ele>9</ele>
</trkpt>
<trkpt lat="33.464635" lon="132.28291305555555">
<ele>9</ele>
</trkpt>
<trkpt lat="33.46454305555555" lon="132.2831011111111">
<ele>9</ele>
</trkpt>
<trkpt lat="33.464435" lon="132.28330111111111">
<ele>9</ele>
</trkpt>
<trkpt lat="33.46441" lon="132.28337611111112">
<ele>9</ele>
</trkpt>
<trkpt lat="33.46440194444445" lon="132.2834761111111">
<ele>9</ele>
</trkpt>
<trkpt lat="33.464435" lon="132.28358805555555">
<ele>9</ele>
</trkpt>
<trkpt lat="33.46461" lon="132.283925">
<ele>9</ele>
</trkpt>
<trkpt lat="33.464668055555556" lon="132.28408805555554">
<ele>9</ele>
</trkpt>
<trkpt lat="33.46469305555556" lon="132.2842">
<ele>9</ele>
</trkpt>
<trkpt lat="33.46469305555556" lon="132.28438805555555">
<ele>9</ele>
</trkpt>
<trkpt lat="33.464643055555555" lon="132.28461305555555">
<ele>9</ele>
</trkpt>
<trkpt lat="33.46476805555555" lon="132.28483805555555">
<ele>9</ele>
</trkpt>
<trkpt lat="33.464868055555556" lon="132.28498805555554">
<ele>9</ele>
</trkpt>
<trkpt lat="33.464868055555556" lon="132.28506305555555">
<ele>9</ele>
</trkpt>
<trkpt lat="33.46485194444445" lon="132.28513805555556">
<ele>9</ele>
</trkpt>
<trkpt lat="33.464776944444445" lon="132.285225">
<ele>9</ele>
</trkpt>
<trkpt lat="33.46465194444445" lon="132.28531305555555">
<ele>9</ele>
</trkpt>
<trkpt lat="33.464485" lon="132.285425">
<ele>9</ele>
</trkpt>
<trkpt lat="33.464385" lon="132.285525">
<ele>9</ele>
</trkpt>
<trkpt lat="33.464285" lon="132.28573805555556">
<ele>9</ele>
</trkpt>
<trkpt lat="33.46416" lon="132.28608805555555">
<ele>9</ele>
</trkpt>
<trkpt lat="33.46409305555556" lon="132.28623694444445">
<ele>9</ele>
</trkpt>
<trkpt lat="33.46401" lon="132.28635">
<ele>8</ele>
</trkpt>
<trkpt lat="33.46377694444445" lon="132.28655">
<ele>8</ele>
</trkpt>
<trkpt lat="33.46389305555556" lon="132.28685">
<ele>5</ele>
</trkpt>
<trkpt lat="33.463951944444446" lon="132.28715">
<ele>2</ele>
</trkpt>
<trkpt lat="33.46397694444445" lon="132.28743805555555">
<ele>1</ele>
</trkpt>
<trkpt lat="33.464218055555556" lon="132.28791305555555">
<ele>1</ele>
</trkpt>
<trkpt lat="33.46436805555555" lon="132.288175">
<ele>1</ele>
</trkpt>
<trkpt lat="33.464585" lon="132.28853694444444">
<ele>2</ele>
</trkpt>
<trkpt lat="33.46476" lon="132.2889">
<ele>2</ele>
</trkpt>
<trkpt lat="33.46487694444444" lon="132.2892">
<ele>4</ele>
</trkpt>
<trkpt lat="33.465001944444445" lon="132.2896">
<ele>7</ele>
</trkpt>
<trkpt lat="33.46510194444444" lon="132.29007388888888">
<ele>7</ele>
</trkpt>
<trkpt lat="33.46521" lon="132.29077388888888">
<ele>9</ele>
</trkpt>
<trkpt lat="33.465268055555555" lon="132.29126194444444">
<ele>14</ele>
</trkpt>
<trkpt lat="33.465293055555556" lon="132.29156194444445">
<ele>13</ele>
</trkpt>
<trkpt lat="33.465293055555556" lon="132.29283694444445">
<ele>14</ele>
</trkpt>
<trkpt lat="33.465285" lon="132.29304888888888">
<ele>15</ele>
</trkpt>
<trkpt lat="33.46521805555555" lon="132.29321194444444">
<ele>16</ele>
</trkpt>
<trkpt lat="33.46511" lon="132.2934488888889">
<ele>25</ele>
</trkpt>
<trkpt lat="33.46505194444445" lon="132.2936238888889">
<ele>26</ele>
</trkpt>
<trkpt lat="33.46496805555556" lon="132.29376194444444">
<ele>25</ele>
</trkpt>
<trkpt lat="33.46491" lon="132.29393694444445">
<ele>27</ele>
</trkpt>
<trkpt lat="33.464935" lon="132.29414888888888">
<ele>26</ele>
</trkpt>
<trkpt lat="33.465035" lon="132.2943611111111">
<ele>26</ele>
</trkpt>
<trkpt lat="33.46526" lon="132.2946488888889">
<ele>27</ele>
</trkpt>
<trkpt lat="33.46544305555555" lon="132.2947988888889">
<ele>25</ele>
</trkpt>
<trkpt lat="33.46572694444444" lon="132.2950111111111">
<ele>25</ele>
</trkpt>
<trkpt lat="33.466118055555555" lon="132.2951111111111">
<ele>15</ele>
</trkpt>
<trkpt lat="33.46666" lon="132.29519888888888">
<ele>15</ele>
</trkpt>
<trkpt lat="33.46677694444445" lon="132.2952488888889">
<ele>14</ele>
</trkpt>
<trkpt lat="33.466985" lon="132.2953361111111">
<ele>15</ele>
</trkpt>
<trkpt lat="33.46721" lon="132.2954861111111">
<ele>15</ele>
</trkpt>
<trkpt lat="33.467638055555554" lon="132.295765">
<ele>16</ele>
</trkpt>
<trkpt lat="33.467638055555554" lon="132.295765">
<ele>16</ele>
</trkpt>
<trkpt lat="33.46765111111111" lon="132.2957738888889">
<ele>16</ele>
</trkpt>
<trkpt lat="33.467985" lon="132.2958988888889">
<ele>14</ele>
</trkpt>
<trkpt lat="33.468335" lon="132.2959238888889">
<ele>9</ele>
</trkpt>
<trkpt lat="33.468785" lon="132.2958988888889">
<ele>4</ele>
</trkpt>
<trkpt lat="33.468885" lon="132.29584888888888">
<ele>5</ele>
</trkpt>
<trkpt lat="33.46951" lon="132.2955861111111">
<ele>2</ele>
</trkpt>
<trkpt lat="33.46995111111111" lon="132.2953738888889">
<ele>3</ele>
</trkpt>
<trkpt lat="33.470168055555554" lon="132.2953488888889">
<ele>5</ele>
</trkpt>
<trkpt lat="33.47038388888889" lon="132.29539888888888">
<ele>6</ele>
</trkpt>
<trkpt lat="33.47060111111111" lon="132.2954861111111">
<ele>7</ele>
</trkpt>
<trkpt lat="33.47080888888889" lon="132.2955861111111">
<ele>8</ele>
</trkpt>
<trkpt lat="33.47105111111111" lon="132.2957861111111">
<ele>7</ele>
</trkpt>
<trkpt lat="33.47131805555556" lon="132.2960111111111">
<ele>12</ele>
</trkpt>
<trkpt lat="33.47161805555555" lon="132.2961738888889">
<ele>14</ele>
</trkpt>
<trkpt lat="33.47187611111111" lon="132.29631111111112">
<ele>16</ele>
</trkpt>
<trkpt lat="33.47204305555555" lon="132.2964861111111">
<ele>17</ele>
</trkpt>
<trkpt lat="33.47221694444445" lon="132.29676111111112">
<ele>15</ele>
</trkpt>
<trkpt lat="33.47243388888889" lon="132.29724805555554">
<ele>13</ele>
</trkpt>
<trkpt lat="33.47264194444445" lon="132.2977611111111">
<ele>13</ele>
</trkpt>
<trkpt lat="33.47278388888889" lon="132.29794805555557">
<ele>15</ele>
</trkpt>
<trkpt lat="33.47311805555555" lon="132.29813611111112">
<ele>15</ele>
</trkpt>
<trkpt lat="33.473483888888886" lon="132.29834805555555">
<ele>14</ele>
</trkpt>
<trkpt lat="33.474133888888886" lon="132.29887305555556">
<ele>18</ele>
</trkpt>
<trkpt lat="33.47443388888889" lon="132.2992111111111">
<ele>15</ele>
</trkpt>
<trkpt lat="33.47493388888889" lon="132.299835">
<ele>15</ele>
</trkpt>
<trkpt lat="33.47506694444444" lon="132.30017305555555">
<ele>15</ele>
</trkpt>
<trkpt lat="33.47521694444445" lon="132.30059805555555">
<ele>12</ele>
</trkpt>
<trkpt lat="33.47526805555555" lon="132.30092305555556">
<ele>15</ele>
</trkpt>
<trkpt lat="33.47525111111111" lon="132.30137194444444">
<ele>14</ele>
</trkpt>
<trkpt lat="33.475183888888886" lon="132.302135">
<ele>5</ele>
</trkpt>
<trkpt lat="33.475143055555556" lon="132.30272194444444">
<ele>5</ele>
</trkpt>
<trkpt lat="33.47505888888889" lon="132.30331">
<ele>4</ele>
</trkpt>
<trkpt lat="33.47490111111111" lon="132.30381">
<ele>4</ele>
</trkpt>
<trkpt lat="33.47470888888889" lon="132.30454694444444">
<ele>2</ele>
</trkpt>
<trkpt lat="33.47440888888889" lon="132.30538388888888">
<ele>4</ele>
</trkpt>
<trkpt lat="33.47435111111111" lon="132.30560888888888">
<ele>4</ele>
</trkpt>
<trkpt lat="33.47436805555556" lon="132.3056588888889">
<ele>4</ele>
</trkpt>
<trkpt lat="33.47440888888889" lon="132.3056838888889">
<ele>5</ele>
</trkpt>
<trkpt lat="33.474893055555555" lon="132.30585888888888">
<ele>8</ele>
</trkpt>
<trkpt lat="33.47504305555555" lon="132.3059338888889">
<ele>8</ele>
</trkpt>
<trkpt lat="33.475118055555555" lon="132.3060338888889">
<ele>9</ele>
</trkpt>
<trkpt lat="33.47517611111111" lon="132.3061338888889">
<ele>9</ele>
</trkpt>
<trkpt lat="33.47530888888889" lon="132.30642194444445">
<ele>9</ele>
</trkpt>
<trkpt lat="33.475768055555555" lon="132.30752194444443">
<ele>8</ele>
</trkpt>
<trkpt lat="33.47584194444445" lon="132.3077211111111">
<ele>7</ele>
</trkpt>
<trkpt lat="33.47590888888889" lon="132.30789611111112">
<ele>9</ele>
</trkpt>
<trkpt lat="33.476058888888886" lon="132.3082588888889">
<ele>9</ele>
</trkpt>
<trkpt lat="33.47615888888889" lon="132.30859611111111">
<ele>9</ele>
</trkpt>
<trkpt lat="33.47630888888889" lon="132.3092211111111">
<ele>9</ele>
</trkpt>
<trkpt lat="33.476441944444446" lon="132.30969611111112">
<ele>6</ele>
</trkpt>
<trkpt lat="33.47663388888889" lon="132.3103088888889">
<ele>6</ele>
</trkpt>
<trkpt lat="33.476793055555554" lon="132.3106961111111">
<ele>7</ele>
</trkpt>
<trkpt lat="33.47718388888889" lon="132.31140805555555">
<ele>7</ele>
</trkpt>
<trkpt lat="33.47730111111111" lon="132.31163305555555">
<ele>7</ele>
</trkpt>
<trkpt lat="33.47737611111111" lon="132.31183305555555">
<ele>7</ele>
</trkpt>
<trkpt lat="33.47741805555555" lon="132.31203305555556">
<ele>8</ele>
</trkpt>
<trkpt lat="33.47754305555556" lon="132.31273305555555">
<ele>11</ele>
</trkpt>
<trkpt lat="33.477668055555554" lon="132.31325805555556">
<ele>15</ele>
</trkpt>
<trkpt lat="33.47773388888889" lon="132.31355805555555">
<ele>13</ele>
</trkpt>
<trkpt lat="33.47790888888889" lon="132.31385805555556">
<ele>17</ele>
</trkpt>
<trkpt lat="33.47819194444445" lon="132.31457111111112">
<ele>17</ele>
</trkpt>
<trkpt lat="33.47860111111111" lon="132.3155211111111">
<ele>22</ele>
</trkpt>
<trkpt lat="33.47875111111111" lon="132.315845">
<ele>21</ele>
</trkpt>
<trkpt lat="33.47891805555555" lon="132.316045">
<ele>26</ele>
</trkpt>
<trkpt lat="33.47902611111111" lon="132.316295">
<ele>27</ele>
</trkpt>
<trkpt lat="33.47910888888889" lon="132.31678305555556">
<ele>24</ele>
</trkpt>
<trkpt lat="33.479258888888886" lon="132.317495">
<ele>27</ele>
</trkpt>
<trkpt lat="33.47928388888889" lon="132.31757">
<ele>28</ele>
</trkpt>
<trkpt lat="33.47956694444444" lon="132.31775805555554">
<ele>35</ele>
</trkpt>
<trkpt lat="33.47965888888889" lon="132.31790805555556">
<ele>33</ele>
</trkpt>
<trkpt lat="33.47965111111111" lon="132.318045">
<ele>32</ele>
</trkpt>
<trkpt lat="33.479591944444444" lon="132.318145">
<ele>34</ele>
</trkpt>
<trkpt lat="33.47915888888889" lon="132.317995">
<ele>45</ele>
</trkpt>
<trkpt lat="33.47890888888889" lon="132.317845">
<ele>46</ele>
</trkpt>
<trkpt lat="33.47867611111111" lon="132.31763305555555">
<ele>46</ele>
</trkpt>
<trkpt lat="33.47848388888889" lon="132.317195">
<ele>45</ele>
</trkpt>
<trkpt lat="33.47815111111111" lon="132.31697">
<ele>45</ele>
</trkpt>
<trkpt lat="33.47790111111111" lon="132.31677">
<ele>44</ele>
</trkpt>
<trkpt lat="33.47761805555555" lon="132.31648305555555">
<ele>47</ele>
</trkpt>
<trkpt lat="33.47727611111111" lon="132.3160711111111">
<ele>44</ele>
</trkpt>
<trkpt lat="33.477068055555556" lon="132.31603305555555">
<ele>47</ele>
</trkpt>
<trkpt lat="33.47691805555556" lon="132.3161211111111">
<ele>47</ele>
</trkpt>
<trkpt lat="33.47646805555556" lon="132.31663305555554">
<ele>54</ele>
</trkpt>
<trkpt lat="33.47623388888889" lon="132.31700805555556">
<ele>56</ele>
</trkpt>
<trkpt lat="33.47595111111111" lon="132.31747">
<ele>55</ele>
</trkpt>
<trkpt lat="33.475835" lon="132.31772">
<ele>55</ele>
</trkpt>
<trkpt lat="33.47581805555556" lon="132.31793305555556">
<ele>56</ele>
</trkpt>
<trkpt lat="33.47587111111111" lon="132.3182338888889">
<ele>56</ele>
</trkpt>
<trkpt lat="33.47587111111111" lon="132.3182338888889">
<ele>56</ele>
</trkpt>
<trkpt lat="33.47591" lon="132.31845805555557">
<ele>56</ele>
</trkpt>
<trkpt lat="33.47581805555556" lon="132.31867">
<ele>61</ele>
</trkpt>
<trkpt lat="33.475743055555554" lon="132.31872">
<ele>63</ele>
</trkpt>
<trkpt lat="33.47524305555555" lon="132.31872">
<ele>72</ele>
</trkpt>
<trkpt lat="33.475085" lon="132.31882">
<ele>73</ele>
</trkpt>
<trkpt lat="33.47497611111111" lon="132.31897">
<ele>72</ele>
</trkpt>
<trkpt lat="33.47491" lon="132.319145">
<ele>72</ele>
</trkpt>
<trkpt lat="33.474935" lon="132.31938305555556">
<ele>73</ele>
</trkpt>
<trkpt lat="33.47501805555556" lon="132.31957">
<ele>76</ele>
</trkpt>
<trkpt lat="33.47516" lon="132.319845">
<ele>77</ele>
</trkpt>
<trkpt lat="33.475185" lon="132.31995694444444">
<ele>74</ele>
</trkpt>
<trkpt lat="33.47512611111111" lon="132.32002">
<ele>76</ele>
</trkpt>
<trkpt lat="33.47481805555555" lon="132.32005694444445">
<ele>73</ele>
</trkpt>
<trkpt lat="33.47456805555556" lon="132.320095">
<ele>73</ele>
</trkpt>
<trkpt lat="33.474468055555555" lon="132.31987">
<ele>72</ele>
</trkpt>
<trkpt lat="33.47441" lon="132.319745">
<ele>74</ele>
</trkpt>
<trkpt lat="33.47426" lon="132.31962">
<ele>74</ele>
</trkpt>
<trkpt lat="33.47411805555556" lon="132.319595">
<ele>75</ele>
</trkpt>
<trkpt lat="33.474001944444446" lon="132.319645">
<ele>75</ele>
</trkpt>
<trkpt lat="33.473868055555556" lon="132.31983194444445">
<ele>84</ele>
</trkpt>
<trkpt lat="33.47370194444444" lon="132.32003194444445">
<ele>86</ele>
</trkpt>
<trkpt lat="33.473593055555554" lon="132.320095">
<ele>85</ele>
</trkpt>
<trkpt lat="33.473485" lon="132.32008194444444">
<ele>85</ele>
</trkpt>
<trkpt lat="33.473185" lon="132.31977">
<ele>86</ele>
</trkpt>
<trkpt lat="33.47307694444444" lon="132.31975805555555">
<ele>91</ele>
</trkpt>
<trkpt lat="33.472968055555555" lon="132.31980694444445">
<ele>96</ele>
</trkpt>
<trkpt lat="33.47284305555556" lon="132.31998305555555">
<ele>96</ele>
</trkpt>
<trkpt lat="33.47271805555555" lon="132.320195">
<ele>88</ele>
</trkpt>
<trkpt lat="33.47271805555555" lon="132.32040694444444">
<ele>87</ele>
</trkpt>
<trkpt lat="33.472768055555555" lon="132.32062">
<ele>85</ele>
</trkpt>
<trkpt lat="33.472943055555554" lon="132.321095">
<ele>95</ele>
</trkpt>
<trkpt lat="33.47305194444444" lon="132.32123305555555">
<ele>100</ele>
</trkpt>
<trkpt lat="33.473193055555555" lon="132.32133194444444">
<ele>102</ele>
</trkpt>
<trkpt lat="33.47331" lon="132.32142">
<ele>104</ele>
</trkpt>
<trkpt lat="33.47341" lon="132.321545">
<ele>104</ele>
</trkpt>
<trkpt lat="33.47351805555556" lon="132.321845">
<ele>103</ele>
</trkpt>
<trkpt lat="33.473618055555555" lon="132.32207">
<ele>104</ele>
</trkpt>
<trkpt lat="33.473726944444444" lon="132.32230694444445">
<ele>105</ele>
</trkpt>
<trkpt lat="33.47390194444444" lon="132.32272">
<ele>104</ele>
</trkpt>
<trkpt lat="33.47402694444445" lon="132.323045">
<ele>104</ele>
</trkpt>
<trkpt lat="33.47407694444444" lon="132.32333194444445">
<ele>103</ele>
</trkpt>
<trkpt lat="33.474185" lon="132.323645">
<ele>103</ele>
</trkpt>
<trkpt lat="33.474268055555555" lon="132.32377">
<ele>104</ele>
</trkpt>
<trkpt lat="33.47439305555555" lon="132.32392">
<ele>103</ele>
</trkpt>
<trkpt lat="33.474685" lon="132.32408194444446">
<ele>106</ele>
</trkpt>
<trkpt lat="33.47490194444445" lon="132.32418194444443">
<ele>112</ele>
</trkpt>
<trkpt lat="33.475318055555555" lon="132.32444388888888">
<ele>115</ele>
</trkpt>
<trkpt lat="33.47546805555555" lon="132.32458194444445">
<ele>118</ele>
</trkpt>
<trkpt lat="33.47555111111111" lon="132.3247438888889">
<ele>116</ele>
</trkpt>
<trkpt lat="33.475635" lon="132.3251688888889">
<ele>116</ele>
</trkpt>
<trkpt lat="33.47582611111111" lon="132.32558194444445">
<ele>117</ele>
</trkpt>
<trkpt lat="33.47600111111111" lon="132.32588194444443">
<ele>119</ele>
</trkpt>
<trkpt lat="33.47630111111111" lon="132.32623194444446">
<ele>116</ele>
</trkpt>
<trkpt lat="33.47651805555556" lon="132.32640694444444">
<ele>118</ele>
</trkpt>
<trkpt lat="33.47661" lon="132.32655694444443">
<ele>118</ele>
</trkpt>
<trkpt lat="33.47667611111111" lon="132.32691888888888">
<ele>123</ele>
</trkpt>
<trkpt lat="33.476835" lon="132.32755694444444">
<ele>127</ele>
</trkpt>
<trkpt lat="33.47687611111111" lon="132.3277688888889">
<ele>126</ele>
</trkpt>
<trkpt lat="33.47689305555556" lon="132.3279938888889">
<ele>128</ele>
</trkpt>
<trkpt lat="33.476843055555555" lon="132.3292188888889">
<ele>130</ele>
</trkpt>
<trkpt lat="33.47690111111111" lon="132.3295061111111">
<ele>135</ele>
</trkpt>
<trkpt lat="33.47706" lon="132.3296938888889">
<ele>135</ele>
</trkpt>
<trkpt lat="33.47731" lon="132.32978111111112">
<ele>138</ele>
</trkpt>
<trkpt lat="33.477493055555556" lon="132.3298061111111">
<ele>138</ele>
</trkpt>
<trkpt lat="33.47787611111111" lon="132.32976888888888">
<ele>138</ele>
</trkpt>
<trkpt lat="33.47801805555556" lon="132.3296811111111">
<ele>136</ele>
</trkpt>
<trkpt lat="33.47817611111111" lon="132.3294688888889">
<ele>129</ele>
</trkpt>
<trkpt lat="33.47831" lon="132.32930611111112">
<ele>128</ele>
</trkpt>
<trkpt lat="33.47849305555555" lon="132.3292688888889">
<ele>125</ele>
</trkpt>
<trkpt lat="33.47857611111111" lon="132.32920611111112">
<ele>124</ele>
</trkpt>
<trkpt lat="33.47859305555556" lon="132.3291811111111">
<ele>123</ele>
</trkpt>
<trkpt lat="33.47859305555556" lon="132.3291811111111">
<ele>123</ele>
</trkpt>
<trkpt lat="33.47869305555555" lon="132.3290311111111">
<ele>123</ele>
</trkpt>
<trkpt lat="33.478833888888886" lon="132.32896888888888">
<ele>122</ele>
</trkpt>
<trkpt lat="33.479033888888885" lon="132.3291438888889">
<ele>110</ele>
</trkpt>
<trkpt lat="33.47933388888889" lon="132.3292688888889">
<ele>111</ele>
</trkpt>
<trkpt lat="33.47946805555556" lon="132.3292438888889">
<ele>111</ele>
</trkpt>
<trkpt lat="33.479593055555554" lon="132.32906888888888">
<ele>113</ele>
</trkpt>
<trkpt lat="33.47969305555556" lon="132.3285688888889">
<ele>113</ele>
</trkpt>
<trkpt lat="33.47969305555556" lon="132.3278688888889">
<ele>114</ele>
</trkpt>
<trkpt lat="33.47980111111111" lon="132.32768194444444">
<ele>113</ele>
</trkpt>
<trkpt lat="33.47985888888889" lon="132.32743194444444">
<ele>125</ele>
</trkpt>
<trkpt lat="33.47990111111111" lon="132.32736888888888">
<ele>123</ele>
</trkpt>
<trkpt lat="33.47998388888889" lon="132.32714388888888">
<ele>123</ele>
</trkpt>
<trkpt lat="33.48012611111111" lon="132.3270938888889">
<ele>121</ele>
</trkpt>
<trkpt lat="33.48079194444445" lon="132.32723194444443">
<ele>121</ele>
</trkpt>
<trkpt lat="33.481476111111114" lon="132.32735694444443">
<ele>117</ele>
</trkpt>
<trkpt lat="33.48152611111111" lon="132.3274561111111">
<ele>115</ele>
</trkpt>
<trkpt lat="33.48150111111111" lon="132.3277061111111">
<ele>115</ele>
</trkpt>
<trkpt lat="33.48132611111111" lon="132.3277561111111">
<ele>109</ele>
</trkpt>
<trkpt lat="33.480758888888886" lon="132.3276688888889">
<ele>94</ele>
</trkpt>
<trkpt lat="33.480626111111114" lon="132.32763111111112">
<ele>95</ele>
</trkpt>
<trkpt lat="33.48040888888889" lon="132.3276811111111">
<ele>88</ele>
</trkpt>
<trkpt lat="33.480333888888886" lon="132.32781888888888">
<ele>88</ele>
</trkpt>
<trkpt lat="33.48038388888889" lon="132.32805611111112">
<ele>87</ele>
</trkpt>
<trkpt lat="33.48043388888889" lon="132.32820611111111">
<ele>87</ele>
</trkpt>
<trkpt lat="33.480443055555554" lon="132.3287688888889">
<ele>83</ele>
</trkpt>
<trkpt lat="33.48044888888889" lon="132.328975">
<ele>84</ele>
</trkpt>
<trkpt lat="33.48044888888889" lon="132.328975">
<ele>84</ele>
</trkpt>
<trkpt lat="33.48045111111111" lon="132.3290311111111">
<ele>85</ele>
</trkpt>
<trkpt lat="33.48050888888889" lon="132.3292811111111">
<ele>83</ele>
</trkpt>
<trkpt lat="33.48054305555556" lon="132.32966888888888">
<ele>77</ele>
</trkpt>
<trkpt lat="33.48060888888889" lon="132.3299438888889">
<ele>75</ele>
</trkpt>
<trkpt lat="33.48081805555555" lon="132.33045611111112">
<ele>74</ele>
</trkpt>
<trkpt lat="33.480868055555554" lon="132.3307311111111">
<ele>70</ele>
</trkpt>
<trkpt lat="33.48092611111111" lon="132.33090611111112">
<ele>67</ele>
</trkpt>
<trkpt lat="33.48115111111111" lon="132.33136888888887">
<ele>63</ele>
</trkpt>
<trkpt lat="33.48120888888889" lon="132.33158111111112">
<ele>59</ele>
</trkpt>
<trkpt lat="33.48120888888889" lon="132.3319811111111">
<ele>59</ele>
</trkpt>
<trkpt lat="33.48125888888889" lon="132.33228111111112">
<ele>59</ele>
</trkpt>
<trkpt lat="33.481318055555555" lon="132.33251805555557">
<ele>58</ele>
</trkpt>
<trkpt lat="33.481408888888886" lon="132.3326811111111">
<ele>57</ele>
</trkpt>
<trkpt lat="33.48165111111111" lon="132.33294305555555">
<ele>57</ele>
</trkpt>
<trkpt lat="33.481768055555555" lon="132.3331061111111">
<ele>57</ele>
</trkpt>
<trkpt lat="33.481833888888886" lon="132.33326805555555">
<ele>56</ele>
</trkpt>
<trkpt lat="33.481926111111115" lon="132.33336805555555">
<ele>55</ele>
</trkpt>
<trkpt lat="33.482191944444445" lon="132.33346805555556">
<ele>54</ele>
</trkpt>
<trkpt lat="33.48231805555555" lon="132.3335561111111">
<ele>52</ele>
</trkpt>
<trkpt lat="33.48235888888889" lon="132.33369305555556">
<ele>55</ele>
</trkpt>
<trkpt lat="33.48237611111111" lon="132.3341561111111">
<ele>51</ele>
</trkpt>
<trkpt lat="33.48240111111111" lon="132.3342311111111">
<ele>48</ele>
</trkpt>
<trkpt lat="33.48256694444444" lon="132.33443111111112">
<ele>46</ele>
</trkpt>
<trkpt lat="33.48271694444445" lon="132.3345811111111">
<ele>45</ele>
</trkpt>
<trkpt lat="33.48285888888889" lon="132.33485611111112">
<ele>45</ele>
</trkpt>
<trkpt lat="33.48295888888889" lon="132.33496805555555">
<ele>46</ele>
</trkpt>
<trkpt lat="33.483091944444446" lon="132.33509305555555">
<ele>45</ele>
</trkpt>
<trkpt lat="33.48330111111111" lon="132.3351561111111">
<ele>46</ele>
</trkpt>
<trkpt lat="33.48337611111111" lon="132.3352311111111">
<ele>46</ele>
</trkpt>
<trkpt lat="33.48343388888889" lon="132.33533111111112">
<ele>46</ele>
</trkpt>
<trkpt lat="33.48341805555555" lon="132.33541805555555">
<ele>44</ele>
</trkpt>
<trkpt lat="33.48337611111111" lon="132.3355061111111">
<ele>43</ele>
</trkpt>
<trkpt lat="33.483108888888886" lon="132.33530611111112">
<ele>42</ele>
</trkpt>
<trkpt lat="33.48276805555555" lon="132.33504305555556">
<ele>41</ele>
</trkpt>
<trkpt lat="33.48263388888889" lon="132.33481805555556">
<ele>41</ele>
</trkpt>
<trkpt lat="33.48237611111111" lon="132.33441805555555">
<ele>45</ele>
</trkpt>
<trkpt lat="33.48220111111111" lon="132.33414305555556">
<ele>41</ele>
</trkpt>
<trkpt lat="33.48204305555556" lon="132.33401805555556">
<ele>37</ele>
</trkpt>
<trkpt lat="33.481993055555556" lon="132.3340061111111">
<ele>34</ele>
</trkpt>
<trkpt lat="33.48193388888889" lon="132.3340311111111">
<ele>34</ele>
</trkpt>
<trkpt lat="33.48190888888889" lon="132.33408111111112">
<ele>34</ele>
</trkpt>
<trkpt lat="33.481901111111114" lon="132.33411805555556">
<ele>34</ele>
</trkpt>
<trkpt lat="33.481901111111114" lon="132.33418111111112">
<ele>34</ele>
</trkpt>
<trkpt lat="33.48191805555555" lon="132.3342561111111">
<ele>33</ele>
</trkpt>
<trkpt lat="33.48195111111111" lon="132.33430611111112">
<ele>33</ele>
</trkpt>
<trkpt lat="33.48215111111111" lon="132.33456805555556">
<ele>33</ele>
</trkpt>
<trkpt lat="33.48244305555556" lon="132.33494305555556">
<ele>33</ele>
</trkpt>
<trkpt lat="33.48253388888889" lon="132.33521805555554">
<ele>33</ele>
</trkpt>
<trkpt lat="33.48275888888889" lon="132.33549305555556">
<ele>25</ele>
</trkpt>
<trkpt lat="33.48283388888889" lon="132.33571805555556">
<ele>23</ele>
</trkpt>
<trkpt lat="33.48295111111111" lon="132.33621805555555">
<ele>24</ele>
</trkpt>
<trkpt lat="33.48305888888889" lon="132.3364811111111">
<ele>21</ele>
</trkpt>
<trkpt lat="33.483293055555556" lon="132.33676805555555">
<ele>22</ele>
</trkpt>
<trkpt lat="33.483401111111114" lon="132.33706805555556">
<ele>21</ele>
</trkpt>
<trkpt lat="33.483558888888886" lon="132.33726805555557">
<ele>18</ele>
</trkpt>
<trkpt lat="33.48362" lon="132.337355">
<ele>17</ele>
</trkpt>
<trkpt lat="33.48362" lon="132.337355">
<ele>17</ele>
</trkpt>
<trkpt lat="33.48378388888889" lon="132.33759305555554">
<ele>16</ele>
</trkpt>
<trkpt lat="33.48396694444445" lon="132.33779305555555">
<ele>15</ele>
</trkpt>
<trkpt lat="33.484091944444444" lon="132.33793">
<ele>16</ele>
</trkpt>
<trkpt lat="33.48433388888889" lon="132.338155">
<ele>15</ele>
</trkpt>
<trkpt lat="33.484493055555554" lon="132.33823">
<ele>13</ele>
</trkpt>
<trkpt lat="33.484543055555555" lon="132.33829305555557">
<ele>13</ele>
</trkpt>
<trkpt lat="33.48468388888889" lon="132.33861805555554">
<ele>13</ele>
</trkpt>
<trkpt lat="33.48475111111111" lon="132.338855">
<ele>8</ele>
</trkpt>
<trkpt lat="33.48475111111111" lon="132.339205">
<ele>8</ele>
</trkpt>
<trkpt lat="33.48472611111111" lon="132.33956805555556">
<ele>6</ele>
</trkpt>
<trkpt lat="33.48488388888889" lon="132.339755">
<ele>6</ele>
</trkpt>
<trkpt lat="33.48505888888889" lon="132.33996805555554">
<ele>6</ele>
</trkpt>
<trkpt lat="33.485168055555555" lon="132.34001694444444">
<ele>6</ele>
</trkpt>
<trkpt lat="33.48523388888889" lon="132.340055">
<ele>7</ele>
</trkpt>
<trkpt lat="33.485258888888886" lon="132.34014194444444">
<ele>6</ele>
</trkpt>
<trkpt lat="33.48526694444445" lon="132.340255">
<ele>4</ele>
</trkpt>
<trkpt lat="33.485326111111114" lon="132.34053">
<ele>5</ele>
</trkpt>
<trkpt lat="33.48540111111111" lon="132.340755">
<ele>5</ele>
</trkpt>
<trkpt lat="33.48550111111111" lon="132.34106805555555">
<ele>5</ele>
</trkpt>
<trkpt lat="33.48567611111111" lon="132.341455">
<ele>5</ele>
</trkpt>
<trkpt lat="33.48580111111111" lon="132.34176694444446">
<ele>6</ele>
</trkpt>
<trkpt lat="33.48587611111111" lon="132.34193">
<ele>4</ele>
</trkpt>
<trkpt lat="33.48590111111111" lon="132.34201694444445">
<ele>5</ele>
</trkpt>
<trkpt lat="33.48593388888889" lon="132.342155">
<ele>4</ele>
</trkpt>
<trkpt lat="33.48600888888889" lon="132.34271694444445">
<ele>2</ele>
</trkpt>
<trkpt lat="33.48610111111111" lon="132.34334194444443">
<ele>0</ele>
</trkpt>
<trkpt lat="33.48628388888889" lon="132.3446788888889">
<ele>2</ele>
</trkpt>
<trkpt lat="33.48632611111111" lon="132.34482888888888">
<ele>5</ele>
</trkpt>
<trkpt lat="33.48640888888889" lon="132.34497888888887">
<ele>6</ele>
</trkpt>
<trkpt lat="33.48660888888889" lon="132.34531694444445">
<ele>6</ele>
</trkpt>
<trkpt lat="33.486826944444445" lon="132.34565805555556">
<ele>-578</ele>
</trkpt>
<trkpt lat="33.486826944444445" lon="132.34565805555556">
<ele>-577</ele>
</trkpt>
<trkpt lat="33.486983888888886" lon="132.3459038888889">
<ele>0</ele>
</trkpt>
<trkpt lat="33.48707611111111" lon="132.34604194444444">
<ele>0</ele>
</trkpt>
<trkpt lat="33.48725888888889" lon="132.34630388888888">
<ele>2</ele>
</trkpt>
<trkpt lat="33.487476111111114" lon="132.34661694444443">
<ele>1</ele>
</trkpt>
<trkpt lat="33.48761694444445" lon="132.3469288888889">
<ele>3</ele>
</trkpt>
<trkpt lat="33.48763388888889" lon="132.34701694444445">
<ele>3</ele>
</trkpt>
<trkpt lat="33.48766805555555" lon="132.34721694444445">
<ele>4</ele>
</trkpt>
<trkpt lat="33.48765888888889" lon="132.34755388888888">
<ele>3</ele>
</trkpt>
<trkpt lat="33.48761694444445" lon="132.34774194444444">
<ele>5</ele>
</trkpt>
<trkpt lat="33.48761694444445" lon="132.34811694444446">
<ele>6</ele>
</trkpt>
<trkpt lat="33.487676111111114" lon="132.34869194444445">
<ele>7</ele>
</trkpt>
<trkpt lat="33.48779305555556" lon="132.3491788888889">
<ele>8</ele>
</trkpt>
<trkpt lat="33.48797611111111" lon="132.34959194444446">
<ele>6</ele>
</trkpt>
<trkpt lat="33.488033888888886" lon="132.3497661111111">
<ele>6</ele>
</trkpt>
<trkpt lat="33.48810888888889" lon="132.35004111111112">
<ele>4</ele>
</trkpt>
<trkpt lat="33.48820111111111" lon="132.35039111111112">
<ele>4</ele>
</trkpt>
<trkpt lat="33.48835111111111" lon="132.35085388888888">
<ele>5</ele>
</trkpt>
<trkpt lat="33.48846694444445" lon="132.35120388888888">
<ele>5</ele>
</trkpt>
<trkpt lat="33.48849194444445" lon="132.35140388888888">
<ele>4</ele>
</trkpt>
<trkpt lat="33.48846694444445" lon="132.35175388888888">
<ele>3</ele>
</trkpt>
<trkpt lat="33.488458888888886" lon="132.3519411111111">
<ele>4</ele>
</trkpt>
<trkpt lat="33.48849194444445" lon="132.35210388888888">
<ele>4</ele>
</trkpt>
<trkpt lat="33.488816944444444" lon="132.3525038888889">
<ele>3</ele>
</trkpt>
<trkpt lat="33.48905888888889" lon="132.3527411111111">
<ele>4</ele>
</trkpt>
<trkpt lat="33.48935888888889" lon="132.35320388888888">
<ele>5</ele>
</trkpt>
<trkpt lat="33.48925888888889" lon="132.3533038888889">
<ele>4</ele>
</trkpt>
<trkpt lat="33.48892611111111" lon="132.3535411111111">
<ele>0</ele>
</trkpt>
<trkpt lat="33.48874305555555" lon="132.35365388888889">
<ele>0</ele>
</trkpt>
<trkpt lat="33.48826805555556" lon="132.35389111111112">
<ele>0</ele>
</trkpt>
<trkpt lat="33.48846805555556" lon="132.3543161111111">
<ele>3</ele>
</trkpt>
<trkpt lat="33.488486944444446" lon="132.3543511111111">
<ele>3</ele>
</trkpt>
<trkpt lat="33.488486944444446" lon="132.3543511111111">
<ele>3</ele>
</trkpt>
<trkpt lat="33.48873388888889" lon="132.35480388888888">
<ele>3</ele>
</trkpt>
<trkpt lat="33.489308888888885" lon="132.35584111111112">
<ele>6</ele>
</trkpt>
<trkpt lat="33.48967611111111" lon="132.35650305555555">
<ele>8</ele>
</trkpt>
<trkpt lat="33.48972611111111" lon="132.3565411111111">
<ele>8</ele>
</trkpt>
<trkpt lat="33.48987611111111" lon="132.35662805555555">
<ele>8</ele>
</trkpt>
<trkpt lat="33.49023388888889" lon="132.35684111111112">
<ele>8</ele>
</trkpt>
<trkpt lat="33.49093388888889" lon="132.3572661111111">
<ele>8</ele>
</trkpt>
<trkpt lat="33.49100111111111" lon="132.35731611111112">
<ele>8</ele>
</trkpt>
<trkpt lat="33.49105888888889" lon="132.35737805555556">
<ele>9</ele>
</trkpt>
<trkpt lat="33.491258888888886" lon="132.35764111111112">
<ele>8</ele>
</trkpt>
<trkpt lat="33.49142611111111" lon="132.35789111111112">
<ele>9</ele>
</trkpt>
<trkpt lat="33.491816944444444" lon="132.3587161111111">
<ele>9</ele>
</trkpt>
<trkpt lat="33.491883888888886" lon="132.35885305555556">
<ele>9</ele>
</trkpt>
<trkpt lat="33.491976111111114" lon="132.35911611111112">
<ele>9</ele>
</trkpt>
<trkpt lat="33.492018055555555" lon="132.35935305555554">
<ele>9</ele>
</trkpt>
<trkpt lat="33.49205111111111" lon="132.35947805555554">
<ele>9</ele>
</trkpt>
<trkpt lat="33.492176111111114" lon="132.35973611111112">
<ele>9</ele>
</trkpt>
<trkpt lat="33.492176111111114" lon="132.35973611111112">
<ele>9</ele>
</trkpt>
<trkpt lat="33.49231694444445" lon="132.36002805555555">
<ele>10</ele>
</trkpt>
<trkpt lat="33.49235111111111" lon="132.36012805555555">
<ele>10</ele>
</trkpt>
<trkpt lat="33.49235888888889" lon="132.36022805555555">
<ele>10</ele>
</trkpt>
<trkpt lat="33.492333888888886" lon="132.3605661111111">
<ele>11</ele>
</trkpt>
<trkpt lat="33.49232611111111" lon="132.36080305555555">
<ele>13</ele>
</trkpt>
<trkpt lat="33.49240888888889" lon="132.36082805555554">
<ele>12</ele>
</trkpt>
<trkpt lat="33.49245888888889" lon="132.3608661111111">
<ele>12</ele>
</trkpt>
<trkpt lat="33.49250111111111" lon="132.36091611111112">
<ele>12</ele>
</trkpt>
<trkpt lat="33.49255888888889" lon="132.36105305555554">
<ele>13</ele>
</trkpt>
<trkpt lat="33.49257611111111" lon="132.36117805555557">
<ele>13</ele>
</trkpt>
<trkpt lat="33.49258388888889" lon="132.361565">
<ele>15</ele>
</trkpt>
<trkpt lat="33.49256888888889" lon="132.36174305555556">
<ele>15</ele>
</trkpt>
<trkpt lat="33.49256888888889" lon="132.36174305555556">
<ele>15</ele>
</trkpt>
<trkpt lat="33.49255888888889" lon="132.361865">
<ele>15</ele>
</trkpt>
<trkpt lat="33.49260888888889" lon="132.36205305555555">
<ele>16</ele>
</trkpt>
<trkpt lat="33.492668055555555" lon="132.36214">
<ele>16</ele>
</trkpt>
<trkpt lat="33.492843055555554" lon="132.36155305555556">
<ele>14</ele>
</trkpt>
<trkpt lat="33.493091944444444" lon="132.36077805555556">
<ele>15</ele>
</trkpt>
<trkpt lat="33.49313388888889" lon="132.3606661111111">
<ele>20</ele>
</trkpt>
<trkpt lat="33.49320111111111" lon="132.36035305555555">
<ele>23</ele>
</trkpt>
<trkpt lat="33.49320111111111" lon="132.36001611111112">
<ele>21</ele>
</trkpt>
<trkpt lat="33.493158888888885" lon="132.35967805555555">
<ele>23</ele>
</trkpt>
<trkpt lat="33.49299194444445" lon="132.3589411111111">
<ele>22</ele>
</trkpt>
<trkpt lat="33.49296611111111" lon="132.35880805555556">
<ele>24</ele>
</trkpt>
<trkpt lat="33.49296611111111" lon="132.35880805555556">
<ele>23</ele>
</trkpt>
<trkpt lat="33.49272611111111" lon="132.3576161111111">
<ele>34</ele>
</trkpt>
<trkpt lat="33.49254194444445" lon="132.3567661111111">
<ele>43</ele>
</trkpt>
<trkpt lat="33.49237611111111" lon="132.3562161111111">
<ele>45</ele>
</trkpt>
<trkpt lat="33.492333888888886" lon="132.3561161111111">
<ele>45</ele>
</trkpt>
<trkpt lat="33.492041944444445" lon="132.3554411111111">
<ele>45</ele>
</trkpt>
<trkpt lat="33.49185111111111" lon="132.3550161111111">
<ele>43</ele>
</trkpt>
<trkpt lat="33.49177611111111" lon="132.3547411111111">
<ele>42</ele>
</trkpt>
<trkpt lat="33.49176694444444" lon="132.3546538888889">
<ele>42</ele>
</trkpt>
<trkpt lat="33.49174194444444" lon="132.3540538888889">
<ele>53</ele>
</trkpt>
<trkpt lat="33.49167611111111" lon="132.35344111111112">
<ele>55</ele>
</trkpt>
<trkpt lat="33.491641944444446" lon="132.35324111111112">
<ele>51</ele>
</trkpt>
<trkpt lat="33.491616944444445" lon="132.3530911111111">
<ele>42</ele>
</trkpt>
<trkpt lat="33.49152611111111" lon="132.35287888888888">
<ele>33</ele>
</trkpt>
<trkpt lat="33.49137611111111" lon="132.35265388888888">
<ele>34</ele>
</trkpt>
<trkpt lat="33.49109194444444" lon="132.3522911111111">
<ele>34</ele>
</trkpt>
<trkpt lat="33.490518055555555" lon="132.35152888888888">
<ele>33</ele>
</trkpt>
<trkpt lat="33.490541944444445" lon="132.3511661111111">
<ele>37</ele>
</trkpt>
<trkpt lat="33.49050111111111" lon="132.3509161111111">
<ele>40</ele>
</trkpt>
<trkpt lat="33.49027611111111" lon="132.35037888888888">
<ele>49</ele>
</trkpt>
<trkpt lat="33.490291944444444" lon="132.3499038888889">
<ele>49</ele>
</trkpt>
<trkpt lat="33.49062611111111" lon="132.34731694444446">
<ele>66</ele>
</trkpt>
<trkpt lat="33.490833888888886" lon="132.3467038888889">
<ele>68</ele>
</trkpt>
<trkpt lat="33.491683055555555" lon="132.34496805555557">
<ele>79</ele>
</trkpt>
<trkpt lat="33.491683055555555" lon="132.34496805555557">
<ele>79</ele>
</trkpt>
<trkpt lat="33.49211694444445" lon="132.3440788888889">
<ele>85</ele>
</trkpt>
<trkpt lat="33.4924" lon="132.34384194444445">
<ele>91</ele>
</trkpt>
<trkpt lat="33.492716944444446" lon="132.3435538888889">
<ele>107</ele>
</trkpt>
<trkpt lat="33.49310805555555" lon="132.34321694444444">
<ele>107</ele>
</trkpt>
<trkpt lat="33.49415" lon="132.34236694444445">
<ele>107</ele>
</trkpt>
<trkpt lat="33.49505805555555" lon="132.34159194444445">
<ele>107</ele>
</trkpt>
<trkpt lat="33.49576611111111" lon="132.34099194444445">
<ele>107</ele>
</trkpt>
<trkpt lat="33.496116111111114" lon="132.34068">
<ele>107</ele>
</trkpt>
<trkpt lat="33.49820805555556" lon="132.33893">
<ele>108</ele>
</trkpt>
<trkpt lat="33.49889888888889" lon="132.33833">
<ele>108</ele>
</trkpt>
<trkpt lat="33.49894888888889" lon="132.338305">
<ele>108</ele>
</trkpt>
<trkpt lat="33.49926611111111" lon="132.338305">
<ele>104</ele>
</trkpt>
<trkpt lat="33.49935694444444" lon="132.33833">
<ele>103</ele>
</trkpt>
<trkpt lat="33.49962388888889" lon="132.33844194444444">
<ele>94</ele>
</trkpt>
<trkpt lat="33.50013194444445" lon="132.33803">
<ele>103</ele>
</trkpt>
<trkpt lat="33.50053194444445" lon="132.33761694444445">
<ele>105</ele>
</trkpt>
<trkpt lat="33.50119111111111" lon="132.33659194444445">
<ele>114</ele>
</trkpt>
<trkpt lat="33.50154888888889" lon="132.336155">
<ele>116</ele>
</trkpt>
<trkpt lat="33.50168194444444" lon="132.33594305555556">
<ele>121</ele>
</trkpt>
<trkpt lat="33.50174111111111" lon="132.33573">
<ele>122</ele>
</trkpt>
<trkpt lat="33.501756944444445" lon="132.33549194444444">
<ele>122</ele>
</trkpt>
<trkpt lat="33.501756944444445" lon="132.33533">
<ele>122</ele>
</trkpt>
<trkpt lat="33.50171388888889" lon="132.33512694444445">
<ele>121</ele>
</trkpt>
<trkpt lat="33.50171388888889" lon="132.33512694444445">
<ele>121</ele>
</trkpt>
<trkpt lat="33.50170694444444" lon="132.33509305555555">
<ele>121</ele>
</trkpt>
<trkpt lat="33.50161611111111" lon="132.334855">
<ele>121</ele>
</trkpt>
<trkpt lat="33.50151611111111" lon="132.33456805555556">
<ele>122</ele>
</trkpt>
<trkpt lat="33.50141611111111" lon="132.33431805555554">
<ele>128</ele>
</trkpt>
<trkpt lat="33.50124888888889" lon="132.33404305555555">
<ele>128</ele>
</trkpt>
<trkpt lat="33.500748888888886" lon="132.33318">
<ele>112</ele>
</trkpt>
<trkpt lat="33.50069888888889" lon="132.33313">
<ele>112</ele>
</trkpt>
<trkpt lat="33.50066611111111" lon="132.33309305555557">
<ele>109</ele>
</trkpt>
<trkpt lat="33.50049888888889" lon="132.33303">
<ele>109</ele>
</trkpt>
<trkpt lat="33.50038194444444" lon="132.33294305555555">
<ele>109</ele>
</trkpt>
<trkpt lat="33.50024111111111" lon="132.33274305555557">
<ele>108</ele>
</trkpt>
<trkpt lat="33.500081944444446" lon="132.332455">
<ele>108</ele>
</trkpt>
<trkpt lat="33.49994888888889" lon="132.3321811111111">
<ele>105</ele>
</trkpt>
<trkpt lat="33.49987388888889" lon="132.33176805555556">
<ele>103</ele>
</trkpt>
<trkpt lat="33.49979111111111" lon="132.33156805555555">
<ele>101</ele>
</trkpt>
<trkpt lat="33.49972388888889" lon="132.3314311111111">
<ele>102</ele>
</trkpt>
<trkpt lat="33.49971611111111" lon="132.33125611111112">
<ele>102</ele>
</trkpt>
<trkpt lat="33.49973194444444" lon="132.33113111111112">
<ele>102</ele>
</trkpt>
<trkpt lat="33.49971611111111" lon="132.33101805555555">
<ele>102</ele>
</trkpt>
<trkpt lat="33.499656944444446" lon="132.33089305555555">
<ele>104</ele>
</trkpt>
<trkpt lat="33.49924111111111" lon="132.3304811111111">
<ele>97</ele>
</trkpt>
<trkpt lat="33.499048888888886" lon="132.33033111111112">
<ele>96</ele>
</trkpt>
<trkpt lat="33.498981944444445" lon="132.33023111111112">
<ele>99</ele>
</trkpt>
<trkpt lat="33.498933055555554" lon="132.33006805555556">
<ele>96</ele>
</trkpt>
<trkpt lat="33.498916111111114" lon="132.32994305555556">
<ele>94</ele>
</trkpt>
<trkpt lat="33.49887388888889" lon="132.3298561111111">
<ele>94</ele>
</trkpt>
<trkpt lat="33.49881611111111" lon="132.32979305555557">
<ele>94</ele>
</trkpt>
<trkpt lat="33.49874111111111" lon="132.32966805555554">
<ele>93</ele>
</trkpt>
<trkpt lat="33.49866611111111" lon="132.32949305555556">
<ele>93</ele>
</trkpt>
<trkpt lat="33.498581944444446" lon="132.32936805555556">
<ele>91</ele>
</trkpt>
<trkpt lat="33.49845694444444" lon="132.32916805555556">
<ele>91</ele>
</trkpt>
<trkpt lat="33.498381944444446" lon="132.32906805555555">
<ele>92</ele>
</trkpt>
<trkpt lat="33.49823305555555" lon="132.32888111111112">
<ele>88</ele>
</trkpt>
<trkpt lat="33.498066111111115" lon="132.32873111111113">
<ele>90</ele>
</trkpt>
<trkpt lat="33.49791611111111" lon="132.32864305555555">
<ele>88</ele>
</trkpt>
<trkpt lat="33.49754111111111" lon="132.32840611111112">
<ele>81</ele>
</trkpt>
<trkpt lat="33.49738305555555" lon="132.3283561111111">
<ele>82</ele>
</trkpt>
<trkpt lat="33.49726611111111" lon="132.32836805555556">
<ele>83</ele>
</trkpt>
<trkpt lat="33.497081944444446" lon="132.32844305555557">
<ele>81</ele>
</trkpt>
<trkpt lat="33.49694888888889" lon="132.32849305555555">
<ele>86</ele>
</trkpt>
<trkpt lat="33.49689111111111" lon="132.32849305555555">
<ele>86</ele>
</trkpt>
<trkpt lat="33.496856944444446" lon="132.32846805555556">
<ele>86</ele>
</trkpt>
<trkpt lat="33.49684111111111" lon="132.32841805555555">
<ele>85</ele>
</trkpt>
<trkpt lat="33.49684111111111" lon="132.32829305555555">
<ele>85</ele>
</trkpt>
<trkpt lat="33.496856944444446" lon="132.32805611111112">
<ele>87</ele>
</trkpt>
<trkpt lat="33.49687388888889" lon="132.3279311111111">
<ele>88</ele>
</trkpt>
<trkpt lat="33.49690694444445" lon="132.3278061111111">
<ele>84</ele>
</trkpt>
<trkpt lat="33.49698305555555" lon="132.32761888888888">
<ele>85</ele>
</trkpt>
<trkpt lat="33.49697388888889" lon="132.32749388888888">
<ele>86</ele>
</trkpt>
<trkpt lat="33.49695694444444" lon="132.3274188888889">
<ele>88</ele>
</trkpt>
<trkpt lat="33.49697388888889" lon="132.3273561111111">
<ele>88</ele>
</trkpt>
<trkpt lat="33.497008055555554" lon="132.3272938888889">
<ele>85</ele>
</trkpt>
<trkpt lat="33.49720694444444" lon="132.32704388888888">
<ele>85</ele>
</trkpt>
<trkpt lat="33.49733194444445" lon="132.3268938888889">
<ele>82</ele>
</trkpt>
<trkpt lat="33.49736611111111" lon="132.32683111111112">
<ele>76</ele>
</trkpt>
<trkpt lat="33.49738305555555" lon="132.32670611111112">
<ele>76</ele>
</trkpt>
<trkpt lat="33.49736611111111" lon="132.3266188888889">
<ele>74</ele>
</trkpt>
<trkpt lat="33.49731611111111" lon="132.3265438888889">
<ele>80</ele>
</trkpt>
<trkpt lat="33.49707388888889" lon="132.3263938888889">
<ele>82</ele>
</trkpt>
<trkpt lat="33.49702388888889" lon="132.32634388888889">
<ele>82</ele>
</trkpt>
<trkpt lat="33.496991111111114" lon="132.3262311111111">
<ele>83</ele>
</trkpt>
<trkpt lat="33.497033055555555" lon="132.3260688888889">
<ele>75</ele>
</trkpt>
<trkpt lat="33.49729111111111" lon="132.32570611111112">
<ele>74</ele>
</trkpt>
<trkpt lat="33.497323888888886" lon="132.3256561111111">
<ele>76</ele>
</trkpt>
<trkpt lat="33.49744888888889" lon="132.3254061111111">
<ele>78</ele>
</trkpt>
<trkpt lat="33.497481944444445" lon="132.3253311111111">
<ele>82</ele>
</trkpt>
<trkpt lat="33.49754111111111" lon="132.32511888888888">
<ele>83</ele>
</trkpt>
<trkpt lat="33.49758305555556" lon="132.3248688888889">
<ele>83</ele>
</trkpt>
<trkpt lat="33.49759888888889" lon="132.3247438888889">
<ele>83</ele>
</trkpt>
<trkpt lat="33.49760805555555" lon="132.32455611111112">
<ele>83</ele>
</trkpt>
<trkpt lat="33.49759111111111" lon="132.3244811111111">
<ele>83</ele>
</trkpt>
<trkpt lat="33.49749888888889" lon="132.3243061111111">
<ele>83</ele>
</trkpt>
<trkpt lat="33.49739888888889" lon="132.3242438888889">
<ele>85</ele>
</trkpt>
<trkpt lat="33.49730805555556" lon="132.32420611111112">
<ele>84</ele>
</trkpt>
<trkpt lat="33.49718305555555" lon="132.32419388888889">
<ele>85</ele>
</trkpt>
<trkpt lat="33.49639888888889" lon="132.32413111111111">
<ele>84</ele>
</trkpt>
<trkpt lat="33.49629111111111" lon="132.32410611111112">
<ele>81</ele>
</trkpt>
<trkpt lat="33.49613305555555" lon="132.3240688888889">
<ele>81</ele>
</trkpt>
<trkpt lat="33.496006944444446" lon="132.32400611111112">
<ele>81</ele>
</trkpt>
<trkpt lat="33.495916111111114" lon="132.3239438888889">
<ele>77</ele>
</trkpt>
<trkpt lat="33.49572388888889" lon="132.3237938888889">
<ele>87</ele>
</trkpt>
<trkpt lat="33.49567388888889" lon="132.32374388888888">
<ele>81</ele>
</trkpt>
<trkpt lat="33.49556611111111" lon="132.3235938888889">
<ele>84</ele>
</trkpt>
<trkpt lat="33.49549888888889" lon="132.3234938888889">
<ele>86</ele>
</trkpt>
<trkpt lat="33.49539111111111" lon="132.32329388888888">
<ele>82</ele>
</trkpt>
<trkpt lat="33.49523305555556" lon="132.32309388888888">
<ele>77</ele>
</trkpt>
<trkpt lat="33.49516611111111" lon="132.3230438888889">
<ele>83</ele>
</trkpt>
<trkpt lat="33.494973888888886" lon="132.3229938888889">
<ele>79</ele>
</trkpt>
<trkpt lat="33.494908055555555" lon="132.3229938888889">
<ele>79</ele>
</trkpt>
<trkpt lat="33.494748888888886" lon="132.32295694444446">
<ele>81</ele>
</trkpt>
<trkpt lat="33.49464888888889" lon="132.3228938888889">
<ele>86</ele>
</trkpt>
<trkpt lat="33.49458305555556" lon="132.32280694444444">
<ele>82</ele>
</trkpt>
<trkpt lat="33.49454111111111" lon="132.3226688888889">
<ele>81</ele>
</trkpt>
<trkpt lat="33.49449888888889" lon="132.3224438888889">
<ele>73</ele>
</trkpt>
<trkpt lat="33.49446611111111" lon="132.3222188888889">
<ele>75</ele>
</trkpt>
<trkpt lat="33.49436611111111" lon="132.32193194444446">
<ele>82</ele>
</trkpt>
<trkpt lat="33.494258055555555" lon="132.32171888888888">
<ele>83</ele>
</trkpt>
<trkpt lat="33.49414111111111" lon="132.32155694444444">
<ele>85</ele>
</trkpt>
<trkpt lat="33.49409111111111" lon="132.32149388888888">
<ele>88</ele>
</trkpt>
<trkpt lat="33.49402388888889" lon="132.32140694444445">
<ele>84</ele>
</trkpt>
<trkpt lat="33.49391611111111" lon="132.32123194444443">
<ele>85</ele>
</trkpt>
<trkpt lat="33.49384888888889" lon="132.3210938888889">
<ele>80</ele>
</trkpt>
<trkpt lat="33.49374111111111" lon="132.32085694444444">
<ele>81</ele>
</trkpt>
<trkpt lat="33.493673888888885" lon="132.32073194444445">
<ele>79</ele>
</trkpt>
<trkpt lat="33.49359111111111" lon="132.3206438888889">
<ele>80</ele>
</trkpt>
<trkpt lat="33.49354388888889" lon="132.3206238888889">
<ele>80</ele>
</trkpt>
<trkpt lat="33.49354388888889" lon="132.32062305555556">
<ele>81</ele>
</trkpt>
<trkpt lat="33.49344888888889" lon="132.32058194444446">
<ele>82</ele>
</trkpt>
<trkpt lat="33.49319111111111" lon="132.32059388888888">
<ele>82</ele>
</trkpt>
<trkpt lat="33.49308305555556" lon="132.3205688888889">
<ele>82</ele>
</trkpt>
<trkpt lat="33.49302388888889" lon="132.3205438888889">
<ele>80</ele>
</trkpt>
<trkpt lat="33.49294111111111" lon="132.32048194444445">
<ele>82</ele>
</trkpt>
<trkpt lat="33.492823888888886" lon="132.32036888888888">
<ele>81</ele>
</trkpt>
<trkpt lat="33.49264888888889" lon="132.3201688888889">
<ele>80</ele>
</trkpt>
<trkpt lat="33.492583055555556" lon="132.32011888888889">
<ele>80</ele>
</trkpt>
<trkpt lat="33.49251611111111" lon="132.3200938888889">
<ele>80</ele>
</trkpt>
<trkpt lat="33.49243305555556" lon="132.3200938888889">
<ele>80</ele>
</trkpt>
<trkpt lat="33.49238305555556" lon="132.32011888888889">
<ele>82</ele>
</trkpt>
<trkpt lat="33.49232388888889" lon="132.3201688888889">
<ele>81</ele>
</trkpt>
<trkpt lat="33.49227388888889" lon="132.32024388888888">
<ele>82</ele>
</trkpt>
<trkpt lat="33.492173888888885" lon="132.32049388888888">
<ele>83</ele>
</trkpt>
<trkpt lat="33.492133055555556" lon="132.3205438888889">
<ele>83</ele>
</trkpt>
<trkpt lat="33.49209111111111" lon="132.32059388888888">
<ele>80</ele>
</trkpt>
<trkpt lat="33.49204888888889" lon="132.3206188888889">
<ele>80</ele>
</trkpt>
<trkpt lat="33.49199111111111" lon="132.32063194444444">
<ele>75</ele>
</trkpt>
<trkpt lat="33.49194888888889" lon="132.3206438888889">
<ele>75</ele>
</trkpt>
<trkpt lat="33.49189111111111" lon="132.32063194444444">
<ele>75</ele>
</trkpt>
<trkpt lat="33.49183305555555" lon="132.32060694444445">
<ele>81</ele>
</trkpt>
<trkpt lat="33.491773888888886" lon="132.3205688888889">
<ele>83</ele>
</trkpt>
<trkpt lat="33.49171611111111" lon="132.32049388888888">
<ele>82</ele>
</trkpt>
<trkpt lat="33.49147388888889" lon="132.32000694444446">
<ele>80</ele>
</trkpt>
<trkpt lat="33.49140805555555" lon="132.31988194444443">
<ele>78</ele>
</trkpt>
<trkpt lat="33.49135805555556" lon="132.319795">
<ele>78</ele>
</trkpt>
<trkpt lat="33.49120805555555" lon="132.31960694444444">
<ele>71</ele>
</trkpt>
<trkpt lat="33.49116611111111" lon="132.31955694444446">
<ele>71</ele>
</trkpt>
<trkpt lat="33.49113305555556" lon="132.31945694444445">
<ele>69</ele>
</trkpt>
<trkpt lat="33.49113305555556" lon="132.319395">
<ele>69</ele>
</trkpt>
<trkpt lat="33.49115805555556" lon="132.31933194444446">
<ele>71</ele>
</trkpt>
<trkpt lat="33.491416111111114" lon="132.318895">
<ele>71</ele>
</trkpt>
<trkpt lat="33.49155805555556" lon="132.31868194444445">
<ele>70</ele>
</trkpt>
<trkpt lat="33.49196611111111" lon="132.31815694444444">
<ele>72</ele>
</trkpt>
<trkpt lat="33.49200805555556" lon="132.31807">
<ele>71</ele>
</trkpt>
<trkpt lat="33.49205805555555" lon="132.31793194444444">
<ele>72</ele>
</trkpt>
<trkpt lat="33.49218305555556" lon="132.31748194444444">
<ele>74</ele>
</trkpt>
<trkpt lat="33.49222388888889" lon="132.317295">
<ele>70</ele>
</trkpt>
<trkpt lat="33.49223305555556" lon="132.31717">
<ele>68</ele>
</trkpt>
<trkpt lat="33.49222388888889" lon="132.317145">
<ele>68</ele>
</trkpt>
<trkpt lat="33.49219111111111" lon="132.317095">
<ele>71</ele>
</trkpt>
<trkpt lat="33.49215805555556" lon="132.31707">
<ele>71</ele>
</trkpt>
<trkpt lat="33.492083055555554" lon="132.317045">
<ele>72</ele>
</trkpt>
<trkpt lat="33.49201611111111" lon="132.31705805555555">
<ele>72</ele>
</trkpt>
<trkpt lat="33.49160805555555" lon="132.31725805555556">
<ele>81</ele>
</trkpt>
<trkpt lat="33.49154111111111" lon="132.317245">
<ele>82</ele>
</trkpt>
<trkpt lat="33.49149111111111" lon="132.31723305555556">
<ele>82</ele>
</trkpt>
<trkpt lat="33.49144888888889" lon="132.31718305555555">
<ele>80</ele>
</trkpt>
<trkpt lat="33.49142388888889" lon="132.31712">
<ele>83</ele>
</trkpt>
<trkpt lat="33.49142388888889" lon="132.31705805555555">
<ele>84</ele>
</trkpt>
<trkpt lat="33.49144888888889" lon="132.31682">
<ele>80</ele>
</trkpt>
<trkpt lat="33.49144888888889" lon="132.316645">
<ele>79</ele>
</trkpt>
<trkpt lat="33.49144388888889" lon="132.3166238888889">
<ele>80</ele>
</trkpt>
<trkpt lat="33.49144305555556" lon="132.3166238888889">
<ele>80</ele>
</trkpt>
<trkpt lat="33.49142388888889" lon="132.31655694444444">
<ele>83</ele>
</trkpt>
<trkpt lat="33.49137388888889" lon="132.31647">
<ele>82</ele>
</trkpt>
<trkpt lat="33.49131611111111" lon="132.31640694444445">
<ele>83</ele>
</trkpt>
<trkpt lat="33.49124111111111" lon="132.31637">
<ele>83</ele>
</trkpt>
<trkpt lat="33.49109888888889" lon="132.316345">
<ele>89</ele>
</trkpt>
<trkpt lat="33.49102388888889" lon="132.31637">
<ele>89</ele>
</trkpt>
<trkpt lat="33.49044111111111" lon="132.31667">
<ele>96</ele>
</trkpt>
<trkpt lat="33.49008305555556" lon="132.31683194444443">
<ele>102</ele>
</trkpt>
<trkpt lat="33.49" lon="132.316845">
<ele>102</ele>
</trkpt>
<trkpt lat="33.489875" lon="132.31678194444444">
<ele>104</ele>
</trkpt>
<trkpt lat="33.4897" lon="132.31668194444444">
<ele>104</ele>
</trkpt>
<trkpt lat="33.489625" lon="132.31663194444445">
<ele>102</ele>
</trkpt>
<trkpt lat="33.489525" lon="132.31653194444445">
<ele>101</ele>
</trkpt>
<trkpt lat="33.48891611111111" lon="132.315845">
<ele>82</ele>
</trkpt>
<trkpt lat="33.48855805555556" lon="132.315545">
<ele>111</ele>
</trkpt>
<trkpt lat="33.48845" lon="132.31545805555555">
<ele>116</ele>
</trkpt>
<trkpt lat="33.488175" lon="132.31523305555555">
<ele>119</ele>
</trkpt>
<trkpt lat="33.486783055555556" lon="132.31408305555556">
<ele>133</ele>
</trkpt>
<trkpt lat="33.48659194444444" lon="132.31402111111112">
<ele>134</ele>
</trkpt>
<trkpt lat="33.48645" lon="132.31400805555555">
<ele>135</ele>
</trkpt>
<trkpt lat="33.48636694444444" lon="132.31402111111112">
<ele>134</ele>
</trkpt>
<trkpt lat="33.48625805555555" lon="132.3140711111111">
<ele>134</ele>
</trkpt>
<trkpt lat="33.485975" lon="132.31418305555556">
<ele>133</ele>
</trkpt>
<trkpt lat="33.48579194444444" lon="132.31422111111112">
<ele>132</ele>
</trkpt>
<trkpt lat="33.48554194444444" lon="132.31413305555554">
<ele>129</ele>
</trkpt>
<trkpt lat="33.485425" lon="132.31399611111112">
<ele>126</ele>
</trkpt>
<trkpt lat="33.485275" lon="132.31370805555557">
<ele>126</ele>
</trkpt>
<trkpt lat="33.48526694444445" lon="132.31355805555555">
<ele>125</ele>
</trkpt>
<trkpt lat="33.48524194444445" lon="132.31310805555555">
<ele>124</ele>
</trkpt>
<trkpt lat="33.4852" lon="132.31290805555557">
<ele>127</ele>
</trkpt>
<trkpt lat="33.485125" lon="132.31280805555556">
<ele>126</ele>
</trkpt>
<trkpt lat="33.48489194444444" lon="132.31253305555555">
<ele>123</ele>
</trkpt>
<trkpt lat="33.484833055555555" lon="132.31238305555556">
<ele>126</ele>
</trkpt>
<trkpt lat="33.48485" lon="132.3122211111111">
<ele>126</ele>
</trkpt>
<trkpt lat="33.48495" lon="132.31187111111112">
<ele>126</ele>
</trkpt>
<trkpt lat="33.48495805555556" lon="132.3117211111111">
<ele>126</ele>
</trkpt>
<trkpt lat="33.484925" lon="132.31153305555554">
<ele>126</ele>
</trkpt>
<trkpt lat="33.48485" lon="132.31142111111112">
<ele>126</ele>
</trkpt>
<trkpt lat="33.48471694444444" lon="132.31133305555556">
<ele>125</ele>
</trkpt>
<trkpt lat="33.48467194444444" lon="132.3113211111111">
<ele>125</ele>
</trkpt>
<trkpt lat="33.48467194444444" lon="132.3113211111111">
<ele>125</ele>
</trkpt>
<trkpt lat="33.484075" lon="132.31115805555555">
<ele>126</ele>
</trkpt>
<trkpt lat="33.48388388888889" lon="132.31107111111112">
<ele>127</ele>
</trkpt>
<trkpt lat="33.48378388888889" lon="132.31095805555555">
<ele>126</ele>
</trkpt>
<trkpt lat="33.483758888888886" lon="132.31085805555554">
<ele>129</ele>
</trkpt>
<trkpt lat="33.48380888888889" lon="132.31075805555557">
<ele>127</ele>
</trkpt>
<trkpt lat="33.483958055555554" lon="132.31063305555554">
<ele>125</ele>
</trkpt>
<trkpt lat="33.48404194444444" lon="132.31050805555554">
<ele>125</ele>
</trkpt>
<trkpt lat="33.484158055555554" lon="132.3102461111111">
<ele>124</ele>
</trkpt>
<trkpt lat="33.4842" lon="132.31008305555557">
<ele>118</ele>
</trkpt>
<trkpt lat="33.48425" lon="132.30993305555555">
<ele>115</ele>
</trkpt>
<trkpt lat="33.48429194444444" lon="132.3098461111111">
<ele>117</ele>
</trkpt>
<trkpt lat="33.484675" lon="132.3094461111111">
<ele>113</ele>
</trkpt>
<trkpt lat="33.484791944444446" lon="132.3092838888889">
<ele>114</ele>
</trkpt>
<trkpt lat="33.484833055555555" lon="132.3091088888889">
<ele>115</ele>
</trkpt>
<trkpt lat="33.484791944444446" lon="132.3089588888889">
<ele>114</ele>
</trkpt>
<trkpt lat="33.48439194444445" lon="132.3084211111111">
<ele>123</ele>
</trkpt>
<trkpt lat="33.484091944444444" lon="132.3079461111111">
<ele>126</ele>
</trkpt>
<trkpt lat="33.48399194444445" lon="132.3077338888889">
<ele>126</ele>
</trkpt>
<trkpt lat="33.48396694444445" lon="132.3075961111111">
<ele>126</ele>
</trkpt>
<trkpt lat="33.483975" lon="132.3071838888889">
<ele>123</ele>
</trkpt>
<trkpt lat="33.48390805555555" lon="132.3069211111111">
<ele>122</ele>
</trkpt>
<trkpt lat="33.483808055555556" lon="132.3068088888889">
<ele>121</ele>
</trkpt>
<trkpt lat="33.48363305555556" lon="132.30674611111112">
<ele>121</ele>
</trkpt>
<trkpt lat="33.483525" lon="132.30673388888889">
<ele>121</ele>
</trkpt>
<trkpt lat="33.483333055555555" lon="132.3067838888889">
<ele>122</ele>
</trkpt>
<trkpt lat="33.483" lon="132.30709611111112">
<ele>113</ele>
</trkpt>
<trkpt lat="33.48285" lon="132.30719611111112">
<ele>112</ele>
</trkpt>
<trkpt lat="33.48269194444445" lon="132.30722111111112">
<ele>112</ele>
</trkpt>
<trkpt lat="33.48258388888889" lon="132.3071838888889">
<ele>110</ele>
</trkpt>
<trkpt lat="33.48250888888889" lon="132.30709611111112">
<ele>107</ele>
</trkpt>
<trkpt lat="33.482175" lon="132.30589694444444">
<ele>104</ele>
</trkpt>
<trkpt lat="33.48218388888889" lon="132.30549694444446">
<ele>100</ele>
</trkpt>
<trkpt lat="33.48220805555555" lon="132.3051338888889">
<ele>97</ele>
</trkpt>
<trkpt lat="33.482265" lon="132.30498111111112">
<ele>96</ele>
</trkpt>
<trkpt lat="33.482265" lon="132.30498111111112">
<ele>96</ele>
</trkpt>
<trkpt lat="33.48233305555556" lon="132.30479694444443">
<ele>94</ele>
</trkpt>
<trkpt lat="33.48243305555555" lon="132.30464694444444">
<ele>98</ele>
</trkpt>
<trkpt lat="33.482641944444445" lon="132.30454694444444">
<ele>94</ele>
</trkpt>
<trkpt lat="33.48285" lon="132.3045338888889">
<ele>88</ele>
</trkpt>
<trkpt lat="33.48323305555556" lon="132.3044338888889">
<ele>86</ele>
</trkpt>
<trkpt lat="33.483325" lon="132.30434694444443">
<ele>86</ele>
</trkpt>
<trkpt lat="33.4834" lon="132.3042338888889">
<ele>85</ele>
</trkpt>
<trkpt lat="33.48344194444444" lon="132.30412194444443">
<ele>86</ele>
</trkpt>
<trkpt lat="33.483475" lon="132.30399694444444">
<ele>84</ele>
</trkpt>
<trkpt lat="33.4834" lon="132.30369694444445">
<ele>86</ele>
</trkpt>
<trkpt lat="33.48335" lon="132.30357194444446">
<ele>85</ele>
</trkpt>
<trkpt lat="33.483325" lon="132.3035088888889">
<ele>87</ele>
</trkpt>
<trkpt lat="33.483308055555554" lon="132.3031088888889">
<ele>85</ele>
</trkpt>
<trkpt lat="33.48334194444445" lon="132.30272194444444">
<ele>83</ele>
</trkpt>
<trkpt lat="33.4834" lon="132.30234694444445">
<ele>85</ele>
</trkpt>
<trkpt lat="33.48355" lon="132.302135">
<ele>85</ele>
</trkpt>
<trkpt lat="33.48384111111111" lon="132.30194694444444">
<ele>84</ele>
</trkpt>
<trkpt lat="33.48433305555555" lon="132.30171">
<ele>87</ele>
</trkpt>
<trkpt lat="33.484583055555554" lon="132.30149694444444">
<ele>86</ele>
</trkpt>
<trkpt lat="33.485125" lon="132.30079694444444">
<ele>93</ele>
</trkpt>
<trkpt lat="33.485258055555555" lon="132.30071">
<ele>93</ele>
</trkpt>
<trkpt lat="33.48545" lon="132.30071">
<ele>94</ele>
</trkpt>
<trkpt lat="33.485625" lon="132.30077194444445">
<ele>95</ele>
</trkpt>
<trkpt lat="33.48575805555556" lon="132.30077194444445">
<ele>96</ele>
</trkpt>
<trkpt lat="33.485866111111115" lon="132.300735">
<ele>100</ele>
</trkpt>
<trkpt lat="33.48596611111111" lon="132.300635">
<ele>104</ele>
</trkpt>
<trkpt lat="33.48604111111111" lon="132.30051">
<ele>99</ele>
</trkpt>
<trkpt lat="33.48609111111111" lon="132.30037194444444">
<ele>96</ele>
</trkpt>
<trkpt lat="33.486133055555555" lon="132.30014694444444">
<ele>92</ele>
</trkpt>
<trkpt lat="33.48616611111111" lon="132.29972194444446">
<ele>94</ele>
</trkpt>
<trkpt lat="33.486291111111115" lon="132.29891">
<ele>92</ele>
</trkpt>
<trkpt lat="33.48628305555555" lon="132.29866">
<ele>92</ele>
</trkpt>
<trkpt lat="33.486133055555555" lon="132.29829694444444">
<ele>93</ele>
</trkpt>
<trkpt lat="33.486083055555554" lon="132.29811">
<ele>93</ele>
</trkpt>
<trkpt lat="33.486083055555554" lon="132.29792">
<ele>94</ele>
</trkpt>
<trkpt lat="33.486083055555554" lon="132.29792">
<ele>94</ele>
</trkpt>
<trkpt lat="33.486083055555554" lon="132.29716">
<ele>95</ele>
</trkpt>
<trkpt lat="33.486066111111114" lon="132.297085">
<ele>95</ele>
</trkpt>
<trkpt lat="33.48602388888889" lon="132.29701">
<ele>95</ele>
</trkpt>
<trkpt lat="33.48569111111111" lon="132.29676">
<ele>94</ele>
</trkpt>
<trkpt lat="33.48567388888889" lon="132.29652305555555">
<ele>92</ele>
</trkpt>
<trkpt lat="33.48562388888889" lon="132.29642305555555">
<ele>93</ele>
</trkpt>
<trkpt lat="33.485548888888886" lon="132.296335">
<ele>95</ele>
</trkpt>
<trkpt lat="33.48534111111111" lon="132.29622305555554">
<ele>94</ele>
</trkpt>
<trkpt lat="33.485258055555555" lon="132.296085">
<ele>92</ele>
</trkpt>
<trkpt lat="33.48518305555555" lon="132.29591">
<ele>96</ele>
</trkpt>
<trkpt lat="33.48518305555555" lon="132.295735">
<ele>93</ele>
</trkpt>
<trkpt lat="33.485216111111114" lon="132.29566">
<ele>90</ele>
</trkpt>
<trkpt lat="33.48531611111111" lon="132.29549805555556">
<ele>87</ele>
</trkpt>
<trkpt lat="33.48552388888889" lon="132.29524805555556">
<ele>88</ele>
</trkpt>
<trkpt lat="33.48556611111111" lon="132.29514805555556">
<ele>86</ele>
</trkpt>
<trkpt lat="33.485548888888886" lon="132.29507305555555">
<ele>88</ele>
</trkpt>
<trkpt lat="33.48544888888889" lon="132.29496111111112">
<ele>86</ele>
</trkpt>
<trkpt lat="33.48515805555556" lon="132.2947111111111">
<ele>87</ele>
</trkpt>
<trkpt lat="33.48482388888889" lon="132.29441111111112">
<ele>84</ele>
</trkpt>
<trkpt lat="33.48466611111111" lon="132.2943361111111">
<ele>86</ele>
</trkpt>
<trkpt lat="33.48451611111111" lon="132.2943611111111">
<ele>85</ele>
</trkpt>
<trkpt lat="33.48411611111111" lon="132.29469805555556">
<ele>88</ele>
</trkpt>
<trkpt lat="33.483875" lon="132.29472305555555">
<ele>86</ele>
</trkpt>
<trkpt lat="33.48315" lon="132.2945611111111">
<ele>85</ele>
</trkpt>
<trkpt lat="33.482825" lon="132.2944611111111">
<ele>83</ele>
</trkpt>
<trkpt lat="33.48266611111111" lon="132.29444805555556">
<ele>81</ele>
</trkpt>
<trkpt lat="33.482575" lon="132.29452305555554">
<ele>81</ele>
</trkpt>
<trkpt lat="33.4825" lon="132.29461111111112">
<ele>76</ele>
</trkpt>
<trkpt lat="33.482483055555555" lon="132.29486111111112">
<ele>76</ele>
</trkpt>
<trkpt lat="33.48251611111111" lon="132.2951111111111">
<ele>77</ele>
</trkpt>
<trkpt lat="33.482575" lon="132.29542305555555">
<ele>79</ele>
</trkpt>
<trkpt lat="33.482683055555555" lon="132.2956111111111">
<ele>80</ele>
</trkpt>
<trkpt lat="33.482675" lon="132.2958111111111">
<ele>78</ele>
</trkpt>
<trkpt lat="33.482625" lon="132.29597305555555">
<ele>76</ele>
</trkpt>
<trkpt lat="33.482458055555554" lon="132.29619805555555">
<ele>77</ele>
</trkpt>
<trkpt lat="33.4824" lon="132.29657305555557">
<ele>77</ele>
</trkpt>
<trkpt lat="33.48231611111111" lon="132.29669805555557">
<ele>77</ele>
</trkpt>
<trkpt lat="33.48220805555555" lon="132.29669805555557">
<ele>75</ele>
</trkpt>
<trkpt lat="33.482058055555555" lon="132.29662305555556">
<ele>74</ele>
</trkpt>
<trkpt lat="33.48190805555556" lon="132.29643611111112">
<ele>74</ele>
</trkpt>
<trkpt lat="33.481833055555555" lon="132.2962611111111">
<ele>75</ele>
</trkpt>
<trkpt lat="33.481791944444446" lon="132.29604805555556">
<ele>72</ele>
</trkpt>
<trkpt lat="33.481791111111114" lon="132.29587305555555">
<ele>73</ele>
</trkpt>
<trkpt lat="33.481741944444444" lon="132.29574805555555">
<ele>76</ele>
</trkpt>
<trkpt lat="33.481625" lon="132.29562305555555">
<ele>76</ele>
</trkpt>
<trkpt lat="33.480875" lon="132.29522305555557">
<ele>76</ele>
</trkpt>
<trkpt lat="33.480741944444446" lon="132.29508611111112">
<ele>73</ele>
</trkpt>
<trkpt lat="33.480741944444446" lon="132.29469805555556">
<ele>74</ele>
</trkpt>
<trkpt lat="33.4807" lon="132.2945861111111">
<ele>74</ele>
</trkpt>
<trkpt lat="33.4806" lon="132.2944861111111">
<ele>75</ele>
</trkpt>
<trkpt lat="33.48048305555555" lon="132.2944361111111">
<ele>72</ele>
</trkpt>
<trkpt lat="33.4799" lon="132.29442305555557">
<ele>75</ele>
</trkpt>
<trkpt lat="33.479425" lon="132.29451111111112">
<ele>76</ele>
</trkpt>
<trkpt lat="33.479283055555555" lon="132.29451111111112">
<ele>76</ele>
</trkpt>
<trkpt lat="33.47915805555556" lon="132.2944861111111">
<ele>76</ele>
</trkpt>
<trkpt lat="33.479033055555554" lon="132.29438611111112">
<ele>73</ele>
</trkpt>
<trkpt lat="33.47895" lon="132.29428611111112">
<ele>75</ele>
</trkpt>
<trkpt lat="33.4789" lon="132.29418611111112">
<ele>74</ele>
</trkpt>
<trkpt lat="33.47886694444445" lon="132.2940861111111">
<ele>77</ele>
</trkpt>
<trkpt lat="33.478858055555555" lon="132.29397305555557">
<ele>75</ele>
</trkpt>
<trkpt lat="33.47886694444445" lon="132.29389805555556">
<ele>75</ele>
</trkpt>
<trkpt lat="33.4789" lon="132.29382305555555">
<ele>74</ele>
</trkpt>
<trkpt lat="33.479016944444446" lon="132.29369888888888">
<ele>72</ele>
</trkpt>
<trkpt lat="33.47915" lon="132.29361111111112">
<ele>74</ele>
</trkpt>
<trkpt lat="33.479666944444446" lon="132.2934111111111">
<ele>73</ele>
</trkpt>
<trkpt lat="33.47983305555555" lon="132.2932988888889">
<ele>75</ele>
</trkpt>
<trkpt lat="33.479908055555555" lon="132.2931738888889">
<ele>71</ele>
</trkpt>
<trkpt lat="33.47989194444445" lon="132.2927361111111">
<ele>73</ele>
</trkpt>
<trkpt lat="33.47994194444444" lon="132.2926361111111">
<ele>77</ele>
</trkpt>
<trkpt lat="33.48011694444445" lon="132.2925488888889">
<ele>77</ele>
</trkpt>
<trkpt lat="33.480325" lon="132.2925361111111">
<ele>75</ele>
</trkpt>
<trkpt lat="33.480716944444445" lon="132.2925111111111">
<ele>84</ele>
</trkpt>
<trkpt lat="33.480716944444445" lon="132.2925111111111">
<ele>84</ele>
</trkpt>
<trkpt lat="33.48105" lon="132.2921111111111">
<ele>79</ele>
</trkpt>
<trkpt lat="33.48154111111111" lon="132.29201111111112">
<ele>74</ele>
</trkpt>
<trkpt lat="33.48173305555556" lon="132.2918738888889">
<ele>74</ele>
</trkpt>
<trkpt lat="33.4819" lon="132.2917238888889">
<ele>72</ele>
</trkpt>
<trkpt lat="33.48195" lon="132.29157388888888">
<ele>78</ele>
</trkpt>
<trkpt lat="33.48195" lon="132.2912738888889">
<ele>85</ele>
</trkpt>
<trkpt lat="33.48191611111111" lon="132.2911611111111">
<ele>84</ele>
</trkpt>
<trkpt lat="33.48181611111111" lon="132.2910361111111">
<ele>84</ele>
</trkpt>
<trkpt lat="33.48154111111111" lon="132.29078611111112">
<ele>87</ele>
</trkpt>
<trkpt lat="33.48099111111111" lon="132.2903738888889">
<ele>78</ele>
</trkpt>
<trkpt lat="33.480533055555554" lon="132.28998611111112">
<ele>72</ele>
</trkpt>
<trkpt lat="33.48020805555556" lon="132.2897238888889">
<ele>65</ele>
</trkpt>
<trkpt lat="33.480025" lon="132.28963611111112">
<ele>63</ele>
</trkpt>
<trkpt lat="33.479816944444444" lon="132.28962388888888">
<ele>63</ele>
</trkpt>
<trkpt lat="33.47935805555556" lon="132.28998611111112">
<ele>65</ele>
</trkpt>
<trkpt lat="33.479191944444445" lon="132.2899988888889">
<ele>63</ele>
</trkpt>
<trkpt lat="33.479125" lon="132.2898988888889">
<ele>63</ele>
</trkpt>
<trkpt lat="33.479058055555555" lon="132.28973611111113">
<ele>62</ele>
</trkpt>
<trkpt lat="33.47890805555556" lon="132.28962388888888">
<ele>62</ele>
</trkpt>
<trkpt lat="33.478658055555556" lon="132.28953611111112">
<ele>53</ele>
</trkpt>
<trkpt lat="33.478475" lon="132.2894861111111">
<ele>54</ele>
</trkpt>
<trkpt lat="33.47828305555556" lon="132.28952388888888">
<ele>54</ele>
</trkpt>
<trkpt lat="33.478125" lon="132.28948694444443">
<ele>55</ele>
</trkpt>
<trkpt lat="33.478075" lon="132.2893488888889">
<ele>56</ele>
</trkpt>
<trkpt lat="33.47808305555556" lon="132.2891488888889">
<ele>56</ele>
</trkpt>
<trkpt lat="33.47815" lon="132.28898694444445">
<ele>56</ele>
</trkpt>
<trkpt lat="33.478275" lon="132.28883694444445">
<ele>55</ele>
</trkpt>
<trkpt lat="33.478475" lon="132.2885738888889">
<ele>52</ele>
</trkpt>
<trkpt lat="33.47870805555556" lon="132.2883238888889">
<ele>54</ele>
</trkpt>
<trkpt lat="33.4789" lon="132.28806194444445">
<ele>53</ele>
</trkpt>
<trkpt lat="33.47894194444444" lon="132.28794888888888">
<ele>55</ele>
</trkpt>
<trkpt lat="33.47894194444444" lon="132.28781388888888">
<ele>54</ele>
</trkpt>
<trkpt lat="33.47894194444444" lon="132.28781388888888">
<ele>54</ele>
</trkpt>
<trkpt lat="33.47894194444444" lon="132.28781194444446">
<ele>54</ele>
</trkpt>
<trkpt lat="33.47889194444444" lon="132.28771194444445">
<ele>52</ele>
</trkpt>
<trkpt lat="33.47878305555555" lon="132.28763694444444">
<ele>53</ele>
</trkpt>
<trkpt lat="33.47858305555555" lon="132.28748694444445">
<ele>55</ele>
</trkpt>
<trkpt lat="33.478366944444446" lon="132.28721194444444">
<ele>53</ele>
</trkpt>
<trkpt lat="33.47826694444444" lon="132.2869988888889">
<ele>52</ele>
</trkpt>
<trkpt lat="33.478208055555555" lon="132.28676194444444">
<ele>47</ele>
</trkpt>
<trkpt lat="33.478141944444445" lon="132.28647388888888">
<ele>43</ele>
</trkpt>
<trkpt lat="33.47805805555556" lon="132.2862988888889">
<ele>43</ele>
</trkpt>
<trkpt lat="33.47790805555555" lon="132.28613694444445">
<ele>44</ele>
</trkpt>
<trkpt lat="33.477725" lon="132.2860988888889">
<ele>43</ele>
</trkpt>
<trkpt lat="33.477475" lon="132.28611194444446">
<ele>39</ele>
</trkpt>
<trkpt lat="33.47736694444445" lon="132.28606194444444">
<ele>36</ele>
</trkpt>
<trkpt lat="33.47719194444444" lon="132.28576194444443">
<ele>33</ele>
</trkpt>
<trkpt lat="33.477025" lon="132.2856488888889">
<ele>33</ele>
</trkpt>
<trkpt lat="33.47674194444444" lon="132.285625">
<ele>30</ele>
</trkpt>
<trkpt lat="33.47655888888889" lon="132.28566194444446">
<ele>25</ele>
</trkpt>
<trkpt lat="33.47630888888889" lon="132.285875">
<ele>24</ele>
</trkpt>
<trkpt lat="33.47614194444444" lon="132.28601194444445">
<ele>27</ele>
</trkpt>
<trkpt lat="33.476" lon="132.28605">
<ele>25</ele>
</trkpt>
<trkpt lat="33.47580888888889" lon="132.28603694444445">
<ele>25</ele>
</trkpt>
<trkpt lat="33.47573388888889" lon="132.28596194444444">
<ele>25</ele>
</trkpt>
<trkpt lat="33.47570888888889" lon="132.28585">
<ele>22</ele>
</trkpt>
<trkpt lat="33.475725" lon="132.285625">
<ele>26</ele>
</trkpt>
<trkpt lat="33.47591694444444" lon="132.2853">
<ele>25</ele>
</trkpt>
<trkpt lat="33.476191944444444" lon="132.284875">
<ele>36</ele>
</trkpt>
<trkpt lat="33.47643388888889" lon="132.284525">
<ele>35</ele>
</trkpt>
<trkpt lat="33.476708055555555" lon="132.284175">
<ele>34</ele>
</trkpt>
<trkpt lat="33.47696694444444" lon="132.28395">
<ele>43</ele>
</trkpt>
<trkpt lat="33.477291944444445" lon="132.28376194444445">
<ele>48</ele>
</trkpt>
<trkpt lat="33.4775" lon="132.28376194444445">
<ele>47</ele>
</trkpt>
<trkpt lat="33.477691944444445" lon="132.28381194444444">
<ele>44</ele>
</trkpt>
<trkpt lat="33.477891944444444" lon="132.2838">
<ele>43</ele>
</trkpt>
<trkpt lat="33.478091944444444" lon="132.283725">
<ele>44</ele>
</trkpt>
<trkpt lat="33.478183055555554" lon="132.28356194444444">
<ele>43</ele>
</trkpt>
<trkpt lat="33.47845" lon="132.28273694444445">
<ele>44</ele>
</trkpt>
<trkpt lat="33.47869111111111" lon="132.28245">
<ele>53</ele>
</trkpt>
<trkpt lat="33.479016111111115" lon="132.282325">
<ele>60</ele>
</trkpt>
<trkpt lat="33.4794" lon="132.28236194444443">
<ele>62</ele>
</trkpt>
<trkpt lat="33.47951611111111" lon="132.282275">
<ele>61</ele>
</trkpt>
<trkpt lat="33.47954111111111" lon="132.282175">
<ele>63</ele>
</trkpt>
<trkpt lat="33.479525" lon="132.2821">
<ele>63</ele>
</trkpt>
<trkpt lat="33.479475" lon="132.28198694444444">
<ele>62</ele>
</trkpt>
<trkpt lat="33.47935" lon="132.28185">
<ele>62</ele>
</trkpt>
<trkpt lat="33.47920805555555" lon="132.281625">
<ele>66</ele>
</trkpt>
<trkpt lat="33.479083055555556" lon="132.28133805555555">
<ele>75</ele>
</trkpt>
<trkpt lat="33.47895" lon="132.281175">
<ele>73</ele>
</trkpt>
<trkpt lat="33.47878305555555" lon="132.2811">
<ele>71</ele>
</trkpt>
<trkpt lat="33.478275" lon="132.281075">
<ele>73</ele>
</trkpt>
<trkpt lat="33.47786694444444" lon="132.2811">
<ele>73</ele>
</trkpt>
<trkpt lat="33.477358055555555" lon="132.28118694444444">
<ele>73</ele>
</trkpt>
<trkpt lat="33.476875" lon="132.28133805555555">
<ele>65</ele>
</trkpt>
<trkpt lat="33.476458055555554" lon="132.28146305555555">
<ele>65</ele>
</trkpt>
<trkpt lat="33.476175" lon="132.281475">
<ele>65</ele>
</trkpt>
<trkpt lat="33.47591694444444" lon="132.2814">
<ele>63</ele>
</trkpt>
<trkpt lat="33.47568305555556" lon="132.28135">
<ele>62</ele>
</trkpt>
<trkpt lat="33.47550888888889" lon="132.28143805555555">
<ele>56</ele>
</trkpt>
<trkpt lat="33.47535888888889" lon="132.28145">
<ele>59</ele>
</trkpt>
<trkpt lat="33.475075" lon="132.28128805555556">
<ele>55</ele>
</trkpt>
<trkpt lat="33.47484611111111" lon="132.2811761111111">
<ele>57</ele>
</trkpt>
<trkpt lat="33.47484611111111" lon="132.2811761111111">
<ele>57</ele>
</trkpt>
<trkpt lat="33.47476694444445" lon="132.28113805555554">
<ele>57</ele>
</trkpt>
<trkpt lat="33.47438388888889" lon="132.28103805555557">
<ele>55</ele>
</trkpt>
<trkpt lat="33.47421694444444" lon="132.281">
<ele>54</ele>
</trkpt>
<trkpt lat="33.474133888888886" lon="132.280975">
<ele>53</ele>
</trkpt>
<trkpt lat="33.474091944444446" lon="132.28091305555554">
<ele>56</ele>
</trkpt>
<trkpt lat="33.47405" lon="132.28068805555554">
<ele>52</ele>
</trkpt>
<trkpt lat="33.47399194444444" lon="132.2806">
<ele>55</ele>
</trkpt>
<trkpt lat="33.47383388888889" lon="132.28045">
<ele>56</ele>
</trkpt>
<trkpt lat="33.4738" lon="132.28028805555556">
<ele>53</ele>
</trkpt>
<trkpt lat="33.473816944444444" lon="132.28005">
<ele>54</ele>
</trkpt>
<trkpt lat="33.47379194444444" lon="132.27988805555555">
<ele>53</ele>
</trkpt>
<trkpt lat="33.473675" lon="132.27967611111112">
<ele>54</ele>
</trkpt>
<trkpt lat="33.47350888888889" lon="132.27952611111112">
<ele>56</ele>
</trkpt>
<trkpt lat="33.47334194444444" lon="132.27945111111111">
<ele>56</ele>
</trkpt>
<trkpt lat="33.473058888888886" lon="132.27946305555557">
<ele>57</ele>
</trkpt>
<trkpt lat="33.473" lon="132.2793761111111">
<ele>55</ele>
</trkpt>
<trkpt lat="33.47289194444444" lon="132.27903805555556">
<ele>56</ele>
</trkpt>
<trkpt lat="33.47275" lon="132.2789011111111">
<ele>55</ele>
</trkpt>
<trkpt lat="33.47255" lon="132.27883805555555">
<ele>55</ele>
</trkpt>
<trkpt lat="33.472341944444445" lon="132.27873805555555">
<ele>53</ele>
</trkpt>
<trkpt lat="33.472166944444446" lon="132.27873805555555">
<ele>54</ele>
</trkpt>
<trkpt lat="33.47203388888889" lon="132.27885111111112">
<ele>56</ele>
</trkpt>
<trkpt lat="33.471851111111114" lon="132.27893805555556">
<ele>54</ele>
</trkpt>
<trkpt lat="33.47159194444444" lon="132.2790261111111">
<ele>55</ele>
</trkpt>
<trkpt lat="33.47140111111111" lon="132.27920111111112">
<ele>54</ele>
</trkpt>
<trkpt lat="33.47118388888889" lon="132.27932611111112">
<ele>52</ele>
</trkpt>
<trkpt lat="33.47101694444444" lon="132.2793511111111">
<ele>55</ele>
</trkpt>
<trkpt lat="33.47094194444445" lon="132.27922611111111">
<ele>56</ele>
</trkpt>
<trkpt lat="33.47091694444445" lon="132.27891305555556">
<ele>54</ele>
</trkpt>
<trkpt lat="33.470841944444444" lon="132.27881305555556">
<ele>58</ele>
</trkpt>
<trkpt lat="33.47070111111111" lon="132.2787011111111">
<ele>62</ele>
</trkpt>
<trkpt lat="33.47069194444445" lon="132.27851305555555">
<ele>63</ele>
</trkpt>
<trkpt lat="33.47078388888889" lon="132.2783511111111">
<ele>63</ele>
</trkpt>
<trkpt lat="33.47085888888889" lon="132.27820111111112">
<ele>67</ele>
</trkpt>
<trkpt lat="33.470866944444445" lon="132.27796305555555">
<ele>68</ele>
</trkpt>
<trkpt lat="33.47088388888889" lon="132.2774511111111">
<ele>71</ele>
</trkpt>
<trkpt lat="33.47082611111111" lon="132.27723805555556">
<ele>71</ele>
</trkpt>
<trkpt lat="33.47074194444444" lon="132.2771261111111">
<ele>73</ele>
</trkpt>
<trkpt lat="33.47065111111111" lon="132.27723805555556">
<ele>77</ele>
</trkpt>
<trkpt lat="33.47069194444445" lon="132.2778011111111">
<ele>72</ele>
</trkpt>
<trkpt lat="33.470683888888885" lon="132.27801305555556">
<ele>71</ele>
</trkpt>
<trkpt lat="33.470641944444445" lon="132.27816305555555">
<ele>73</ele>
</trkpt>
<trkpt lat="33.47056694444444" lon="132.2782511111111">
<ele>71</ele>
</trkpt>
<trkpt lat="33.47040111111111" lon="132.27828805555555">
<ele>79</ele>
</trkpt>
<trkpt lat="33.47026694444445" lon="132.27858805555556">
<ele>84</ele>
</trkpt>
<trkpt lat="33.47030111111111" lon="132.27875111111112">
<ele>82</ele>
</trkpt>
<trkpt lat="33.470351111111114" lon="132.27891305555556">
<ele>81</ele>
</trkpt>
<trkpt lat="33.470351111111114" lon="132.2791761111111">
<ele>82</ele>
</trkpt>
<trkpt lat="33.47033388888889" lon="132.2793761111111">
<ele>82</ele>
</trkpt>
<trkpt lat="33.47032611111111" lon="132.27948805555556">
<ele>86</ele>
</trkpt>
<trkpt lat="33.47043388888889" lon="132.27986305555555">
<ele>88</ele>
</trkpt>
<trkpt lat="33.47050888888889" lon="132.27997611111113">
<ele>92</ele>
</trkpt>
<trkpt lat="33.47067611111111" lon="132.28013805555557">
<ele>91</ele>
</trkpt>
<trkpt lat="33.47073388888889" lon="132.28022611111112">
<ele>94</ele>
</trkpt>
<trkpt lat="33.470776111111114" lon="132.28035111111112">
<ele>95</ele>
</trkpt>
<trkpt lat="33.47080111111111" lon="132.28056305555555">
<ele>94</ele>
</trkpt>
<trkpt lat="33.47083388888889" lon="132.28067611111112">
<ele>99</ele>
</trkpt>
<trkpt lat="33.47094194444445" lon="132.28088805555555">
<ele>104</ele>
</trkpt>
<trkpt lat="33.470908888888886" lon="132.28098805555555">
<ele>106</ele>
</trkpt>
<trkpt lat="33.470841944444444" lon="132.28100111111112">
<ele>105</ele>
</trkpt>
<trkpt lat="33.47075888888889" lon="132.28093805555557">
<ele>103</ele>
</trkpt>
<trkpt lat="33.47065111111111" lon="132.28077611111112">
<ele>104</ele>
</trkpt>
<trkpt lat="33.47060111111111" lon="132.2806511111111">
<ele>102</ele>
</trkpt>
<trkpt lat="33.47059194444444" lon="132.28048805555557">
<ele>100</ele>
</trkpt>
<trkpt lat="33.47054194444444" lon="132.28036305555557">
<ele>101</ele>
</trkpt>
<trkpt lat="33.47045888888889" lon="132.2802761111111">
<ele>99</ele>
</trkpt>
<trkpt lat="33.47026694444445" lon="132.2802511111111">
<ele>103</ele>
</trkpt>
<trkpt lat="33.470168055555554" lon="132.28013805555557">
<ele>104</ele>
</trkpt>
<trkpt lat="33.47006694444445" lon="132.28003805555556">
<ele>104</ele>
</trkpt>
<trkpt lat="33.46990888888889" lon="132.27997611111113">
<ele>104</ele>
</trkpt>
<trkpt lat="33.46985111111111" lon="132.2799261111111">
<ele>105</ele>
</trkpt>
<trkpt lat="33.469833888888886" lon="132.27986305555555">
<ele>106</ele>
</trkpt>
<trkpt lat="33.46987611111111" lon="132.27975111111112">
<ele>106</ele>
</trkpt>
<trkpt lat="33.46987611111111" lon="132.27958805555556">
<ele>106</ele>
</trkpt>
<trkpt lat="33.46977611111111" lon="132.27945111111111">
<ele>107</ele>
</trkpt>
<trkpt lat="33.46975888888889" lon="132.27928805555555">
<ele>113</ele>
</trkpt>
<trkpt lat="33.469793055555556" lon="132.27903805555556">
<ele>111</ele>
</trkpt>
<trkpt lat="33.469793055555556" lon="132.27893805555556">
<ele>111</ele>
</trkpt>
<trkpt lat="33.46966694444444" lon="132.2788011111111">
<ele>114</ele>
</trkpt>
<trkpt lat="33.46958388888889" lon="132.2786761111111">
<ele>115</ele>
</trkpt>
<trkpt lat="33.46958388888889" lon="132.2784761111111">
<ele>113</ele>
</trkpt>
<trkpt lat="33.46962611111111" lon="132.27828805555555">
<ele>117</ele>
</trkpt>
<trkpt lat="33.46961694444445" lon="132.27817611111112">
<ele>117</ele>
</trkpt>
<trkpt lat="33.469543055555555" lon="132.27811305555556">
<ele>120</ele>
</trkpt>
<trkpt lat="33.46929305555555" lon="132.27807611111112">
<ele>124</ele>
</trkpt>
<trkpt lat="33.46917611111111" lon="132.27821305555557">
<ele>127</ele>
</trkpt>
<trkpt lat="33.46917611111111" lon="132.2784761111111">
<ele>132</ele>
</trkpt>
<trkpt lat="33.46929305555555" lon="132.27887611111112">
<ele>133</ele>
</trkpt>
<trkpt lat="33.46930111111111" lon="132.2790011111111">
<ele>138</ele>
</trkpt>
<trkpt lat="33.46918388888889" lon="132.2791511111111">
<ele>143</ele>
</trkpt>
<trkpt lat="33.46915111111111" lon="132.2793511111111">
<ele>143</ele>
</trkpt>
<trkpt lat="33.46920111111111" lon="132.27966305555555">
<ele>143</ele>
</trkpt>
<trkpt lat="33.46921694444445" lon="132.27996305555556">
<ele>145</ele>
</trkpt>
<trkpt lat="33.469098055555556" lon="132.2801">
<ele>147</ele>
</trkpt>
<trkpt lat="33.469098055555556" lon="132.2801">
<ele>147</ele>
</trkpt>
<trkpt lat="33.469076111111114" lon="132.28012611111112">
<ele>148</ele>
</trkpt>
<trkpt lat="33.46900888888889" lon="132.28022611111112">
<ele>150</ele>
</trkpt>
<trkpt lat="33.46900888888889" lon="132.28035111111112">
<ele>150</ele>
</trkpt>
<trkpt lat="33.46920111111111" lon="132.28061305555556">
<ele>150</ele>
</trkpt>
<trkpt lat="33.46930888888889" lon="132.28078805555555">
<ele>151</ele>
</trkpt>
<trkpt lat="33.46933388888889" lon="132.28091305555554">
<ele>150</ele>
</trkpt>
<trkpt lat="33.469316944444444" lon="132.28098805555555">
<ele>151</ele>
</trkpt>
<trkpt lat="33.469276111111114" lon="132.2810761111111">
<ele>151</ele>
</trkpt>
<trkpt lat="33.469168055555556" lon="132.28116305555557">
<ele>153</ele>
</trkpt>
<trkpt lat="33.469076111111114" lon="132.28122611111112">
<ele>152</ele>
</trkpt>
<trkpt lat="33.46900888888889" lon="132.28121305555555">
<ele>154</ele>
</trkpt>
<trkpt lat="33.468966944444446" lon="132.2811761111111">
<ele>153</ele>
</trkpt>
<trkpt lat="33.46854305555556" lon="132.28043805555555">
<ele>150</ele>
</trkpt>
<trkpt lat="33.46838388888889" lon="132.28021305555555">
<ele>150</ele>
</trkpt>
<trkpt lat="33.46815888888889" lon="132.2799261111111">
<ele>138</ele>
</trkpt>
<trkpt lat="33.46807611111111" lon="132.27976305555555">
<ele>138</ele>
</trkpt>
<trkpt lat="33.46795111111111" lon="132.2793761111111">
<ele>137</ele>
</trkpt>
<trkpt lat="33.467818055555554" lon="132.27910111111112">
<ele>137</ele>
</trkpt>
<trkpt lat="33.467668055555556" lon="132.27888805555557">
<ele>130</ele>
</trkpt>
<trkpt lat="33.46746805555556" lon="132.27851305555555">
<ele>127</ele>
</trkpt>
<trkpt lat="33.46743388888889" lon="132.27842611111112">
<ele>124</ele>
</trkpt>
<trkpt lat="33.46724305555556" lon="132.27783888888888">
<ele>126</ele>
</trkpt>
<trkpt lat="33.467168055555554" lon="132.2776761111111">
<ele>123</ele>
</trkpt>
<trkpt lat="33.46705111111111" lon="132.27752611111111">
<ele>118</ele>
</trkpt>
<trkpt lat="33.46695111111111" lon="132.2774388888889">
<ele>114</ele>
</trkpt>
<trkpt lat="33.46682611111111" lon="132.2773511111111">
<ele>112</ele>
</trkpt>
<trkpt lat="33.46652611111111" lon="132.2773261111111">
<ele>106</ele>
</trkpt>
<trkpt lat="33.46630888888889" lon="132.2772138888889">
<ele>105</ele>
</trkpt>
<trkpt lat="33.46612805555556" lon="132.27694194444445">
<ele>104</ele>
</trkpt>
<trkpt lat="33.46612805555556" lon="132.27694194444445">
<ele>104</ele>
</trkpt>
<trkpt lat="33.46584305555555" lon="132.2765138888889">
<ele>104</ele>
</trkpt>
<trkpt lat="33.465743055555556" lon="132.2760761111111">
<ele>101</ele>
</trkpt>
<trkpt lat="33.465668055555554" lon="132.2759761111111">
<ele>101</ele>
</trkpt>
<trkpt lat="33.46555111111111" lon="132.2759761111111">
<ele>95</ele>
</trkpt>
<trkpt lat="33.46534305555556" lon="132.2760888888889">
<ele>90</ele>
</trkpt>
<trkpt lat="33.465243055555554" lon="132.2762138888889">
<ele>83</ele>
</trkpt>
<trkpt lat="33.46523388888889" lon="132.2764011111111">
<ele>85</ele>
</trkpt>
<trkpt lat="33.46532611111111" lon="132.2765638888889">
<ele>84</ele>
</trkpt>
<trkpt lat="33.46553388888889" lon="132.27681388888888">
<ele>84</ele>
</trkpt>
<trkpt lat="33.46555111111111" lon="132.27691388888888">
<ele>81</ele>
</trkpt>
<trkpt lat="33.465468055555554" lon="132.2773261111111">
<ele>75</ele>
</trkpt>
<trkpt lat="33.465468055555554" lon="132.2774388888889">
<ele>76</ele>
</trkpt>
<trkpt lat="33.46552611111111" lon="132.27758888888889">
<ele>75</ele>
</trkpt>
<trkpt lat="33.46580111111111" lon="132.2778138888889">
<ele>75</ele>
</trkpt>
<trkpt lat="33.46590111111111" lon="132.27795111111112">
<ele>75</ele>
</trkpt>
<trkpt lat="33.46596805555556" lon="132.27807611111112">
<ele>73</ele>
</trkpt>
<trkpt lat="33.46604305555555" lon="132.27830111111112">
<ele>68</ele>
</trkpt>
<trkpt lat="33.46610888888889" lon="132.2784638888889">
<ele>63</ele>
</trkpt>
<trkpt lat="33.46622611111111" lon="132.27863805555555">
<ele>58</ele>
</trkpt>
<trkpt lat="33.466318055555554" lon="132.27875111111112">
<ele>57</ele>
</trkpt>
<trkpt lat="33.46637611111111" lon="132.27886305555555">
<ele>57</ele>
</trkpt>
<trkpt lat="33.46639305555556" lon="132.27901305555557">
<ele>56</ele>
</trkpt>
<trkpt lat="33.466368055555556" lon="132.27911305555557">
<ele>56</ele>
</trkpt>
<trkpt lat="33.466301111111115" lon="132.27921305555554">
<ele>51</ele>
</trkpt>
<trkpt lat="33.466208888888886" lon="132.27930111111112">
<ele>45</ele>
</trkpt>
<trkpt lat="33.46610111111111" lon="132.27932611111112">
<ele>44</ele>
</trkpt>
<trkpt lat="33.46595888888889" lon="132.27928805555555">
<ele>42</ele>
</trkpt>
<trkpt lat="33.46575111111111" lon="132.2791511111111">
<ele>45</ele>
</trkpt>
<trkpt lat="33.46560111111111" lon="132.27897611111112">
<ele>49</ele>
</trkpt>
<trkpt lat="33.46539305555556" lon="132.2786761111111">
<ele>43</ele>
</trkpt>
<trkpt lat="33.465293055555556" lon="132.2785638888889">
<ele>36</ele>
</trkpt>
<trkpt lat="33.46510111111111" lon="132.2784388888889">
<ele>36</ele>
</trkpt>
<trkpt lat="33.464951944444444" lon="132.2783638888889">
<ele>35</ele>
</trkpt>
<trkpt lat="33.464951944444444" lon="132.2783638888889">
<ele>35</ele>
</trkpt>
<trkpt lat="33.46467611111111" lon="132.2782261111111">
<ele>34</ele>
</trkpt>
<trkpt lat="33.46452611111111" lon="132.2781011111111">
<ele>27</ele>
</trkpt>
<trkpt lat="33.46442611111111" lon="132.27797611111112">
<ele>25</ele>
</trkpt>
<trkpt lat="33.46436805555555" lon="132.2777888888889">
<ele>27</ele>
</trkpt>
<trkpt lat="33.46422611111111" lon="132.27726388888888">
<ele>26</ele>
</trkpt>
<trkpt lat="33.46416" lon="132.2771261111111">
<ele>23</ele>
</trkpt>
<trkpt lat="33.46406" lon="132.2770761111111">
<ele>22</ele>
</trkpt>
<trkpt lat="33.463935" lon="132.2771011111111">
<ele>19</ele>
</trkpt>
<trkpt lat="33.46382611111111" lon="132.2772011111111">
<ele>18</ele>
</trkpt>
<trkpt lat="33.463743055555554" lon="132.2774138888889">
<ele>18</ele>
</trkpt>
<trkpt lat="33.46371805555555" lon="132.2776888888889">
<ele>17</ele>
</trkpt>
<trkpt lat="33.46375111111111" lon="132.27797611111112">
<ele>17</ele>
</trkpt>
<trkpt lat="33.46391" lon="132.27838888888888">
<ele>15</ele>
</trkpt>
<trkpt lat="33.46405111111111" lon="132.2787261111111">
<ele>15</ele>
</trkpt>
<trkpt lat="33.464135" lon="132.27898888888888">
<ele>13</ele>
</trkpt>
<trkpt lat="33.46422611111111" lon="132.2793511111111">
<ele>9</ele>
</trkpt>
<trkpt lat="33.464393055555554" lon="132.27983805555556">
<ele>9</ele>
</trkpt>
<trkpt lat="33.46451" lon="132.2801511111111">
<ele>9</ele>
</trkpt>
<trkpt lat="33.46461111111111" lon="132.2804911111111">
<ele>9</ele>
</trkpt>
    </trkseg>
  </trk>
</gpx>