<?xml version="1.0" encoding="UTF-8"?>
<gpx version="1.1"
     creator="KMLtoGPX"
     xmlns="http://www.topografix.com/GPX/1/1">
  <metadata>
    <name>Nakagawa North Course ＜Cycling＞</name>
    <desc>中川・北コース＜サイクリング＞</desc>
    <bounds minlat="44.801586111111114" minlon="142.02382" maxlat="44.88235805555556" maxlon="142.07901694444445"/>
  </metadata>
  <trk>
    <name>Nakagawa North Course ＜Cycling＞</name>
    <trkseg>
<trkpt lat="44.80182888888889" lon="142.07459111111112">
<ele>28</ele>
</trkpt>
<trkpt lat="44.80184388888889" lon="142.07420888888888">
<ele>28</ele>
</trkpt>
<trkpt lat="44.80183611111111" lon="142.0741711111111">
<ele>28</ele>
</trkpt>
<trkpt lat="44.801811111111114" lon="142.07407111111112">
<ele>28</ele>
</trkpt>
<trkpt lat="44.801586111111114" lon="142.07328388888888">
<ele>26</ele>
</trkpt>
<trkpt lat="44.801586111111114" lon="142.0731461111111">
<ele>25</ele>
</trkpt>
<trkpt lat="44.801586111111114" lon="142.0727961111111">
<ele>24</ele>
</trkpt>
<trkpt lat="44.801586111111114" lon="142.0726838888889">
<ele>23</ele>
</trkpt>
<trkpt lat="44.80307694444444" lon="142.0728838888889">
<ele>27</ele>
</trkpt>
<trkpt lat="44.803401944444445" lon="142.07284611111112">
<ele>26</ele>
</trkpt>
<trkpt lat="44.80370194444444" lon="142.0726588888889">
<ele>25</ele>
</trkpt>
<trkpt lat="44.80417694444444" lon="142.0723461111111">
<ele>24</ele>
</trkpt>
<trkpt lat="44.80440611111111" lon="142.07220694444445">
<ele>23</ele>
</trkpt>
<trkpt lat="44.80440611111111" lon="142.07220694444445">
<ele>23</ele>
</trkpt>
<trkpt lat="44.804876944444445" lon="142.07192111111112">
<ele>22</ele>
</trkpt>
<trkpt lat="44.80502694444444" lon="142.07183388888888">
<ele>22</ele>
</trkpt>
<trkpt lat="44.805368055555554" lon="142.07170888888888">
<ele>21</ele>
</trkpt>
<trkpt lat="44.805751944444445" lon="142.0717461111111">
<ele>21</ele>
</trkpt>
<trkpt lat="44.805926944444444" lon="142.0717588888889">
<ele>21</ele>
</trkpt>
<trkpt lat="44.80692694444444" lon="142.0718961111111">
<ele>22</ele>
</trkpt>
<trkpt lat="44.809043055555556" lon="142.07218305555554">
<ele>21</ele>
</trkpt>
<trkpt lat="44.80909305555556" lon="142.0721961111111">
<ele>21</ele>
</trkpt>
<trkpt lat="44.809218055555554" lon="142.0722211111111">
<ele>21</ele>
</trkpt>
<trkpt lat="44.81017611111111" lon="142.0725711111111">
<ele>22</ele>
</trkpt>
<trkpt lat="44.81125888888889" lon="142.07295805555555">
<ele>23</ele>
</trkpt>
<trkpt lat="44.81233388888889" lon="142.07335805555556">
<ele>24</ele>
</trkpt>
<trkpt lat="44.81316805555556" lon="142.07367">
<ele>24</ele>
</trkpt>
<trkpt lat="44.81336694444445" lon="142.07372">
<ele>24</ele>
</trkpt>
<trkpt lat="44.81496805555555" lon="142.07433194444445">
<ele>23</ele>
</trkpt>
<trkpt lat="44.81556694444444" lon="142.074545">
<ele>23</ele>
</trkpt>
<trkpt lat="44.815695" lon="142.07458694444443">
<ele>23</ele>
</trkpt>
<trkpt lat="44.815695" lon="142.07458694444443">
<ele>23</ele>
</trkpt>
<trkpt lat="44.816316944444445" lon="142.074795">
<ele>22</ele>
</trkpt>
<trkpt lat="44.81683388888889" lon="142.07490694444445">
<ele>22</ele>
</trkpt>
<trkpt lat="44.81724194444445" lon="142.074995">
<ele>21</ele>
</trkpt>
<trkpt lat="44.81803388888889" lon="142.07510694444446">
<ele>21</ele>
</trkpt>
<trkpt lat="44.81838388888889" lon="142.07515694444444">
<ele>21</ele>
</trkpt>
<trkpt lat="44.81859194444444" lon="142.075195">
<ele>21</ele>
</trkpt>
<trkpt lat="44.81945" lon="142.07533194444446">
<ele>20</ele>
</trkpt>
<trkpt lat="44.820525" lon="142.07550694444444">
<ele>20</ele>
</trkpt>
<trkpt lat="44.820825" lon="142.07555694444446">
<ele>20</ele>
</trkpt>
<trkpt lat="44.82168305555555" lon="142.07569388888888">
<ele>20</ele>
</trkpt>
<trkpt lat="44.822116944444446" lon="142.0757688888889">
<ele>20</ele>
</trkpt>
<trkpt lat="44.82225805555556" lon="142.07581888888888">
<ele>20</ele>
</trkpt>
<trkpt lat="44.8224" lon="142.0758688888889">
<ele>20</ele>
</trkpt>
<trkpt lat="44.82310805555556" lon="142.0766688888889">
<ele>20</ele>
</trkpt>
<trkpt lat="44.8233" lon="142.0768938888889">
<ele>20</ele>
</trkpt>
<trkpt lat="44.82373305555556" lon="142.07735694444443">
<ele>20</ele>
</trkpt>
<trkpt lat="44.824333055555556" lon="142.0777561111111">
<ele>20</ele>
</trkpt>
<trkpt lat="44.82495" lon="142.07808111111112">
<ele>21</ele>
</trkpt>
<trkpt lat="44.82575805555555" lon="142.0784938888889">
<ele>21</ele>
</trkpt>
<trkpt lat="44.82641611111111" lon="142.0787061111111">
<ele>21</ele>
</trkpt>
<trkpt lat="44.82657388888889" lon="142.0786688888889">
<ele>20</ele>
</trkpt>
<trkpt lat="44.82696611111111" lon="142.07851888888888">
<ele>20</ele>
</trkpt>
<trkpt lat="44.82816305555556" lon="142.0776211111111">
<ele>20</ele>
</trkpt>
<trkpt lat="44.82816305555556" lon="142.0776211111111">
<ele>20</ele>
</trkpt>
<trkpt lat="44.829298888888886" lon="142.0767688888889">
<ele>20</ele>
</trkpt>
<trkpt lat="44.82969111111111" lon="142.0765311111111">
<ele>20</ele>
</trkpt>
<trkpt lat="44.82999111111111" lon="142.07649388888888">
<ele>20</ele>
</trkpt>
<trkpt lat="44.830373888888886" lon="142.0766311111111">
<ele>20</ele>
</trkpt>
<trkpt lat="44.83084888888889" lon="142.07699305555556">
<ele>20</ele>
</trkpt>
<trkpt lat="44.83169111111111" lon="142.07798111111111">
<ele>14</ele>
</trkpt>
<trkpt lat="44.83237388888889" lon="142.0784561111111">
<ele>17</ele>
</trkpt>
<trkpt lat="44.83257388888889" lon="142.07853111111112">
<ele>17</ele>
</trkpt>
<trkpt lat="44.83293194444445" lon="142.07865611111112">
<ele>18</ele>
</trkpt>
<trkpt lat="44.83348194444444" lon="142.0786811111111">
<ele>19</ele>
</trkpt>
<trkpt lat="44.835115" lon="142.0781561111111">
<ele>18</ele>
</trkpt>
<trkpt lat="44.83560694444444" lon="142.07798111111111">
<ele>16</ele>
</trkpt>
<trkpt lat="44.835923055555554" lon="142.07799305555557">
<ele>11</ele>
</trkpt>
<trkpt lat="44.836573055555554" lon="142.07811805555556">
<ele>18</ele>
</trkpt>
<trkpt lat="44.83668194444444" lon="142.07816805555555">
<ele>17</ele>
</trkpt>
<trkpt lat="44.83795611111111" lon="142.07841805555555">
<ele>17</ele>
</trkpt>
<trkpt lat="44.83976388888889" lon="142.078905">
<ele>16</ele>
</trkpt>
<trkpt lat="44.840381111111114" lon="142.07901694444445">
<ele>16</ele>
</trkpt>
<trkpt lat="44.84083888888889" lon="142.07893">
<ele>15</ele>
</trkpt>
<trkpt lat="44.84090611111111" lon="142.07893">
<ele>16</ele>
</trkpt>
<trkpt lat="44.84102305555555" lon="142.07888">
<ele>15</ele>
</trkpt>
<trkpt lat="44.84148111111111" lon="142.078555">
<ele>14</ele>
</trkpt>
<trkpt lat="44.842531111111114" lon="142.07728">
<ele>10</ele>
</trkpt>
<trkpt lat="44.84303111111111" lon="142.076855">
<ele>11</ele>
</trkpt>
<trkpt lat="44.84343111111111" lon="142.076655">
<ele>11</ele>
</trkpt>
<trkpt lat="44.84385611111111" lon="142.07644305555556">
<ele>20</ele>
</trkpt>
<trkpt lat="44.84480611111111" lon="142.07599194444444">
<ele>22</ele>
</trkpt>
<trkpt lat="44.84513888888889" lon="142.07583">
<ele>23</ele>
</trkpt>
<trkpt lat="44.84611388888889" lon="142.075355">
<ele>25</ele>
</trkpt>
<trkpt lat="44.84661388888889" lon="142.07518">
<ele>24</ele>
</trkpt>
<trkpt lat="44.846846944444444" lon="142.07511694444443">
<ele>24</ele>
</trkpt>
<trkpt lat="44.849963055555556" lon="142.07515388888888">
<ele>19</ele>
</trkpt>
<trkpt lat="44.850546111111115" lon="142.07516694444445">
<ele>20</ele>
</trkpt>
<trkpt lat="44.85114611111111" lon="142.0751788888889">
<ele>25</ele>
</trkpt>
<trkpt lat="44.85254805555556" lon="142.0752161111111">
<ele>23</ele>
</trkpt>
<trkpt lat="44.85254805555556" lon="142.0752161111111">
<ele>23</ele>
</trkpt>
<trkpt lat="44.85303805555556" lon="142.0752288888889">
<ele>22</ele>
</trkpt>
<trkpt lat="44.853813055555555" lon="142.07514194444445">
<ele>22</ele>
</trkpt>
<trkpt lat="44.85471305555556" lon="142.0748538888889">
<ele>22</ele>
</trkpt>
<trkpt lat="44.85520388888889" lon="142.07464194444444">
<ele>21</ele>
</trkpt>
<trkpt lat="44.85617888888889" lon="142.07411694444446">
<ele>23</ele>
</trkpt>
<trkpt lat="44.85742111111111" lon="142.07310388888888">
<ele>21</ele>
</trkpt>
<trkpt lat="44.858336944444446" lon="142.07217888888889">
<ele>20</ele>
</trkpt>
<trkpt lat="44.858945" lon="142.07134194444444">
<ele>21</ele>
</trkpt>
<trkpt lat="44.85948694444444" lon="142.07039194444445">
<ele>22</ele>
</trkpt>
<trkpt lat="44.859811944444445" lon="142.06981694444445">
<ele>22</ele>
</trkpt>
<trkpt lat="44.86057805555556" lon="142.06851694444444">
<ele>21</ele>
</trkpt>
<trkpt lat="44.86237" lon="142.06619194444445">
<ele>20</ele>
</trkpt>
<trkpt lat="44.86409388888889" lon="142.06406694444445">
<ele>17</ele>
</trkpt>
<trkpt lat="44.865453055555555" lon="142.06268">
<ele>18</ele>
</trkpt>
<trkpt lat="44.86573611111111" lon="142.06209194444443">
<ele>16</ele>
</trkpt>
<trkpt lat="44.86634388888889" lon="142.06049194444444">
<ele>19</ele>
</trkpt>
<trkpt lat="44.86691111111111" lon="142.059505">
<ele>20</ele>
</trkpt>
<trkpt lat="44.86761888888889" lon="142.05861694444445">
<ele>21</ele>
</trkpt>
<trkpt lat="44.86893611111111" lon="142.057205">
<ele>19</ele>
</trkpt>
<trkpt lat="44.870085" lon="142.056205">
<ele>19</ele>
</trkpt>
<trkpt lat="44.87106" lon="142.055555">
<ele>18</ele>
</trkpt>
<trkpt lat="44.87236" lon="142.05478">
<ele>18</ele>
</trkpt>
<trkpt lat="44.87412611111111" lon="142.05386694444445">
<ele>18</ele>
</trkpt>
<trkpt lat="44.876108888888886" lon="142.05313">
<ele>16</ele>
</trkpt>
<trkpt lat="44.87688388888889" lon="142.05294194444446">
<ele>14</ele>
</trkpt>
<trkpt lat="44.87750888888889" lon="142.052655">
<ele>17</ele>
</trkpt>
<trkpt lat="44.87765111111111" lon="142.052555">
<ele>18</ele>
</trkpt>
<trkpt lat="44.878368055555555" lon="142.05204194444445">
<ele>18</ele>
</trkpt>
<trkpt lat="44.87905194444444" lon="142.0516638888889">
<ele>18</ele>
</trkpt>
<trkpt lat="44.87905194444444" lon="142.0516638888889">
<ele>18</ele>
</trkpt>
<trkpt lat="44.87925111111111" lon="142.051555">
<ele>18</ele>
</trkpt>
<trkpt lat="44.88020111111111" lon="142.05126694444445">
<ele>19</ele>
</trkpt>
<trkpt lat="44.88005111111111" lon="142.050455">
<ele>17</ele>
</trkpt>
<trkpt lat="44.87974194444445" lon="142.04858">
<ele>13</ele>
</trkpt>
<trkpt lat="44.87965111111111" lon="142.04819194444445">
<ele>13</ele>
</trkpt>
<trkpt lat="44.87950111111111" lon="142.04794305555555">
<ele>12</ele>
</trkpt>
<trkpt lat="44.87929194444445" lon="142.047605">
<ele>12</ele>
</trkpt>
<trkpt lat="44.87907611111111" lon="142.047405">
<ele>11</ele>
</trkpt>
<trkpt lat="44.87871694444444" lon="142.04718">
<ele>10</ele>
</trkpt>
<trkpt lat="44.87857611111111" lon="142.047105">
<ele>10</ele>
</trkpt>
<trkpt lat="44.876111944444446" lon="142.0457738888889">
<ele>11</ele>
</trkpt>
<trkpt lat="44.876111944444446" lon="142.0457738888889">
<ele>11</ele>
</trkpt>
<trkpt lat="44.87580111111111" lon="142.0456061111111">
<ele>12</ele>
</trkpt>
<trkpt lat="44.87555111111111" lon="142.04546805555555">
<ele>12</ele>
</trkpt>
<trkpt lat="44.87586694444445" lon="142.04486805555555">
<ele>12</ele>
</trkpt>
<trkpt lat="44.87639305555555" lon="142.04333111111112">
<ele>11</ele>
</trkpt>
<trkpt lat="44.876891944444445" lon="142.0414188888889">
<ele>12</ele>
</trkpt>
<trkpt lat="44.87721694444444" lon="142.04049388888888">
<ele>11</ele>
</trkpt>
<trkpt lat="44.880383055555555" lon="142.0341061111111">
<ele>12</ele>
</trkpt>
<trkpt lat="44.88185" lon="142.0310438888889">
<ele>11</ele>
</trkpt>
<trkpt lat="44.88203305555555" lon="142.03035694444443">
<ele>11</ele>
</trkpt>
<trkpt lat="44.88224694444445" lon="142.02917">
<ele>11</ele>
</trkpt>
<trkpt lat="44.88224694444445" lon="142.02917">
<ele>11</ele>
</trkpt>
<trkpt lat="44.882283055555554" lon="142.0289688888889">
<ele>11</ele>
</trkpt>
<trkpt lat="44.88235805555556" lon="142.0274188888889">
<ele>12</ele>
</trkpt>
<trkpt lat="44.882333055555556" lon="142.02685694444443">
<ele>13</ele>
</trkpt>
<trkpt lat="44.882283055555554" lon="142.02653194444446">
<ele>13</ele>
</trkpt>
<trkpt lat="44.88214111111111" lon="142.02632">
<ele>14</ele>
</trkpt>
<trkpt lat="44.88201611111111" lon="142.026245">
<ele>14</ele>
</trkpt>
<trkpt lat="44.88139888888889" lon="142.025845">
<ele>14</ele>
</trkpt>
<trkpt lat="44.88136611111111" lon="142.025795">
<ele>14</ele>
</trkpt>
<trkpt lat="44.88055" lon="142.02498305555557">
<ele>14</ele>
</trkpt>
<trkpt lat="44.87965388888889" lon="142.0241438888889">
<ele>15</ele>
</trkpt>
<trkpt lat="44.87965388888889" lon="142.0241438888889">
<ele>15</ele>
</trkpt>
<trkpt lat="44.879308055555555" lon="142.02382">
<ele>15</ele>
</trkpt>
<trkpt lat="44.878233055555555" lon="142.02598305555554">
<ele>16</ele>
</trkpt>
<trkpt lat="44.877408055555556" lon="142.02755805555555">
<ele>20</ele>
</trkpt>
<trkpt lat="44.87699194444444" lon="142.02805694444444">
<ele>20</ele>
</trkpt>
<trkpt lat="44.875975" lon="142.029295">
<ele>22</ele>
</trkpt>
<trkpt lat="44.875098888888886" lon="142.03035111111112">
<ele>23</ele>
</trkpt>
<trkpt lat="44.875098888888886" lon="142.03035111111112">
<ele>23</ele>
</trkpt>
<trkpt lat="44.87457611111111" lon="142.03098194444445">
<ele>23</ele>
</trkpt>
<trkpt lat="44.87399194444444" lon="142.031845">
<ele>21</ele>
</trkpt>
<trkpt lat="44.87289194444445" lon="142.03430694444444">
<ele>23</ele>
</trkpt>
<trkpt lat="44.87250888888889" lon="142.03560694444445">
<ele>19</ele>
</trkpt>
<trkpt lat="44.87220888888889" lon="142.03683194444446">
<ele>16</ele>
</trkpt>
<trkpt lat="44.87175111111111" lon="142.0387188888889">
<ele>17</ele>
</trkpt>
<trkpt lat="44.87152611111111" lon="142.0393688888889">
<ele>18</ele>
</trkpt>
<trkpt lat="44.870693055555556" lon="142.04108194444444">
<ele>17</ele>
</trkpt>
<trkpt lat="44.87072611111111" lon="142.0410811111111">
<ele>17</ele>
</trkpt>
<trkpt lat="44.87433388888889" lon="142.04459305555557">
<ele>13</ele>
</trkpt>
<trkpt lat="44.87495111111111" lon="142.04509305555555">
<ele>13</ele>
</trkpt>
<trkpt lat="44.875166944444445" lon="142.04522805555555">
<ele>12</ele>
</trkpt>
<trkpt lat="44.875166944444445" lon="142.04522805555555">
<ele>12</ele>
</trkpt>
<trkpt lat="44.87555111111111" lon="142.04546805555555">
<ele>12</ele>
</trkpt>
<trkpt lat="44.87440888888889" lon="142.04701805555555">
<ele>11</ele>
</trkpt>
<trkpt lat="44.87385888888889" lon="142.0475311111111">
<ele>11</ele>
</trkpt>
<trkpt lat="44.873401111111114" lon="142.04785611111112">
<ele>11</ele>
</trkpt>
<trkpt lat="44.87307694444444" lon="142.0479288888889">
<ele>11</ele>
</trkpt>
<trkpt lat="44.87307694444444" lon="142.0479288888889">
<ele>11</ele>
</trkpt>
<trkpt lat="44.87274305555555" lon="142.0480061111111">
<ele>11</ele>
</trkpt>
<trkpt lat="44.872143055555554" lon="142.0480061111111">
<ele>10</ele>
</trkpt>
<trkpt lat="44.86891" lon="142.04740611111112">
<ele>14</ele>
</trkpt>
<trkpt lat="44.868451944444445" lon="142.0473311111111">
<ele>15</ele>
</trkpt>
<trkpt lat="44.867735" lon="142.0473561111111">
<ele>15</ele>
</trkpt>
<trkpt lat="44.867185" lon="142.0475688888889">
<ele>15</ele>
</trkpt>
<trkpt lat="44.86685194444444" lon="142.0478061111111">
<ele>14</ele>
</trkpt>
<trkpt lat="44.86494388888889" lon="142.04933111111112">
<ele>14</ele>
</trkpt>
<trkpt lat="44.86371111111111" lon="142.0502938888889">
<ele>15</ele>
</trkpt>
<trkpt lat="44.86258611111111" lon="142.05148111111112">
<ele>14</ele>
</trkpt>
<trkpt lat="44.861941944444446" lon="142.05244694444445">
<ele>13</ele>
</trkpt>
<trkpt lat="44.861941944444446" lon="142.05244694444445">
<ele>13</ele>
</trkpt>
<trkpt lat="44.86186111111111" lon="142.05256888888889">
<ele>13</ele>
</trkpt>
<trkpt lat="44.86147805555556" lon="142.05354305555556">
<ele>12</ele>
</trkpt>
<trkpt lat="44.86087" lon="142.05529305555555">
<ele>11</ele>
</trkpt>
<trkpt lat="44.86047" lon="142.05671805555556">
<ele>11</ele>
</trkpt>
<trkpt lat="44.86035305555556" lon="142.05713111111112">
<ele>11</ele>
</trkpt>
<trkpt lat="44.859836944444446" lon="142.05841805555556">
<ele>11</ele>
</trkpt>
<trkpt lat="44.85951194444444" lon="142.05905611111112">
<ele>11</ele>
</trkpt>
<trkpt lat="44.858628055555556" lon="142.06029305555555">
<ele>11</ele>
</trkpt>
<trkpt lat="44.858061944444444" lon="142.060905">
<ele>11</ele>
</trkpt>
<trkpt lat="44.85758888888889" lon="142.06120305555555">
<ele>11</ele>
</trkpt>
<trkpt lat="44.85758888888889" lon="142.06120305555555">
<ele>11</ele>
</trkpt>
<trkpt lat="44.85738694444444" lon="142.06133111111112">
<ele>11</ele>
</trkpt>
<trkpt lat="44.85708694444445" lon="142.06144305555554">
<ele>11</ele>
</trkpt>
<trkpt lat="44.856845" lon="142.06153111111112">
<ele>11</ele>
</trkpt>
<trkpt lat="44.856028888888886" lon="142.06174305555555">
<ele>11</ele>
</trkpt>
<trkpt lat="44.85517111111111" lon="142.0617311111111">
<ele>11</ele>
</trkpt>
<trkpt lat="44.85457111111111" lon="142.06155611111112">
<ele>11</ele>
</trkpt>
<trkpt lat="44.853211944444446" lon="142.06089305555557">
<ele>12</ele>
</trkpt>
<trkpt lat="44.852511944444444" lon="142.06065611111111">
<ele>12</ele>
</trkpt>
<trkpt lat="44.85177888888889" lon="142.0604811111111">
<ele>12</ele>
</trkpt>
<trkpt lat="44.85113805555556" lon="142.06050611111112">
<ele>13</ele>
</trkpt>
<trkpt lat="44.850521111111114" lon="142.06073111111112">
<ele>13</ele>
</trkpt>
<trkpt lat="44.847208888888886" lon="142.06328805555555">
<ele>11</ele>
</trkpt>
<trkpt lat="44.847208888888886" lon="142.06328805555555">
<ele>11</ele>
</trkpt>
<trkpt lat="44.84538888888889" lon="142.06469388888888">
<ele>11</ele>
</trkpt>
<trkpt lat="44.844788888888885" lon="142.0653061111111">
<ele>11</ele>
</trkpt>
<trkpt lat="44.84398" lon="142.0663311111111">
<ele>12</ele>
</trkpt>
<trkpt lat="44.84243111111111" lon="142.06889305555555">
<ele>11</ele>
</trkpt>
<trkpt lat="44.84083888888889" lon="142.07154305555557">
<ele>12</ele>
</trkpt>
<trkpt lat="44.84032305555556" lon="142.07219305555554">
<ele>12</ele>
</trkpt>
<trkpt lat="44.83975111111111" lon="142.0727688888889">
<ele>13</ele>
</trkpt>
<trkpt lat="44.83975111111111" lon="142.0727688888889">
<ele>13</ele>
</trkpt>
<trkpt lat="44.83973888888889" lon="142.0727811111111">
<ele>13</ele>
</trkpt>
<trkpt lat="44.83925611111111" lon="142.07308111111112">
<ele>13</ele>
</trkpt>
<trkpt lat="44.83858111111111" lon="142.07330611111112">
<ele>14</ele>
</trkpt>
<trkpt lat="44.83843111111111" lon="142.07334305555557">
<ele>13</ele>
</trkpt>
<trkpt lat="44.83755611111111" lon="142.07346805555557">
<ele>13</ele>
</trkpt>
<trkpt lat="44.83698111111111" lon="142.0733561111111">
<ele>11</ele>
</trkpt>
<trkpt lat="44.83560694444444" lon="142.07288111111112">
<ele>10</ele>
</trkpt>
<trkpt lat="44.83348194444444" lon="142.0722438888889">
<ele>11</ele>
</trkpt>
<trkpt lat="44.83185111111111" lon="142.07175388888888">
<ele>10</ele>
</trkpt>
<trkpt lat="44.83185111111111" lon="142.07175388888888">
<ele>10</ele>
</trkpt>
<trkpt lat="44.827533055555556" lon="142.07045694444443">
<ele>10</ele>
</trkpt>
<trkpt lat="44.825223888888885" lon="142.06972">
<ele>12</ele>
</trkpt>
<trkpt lat="44.82214694444444" lon="142.068725">
<ele>16</ele>
</trkpt>
<trkpt lat="44.82214694444444" lon="142.068725">
<ele>16</ele>
</trkpt>
<trkpt lat="44.81923305555556" lon="142.06778305555557">
<ele>20</ele>
</trkpt>
<trkpt lat="44.818958055555555" lon="142.06775805555554">
<ele>20</ele>
</trkpt>
<trkpt lat="44.818466944444445" lon="142.06762111111112">
<ele>19</ele>
</trkpt>
<trkpt lat="44.81706694444444" lon="142.06723305555556">
<ele>18</ele>
</trkpt>
<trkpt lat="44.815176111111114" lon="142.06665805555556">
<ele>19</ele>
</trkpt>
<trkpt lat="44.81265888888889" lon="142.06603388888888">
<ele>19</ele>
</trkpt>
<trkpt lat="44.811526111111114" lon="142.0659838888889">
<ele>19</ele>
</trkpt>
<trkpt lat="44.81104305555556" lon="142.06605888888888">
<ele>19</ele>
</trkpt>
<trkpt lat="44.810518888888886" lon="142.0661738888889">
<ele>19</ele>
</trkpt>
<trkpt lat="44.810518888888886" lon="142.0661738888889">
<ele>19</ele>
</trkpt>
<trkpt lat="44.80735111111111" lon="142.0668711111111">
<ele>20</ele>
</trkpt>
<trkpt lat="44.805343055555554" lon="142.0673088888889">
<ele>20</ele>
</trkpt>
<trkpt lat="44.80319388888889" lon="142.06767194444444">
<ele>20</ele>
</trkpt>
<trkpt lat="44.80316" lon="142.06767194444444">
<ele>20</ele>
</trkpt>
<trkpt lat="44.80319388888889" lon="142.06797194444445">
<ele>20</ele>
</trkpt>
<trkpt lat="44.80323888888889" lon="142.06839805555555">
<ele>20</ele>
</trkpt>
<trkpt lat="44.80323888888889" lon="142.06839805555555">
<ele>20</ele>
</trkpt>
<trkpt lat="44.80367694444445" lon="142.0724711111111">
<ele>25</ele>
</trkpt>
<trkpt lat="44.80370194444444" lon="142.0726588888889">
<ele>25</ele>
</trkpt>
<trkpt lat="44.803401944444445" lon="142.07284611111112">
<ele>26</ele>
</trkpt>
<trkpt lat="44.80307694444444" lon="142.0728838888889">
<ele>27</ele>
</trkpt>
<trkpt lat="44.801586111111114" lon="142.0726838888889">
<ele>23</ele>
</trkpt>
<trkpt lat="44.801586111111114" lon="142.0727961111111">
<ele>24</ele>
</trkpt>
<trkpt lat="44.801586111111114" lon="142.0731461111111">
<ele>25</ele>
</trkpt>
<trkpt lat="44.801586111111114" lon="142.07328388888888">
<ele>26</ele>
</trkpt>
<trkpt lat="44.801811111111114" lon="142.07407111111112">
<ele>28</ele>
</trkpt>
<trkpt lat="44.80183611111111" lon="142.0741711111111">
<ele>28</ele>
</trkpt>
<trkpt lat="44.80174888888889" lon="142.07421305555556">
<ele>27</ele>
</trkpt>
    </trkseg>
  </trk>
</gpx>