<?xml version="1.0" encoding="UTF-8"?>
<gpx version="1.1"
     creator="KMLtoGPX"
     xmlns="http://www.topografix.com/GPX/1/1">
  <metadata>
    <name>A luxurious course to enjoy both the sea and the mountains!</name>
    <desc>海も山も贅沢満喫コース！</desc>
    <bounds minlat="32.04432" minlon="130.17060694444444" maxlat="32.12844305555556" maxlon="130.35992694444445"/>
  </metadata>
  <trk>
    <name>A luxurious course to enjoy both the sea and the mountains!</name>
    <trkseg>
<trkpt lat="32.09721305555556" lon="130.34412694444444">
<ele>9</ele>
</trkpt>
<trkpt lat="32.097231944444445" lon="130.34410805555555">
<ele>9</ele>
</trkpt>
<trkpt lat="32.09717388888889" lon="130.343945">
<ele>9</ele>
</trkpt>
<trkpt lat="32.09710694444444" lon="130.34377">
<ele>9</ele>
</trkpt>
<trkpt lat="32.09704888888889" lon="130.34363305555556">
<ele>9</ele>
</trkpt>
<trkpt lat="32.09701611111111" lon="130.34353305555555">
<ele>9</ele>
</trkpt>
<trkpt lat="32.09697388888889" lon="130.343345">
<ele>9</ele>
</trkpt>
<trkpt lat="32.096831944444446" lon="130.34295805555556">
<ele>9</ele>
</trkpt>
<trkpt lat="32.09679111111111" lon="130.34275805555555">
<ele>9</ele>
</trkpt>
<trkpt lat="32.09667388888889" lon="130.342445">
<ele>9</ele>
</trkpt>
<trkpt lat="32.09663194444445" lon="130.34233194444445">
<ele>9</ele>
</trkpt>
<trkpt lat="32.09659111111111" lon="130.34213305555556">
<ele>9</ele>
</trkpt>
<trkpt lat="32.09653194444444" lon="130.34198305555554">
<ele>9</ele>
</trkpt>
<trkpt lat="32.09644888888889" lon="130.34172">
<ele>9</ele>
</trkpt>
<trkpt lat="32.096356944444445" lon="130.34140805555555">
<ele>9</ele>
</trkpt>
<trkpt lat="32.09624111111111" lon="130.341095">
<ele>9</ele>
</trkpt>
<trkpt lat="32.096223888888886" lon="130.34100805555556">
<ele>9</ele>
</trkpt>
<trkpt lat="32.09617388888889" lon="130.34083305555555">
<ele>9</ele>
</trkpt>
<trkpt lat="32.09610694444444" lon="130.340695">
<ele>9</ele>
</trkpt>
<trkpt lat="32.09604888888889" lon="130.34052">
<ele>9</ele>
</trkpt>
<trkpt lat="32.09602388888889" lon="130.34037">
<ele>9</ele>
</trkpt>
<trkpt lat="32.09584888888889" lon="130.33988305555556">
<ele>9</ele>
</trkpt>
<trkpt lat="32.09583194444444" lon="130.33977">
<ele>9</ele>
</trkpt>
<trkpt lat="32.09562388888889" lon="130.33918305555557">
<ele>10</ele>
</trkpt>
<trkpt lat="32.095585" lon="130.33921805555556">
<ele>10</ele>
</trkpt>
<trkpt lat="32.095585" lon="130.33921805555556">
<ele>10</ele>
</trkpt>
<trkpt lat="32.09562388888889" lon="130.33918305555557">
<ele>10</ele>
</trkpt>
<trkpt lat="32.095773888888885" lon="130.33903305555555">
<ele>9</ele>
</trkpt>
<trkpt lat="32.09596611111111" lon="130.33880805555555">
<ele>9</ele>
</trkpt>
<trkpt lat="32.09619111111111" lon="130.33852">
<ele>9</ele>
</trkpt>
<trkpt lat="32.09665694444445" lon="130.33780805555554">
<ele>10</ele>
</trkpt>
<trkpt lat="32.09704" lon="130.33723305555554">
<ele>9</ele>
</trkpt>
<trkpt lat="32.09728194444445" lon="130.3368461111111">
<ele>10</ele>
</trkpt>
<trkpt lat="32.097631944444444" lon="130.33642111111112">
<ele>9</ele>
</trkpt>
<trkpt lat="32.09779888888889" lon="130.3362461111111">
<ele>9</ele>
</trkpt>
<trkpt lat="32.09798194444444" lon="130.33607111111112">
<ele>9</ele>
</trkpt>
<trkpt lat="32.09807388888889" lon="130.33600805555557">
<ele>9</ele>
</trkpt>
<trkpt lat="32.098265" lon="130.33585805555555">
<ele>9</ele>
</trkpt>
<trkpt lat="32.098531944444446" lon="130.33568305555556">
<ele>9</ele>
</trkpt>
<trkpt lat="32.09879" lon="130.33555805555557">
<ele>8</ele>
</trkpt>
<trkpt lat="32.09909805555556" lon="130.33543305555557">
<ele>9</ele>
</trkpt>
<trkpt lat="32.09972305555556" lon="130.33525805555556">
<ele>8</ele>
</trkpt>
<trkpt lat="32.100031944444446" lon="130.3351461111111">
<ele>8</ele>
</trkpt>
<trkpt lat="32.10013194444444" lon="130.33510805555557">
<ele>8</ele>
</trkpt>
<trkpt lat="32.10037305555556" lon="130.3349961111111">
<ele>8</ele>
</trkpt>
<trkpt lat="32.10064805555555" lon="130.33485805555554">
<ele>8</ele>
</trkpt>
<trkpt lat="32.10084805555555" lon="130.33473305555555">
<ele>8</ele>
</trkpt>
<trkpt lat="32.101306111111114" lon="130.3344211111111">
<ele>8</ele>
</trkpt>
<trkpt lat="32.10237305555555" lon="130.3336461111111">
<ele>7</ele>
</trkpt>
<trkpt lat="32.10449805555555" lon="130.33208305555556">
<ele>5</ele>
</trkpt>
<trkpt lat="32.10505611111111" lon="130.33167111111112">
<ele>5</ele>
</trkpt>
<trkpt lat="32.106248055555554" lon="130.33078305555554">
<ele>4</ele>
</trkpt>
<trkpt lat="32.108781111111114" lon="130.32893305555555">
<ele>4</ele>
</trkpt>
<trkpt lat="32.10897194444444" lon="130.3287961111111">
<ele>4</ele>
</trkpt>
<trkpt lat="32.110571944444445" lon="130.32760805555554">
<ele>3</ele>
</trkpt>
<trkpt lat="32.11063194444444" lon="130.327565">
<ele>3</ele>
</trkpt>
<trkpt lat="32.11063194444444" lon="130.327565">
<ele>3</ele>
</trkpt>
<trkpt lat="32.110571944444445" lon="130.32760805555554">
<ele>3</ele>
</trkpt>
<trkpt lat="32.11096388888889" lon="130.32833305555556">
<ele>3</ele>
</trkpt>
<trkpt lat="32.11117194444444" lon="130.3286961111111">
<ele>4</ele>
</trkpt>
<trkpt lat="32.111471944444446" lon="130.32925805555556">
<ele>4</ele>
</trkpt>
<trkpt lat="32.111671944444446" lon="130.32964611111112">
<ele>4</ele>
</trkpt>
<trkpt lat="32.11174694444444" lon="130.3297711111111">
<ele>4</ele>
</trkpt>
<trkpt lat="32.11219694444444" lon="130.3306211111111">
<ele>4</ele>
</trkpt>
<trkpt lat="32.11267194444444" lon="130.3315211111111">
<ele>4</ele>
</trkpt>
<trkpt lat="32.11376305555556" lon="130.3335711111111">
<ele>4</ele>
</trkpt>
<trkpt lat="32.113821944444446" lon="130.33369611111112">
<ele>4</ele>
</trkpt>
<trkpt lat="32.11441305555555" lon="130.3347961111111">
<ele>4</ele>
</trkpt>
<trkpt lat="32.11463805555555" lon="130.33523305555556">
<ele>4</ele>
</trkpt>
<trkpt lat="32.11467888888889" lon="130.3352111111111">
<ele>4</ele>
</trkpt>
<trkpt lat="32.11467888888889" lon="130.3352111111111">
<ele>4</ele>
</trkpt>
<trkpt lat="32.11534694444445" lon="130.33485805555554">
<ele>4</ele>
</trkpt>
<trkpt lat="32.11562194444444" lon="130.33472111111112">
<ele>4</ele>
</trkpt>
<trkpt lat="32.115955" lon="130.33453305555557">
<ele>4</ele>
</trkpt>
<trkpt lat="32.116405" lon="130.33430805555557">
<ele>3</ele>
</trkpt>
<trkpt lat="32.11799611111111" lon="130.33348305555555">
<ele>2</ele>
</trkpt>
<trkpt lat="32.11826305555556" lon="130.33333305555556">
<ele>2</ele>
</trkpt>
<trkpt lat="32.11848" lon="130.33320805555556">
<ele>1</ele>
</trkpt>
<trkpt lat="32.118605" lon="130.33314611111112">
<ele>1</ele>
</trkpt>
<trkpt lat="32.11883" lon="130.33302111111112">
<ele>1</ele>
</trkpt>
<trkpt lat="32.119388055555554" lon="130.33270805555554">
<ele>1</ele>
</trkpt>
<trkpt lat="32.11962888888889" lon="130.33257111111112">
<ele>1</ele>
</trkpt>
<trkpt lat="32.119663055555556" lon="130.33255805555555">
<ele>1</ele>
</trkpt>
<trkpt lat="32.12017888888889" lon="130.33224611111112">
<ele>0</ele>
</trkpt>
<trkpt lat="32.120221111111114" lon="130.33222111111112">
<ele>0</ele>
</trkpt>
<trkpt lat="32.12032111111111" lon="130.33214611111111">
<ele>0</ele>
</trkpt>
<trkpt lat="32.12032111111111" lon="130.33214611111111">
<ele>0</ele>
</trkpt>
<trkpt lat="32.12040388888889" lon="130.3320461111111">
<ele>0</ele>
</trkpt>
<trkpt lat="32.120488055555555" lon="130.33190805555554">
<ele>0</ele>
</trkpt>
<trkpt lat="32.12052888888889" lon="130.3317461111111">
<ele>0</ele>
</trkpt>
<trkpt lat="32.12059611111111" lon="130.3314711111111">
<ele>0</ele>
</trkpt>
<trkpt lat="32.12075388888889" lon="130.3307961111111">
<ele>0</ele>
</trkpt>
<trkpt lat="32.12081305555556" lon="130.33063305555555">
<ele>0</ele>
</trkpt>
<trkpt lat="32.120913055555555" lon="130.33040805555555">
<ele>0</ele>
</trkpt>
<trkpt lat="32.12102111111111" lon="130.3302461111111">
<ele>0</ele>
</trkpt>
<trkpt lat="32.12123694444445" lon="130.3300461111111">
<ele>1</ele>
</trkpt>
<trkpt lat="32.12167888888889" lon="130.32974611111112">
<ele>0</ele>
</trkpt>
<trkpt lat="32.12171305555555" lon="130.32970805555556">
<ele>0</ele>
</trkpt>
<trkpt lat="32.12171305555555" lon="130.3296711111111">
<ele>0</ele>
</trkpt>
<trkpt lat="32.121721111111114" lon="130.32950805555555">
<ele>0</ele>
</trkpt>
<trkpt lat="32.121738055555554" lon="130.32945805555556">
<ele>0</ele>
</trkpt>
<trkpt lat="32.12189611111111" lon="130.32919611111112">
<ele>1</ele>
</trkpt>
<trkpt lat="32.121946111111114" lon="130.3290461111111">
<ele>1</ele>
</trkpt>
<trkpt lat="32.12211305555556" lon="130.32870805555555">
<ele>2</ele>
</trkpt>
<trkpt lat="32.12220111111111" lon="130.32861194444445">
<ele>2</ele>
</trkpt>
<trkpt lat="32.12220111111111" lon="130.32861111111112">
<ele>2</ele>
</trkpt>
<trkpt lat="32.12211305555556" lon="130.32870805555555">
<ele>2</ele>
</trkpt>
<trkpt lat="32.121853888888886" lon="130.3284461111111">
<ele>1</ele>
</trkpt>
<trkpt lat="32.121721111111114" lon="130.32829611111111">
<ele>0</ele>
</trkpt>
<trkpt lat="32.121611944444446" lon="130.3281211111111">
<ele>0</ele>
</trkpt>
<trkpt lat="32.121496111111114" lon="130.32783305555554">
<ele>0</ele>
</trkpt>
<trkpt lat="32.12135388888889" lon="130.32747111111112">
<ele>0</ele>
</trkpt>
<trkpt lat="32.12123694444445" lon="130.32708305555556">
<ele>0</ele>
</trkpt>
<trkpt lat="32.12105388888889" lon="130.32638305555557">
<ele>0</ele>
</trkpt>
<trkpt lat="32.12095388888889" lon="130.32608305555556">
<ele>0</ele>
</trkpt>
<trkpt lat="32.120736944444445" lon="130.32557111111112">
<ele>0</ele>
</trkpt>
<trkpt lat="32.12038694444445" lon="130.3247211111111">
<ele>2</ele>
</trkpt>
<trkpt lat="32.12032888888889" lon="130.3246961111111">
<ele>2</ele>
</trkpt>
<trkpt lat="32.12030388888889" lon="130.3244711111111">
<ele>1</ele>
</trkpt>
<trkpt lat="32.120106944444444" lon="130.32397111111112">
<ele>1</ele>
</trkpt>
<trkpt lat="32.120106944444444" lon="130.32397111111112">
<ele>1</ele>
</trkpt>
<trkpt lat="32.11976305555556" lon="130.3230961111111">
<ele>0</ele>
</trkpt>
<trkpt lat="32.119571111111114" lon="130.3228588888889">
<ele>0</ele>
</trkpt>
<trkpt lat="32.119486944444446" lon="130.3227711111111">
<ele>0</ele>
</trkpt>
<trkpt lat="32.11928694444445" lon="130.32225888888888">
<ele>0</ele>
</trkpt>
<trkpt lat="32.11902888888889" lon="130.3216211111111">
<ele>0</ele>
</trkpt>
<trkpt lat="32.11860388888889" lon="130.3205338888889">
<ele>0</ele>
</trkpt>
<trkpt lat="32.11843694444445" lon="130.3200961111111">
<ele>0</ele>
</trkpt>
<trkpt lat="32.11830388888889" lon="130.3198211111111">
<ele>0</ele>
</trkpt>
<trkpt lat="32.11797111111111" lon="130.3194088888889">
<ele>0</ele>
</trkpt>
<trkpt lat="32.11792111111111" lon="130.31932111111112">
<ele>0</ele>
</trkpt>
<trkpt lat="32.11787888888889" lon="130.3192338888889">
<ele>0</ele>
</trkpt>
<trkpt lat="32.11782111111111" lon="130.3190088888889">
<ele>0</ele>
</trkpt>
<trkpt lat="32.117778055555554" lon="130.3188011111111">
<ele>0</ele>
</trkpt>
<trkpt lat="32.117778055555554" lon="130.3188011111111">
<ele>0</ele>
</trkpt>
<trkpt lat="32.117688055555554" lon="130.3183588888889">
<ele>0</ele>
</trkpt>
<trkpt lat="32.11742888888889" lon="130.3175588888889">
<ele>0</ele>
</trkpt>
<trkpt lat="32.11732888888889" lon="130.3173088888889">
<ele>0</ele>
</trkpt>
<trkpt lat="32.11729611111111" lon="130.3172338888889">
<ele>0</ele>
</trkpt>
<trkpt lat="32.11722888888889" lon="130.3170338888889">
<ele>0</ele>
</trkpt>
<trkpt lat="32.11680388888889" lon="130.31602194444446">
<ele>0</ele>
</trkpt>
<trkpt lat="32.11672111111111" lon="130.31584694444444">
<ele>0</ele>
</trkpt>
<trkpt lat="32.11642888888889" lon="130.31534694444446">
<ele>0</ele>
</trkpt>
<trkpt lat="32.11622111111111" lon="130.31497194444444">
<ele>0</ele>
</trkpt>
<trkpt lat="32.11599611111111" lon="130.3146088888889">
<ele>0</ele>
</trkpt>
<trkpt lat="32.11579611111111" lon="130.31435888888888">
<ele>0</ele>
</trkpt>
<trkpt lat="32.11570388888889" lon="130.31424694444445">
<ele>0</ele>
</trkpt>
<trkpt lat="32.11550388888889" lon="130.31404694444444">
<ele>1</ele>
</trkpt>
<trkpt lat="32.11530388888889" lon="130.31388388888888">
<ele>1</ele>
</trkpt>
<trkpt lat="32.11520388888889" lon="130.31382194444444">
<ele>2</ele>
</trkpt>
<trkpt lat="32.11503805555556" lon="130.3137088888889">
<ele>2</ele>
</trkpt>
<trkpt lat="32.11467888888889" lon="130.31349694444444">
<ele>2</ele>
</trkpt>
<trkpt lat="32.11389611111111" lon="130.31282194444444">
<ele>1</ele>
</trkpt>
<trkpt lat="32.113855" lon="130.31273388888889">
<ele>1</ele>
</trkpt>
<trkpt lat="32.113755" lon="130.31263388888888">
<ele>0</ele>
</trkpt>
<trkpt lat="32.113755" lon="130.3125838888889">
<ele>0</ele>
</trkpt>
<trkpt lat="32.11356305555555" lon="130.3124838888889">
<ele>0</ele>
</trkpt>
<trkpt lat="32.112388055555556" lon="130.3120338888889">
<ele>0</ele>
</trkpt>
<trkpt lat="32.11218" lon="130.3119338888889">
<ele>0</ele>
</trkpt>
<trkpt lat="32.11192111111111" lon="130.31177194444444">
<ele>0</ele>
</trkpt>
<trkpt lat="32.11177111111111" lon="130.31167194444444">
<ele>0</ele>
</trkpt>
<trkpt lat="32.11107111111111" lon="130.3112338888889">
<ele>0</ele>
</trkpt>
<trkpt lat="32.11049694444444" lon="130.3108838888889">
<ele>0</ele>
</trkpt>
<trkpt lat="32.11033" lon="130.31079694444443">
<ele>0</ele>
</trkpt>
<trkpt lat="32.109588055555555" lon="130.31059694444446">
<ele>0</ele>
</trkpt>
<trkpt lat="32.10944694444444" lon="130.310535">
<ele>0</ele>
</trkpt>
<trkpt lat="32.10854694444444" lon="130.31001">
<ele>0</ele>
</trkpt>
<trkpt lat="32.108221944444445" lon="130.30979694444446">
<ele>0</ele>
</trkpt>
<trkpt lat="32.10817888888889" lon="130.30975694444444">
<ele>0</ele>
</trkpt>
<trkpt lat="32.108178055555555" lon="130.30975694444444">
<ele>0</ele>
</trkpt>
<trkpt lat="32.108113055555556" lon="130.30969694444445">
<ele>0</ele>
</trkpt>
<trkpt lat="32.10798" lon="130.30956">
<ele>0</ele>
</trkpt>
<trkpt lat="32.10791388888889" lon="130.30941">
<ele>0</ele>
</trkpt>
<trkpt lat="32.10787194444445" lon="130.309285">
<ele>0</ele>
</trkpt>
<trkpt lat="32.107855" lon="130.30914694444445">
<ele>0</ele>
</trkpt>
<trkpt lat="32.107655" lon="130.30622194444445">
<ele>1</ele>
</trkpt>
<trkpt lat="32.10767194444445" lon="130.305935">
<ele>2</ele>
</trkpt>
<trkpt lat="32.107688055555556" lon="130.30577305555556">
<ele>1</ele>
</trkpt>
<trkpt lat="32.107655" lon="130.30561">
<ele>0</ele>
</trkpt>
<trkpt lat="32.107605" lon="130.30556">
<ele>0</ele>
</trkpt>
<trkpt lat="32.107555" lon="130.30554694444444">
<ele>0</ele>
</trkpt>
<trkpt lat="32.10754388888889" lon="130.3055488888889">
<ele>0</ele>
</trkpt>
<trkpt lat="32.10754388888889" lon="130.3055488888889">
<ele>0</ele>
</trkpt>
<trkpt lat="32.10748" lon="130.30556">
<ele>0</ele>
</trkpt>
<trkpt lat="32.10733805555556" lon="130.305635">
<ele>0</ele>
</trkpt>
<trkpt lat="32.10729694444444" lon="130.30567305555556">
<ele>0</ele>
</trkpt>
<trkpt lat="32.107213888888886" lon="130.30581">
<ele>0</ele>
</trkpt>
<trkpt lat="32.10716388888889" lon="130.305935">
<ele>0</ele>
</trkpt>
<trkpt lat="32.10703888888889" lon="130.30619694444445">
<ele>0</ele>
</trkpt>
<trkpt lat="32.10668" lon="130.30664694444445">
<ele>0</ele>
</trkpt>
<trkpt lat="32.106355" lon="130.306935">
<ele>0</ele>
</trkpt>
<trkpt lat="32.10622194444444" lon="130.30707194444443">
<ele>0</ele>
</trkpt>
<trkpt lat="32.106071944444444" lon="130.30724694444444">
<ele>0</ele>
</trkpt>
<trkpt lat="32.105955" lon="130.30741">
<ele>0</ele>
</trkpt>
<trkpt lat="32.10573888888889" lon="130.30784694444444">
<ele>0</ele>
</trkpt>
<trkpt lat="32.10568" lon="130.30796">
<ele>0</ele>
</trkpt>
<trkpt lat="32.105555" lon="130.30809694444446">
<ele>0</ele>
</trkpt>
<trkpt lat="32.10538" lon="130.30819694444443">
<ele>0</ele>
</trkpt>
<trkpt lat="32.10511388888889" lon="130.30837194444445">
<ele>0</ele>
</trkpt>
<trkpt lat="32.10493888888889" lon="130.30847194444445">
<ele>0</ele>
</trkpt>
<trkpt lat="32.10440611111111" lon="130.30884694444444">
<ele>0</ele>
</trkpt>
<trkpt lat="32.10373888888889" lon="130.30919694444444">
<ele>0</ele>
</trkpt>
<trkpt lat="32.10363888888889" lon="130.30926">
<ele>0</ele>
</trkpt>
<trkpt lat="32.10357694444444" lon="130.30928694444444">
<ele>0</ele>
</trkpt>
<trkpt lat="32.10357694444444" lon="130.30928694444444">
<ele>0</ele>
</trkpt>
<trkpt lat="32.10335611111111" lon="130.309385">
<ele>0</ele>
</trkpt>
<trkpt lat="32.10325611111111" lon="130.30944694444443">
<ele>0</ele>
</trkpt>
<trkpt lat="32.10297194444444" lon="130.30964694444444">
<ele>1</ele>
</trkpt>
<trkpt lat="32.10273888888889" lon="130.309785">
<ele>2</ele>
</trkpt>
<trkpt lat="32.102623055555554" lon="130.30986">
<ele>2</ele>
</trkpt>
<trkpt lat="32.102471944444446" lon="130.310085">
<ele>2</ele>
</trkpt>
<trkpt lat="32.10243111111111" lon="130.31026">
<ele>3</ele>
</trkpt>
<trkpt lat="32.10213111111111" lon="130.31051">
<ele>3</ele>
</trkpt>
<trkpt lat="32.10200611111111" lon="130.310585">
<ele>4</ele>
</trkpt>
<trkpt lat="32.10167194444445" lon="130.310835">
<ele>4</ele>
</trkpt>
<trkpt lat="32.10166888888889" lon="130.31083611111112">
<ele>4</ele>
</trkpt>
<trkpt lat="32.10166888888889" lon="130.31083611111112">
<ele>4</ele>
</trkpt>
<trkpt lat="32.10167194444445" lon="130.310835">
<ele>4</ele>
</trkpt>
<trkpt lat="32.10158111111111" lon="130.31066">
<ele>4</ele>
</trkpt>
<trkpt lat="32.10041388888889" lon="130.30846">
<ele>5</ele>
</trkpt>
<trkpt lat="32.100323055555556" lon="130.30829694444444">
<ele>5</ele>
</trkpt>
<trkpt lat="32.09959805555555" lon="130.30694805555555">
<ele>3</ele>
</trkpt>
<trkpt lat="32.099581111111114" lon="130.30689805555556">
<ele>3</ele>
</trkpt>
<trkpt lat="32.09953888888889" lon="130.30682194444444">
<ele>3</ele>
</trkpt>
<trkpt lat="32.09913888888889" lon="130.30607194444445">
<ele>3</ele>
</trkpt>
<trkpt lat="32.09889805555556" lon="130.30562194444445">
<ele>3</ele>
</trkpt>
<trkpt lat="32.098863888888886" lon="130.30556">
<ele>3</ele>
</trkpt>
<trkpt lat="32.09848111111111" lon="130.304835">
<ele>3</ele>
</trkpt>
<trkpt lat="32.09847111111111" lon="130.304815">
<ele>3</ele>
</trkpt>
<trkpt lat="32.09847111111111" lon="130.3048161111111">
<ele>3</ele>
</trkpt>
<trkpt lat="32.09848111111111" lon="130.304835">
<ele>3</ele>
</trkpt>
<trkpt lat="32.098598055555556" lon="130.30481">
<ele>3</ele>
</trkpt>
<trkpt lat="32.098663888888886" lon="130.30481">
<ele>3</ele>
</trkpt>
<trkpt lat="32.098773055555554" lon="130.30481">
<ele>3</ele>
</trkpt>
<trkpt lat="32.099048055555556" lon="130.30484694444445">
<ele>1</ele>
</trkpt>
<trkpt lat="32.09940611111111" lon="130.30484694444445">
<ele>0</ele>
</trkpt>
<trkpt lat="32.09950611111111" lon="130.30482305555554">
<ele>0</ele>
</trkpt>
<trkpt lat="32.09965611111111" lon="130.30474694444445">
<ele>0</ele>
</trkpt>
<trkpt lat="32.09972305555556" lon="130.30472194444445">
<ele>0</ele>
</trkpt>
<trkpt lat="32.100473055555554" lon="130.30446">
<ele>0</ele>
</trkpt>
<trkpt lat="32.10091388888889" lon="130.30437194444445">
<ele>0</ele>
</trkpt>
<trkpt lat="32.101306111111114" lon="130.30429694444445">
<ele>0</ele>
</trkpt>
<trkpt lat="32.101421944444446" lon="130.30419694444444">
<ele>0</ele>
</trkpt>
<trkpt lat="32.101438888888886" lon="130.30412305555555">
<ele>0</ele>
</trkpt>
<trkpt lat="32.10138888888889" lon="130.30374694444444">
<ele>0</ele>
</trkpt>
<trkpt lat="32.10140611111111" lon="130.30366">
<ele>0</ele>
</trkpt>
<trkpt lat="32.10143111111111" lon="130.30362194444444">
<ele>0</ele>
</trkpt>
<trkpt lat="32.10151388888889" lon="130.30361">
<ele>0</ele>
</trkpt>
<trkpt lat="32.10350611111111" lon="130.30326">
<ele>0</ele>
</trkpt>
<trkpt lat="32.10348111111111" lon="130.30307194444444">
<ele>0</ele>
</trkpt>
<trkpt lat="32.10348611111111" lon="130.3029911111111">
<ele>0</ele>
</trkpt>
<trkpt lat="32.10348611111111" lon="130.3029911111111">
<ele>0</ele>
</trkpt>
<trkpt lat="32.10353888888889" lon="130.302235">
<ele>0</ele>
</trkpt>
<trkpt lat="32.103656111111114" lon="130.30029805555554">
<ele>2</ele>
</trkpt>
<trkpt lat="32.10368888888889" lon="130.30007305555554">
<ele>2</ele>
</trkpt>
<trkpt lat="32.10382194444445" lon="130.2978861111111">
<ele>2</ele>
</trkpt>
<trkpt lat="32.10396388888889" lon="130.29572305555556">
<ele>1</ele>
</trkpt>
<trkpt lat="32.104055" lon="130.29441111111112">
<ele>1</ele>
</trkpt>
<trkpt lat="32.104146944444445" lon="130.2935361111111">
<ele>1</ele>
</trkpt>
<trkpt lat="32.10428888888889" lon="130.29132305555555">
<ele>1</ele>
</trkpt>
<trkpt lat="32.10431388888889" lon="130.29089805555554">
<ele>1</ele>
</trkpt>
<trkpt lat="32.10442194444445" lon="130.2891611111111">
<ele>1</ele>
</trkpt>
<trkpt lat="32.104555" lon="130.2871861111111">
<ele>1</ele>
</trkpt>
<trkpt lat="32.10456305555556" lon="130.28702388888888">
<ele>1</ele>
</trkpt>
<trkpt lat="32.10467194444445" lon="130.2848111111111">
<ele>1</ele>
</trkpt>
<trkpt lat="32.10472194444444" lon="130.2840238888889">
<ele>1</ele>
</trkpt>
<trkpt lat="32.104755" lon="130.28364888888888">
<ele>1</ele>
</trkpt>
<trkpt lat="32.104888055555556" lon="130.2831361111111">
<ele>1</ele>
</trkpt>
<trkpt lat="32.105088055555555" lon="130.2824861111111">
<ele>1</ele>
</trkpt>
<trkpt lat="32.10563" lon="130.28093694444445">
<ele>1</ele>
</trkpt>
<trkpt lat="32.105738055555555" lon="130.28058694444445">
<ele>1</ele>
</trkpt>
<trkpt lat="32.10582111111111" lon="130.2802738888889">
<ele>1</ele>
</trkpt>
<trkpt lat="32.105955" lon="130.27991194444445">
<ele>1</ele>
</trkpt>
<trkpt lat="32.10615" lon="130.27941">
<ele>1</ele>
</trkpt>
<trkpt lat="32.10615" lon="130.27941">
<ele>1</ele>
</trkpt>
<trkpt lat="32.106155" lon="130.2793988888889">
<ele>1</ele>
</trkpt>
<trkpt lat="32.10657111111111" lon="130.27883694444444">
<ele>1</ele>
</trkpt>
<trkpt lat="32.106905" lon="130.27832388888888">
<ele>1</ele>
</trkpt>
<trkpt lat="32.10751305555556" lon="130.27726194444443">
<ele>0</ele>
</trkpt>
<trkpt lat="32.10767111111111" lon="130.27697388888888">
<ele>0</ele>
</trkpt>
<trkpt lat="32.10857111111111" lon="130.27546194444446">
<ele>0</ele>
</trkpt>
<trkpt lat="32.10862888888889" lon="130.27536194444446">
<ele>1</ele>
</trkpt>
<trkpt lat="32.10878694444445" lon="130.27511194444443">
<ele>1</ele>
</trkpt>
<trkpt lat="32.10886305555555" lon="130.27491194444445">
<ele>1</ele>
</trkpt>
<trkpt lat="32.10897888888889" lon="130.2741988888889">
<ele>1</ele>
</trkpt>
<trkpt lat="32.10903694444445" lon="130.27401194444445">
<ele>1</ele>
</trkpt>
<trkpt lat="32.10937111111111" lon="130.2732988888889">
<ele>1</ele>
</trkpt>
<trkpt lat="32.109388055555556" lon="130.27326194444444">
<ele>1</ele>
</trkpt>
<trkpt lat="32.110261944444446" lon="130.27126194444443">
<ele>3</ele>
</trkpt>
<trkpt lat="32.11031194444445" lon="130.27115">
<ele>3</ele>
</trkpt>
<trkpt lat="32.110728888888886" lon="130.27023694444443">
<ele>5</ele>
</trkpt>
<trkpt lat="32.11092111111111" lon="130.270025">
<ele>5</ele>
</trkpt>
<trkpt lat="32.11103694444444" lon="130.269975">
<ele>5</ele>
</trkpt>
<trkpt lat="32.11110194444444" lon="130.26989111111112">
<ele>5</ele>
</trkpt>
<trkpt lat="32.11110194444444" lon="130.26989111111112">
<ele>5</ele>
</trkpt>
<trkpt lat="32.11103694444444" lon="130.269975">
<ele>5</ele>
</trkpt>
<trkpt lat="32.11202888888889" lon="130.27">
<ele>5</ele>
</trkpt>
<trkpt lat="32.112586944444445" lon="130.26998694444444">
<ele>5</ele>
</trkpt>
<trkpt lat="32.11347888888889" lon="130.26998694444444">
<ele>5</ele>
</trkpt>
<trkpt lat="32.114286944444444" lon="130.269975">
<ele>4</ele>
</trkpt>
<trkpt lat="32.116045" lon="130.269975">
<ele>3</ele>
</trkpt>
<trkpt lat="32.11615305555556" lon="130.27">
<ele>4</ele>
</trkpt>
<trkpt lat="32.11625305555555" lon="130.27006194444445">
<ele>4</ele>
</trkpt>
<trkpt lat="32.116545" lon="130.2703">
<ele>4</ele>
</trkpt>
<trkpt lat="32.11687805555555" lon="130.2706">
<ele>4</ele>
</trkpt>
<trkpt lat="32.11700388888889" lon="130.27043694444444">
<ele>6</ele>
</trkpt>
<trkpt lat="32.11700388888889" lon="130.27043694444444">
<ele>6</ele>
</trkpt>
<trkpt lat="32.11712" lon="130.27028694444445">
<ele>8</ele>
</trkpt>
<trkpt lat="32.11766111111111" lon="130.270025">
<ele>8</ele>
</trkpt>
<trkpt lat="32.118095" lon="130.269825">
<ele>9</ele>
</trkpt>
<trkpt lat="32.11817" lon="130.26973694444445">
<ele>9</ele>
</trkpt>
<trkpt lat="32.11828611111111" lon="130.26963694444444">
<ele>9</ele>
</trkpt>
<trkpt lat="32.11846111111111" lon="130.26926194444445">
<ele>9</ele>
</trkpt>
<trkpt lat="32.11880305555555" lon="130.26838694444444">
<ele>9</ele>
</trkpt>
<trkpt lat="32.119053055555554" lon="130.268075">
<ele>9</ele>
</trkpt>
<trkpt lat="32.11980305555556" lon="130.26723694444445">
<ele>8</ele>
</trkpt>
<trkpt lat="32.12003611111111" lon="130.26701194444445">
<ele>6</ele>
</trkpt>
<trkpt lat="32.120153055555555" lon="130.26695">
<ele>6</ele>
</trkpt>
<trkpt lat="32.12031888888889" lon="130.266825">
<ele>5</ele>
</trkpt>
<trkpt lat="32.12052805555555" lon="130.26648805555556">
<ele>3</ele>
</trkpt>
<trkpt lat="32.120643888888885" lon="130.26625">
<ele>3</ele>
</trkpt>
<trkpt lat="32.12069694444445" lon="130.2662038888889">
<ele>2</ele>
</trkpt>
<trkpt lat="32.12069694444445" lon="130.2662038888889">
<ele>2</ele>
</trkpt>
<trkpt lat="32.120643888888885" lon="130.26625">
<ele>3</ele>
</trkpt>
<trkpt lat="32.12038611111111" lon="130.26593805555555">
<ele>1</ele>
</trkpt>
<trkpt lat="32.12029388888889" lon="130.265825">
<ele>1</ele>
</trkpt>
<trkpt lat="32.12043611111111" lon="130.265625">
<ele>0</ele>
</trkpt>
<trkpt lat="32.11976888888889" lon="130.26468805555555">
<ele>0</ele>
</trkpt>
<trkpt lat="32.11902194444444" lon="130.26363694444444">
<ele>1</ele>
</trkpt>
<trkpt lat="32.11902111111111" lon="130.26363694444444">
<ele>1</ele>
</trkpt>
<trkpt lat="32.11898611111111" lon="130.26358805555554">
<ele>1</ele>
</trkpt>
<trkpt lat="32.119103055555556" lon="130.2632">
<ele>2</ele>
</trkpt>
<trkpt lat="32.11921888888889" lon="130.263025">
<ele>1</ele>
</trkpt>
<trkpt lat="32.11936111111111" lon="130.26288805555555">
<ele>1</ele>
</trkpt>
<trkpt lat="32.11968611111111" lon="130.26265">
<ele>3</ele>
</trkpt>
<trkpt lat="32.120311111111114" lon="130.2623">
<ele>5</ele>
</trkpt>
<trkpt lat="32.12041888888889" lon="130.26223805555554">
<ele>4</ele>
</trkpt>
<trkpt lat="32.12054388888889" lon="130.2621511111111">
<ele>5</ele>
</trkpt>
<trkpt lat="32.12071111111111" lon="130.26197611111112">
<ele>9</ele>
</trkpt>
<trkpt lat="32.121001944444444" lon="130.26165111111112">
<ele>12</ele>
</trkpt>
<trkpt lat="32.121293888888886" lon="130.26130111111112">
<ele>13</ele>
</trkpt>
<trkpt lat="32.12156888888889" lon="130.2610261111111">
<ele>11</ele>
</trkpt>
<trkpt lat="32.12201888888889" lon="130.26075111111112">
<ele>12</ele>
</trkpt>
<trkpt lat="32.12254388888889" lon="130.2603511111111">
<ele>12</ele>
</trkpt>
<trkpt lat="32.12269388888889" lon="130.26026305555555">
<ele>13</ele>
</trkpt>
<trkpt lat="32.12316888888889" lon="130.26007611111112">
<ele>21</ele>
</trkpt>
<trkpt lat="32.12332694444444" lon="130.25997611111111">
<ele>22</ele>
</trkpt>
<trkpt lat="32.123643888888886" lon="130.2595761111111">
<ele>22</ele>
</trkpt>
<trkpt lat="32.12376888888889" lon="130.25906305555554">
<ele>24</ele>
</trkpt>
<trkpt lat="32.12384388888889" lon="130.2589011111111">
<ele>22</ele>
</trkpt>
<trkpt lat="32.12396" lon="130.25882611111112">
<ele>22</ele>
</trkpt>
<trkpt lat="32.124426944444444" lon="130.25858805555555">
<ele>21</ele>
</trkpt>
<trkpt lat="32.12457694444444" lon="130.2584511111111">
<ele>20</ele>
</trkpt>
<trkpt lat="32.12480194444444" lon="130.25815111111112">
<ele>20</ele>
</trkpt>
<trkpt lat="32.124935" lon="130.2580011111111">
<ele>21</ele>
</trkpt>
<trkpt lat="32.12516" lon="130.25786305555556">
<ele>22</ele>
</trkpt>
<trkpt lat="32.12525194444444" lon="130.25781305555554">
<ele>21</ele>
</trkpt>
<trkpt lat="32.12531" lon="130.25771305555554">
<ele>22</ele>
</trkpt>
<trkpt lat="32.125326944444446" lon="130.25761305555557">
<ele>24</ele>
</trkpt>
<trkpt lat="32.125385" lon="130.25703805555557">
<ele>23</ele>
</trkpt>
<trkpt lat="32.12542694444444" lon="130.2568261111111">
<ele>24</ele>
</trkpt>
<trkpt lat="32.125585" lon="130.25646305555554">
<ele>22</ele>
</trkpt>
<trkpt lat="32.12581" lon="130.25608805555555">
<ele>21</ele>
</trkpt>
<trkpt lat="32.12589388888889" lon="130.25590111111111">
<ele>20</ele>
</trkpt>
<trkpt lat="32.12591" lon="130.25571305555556">
<ele>22</ele>
</trkpt>
<trkpt lat="32.12586" lon="130.25496388888888">
<ele>25</ele>
</trkpt>
<trkpt lat="32.12585194444444" lon="130.25463888888888">
<ele>23</ele>
</trkpt>
<trkpt lat="32.12587694444444" lon="130.2544761111111">
<ele>23</ele>
</trkpt>
<trkpt lat="32.12596" lon="130.25430111111112">
<ele>23</ele>
</trkpt>
<trkpt lat="32.12625194444445" lon="130.25403888888889">
<ele>21</ele>
</trkpt>
<trkpt lat="32.126401944444446" lon="130.2539011111111">
<ele>21</ele>
</trkpt>
<trkpt lat="32.126551944444444" lon="130.25372611111112">
<ele>22</ele>
</trkpt>
<trkpt lat="32.12676" lon="130.2533511111111">
<ele>22</ele>
</trkpt>
<trkpt lat="32.12707694444445" lon="130.2529011111111">
<ele>21</ele>
</trkpt>
<trkpt lat="32.12715194444444" lon="130.2527388888889">
<ele>21</ele>
</trkpt>
<trkpt lat="32.127226944444445" lon="130.2524011111111">
<ele>20</ele>
</trkpt>
<trkpt lat="32.12730194444445" lon="130.25205111111111">
<ele>23</ele>
</trkpt>
<trkpt lat="32.12746" lon="130.25143888888888">
<ele>24</ele>
</trkpt>
<trkpt lat="32.12746805555555" lon="130.25123888888888">
<ele>27</ele>
</trkpt>
<trkpt lat="32.127385" lon="130.2509388888889">
<ele>26</ele>
</trkpt>
<trkpt lat="32.127268055555554" lon="130.2507511111111">
<ele>25</ele>
</trkpt>
<trkpt lat="32.12715194444444" lon="130.2506261111111">
<ele>25</ele>
</trkpt>
<trkpt lat="32.12696" lon="130.2505011111111">
<ele>25</ele>
</trkpt>
<trkpt lat="32.12671805555556" lon="130.2503638888889">
<ele>23</ele>
</trkpt>
<trkpt lat="32.126618055555554" lon="130.2502511111111">
<ele>23</ele>
</trkpt>
<trkpt lat="32.12654305555556" lon="130.2500638888889">
<ele>25</ele>
</trkpt>
<trkpt lat="32.12651" lon="130.2499138888889">
<ele>25</ele>
</trkpt>
<trkpt lat="32.12651805555556" lon="130.2497261111111">
<ele>25</ele>
</trkpt>
<trkpt lat="32.126601944444445" lon="130.24952611111112">
<ele>24</ele>
</trkpt>
<trkpt lat="32.126735" lon="130.2492761111111">
<ele>24</ele>
</trkpt>
<trkpt lat="32.12696805555556" lon="130.2489261111111">
<ele>25</ele>
</trkpt>
<trkpt lat="32.12721" lon="130.24863888888888">
<ele>25</ele>
</trkpt>
<trkpt lat="32.12732694444444" lon="130.2483388888889">
<ele>23</ele>
</trkpt>
<trkpt lat="32.12735194444444" lon="130.2481138888889">
<ele>21</ele>
</trkpt>
<trkpt lat="32.127318055555556" lon="130.2477638888889">
<ele>21</ele>
</trkpt>
<trkpt lat="32.12731" lon="130.24772694444445">
<ele>21</ele>
</trkpt>
<trkpt lat="32.127285" lon="130.24757694444443">
<ele>21</ele>
</trkpt>
<trkpt lat="32.127235" lon="130.24740194444445">
<ele>20</ele>
</trkpt>
<trkpt lat="32.12707694444445" lon="130.24693888888888">
<ele>16</ele>
</trkpt>
<trkpt lat="32.127035" lon="130.24680194444446">
<ele>14</ele>
</trkpt>
<trkpt lat="32.127001944444444" lon="130.24660194444445">
<ele>15</ele>
</trkpt>
<trkpt lat="32.12699305555556" lon="130.2464388888889">
<ele>17</ele>
</trkpt>
<trkpt lat="32.127001944444444" lon="130.24620194444444">
<ele>14</ele>
</trkpt>
<trkpt lat="32.12701" lon="130.24580194444445">
<ele>15</ele>
</trkpt>
<trkpt lat="32.127001944444444" lon="130.24566388888888">
<ele>17</ele>
</trkpt>
<trkpt lat="32.12695194444444" lon="130.2453888888889">
<ele>23</ele>
</trkpt>
<trkpt lat="32.126868055555555" lon="130.24512694444445">
<ele>28</ele>
</trkpt>
<trkpt lat="32.12676" lon="130.24482694444444">
<ele>17</ele>
</trkpt>
<trkpt lat="32.126635" lon="130.2448138888889">
<ele>17</ele>
</trkpt>
<trkpt lat="32.12656805555556" lon="130.24478888888888">
<ele>17</ele>
</trkpt>
<trkpt lat="32.126535" lon="130.24476388888888">
<ele>17</ele>
</trkpt>
<trkpt lat="32.12651" lon="130.24472694444444">
<ele>17</ele>
</trkpt>
<trkpt lat="32.12647694444444" lon="130.24462694444443">
<ele>15</ele>
</trkpt>
<trkpt lat="32.12649305555556" lon="130.24447694444444">
<ele>15</ele>
</trkpt>
<trkpt lat="32.126535" lon="130.24410194444445">
<ele>17</ele>
</trkpt>
<trkpt lat="32.12654305555556" lon="130.24405194444444">
<ele>17</ele>
</trkpt>
<trkpt lat="32.126551944444444" lon="130.24402694444444">
<ele>17</ele>
</trkpt>
<trkpt lat="32.126618055555554" lon="130.24402694444444">
<ele>16</ele>
</trkpt>
<trkpt lat="32.12671" lon="130.2430138888889">
<ele>21</ele>
</trkpt>
<trkpt lat="32.12676" lon="130.24252694444445">
<ele>21</ele>
</trkpt>
<trkpt lat="32.12679305555555" lon="130.24232694444444">
<ele>19</ele>
</trkpt>
<trkpt lat="32.12685194444445" lon="130.2421138888889">
<ele>20</ele>
</trkpt>
<trkpt lat="32.12695194444444" lon="130.241915">
<ele>25</ele>
</trkpt>
<trkpt lat="32.126985" lon="130.24182694444445">
<ele>26</ele>
</trkpt>
<trkpt lat="32.127035" lon="130.24172694444445">
<ele>27</ele>
</trkpt>
<trkpt lat="32.12716" lon="130.24145194444444">
<ele>28</ele>
</trkpt>
<trkpt lat="32.127293055555555" lon="130.241115">
<ele>25</ele>
</trkpt>
<trkpt lat="32.127335" lon="130.24097694444444">
<ele>21</ele>
</trkpt>
<trkpt lat="32.12736" lon="130.24077694444443">
<ele>20</ele>
</trkpt>
<trkpt lat="32.12736" lon="130.24062694444444">
<ele>20</ele>
</trkpt>
<trkpt lat="32.127318055555556" lon="130.24032694444443">
<ele>23</ele>
</trkpt>
<trkpt lat="32.12711" lon="130.239565">
<ele>18</ele>
</trkpt>
<trkpt lat="32.12706" lon="130.23934">
<ele>10</ele>
</trkpt>
<trkpt lat="32.12705111111111" lon="130.23922694444445">
<ele>10</ele>
</trkpt>
<trkpt lat="32.12705111111111" lon="130.23909">
<ele>12</ele>
</trkpt>
<trkpt lat="32.12707611111111" lon="130.23887805555555">
<ele>15</ele>
</trkpt>
<trkpt lat="32.12711" lon="130.23875305555555">
<ele>16</ele>
</trkpt>
<trkpt lat="32.12722611111111" lon="130.23827805555555">
<ele>12</ele>
</trkpt>
<trkpt lat="32.12726" lon="130.238065">
<ele>11</ele>
</trkpt>
<trkpt lat="32.12726" lon="130.23764">
<ele>12</ele>
</trkpt>
<trkpt lat="32.12726" lon="130.23739">
<ele>12</ele>
</trkpt>
<trkpt lat="32.12724305555555" lon="130.237015">
<ele>13</ele>
</trkpt>
<trkpt lat="32.12715111111111" lon="130.23642805555556">
<ele>14</ele>
</trkpt>
<trkpt lat="32.127118055555556" lon="130.23627694444446">
<ele>14</ele>
</trkpt>
<trkpt lat="32.12711" lon="130.23609">
<ele>16</ele>
</trkpt>
<trkpt lat="32.12710111111111" lon="130.23594">
<ele>17</ele>
</trkpt>
<trkpt lat="32.12711" lon="130.23579">
<ele>17</ele>
</trkpt>
<trkpt lat="32.127185" lon="130.23542805555556">
<ele>19</ele>
</trkpt>
<trkpt lat="32.12730111111111" lon="130.235015">
<ele>19</ele>
</trkpt>
<trkpt lat="32.12735111111111" lon="130.234815">
<ele>17</ele>
</trkpt>
<trkpt lat="32.127385" lon="130.234615">
<ele>18</ele>
</trkpt>
<trkpt lat="32.12739305555556" lon="130.23434">
<ele>20</ele>
</trkpt>
<trkpt lat="32.12735111111111" lon="130.23394">
<ele>20</ele>
</trkpt>
<trkpt lat="32.12726" lon="130.23365305555555">
<ele>13</ele>
</trkpt>
<trkpt lat="32.12719305555556" lon="130.23342805555555">
<ele>9</ele>
</trkpt>
<trkpt lat="32.12716" lon="130.23309">
<ele>5</ele>
</trkpt>
<trkpt lat="32.12715111111111" lon="130.23290305555557">
<ele>4</ele>
</trkpt>
<trkpt lat="32.12716805555556" lon="130.23270305555556">
<ele>4</ele>
</trkpt>
<trkpt lat="32.12721805555555" lon="130.23244111111111">
<ele>7</ele>
</trkpt>
<trkpt lat="32.12727611111111" lon="130.2322661111111">
<ele>7</ele>
</trkpt>
<trkpt lat="32.12739305555556" lon="130.23205305555555">
<ele>9</ele>
</trkpt>
<trkpt lat="32.127485" lon="130.23187805555557">
<ele>17</ele>
</trkpt>
<trkpt lat="32.12791" lon="130.23106611111112">
<ele>11</ele>
</trkpt>
<trkpt lat="32.12796" lon="130.23092805555555">
<ele>12</ele>
</trkpt>
<trkpt lat="32.128143055555554" lon="130.23020305555556">
<ele>15</ele>
</trkpt>
<trkpt lat="32.12826805555556" lon="130.22946611111112">
<ele>15</ele>
</trkpt>
<trkpt lat="32.12841" lon="130.22842805555555">
<ele>15</ele>
</trkpt>
<trkpt lat="32.12844305555556" lon="130.22797805555555">
<ele>16</ele>
</trkpt>
<trkpt lat="32.128385" lon="130.2276411111111">
<ele>16</ele>
</trkpt>
<trkpt lat="32.12824305555556" lon="130.22687805555555">
<ele>23</ele>
</trkpt>
<trkpt lat="32.12806805555555" lon="130.22597805555554">
<ele>25</ele>
</trkpt>
<trkpt lat="32.12800111111111" lon="130.22555305555557">
<ele>22</ele>
</trkpt>
<trkpt lat="32.127943055555555" lon="130.22519111111112">
<ele>23</ele>
</trkpt>
<trkpt lat="32.12784305555556" lon="130.22470388888888">
<ele>23</ele>
</trkpt>
<trkpt lat="32.127676111111114" lon="130.2243038888889">
<ele>22</ele>
</trkpt>
<trkpt lat="32.12750111111111" lon="130.2237788888889">
<ele>23</ele>
</trkpt>
<trkpt lat="32.127293055555555" lon="130.2231788888889">
<ele>26</ele>
</trkpt>
<trkpt lat="32.12696805555556" lon="130.2224038888889">
<ele>23</ele>
</trkpt>
<trkpt lat="32.12681" lon="130.2219288888889">
<ele>22</ele>
</trkpt>
<trkpt lat="32.12662611111111" lon="130.2211538888889">
<ele>23</ele>
</trkpt>
<trkpt lat="32.12636805555555" lon="130.22065388888888">
<ele>22</ele>
</trkpt>
<trkpt lat="32.12596805555555" lon="130.2199038888889">
<ele>18</ele>
</trkpt>
<trkpt lat="32.125393055555556" lon="130.2187661111111">
<ele>12</ele>
</trkpt>
<trkpt lat="32.12502694444444" lon="130.21819194444444">
<ele>13</ele>
</trkpt>
<trkpt lat="32.12496" lon="130.21805388888887">
<ele>10</ele>
</trkpt>
<trkpt lat="32.12486" lon="130.21796694444444">
<ele>9</ele>
</trkpt>
<trkpt lat="32.124476944444446" lon="130.2177788888889">
<ele>9</ele>
</trkpt>
<trkpt lat="32.12410194444445" lon="130.21756694444446">
<ele>7</ele>
</trkpt>
<trkpt lat="32.12392694444444" lon="130.2174038888889">
<ele>6</ele>
</trkpt>
<trkpt lat="32.12355194444444" lon="130.21677888888888">
<ele>8</ele>
</trkpt>
<trkpt lat="32.12329305555556" lon="130.21626694444444">
<ele>8</ele>
</trkpt>
<trkpt lat="32.12311" lon="130.21586694444446">
<ele>14</ele>
</trkpt>
<trkpt lat="32.12307694444444" lon="130.21555388888888">
<ele>17</ele>
</trkpt>
<trkpt lat="32.12314305555556" lon="130.21532888888888">
<ele>22</ele>
</trkpt>
<trkpt lat="32.12329305555556" lon="130.2150038888889">
<ele>25</ele>
</trkpt>
<trkpt lat="32.12349305555556" lon="130.21465388888888">
<ele>33</ele>
</trkpt>
<trkpt lat="32.12352694444444" lon="130.2144538888889">
<ele>36</ele>
</trkpt>
<trkpt lat="32.12352694444444" lon="130.21426694444443">
<ele>35</ele>
</trkpt>
<trkpt lat="32.12346" lon="130.21414194444444">
<ele>33</ele>
</trkpt>
<trkpt lat="32.123335" lon="130.2139788888889">
<ele>33</ele>
</trkpt>
<trkpt lat="32.123243055555555" lon="130.21379194444444">
<ele>34</ele>
</trkpt>
<trkpt lat="32.123201944444446" lon="130.21354194444444">
<ele>37</ele>
</trkpt>
<trkpt lat="32.123235" lon="130.21331694444444">
<ele>34</ele>
</trkpt>
<trkpt lat="32.123335" lon="130.21315388888888">
<ele>32</ele>
</trkpt>
<trkpt lat="32.123401944444446" lon="130.21295388888888">
<ele>39</ele>
</trkpt>
<trkpt lat="32.123418055555554" lon="130.2127788888889">
<ele>41</ele>
</trkpt>
<trkpt lat="32.12336805555555" lon="130.21264194444444">
<ele>46</ele>
</trkpt>
<trkpt lat="32.12296" lon="130.21215388888888">
<ele>45</ele>
</trkpt>
<trkpt lat="32.12274305555555" lon="130.21186694444444">
<ele>46</ele>
</trkpt>
<trkpt lat="32.12244305555556" lon="130.21131694444443">
<ele>47</ele>
</trkpt>
<trkpt lat="32.122368055555555" lon="130.21106694444444">
<ele>46</ele>
</trkpt>
<trkpt lat="32.122351944444446" lon="130.21067888888888">
<ele>45</ele>
</trkpt>
<trkpt lat="32.12240194444445" lon="130.210405">
<ele>45</ele>
</trkpt>
<trkpt lat="32.122485" lon="130.20998">
<ele>43</ele>
</trkpt>
<trkpt lat="32.12256" lon="130.20928">
<ele>48</ele>
</trkpt>
<trkpt lat="32.12256" lon="130.208955">
<ele>45</ele>
</trkpt>
<trkpt lat="32.12246805555556" lon="130.20866694444445">
<ele>39</ele>
</trkpt>
<trkpt lat="32.12221805555556" lon="130.20834194444444">
<ele>36</ele>
</trkpt>
<trkpt lat="32.12195194444445" lon="130.20829194444445">
<ele>37</ele>
</trkpt>
<trkpt lat="32.12176" lon="130.208155">
<ele>38</ele>
</trkpt>
<trkpt lat="32.12162694444444" lon="130.20791694444443">
<ele>36</ele>
</trkpt>
<trkpt lat="32.12159305555556" lon="130.20776694444444">
<ele>35</ele>
</trkpt>
<trkpt lat="32.12161" lon="130.20738">
<ele>36</ele>
</trkpt>
<trkpt lat="32.121701944444446" lon="130.207155">
<ele>34</ele>
</trkpt>
<trkpt lat="32.121926944444446" lon="130.20659194444445">
<ele>26</ele>
</trkpt>
<trkpt lat="32.12196" lon="130.20628">
<ele>26</ele>
</trkpt>
<trkpt lat="32.121968055555556" lon="130.20604194444445">
<ele>25</ele>
</trkpt>
<trkpt lat="32.121926944444446" lon="130.20586694444444">
<ele>23</ele>
</trkpt>
<trkpt lat="32.12176" lon="130.20568">
<ele>26</ele>
</trkpt>
<trkpt lat="32.12151" lon="130.205455">
<ele>26</ele>
</trkpt>
<trkpt lat="32.120785" lon="130.20486805555555">
<ele>21</ele>
</trkpt>
<trkpt lat="32.12056888888889" lon="130.20481805555556">
<ele>22</ele>
</trkpt>
<trkpt lat="32.12031888888889" lon="130.20481805555556">
<ele>21</ele>
</trkpt>
<trkpt lat="32.11999388888889" lon="130.205005">
<ele>22</ele>
</trkpt>
<trkpt lat="32.119501944444444" lon="130.20534305555555">
<ele>24</ele>
</trkpt>
<trkpt lat="32.11889388888889" lon="130.205355">
<ele>24</ele>
</trkpt>
<trkpt lat="32.118851944444444" lon="130.20533">
<ele>23</ele>
</trkpt>
<trkpt lat="32.11862694444444" lon="130.20519305555555">
<ele>21</ele>
</trkpt>
<trkpt lat="32.118426944444444" lon="130.20494305555556">
<ele>23</ele>
</trkpt>
<trkpt lat="32.118335" lon="130.20461694444444">
<ele>22</ele>
</trkpt>
<trkpt lat="32.118318888888886" lon="130.20454305555555">
<ele>27</ele>
</trkpt>
<trkpt lat="32.11834388888889" lon="130.204255">
<ele>31</ele>
</trkpt>
<trkpt lat="32.11839388888889" lon="130.20403">
<ele>34</ele>
</trkpt>
<trkpt lat="32.11856" lon="130.203605">
<ele>34</ele>
</trkpt>
<trkpt lat="32.118651944444444" lon="130.20329305555555">
<ele>27</ele>
</trkpt>
<trkpt lat="32.118985" lon="130.202655">
<ele>27</ele>
</trkpt>
<trkpt lat="32.11954388888889" lon="130.20208">
<ele>28</ele>
</trkpt>
<trkpt lat="32.11966888888889" lon="130.20186694444445">
<ele>25</ele>
</trkpt>
<trkpt lat="32.119751944444445" lon="130.201605">
<ele>26</ele>
</trkpt>
<trkpt lat="32.11974388888889" lon="130.20114305555555">
<ele>24</ele>
</trkpt>
<trkpt lat="32.11971" lon="130.20069305555555">
<ele>23</ele>
</trkpt>
<trkpt lat="32.11961" lon="130.20041694444444">
<ele>23</ele>
</trkpt>
<trkpt lat="32.11947694444444" lon="130.20019305555556">
<ele>23</ele>
</trkpt>
<trkpt lat="32.11929388888889" lon="130.19998">
<ele>24</ele>
</trkpt>
<trkpt lat="32.119076944444444" lon="130.19983">
<ele>25</ele>
</trkpt>
<trkpt lat="32.118835" lon="130.19979305555555">
<ele>26</ele>
</trkpt>
<trkpt lat="32.11855194444444" lon="130.19979305555555">
<ele>26</ele>
</trkpt>
<trkpt lat="32.11840194444444" lon="130.19981805555557">
<ele>26</ele>
</trkpt>
<trkpt lat="32.118276944444446" lon="130.199755">
<ele>22</ele>
</trkpt>
<trkpt lat="32.11817694444444" lon="130.199655">
<ele>17</ele>
</trkpt>
<trkpt lat="32.118093888888886" lon="130.19954305555555">
<ele>13</ele>
</trkpt>
<trkpt lat="32.11801888888889" lon="130.19936805555557">
<ele>14</ele>
</trkpt>
<trkpt lat="32.117776944444444" lon="130.198305">
<ele>25</ele>
</trkpt>
<trkpt lat="32.11765194444445" lon="130.19816805555556">
<ele>28</ele>
</trkpt>
<trkpt lat="32.11736111111111" lon="130.19789305555557">
<ele>34</ele>
</trkpt>
<trkpt lat="32.11702694444445" lon="130.197705">
<ele>35</ele>
</trkpt>
<trkpt lat="32.11674388888889" lon="130.19754305555554">
<ele>34</ele>
</trkpt>
<trkpt lat="32.11654388888889" lon="130.19733">
<ele>35</ele>
</trkpt>
<trkpt lat="32.116276944444444" lon="130.19686805555557">
<ele>34</ele>
</trkpt>
<trkpt lat="32.11613611111111" lon="130.19666805555556">
<ele>34</ele>
</trkpt>
<trkpt lat="32.116036111111114" lon="130.196555">
<ele>33</ele>
</trkpt>
<trkpt lat="32.115811111111114" lon="130.196405">
<ele>35</ele>
</trkpt>
<trkpt lat="32.115518888888886" lon="130.19628">
<ele>37</ele>
</trkpt>
<trkpt lat="32.11471888888889" lon="130.19593">
<ele>38</ele>
</trkpt>
<trkpt lat="32.114401944444445" lon="130.19573111111112">
<ele>38</ele>
</trkpt>
<trkpt lat="32.11426111111111" lon="130.19559305555555">
<ele>37</ele>
</trkpt>
<trkpt lat="32.11427805555556" lon="130.19509305555556">
<ele>38</ele>
</trkpt>
<trkpt lat="32.114353055555554" lon="130.19479305555555">
<ele>41</ele>
</trkpt>
<trkpt lat="32.114351944444444" lon="130.1946311111111">
<ele>43</ele>
</trkpt>
<trkpt lat="32.114351944444444" lon="130.19429305555556">
<ele>42</ele>
</trkpt>
<trkpt lat="32.11426111111111" lon="130.19411805555555">
<ele>44</ele>
</trkpt>
<trkpt lat="32.113751944444445" lon="130.19361805555556">
<ele>48</ele>
</trkpt>
<trkpt lat="32.11356888888889" lon="130.1935311111111">
<ele>47</ele>
</trkpt>
<trkpt lat="32.11340194444445" lon="130.19351805555556">
<ele>45</ele>
</trkpt>
<trkpt lat="32.11321111111111" lon="130.19359305555557">
<ele>43</ele>
</trkpt>
<trkpt lat="32.11299388888889" lon="130.19361805555556">
<ele>40</ele>
</trkpt>
<trkpt lat="32.112811111111114" lon="130.19361805555556">
<ele>39</ele>
</trkpt>
<trkpt lat="32.112276944444446" lon="130.19346805555554">
<ele>38</ele>
</trkpt>
<trkpt lat="32.11206111111111" lon="130.1934061111111">
<ele>37</ele>
</trkpt>
<trkpt lat="32.11191888888889" lon="130.19331805555555">
<ele>36</ele>
</trkpt>
<trkpt lat="32.111826944444445" lon="130.1931811111111">
<ele>37</ele>
</trkpt>
<trkpt lat="32.11174388888889" lon="130.19296805555555">
<ele>36</ele>
</trkpt>
<trkpt lat="32.11163611111111" lon="130.19276805555555">
<ele>34</ele>
</trkpt>
<trkpt lat="32.11146111111111" lon="130.19259305555556">
<ele>34</ele>
</trkpt>
<trkpt lat="32.11129388888889" lon="130.19253111111112">
<ele>33</ele>
</trkpt>
<trkpt lat="32.11086888888889" lon="130.19246805555557">
<ele>35</ele>
</trkpt>
<trkpt lat="32.110703055555554" lon="130.19243111111112">
<ele>33</ele>
</trkpt>
<trkpt lat="32.11002805555555" lon="130.19208111111112">
<ele>38</ele>
</trkpt>
<trkpt lat="32.10939388888889" lon="130.1916811111111">
<ele>46</ele>
</trkpt>
<trkpt lat="32.10904388888889" lon="130.19150611111112">
<ele>46</ele>
</trkpt>
<trkpt lat="32.10854388888889" lon="130.19126805555555">
<ele>47</ele>
</trkpt>
<trkpt lat="32.10826111111111" lon="130.19111805555556">
<ele>54</ele>
</trkpt>
<trkpt lat="32.10798611111111" lon="130.19094305555555">
<ele>54</ele>
</trkpt>
<trkpt lat="32.10776111111111" lon="130.19079305555556">
<ele>57</ele>
</trkpt>
<trkpt lat="32.107528055555555" lon="130.19063111111112">
<ele>55</ele>
</trkpt>
<trkpt lat="32.107328055555556" lon="130.19049388888888">
<ele>57</ele>
</trkpt>
<trkpt lat="32.10716111111111" lon="130.19040611111112">
<ele>58</ele>
</trkpt>
<trkpt lat="32.10696111111111" lon="130.19036888888888">
<ele>65</ele>
</trkpt>
<trkpt lat="32.10672805555556" lon="130.19036888888888">
<ele>66</ele>
</trkpt>
<trkpt lat="32.10647" lon="130.1904311111111">
<ele>66</ele>
</trkpt>
<trkpt lat="32.10617" lon="130.1905188888889">
<ele>75</ele>
</trkpt>
<trkpt lat="32.10595305555555" lon="130.1905438888889">
<ele>76</ele>
</trkpt>
<trkpt lat="32.10561111111111" lon="130.1905561111111">
<ele>82</ele>
</trkpt>
<trkpt lat="32.105345" lon="130.1905311111111">
<ele>84</ele>
</trkpt>
<trkpt lat="32.10508611111111" lon="130.19049388888888">
<ele>87</ele>
</trkpt>
<trkpt lat="32.104928055555554" lon="130.19049388888888">
<ele>88</ele>
</trkpt>
<trkpt lat="32.10467" lon="130.1905438888889">
<ele>95</ele>
</trkpt>
<trkpt lat="32.10447" lon="130.1906561111111">
<ele>97</ele>
</trkpt>
<trkpt lat="32.104145" lon="130.1908688888889">
<ele>96</ele>
</trkpt>
<trkpt lat="32.10382" lon="130.1910188888889">
<ele>94</ele>
</trkpt>
<trkpt lat="32.10332805555556" lon="130.19116888888888">
<ele>85</ele>
</trkpt>
<trkpt lat="32.103003055555554" lon="130.1913188888889">
<ele>84</ele>
</trkpt>
<trkpt lat="32.10277" lon="130.1914811111111">
<ele>83</ele>
</trkpt>
<trkpt lat="32.10242888888889" lon="130.1917938888889">
<ele>80</ele>
</trkpt>
<trkpt lat="32.10227888888889" lon="130.19188111111112">
<ele>79</ele>
</trkpt>
<trkpt lat="32.10202" lon="130.19195611111112">
<ele>76</ele>
</trkpt>
<trkpt lat="32.101795" lon="130.19198111111112">
<ele>77</ele>
</trkpt>
<trkpt lat="32.10137888888889" lon="130.1921311111111">
<ele>75</ele>
</trkpt>
<trkpt lat="32.101095" lon="130.1922811111111">
<ele>75</ele>
</trkpt>
<trkpt lat="32.100861944444446" lon="130.19255611111112">
<ele>74</ele>
</trkpt>
<trkpt lat="32.100636944444446" lon="130.1929561111111">
<ele>74</ele>
</trkpt>
<trkpt lat="32.100395" lon="130.1933688888889">
<ele>68</ele>
</trkpt>
<trkpt lat="32.10032888888889" lon="130.19355611111112">
<ele>67</ele>
</trkpt>
<trkpt lat="32.10015388888889" lon="130.1937188888889">
<ele>66</ele>
</trkpt>
<trkpt lat="32.099711944444444" lon="130.1938561111111">
<ele>65</ele>
</trkpt>
<trkpt lat="32.099111944444445" lon="130.19390611111112">
<ele>64</ele>
</trkpt>
<trkpt lat="32.09825388888889" lon="130.1937311111111">
<ele>56</ele>
</trkpt>
<trkpt lat="32.09749611111111" lon="130.1936311111111">
<ele>55</ele>
</trkpt>
<trkpt lat="32.095528888888886" lon="130.1935938888889">
<ele>44</ele>
</trkpt>
<trkpt lat="32.09505388888889" lon="130.1934938888889">
<ele>44</ele>
</trkpt>
<trkpt lat="32.09429611111111" lon="130.19313111111111">
<ele>32</ele>
</trkpt>
<trkpt lat="32.09403805555556" lon="130.19289388888888">
<ele>28</ele>
</trkpt>
<trkpt lat="32.09378805555556" lon="130.1922811111111">
<ele>29</ele>
</trkpt>
<trkpt lat="32.09349611111111" lon="130.1919061111111">
<ele>28</ele>
</trkpt>
<trkpt lat="32.09298805555556" lon="130.1916938888889">
<ele>27</ele>
</trkpt>
<trkpt lat="32.09245388888889" lon="130.19161888888888">
<ele>26</ele>
</trkpt>
<trkpt lat="32.09227888888889" lon="130.19149388888889">
<ele>23</ele>
</trkpt>
<trkpt lat="32.09195388888889" lon="130.19119388888888">
<ele>23</ele>
</trkpt>
<trkpt lat="32.09168805555556" lon="130.19095611111112">
<ele>23</ele>
</trkpt>
<trkpt lat="32.09173805555555" lon="130.19039388888888">
<ele>26</ele>
</trkpt>
<trkpt lat="32.09173805555555" lon="130.19005611111112">
<ele>27</ele>
</trkpt>
<trkpt lat="32.09162888888889" lon="130.18968194444443">
<ele>27</ele>
</trkpt>
<trkpt lat="32.09137111111111" lon="130.18935694444446">
<ele>27</ele>
</trkpt>
<trkpt lat="32.09077111111111" lon="130.18883194444444">
<ele>26</ele>
</trkpt>
<trkpt lat="32.090513055555554" lon="130.1886188888889">
<ele>27</ele>
</trkpt>
<trkpt lat="32.09002111111111" lon="130.1881938888889">
<ele>27</ele>
</trkpt>
<trkpt lat="32.089755" lon="130.18756888888888">
<ele>35</ele>
</trkpt>
<trkpt lat="32.08964611111111" lon="130.1871688888889">
<ele>44</ele>
</trkpt>
<trkpt lat="32.08967111111111" lon="130.1870188888889">
<ele>48</ele>
</trkpt>
<trkpt lat="32.089755" lon="130.1863938888889">
<ele>46</ele>
</trkpt>
<trkpt lat="32.089846111111115" lon="130.18586888888888">
<ele>46</ele>
</trkpt>
<trkpt lat="32.09001305555555" lon="130.18471888888888">
<ele>44</ele>
</trkpt>
<trkpt lat="32.090246111111114" lon="130.18305694444444">
<ele>46</ele>
</trkpt>
<trkpt lat="32.09030388888889" lon="130.1826188888889">
<ele>47</ele>
</trkpt>
<trkpt lat="32.09036305555556" lon="130.182295">
<ele>46</ele>
</trkpt>
<trkpt lat="32.09054611111111" lon="130.182095">
<ele>46</ele>
</trkpt>
<trkpt lat="32.09097888888889" lon="130.18177">
<ele>47</ele>
</trkpt>
<trkpt lat="32.091638055555556" lon="130.18155694444445">
<ele>43</ele>
</trkpt>
<trkpt lat="32.09222888888889" lon="130.18137">
<ele>36</ele>
</trkpt>
<trkpt lat="32.092661944444444" lon="130.18123194444445">
<ele>34</ele>
</trkpt>
<trkpt lat="32.09317111111111" lon="130.18097">
<ele>30</ele>
</trkpt>
<trkpt lat="32.09332888888889" lon="130.180595">
<ele>30</ele>
</trkpt>
<trkpt lat="32.09342111111111" lon="130.18017">
<ele>31</ele>
</trkpt>
<trkpt lat="32.09341194444445" lon="130.17988194444445">
<ele>31</ele>
</trkpt>
<trkpt lat="32.09337111111111" lon="130.17962">
<ele>32</ele>
</trkpt>
<trkpt lat="32.09327888888889" lon="130.17930694444445">
<ele>34</ele>
</trkpt>
<trkpt lat="32.093046111111114" lon="130.178695">
<ele>36</ele>
</trkpt>
<trkpt lat="32.09305388888889" lon="130.17833194444444">
<ele>41</ele>
</trkpt>
<trkpt lat="32.09314611111111" lon="130.17807">
<ele>44</ele>
</trkpt>
<trkpt lat="32.09352111111111" lon="130.17758194444446">
<ele>45</ele>
</trkpt>
<trkpt lat="32.09386305555556" lon="130.17730694444444">
<ele>44</ele>
</trkpt>
<trkpt lat="32.09420388888889" lon="130.17717">
<ele>45</ele>
</trkpt>
<trkpt lat="32.09468694444445" lon="130.17697">
<ele>54</ele>
</trkpt>
<trkpt lat="32.095011944444444" lon="130.17690694444445">
<ele>56</ele>
</trkpt>
<trkpt lat="32.095286944444446" lon="130.17688194444443">
<ele>54</ele>
</trkpt>
<trkpt lat="32.095728888888885" lon="130.176895">
<ele>55</ele>
</trkpt>
<trkpt lat="32.096111944444445" lon="130.176895">
<ele>53</ele>
</trkpt>
<trkpt lat="32.09762" lon="130.176945">
<ele>52</ele>
</trkpt>
<trkpt lat="32.098286944444446" lon="130.17672">
<ele>54</ele>
</trkpt>
<trkpt lat="32.099495" lon="130.17632">
<ele>44</ele>
</trkpt>
<trkpt lat="32.09981194444445" lon="130.17635694444445">
<ele>45</ele>
</trkpt>
<trkpt lat="32.100195" lon="130.17663194444444">
<ele>45</ele>
</trkpt>
<trkpt lat="32.100645" lon="130.17687">
<ele>39</ele>
</trkpt>
<trkpt lat="32.10082" lon="130.17692">
<ele>36</ele>
</trkpt>
<trkpt lat="32.10133694444445" lon="130.176745">
<ele>35</ele>
</trkpt>
<trkpt lat="32.10237" lon="130.176545">
<ele>34</ele>
</trkpt>
<trkpt lat="32.102795" lon="130.17645694444445">
<ele>35</ele>
</trkpt>
<trkpt lat="32.10331111111111" lon="130.17648194444445">
<ele>35</ele>
</trkpt>
<trkpt lat="32.103853055555554" lon="130.17663194444444">
<ele>37</ele>
</trkpt>
<trkpt lat="32.10416111111111" lon="130.1767188888889">
<ele>35</ele>
</trkpt>
<trkpt lat="32.104303055555555" lon="130.1767188888889">
<ele>35</ele>
</trkpt>
<trkpt lat="32.10457" lon="130.17660694444444">
<ele>28</ele>
</trkpt>
<trkpt lat="32.10480305555556" lon="130.1761938888889">
<ele>23</ele>
</trkpt>
<trkpt lat="32.104846944444446" lon="130.17611694444443">
<ele>-83</ele>
</trkpt>
<trkpt lat="32.104846944444446" lon="130.17611694444443">
<ele>-83</ele>
</trkpt>
<trkpt lat="32.10522805555556" lon="130.17545694444445">
<ele>0</ele>
</trkpt>
<trkpt lat="32.105961111111114" lon="130.17400694444444">
<ele>0</ele>
</trkpt>
<trkpt lat="32.10695194444445" lon="130.17215694444445">
<ele>5</ele>
</trkpt>
<trkpt lat="32.107278055555554" lon="130.17157">
<ele>25</ele>
</trkpt>
<trkpt lat="32.10774388888889" lon="130.170945">
<ele>27</ele>
</trkpt>
<trkpt lat="32.10806111111111" lon="130.17060805555556">
<ele>21</ele>
</trkpt>
<trkpt lat="32.10806111111111" lon="130.17060694444444">
<ele>21</ele>
</trkpt>
<trkpt lat="32.10774388888889" lon="130.170945">
<ele>27</ele>
</trkpt>
<trkpt lat="32.107278055555554" lon="130.17157">
<ele>25</ele>
</trkpt>
<trkpt lat="32.10695194444445" lon="130.17215694444445">
<ele>5</ele>
</trkpt>
<trkpt lat="32.105961111111114" lon="130.17400694444444">
<ele>0</ele>
</trkpt>
<trkpt lat="32.10522805555556" lon="130.17545694444445">
<ele>0</ele>
</trkpt>
<trkpt lat="32.10480305555556" lon="130.1761938888889">
<ele>23</ele>
</trkpt>
<trkpt lat="32.10457" lon="130.17660694444444">
<ele>28</ele>
</trkpt>
<trkpt lat="32.104303055555555" lon="130.1767188888889">
<ele>35</ele>
</trkpt>
<trkpt lat="32.10416111111111" lon="130.1767188888889">
<ele>35</ele>
</trkpt>
<trkpt lat="32.103853055555554" lon="130.17663194444444">
<ele>37</ele>
</trkpt>
<trkpt lat="32.10331111111111" lon="130.17648194444445">
<ele>35</ele>
</trkpt>
<trkpt lat="32.102795" lon="130.17645694444445">
<ele>35</ele>
</trkpt>
<trkpt lat="32.10237" lon="130.176545">
<ele>34</ele>
</trkpt>
<trkpt lat="32.10133694444445" lon="130.176745">
<ele>35</ele>
</trkpt>
<trkpt lat="32.10082" lon="130.17692">
<ele>36</ele>
</trkpt>
<trkpt lat="32.100645" lon="130.17687">
<ele>39</ele>
</trkpt>
<trkpt lat="32.100195" lon="130.17663194444444">
<ele>45</ele>
</trkpt>
<trkpt lat="32.09981194444445" lon="130.17635694444445">
<ele>45</ele>
</trkpt>
<trkpt lat="32.099495" lon="130.17632">
<ele>44</ele>
</trkpt>
<trkpt lat="32.098286944444446" lon="130.17672">
<ele>54</ele>
</trkpt>
<trkpt lat="32.09762" lon="130.176945">
<ele>52</ele>
</trkpt>
<trkpt lat="32.096111944444445" lon="130.176895">
<ele>53</ele>
</trkpt>
<trkpt lat="32.095728888888885" lon="130.176895">
<ele>55</ele>
</trkpt>
<trkpt lat="32.095286944444446" lon="130.17688194444443">
<ele>54</ele>
</trkpt>
<trkpt lat="32.095011944444444" lon="130.17690694444445">
<ele>56</ele>
</trkpt>
<trkpt lat="32.09468694444445" lon="130.17697">
<ele>54</ele>
</trkpt>
<trkpt lat="32.09420388888889" lon="130.17717">
<ele>45</ele>
</trkpt>
<trkpt lat="32.09386305555556" lon="130.17730694444444">
<ele>44</ele>
</trkpt>
<trkpt lat="32.09352111111111" lon="130.17758194444446">
<ele>45</ele>
</trkpt>
<trkpt lat="32.09314611111111" lon="130.17807">
<ele>44</ele>
</trkpt>
<trkpt lat="32.09305388888889" lon="130.17833194444444">
<ele>41</ele>
</trkpt>
<trkpt lat="32.093046111111114" lon="130.178695">
<ele>36</ele>
</trkpt>
<trkpt lat="32.09327888888889" lon="130.17930694444445">
<ele>34</ele>
</trkpt>
<trkpt lat="32.09337111111111" lon="130.17962">
<ele>32</ele>
</trkpt>
<trkpt lat="32.09341194444445" lon="130.17988194444445">
<ele>31</ele>
</trkpt>
<trkpt lat="32.09342111111111" lon="130.18017">
<ele>31</ele>
</trkpt>
<trkpt lat="32.09332888888889" lon="130.180595">
<ele>30</ele>
</trkpt>
<trkpt lat="32.09317111111111" lon="130.18097">
<ele>30</ele>
</trkpt>
<trkpt lat="32.092661944444444" lon="130.18123194444445">
<ele>34</ele>
</trkpt>
<trkpt lat="32.09222888888889" lon="130.18137">
<ele>36</ele>
</trkpt>
<trkpt lat="32.091638055555556" lon="130.18155694444445">
<ele>43</ele>
</trkpt>
<trkpt lat="32.09097888888889" lon="130.18177">
<ele>47</ele>
</trkpt>
<trkpt lat="32.09054611111111" lon="130.182095">
<ele>46</ele>
</trkpt>
<trkpt lat="32.09036305555556" lon="130.182295">
<ele>46</ele>
</trkpt>
<trkpt lat="32.09030388888889" lon="130.1826188888889">
<ele>47</ele>
</trkpt>
<trkpt lat="32.090246111111114" lon="130.18305694444444">
<ele>46</ele>
</trkpt>
<trkpt lat="32.09001305555555" lon="130.18471888888888">
<ele>44</ele>
</trkpt>
<trkpt lat="32.089846111111115" lon="130.18586888888888">
<ele>46</ele>
</trkpt>
<trkpt lat="32.089755" lon="130.1863938888889">
<ele>46</ele>
</trkpt>
<trkpt lat="32.08967111111111" lon="130.1870188888889">
<ele>48</ele>
</trkpt>
<trkpt lat="32.08964611111111" lon="130.1871688888889">
<ele>44</ele>
</trkpt>
<trkpt lat="32.089755" lon="130.18756888888888">
<ele>35</ele>
</trkpt>
<trkpt lat="32.09002111111111" lon="130.1881938888889">
<ele>27</ele>
</trkpt>
<trkpt lat="32.090513055555554" lon="130.1886188888889">
<ele>27</ele>
</trkpt>
<trkpt lat="32.09077111111111" lon="130.18883194444444">
<ele>26</ele>
</trkpt>
<trkpt lat="32.09137111111111" lon="130.18935694444446">
<ele>27</ele>
</trkpt>
<trkpt lat="32.09162888888889" lon="130.18968194444443">
<ele>27</ele>
</trkpt>
<trkpt lat="32.09173805555555" lon="130.19005611111112">
<ele>27</ele>
</trkpt>
<trkpt lat="32.09173805555555" lon="130.19039388888888">
<ele>26</ele>
</trkpt>
<trkpt lat="32.09168805555556" lon="130.19095611111112">
<ele>23</ele>
</trkpt>
<trkpt lat="32.09139611111111" lon="130.19153111111112">
<ele>18</ele>
</trkpt>
<trkpt lat="32.090988055555556" lon="130.19184388888888">
<ele>16</ele>
</trkpt>
<trkpt lat="32.090088055555555" lon="130.19233111111112">
<ele>15</ele>
</trkpt>
<trkpt lat="32.08858" lon="130.1932688888889">
<ele>18</ele>
</trkpt>
<trkpt lat="32.08826305555556" lon="130.1934688888889">
<ele>22</ele>
</trkpt>
<trkpt lat="32.087738888888886" lon="130.19379388888888">
<ele>27</ele>
</trkpt>
<trkpt lat="32.08676388888889" lon="130.19445611111112">
<ele>27</ele>
</trkpt>
<trkpt lat="32.08673" lon="130.19448111111112">
<ele>27</ele>
</trkpt>
<trkpt lat="32.08618" lon="130.19480611111112">
<ele>17</ele>
</trkpt>
<trkpt lat="32.08576388888889" lon="130.1950688888889">
<ele>13</ele>
</trkpt>
<trkpt lat="32.08542194444444" lon="130.1953061111111">
<ele>14</ele>
</trkpt>
<trkpt lat="32.08523888888889" lon="130.19549388888888">
<ele>15</ele>
</trkpt>
<trkpt lat="32.08497194444445" lon="130.19580611111112">
<ele>15</ele>
</trkpt>
<trkpt lat="32.084721944444446" lon="130.1961938888889">
<ele>9</ele>
</trkpt>
<trkpt lat="32.08358888888889" lon="130.1983938888889">
<ele>3</ele>
</trkpt>
<trkpt lat="32.08341388888889" lon="130.1987311111111">
<ele>3</ele>
</trkpt>
<trkpt lat="32.08311388888889" lon="130.19931805555555">
<ele>3</ele>
</trkpt>
<trkpt lat="32.08178888888889" lon="130.20191805555555">
<ele>11</ele>
</trkpt>
<trkpt lat="32.08173111111111" lon="130.2020061111111">
<ele>11</ele>
</trkpt>
<trkpt lat="32.080965" lon="130.20353111111112">
<ele>14</ele>
</trkpt>
<trkpt lat="32.080798055555555" lon="130.2038311111111">
<ele>14</ele>
</trkpt>
<trkpt lat="32.08069805555556" lon="130.20398111111112">
<ele>14</ele>
</trkpt>
<trkpt lat="32.08054" lon="130.20419305555555">
<ele>14</ele>
</trkpt>
<trkpt lat="32.080331111111114" lon="130.20439305555556">
<ele>13</ele>
</trkpt>
<trkpt lat="32.080148055555554" lon="130.20453111111112">
<ele>14</ele>
</trkpt>
<trkpt lat="32.079973055555556" lon="130.2046311111111">
<ele>14</ele>
</trkpt>
<trkpt lat="32.07969805555555" lon="130.20471805555556">
<ele>14</ele>
</trkpt>
<trkpt lat="32.07960694444444" lon="130.20475611111112">
<ele>13</ele>
</trkpt>
<trkpt lat="32.07919" lon="130.20484305555556">
<ele>11</ele>
</trkpt>
<trkpt lat="32.07913388888889" lon="130.20466805555554">
<ele>10</ele>
</trkpt>
<trkpt lat="32.07913388888889" lon="130.20466694444445">
<ele>10</ele>
</trkpt>
<trkpt lat="32.07919" lon="130.20484305555556">
<ele>11</ele>
</trkpt>
<trkpt lat="32.079365" lon="130.2052561111111">
<ele>11</ele>
</trkpt>
<trkpt lat="32.07944805555555" lon="130.2055061111111">
<ele>12</ele>
</trkpt>
<trkpt lat="32.079523055555555" lon="130.2058561111111">
<ele>13</ele>
</trkpt>
<trkpt lat="32.07953194444445" lon="130.2060561111111">
<ele>14</ele>
</trkpt>
<trkpt lat="32.07953194444445" lon="130.20629305555556">
<ele>15</ele>
</trkpt>
<trkpt lat="32.079348055555556" lon="130.20741805555556">
<ele>18</ele>
</trkpt>
<trkpt lat="32.07919" lon="130.20839305555555">
<ele>20</ele>
</trkpt>
<trkpt lat="32.07902388888889" lon="130.20906805555555">
<ele>20</ele>
</trkpt>
<trkpt lat="32.07873194444444" lon="130.209955">
<ele>18</ele>
</trkpt>
<trkpt lat="32.07864" lon="130.21033">
<ele>17</ele>
</trkpt>
<trkpt lat="32.07859888888889" lon="130.21063">
<ele>16</ele>
</trkpt>
<trkpt lat="32.078581944444444" lon="130.211055">
<ele>14</ele>
</trkpt>
<trkpt lat="32.07865694444445" lon="130.21221805555555">
<ele>12</ele>
</trkpt>
<trkpt lat="32.078781944444444" lon="130.21393">
<ele>14</ele>
</trkpt>
<trkpt lat="32.078781944444444" lon="130.214255">
<ele>14</ele>
</trkpt>
<trkpt lat="32.078765" lon="130.21469194444444">
<ele>18</ele>
</trkpt>
<trkpt lat="32.078673888888886" lon="130.21551694444443">
<ele>22</ele>
</trkpt>
<trkpt lat="32.078406944444446" lon="130.21774194444444">
<ele>27</ele>
</trkpt>
<trkpt lat="32.07809888888889" lon="130.22031694444445">
<ele>29</ele>
</trkpt>
<trkpt lat="32.07790694444444" lon="130.2218038888889">
<ele>39</ele>
</trkpt>
<trkpt lat="32.07776611111111" lon="130.22281694444445">
<ele>36</ele>
</trkpt>
<trkpt lat="32.07760694444445" lon="130.2238288888889">
<ele>32</ele>
</trkpt>
<trkpt lat="32.07751611111111" lon="130.2242288888889">
<ele>30</ele>
</trkpt>
<trkpt lat="32.07738194444445" lon="130.22474111111111">
<ele>30</ele>
</trkpt>
<trkpt lat="32.07714111111111" lon="130.2254911111111">
<ele>33</ele>
</trkpt>
<trkpt lat="32.07707388888889" lon="130.2258161111111">
<ele>33</ele>
</trkpt>
<trkpt lat="32.077041111111114" lon="130.2261288888889">
<ele>35</ele>
</trkpt>
<trkpt lat="32.077016111111114" lon="130.2268288888889">
<ele>36</ele>
</trkpt>
<trkpt lat="32.07696611111111" lon="130.2274161111111">
<ele>36</ele>
</trkpt>
<trkpt lat="32.07689111111111" lon="130.2278661111111">
<ele>38</ele>
</trkpt>
<trkpt lat="32.07684111111111" lon="130.2280538888889">
<ele>37</ele>
</trkpt>
<trkpt lat="32.076591111111114" lon="130.22890388888888">
<ele>38</ele>
</trkpt>
<trkpt lat="32.07638388888889" lon="130.22958888888888">
<ele>40</ele>
</trkpt>
<trkpt lat="32.07638388888889" lon="130.22958888888888">
<ele>40</ele>
</trkpt>
<trkpt lat="32.076191111111115" lon="130.2302288888889">
<ele>42</ele>
</trkpt>
<trkpt lat="32.076008055555555" lon="130.23074111111112">
<ele>42</ele>
</trkpt>
<trkpt lat="32.07554888888889" lon="130.23185305555555">
<ele>47</ele>
</trkpt>
<trkpt lat="32.07546611111111" lon="130.23206611111112">
<ele>46</ele>
</trkpt>
<trkpt lat="32.07534111111111" lon="130.23230305555555">
<ele>46</ele>
</trkpt>
<trkpt lat="32.07524111111111" lon="130.23245305555557">
<ele>45</ele>
</trkpt>
<trkpt lat="32.07506611111111" lon="130.23266611111112">
<ele>41</ele>
</trkpt>
<trkpt lat="32.07496611111111" lon="130.23275305555555">
<ele>42</ele>
</trkpt>
<trkpt lat="32.07438305555556" lon="130.23325305555556">
<ele>48</ele>
</trkpt>
<trkpt lat="32.0743" lon="130.23335305555557">
<ele>48</ele>
</trkpt>
<trkpt lat="32.0742" lon="130.2334911111111">
<ele>46</ele>
</trkpt>
<trkpt lat="32.074125" lon="130.23366611111112">
<ele>44</ele>
</trkpt>
<trkpt lat="32.07406611111111" lon="130.23385305555556">
<ele>43</ele>
</trkpt>
<trkpt lat="32.07403305555555" lon="130.23412805555554">
<ele>42</ele>
</trkpt>
<trkpt lat="32.074" lon="130.23487805555555">
<ele>37</ele>
</trkpt>
<trkpt lat="32.074058055555554" lon="130.23535305555555">
<ele>36</ele>
</trkpt>
<trkpt lat="32.0743" lon="130.2359911111111">
<ele>35</ele>
</trkpt>
<trkpt lat="32.074333055555556" lon="130.23616611111112">
<ele>34</ele>
</trkpt>
<trkpt lat="32.07435805555556" lon="130.23636611111112">
<ele>35</ele>
</trkpt>
<trkpt lat="32.07434111111111" lon="130.23684">
<ele>34</ele>
</trkpt>
<trkpt lat="32.07420805555556" lon="130.23904">
<ele>31</ele>
</trkpt>
<trkpt lat="32.07415" lon="130.239715">
<ele>31</ele>
</trkpt>
<trkpt lat="32.07393305555556" lon="130.24094">
<ele>30</ele>
</trkpt>
<trkpt lat="32.073908055555556" lon="130.24115194444445">
<ele>29</ele>
</trkpt>
<trkpt lat="32.07391694444444" lon="130.241415">
<ele>26</ele>
</trkpt>
<trkpt lat="32.073975" lon="130.24170305555555">
<ele>27</ele>
</trkpt>
<trkpt lat="32.07409194444445" lon="130.24209">
<ele>25</ele>
</trkpt>
<trkpt lat="32.074875" lon="130.244715">
<ele>32</ele>
</trkpt>
<trkpt lat="32.074916944444446" lon="130.24487694444446">
<ele>33</ele>
</trkpt>
<trkpt lat="32.07494194444445" lon="130.2450388888889">
<ele>32</ele>
</trkpt>
<trkpt lat="32.07494194444445" lon="130.24520194444443">
<ele>33</ele>
</trkpt>
<trkpt lat="32.074916944444446" lon="130.2454138888889">
<ele>31</ele>
</trkpt>
<trkpt lat="32.07475" lon="130.2461638888889">
<ele>27</ele>
</trkpt>
<trkpt lat="32.07465805555555" lon="130.24645194444443">
<ele>23</ele>
</trkpt>
<trkpt lat="32.074533055555555" lon="130.24668888888888">
<ele>23</ele>
</trkpt>
<trkpt lat="32.07443305555555" lon="130.24681388888888">
<ele>24</ele>
</trkpt>
<trkpt lat="32.07429194444445" lon="130.24695194444445">
<ele>24</ele>
</trkpt>
<trkpt lat="32.07415805555556" lon="130.24702694444446">
<ele>23</ele>
</trkpt>
<trkpt lat="32.07304194444445" lon="130.24765194444444">
<ele>9</ele>
</trkpt>
<trkpt lat="32.07308388888889" lon="130.24772694444445">
<ele>9</ele>
</trkpt>
<trkpt lat="32.07313305555556" lon="130.24782194444444">
<ele>9</ele>
</trkpt>
<trkpt lat="32.07313305555556" lon="130.24782194444444">
<ele>9</ele>
</trkpt>
<trkpt lat="32.07308388888889" lon="130.24772694444445">
<ele>9</ele>
</trkpt>
<trkpt lat="32.07304194444445" lon="130.24765194444444">
<ele>9</ele>
</trkpt>
<trkpt lat="32.072675" lon="130.2470638888889">
<ele>9</ele>
</trkpt>
<trkpt lat="32.07253388888889" lon="130.24671388888888">
<ele>8</ele>
</trkpt>
<trkpt lat="32.07196611111111" lon="130.24566">
<ele>8</ele>
</trkpt>
<trkpt lat="32.07196611111111" lon="130.24566">
<ele>8</ele>
</trkpt>
<trkpt lat="32.07253388888889" lon="130.24671388888888">
<ele>8</ele>
</trkpt>
<trkpt lat="32.072675" lon="130.2470638888889">
<ele>9</ele>
</trkpt>
<trkpt lat="32.071925" lon="130.24585194444444">
<ele>8</ele>
</trkpt>
<trkpt lat="32.07183388888889" lon="130.2460888888889">
<ele>8</ele>
</trkpt>
<trkpt lat="32.071508888888886" lon="130.2470138888889">
<ele>9</ele>
</trkpt>
<trkpt lat="32.07123388888889" lon="130.24772694444445">
<ele>9</ele>
</trkpt>
<trkpt lat="32.0712" lon="130.24785194444445">
<ele>9</ele>
</trkpt>
<trkpt lat="32.07015888888889" lon="130.2507138888889">
<ele>14</ele>
</trkpt>
<trkpt lat="32.06986694444444" lon="130.2515511111111">
<ele>18</ele>
</trkpt>
<trkpt lat="32.06970111111111" lon="130.25188888888889">
<ele>16</ele>
</trkpt>
<trkpt lat="32.06960888888889" lon="130.25202611111112">
<ele>18</ele>
</trkpt>
<trkpt lat="32.069491944444444" lon="130.2521761111111">
<ele>18</ele>
</trkpt>
<trkpt lat="32.06932611111111" lon="130.25236388888888">
<ele>18</ele>
</trkpt>
<trkpt lat="32.06859305555555" lon="130.2531011111111">
<ele>18</ele>
</trkpt>
<trkpt lat="32.06765111111111" lon="130.25406388888888">
<ele>19</ele>
</trkpt>
<trkpt lat="32.06749305555556" lon="130.2542261111111">
<ele>23</ele>
</trkpt>
<trkpt lat="32.06735111111111" lon="130.2544761111111">
<ele>28</ele>
</trkpt>
<trkpt lat="32.06692611111111" lon="130.2553761111111">
<ele>25</ele>
</trkpt>
<trkpt lat="32.06675111111111" lon="130.25563888888888">
<ele>27</ele>
</trkpt>
<trkpt lat="32.066251111111114" lon="130.2561761111111">
<ele>26</ele>
</trkpt>
<trkpt lat="32.065668055555555" lon="130.25678805555555">
<ele>26</ele>
</trkpt>
<trkpt lat="32.06559305555555" lon="130.2568761111111">
<ele>27</ele>
</trkpt>
<trkpt lat="32.06521" lon="130.2573011111111">
<ele>28</ele>
</trkpt>
<trkpt lat="32.065085" lon="130.2574011111111">
<ele>31</ele>
</trkpt>
<trkpt lat="32.06496805555555" lon="130.25747611111112">
<ele>37</ele>
</trkpt>
<trkpt lat="32.06482611111111" lon="130.25753805555556">
<ele>34</ele>
</trkpt>
<trkpt lat="32.064618055555556" lon="130.2575511111111">
<ele>29</ele>
</trkpt>
<trkpt lat="32.064343055555554" lon="130.25760111111111">
<ele>27</ele>
</trkpt>
<trkpt lat="32.064185" lon="130.25763805555556">
<ele>27</ele>
</trkpt>
<trkpt lat="32.064035" lon="130.25768805555555">
<ele>26</ele>
</trkpt>
<trkpt lat="32.063901111111115" lon="130.25778805555555">
<ele>27</ele>
</trkpt>
<trkpt lat="32.06380111111111" lon="130.25791305555555">
<ele>27</ele>
</trkpt>
<trkpt lat="32.06371" lon="130.2580761111111">
<ele>28</ele>
</trkpt>
<trkpt lat="32.06366" lon="130.25823805555555">
<ele>26</ele>
</trkpt>
<trkpt lat="32.063635" lon="130.25846305555555">
<ele>27</ele>
</trkpt>
<trkpt lat="32.06362611111111" lon="130.25870111111112">
<ele>26</ele>
</trkpt>
<trkpt lat="32.06360111111111" lon="130.25918805555557">
<ele>27</ele>
</trkpt>
<trkpt lat="32.063535" lon="130.26036305555556">
<ele>26</ele>
</trkpt>
<trkpt lat="32.06352694444445" lon="130.26087611111112">
<ele>22</ele>
</trkpt>
<trkpt lat="32.063485" lon="130.26173805555555">
<ele>20</ele>
</trkpt>
<trkpt lat="32.06346805555555" lon="130.26190111111111">
<ele>20</ele>
</trkpt>
<trkpt lat="32.06344305555555" lon="130.26235111111112">
<ele>23</ele>
</trkpt>
<trkpt lat="32.06341805555556" lon="130.2625011111111">
<ele>23</ele>
</trkpt>
<trkpt lat="32.06339305555556" lon="130.26258805555557">
<ele>23</ele>
</trkpt>
<trkpt lat="32.06335194444444" lon="130.2627011111111">
<ele>23</ele>
</trkpt>
<trkpt lat="32.063268055555554" lon="130.2628511111111">
<ele>24</ele>
</trkpt>
<trkpt lat="32.06316805555556" lon="130.26298805555555">
<ele>26</ele>
</trkpt>
<trkpt lat="32.06301805555555" lon="130.26315">
<ele>26</ele>
</trkpt>
<trkpt lat="32.06086888888889" lon="130.265525">
<ele>28</ele>
</trkpt>
<trkpt lat="32.060518888888886" lon="130.26588805555556">
<ele>29</ele>
</trkpt>
<trkpt lat="32.06019388888889" lon="130.26626305555556">
<ele>29</ele>
</trkpt>
<trkpt lat="32.06006" lon="130.26643805555557">
<ele>29</ele>
</trkpt>
<trkpt lat="32.05999388888889" lon="130.266625">
<ele>29</ele>
</trkpt>
<trkpt lat="32.05996" lon="130.26676305555554">
<ele>28</ele>
</trkpt>
<trkpt lat="32.05994694444444" lon="130.26685388888887">
<ele>28</ele>
</trkpt>
<trkpt lat="32.05994694444444" lon="130.26685388888887">
<ele>28</ele>
</trkpt>
<trkpt lat="32.05992694444444" lon="130.26698805555554">
<ele>28</ele>
</trkpt>
<trkpt lat="32.059018888888886" lon="130.2669">
<ele>30</ele>
</trkpt>
<trkpt lat="32.05860194444445" lon="130.26685">
<ele>30</ele>
</trkpt>
<trkpt lat="32.05800194444444" lon="130.2668">
<ele>30</ele>
</trkpt>
<trkpt lat="32.05730194444445" lon="130.26675">
<ele>31</ele>
</trkpt>
<trkpt lat="32.05676111111111" lon="130.2667">
<ele>31</ele>
</trkpt>
<trkpt lat="32.05586888888889" lon="130.26661305555555">
<ele>31</ele>
</trkpt>
<trkpt lat="32.05567805555555" lon="130.26661305555555">
<ele>32</ele>
</trkpt>
<trkpt lat="32.055303055555555" lon="130.2666">
<ele>32</ele>
</trkpt>
<trkpt lat="32.052953055555555" lon="130.266575">
<ele>35</ele>
</trkpt>
<trkpt lat="32.05111888888889" lon="130.26653805555554">
<ele>33</ele>
</trkpt>
<trkpt lat="32.05072805555555" lon="130.266525">
<ele>35</ele>
</trkpt>
<trkpt lat="32.05038611111111" lon="130.26655">
<ele>35</ele>
</trkpt>
<trkpt lat="32.05027" lon="130.26658805555556">
<ele>34</ele>
</trkpt>
<trkpt lat="32.050145" lon="130.266675">
<ele>34</ele>
</trkpt>
<trkpt lat="32.05001111111111" lon="130.26673805555555">
<ele>34</ele>
</trkpt>
<trkpt lat="32.04982805555556" lon="130.26676305555554">
<ele>34</ele>
</trkpt>
<trkpt lat="32.04952" lon="130.266725">
<ele>33</ele>
</trkpt>
<trkpt lat="32.04901111111111" lon="130.2666">
<ele>35</ele>
</trkpt>
<trkpt lat="32.04877305555556" lon="130.26651611111112">
<ele>35</ele>
</trkpt>
<trkpt lat="32.04877305555556" lon="130.26651694444445">
<ele>35</ele>
</trkpt>
<trkpt lat="32.04901111111111" lon="130.2666">
<ele>35</ele>
</trkpt>
<trkpt lat="32.04866111111111" lon="130.26956305555555">
<ele>32</ele>
</trkpt>
<trkpt lat="32.04833611111111" lon="130.2725">
<ele>29</ele>
</trkpt>
<trkpt lat="32.04827" lon="130.27276194444445">
<ele>29</ele>
</trkpt>
<trkpt lat="32.04817" lon="130.273175">
<ele>29</ele>
</trkpt>
<trkpt lat="32.04801111111111" lon="130.273575">
<ele>30</ele>
</trkpt>
<trkpt lat="32.04765305555556" lon="130.27451194444444">
<ele>31</ele>
</trkpt>
<trkpt lat="32.047403055555556" lon="130.27518694444444">
<ele>32</ele>
</trkpt>
<trkpt lat="32.04732805555555" lon="130.27543694444444">
<ele>32</ele>
</trkpt>
<trkpt lat="32.04727" lon="130.27573694444445">
<ele>33</ele>
</trkpt>
<trkpt lat="32.047245" lon="130.27608694444444">
<ele>33</ele>
</trkpt>
<trkpt lat="32.04723694444444" lon="130.27651194444445">
<ele>35</ele>
</trkpt>
<trkpt lat="32.04717" lon="130.2774488888889">
<ele>38</ele>
</trkpt>
<trkpt lat="32.04710305555555" lon="130.27771194444443">
<ele>39</ele>
</trkpt>
<trkpt lat="32.04698694444444" lon="130.2780238888889">
<ele>42</ele>
</trkpt>
<trkpt lat="32.04653694444445" lon="130.2792488888889">
<ele>43</ele>
</trkpt>
<trkpt lat="32.046011944444444" lon="130.28073694444444">
<ele>57</ele>
</trkpt>
<trkpt lat="32.04566194444445" lon="130.2817488888889">
<ele>63</ele>
</trkpt>
<trkpt lat="32.045411944444446" lon="130.28319888888888">
<ele>86</ele>
</trkpt>
<trkpt lat="32.04531305555555" lon="130.2839111111111">
<ele>85</ele>
</trkpt>
<trkpt lat="32.04531305555555" lon="130.2839111111111">
<ele>85</ele>
</trkpt>
<trkpt lat="32.04510305555556" lon="130.2854238888889">
<ele>84</ele>
</trkpt>
<trkpt lat="32.044778055555554" lon="130.28794888888888">
<ele>83</ele>
</trkpt>
<trkpt lat="32.044561944444446" lon="130.28962388888888">
<ele>85</ele>
</trkpt>
<trkpt lat="32.04441194444444" lon="130.29066194444445">
<ele>87</ele>
</trkpt>
<trkpt lat="32.044336944444446" lon="130.29122388888888">
<ele>88</ele>
</trkpt>
<trkpt lat="32.04432" lon="130.2920488888889">
<ele>92</ele>
</trkpt>
<trkpt lat="32.04442" lon="130.29268694444445">
<ele>97</ele>
</trkpt>
<trkpt lat="32.04540305555555" lon="130.2946488888889">
<ele>89</ele>
</trkpt>
<trkpt lat="32.04566194444445" lon="130.29531111111112">
<ele>89</ele>
</trkpt>
<trkpt lat="32.04591111111111" lon="130.2960111111111">
<ele>90</ele>
</trkpt>
<trkpt lat="32.04595305555556" lon="130.29621111111112">
<ele>93</ele>
</trkpt>
<trkpt lat="32.04597805555556" lon="130.29644888888888">
<ele>101</ele>
</trkpt>
<trkpt lat="32.04596111111111" lon="130.2967238888889">
<ele>102</ele>
</trkpt>
<trkpt lat="32.04592" lon="130.29698611111112">
<ele>101</ele>
</trkpt>
<trkpt lat="32.045836111111115" lon="130.2972611111111">
<ele>101</ele>
</trkpt>
<trkpt lat="32.04506194444444" lon="130.2993361111111">
<ele>101</ele>
</trkpt>
<trkpt lat="32.044745" lon="130.2999988888889">
<ele>103</ele>
</trkpt>
<trkpt lat="32.04442805555556" lon="130.30073611111112">
<ele>105</ele>
</trkpt>
<trkpt lat="32.044395" lon="130.30098611111111">
<ele>103</ele>
</trkpt>
<trkpt lat="32.044445" lon="130.3012361111111">
<ele>102</ele>
</trkpt>
<trkpt lat="32.04452" lon="130.30139888888888">
<ele>103</ele>
</trkpt>
<trkpt lat="32.044761944444446" lon="130.3017111111111">
<ele>100</ele>
</trkpt>
<trkpt lat="32.045295" lon="130.30221111111112">
<ele>96</ele>
</trkpt>
<trkpt lat="32.04552805555556" lon="130.30244888888888">
<ele>99</ele>
</trkpt>
<trkpt lat="32.04567" lon="130.30264888888888">
<ele>101</ele>
</trkpt>
<trkpt lat="32.04587" lon="130.30297388888889">
<ele>102</ele>
</trkpt>
<trkpt lat="32.04602805555555" lon="130.30333611111112">
<ele>100</ele>
</trkpt>
<trkpt lat="32.04614194444444" lon="130.3036661111111">
<ele>97</ele>
</trkpt>
<trkpt lat="32.04614194444444" lon="130.3036661111111">
<ele>97</ele>
</trkpt>
<trkpt lat="32.04617" lon="130.3037488888889">
<ele>96</ele>
</trkpt>
<trkpt lat="32.04632" lon="130.3046611111111">
<ele>93</ele>
</trkpt>
<trkpt lat="32.046553055555556" lon="130.30653611111111">
<ele>81</ele>
</trkpt>
<trkpt lat="32.04702" lon="130.31027305555557">
<ele>72</ele>
</trkpt>
<trkpt lat="32.047086944444445" lon="130.3106361111111">
<ele>69</ele>
</trkpt>
<trkpt lat="32.04722" lon="130.31106">
<ele>65</ele>
</trkpt>
<trkpt lat="32.04727" lon="130.31121">
<ele>63</ele>
</trkpt>
<trkpt lat="32.047553055555554" lon="130.31207305555554">
<ele>61</ele>
</trkpt>
<trkpt lat="32.04828694444444" lon="130.31434694444445">
<ele>60</ele>
</trkpt>
<trkpt lat="32.048386944444445" lon="130.314685">
<ele>61</ele>
</trkpt>
<trkpt lat="32.048428055555554" lon="130.31487305555555">
<ele>61</ele>
</trkpt>
<trkpt lat="32.048478055555556" lon="130.31504694444445">
<ele>63</ele>
</trkpt>
<trkpt lat="32.04897" lon="130.31706">
<ele>68</ele>
</trkpt>
<trkpt lat="32.04908694444445" lon="130.31739694444445">
<ele>68</ele>
</trkpt>
<trkpt lat="32.04922" lon="130.31766">
<ele>70</ele>
</trkpt>
<trkpt lat="32.049303055555555" lon="130.31781">
<ele>71</ele>
</trkpt>
<trkpt lat="32.04936111111111" lon="130.31792194444444">
<ele>74</ele>
</trkpt>
<trkpt lat="32.05006111111111" lon="130.319085">
<ele>78</ele>
</trkpt>
<trkpt lat="32.05082" lon="130.32034694444445">
<ele>77</ele>
</trkpt>
<trkpt lat="32.05101111111111" lon="130.32067194444446">
<ele>74</ele>
</trkpt>
<trkpt lat="32.051161111111114" lon="130.3209338888889">
<ele>72</ele>
</trkpt>
<trkpt lat="32.05153611111111" lon="130.32154694444444">
<ele>67</ele>
</trkpt>
<trkpt lat="32.051678055555556" lon="130.3218838888889">
<ele>62</ele>
</trkpt>
<trkpt lat="32.05172805555556" lon="130.3220838888889">
<ele>61</ele>
</trkpt>
<trkpt lat="32.05176111111111" lon="130.3223088888889">
<ele>60</ele>
</trkpt>
<trkpt lat="32.05176111111111" lon="130.3226838888889">
<ele>67</ele>
</trkpt>
<trkpt lat="32.05160305555555" lon="130.32498388888888">
<ele>87</ele>
</trkpt>
<trkpt lat="32.05157805555555" lon="130.3253838888889">
<ele>87</ele>
</trkpt>
<trkpt lat="32.051586111111114" lon="130.32562194444444">
<ele>88</ele>
</trkpt>
<trkpt lat="32.051653055555555" lon="130.3260838888889">
<ele>88</ele>
</trkpt>
<trkpt lat="32.05171111111111" lon="130.3262838888889">
<ele>91</ele>
</trkpt>
<trkpt lat="32.05197694444445" lon="130.32676111111113">
<ele>89</ele>
</trkpt>
<trkpt lat="32.05197694444445" lon="130.32676111111113">
<ele>89</ele>
</trkpt>
<trkpt lat="32.05201111111111" lon="130.32682194444445">
<ele>89</ele>
</trkpt>
<trkpt lat="32.052261111111115" lon="130.3271838888889">
<ele>87</ele>
</trkpt>
<trkpt lat="32.05283611111111" lon="130.3279961111111">
<ele>87</ele>
</trkpt>
<trkpt lat="32.053045" lon="130.32837111111112">
<ele>88</ele>
</trkpt>
<trkpt lat="32.053111111111114" lon="130.32862111111112">
<ele>88</ele>
</trkpt>
<trkpt lat="32.053153055555555" lon="130.32895888888888">
<ele>89</ele>
</trkpt>
<trkpt lat="32.05322805555556" lon="130.32997111111112">
<ele>90</ele>
</trkpt>
<trkpt lat="32.05327" lon="130.3304961111111">
<ele>90</ele>
</trkpt>
<trkpt lat="32.05327" lon="130.3305088888889">
<ele>90</ele>
</trkpt>
<trkpt lat="32.05328611111111" lon="130.33074611111113">
<ele>90</ele>
</trkpt>
<trkpt lat="32.05327805555556" lon="130.33109611111112">
<ele>91</ele>
</trkpt>
<trkpt lat="32.05322805555556" lon="130.33143388888888">
<ele>91</ele>
</trkpt>
<trkpt lat="32.05322805555556" lon="130.3319588888889">
<ele>91</ele>
</trkpt>
<trkpt lat="32.053245" lon="130.33213388888888">
<ele>91</ele>
</trkpt>
<trkpt lat="32.05330305555555" lon="130.3324338888889">
<ele>91</ele>
</trkpt>
<trkpt lat="32.05342805555556" lon="130.3331961111111">
<ele>93</ele>
</trkpt>
<trkpt lat="32.05350305555555" lon="130.3336461111111">
<ele>93</ele>
</trkpt>
<trkpt lat="32.053603055555556" lon="130.3342211111111">
<ele>95</ele>
</trkpt>
<trkpt lat="32.053628055555556" lon="130.3343588888889">
<ele>96</ele>
</trkpt>
<trkpt lat="32.05367" lon="130.3346338888889">
<ele>96</ele>
</trkpt>
<trkpt lat="32.05368611111111" lon="130.33470888888888">
<ele>96</ele>
</trkpt>
<trkpt lat="32.05381111111111" lon="130.3354961111111">
<ele>96</ele>
</trkpt>
<trkpt lat="32.05382" lon="130.33553305555554">
<ele>96</ele>
</trkpt>
<trkpt lat="32.053845" lon="130.33565805555557">
<ele>96</ele>
</trkpt>
<trkpt lat="32.05390305555556" lon="130.3359211111111">
<ele>95</ele>
</trkpt>
<trkpt lat="32.053995" lon="130.3361461111111">
<ele>94</ele>
</trkpt>
<trkpt lat="32.05417805555555" lon="130.33645805555557">
<ele>91</ele>
</trkpt>
<trkpt lat="32.05433611111111" lon="130.33663305555555">
<ele>88</ele>
</trkpt>
<trkpt lat="32.05473611111111" lon="130.3369211111111">
<ele>84</ele>
</trkpt>
<trkpt lat="32.05551111111111" lon="130.33743305555555">
<ele>78</ele>
</trkpt>
<trkpt lat="32.055895" lon="130.33765805555555">
<ele>76</ele>
</trkpt>
<trkpt lat="32.05605305555556" lon="130.3377461111111">
<ele>74</ele>
</trkpt>
<trkpt lat="32.05620305555556" lon="130.3378211111111">
<ele>72</ele>
</trkpt>
<trkpt lat="32.05661888888889" lon="130.33802111111112">
<ele>62</ele>
</trkpt>
<trkpt lat="32.05666111111111" lon="130.3380461111111">
<ele>62</ele>
</trkpt>
<trkpt lat="32.05689388888889" lon="130.33823305555555">
<ele>58</ele>
</trkpt>
<trkpt lat="32.05701111111111" lon="130.3383961111111">
<ele>57</ele>
</trkpt>
<trkpt lat="32.05708611111111" lon="130.33855805555555">
<ele>56</ele>
</trkpt>
<trkpt lat="32.05715305555555" lon="130.33875805555556">
<ele>55</ele>
</trkpt>
<trkpt lat="32.05716888888889" lon="130.3388461111111">
<ele>56</ele>
</trkpt>
<trkpt lat="32.05721111111111" lon="130.33940805555557">
<ele>59</ele>
</trkpt>
<trkpt lat="32.05724388888889" lon="130.3398961111111">
<ele>59</ele>
</trkpt>
<trkpt lat="32.057293888888886" lon="130.34078305555556">
<ele>58</ele>
</trkpt>
<trkpt lat="32.05736888888889" lon="130.34205805555555">
<ele>56</ele>
</trkpt>
<trkpt lat="32.05739388888889" lon="130.34243305555555">
<ele>56</ele>
</trkpt>
<trkpt lat="32.057453055555555" lon="130.34343305555555">
<ele>58</ele>
</trkpt>
<trkpt lat="32.057478055555556" lon="130.343695">
<ele>58</ele>
</trkpt>
<trkpt lat="32.057518888888886" lon="130.34388305555555">
<ele>58</ele>
</trkpt>
<trkpt lat="32.05759388888889" lon="130.34408305555556">
<ele>58</ele>
</trkpt>
<trkpt lat="32.05770305555556" lon="130.34427">
<ele>57</ele>
</trkpt>
<trkpt lat="32.05784388888889" lon="130.344445">
<ele>55</ele>
</trkpt>
<trkpt lat="32.058011111111114" lon="130.34458305555555">
<ele>57</ele>
</trkpt>
<trkpt lat="32.058236111111114" lon="130.34475805555556">
<ele>56</ele>
</trkpt>
<trkpt lat="32.05854388888889" lon="130.34503305555555">
<ele>56</ele>
</trkpt>
<trkpt lat="32.05865305555555" lon="130.34517">
<ele>56</ele>
</trkpt>
<trkpt lat="32.058748888888886" lon="130.34532694444445">
<ele>55</ele>
</trkpt>
<trkpt lat="32.058748055555554" lon="130.34532694444445">
<ele>55</ele>
</trkpt>
<trkpt lat="32.05882805555556" lon="130.34545805555555">
<ele>55</ele>
</trkpt>
<trkpt lat="32.058928055555555" lon="130.34567">
<ele>55</ele>
</trkpt>
<trkpt lat="32.05903611111111" lon="130.345895">
<ele>54</ele>
</trkpt>
<trkpt lat="32.05911111111111" lon="130.346045">
<ele>54</ele>
</trkpt>
<trkpt lat="32.05921111111111" lon="130.34617">
<ele>51</ele>
</trkpt>
<trkpt lat="32.05931888888889" lon="130.34627">
<ele>49</ele>
</trkpt>
<trkpt lat="32.05947805555556" lon="130.34638305555555">
<ele>49</ele>
</trkpt>
<trkpt lat="32.05961111111111" lon="130.34643194444445">
<ele>48</ele>
</trkpt>
<trkpt lat="32.05979388888889" lon="130.34648305555555">
<ele>47</ele>
</trkpt>
<trkpt lat="32.061993888888885" lon="130.34715805555555">
<ele>42</ele>
</trkpt>
<trkpt lat="32.062201944444446" lon="130.347245">
<ele>41</ele>
</trkpt>
<trkpt lat="32.06259388888889" lon="130.34753194444446">
<ele>39</ele>
</trkpt>
<trkpt lat="32.06281111111111" lon="130.34765694444445">
<ele>39</ele>
</trkpt>
<trkpt lat="32.06292694444444" lon="130.347895">
<ele>42</ele>
</trkpt>
<trkpt lat="32.06297694444444" lon="130.348045">
<ele>42</ele>
</trkpt>
<trkpt lat="32.06299388888889" lon="130.34828305555556">
<ele>42</ele>
</trkpt>
<trkpt lat="32.06304388888889" lon="130.34858194444445">
<ele>42</ele>
</trkpt>
<trkpt lat="32.06310194444445" lon="130.34878194444445">
<ele>44</ele>
</trkpt>
<trkpt lat="32.06323611111111" lon="130.34917">
<ele>46</ele>
</trkpt>
<trkpt lat="32.06337694444444" lon="130.349545">
<ele>45</ele>
</trkpt>
<trkpt lat="32.06346111111111" lon="130.34978194444443">
<ele>47</ele>
</trkpt>
<trkpt lat="32.06351111111111" lon="130.34998194444444">
<ele>47</ele>
</trkpt>
<trkpt lat="32.06353611111111" lon="130.35023194444443">
<ele>47</ele>
</trkpt>
<trkpt lat="32.06352694444445" lon="130.35035694444446">
<ele>46</ele>
</trkpt>
<trkpt lat="32.06350194444445" lon="130.35048194444445">
<ele>46</ele>
</trkpt>
<trkpt lat="32.06337694444444" lon="130.35083194444445">
<ele>48</ele>
</trkpt>
<trkpt lat="32.06330194444445" lon="130.35097">
<ele>50</ele>
</trkpt>
<trkpt lat="32.06311888888889" lon="130.351395">
<ele>52</ele>
</trkpt>
<trkpt lat="32.06278611111111" lon="130.35212">
<ele>55</ele>
</trkpt>
<trkpt lat="32.062178055555556" lon="130.35325694444444">
<ele>57</ele>
</trkpt>
<trkpt lat="32.06203611111111" lon="130.3534938888889">
<ele>57</ele>
</trkpt>
<trkpt lat="32.06194388888889" lon="130.35378194444445">
<ele>55</ele>
</trkpt>
<trkpt lat="32.06194388888889" lon="130.3540688888889">
<ele>53</ele>
</trkpt>
<trkpt lat="32.06205305555556" lon="130.35521888888888">
<ele>60</ele>
</trkpt>
<trkpt lat="32.062153055555555" lon="130.3562938888889">
<ele>75</ele>
</trkpt>
<trkpt lat="32.062153055555555" lon="130.35653194444444">
<ele>77</ele>
</trkpt>
<trkpt lat="32.062086111111114" lon="130.35705694444445">
<ele>83</ele>
</trkpt>
<trkpt lat="32.06196111111111" lon="130.35755694444444">
<ele>88</ele>
</trkpt>
<trkpt lat="32.061728055555555" lon="130.35810694444444">
<ele>93</ele>
</trkpt>
<trkpt lat="32.06169388888889" lon="130.35820694444445">
<ele>93</ele>
</trkpt>
<trkpt lat="32.06163611111111" lon="130.35851888888888">
<ele>85</ele>
</trkpt>
<trkpt lat="32.06161888888889" lon="130.3587188888889">
<ele>81</ele>
</trkpt>
<trkpt lat="32.06163611111111" lon="130.35888194444445">
<ele>80</ele>
</trkpt>
<trkpt lat="32.06163611111111" lon="130.35890694444444">
<ele>79</ele>
</trkpt>
<trkpt lat="32.06183611111111" lon="130.35990694444445">
<ele>69</ele>
</trkpt>
<trkpt lat="32.06179111111111" lon="130.35992694444445">
<ele>69</ele>
</trkpt>
<trkpt lat="32.06179111111111" lon="130.35992694444445">
<ele>69</ele>
</trkpt>
<trkpt lat="32.06183611111111" lon="130.35990694444445">
<ele>69</ele>
</trkpt>
<trkpt lat="32.06206888888889" lon="130.35985694444443">
<ele>69</ele>
</trkpt>
<trkpt lat="32.06225194444445" lon="130.35983194444444">
<ele>69</ele>
</trkpt>
<trkpt lat="32.062778055555555" lon="130.3597438888889">
<ele>70</ele>
</trkpt>
<trkpt lat="32.06301888888889" lon="130.3596938888889">
<ele>70</ele>
</trkpt>
<trkpt lat="32.06333611111111" lon="130.35958194444444">
<ele>69</ele>
</trkpt>
<trkpt lat="32.06360194444444" lon="130.3594688888889">
<ele>66</ele>
</trkpt>
<trkpt lat="32.064126944444446" lon="130.35919388888888">
<ele>62</ele>
</trkpt>
<trkpt lat="32.06551" lon="130.35843194444445">
<ele>52</ele>
</trkpt>
<trkpt lat="32.06601888888889" lon="130.35808194444445">
<ele>49</ele>
</trkpt>
<trkpt lat="32.06606" lon="130.3580438888889">
<ele>49</ele>
</trkpt>
<trkpt lat="32.06615194444444" lon="130.35798194444445">
<ele>48</ele>
</trkpt>
<trkpt lat="32.066426944444444" lon="130.3577938888889">
<ele>46</ele>
</trkpt>
<trkpt lat="32.06669388888889" lon="130.35758194444443">
<ele>45</ele>
</trkpt>
<trkpt lat="32.06681888888889" lon="130.35745694444444">
<ele>46</ele>
</trkpt>
<trkpt lat="32.066935" lon="130.3573188888889">
<ele>46</ele>
</trkpt>
<trkpt lat="32.06701" lon="130.35720694444444">
<ele>47</ele>
</trkpt>
<trkpt lat="32.06719388888889" lon="130.35691888888888">
<ele>46</ele>
</trkpt>
<trkpt lat="32.067368888888886" lon="130.3566688888889">
<ele>45</ele>
</trkpt>
<trkpt lat="32.06751888888889" lon="130.35648194444445">
<ele>43</ele>
</trkpt>
<trkpt lat="32.06769388888889" lon="130.3563188888889">
<ele>39</ele>
</trkpt>
<trkpt lat="32.06791805555556" lon="130.35615694444445">
<ele>39</ele>
</trkpt>
<trkpt lat="32.06822694444445" lon="130.3559688888889">
<ele>39</ele>
</trkpt>
<trkpt lat="32.06871805555556" lon="130.35565694444443">
<ele>37</ele>
</trkpt>
<trkpt lat="32.06899305555555" lon="130.35548194444445">
<ele>37</ele>
</trkpt>
<trkpt lat="32.06916805555556" lon="130.35530694444444">
<ele>36</ele>
</trkpt>
<trkpt lat="32.06936" lon="130.3550688888889">
<ele>36</ele>
</trkpt>
<trkpt lat="32.06952694444445" lon="130.35478194444445">
<ele>36</ele>
</trkpt>
<trkpt lat="32.06966805555555" lon="130.35453194444443">
<ele>36</ele>
</trkpt>
<trkpt lat="32.06980194444444" lon="130.3542688888889">
<ele>35</ele>
</trkpt>
<trkpt lat="32.06986805555555" lon="130.35415694444444">
<ele>34</ele>
</trkpt>
<trkpt lat="32.06999305555556" lon="130.3539438888889">
<ele>33</ele>
</trkpt>
<trkpt lat="32.070235" lon="130.35351888888889">
<ele>29</ele>
</trkpt>
<trkpt lat="32.07091" lon="130.35227">
<ele>29</ele>
</trkpt>
<trkpt lat="32.071385" lon="130.351395">
<ele>28</ele>
</trkpt>
<trkpt lat="32.07156805555555" lon="130.35105694444445">
<ele>28</ele>
</trkpt>
<trkpt lat="32.072535" lon="130.34933194444446">
<ele>30</ele>
</trkpt>
<trkpt lat="32.07262611111111" lon="130.34920694444443">
<ele>30</ele>
</trkpt>
<trkpt lat="32.07266805555555" lon="130.34915694444445">
<ele>30</ele>
</trkpt>
<trkpt lat="32.07296" lon="130.34883194444444">
<ele>31</ele>
</trkpt>
<trkpt lat="32.07309305555555" lon="130.34870694444444">
<ele>31</ele>
</trkpt>
<trkpt lat="32.07332611111111" lon="130.348545">
<ele>32</ele>
</trkpt>
<trkpt lat="32.07369305555556" lon="130.34832">
<ele>31</ele>
</trkpt>
<trkpt lat="32.07416805555555" lon="130.34807">
<ele>30</ele>
</trkpt>
<trkpt lat="32.07454305555556" lon="130.347895">
<ele>30</ele>
</trkpt>
<trkpt lat="32.07560888888889" lon="130.34732">
<ele>31</ele>
</trkpt>
<trkpt lat="32.07674305555555" lon="130.34673305555555">
<ele>31</ele>
</trkpt>
<trkpt lat="32.07795111111111" lon="130.346095">
<ele>30</ele>
</trkpt>
<trkpt lat="32.07884194444444" lon="130.34563194444445">
<ele>30</ele>
</trkpt>
<trkpt lat="32.080376111111114" lon="130.34483194444445">
<ele>30</ele>
</trkpt>
<trkpt lat="32.08101694444444" lon="130.34452">
<ele>28</ele>
</trkpt>
<trkpt lat="32.081525" lon="130.344395">
<ele>28</ele>
</trkpt>
<trkpt lat="32.08181694444445" lon="130.34435805555555">
<ele>26</ele>
</trkpt>
<trkpt lat="32.08251694444444" lon="130.34433305555555">
<ele>25</ele>
</trkpt>
<trkpt lat="32.083266944444446" lon="130.34430694444444">
<ele>24</ele>
</trkpt>
<trkpt lat="32.08395" lon="130.34428194444445">
<ele>23</ele>
</trkpt>
<trkpt lat="32.08400805555556" lon="130.34427">
<ele>22</ele>
</trkpt>
<trkpt lat="32.084158055555555" lon="130.34425694444445">
<ele>22</ele>
</trkpt>
<trkpt lat="32.08436694444445" lon="130.34420805555555">
<ele>22</ele>
</trkpt>
<trkpt lat="32.08450805555555" lon="130.34417">
<ele>22</ele>
</trkpt>
<trkpt lat="32.084725" lon="130.344095">
<ele>21</ele>
</trkpt>
<trkpt lat="32.08495805555555" lon="130.34400805555555">
<ele>21</ele>
</trkpt>
<trkpt lat="32.08515805555555" lon="130.34393194444445">
<ele>21</ele>
</trkpt>
<trkpt lat="32.085766944444444" lon="130.343695">
<ele>21</ele>
</trkpt>
<trkpt lat="32.0861" lon="130.34355805555555">
<ele>21</ele>
</trkpt>
<trkpt lat="32.08676611111111" lon="130.343295">
<ele>22</ele>
</trkpt>
<trkpt lat="32.087158055555555" lon="130.343145">
<ele>21</ele>
</trkpt>
<trkpt lat="32.087365" lon="130.34306">
<ele>21</ele>
</trkpt>
<trkpt lat="32.087365" lon="130.34306">
<ele>21</ele>
</trkpt>
<trkpt lat="32.087158055555555" lon="130.343145">
<ele>21</ele>
</trkpt>
<trkpt lat="32.08730805555555" lon="130.34362">
<ele>20</ele>
</trkpt>
<trkpt lat="32.087333055555554" lon="130.34370694444445">
<ele>19</ele>
</trkpt>
<trkpt lat="32.087725" lon="130.34512">
<ele>15</ele>
</trkpt>
<trkpt lat="32.08786" lon="130.3455361111111">
<ele>14</ele>
</trkpt>
<trkpt lat="32.08786" lon="130.3455361111111">
<ele>14</ele>
</trkpt>
<trkpt lat="32.08788305555556" lon="130.34560694444446">
<ele>14</ele>
</trkpt>
<trkpt lat="32.08830805555556" lon="130.34540694444445">
<ele>14</ele>
</trkpt>
<trkpt lat="32.089573888888886" lon="130.34483194444445">
<ele>13</ele>
</trkpt>
<trkpt lat="32.08988305555555" lon="130.34470694444445">
<ele>13</ele>
</trkpt>
<trkpt lat="32.08998305555556" lon="130.34465805555556">
<ele>13</ele>
</trkpt>
<trkpt lat="32.09024111111111" lon="130.34447">
<ele>13</ele>
</trkpt>
<trkpt lat="32.09102388888889" lon="130.34410805555555">
<ele>14</ele>
</trkpt>
<trkpt lat="32.09186611111111" lon="130.343745">
<ele>15</ele>
</trkpt>
<trkpt lat="32.09283305555556" lon="130.34330805555555">
<ele>14</ele>
</trkpt>
<trkpt lat="32.09464111111111" lon="130.34252">
<ele>9</ele>
</trkpt>
<trkpt lat="32.09608388888889" lon="130.34188111111112">
<ele>9</ele>
</trkpt>
<trkpt lat="32.09608388888889" lon="130.34188111111112">
<ele>9</ele>
</trkpt>
<trkpt lat="32.09644888888889" lon="130.34172">
<ele>9</ele>
</trkpt>
<trkpt lat="32.09653194444444" lon="130.34198305555554">
<ele>9</ele>
</trkpt>
<trkpt lat="32.09659111111111" lon="130.34213305555556">
<ele>9</ele>
</trkpt>
<trkpt lat="32.09663194444445" lon="130.34233194444445">
<ele>9</ele>
</trkpt>
<trkpt lat="32.09667388888889" lon="130.342445">
<ele>9</ele>
</trkpt>
<trkpt lat="32.09679111111111" lon="130.34275805555555">
<ele>9</ele>
</trkpt>
<trkpt lat="32.096831944444446" lon="130.34295805555556">
<ele>9</ele>
</trkpt>
<trkpt lat="32.09697388888889" lon="130.343345">
<ele>9</ele>
</trkpt>
<trkpt lat="32.09701611111111" lon="130.34353305555555">
<ele>9</ele>
</trkpt>
<trkpt lat="32.09704888888889" lon="130.34363305555556">
<ele>9</ele>
</trkpt>
<trkpt lat="32.09710694444444" lon="130.34377">
<ele>9</ele>
</trkpt>
<trkpt lat="32.09717388888889" lon="130.343945">
<ele>9</ele>
</trkpt>
<trkpt lat="32.097231944444445" lon="130.34410805555555">
<ele>9</ele>
</trkpt>
<trkpt lat="32.09713194444444" lon="130.34420805555555">
<ele>9</ele>
</trkpt>
<trkpt lat="32.09709111111111" lon="130.34432">
<ele>9</ele>
</trkpt>
<trkpt lat="32.09710694444444" lon="130.34445805555555">
<ele>9</ele>
</trkpt>
<trkpt lat="32.09731" lon="130.3446911111111">
<ele>9</ele>
</trkpt>
    </trkseg>
  </trk>
</gpx>