<?xml version="1.0" encoding="UTF-8"?>
<gpx version="1.1"
     creator="KMLtoGPX"
     xmlns="http://www.topografix.com/GPX/1/1">
  <metadata>
    <name>AMAKUSA SUNSET-LINE ROUTE</name>
    <desc>AMAKUSA Sunset-line Route</desc>
    <bounds minlat="32.30338805555556" minlon="129.98356305555555" maxlat="32.42330111111111" maxlon="130.07568111111112"/>
  </metadata>
  <trk>
    <name>AMAKUSA SUNSET-LINE ROUTE</name>
    <trkseg>
<trkpt lat="32.330235" lon="130.0749788888889">
<ele>9</ele>
</trkpt>
<trkpt lat="32.329993888888886" lon="130.0752938888889">
<ele>9</ele>
</trkpt>
<trkpt lat="32.32989388888889" lon="130.0753938888889">
<ele>9</ele>
</trkpt>
<trkpt lat="32.32974388888889" lon="130.07568111111112">
<ele>9</ele>
</trkpt>
<trkpt lat="32.32746111111111" lon="130.0743938888889">
<ele>9</ele>
</trkpt>
<trkpt lat="32.32729388888889" lon="130.0742938888889">
<ele>9</ele>
</trkpt>
<trkpt lat="32.32725111111111" lon="130.0742911111111">
<ele>9</ele>
</trkpt>
<trkpt lat="32.32725111111111" lon="130.0742911111111">
<ele>9</ele>
</trkpt>
<trkpt lat="32.32711888888889" lon="130.07428194444444">
<ele>9</ele>
</trkpt>
<trkpt lat="32.32703611111111" lon="130.0739188888889">
<ele>9</ele>
</trkpt>
<trkpt lat="32.32691888888889" lon="130.07364388888888">
<ele>9</ele>
</trkpt>
<trkpt lat="32.32675305555556" lon="130.0734688888889">
<ele>9</ele>
</trkpt>
<trkpt lat="32.326636111111114" lon="130.07330694444445">
<ele>9</ele>
</trkpt>
<trkpt lat="32.32642805555555" lon="130.07318194444446">
<ele>9</ele>
</trkpt>
<trkpt lat="32.32622805555555" lon="130.0731188888889">
<ele>9</ele>
</trkpt>
<trkpt lat="32.326143888888886" lon="130.07305694444443">
<ele>9</ele>
</trkpt>
<trkpt lat="32.32586111111111" lon="130.07275694444445">
<ele>8</ele>
</trkpt>
<trkpt lat="32.32572805555556" lon="130.07265694444445">
<ele>8</ele>
</trkpt>
<trkpt lat="32.32546888888889" lon="130.07245694444444">
<ele>8</ele>
</trkpt>
<trkpt lat="32.32494388888889" lon="130.07228194444446">
<ele>8</ele>
</trkpt>
<trkpt lat="32.32397805555556" lon="130.07194388888888">
<ele>9</ele>
</trkpt>
<trkpt lat="32.32376111111111" lon="130.0717938888889">
<ele>9</ele>
</trkpt>
<trkpt lat="32.32346111111111" lon="130.07159388888888">
<ele>8</ele>
</trkpt>
<trkpt lat="32.323253055555554" lon="130.0714438888889">
<ele>8</ele>
</trkpt>
<trkpt lat="32.32306111111111" lon="130.0712438888889">
<ele>8</ele>
</trkpt>
<trkpt lat="32.32276111111111" lon="130.07095694444445">
<ele>9</ele>
</trkpt>
<trkpt lat="32.322673888888886" lon="130.07087611111112">
<ele>8</ele>
</trkpt>
<trkpt lat="32.322673888888886" lon="130.07087611111112">
<ele>8</ele>
</trkpt>
<trkpt lat="32.32243611111111" lon="130.07065694444444">
<ele>8</ele>
</trkpt>
<trkpt lat="32.32210305555556" lon="130.07035694444446">
<ele>8</ele>
</trkpt>
<trkpt lat="32.32190305555556" lon="130.07015694444445">
<ele>8</ele>
</trkpt>
<trkpt lat="32.32172" lon="130.07001888888888">
<ele>8</ele>
</trkpt>
<trkpt lat="32.321578055555555" lon="130.06997">
<ele>8</ele>
</trkpt>
<trkpt lat="32.321103055555554" lon="130.069745">
<ele>8</ele>
</trkpt>
<trkpt lat="32.32076111111111" lon="130.06958194444445">
<ele>8</ele>
</trkpt>
<trkpt lat="32.320461944444446" lon="130.06945694444445">
<ele>8</ele>
</trkpt>
<trkpt lat="32.320303055555556" lon="130.069395">
<ele>8</ele>
</trkpt>
<trkpt lat="32.32011194444444" lon="130.06940694444444">
<ele>9</ele>
</trkpt>
<trkpt lat="32.320011944444445" lon="130.069445">
<ele>9</ele>
</trkpt>
<trkpt lat="32.319945" lon="130.069545">
<ele>8</ele>
</trkpt>
<trkpt lat="32.31980305555555" lon="130.06998194444444">
<ele>9</ele>
</trkpt>
<trkpt lat="32.319603055555554" lon="130.07040694444444">
<ele>9</ele>
</trkpt>
<trkpt lat="32.31937" lon="130.07087">
<ele>9</ele>
</trkpt>
<trkpt lat="32.319111944444444" lon="130.07136888888888">
<ele>9</ele>
</trkpt>
<trkpt lat="32.31902" lon="130.0714438888889">
<ele>9</ele>
</trkpt>
<trkpt lat="32.31842" lon="130.07171888888888">
<ele>7</ele>
</trkpt>
<trkpt lat="32.318036944444444" lon="130.0718938888889">
<ele>8</ele>
</trkpt>
<trkpt lat="32.317595" lon="130.07210694444444">
<ele>9</ele>
</trkpt>
<trkpt lat="32.31732" lon="130.0722438888889">
<ele>9</ele>
</trkpt>
<trkpt lat="32.31706194444445" lon="130.07240694444445">
<ele>9</ele>
</trkpt>
<trkpt lat="32.31666194444445" lon="130.07240694444445">
<ele>9</ele>
</trkpt>
<trkpt lat="32.31666194444445" lon="130.07240694444445">
<ele>9</ele>
</trkpt>
<trkpt lat="32.316495" lon="130.07240694444445">
<ele>9</ele>
</trkpt>
<trkpt lat="32.31484611111111" lon="130.072395">
<ele>9</ele>
</trkpt>
<trkpt lat="32.31455388888889" lon="130.072395">
<ele>8</ele>
</trkpt>
<trkpt lat="32.31262111111111" lon="130.07235694444444">
<ele>6</ele>
</trkpt>
<trkpt lat="32.31194611111111" lon="130.072345">
<ele>7</ele>
</trkpt>
<trkpt lat="32.31167888888889" lon="130.07233194444444">
<ele>4</ele>
</trkpt>
<trkpt lat="32.31156305555555" lon="130.072295">
<ele>3</ele>
</trkpt>
<trkpt lat="32.311436944444445" lon="130.072245">
<ele>0</ele>
</trkpt>
<trkpt lat="32.31133805555555" lon="130.07217">
<ele>3</ele>
</trkpt>
<trkpt lat="32.310808888888886" lon="130.0716438888889">
<ele>3</ele>
</trkpt>
<trkpt lat="32.310808888888886" lon="130.07164305555557">
<ele>3</ele>
</trkpt>
<trkpt lat="32.31024611111111" lon="130.07108305555556">
<ele>3</ele>
</trkpt>
<trkpt lat="32.30965388888889" lon="130.07050805555556">
<ele>2</ele>
</trkpt>
<trkpt lat="32.308838055555555" lon="130.06970694444445">
<ele>1</ele>
</trkpt>
<trkpt lat="32.30858805555555" lon="130.06937">
<ele>2</ele>
</trkpt>
<trkpt lat="32.30828805555556" lon="130.06868194444445">
<ele>3</ele>
</trkpt>
<trkpt lat="32.30804611111111" lon="130.06820805555554">
<ele>4</ele>
</trkpt>
<trkpt lat="32.30797111111111" lon="130.06807">
<ele>2</ele>
</trkpt>
<trkpt lat="32.30786305555556" lon="130.067945">
<ele>1</ele>
</trkpt>
<trkpt lat="32.30770388888889" lon="130.06778305555557">
<ele>1</ele>
</trkpt>
<trkpt lat="32.307203888888886" lon="130.06723305555556">
<ele>0</ele>
</trkpt>
<trkpt lat="32.305705" lon="130.06549611111112">
<ele>3</ele>
</trkpt>
<trkpt lat="32.30549611111111" lon="130.06523305555555">
<ele>2</ele>
</trkpt>
<trkpt lat="32.30513" lon="130.06460805555557">
<ele>3</ele>
</trkpt>
<trkpt lat="32.304905" lon="130.06422111111112">
<ele>6</ele>
</trkpt>
<trkpt lat="32.30463" lon="130.06385805555556">
<ele>1</ele>
</trkpt>
<trkpt lat="32.304521111111114" lon="130.0636461111111">
<ele>1</ele>
</trkpt>
<trkpt lat="32.30451305555555" lon="130.06319611111113">
<ele>2</ele>
</trkpt>
<trkpt lat="32.304555" lon="130.0627211111111">
<ele>1</ele>
</trkpt>
<trkpt lat="32.304555" lon="130.06215805555556">
<ele>0</ele>
</trkpt>
<trkpt lat="32.30453" lon="130.0619461111111">
<ele>1</ele>
</trkpt>
<trkpt lat="32.30447111111111" lon="130.0616961111111">
<ele>2</ele>
</trkpt>
<trkpt lat="32.30434611111111" lon="130.0610961111111">
<ele>5</ele>
</trkpt>
<trkpt lat="32.304155" lon="130.06027111111112">
<ele>3</ele>
</trkpt>
<trkpt lat="32.30379611111111" lon="130.0590838888889">
<ele>4</ele>
</trkpt>
<trkpt lat="32.30352888888889" lon="130.0580961111111">
<ele>4</ele>
</trkpt>
<trkpt lat="32.30342888888889" lon="130.0578088888889">
<ele>2</ele>
</trkpt>
<trkpt lat="32.30338805555556" lon="130.05757111111112">
<ele>2</ele>
</trkpt>
<trkpt lat="32.30339611111111" lon="130.0573711111111">
<ele>3</ele>
</trkpt>
<trkpt lat="32.303446111111114" lon="130.05719611111112">
<ele>5</ele>
</trkpt>
<trkpt lat="32.30355388888889" lon="130.0570088888889">
<ele>4</ele>
</trkpt>
<trkpt lat="32.30366305555555" lon="130.0569088888889">
<ele>5</ele>
</trkpt>
<trkpt lat="32.303913055555554" lon="130.0567838888889">
<ele>6</ele>
</trkpt>
<trkpt lat="32.30430388888889" lon="130.05675888888888">
<ele>6</ele>
</trkpt>
<trkpt lat="32.305388055555554" lon="130.05674611111112">
<ele>6</ele>
</trkpt>
<trkpt lat="32.305613055555554" lon="130.0566838888889">
<ele>7</ele>
</trkpt>
<trkpt lat="32.30589611111111" lon="130.05654611111112">
<ele>5</ele>
</trkpt>
<trkpt lat="32.30616194444445" lon="130.0564838888889">
<ele>5</ele>
</trkpt>
<trkpt lat="32.30686305555555" lon="130.05642111111112">
<ele>2</ele>
</trkpt>
<trkpt lat="32.307003888888886" lon="130.0563838888889">
<ele>4</ele>
</trkpt>
<trkpt lat="32.30722111111111" lon="130.0562711111111">
<ele>2</ele>
</trkpt>
<trkpt lat="32.30732111111111" lon="130.05618388888888">
<ele>3</ele>
</trkpt>
<trkpt lat="32.30746194444445" lon="130.0560088888889">
<ele>5</ele>
</trkpt>
<trkpt lat="32.30792111111111" lon="130.05540888888888">
<ele>3</ele>
</trkpt>
<trkpt lat="32.30804611111111" lon="130.05527111111113">
<ele>4</ele>
</trkpt>
<trkpt lat="32.308186944444444" lon="130.0551461111111">
<ele>3</ele>
</trkpt>
<trkpt lat="32.30842888888889" lon="130.05504611111112">
<ele>2</ele>
</trkpt>
<trkpt lat="32.30913694444445" lon="130.0548711111111">
<ele>1</ele>
</trkpt>
<trkpt lat="32.309261944444444" lon="130.0547588888889">
<ele>1</ele>
</trkpt>
<trkpt lat="32.309421111111114" lon="130.0545461111111">
<ele>1</ele>
</trkpt>
<trkpt lat="32.30950388888889" lon="130.05437111111112">
<ele>4</ele>
</trkpt>
<trkpt lat="32.309553888888885" lon="130.0541838888889">
<ele>1</ele>
</trkpt>
<trkpt lat="32.30967888888889" lon="130.0535461111111">
<ele>6</ele>
</trkpt>
<trkpt lat="32.30997" lon="130.05220888888888">
<ele>1</ele>
</trkpt>
<trkpt lat="32.31021611111111" lon="130.05101694444446">
<ele>1</ele>
</trkpt>
<trkpt lat="32.31021611111111" lon="130.05101694444446">
<ele>1</ele>
</trkpt>
<trkpt lat="32.31032" lon="130.05050888888888">
<ele>1</ele>
</trkpt>
<trkpt lat="32.310386944444446" lon="130.0501588888889">
<ele>7</ele>
</trkpt>
<trkpt lat="32.310695" lon="130.0486461111111">
<ele>16</ele>
</trkpt>
<trkpt lat="32.31073694444444" lon="130.04838388888888">
<ele>4</ele>
</trkpt>
<trkpt lat="32.31080305555555" lon="130.04813388888888">
<ele>4</ele>
</trkpt>
<trkpt lat="32.31080305555555" lon="130.0478461111111">
<ele>4</ele>
</trkpt>
<trkpt lat="32.310761944444444" lon="130.0476461111111">
<ele>1</ele>
</trkpt>
<trkpt lat="32.31062" lon="130.04714694444445">
<ele>2</ele>
</trkpt>
<trkpt lat="32.310595" lon="130.0469838888889">
<ele>5</ele>
</trkpt>
<trkpt lat="32.310586944444445" lon="130.04669694444445">
<ele>7</ele>
</trkpt>
<trkpt lat="32.310645" lon="130.04629694444444">
<ele>4</ele>
</trkpt>
<trkpt lat="32.31080305555555" lon="130.04578388888888">
<ele>4</ele>
</trkpt>
<trkpt lat="32.311195" lon="130.04497194444446">
<ele>2</ele>
</trkpt>
<trkpt lat="32.31167" lon="130.04407194444445">
<ele>2</ele>
</trkpt>
<trkpt lat="32.31187" lon="130.04372194444446">
<ele>3</ele>
</trkpt>
<trkpt lat="32.312153055555555" lon="130.04347194444443">
<ele>6</ele>
</trkpt>
<trkpt lat="32.31277" lon="130.04309694444444">
<ele>6</ele>
</trkpt>
<trkpt lat="32.31313611111111" lon="130.04282194444446">
<ele>6</ele>
</trkpt>
<trkpt lat="32.31362" lon="130.04248388888888">
<ele>5</ele>
</trkpt>
<trkpt lat="32.31403611111111" lon="130.04222194444444">
<ele>1</ele>
</trkpt>
<trkpt lat="32.314195" lon="130.0420838888889">
<ele>0</ele>
</trkpt>
<trkpt lat="32.314328055555556" lon="130.04192194444445">
<ele>0</ele>
</trkpt>
<trkpt lat="32.31454388888889" lon="130.04157194444446">
<ele>0</ele>
</trkpt>
<trkpt lat="32.314661111111114" lon="130.0413838888889">
<ele>0</ele>
</trkpt>
<trkpt lat="32.31497805555556" lon="130.04082194444445">
<ele>1</ele>
</trkpt>
<trkpt lat="32.31506111111111" lon="130.0406088888889">
<ele>1</ele>
</trkpt>
<trkpt lat="32.315086111111114" lon="130.04042194444443">
<ele>3</ele>
</trkpt>
<trkpt lat="32.31507805555555" lon="130.04012194444445">
<ele>5</ele>
</trkpt>
<trkpt lat="32.31502805555556" lon="130.03975888888888">
<ele>8</ele>
</trkpt>
<trkpt lat="32.31486888888889" lon="130.03907194444446">
<ele>7</ele>
</trkpt>
<trkpt lat="32.31484388888889" lon="130.03882194444444">
<ele>7</ele>
</trkpt>
<trkpt lat="32.31486888888889" lon="130.0385838888889">
<ele>6</ele>
</trkpt>
<trkpt lat="32.31489611111111" lon="130.03844">
<ele>7</ele>
</trkpt>
<trkpt lat="32.31489611111111" lon="130.03844">
<ele>7</ele>
</trkpt>
<trkpt lat="32.314928055555555" lon="130.03827194444443">
<ele>8</ele>
</trkpt>
<trkpt lat="32.315511111111114" lon="130.0365588888889">
<ele>18</ele>
</trkpt>
<trkpt lat="32.31563611111111" lon="130.03604694444445">
<ele>18</ele>
</trkpt>
<trkpt lat="32.31585194444445" lon="130.0351588888889">
<ele>18</ele>
</trkpt>
<trkpt lat="32.31599388888889" lon="130.0340588888889">
<ele>18</ele>
</trkpt>
<trkpt lat="32.31607694444445" lon="130.03309694444445">
<ele>18</ele>
</trkpt>
<trkpt lat="32.31616888888889" lon="130.03140888888888">
<ele>19</ele>
</trkpt>
<trkpt lat="32.316178055555554" lon="130.03025888888888">
<ele>19</ele>
</trkpt>
<trkpt lat="32.31607694444445" lon="130.02814694444444">
<ele>19</ele>
</trkpt>
<trkpt lat="32.31603611111111" lon="130.02756">
<ele>19</ele>
</trkpt>
<trkpt lat="32.316001944444444" lon="130.027135">
<ele>5</ele>
</trkpt>
<trkpt lat="32.31599388888889" lon="130.02706">
<ele>1</ele>
</trkpt>
<trkpt lat="32.31589388888889" lon="130.02527194444446">
<ele>0</ele>
</trkpt>
<trkpt lat="32.31592805555555" lon="130.02477194444444">
<ele>4</ele>
</trkpt>
<trkpt lat="32.31593111111111" lon="130.02458805555557">
<ele>5</ele>
</trkpt>
<trkpt lat="32.31593111111111" lon="130.02458805555557">
<ele>5</ele>
</trkpt>
<trkpt lat="32.31592805555555" lon="130.02477194444444">
<ele>4</ele>
</trkpt>
<trkpt lat="32.31561111111111" lon="130.02459694444445">
<ele>1</ele>
</trkpt>
<trkpt lat="32.31523611111111" lon="130.02436">
<ele>0</ele>
</trkpt>
<trkpt lat="32.314728055555555" lon="130.02392194444445">
<ele>3</ele>
</trkpt>
<trkpt lat="32.31457694444445" lon="130.02377194444443">
<ele>6</ele>
</trkpt>
<trkpt lat="32.314501944444444" lon="130.023785">
<ele>4</ele>
</trkpt>
<trkpt lat="32.31409388888889" lon="130.02386">
<ele>6</ele>
</trkpt>
<trkpt lat="32.31364388888889" lon="130.02394694444445">
<ele>5</ele>
</trkpt>
<trkpt lat="32.31352805555556" lon="130.02397305555556">
<ele>6</ele>
</trkpt>
<trkpt lat="32.313386111111114" lon="130.02404694444445">
<ele>5</ele>
</trkpt>
<trkpt lat="32.31323611111111" lon="130.02414694444445">
<ele>4</ele>
</trkpt>
<trkpt lat="32.31226111111111" lon="130.024935">
<ele>8</ele>
</trkpt>
<trkpt lat="32.31200305555556" lon="130.02517194444445">
<ele>8</ele>
</trkpt>
<trkpt lat="32.31196888888889" lon="130.02522305555556">
<ele>8</ele>
</trkpt>
<trkpt lat="32.311793888888886" lon="130.02547305555555">
<ele>8</ele>
</trkpt>
<trkpt lat="32.31164388888889" lon="130.02562194444445">
<ele>7</ele>
</trkpt>
<trkpt lat="32.311478055555554" lon="130.02571">
<ele>5</ele>
</trkpt>
<trkpt lat="32.31142805555555" lon="130.02571">
<ele>5</ele>
</trkpt>
<trkpt lat="32.31131111111111" lon="130.02571">
<ele>5</ele>
</trkpt>
<trkpt lat="32.311145" lon="130.025635">
<ele>6</ele>
</trkpt>
<trkpt lat="32.31077" lon="130.02542194444445">
<ele>6</ele>
</trkpt>
<trkpt lat="32.31044305555555" lon="130.02522694444446">
<ele>6</ele>
</trkpt>
<trkpt lat="32.31044305555555" lon="130.02522611111112">
<ele>6</ele>
</trkpt>
<trkpt lat="32.31027" lon="130.02512305555555">
<ele>6</ele>
</trkpt>
<trkpt lat="32.30997" lon="130.024935">
<ele>3</ele>
</trkpt>
<trkpt lat="32.30986111111111" lon="130.02484694444445">
<ele>4</ele>
</trkpt>
<trkpt lat="32.309695" lon="130.02457305555555">
<ele>6</ele>
</trkpt>
<trkpt lat="32.30962805555556" lon="130.02429694444444">
<ele>7</ele>
</trkpt>
<trkpt lat="32.309595" lon="130.02387305555555">
<ele>5</ele>
</trkpt>
<trkpt lat="32.30958611111111" lon="130.023685">
<ele>4</ele>
</trkpt>
<trkpt lat="32.30962805555556" lon="130.02347305555554">
<ele>3</ele>
</trkpt>
<trkpt lat="32.30971111111111" lon="130.02327305555556">
<ele>5</ele>
</trkpt>
<trkpt lat="32.30982" lon="130.02292305555557">
<ele>5</ele>
</trkpt>
<trkpt lat="32.309895" lon="130.02261">
<ele>6</ele>
</trkpt>
<trkpt lat="32.30990305555556" lon="130.02249805555556">
<ele>6</ele>
</trkpt>
<trkpt lat="32.30987805555556" lon="130.02229805555555">
<ele>1</ele>
</trkpt>
<trkpt lat="32.309803055555555" lon="130.02207305555555">
<ele>2</ele>
</trkpt>
<trkpt lat="32.309736111111114" lon="130.02194805555555">
<ele>1</ele>
</trkpt>
<trkpt lat="32.309645" lon="130.02182305555556">
<ele>0</ele>
</trkpt>
<trkpt lat="32.30948611111111" lon="130.02171">
<ele>1</ele>
</trkpt>
<trkpt lat="32.30923611111111" lon="130.021585">
<ele>4</ele>
</trkpt>
<trkpt lat="32.30918611111111" lon="130.021535">
<ele>6</ele>
</trkpt>
<trkpt lat="32.30917" lon="130.021435">
<ele>6</ele>
</trkpt>
<trkpt lat="32.309178055555556" lon="130.02119805555554">
<ele>8</ele>
</trkpt>
<trkpt lat="32.30920305555556" lon="130.02104805555555">
<ele>8</ele>
</trkpt>
<trkpt lat="32.30927" lon="130.020835">
<ele>7</ele>
</trkpt>
<trkpt lat="32.30933611111111" lon="130.02076">
<ele>6</ele>
</trkpt>
<trkpt lat="32.30941111111111" lon="130.02069805555556">
<ele>6</ele>
</trkpt>
<trkpt lat="32.309511111111114" lon="130.02052305555554">
<ele>5</ele>
</trkpt>
<trkpt lat="32.309536111111115" lon="130.020385">
<ele>5</ele>
</trkpt>
<trkpt lat="32.309536111111115" lon="130.01994805555555">
<ele>4</ele>
</trkpt>
<trkpt lat="32.309578055555555" lon="130.01986">
<ele>6</ele>
</trkpt>
<trkpt lat="32.30962805555556" lon="130.01979805555555">
<ele>6</ele>
</trkpt>
<trkpt lat="32.309745" lon="130.01972305555554">
<ele>4</ele>
</trkpt>
<trkpt lat="32.30988611111111" lon="130.019635">
<ele>3</ele>
</trkpt>
<trkpt lat="32.309945" lon="130.01957305555555">
<ele>5</ele>
</trkpt>
<trkpt lat="32.30997" lon="130.01946">
<ele>2</ele>
</trkpt>
<trkpt lat="32.30998611111111" lon="130.019285">
<ele>0</ele>
</trkpt>
<trkpt lat="32.309978055555554" lon="130.01892305555555">
<ele>2</ele>
</trkpt>
<trkpt lat="32.30995305555555" lon="130.01872305555557">
<ele>7</ele>
</trkpt>
<trkpt lat="32.309978055555554" lon="130.01841">
<ele>7</ele>
</trkpt>
<trkpt lat="32.31002" lon="130.018185">
<ele>7</ele>
</trkpt>
<trkpt lat="32.31010305555556" lon="130.01811">
<ele>0</ele>
</trkpt>
<trkpt lat="32.31027805555556" lon="130.01804805555557">
<ele>4</ele>
</trkpt>
<trkpt lat="32.310453055555556" lon="130.01801">
<ele>6</ele>
</trkpt>
<trkpt lat="32.31057805555555" lon="130.01801">
<ele>6</ele>
</trkpt>
<trkpt lat="32.31079388888889" lon="130.01804805555557">
<ele>2</ele>
</trkpt>
<trkpt lat="32.31092805555556" lon="130.018135">
<ele>5</ele>
</trkpt>
<trkpt lat="32.31108611111111" lon="130.01827305555557">
<ele>5</ele>
</trkpt>
<trkpt lat="32.311168888888886" lon="130.01832305555556">
<ele>1</ele>
</trkpt>
<trkpt lat="32.311278055555555" lon="130.01831">
<ele>1</ele>
</trkpt>
<trkpt lat="32.31146888888889" lon="130.01817305555556">
<ele>4</ele>
</trkpt>
<trkpt lat="32.311593888888886" lon="130.01816">
<ele>8</ele>
</trkpt>
<trkpt lat="32.31164388888889" lon="130.01817305555556">
<ele>8</ele>
</trkpt>
<trkpt lat="32.31197805555556" lon="130.01857305555555">
<ele>7</ele>
</trkpt>
<trkpt lat="32.31205305555556" lon="130.01864805555556">
<ele>1</ele>
</trkpt>
<trkpt lat="32.31218611111111" lon="130.018685">
<ele>4</ele>
</trkpt>
<trkpt lat="32.31261888888889" lon="130.01871">
<ele>4</ele>
</trkpt>
<trkpt lat="32.312803055555555" lon="130.01871">
<ele>7</ele>
</trkpt>
<trkpt lat="32.31289388888889" lon="130.018685">
<ele>9</ele>
</trkpt>
<trkpt lat="32.31301111111111" lon="130.01857305555555">
<ele>6</ele>
</trkpt>
<trkpt lat="32.31318611111111" lon="130.01841">
<ele>2</ele>
</trkpt>
<trkpt lat="32.31339388888889" lon="130.01817305555556">
<ele>4</ele>
</trkpt>
<trkpt lat="32.31359388888889" lon="130.01799805555555">
<ele>1</ele>
</trkpt>
<trkpt lat="32.313828055555554" lon="130.01794805555556">
<ele>4</ele>
</trkpt>
<trkpt lat="32.31399388888889" lon="130.017785">
<ele>0</ele>
</trkpt>
<trkpt lat="32.31429388888889" lon="130.017785">
<ele>1</ele>
</trkpt>
<trkpt lat="32.314295" lon="130.01772194444445">
<ele>1</ele>
</trkpt>
<trkpt lat="32.314295" lon="130.01772194444445">
<ele>1</ele>
</trkpt>
<trkpt lat="32.31429388888889" lon="130.017785">
<ele>1</ele>
</trkpt>
<trkpt lat="32.31399388888889" lon="130.017785">
<ele>0</ele>
</trkpt>
<trkpt lat="32.31416111111111" lon="130.017485">
<ele>0</ele>
</trkpt>
<trkpt lat="32.31418611111111" lon="130.01726">
<ele>0</ele>
</trkpt>
<trkpt lat="32.31411888888889" lon="130.01707305555556">
<ele>1</ele>
</trkpt>
<trkpt lat="32.314053055555554" lon="130.01692305555557">
<ele>0</ele>
</trkpt>
<trkpt lat="32.31403611111111" lon="130.01681">
<ele>3</ele>
</trkpt>
<trkpt lat="32.31404388888889" lon="130.01626">
<ele>5</ele>
</trkpt>
<trkpt lat="32.314103055555556" lon="130.015935">
<ele>0</ele>
</trkpt>
<trkpt lat="32.31418611111111" lon="130.01562305555555">
<ele>1</ele>
</trkpt>
<trkpt lat="32.31421888888889" lon="130.01546">
<ele>0</ele>
</trkpt>
<trkpt lat="32.31421888888889" lon="130.015335">
<ele>0</ele>
</trkpt>
<trkpt lat="32.31418611111111" lon="130.01519805555554">
<ele>0</ele>
</trkpt>
<trkpt lat="32.31411111111111" lon="130.01501">
<ele>0</ele>
</trkpt>
<trkpt lat="32.31402805555555" lon="130.01491">
<ele>1</ele>
</trkpt>
<trkpt lat="32.313701944444446" lon="130.01459805555555">
<ele>1</ele>
</trkpt>
<trkpt lat="32.31366888888889" lon="130.01449805555555">
<ele>4</ele>
</trkpt>
<trkpt lat="32.313653055555555" lon="130.01436">
<ele>4</ele>
</trkpt>
<trkpt lat="32.31366888888889" lon="130.014235">
<ele>3</ele>
</trkpt>
<trkpt lat="32.314011111111114" lon="130.01384805555554">
<ele>8</ele>
</trkpt>
<trkpt lat="32.31406111111111" lon="130.013685">
<ele>6</ele>
</trkpt>
<trkpt lat="32.31411111111111" lon="130.01342305555556">
<ele>3</ele>
</trkpt>
<trkpt lat="32.31411111111111" lon="130.01316">
<ele>2</ele>
</trkpt>
<trkpt lat="32.314053055555554" lon="130.01277305555556">
<ele>2</ele>
</trkpt>
<trkpt lat="32.31386888888889" lon="130.01234805555555">
<ele>4</ele>
</trkpt>
<trkpt lat="32.31376888888889" lon="130.0121611111111">
<ele>5</ele>
</trkpt>
<trkpt lat="32.313563888888886" lon="130.0119511111111">
<ele>5</ele>
</trkpt>
<trkpt lat="32.313563888888886" lon="130.0119511111111">
<ele>5</ele>
</trkpt>
<trkpt lat="32.31353611111111" lon="130.01192305555554">
<ele>5</ele>
</trkpt>
<trkpt lat="32.31328611111111" lon="130.0117361111111">
<ele>6</ele>
</trkpt>
<trkpt lat="32.31301111111111" lon="130.01172305555556">
<ele>7</ele>
</trkpt>
<trkpt lat="32.312803055555555" lon="130.01177305555555">
<ele>7</ele>
</trkpt>
<trkpt lat="32.31246888888889" lon="130.01188611111112">
<ele>7</ele>
</trkpt>
<trkpt lat="32.312328055555554" lon="130.01192305555554">
<ele>0</ele>
</trkpt>
<trkpt lat="32.31224388888889" lon="130.0118611111111">
<ele>1</ele>
</trkpt>
<trkpt lat="32.31207805555555" lon="130.01157305555554">
<ele>1</ele>
</trkpt>
<trkpt lat="32.31171111111111" lon="130.0109611111111">
<ele>3</ele>
</trkpt>
<trkpt lat="32.31131111111111" lon="130.0102361111111">
<ele>2</ele>
</trkpt>
<trkpt lat="32.31124388888889" lon="130.0100611111111">
<ele>6</ele>
</trkpt>
<trkpt lat="32.31121888888889" lon="130.0099361111111">
<ele>7</ele>
</trkpt>
<trkpt lat="32.31120305555555" lon="130.00976111111112">
<ele>5</ele>
</trkpt>
<trkpt lat="32.31122805555555" lon="130.00959805555556">
<ele>7</ele>
</trkpt>
<trkpt lat="32.31131888888889" lon="130.0094611111111">
<ele>6</ele>
</trkpt>
<trkpt lat="32.311528055555556" lon="130.0091611111111">
<ele>7</ele>
</trkpt>
<trkpt lat="32.31161111111111" lon="130.0090361111111">
<ele>8</ele>
</trkpt>
<trkpt lat="32.31165305555555" lon="130.00882305555555">
<ele>3</ele>
</trkpt>
<trkpt lat="32.31169388888889" lon="130.00863611111112">
<ele>4</ele>
</trkpt>
<trkpt lat="32.31176111111111" lon="130.00849805555555">
<ele>3</ele>
</trkpt>
<trkpt lat="32.31197805555556" lon="130.00816111111112">
<ele>5</ele>
</trkpt>
<trkpt lat="32.31204388888889" lon="130.00797305555557">
<ele>7</ele>
</trkpt>
<trkpt lat="32.31226111111111" lon="130.00709805555556">
<ele>7</ele>
</trkpt>
<trkpt lat="32.312378055555556" lon="130.00691111111112">
<ele>5</ele>
</trkpt>
<trkpt lat="32.31248611111111" lon="130.0067488888889">
<ele>3</ele>
</trkpt>
<trkpt lat="32.31261888888889" lon="130.0066488888889">
<ele>3</ele>
</trkpt>
<trkpt lat="32.312736111111114" lon="130.00658611111112">
<ele>7</ele>
</trkpt>
<trkpt lat="32.31301888888889" lon="130.00652305555556">
<ele>8</ele>
</trkpt>
<trkpt lat="32.31326111111111" lon="130.00648611111112">
<ele>9</ele>
</trkpt>
<trkpt lat="32.31366611111111" lon="130.00643805555555">
<ele>4</ele>
</trkpt>
<trkpt lat="32.31366611111111" lon="130.00643805555555">
<ele>4</ele>
</trkpt>
<trkpt lat="32.31389388888889" lon="130.0064111111111">
<ele>2</ele>
</trkpt>
<trkpt lat="32.31400305555555" lon="130.00636111111112">
<ele>2</ele>
</trkpt>
<trkpt lat="32.31411111111111" lon="130.00623611111112">
<ele>1</ele>
</trkpt>
<trkpt lat="32.31419388888889" lon="130.00601111111112">
<ele>3</ele>
</trkpt>
<trkpt lat="32.31429388888889" lon="130.0058611111111">
<ele>4</ele>
</trkpt>
<trkpt lat="32.31440194444444" lon="130.00574805555556">
<ele>4</ele>
</trkpt>
<trkpt lat="32.31585194444445" lon="130.00509805555555">
<ele>0</ele>
</trkpt>
<trkpt lat="32.31686888888889" lon="130.0047361111111">
<ele>9</ele>
</trkpt>
<trkpt lat="32.317051944444444" lon="130.00469805555556">
<ele>12</ele>
</trkpt>
<trkpt lat="32.31781888888889" lon="130.0047361111111">
<ele>14</ele>
</trkpt>
<trkpt lat="32.31802694444445" lon="130.00474805555555">
<ele>13</ele>
</trkpt>
<trkpt lat="32.31810194444444" lon="130.00478611111112">
<ele>14</ele>
</trkpt>
<trkpt lat="32.318176944444446" lon="130.00484805555556">
<ele>13</ele>
</trkpt>
<trkpt lat="32.318286111111114" lon="130.00492305555557">
<ele>13</ele>
</trkpt>
<trkpt lat="32.31846111111111" lon="130.0049361111111">
<ele>16</ele>
</trkpt>
<trkpt lat="32.318801944444445" lon="130.00482305555556">
<ele>16</ele>
</trkpt>
<trkpt lat="32.31895194444444" lon="130.0048111111111">
<ele>17</ele>
</trkpt>
<trkpt lat="32.319068888888886" lon="130.0048611111111">
<ele>17</ele>
</trkpt>
<trkpt lat="32.31924388888889" lon="130.00497305555555">
<ele>22</ele>
</trkpt>
<trkpt lat="32.31927" lon="130.00493194444445">
<ele>22</ele>
</trkpt>
<trkpt lat="32.31927" lon="130.00493194444445">
<ele>22</ele>
</trkpt>
<trkpt lat="32.31981" lon="130.00409805555554">
<ele>28</ele>
</trkpt>
<trkpt lat="32.320685" lon="130.00271111111113">
<ele>24</ele>
</trkpt>
<trkpt lat="32.320993888888886" lon="130.00209805555556">
<ele>23</ele>
</trkpt>
<trkpt lat="32.321335" lon="130.00124888888888">
<ele>21</ele>
</trkpt>
<trkpt lat="32.322285" lon="129.99878611111112">
<ele>16</ele>
</trkpt>
<trkpt lat="32.322535" lon="129.99833611111112">
<ele>9</ele>
</trkpt>
<trkpt lat="32.322735" lon="129.9980488888889">
<ele>8</ele>
</trkpt>
<trkpt lat="32.322943055555555" lon="129.99773611111112">
<ele>7</ele>
</trkpt>
<trkpt lat="32.32306805555555" lon="129.9976111111111">
<ele>6</ele>
</trkpt>
<trkpt lat="32.323185" lon="129.99752388888888">
<ele>6</ele>
</trkpt>
<trkpt lat="32.32329305555555" lon="129.9974361111111">
<ele>7</ele>
</trkpt>
<trkpt lat="32.32336" lon="129.9973861111111">
<ele>7</ele>
</trkpt>
<trkpt lat="32.323435" lon="129.9973361111111">
<ele>7</ele>
</trkpt>
<trkpt lat="32.323585" lon="129.9972238888889">
<ele>6</ele>
</trkpt>
<trkpt lat="32.323461944444446" lon="129.99703888888888">
<ele>7</ele>
</trkpt>
<trkpt lat="32.323461944444446" lon="129.99703888888888">
<ele>7</ele>
</trkpt>
<trkpt lat="32.323585" lon="129.9972238888889">
<ele>6</ele>
</trkpt>
<trkpt lat="32.32420111111111" lon="129.99686111111112">
<ele>8</ele>
</trkpt>
<trkpt lat="32.324376111111114" lon="129.9967611111111">
<ele>9</ele>
</trkpt>
<trkpt lat="32.32451" lon="129.9966861111111">
<ele>9</ele>
</trkpt>
<trkpt lat="32.32476805555556" lon="129.9965238888889">
<ele>9</ele>
</trkpt>
<trkpt lat="32.32514305555556" lon="129.99628611111112">
<ele>9</ele>
</trkpt>
<trkpt lat="32.32535111111111" lon="129.99616111111112">
<ele>9</ele>
</trkpt>
<trkpt lat="32.325585" lon="129.99601194444443">
<ele>9</ele>
</trkpt>
<trkpt lat="32.32605111111111" lon="129.99572388888888">
<ele>9</ele>
</trkpt>
<trkpt lat="32.326143055555555" lon="129.99566194444444">
<ele>9</ele>
</trkpt>
<trkpt lat="32.32670111111111" lon="129.9953238888889">
<ele>9</ele>
</trkpt>
<trkpt lat="32.327083888888886" lon="129.99508694444444">
<ele>9</ele>
</trkpt>
<trkpt lat="32.32720111111111" lon="129.99501194444446">
<ele>9</ele>
</trkpt>
<trkpt lat="32.32745111111111" lon="129.99486194444444">
<ele>9</ele>
</trkpt>
<trkpt lat="32.32770111111111" lon="129.99471194444445">
<ele>8</ele>
</trkpt>
<trkpt lat="32.32787611111111" lon="129.9945988888889">
<ele>8</ele>
</trkpt>
<trkpt lat="32.32827611111111" lon="129.9943738888889">
<ele>7</ele>
</trkpt>
<trkpt lat="32.328333055555554" lon="129.9943538888889">
<ele>7</ele>
</trkpt>
<trkpt lat="32.328333055555554" lon="129.9943538888889">
<ele>7</ele>
</trkpt>
<trkpt lat="32.32904194444444" lon="129.99409888888889">
<ele>9</ele>
</trkpt>
<trkpt lat="32.330283888888886" lon="129.99351194444444">
<ele>9</ele>
</trkpt>
<trkpt lat="32.33062611111111" lon="129.9933738888889">
<ele>16</ele>
</trkpt>
<trkpt lat="32.33094194444445" lon="129.9932988888889">
<ele>22</ele>
</trkpt>
<trkpt lat="32.33124194444444" lon="129.9932988888889">
<ele>23</ele>
</trkpt>
<trkpt lat="32.33212611111111" lon="129.99356194444445">
<ele>9</ele>
</trkpt>
<trkpt lat="32.33223388888889" lon="129.99342388888888">
<ele>8</ele>
</trkpt>
<trkpt lat="32.33225" lon="129.99340305555555">
<ele>8</ele>
</trkpt>
<trkpt lat="32.33225" lon="129.99340305555555">
<ele>8</ele>
</trkpt>
<trkpt lat="32.33232611111111" lon="129.9932988888889">
<ele>8</ele>
</trkpt>
<trkpt lat="32.33240111111111" lon="129.9932488888889">
<ele>8</ele>
</trkpt>
<trkpt lat="32.332501111111114" lon="129.99322388888888">
<ele>8</ele>
</trkpt>
<trkpt lat="32.3332" lon="129.99342388888888">
<ele>9</ele>
</trkpt>
<trkpt lat="32.33375" lon="129.99358694444444">
<ele>9</ele>
</trkpt>
<trkpt lat="32.33410888888889" lon="129.99361194444444">
<ele>9</ele>
</trkpt>
<trkpt lat="32.33421694444444" lon="129.9936238888889">
<ele>9</ele>
</trkpt>
<trkpt lat="32.3344" lon="129.99367388888888">
<ele>9</ele>
</trkpt>
<trkpt lat="32.33468611111111" lon="129.99390194444445">
<ele>9</ele>
</trkpt>
<trkpt lat="32.33468611111111" lon="129.99390194444445">
<ele>9</ele>
</trkpt>
<trkpt lat="32.33479194444445" lon="129.99398694444446">
<ele>9</ele>
</trkpt>
<trkpt lat="32.33508388888889" lon="129.99393694444444">
<ele>11</ele>
</trkpt>
<trkpt lat="32.335275" lon="129.99398694444446">
<ele>17</ele>
</trkpt>
<trkpt lat="32.335625" lon="129.99401194444445">
<ele>25</ele>
</trkpt>
<trkpt lat="32.33606694444445" lon="129.9939238888889">
<ele>38</ele>
</trkpt>
<trkpt lat="32.33636694444444" lon="129.99379888888888">
<ele>41</ele>
</trkpt>
<trkpt lat="32.336675" lon="129.9935238888889">
<ele>42</ele>
</trkpt>
<trkpt lat="32.336733055555555" lon="129.9934738888889">
<ele>42</ele>
</trkpt>
<trkpt lat="32.3371" lon="129.9931238888889">
<ele>46</ele>
</trkpt>
<trkpt lat="32.337725" lon="129.9933988888889">
<ele>43</ele>
</trkpt>
<trkpt lat="32.33841611111111" lon="129.9929238888889">
<ele>45</ele>
</trkpt>
<trkpt lat="32.338633055555555" lon="129.9930488888889">
<ele>46</ele>
</trkpt>
<trkpt lat="32.33864111111111" lon="129.9934738888889">
<ele>41</ele>
</trkpt>
<trkpt lat="32.339075" lon="129.99367388888888">
<ele>42</ele>
</trkpt>
<trkpt lat="32.33985805555555" lon="129.9934738888889">
<ele>52</ele>
</trkpt>
<trkpt lat="32.33981611111111" lon="129.9939488888889">
<ele>55</ele>
</trkpt>
<trkpt lat="32.340025" lon="129.99433694444446">
<ele>51</ele>
</trkpt>
<trkpt lat="32.34047388888889" lon="129.99423694444445">
<ele>52</ele>
</trkpt>
<trkpt lat="32.341298888888886" lon="129.99401194444445">
<ele>54</ele>
</trkpt>
<trkpt lat="32.34162388888889" lon="129.99401194444445">
<ele>55</ele>
</trkpt>
<trkpt lat="32.34196388888889" lon="129.99406805555554">
<ele>60</ele>
</trkpt>
<trkpt lat="32.34196388888889" lon="129.99406805555554">
<ele>60</ele>
</trkpt>
<trkpt lat="32.342148888888886" lon="129.99409888888889">
<ele>64</ele>
</trkpt>
<trkpt lat="32.34247388888889" lon="129.99412388888888">
<ele>63</ele>
</trkpt>
<trkpt lat="32.342798888888886" lon="129.99409888888889">
<ele>64</ele>
</trkpt>
<trkpt lat="32.34328305555555" lon="129.99399888888888">
<ele>64</ele>
</trkpt>
<trkpt lat="32.343333055555554" lon="129.99398694444446">
<ele>64</ele>
</trkpt>
<trkpt lat="32.34349888888889" lon="129.99401194444445">
<ele>63</ele>
</trkpt>
<trkpt lat="32.34373305555555" lon="129.99413694444445">
<ele>63</ele>
</trkpt>
<trkpt lat="32.34394888888889" lon="129.9942738888889">
<ele>65</ele>
</trkpt>
<trkpt lat="32.34408194444445" lon="129.99424888888888">
<ele>71</ele>
</trkpt>
<trkpt lat="32.344141111111114" lon="129.99416194444444">
<ele>74</ele>
</trkpt>
<trkpt lat="32.344141111111114" lon="129.99398694444446">
<ele>76</ele>
</trkpt>
<trkpt lat="32.34409111111111" lon="129.99383694444444">
<ele>76</ele>
</trkpt>
<trkpt lat="32.34394888888889" lon="129.9937488888889">
<ele>77</ele>
</trkpt>
<trkpt lat="32.34368194444444" lon="129.99361194444444">
<ele>76</ele>
</trkpt>
<trkpt lat="32.34289111111111" lon="129.9933988888889">
<ele>75</ele>
</trkpt>
<trkpt lat="32.34244888888889" lon="129.99323694444445">
<ele>75</ele>
</trkpt>
<trkpt lat="32.342258055555554" lon="129.99316194444444">
<ele>78</ele>
</trkpt>
<trkpt lat="32.342148888888886" lon="129.99306194444443">
<ele>82</ele>
</trkpt>
<trkpt lat="32.342148888888886" lon="129.9929488888889">
<ele>86</ele>
</trkpt>
<trkpt lat="32.342241111111115" lon="129.99285">
<ele>91</ele>
</trkpt>
<trkpt lat="32.342348888888885" lon="129.99278694444445">
<ele>92</ele>
</trkpt>
<trkpt lat="32.34269111111111" lon="129.99278694444445">
<ele>94</ele>
</trkpt>
<trkpt lat="32.34289111111111" lon="129.992825">
<ele>95</ele>
</trkpt>
<trkpt lat="32.34314888888889" lon="129.99291194444444">
<ele>94</ele>
</trkpt>
<trkpt lat="32.34339111111111" lon="129.993025">
<ele>95</ele>
</trkpt>
<trkpt lat="32.343583055555555" lon="129.993025">
<ele>103</ele>
</trkpt>
<trkpt lat="32.34373305555555" lon="129.993075">
<ele>105</ele>
</trkpt>
<trkpt lat="32.34388194444445" lon="129.99319888888888">
<ele>103</ele>
</trkpt>
<trkpt lat="32.34402388888889" lon="129.9932738888889">
<ele>102</ele>
</trkpt>
<trkpt lat="32.34429111111111" lon="129.99332388888888">
<ele>103</ele>
</trkpt>
<trkpt lat="32.345331944444446" lon="129.99338694444444">
<ele>104</ele>
</trkpt>
<trkpt lat="32.345598055555556" lon="129.9934">
<ele>105</ele>
</trkpt>
<trkpt lat="32.345598055555556" lon="129.9934">
<ele>105</ele>
</trkpt>
<trkpt lat="32.346831944444446" lon="129.99346194444445">
<ele>110</ele>
</trkpt>
<trkpt lat="32.34695694444444" lon="129.99341194444443">
<ele>111</ele>
</trkpt>
<trkpt lat="32.34709888888889" lon="129.99323694444445">
<ele>112</ele>
</trkpt>
<trkpt lat="32.34754888888889" lon="129.99261194444443">
<ele>117</ele>
</trkpt>
<trkpt lat="32.34779888888889" lon="129.99251194444443">
<ele>122</ele>
</trkpt>
<trkpt lat="32.34835694444445" lon="129.99245">
<ele>121</ele>
</trkpt>
<trkpt lat="32.34864888888889" lon="129.99241194444446">
<ele>124</ele>
</trkpt>
<trkpt lat="32.349331944444444" lon="129.99215">
<ele>133</ele>
</trkpt>
<trkpt lat="32.349473055555556" lon="129.99213694444444">
<ele>133</ele>
</trkpt>
<trkpt lat="32.349648055555555" lon="129.99218694444446">
<ele>133</ele>
</trkpt>
<trkpt lat="32.34990694444444" lon="129.99218694444446">
<ele>134</ele>
</trkpt>
<trkpt lat="32.35014" lon="129.99215">
<ele>133</ele>
</trkpt>
<trkpt lat="32.35050694444445" lon="129.99203694444444">
<ele>140</ele>
</trkpt>
<trkpt lat="32.350723055555555" lon="129.99193694444443">
<ele>142</ele>
</trkpt>
<trkpt lat="32.350906944444446" lon="129.991725">
<ele>141</ele>
</trkpt>
<trkpt lat="32.351215" lon="129.99133694444444">
<ele>143</ele>
</trkpt>
<trkpt lat="32.351415" lon="129.99126194444443">
<ele>145</ele>
</trkpt>
<trkpt lat="32.351973055555554" lon="129.991325">
<ele>148</ele>
</trkpt>
<trkpt lat="32.35227305555556" lon="129.99136194444444">
<ele>162</ele>
</trkpt>
<trkpt lat="32.352648055555555" lon="129.99146194444444">
<ele>162</ele>
</trkpt>
<trkpt lat="32.353215" lon="129.99161194444446">
<ele>161</ele>
</trkpt>
<trkpt lat="32.35344305555556" lon="129.99168694444444">
<ele>157</ele>
</trkpt>
<trkpt lat="32.35344305555556" lon="129.99168694444444">
<ele>157</ele>
</trkpt>
<trkpt lat="32.35348111111111" lon="129.9917">
<ele>157</ele>
</trkpt>
<trkpt lat="32.35354" lon="129.99166194444444">
<ele>156</ele>
</trkpt>
<trkpt lat="32.35395611111111" lon="129.99146194444444">
<ele>160</ele>
</trkpt>
<trkpt lat="32.35405611111111" lon="129.99131194444445">
<ele>163</ele>
</trkpt>
<trkpt lat="32.35423888888889" lon="129.99085">
<ele>165</ele>
</trkpt>
<trkpt lat="32.354081111111114" lon="129.99076194444444">
<ele>173</ele>
</trkpt>
<trkpt lat="32.353898055555554" lon="129.99076194444444">
<ele>176</ele>
</trkpt>
<trkpt lat="32.353723055555555" lon="129.990875">
<ele>177</ele>
</trkpt>
<trkpt lat="32.353473055555554" lon="129.99103694444443">
<ele>171</ele>
</trkpt>
<trkpt lat="32.35333111111111" lon="129.9911">
<ele>175</ele>
</trkpt>
<trkpt lat="32.35309" lon="129.99116194444446">
<ele>176</ele>
</trkpt>
<trkpt lat="32.352873055555555" lon="129.991225">
<ele>180</ele>
</trkpt>
<trkpt lat="32.35272305555556" lon="129.9913">
<ele>180</ele>
</trkpt>
<trkpt lat="32.352665" lon="129.99135">
<ele>180</ele>
</trkpt>
<trkpt lat="32.352623055555554" lon="129.99141194444445">
<ele>180</ele>
</trkpt>
<trkpt lat="32.35263111111111" lon="129.99105">
<ele>184</ele>
</trkpt>
<trkpt lat="32.353015" lon="129.990575">
<ele>193</ele>
</trkpt>
<trkpt lat="32.35288111111111" lon="129.98993694444445">
<ele>204</ele>
</trkpt>
<trkpt lat="32.35290611111111" lon="129.989325">
<ele>212</ele>
</trkpt>
<trkpt lat="32.353006111111114" lon="129.98848694444445">
<ele>216</ele>
</trkpt>
<trkpt lat="32.35274805555556" lon="129.98793805555556">
<ele>212</ele>
</trkpt>
<trkpt lat="32.35273111111111" lon="129.98771305555556">
<ele>213</ele>
</trkpt>
<trkpt lat="32.35276388888889" lon="129.98743805555554">
<ele>210</ele>
</trkpt>
<trkpt lat="32.35275611111111" lon="129.987">
<ele>204</ele>
</trkpt>
<trkpt lat="32.35279805555555" lon="129.9867">
<ele>208</ele>
</trkpt>
<trkpt lat="32.35278111111111" lon="129.986425">
<ele>208</ele>
</trkpt>
<trkpt lat="32.35276388888889" lon="129.98615">
<ele>211</ele>
</trkpt>
<trkpt lat="32.35279805555555" lon="129.98598805555557">
<ele>214</ele>
</trkpt>
<trkpt lat="32.35290611111111" lon="129.98596305555554">
<ele>218</ele>
</trkpt>
<trkpt lat="32.353006111111114" lon="129.98605">
<ele>219</ele>
</trkpt>
<trkpt lat="32.35308111111111" lon="129.98626305555555">
<ele>217</ele>
</trkpt>
<trkpt lat="32.35308888888889" lon="129.98693805555556">
<ele>221</ele>
</trkpt>
<trkpt lat="32.353163888888886" lon="129.98721305555554">
<ele>225</ele>
</trkpt>
<trkpt lat="32.35318111111111" lon="129.98765">
<ele>230</ele>
</trkpt>
<trkpt lat="32.353231111111114" lon="129.98775">
<ele>234</ele>
</trkpt>
<trkpt lat="32.35333888888889" lon="129.987825">
<ele>232</ele>
</trkpt>
<trkpt lat="32.35362305555556" lon="129.98778805555557">
<ele>234</ele>
</trkpt>
<trkpt lat="32.35375611111111" lon="129.987825">
<ele>235</ele>
</trkpt>
<trkpt lat="32.35388888888889" lon="129.98808805555555">
<ele>242</ele>
</trkpt>
<trkpt lat="32.35397305555556" lon="129.98818805555555">
<ele>241</ele>
</trkpt>
<trkpt lat="32.35403888888889" lon="129.988225">
<ele>239</ele>
</trkpt>
<trkpt lat="32.35416388888889" lon="129.988075">
<ele>243</ele>
</trkpt>
<trkpt lat="32.35449805555555" lon="129.987875">
<ele>247</ele>
</trkpt>
<trkpt lat="32.354773055555555" lon="129.987775">
<ele>249</ele>
</trkpt>
<trkpt lat="32.35492305555555" lon="129.987675">
<ele>251</ele>
</trkpt>
<trkpt lat="32.355248055555556" lon="129.987125">
<ele>253</ele>
</trkpt>
<trkpt lat="32.35555611111111" lon="129.98681305555556">
<ele>255</ele>
</trkpt>
<trkpt lat="32.355938888888886" lon="129.98656305555556">
<ele>261</ele>
</trkpt>
<trkpt lat="32.35613111111111" lon="129.98643805555557">
<ele>266</ele>
</trkpt>
<trkpt lat="32.356271944444444" lon="129.9863">
<ele>263</ele>
</trkpt>
<trkpt lat="32.35638888888889" lon="129.98596305555554">
<ele>265</ele>
</trkpt>
<trkpt lat="32.356546944444446" lon="129.9857">
<ele>268</ele>
</trkpt>
<trkpt lat="32.35668888888889" lon="129.9856">
<ele>267</ele>
</trkpt>
<trkpt lat="32.356856111111114" lon="129.98551305555554">
<ele>273</ele>
</trkpt>
<trkpt lat="32.356988888888885" lon="129.985325">
<ele>276</ele>
</trkpt>
<trkpt lat="32.357123055555554" lon="129.9847">
<ele>276</ele>
</trkpt>
<trkpt lat="32.357123055555554" lon="129.984425">
<ele>283</ele>
</trkpt>
<trkpt lat="32.35716388888889" lon="129.984275">
<ele>285</ele>
</trkpt>
<trkpt lat="32.35724694444445" lon="129.98415111111112">
<ele>284</ele>
</trkpt>
<trkpt lat="32.35738888888889" lon="129.9840761111111">
<ele>286</ele>
</trkpt>
<trkpt lat="32.35748888888889" lon="129.9840761111111">
<ele>284</ele>
</trkpt>
<trkpt lat="32.35753888888889" lon="129.9840011111111">
<ele>284</ele>
</trkpt>
<trkpt lat="32.35752305555555" lon="129.98390111111112">
<ele>286</ele>
</trkpt>
<trkpt lat="32.35746388888889" lon="129.98383805555557">
<ele>287</ele>
</trkpt>
<trkpt lat="32.357213888888886" lon="129.98383805555557">
<ele>293</ele>
</trkpt>
<trkpt lat="32.35707305555555" lon="129.9838761111111">
<ele>294</ele>
</trkpt>
<trkpt lat="32.35698111111111" lon="129.98396305555556">
<ele>295</ele>
</trkpt>
<trkpt lat="32.356923055555555" lon="129.984375">
<ele>292</ele>
</trkpt>
<trkpt lat="32.35680611111111" lon="129.98475">
<ele>292</ele>
</trkpt>
<trkpt lat="32.35673888888889" lon="129.984825">
<ele>293</ele>
</trkpt>
<trkpt lat="32.35661388888889" lon="129.98483805555554">
<ele>293</ele>
</trkpt>
<trkpt lat="32.35633111111111" lon="129.98475">
<ele>298</ele>
</trkpt>
<trkpt lat="32.356121944444446" lon="129.984725">
<ele>301</ele>
</trkpt>
<trkpt lat="32.35588888888889" lon="129.984875">
<ele>304</ele>
</trkpt>
<trkpt lat="32.35568888888889" lon="129.985175">
<ele>305</ele>
</trkpt>
<trkpt lat="32.35553888888889" lon="129.98533805555556">
<ele>311</ele>
</trkpt>
<trkpt lat="32.35513111111111" lon="129.98533805555556">
<ele>311</ele>
</trkpt>
<trkpt lat="32.354998055555555" lon="129.98528805555554">
<ele>312</ele>
</trkpt>
<trkpt lat="32.354931111111114" lon="129.985125">
<ele>313</ele>
</trkpt>
<trkpt lat="32.354973055555554" lon="129.98505111111112">
<ele>314</ele>
</trkpt>
<trkpt lat="32.355248055555556" lon="129.9849761111111">
<ele>318</ele>
</trkpt>
<trkpt lat="32.355423055555555" lon="129.98491305555555">
<ele>319</ele>
</trkpt>
<trkpt lat="32.35563111111111" lon="129.9846761111111">
<ele>322</ele>
</trkpt>
<trkpt lat="32.35585611111111" lon="129.98423805555555">
<ele>323</ele>
</trkpt>
<trkpt lat="32.35598111111111" lon="129.98388805555555">
<ele>326</ele>
</trkpt>
<trkpt lat="32.355848055555555" lon="129.98357611111112">
<ele>330</ele>
</trkpt>
<trkpt lat="32.35568111111111" lon="129.98356305555555">
<ele>333</ele>
</trkpt>
<trkpt lat="32.35532611111111" lon="129.98379805555555">
<ele>340</ele>
</trkpt>
<trkpt lat="32.35532611111111" lon="129.98379805555555">
<ele>340</ele>
</trkpt>
<trkpt lat="32.35568111111111" lon="129.98356305555555">
<ele>333</ele>
</trkpt>
<trkpt lat="32.355848055555555" lon="129.98357611111112">
<ele>330</ele>
</trkpt>
<trkpt lat="32.35598111111111" lon="129.98388805555555">
<ele>326</ele>
</trkpt>
<trkpt lat="32.35585611111111" lon="129.98423805555555">
<ele>323</ele>
</trkpt>
<trkpt lat="32.35563111111111" lon="129.9846761111111">
<ele>322</ele>
</trkpt>
<trkpt lat="32.355423055555555" lon="129.98491305555555">
<ele>319</ele>
</trkpt>
<trkpt lat="32.355248055555556" lon="129.9849761111111">
<ele>318</ele>
</trkpt>
<trkpt lat="32.354973055555554" lon="129.98505111111112">
<ele>314</ele>
</trkpt>
<trkpt lat="32.354931111111114" lon="129.985125">
<ele>313</ele>
</trkpt>
<trkpt lat="32.354998055555555" lon="129.98528805555554">
<ele>312</ele>
</trkpt>
<trkpt lat="32.35513111111111" lon="129.98533805555556">
<ele>311</ele>
</trkpt>
<trkpt lat="32.35553888888889" lon="129.98533805555556">
<ele>311</ele>
</trkpt>
<trkpt lat="32.35568888888889" lon="129.985175">
<ele>305</ele>
</trkpt>
<trkpt lat="32.35588888888889" lon="129.984875">
<ele>304</ele>
</trkpt>
<trkpt lat="32.356121944444446" lon="129.984725">
<ele>301</ele>
</trkpt>
<trkpt lat="32.35633111111111" lon="129.98475">
<ele>298</ele>
</trkpt>
<trkpt lat="32.35661388888889" lon="129.98483805555554">
<ele>293</ele>
</trkpt>
<trkpt lat="32.35673888888889" lon="129.984825">
<ele>293</ele>
</trkpt>
<trkpt lat="32.35680611111111" lon="129.98475">
<ele>292</ele>
</trkpt>
<trkpt lat="32.356923055555555" lon="129.984375">
<ele>292</ele>
</trkpt>
<trkpt lat="32.35698111111111" lon="129.98396305555556">
<ele>295</ele>
</trkpt>
<trkpt lat="32.35707305555555" lon="129.9838761111111">
<ele>294</ele>
</trkpt>
<trkpt lat="32.357213888888886" lon="129.98383805555557">
<ele>293</ele>
</trkpt>
<trkpt lat="32.35746388888889" lon="129.98383805555557">
<ele>287</ele>
</trkpt>
<trkpt lat="32.35773888888889" lon="129.9837511111111">
<ele>284</ele>
</trkpt>
<trkpt lat="32.359521944444445" lon="129.98388805555555">
<ele>284</ele>
</trkpt>
<trkpt lat="32.36033111111111" lon="129.98418805555556">
<ele>270</ele>
</trkpt>
<trkpt lat="32.36145805555556" lon="129.9842688888889">
<ele>257</ele>
</trkpt>
<trkpt lat="32.36145805555556" lon="129.9842688888889">
<ele>257</ele>
</trkpt>
<trkpt lat="32.36172194444445" lon="129.98428805555557">
<ele>254</ele>
</trkpt>
<trkpt lat="32.362321944444446" lon="129.984525">
<ele>246</ele>
</trkpt>
<trkpt lat="32.36251388888889" lon="129.98476305555556">
<ele>243</ele>
</trkpt>
<trkpt lat="32.36263888888889" lon="129.98506305555554">
<ele>239</ele>
</trkpt>
<trkpt lat="32.362896944444444" lon="129.985275">
<ele>236</ele>
</trkpt>
<trkpt lat="32.36333888888889" lon="129.985275">
<ele>233</ele>
</trkpt>
<trkpt lat="32.36392194444444" lon="129.98545">
<ele>221</ele>
</trkpt>
<trkpt lat="32.36463" lon="129.98541194444445">
<ele>223</ele>
</trkpt>
<trkpt lat="32.36531305555555" lon="129.98595">
<ele>217</ele>
</trkpt>
<trkpt lat="32.36577194444445" lon="129.98585">
<ele>209</ele>
</trkpt>
<trkpt lat="32.36626305555556" lon="129.985475">
<ele>207</ele>
</trkpt>
<trkpt lat="32.366355" lon="129.985575">
<ele>203</ele>
</trkpt>
<trkpt lat="32.365721944444445" lon="129.9861">
<ele>205</ele>
</trkpt>
<trkpt lat="32.36566305555556" lon="129.986275">
<ele>204</ele>
</trkpt>
<trkpt lat="32.36579694444445" lon="129.986325">
<ele>198</ele>
</trkpt>
<trkpt lat="32.366346944444444" lon="129.98596194444445">
<ele>196</ele>
</trkpt>
<trkpt lat="32.366838055555554" lon="129.98596194444445">
<ele>196</ele>
</trkpt>
<trkpt lat="32.367221944444445" lon="129.98631194444445">
<ele>194</ele>
</trkpt>
<trkpt lat="32.368005" lon="129.98668694444444">
<ele>173</ele>
</trkpt>
<trkpt lat="32.368246944444444" lon="129.98701194444445">
<ele>174</ele>
</trkpt>
<trkpt lat="32.368521944444446" lon="129.987775">
<ele>174</ele>
</trkpt>
<trkpt lat="32.36902194444444" lon="129.9882988888889">
<ele>167</ele>
</trkpt>
<trkpt lat="32.369388055555554" lon="129.9883738888889">
<ele>166</ele>
</trkpt>
<trkpt lat="32.369855" lon="129.98832388888889">
<ele>168</ele>
</trkpt>
<trkpt lat="32.370555" lon="129.98866194444443">
<ele>164</ele>
</trkpt>
<trkpt lat="32.37059611111111" lon="129.9888738888889">
<ele>161</ele>
</trkpt>
<trkpt lat="32.369888055555556" lon="129.98951194444444">
<ele>154</ele>
</trkpt>
<trkpt lat="32.36933" lon="129.98937388888888">
<ele>147</ele>
</trkpt>
<trkpt lat="32.36906305555556" lon="129.9896738888889">
<ele>145</ele>
</trkpt>
<trkpt lat="32.369105" lon="129.98986194444444">
<ele>143</ele>
</trkpt>
<trkpt lat="32.36968" lon="129.99016194444445">
<ele>135</ele>
</trkpt>
<trkpt lat="32.371205" lon="129.9898738888889">
<ele>135</ele>
</trkpt>
<trkpt lat="32.37213805555555" lon="129.9903238888889">
<ele>119</ele>
</trkpt>
<trkpt lat="32.37233" lon="129.99026194444446">
<ele>117</ele>
</trkpt>
<trkpt lat="32.37247111111111" lon="129.98969888888888">
<ele>113</ele>
</trkpt>
<trkpt lat="32.37287111111111" lon="129.9891738888889">
<ele>116</ele>
</trkpt>
<trkpt lat="32.37320388888889" lon="129.98893694444445">
<ele>108</ele>
</trkpt>
<trkpt lat="32.37321305555555" lon="129.98918694444444">
<ele>106</ele>
</trkpt>
<trkpt lat="32.37293" lon="129.98937388888888">
<ele>107</ele>
</trkpt>
<trkpt lat="32.37292111111111" lon="129.98986194444444">
<ele>96</ele>
</trkpt>
<trkpt lat="32.37297111111111" lon="129.98996194444445">
<ele>95</ele>
</trkpt>
<trkpt lat="32.37333805555556" lon="129.98949888888887">
<ele>92</ele>
</trkpt>
<trkpt lat="32.37360388888889" lon="129.9893238888889">
<ele>89</ele>
</trkpt>
<trkpt lat="32.37381305555556" lon="129.98869888888888">
<ele>85</ele>
</trkpt>
<trkpt lat="32.373778888888886" lon="129.98836194444445">
<ele>78</ele>
</trkpt>
<trkpt lat="32.37365388888889" lon="129.98818694444444">
<ele>78</ele>
</trkpt>
<trkpt lat="32.37367111111111" lon="129.98803694444445">
<ele>73</ele>
</trkpt>
<trkpt lat="32.37382888888889" lon="129.98722388888888">
<ele>64</ele>
</trkpt>
<trkpt lat="32.37392888888889" lon="129.98731194444446">
<ele>59</ele>
</trkpt>
<trkpt lat="32.37398805555556" lon="129.98744888888888">
<ele>56</ele>
</trkpt>
<trkpt lat="32.37409611111111" lon="129.9878488888889">
<ele>54</ele>
</trkpt>
<trkpt lat="32.37418805555556" lon="129.98802388888888">
<ele>55</ele>
</trkpt>
<trkpt lat="32.37428805555555" lon="129.98811194444446">
<ele>48</ele>
</trkpt>
<trkpt lat="32.37452888888889" lon="129.98822388888888">
<ele>46</ele>
</trkpt>
<trkpt lat="32.374588055555556" lon="129.9882988888889">
<ele>42</ele>
</trkpt>
<trkpt lat="32.37469611111111" lon="129.9892738888889">
<ele>31</ele>
</trkpt>
<trkpt lat="32.37475388888889" lon="129.98968694444446">
<ele>23</ele>
</trkpt>
<trkpt lat="32.37468805555555" lon="129.98981194444445">
<ele>23</ele>
</trkpt>
<trkpt lat="32.37469611111111" lon="129.9898988888889">
<ele>21</ele>
</trkpt>
<trkpt lat="32.37470388888889" lon="129.99021194444444">
<ele>15</ele>
</trkpt>
<trkpt lat="32.37479611111111" lon="129.99058694444443">
<ele>10</ele>
</trkpt>
<trkpt lat="32.37482111111111" lon="129.9907738888889">
<ele>11</ele>
</trkpt>
<trkpt lat="32.37480388888889" lon="129.99133694444444">
<ele>7</ele>
</trkpt>
<trkpt lat="32.37483805555556" lon="129.99152388888888">
<ele>8</ele>
</trkpt>
<trkpt lat="32.374921111111114" lon="129.9915988888889">
<ele>6</ele>
</trkpt>
<trkpt lat="32.37477888888889" lon="129.99243611111112">
<ele>7</ele>
</trkpt>
<trkpt lat="32.37461305555556" lon="129.9931361111111">
<ele>8</ele>
</trkpt>
<trkpt lat="32.37452888888889" lon="129.9935988888889">
<ele>8</ele>
</trkpt>
<trkpt lat="32.374515" lon="129.9938611111111">
<ele>8</ele>
</trkpt>
<trkpt lat="32.374515" lon="129.9938611111111">
<ele>8</ele>
</trkpt>
<trkpt lat="32.37451305555555" lon="129.99389888888888">
<ele>8</ele>
</trkpt>
<trkpt lat="32.37451305555555" lon="129.99409888888889">
<ele>9</ele>
</trkpt>
<trkpt lat="32.374628888888886" lon="129.99448611111112">
<ele>8</ele>
</trkpt>
<trkpt lat="32.37468805555555" lon="129.99467388888888">
<ele>8</ele>
</trkpt>
<trkpt lat="32.37469611111111" lon="129.9947611111111">
<ele>8</ele>
</trkpt>
<trkpt lat="32.37457111111111" lon="129.99512388888888">
<ele>8</ele>
</trkpt>
<trkpt lat="32.37443805555556" lon="129.9953988888889">
<ele>7</ele>
</trkpt>
<trkpt lat="32.374388055555556" lon="129.9955238888889">
<ele>8</ele>
</trkpt>
<trkpt lat="32.374313055555554" lon="129.99581111111112">
<ele>8</ele>
</trkpt>
<trkpt lat="32.37472888888889" lon="129.9959111111111">
<ele>8</ele>
</trkpt>
<trkpt lat="32.37525388888889" lon="129.99602388888889">
<ele>8</ele>
</trkpt>
<trkpt lat="32.37562111111111" lon="129.99604888888888">
<ele>9</ele>
</trkpt>
<trkpt lat="32.37572888888889" lon="129.99604888888888">
<ele>8</ele>
</trkpt>
<trkpt lat="32.37602888888889" lon="129.9961361111111">
<ele>8</ele>
</trkpt>
<trkpt lat="32.37647111111111" lon="129.99628611111112">
<ele>8</ele>
</trkpt>
<trkpt lat="32.37820388888889" lon="129.99709805555557">
<ele>2</ele>
</trkpt>
<trkpt lat="32.37829611111111" lon="129.99714805555556">
<ele>2</ele>
</trkpt>
<trkpt lat="32.378838055555555" lon="129.99741111111112">
<ele>4</ele>
</trkpt>
<trkpt lat="32.37891111111111" lon="129.99744388888888">
<ele>4</ele>
</trkpt>
<trkpt lat="32.37891111111111" lon="129.99744305555555">
<ele>4</ele>
</trkpt>
<trkpt lat="32.379311944444446" lon="129.99762305555555">
<ele>5</ele>
</trkpt>
<trkpt lat="32.379513055555556" lon="129.9976111111111">
<ele>6</ele>
</trkpt>
<trkpt lat="32.379713055555555" lon="129.99759805555556">
<ele>6</ele>
</trkpt>
<trkpt lat="32.38002888888889" lon="129.99754805555557">
<ele>7</ele>
</trkpt>
<trkpt lat="32.38022111111111" lon="129.99751111111112">
<ele>7</ele>
</trkpt>
<trkpt lat="32.38057888888889" lon="129.99744805555557">
<ele>8</ele>
</trkpt>
<trkpt lat="32.380853888888886" lon="129.99739805555555">
<ele>8</ele>
</trkpt>
<trkpt lat="32.38125388888889" lon="129.99731111111112">
<ele>7</ele>
</trkpt>
<trkpt lat="32.38148694444445" lon="129.99719805555554">
<ele>7</ele>
</trkpt>
<trkpt lat="32.38184611111111" lon="129.99699805555557">
<ele>8</ele>
</trkpt>
<trkpt lat="32.382196111111114" lon="129.99672305555555">
<ele>8</ele>
</trkpt>
<trkpt lat="32.38252111111111" lon="129.9965611111111">
<ele>8</ele>
</trkpt>
<trkpt lat="32.38253388888889" lon="129.99645611111112">
<ele>8</ele>
</trkpt>
<trkpt lat="32.38253388888889" lon="129.99645611111112">
<ele>8</ele>
</trkpt>
<trkpt lat="32.38254611111111" lon="129.9963611111111">
<ele>7</ele>
</trkpt>
<trkpt lat="32.38257888888889" lon="129.99618611111111">
<ele>6</ele>
</trkpt>
<trkpt lat="32.38262888888889" lon="129.99609805555556">
<ele>6</ele>
</trkpt>
<trkpt lat="32.382736944444446" lon="129.99596111111111">
<ele>6</ele>
</trkpt>
<trkpt lat="32.38274611111111" lon="129.99574805555557">
<ele>5</ele>
</trkpt>
<trkpt lat="32.38274611111111" lon="129.99548611111112">
<ele>6</ele>
</trkpt>
<trkpt lat="32.38279611111111" lon="129.99454805555555">
<ele>3</ele>
</trkpt>
<trkpt lat="32.38317111111111" lon="129.9942861111111">
<ele>3</ele>
</trkpt>
<trkpt lat="32.38343694444445" lon="129.9942861111111">
<ele>4</ele>
</trkpt>
<trkpt lat="32.38352888888889" lon="129.99433611111112">
<ele>6</ele>
</trkpt>
<trkpt lat="32.383786944444445" lon="129.99467305555555">
<ele>8</ele>
</trkpt>
<trkpt lat="32.38392" lon="129.99477305555556">
<ele>7</ele>
</trkpt>
<trkpt lat="32.38400388888889" lon="129.99478611111113">
<ele>7</ele>
</trkpt>
<trkpt lat="32.38410388888889" lon="129.9947611111111">
<ele>7</ele>
</trkpt>
<trkpt lat="32.38452" lon="129.99437305555554">
<ele>10</ele>
</trkpt>
<trkpt lat="32.38467" lon="129.99419805555556">
<ele>15</ele>
</trkpt>
<trkpt lat="32.384903888888886" lon="129.9940861111111">
<ele>16</ele>
</trkpt>
<trkpt lat="32.38515388888889" lon="129.99397305555556">
<ele>15</ele>
</trkpt>
<trkpt lat="32.38521194444444" lon="129.99392305555557">
<ele>15</ele>
</trkpt>
<trkpt lat="32.385395" lon="129.9936361111111">
<ele>13</ele>
</trkpt>
<trkpt lat="32.38597" lon="129.99332388888888">
<ele>16</ele>
</trkpt>
<trkpt lat="32.386195" lon="129.9933488888889">
<ele>26</ele>
</trkpt>
<trkpt lat="32.386361944444445" lon="129.9932988888889">
<ele>26</ele>
</trkpt>
<trkpt lat="32.386403888888886" lon="129.99321111111112">
<ele>24</ele>
</trkpt>
<trkpt lat="32.38637" lon="129.9931238888889">
<ele>24</ele>
</trkpt>
<trkpt lat="32.38605388888889" lon="129.99278611111112">
<ele>23</ele>
</trkpt>
<trkpt lat="32.38576194444445" lon="129.9926238888889">
<ele>25</ele>
</trkpt>
<trkpt lat="32.385545" lon="129.99254888888888">
<ele>22</ele>
</trkpt>
<trkpt lat="32.38543694444444" lon="129.9924738888889">
<ele>20</ele>
</trkpt>
<trkpt lat="32.38530388888889" lon="129.9922738888889">
<ele>26</ele>
</trkpt>
<trkpt lat="32.38520388888889" lon="129.9922488888889">
<ele>29</ele>
</trkpt>
<trkpt lat="32.385128888888886" lon="129.9922611111111">
<ele>29</ele>
</trkpt>
<trkpt lat="32.38493694444445" lon="129.9925861111111">
<ele>31</ele>
</trkpt>
<trkpt lat="32.38482888888889" lon="129.9926738888889">
<ele>30</ele>
</trkpt>
<trkpt lat="32.384695" lon="129.9926738888889">
<ele>31</ele>
</trkpt>
<trkpt lat="32.38451194444445" lon="129.9925738888889">
<ele>32</ele>
</trkpt>
<trkpt lat="32.38432" lon="129.99242388888888">
<ele>31</ele>
</trkpt>
<trkpt lat="32.38422888888889" lon="129.99232388888888">
<ele>35</ele>
</trkpt>
<trkpt lat="32.38413694444444" lon="129.99229888888888">
<ele>34</ele>
</trkpt>
<trkpt lat="32.384045" lon="129.99231111111112">
<ele>35</ele>
</trkpt>
<trkpt lat="32.38388694444444" lon="129.9925111111111">
<ele>33</ele>
</trkpt>
<trkpt lat="32.38377" lon="129.9925111111111">
<ele>35</ele>
</trkpt>
<trkpt lat="32.383786944444445" lon="129.99231111111112">
<ele>36</ele>
</trkpt>
<trkpt lat="32.38377" lon="129.9921361111111">
<ele>31</ele>
</trkpt>
<trkpt lat="32.38375388888889" lon="129.99187388888888">
<ele>31</ele>
</trkpt>
<trkpt lat="32.38382" lon="129.9915738888889">
<ele>34</ele>
</trkpt>
<trkpt lat="32.38395388888889" lon="129.9913488888889">
<ele>36</ele>
</trkpt>
<trkpt lat="32.38410388888889" lon="129.9911361111111">
<ele>35</ele>
</trkpt>
<trkpt lat="32.38428694444445" lon="129.99108611111112">
<ele>37</ele>
</trkpt>
<trkpt lat="32.384436944444445" lon="129.99096111111112">
<ele>37</ele>
</trkpt>
<trkpt lat="32.38445388888889" lon="129.9908738888889">
<ele>37</ele>
</trkpt>
<trkpt lat="32.384436944444445" lon="129.9907488888889">
<ele>35</ele>
</trkpt>
<trkpt lat="32.38428694444445" lon="129.99059888888888">
<ele>36</ele>
</trkpt>
<trkpt lat="32.38416194444444" lon="129.99049888888888">
<ele>41</ele>
</trkpt>
<trkpt lat="32.384036944444446" lon="129.99028611111112">
<ele>45</ele>
</trkpt>
<trkpt lat="32.38406194444445" lon="129.99006111111112">
<ele>46</ele>
</trkpt>
<trkpt lat="32.38413694444444" lon="129.98982388888888">
<ele>54</ele>
</trkpt>
<trkpt lat="32.38416194444444" lon="129.9896738888889">
<ele>54</ele>
</trkpt>
<trkpt lat="32.38412" lon="129.9895111111111">
<ele>55</ele>
</trkpt>
<trkpt lat="32.38400388888889" lon="129.9892361111111">
<ele>53</ele>
</trkpt>
<trkpt lat="32.38400388888889" lon="129.9891861111111">
<ele>53</ele>
</trkpt>
<trkpt lat="32.384053888888886" lon="129.98914888888888">
<ele>53</ele>
</trkpt>
<trkpt lat="32.38416194444444" lon="129.9892361111111">
<ele>55</ele>
</trkpt>
<trkpt lat="32.38422888888889" lon="129.98934888888888">
<ele>54</ele>
</trkpt>
<trkpt lat="32.38431194444444" lon="129.98949888888887">
<ele>57</ele>
</trkpt>
<trkpt lat="32.38435388888889" lon="129.98972388888888">
<ele>60</ele>
</trkpt>
<trkpt lat="32.38440388888889" lon="129.9899111111111">
<ele>61</ele>
</trkpt>
<trkpt lat="32.38447" lon="129.99002388888889">
<ele>61</ele>
</trkpt>
<trkpt lat="32.38472388888889" lon="129.99033">
<ele>62</ele>
</trkpt>
<trkpt lat="32.38472388888889" lon="129.99033">
<ele>62</ele>
</trkpt>
<trkpt lat="32.38485388888889" lon="129.99048611111112">
<ele>62</ele>
</trkpt>
<trkpt lat="32.38491194444445" lon="129.9905361111111">
<ele>64</ele>
</trkpt>
<trkpt lat="32.38502" lon="129.9905861111111">
<ele>64</ele>
</trkpt>
<trkpt lat="32.38537888888889" lon="129.9905738888889">
<ele>65</ele>
</trkpt>
<trkpt lat="32.38547" lon="129.99059888888888">
<ele>64</ele>
</trkpt>
<trkpt lat="32.385595" lon="129.9906738888889">
<ele>65</ele>
</trkpt>
<trkpt lat="32.38583694444444" lon="129.9909861111111">
<ele>64</ele>
</trkpt>
<trkpt lat="32.386161944444446" lon="129.9914238888889">
<ele>66</ele>
</trkpt>
<trkpt lat="32.386311944444444" lon="129.99163611111112">
<ele>63</ele>
</trkpt>
<trkpt lat="32.38642" lon="129.9918861111111">
<ele>61</ele>
</trkpt>
<trkpt lat="32.386536944444444" lon="129.9921361111111">
<ele>52</ele>
</trkpt>
<trkpt lat="32.386645" lon="129.99232388888888">
<ele>53</ele>
</trkpt>
<trkpt lat="32.38673694444444" lon="129.9924611111111">
<ele>52</ele>
</trkpt>
<trkpt lat="32.386845" lon="129.99252388888888">
<ele>53</ele>
</trkpt>
<trkpt lat="32.387445" lon="129.99277388888888">
<ele>61</ele>
</trkpt>
<trkpt lat="32.38755305555556" lon="129.9928361111111">
<ele>63</ele>
</trkpt>
<trkpt lat="32.38767" lon="129.9929611111111">
<ele>66</ele>
</trkpt>
<trkpt lat="32.38841194444444" lon="129.99388611111112">
<ele>72</ele>
</trkpt>
<trkpt lat="32.38862805555556" lon="129.99424805555554">
<ele>75</ele>
</trkpt>
<trkpt lat="32.38872805555555" lon="129.99446111111112">
<ele>76</ele>
</trkpt>
<trkpt lat="32.38901194444445" lon="129.9951861111111">
<ele>83</ele>
</trkpt>
<trkpt lat="32.38951194444444" lon="129.99612305555556">
<ele>85</ele>
</trkpt>
<trkpt lat="32.389761944444444" lon="129.99649805555555">
<ele>85</ele>
</trkpt>
<trkpt lat="32.389853055555555" lon="129.99669805555556">
<ele>86</ele>
</trkpt>
<trkpt lat="32.389853055555555" lon="129.99724805555556">
<ele>84</ele>
</trkpt>
<trkpt lat="32.389961944444444" lon="129.99773611111112">
<ele>84</ele>
</trkpt>
<trkpt lat="32.39010305555556" lon="129.99797805555556">
<ele>81</ele>
</trkpt>
<trkpt lat="32.39010305555556" lon="129.99797805555556">
<ele>81</ele>
</trkpt>
<trkpt lat="32.39013694444444" lon="129.9980361111111">
<ele>81</ele>
</trkpt>
<trkpt lat="32.390195" lon="129.99821111111112">
<ele>81</ele>
</trkpt>
<trkpt lat="32.390195" lon="129.99841111111112">
<ele>81</ele>
</trkpt>
<trkpt lat="32.39011194444444" lon="129.998685">
<ele>87</ele>
</trkpt>
<trkpt lat="32.39016194444444" lon="129.99881">
<ele>89</ele>
</trkpt>
<trkpt lat="32.39022805555555" lon="129.99912305555554">
<ele>84</ele>
</trkpt>
<trkpt lat="32.390395" lon="129.99946">
<ele>78</ele>
</trkpt>
<trkpt lat="32.390478055555555" lon="129.99952305555556">
<ele>77</ele>
</trkpt>
<trkpt lat="32.39077" lon="129.99952305555556">
<ele>76</ele>
</trkpt>
<trkpt lat="32.39105305555555" lon="129.999385">
<ele>72</ele>
</trkpt>
<trkpt lat="32.39111194444445" lon="129.99934805555554">
<ele>70</ele>
</trkpt>
<trkpt lat="32.391195" lon="129.99934805555554">
<ele>70</ele>
</trkpt>
<trkpt lat="32.391286944444445" lon="129.999385">
<ele>65</ele>
</trkpt>
<trkpt lat="32.39137" lon="129.99946">
<ele>62</ele>
</trkpt>
<trkpt lat="32.39142805555556" lon="129.999585">
<ele>63</ele>
</trkpt>
<trkpt lat="32.391486944444445" lon="129.99979805555554">
<ele>66</ele>
</trkpt>
<trkpt lat="32.39255305555555" lon="129.99976">
<ele>52</ele>
</trkpt>
<trkpt lat="32.39272" lon="129.999735">
<ele>53</ele>
</trkpt>
<trkpt lat="32.39313611111111" lon="129.99957305555554">
<ele>46</ele>
</trkpt>
<trkpt lat="32.393303055555556" lon="129.99954805555555">
<ele>42</ele>
</trkpt>
<trkpt lat="32.39358611111111" lon="129.99952305555556">
<ele>45</ele>
</trkpt>
<trkpt lat="32.39376111111111" lon="129.999585">
<ele>46</ele>
</trkpt>
<trkpt lat="32.39377" lon="129.99958805555556">
<ele>46</ele>
</trkpt>
<trkpt lat="32.39377" lon="129.99958805555556">
<ele>46</ele>
</trkpt>
<trkpt lat="32.394045" lon="129.999685">
<ele>45</ele>
</trkpt>
<trkpt lat="32.39422805555556" lon="129.999735">
<ele>42</ele>
</trkpt>
<trkpt lat="32.39441111111111" lon="129.99969805555557">
<ele>44</ele>
</trkpt>
<trkpt lat="32.394578055555556" lon="129.99962305555556">
<ele>45</ele>
</trkpt>
<trkpt lat="32.394845" lon="129.999435">
<ele>45</ele>
</trkpt>
<trkpt lat="32.39526111111111" lon="129.99911">
<ele>44</ele>
</trkpt>
<trkpt lat="32.39552" lon="129.99906">
<ele>45</ele>
</trkpt>
<trkpt lat="32.396278055555555" lon="129.99902305555557">
<ele>45</ele>
</trkpt>
<trkpt lat="32.39644388888889" lon="129.999085">
<ele>44</ele>
</trkpt>
<trkpt lat="32.39655305555556" lon="129.99924805555557">
<ele>45</ele>
</trkpt>
<trkpt lat="32.39661888888889" lon="129.999535">
<ele>43</ele>
</trkpt>
<trkpt lat="32.39661888888889" lon="129.99969805555557">
<ele>42</ele>
</trkpt>
<trkpt lat="32.39651111111111" lon="129.99992305555554">
<ele>44</ele>
</trkpt>
<trkpt lat="32.396453055555554" lon="130.000285">
<ele>43</ele>
</trkpt>
<trkpt lat="32.39648611111111" lon="130.00046">
<ele>42</ele>
</trkpt>
<trkpt lat="32.39661111111111" lon="130.00061">
<ele>44</ele>
</trkpt>
<trkpt lat="32.39676111111111" lon="130.000735">
<ele>44</ele>
</trkpt>
<trkpt lat="32.39688611111111" lon="130.000785">
<ele>42</ele>
</trkpt>
<trkpt lat="32.39703611111111" lon="130.000785">
<ele>45</ele>
</trkpt>
<trkpt lat="32.397328055555555" lon="130.00061">
<ele>44</ele>
</trkpt>
<trkpt lat="32.39768611111111" lon="130.00042305555556">
<ele>45</ele>
</trkpt>
<trkpt lat="32.397843888888886" lon="130.00037194444445">
<ele>46</ele>
</trkpt>
<trkpt lat="32.39810305555555" lon="130.00041">
<ele>46</ele>
</trkpt>
<trkpt lat="32.39832805555555" lon="130.000485">
<ele>46</ele>
</trkpt>
<trkpt lat="32.398578055555554" lon="130.000635">
<ele>42</ele>
</trkpt>
<trkpt lat="32.39890305555556" lon="130.00082194444445">
<ele>45</ele>
</trkpt>
<trkpt lat="32.39921888888889" lon="130.00096">
<ele>53</ele>
</trkpt>
<trkpt lat="32.39940305555555" lon="130.00106">
<ele>51</ele>
</trkpt>
<trkpt lat="32.399636111111114" lon="130.00124805555555">
<ele>48</ele>
</trkpt>
<trkpt lat="32.39997805555556" lon="130.00186">
<ele>37</ele>
</trkpt>
<trkpt lat="32.40024388888889" lon="130.002235">
<ele>33</ele>
</trkpt>
<trkpt lat="32.400303055555554" lon="130.00236">
<ele>35</ele>
</trkpt>
<trkpt lat="32.400286111111114" lon="130.002485">
<ele>35</ele>
</trkpt>
<trkpt lat="32.40024388888889" lon="130.00256">
<ele>33</ele>
</trkpt>
<trkpt lat="32.40008611111111" lon="130.00267194444444">
<ele>34</ele>
</trkpt>
<trkpt lat="32.39991111111111" lon="130.00274694444445">
<ele>33</ele>
</trkpt>
<trkpt lat="32.39974388888889" lon="130.002835">
<ele>31</ele>
</trkpt>
<trkpt lat="32.39969388888889" lon="130.00294694444443">
<ele>32</ele>
</trkpt>
<trkpt lat="32.39974388888889" lon="130.003085">
<ele>34</ele>
</trkpt>
<trkpt lat="32.399993888888886" lon="130.003185">
<ele>35</ele>
</trkpt>
<trkpt lat="32.40023611111111" lon="130.00319694444445">
<ele>32</ele>
</trkpt>
<trkpt lat="32.40056888888889" lon="130.00311">
<ele>22</ele>
</trkpt>
<trkpt lat="32.40071888888889" lon="130.00312194444444">
<ele>24</ele>
</trkpt>
<trkpt lat="32.40091888888889" lon="130.00327194444444">
<ele>23</ele>
</trkpt>
<trkpt lat="32.40105194444445" lon="130.00347194444444">
<ele>23</ele>
</trkpt>
<trkpt lat="32.40110305555555" lon="130.00364694444445">
<ele>23</ele>
</trkpt>
<trkpt lat="32.40105194444445" lon="130.00382194444444">
<ele>21</ele>
</trkpt>
<trkpt lat="32.40092805555555" lon="130.00392194444444">
<ele>20</ele>
</trkpt>
<trkpt lat="32.40083611111111" lon="130.00392194444444">
<ele>23</ele>
</trkpt>
<trkpt lat="32.400578055555556" lon="130.00389694444445">
<ele>23</ele>
</trkpt>
<trkpt lat="32.40045305555556" lon="130.003935">
<ele>21</ele>
</trkpt>
<trkpt lat="32.40003611111111" lon="130.00417194444444">
<ele>17</ele>
</trkpt>
<trkpt lat="32.39985305555555" lon="130.00427194444444">
<ele>16</ele>
</trkpt>
<trkpt lat="32.39978611111111" lon="130.00434694444445">
<ele>15</ele>
</trkpt>
<trkpt lat="32.39978611111111" lon="130.00447194444445">
<ele>17</ele>
</trkpt>
<trkpt lat="32.39989388888889" lon="130.00462194444444">
<ele>17</ele>
</trkpt>
<trkpt lat="32.40016111111111" lon="130.00477194444446">
<ele>15</ele>
</trkpt>
<trkpt lat="32.40025305555555" lon="130.00496">
<ele>14</ele>
</trkpt>
<trkpt lat="32.40026888888889" lon="130.005185">
<ele>12</ele>
</trkpt>
<trkpt lat="32.400103055555554" lon="130.00552194444444">
<ele>13</ele>
</trkpt>
<trkpt lat="32.399636111111114" lon="130.00614694444445">
<ele>7</ele>
</trkpt>
<trkpt lat="32.399078055555556" lon="130.00712194444444">
<ele>8</ele>
</trkpt>
<trkpt lat="32.398878055555556" lon="130.00757194444444">
<ele>9</ele>
</trkpt>
<trkpt lat="32.39886888888889" lon="130.00770888888889">
<ele>8</ele>
</trkpt>
<trkpt lat="32.39891111111111" lon="130.00779694444444">
<ele>8</ele>
</trkpt>
<trkpt lat="32.39901111111111" lon="130.00797194444445">
<ele>9</ele>
</trkpt>
<trkpt lat="32.39924388888889" lon="130.0083838888889">
<ele>8</ele>
</trkpt>
<trkpt lat="32.39961888888889" lon="130.00907194444446">
<ele>9</ele>
</trkpt>
<trkpt lat="32.399728055555556" lon="130.00922194444445">
<ele>10</ele>
</trkpt>
<trkpt lat="32.399903055555555" lon="130.0092588888889">
<ele>11</ele>
</trkpt>
<trkpt lat="32.40016111111111" lon="130.00918388888888">
<ele>14</ele>
</trkpt>
<trkpt lat="32.40031111111111" lon="130.0091338888889">
<ele>16</ele>
</trkpt>
<trkpt lat="32.40040305555556" lon="130.0090588888889">
<ele>16</ele>
</trkpt>
<trkpt lat="32.40056888888889" lon="130.00887194444445">
<ele>16</ele>
</trkpt>
<trkpt lat="32.40071888888889" lon="130.00854694444445">
<ele>19</ele>
</trkpt>
<trkpt lat="32.400803055555556" lon="130.0082338888889">
<ele>28</ele>
</trkpt>
<trkpt lat="32.40086111111111" lon="130.0080088888889">
<ele>26</ele>
</trkpt>
<trkpt lat="32.40101111111111" lon="130.00789694444444">
<ele>26</ele>
</trkpt>
<trkpt lat="32.40114388888889" lon="130.00784694444445">
<ele>24</ele>
</trkpt>
<trkpt lat="32.40144388888889" lon="130.00787194444445">
<ele>24</ele>
</trkpt>
<trkpt lat="32.40194388888889" lon="130.00797194444445">
<ele>33</ele>
</trkpt>
<trkpt lat="32.40213611111111" lon="130.00794694444446">
<ele>36</ele>
</trkpt>
<trkpt lat="32.402228055555554" lon="130.00787194444445">
<ele>34</ele>
</trkpt>
<trkpt lat="32.40228611111111" lon="130.0077588888889">
<ele>35</ele>
</trkpt>
<trkpt lat="32.40226888888889" lon="130.0075838888889">
<ele>37</ele>
</trkpt>
<trkpt lat="32.402211111111114" lon="130.0074338888889">
<ele>36</ele>
</trkpt>
<trkpt lat="32.40193611111111" lon="130.00689694444443">
<ele>35</ele>
</trkpt>
<trkpt lat="32.401918888888886" lon="130.0067338888889">
<ele>40</ele>
</trkpt>
<trkpt lat="32.40201111111111" lon="130.00659694444445">
<ele>46</ele>
</trkpt>
<trkpt lat="32.40225111111111" lon="130.00642">
<ele>47</ele>
</trkpt>
<trkpt lat="32.40225111111111" lon="130.00642">
<ele>47</ele>
</trkpt>
<trkpt lat="32.402453055555554" lon="130.00627194444445">
<ele>47</ele>
</trkpt>
<trkpt lat="32.40268611111111" lon="130.00604694444445">
<ele>49</ele>
</trkpt>
<trkpt lat="32.40297694444445" lon="130.00577194444443">
<ele>45</ele>
</trkpt>
<trkpt lat="32.40314388888889" lon="130.00570888888888">
<ele>51</ele>
</trkpt>
<trkpt lat="32.40341111111111" lon="130.00570888888888">
<ele>54</ele>
</trkpt>
<trkpt lat="32.40366888888889" lon="130.00578388888889">
<ele>54</ele>
</trkpt>
<trkpt lat="32.40406888888889" lon="130.0060588888889">
<ele>55</ele>
</trkpt>
<trkpt lat="32.404153055555554" lon="130.00609694444444">
<ele>55</ele>
</trkpt>
<trkpt lat="32.404451944444446" lon="130.00613388888888">
<ele>60</ele>
</trkpt>
<trkpt lat="32.40461888888889" lon="130.00619694444444">
<ele>65</ele>
</trkpt>
<trkpt lat="32.40471888888889" lon="130.00629694444444">
<ele>72</ele>
</trkpt>
<trkpt lat="32.40537805555556" lon="130.00728388888888">
<ele>64</ele>
</trkpt>
<trkpt lat="32.40577694444445" lon="130.00794694444446">
<ele>59</ele>
</trkpt>
<trkpt lat="32.40581888888889" lon="130.00805888888888">
<ele>59</ele>
</trkpt>
<trkpt lat="32.40601111111111" lon="130.00859694444443">
<ele>56</ele>
</trkpt>
<trkpt lat="32.40611888888889" lon="130.00879694444444">
<ele>55</ele>
</trkpt>
<trkpt lat="32.40623611111111" lon="130.00892194444444">
<ele>55</ele>
</trkpt>
<trkpt lat="32.406393888888886" lon="130.0090338888889">
<ele>53</ele>
</trkpt>
<trkpt lat="32.40651888888889" lon="130.00908388888888">
<ele>51</ele>
</trkpt>
<trkpt lat="32.406711111111115" lon="130.00909694444445">
<ele>47</ele>
</trkpt>
<trkpt lat="32.407426944444445" lon="130.0088338888889">
<ele>48</ele>
</trkpt>
<trkpt lat="32.407561111111114" lon="130.00872194444443">
<ele>48</ele>
</trkpt>
<trkpt lat="32.407761111111114" lon="130.00844694444444">
<ele>46</ele>
</trkpt>
<trkpt lat="32.40801111111111" lon="130.00818388888888">
<ele>45</ele>
</trkpt>
<trkpt lat="32.40833611111111" lon="130.00794694444446">
<ele>44</ele>
</trkpt>
<trkpt lat="32.40840194444444" lon="130.0079088888889">
<ele>44</ele>
</trkpt>
<trkpt lat="32.40841888888889" lon="130.0079088888889">
<ele>44</ele>
</trkpt>
<trkpt lat="32.40842694444444" lon="130.0078838888889">
<ele>42</ele>
</trkpt>
<trkpt lat="32.40846111111111" lon="130.0078211111111">
<ele>42</ele>
</trkpt>
<trkpt lat="32.40846111111111" lon="130.0078211111111">
<ele>42</ele>
</trkpt>
<trkpt lat="32.40851888888889" lon="130.00770888888889">
<ele>41</ele>
</trkpt>
<trkpt lat="32.40857694444444" lon="130.0076588888889">
<ele>38</ele>
</trkpt>
<trkpt lat="32.40864388888889" lon="130.0076588888889">
<ele>38</ele>
</trkpt>
<trkpt lat="32.40871111111111" lon="130.00770888888889">
<ele>39</ele>
</trkpt>
<trkpt lat="32.409061111111114" lon="130.00807194444445">
<ele>41</ele>
</trkpt>
<trkpt lat="32.40913611111111" lon="130.00814694444443">
<ele>43</ele>
</trkpt>
<trkpt lat="32.40929388888889" lon="130.0082088888889">
<ele>43</ele>
</trkpt>
<trkpt lat="32.40938611111111" lon="130.00819694444445">
<ele>45</ele>
</trkpt>
<trkpt lat="32.40946111111111" lon="130.0081588888889">
<ele>46</ele>
</trkpt>
<trkpt lat="32.40954388888889" lon="130.00808388888888">
<ele>46</ele>
</trkpt>
<trkpt lat="32.40960194444445" lon="130.0079838888889">
<ele>46</ele>
</trkpt>
<trkpt lat="32.40962694444445" lon="130.0079088888889">
<ele>46</ele>
</trkpt>
<trkpt lat="32.40965194444444" lon="130.00779694444444">
<ele>44</ele>
</trkpt>
<trkpt lat="32.40965194444444" lon="130.00772194444446">
<ele>44</ele>
</trkpt>
<trkpt lat="32.40962694444445" lon="130.0072338888889">
<ele>44</ele>
</trkpt>
<trkpt lat="32.40964388888889" lon="130.00712194444444">
<ele>44</ele>
</trkpt>
<trkpt lat="32.409685" lon="130.00699694444444">
<ele>45</ele>
</trkpt>
<trkpt lat="32.40996888888889" lon="130.00647194444446">
<ele>44</ele>
</trkpt>
<trkpt lat="32.41021888888889" lon="130.0060588888889">
<ele>44</ele>
</trkpt>
<trkpt lat="32.410468888888886" lon="130.0057588888889">
<ele>46</ele>
</trkpt>
<trkpt lat="32.410585" lon="130.00568388888888">
<ele>48</ele>
</trkpt>
<trkpt lat="32.410785" lon="130.0056088888889">
<ele>47</ele>
</trkpt>
<trkpt lat="32.41095194444444" lon="130.00548388888888">
<ele>47</ele>
</trkpt>
<trkpt lat="32.41116" lon="130.00525888888887">
<ele>46</ele>
</trkpt>
<trkpt lat="32.411335" lon="130.00523388888888">
<ele>44</ele>
</trkpt>
<trkpt lat="32.41144388888889" lon="130.00525888888887">
<ele>44</ele>
</trkpt>
<trkpt lat="32.411785" lon="130.00535888888888">
<ele>42</ele>
</trkpt>
<trkpt lat="32.412193888888886" lon="130.0054338888889">
<ele>41</ele>
</trkpt>
<trkpt lat="32.41244388888889" lon="130.00542194444444">
<ele>42</ele>
</trkpt>
<trkpt lat="32.412751944444445" lon="130.00532194444443">
<ele>42</ele>
</trkpt>
<trkpt lat="32.41291805555556" lon="130.00524694444445">
<ele>45</ele>
</trkpt>
<trkpt lat="32.41316805555556" lon="130.0052088888889">
<ele>44</ele>
</trkpt>
<trkpt lat="32.41346" lon="130.0051588888889">
<ele>44</ele>
</trkpt>
<trkpt lat="32.413626944444445" lon="130.00507194444444">
<ele>43</ele>
</trkpt>
<trkpt lat="32.413693055555555" lon="130.00497194444443">
<ele>45</ele>
</trkpt>
<trkpt lat="32.413735" lon="130.0048088888889">
<ele>44</ele>
</trkpt>
<trkpt lat="32.413835" lon="130.0041338888889">
<ele>43</ele>
</trkpt>
<trkpt lat="32.41392694444444" lon="130.00388388888888">
<ele>35</ele>
</trkpt>
<trkpt lat="32.41401805555556" lon="130.0037338888889">
<ele>35</ele>
</trkpt>
<trkpt lat="32.41411" lon="130.00367194444445">
<ele>35</ele>
</trkpt>
<trkpt lat="32.414206944444445" lon="130.00367194444445">
<ele>35</ele>
</trkpt>
<trkpt lat="32.414206944444445" lon="130.00367194444445">
<ele>35</ele>
</trkpt>
<trkpt lat="32.41437694444444" lon="130.00367194444445">
<ele>36</ele>
</trkpt>
<trkpt lat="32.41451" lon="130.0037338888889">
<ele>35</ele>
</trkpt>
<trkpt lat="32.41476" lon="130.00392194444444">
<ele>37</ele>
</trkpt>
<trkpt lat="32.41486" lon="130.00399694444445">
<ele>34</ele>
</trkpt>
<trkpt lat="32.414968055555555" lon="130.0040338888889">
<ele>33</ele>
</trkpt>
<trkpt lat="32.415193055555555" lon="130.00399694444445">
<ele>27</ele>
</trkpt>
<trkpt lat="32.415285" lon="130.00394694444444">
<ele>30</ele>
</trkpt>
<trkpt lat="32.415376944444446" lon="130.00387194444446">
<ele>32</ele>
</trkpt>
<trkpt lat="32.41545194444444" lon="130.0037338888889">
<ele>33</ele>
</trkpt>
<trkpt lat="32.415593055555554" lon="130.0036088888889">
<ele>33</ele>
</trkpt>
<trkpt lat="32.415735" lon="130.00357194444445">
<ele>34</ele>
</trkpt>
<trkpt lat="32.415935" lon="130.00355888888888">
<ele>35</ele>
</trkpt>
<trkpt lat="32.41605111111111" lon="130.00357194444445">
<ele>35</ele>
</trkpt>
<trkpt lat="32.41626" lon="130.00365888888888">
<ele>34</ele>
</trkpt>
<trkpt lat="32.41637611111111" lon="130.00364694444445">
<ele>34</ele>
</trkpt>
<trkpt lat="32.416493055555556" lon="130.00365888888888">
<ele>33</ele>
</trkpt>
<trkpt lat="32.41660111111111" lon="130.0036838888889">
<ele>35</ele>
</trkpt>
<trkpt lat="32.416885" lon="130.00378388888888">
<ele>36</ele>
</trkpt>
<trkpt lat="32.41732611111111" lon="130.0038338888889">
<ele>34</ele>
</trkpt>
<trkpt lat="32.41785111111111" lon="130.0038088888889">
<ele>35</ele>
</trkpt>
<trkpt lat="32.41806" lon="130.00387194444446">
<ele>34</ele>
</trkpt>
<trkpt lat="32.41894305555556" lon="130.00433388888888">
<ele>23</ele>
</trkpt>
<trkpt lat="32.41922611111111" lon="130.00443388888888">
<ele>23</ele>
</trkpt>
<trkpt lat="32.41978611111111" lon="130.00443388888888">
<ele>27</ele>
</trkpt>
<trkpt lat="32.41978611111111" lon="130.00443388888888">
<ele>27</ele>
</trkpt>
<trkpt lat="32.419868055555554" lon="130.00443388888888">
<ele>27</ele>
</trkpt>
<trkpt lat="32.42005888888889" lon="130.00443388888888">
<ele>30</ele>
</trkpt>
<trkpt lat="32.420408888888886" lon="130.0045338888889">
<ele>34</ele>
</trkpt>
<trkpt lat="32.42068388888889" lon="130.0046338888889">
<ele>33</ele>
</trkpt>
<trkpt lat="32.420993055555556" lon="130.00474694444443">
<ele>33</ele>
</trkpt>
<trkpt lat="32.42110111111111" lon="130.00477194444446">
<ele>26</ele>
</trkpt>
<trkpt lat="32.42129305555556" lon="130.00478388888888">
<ele>26</ele>
</trkpt>
<trkpt lat="32.42149305555556" lon="130.00474694444443">
<ele>24</ele>
</trkpt>
<trkpt lat="32.42158388888889" lon="130.00474694444443">
<ele>24</ele>
</trkpt>
<trkpt lat="32.42169305555556" lon="130.00474694444443">
<ele>23</ele>
</trkpt>
<trkpt lat="32.42186805555556" lon="130.0048088888889">
<ele>21</ele>
</trkpt>
<trkpt lat="32.422356944444445" lon="130.00524694444445">
<ele>11</ele>
</trkpt>
<trkpt lat="32.422356944444445" lon="130.00524694444445">
<ele>11</ele>
</trkpt>
<trkpt lat="32.42255111111111" lon="130.00542194444444">
<ele>7</ele>
</trkpt>
<trkpt lat="32.42254305555556" lon="130.00562194444444">
<ele>8</ele>
</trkpt>
<trkpt lat="32.422626111111114" lon="130.00612194444443">
<ele>12</ele>
</trkpt>
<trkpt lat="32.422643055555554" lon="130.00638388888888">
<ele>12</ele>
</trkpt>
<trkpt lat="32.42259305555555" lon="130.0070211111111">
<ele>12</ele>
</trkpt>
<trkpt lat="32.42255111111111" lon="130.0074211111111">
<ele>15</ele>
</trkpt>
<trkpt lat="32.42255111111111" lon="130.00819611111112">
<ele>8</ele>
</trkpt>
<trkpt lat="32.42261805555555" lon="130.0085961111111">
<ele>8</ele>
</trkpt>
<trkpt lat="32.422668055555555" lon="130.0087088888889">
<ele>8</ele>
</trkpt>
<trkpt lat="32.42279305555556" lon="130.00887111111112">
<ele>8</ele>
</trkpt>
<trkpt lat="32.42299305555556" lon="130.00874611111112">
<ele>9</ele>
</trkpt>
<trkpt lat="32.42330111111111" lon="130.00918388888888">
<ele>8</ele>
</trkpt>
<trkpt lat="32.423138055555555" lon="130.00932">
<ele>8</ele>
</trkpt>
    </trkseg>
  </trk>
</gpx>