<?xml version="1.0" encoding="UTF-8"?>
<gpx version="1.1"
     creator="KMLtoGPX"
     xmlns="http://www.topografix.com/GPX/1/1">
  <metadata>
    <name>Food tour course</name>
    <desc>食めぐりコース</desc>
    <bounds minlat="32.92142" minlon="130.7376461111111" maxlat="32.99539" maxlon="130.85046194444445"/>
  </metadata>
  <trk>
    <name>Food tour course</name>
    <trkseg>
<trkpt lat="32.985123055555555" lon="130.81371805555557">
<ele>75</ele>
</trkpt>
<trkpt lat="32.98566611111111" lon="130.81332694444444">
<ele>76</ele>
</trkpt>
<trkpt lat="32.985973888888886" lon="130.8130888888889">
<ele>76</ele>
</trkpt>
<trkpt lat="32.986181944444446" lon="130.81297694444444">
<ele>76</ele>
</trkpt>
<trkpt lat="32.98622388888889" lon="130.81295194444445">
<ele>76</ele>
</trkpt>
<trkpt lat="32.98632388888889" lon="130.8128888888889">
<ele>76</ele>
</trkpt>
<trkpt lat="32.98737388888889" lon="130.8124388888889">
<ele>74</ele>
</trkpt>
<trkpt lat="32.98794888888889" lon="130.8122138888889">
<ele>75</ele>
</trkpt>
<trkpt lat="32.98816611111111" lon="130.81213888888888">
<ele>74</ele>
</trkpt>
<trkpt lat="32.988315" lon="130.81212694444446">
<ele>75</ele>
</trkpt>
<trkpt lat="32.98847388888889" lon="130.81212694444446">
<ele>76</ele>
</trkpt>
<trkpt lat="32.98862388888889" lon="130.8121888888889">
<ele>77</ele>
</trkpt>
<trkpt lat="32.988765" lon="130.81226388888888">
<ele>79</ele>
</trkpt>
<trkpt lat="32.98904805555556" lon="130.812485">
<ele>81</ele>
</trkpt>
<trkpt lat="32.98904805555556" lon="130.812485">
<ele>81</ele>
</trkpt>
<trkpt lat="32.98918194444445" lon="130.81258888888888">
<ele>82</ele>
</trkpt>
<trkpt lat="32.99002388888889" lon="130.81326388888888">
<ele>84</ele>
</trkpt>
<trkpt lat="32.99044694444444" lon="130.81358694444444">
<ele>81</ele>
</trkpt>
<trkpt lat="32.99044694444444" lon="130.81358694444444">
<ele>81</ele>
</trkpt>
<trkpt lat="32.990515" lon="130.8136388888889">
<ele>81</ele>
</trkpt>
<trkpt lat="32.99057388888889" lon="130.8136888888889">
<ele>81</ele>
</trkpt>
<trkpt lat="32.99064" lon="130.81372611111112">
<ele>81</ele>
</trkpt>
<trkpt lat="32.99070694444445" lon="130.81373888888888">
<ele>80</ele>
</trkpt>
<trkpt lat="32.99079" lon="130.81375111111112">
<ele>80</ele>
</trkpt>
<trkpt lat="32.990865" lon="130.81373888888888">
<ele>80</ele>
</trkpt>
<trkpt lat="32.991323888888886" lon="130.8136638888889">
<ele>80</ele>
</trkpt>
<trkpt lat="32.99135694444445" lon="130.8136511111111">
<ele>80</ele>
</trkpt>
<trkpt lat="32.99147388888889" lon="130.8136388888889">
<ele>80</ele>
</trkpt>
<trkpt lat="32.99222388888889" lon="130.8136638888889">
<ele>82</ele>
</trkpt>
<trkpt lat="32.99243194444445" lon="130.8136638888889">
<ele>81</ele>
</trkpt>
<trkpt lat="32.992556944444445" lon="130.8136888888889">
<ele>81</ele>
</trkpt>
<trkpt lat="32.99269888888889" lon="130.81373888888888">
<ele>80</ele>
</trkpt>
<trkpt lat="32.99284888888889" lon="130.81383888888888">
<ele>81</ele>
</trkpt>
<trkpt lat="32.993165" lon="130.81386388888887">
<ele>79</ele>
</trkpt>
<trkpt lat="32.99324" lon="130.8139011111111">
<ele>80</ele>
</trkpt>
<trkpt lat="32.99352388888889" lon="130.81416388888888">
<ele>80</ele>
</trkpt>
<trkpt lat="32.99362388888889" lon="130.81420111111112">
<ele>80</ele>
</trkpt>
<trkpt lat="32.99449805555555" lon="130.81440111111112">
<ele>84</ele>
</trkpt>
<trkpt lat="32.99475694444445" lon="130.8144388888889">
<ele>85</ele>
</trkpt>
<trkpt lat="32.99482305555556" lon="130.8144511111111">
<ele>86</ele>
</trkpt>
<trkpt lat="32.995165" lon="130.81440111111112">
<ele>84</ele>
</trkpt>
<trkpt lat="32.995315" lon="130.8143638888889">
<ele>83</ele>
</trkpt>
<trkpt lat="32.99532305555555" lon="130.81385111111112">
<ele>82</ele>
</trkpt>
<trkpt lat="32.995353055555555" lon="130.81349194444445">
<ele>85</ele>
</trkpt>
<trkpt lat="32.995353055555555" lon="130.81349194444445">
<ele>85</ele>
</trkpt>
<trkpt lat="32.995356944444445" lon="130.8134511111111">
<ele>85</ele>
</trkpt>
<trkpt lat="32.99539" lon="130.8131388888889">
<ele>87</ele>
</trkpt>
<trkpt lat="32.99534" lon="130.8130888888889">
<ele>88</ele>
</trkpt>
<trkpt lat="32.995065" lon="130.81293888888888">
<ele>88</ele>
</trkpt>
<trkpt lat="32.99458194444444" lon="130.8126638888889">
<ele>88</ele>
</trkpt>
<trkpt lat="32.99447305555555" lon="130.81260111111112">
<ele>88</ele>
</trkpt>
<trkpt lat="32.99444" lon="130.81258888888888">
<ele>88</ele>
</trkpt>
<trkpt lat="32.99438194444444" lon="130.8125638888889">
<ele>88</ele>
</trkpt>
<trkpt lat="32.99415694444444" lon="130.8125511111111">
<ele>89</ele>
</trkpt>
<trkpt lat="32.994056944444445" lon="130.8125388888889">
<ele>88</ele>
</trkpt>
<trkpt lat="32.994031944444444" lon="130.81258888888888">
<ele>88</ele>
</trkpt>
<trkpt lat="32.99357305555556" lon="130.81282611111112">
<ele>88</ele>
</trkpt>
<trkpt lat="32.993381944444444" lon="130.8129638888889">
<ele>88</ele>
</trkpt>
<trkpt lat="32.99328194444445" lon="130.81296">
<ele>88</ele>
</trkpt>
<trkpt lat="32.99328194444445" lon="130.81296">
<ele>88</ele>
</trkpt>
<trkpt lat="32.99304" lon="130.81295111111112">
<ele>87</ele>
</trkpt>
<trkpt lat="32.99293194444444" lon="130.8127888888889">
<ele>88</ele>
</trkpt>
<trkpt lat="32.992731944444444" lon="130.8124388888889">
<ele>93</ele>
</trkpt>
<trkpt lat="32.99269805555556" lon="130.81236388888888">
<ele>93</ele>
</trkpt>
<trkpt lat="32.992665" lon="130.8122011111111">
<ele>93</ele>
</trkpt>
<trkpt lat="32.99259" lon="130.8117388888889">
<ele>95</ele>
</trkpt>
<trkpt lat="32.992556944444445" lon="130.81160111111112">
<ele>96</ele>
</trkpt>
<trkpt lat="32.992515" lon="130.8115011111111">
<ele>96</ele>
</trkpt>
<trkpt lat="32.992465" lon="130.8114138888889">
<ele>96</ele>
</trkpt>
<trkpt lat="32.99227305555556" lon="130.8111638888889">
<ele>96</ele>
</trkpt>
<trkpt lat="32.99207305555556" lon="130.8107388888889">
<ele>96</ele>
</trkpt>
<trkpt lat="32.99199" lon="130.81056388888888">
<ele>96</ele>
</trkpt>
<trkpt lat="32.99189805555555" lon="130.81037694444444">
<ele>95</ele>
</trkpt>
<trkpt lat="32.99175694444445" lon="130.8101388888889">
<ele>94</ele>
</trkpt>
<trkpt lat="32.99163194444444" lon="130.80998888888888">
<ele>93</ele>
</trkpt>
<trkpt lat="32.991481944444445" lon="130.80975194444446">
<ele>92</ele>
</trkpt>
<trkpt lat="32.99139805555556" lon="130.8095888888889">
<ele>92</ele>
</trkpt>
<trkpt lat="32.991465" lon="130.80954805555555">
<ele>92</ele>
</trkpt>
<trkpt lat="32.991465" lon="130.80954805555555">
<ele>92</ele>
</trkpt>
<trkpt lat="32.99174" lon="130.80937694444444">
<ele>95</ele>
</trkpt>
<trkpt lat="32.991915" lon="130.8092388888889">
<ele>98</ele>
</trkpt>
<trkpt lat="32.99194" lon="130.80921388888888">
<ele>98</ele>
</trkpt>
<trkpt lat="32.992173055555554" lon="130.80851388888888">
<ele>102</ele>
</trkpt>
<trkpt lat="32.99224805555556" lon="130.8085638888889">
<ele>107</ele>
</trkpt>
<trkpt lat="32.99252305555556" lon="130.80816388888888">
<ele>112</ele>
</trkpt>
<trkpt lat="32.99259" lon="130.80800194444444">
<ele>113</ele>
</trkpt>
<trkpt lat="32.992598055555554" lon="130.80795194444445">
<ele>113</ele>
</trkpt>
<trkpt lat="32.99260611111111" lon="130.80767694444444">
<ele>115</ele>
</trkpt>
<trkpt lat="32.99253111111111" lon="130.80762694444445">
<ele>117</ele>
</trkpt>
<trkpt lat="32.99245611111111" lon="130.80761388888888">
<ele>117</ele>
</trkpt>
<trkpt lat="32.99234" lon="130.8076388888889">
<ele>115</ele>
</trkpt>
<trkpt lat="32.992156944444446" lon="130.80777694444444">
<ele>110</ele>
</trkpt>
<trkpt lat="32.99205694444444" lon="130.80782694444446">
<ele>106</ele>
</trkpt>
<trkpt lat="32.991956944444446" lon="130.80785194444445">
<ele>105</ele>
</trkpt>
<trkpt lat="32.991865" lon="130.80782694444446">
<ele>105</ele>
</trkpt>
<trkpt lat="32.99183305555555" lon="130.80775305555557">
<ele>105</ele>
</trkpt>
<trkpt lat="32.99183305555555" lon="130.80775305555557">
<ele>105</ele>
</trkpt>
<trkpt lat="32.991865" lon="130.80782694444446">
<ele>105</ele>
</trkpt>
<trkpt lat="32.991748055555554" lon="130.80777694444444">
<ele>105</ele>
</trkpt>
<trkpt lat="32.99167305555556" lon="130.80770194444443">
<ele>105</ele>
</trkpt>
<trkpt lat="32.991615" lon="130.80761388888888">
<ele>105</ele>
</trkpt>
<trkpt lat="32.99149" lon="130.80728888888888">
<ele>107</ele>
</trkpt>
<trkpt lat="32.991415" lon="130.80700194444444">
<ele>106</ele>
</trkpt>
<trkpt lat="32.991348055555555" lon="130.80602694444445">
<ele>105</ele>
</trkpt>
<trkpt lat="32.991323055555554" lon="130.80567694444446">
<ele>99</ele>
</trkpt>
<trkpt lat="32.99129805555555" lon="130.805615">
<ele>99</ele>
</trkpt>
<trkpt lat="32.99124805555556" lon="130.80554">
<ele>99</ele>
</trkpt>
<trkpt lat="32.991098055555554" lon="130.80502694444445">
<ele>95</ele>
</trkpt>
<trkpt lat="32.990948055555556" lon="130.80447694444445">
<ele>96</ele>
</trkpt>
<trkpt lat="32.99074" lon="130.80377694444445">
<ele>94</ele>
</trkpt>
<trkpt lat="32.990698055555555" lon="130.803715">
<ele>94</ele>
</trkpt>
<trkpt lat="32.99062305555555" lon="130.803665">
<ele>92</ele>
</trkpt>
<trkpt lat="32.99055694444444" lon="130.803665">
<ele>92</ele>
</trkpt>
<trkpt lat="32.99049" lon="130.80369">
<ele>89</ele>
</trkpt>
<trkpt lat="32.99044" lon="130.80375194444446">
<ele>88</ele>
</trkpt>
<trkpt lat="32.99042611111111" lon="130.80377611111112">
<ele>88</ele>
</trkpt>
<trkpt lat="32.99042611111111" lon="130.80377611111112">
<ele>88</ele>
</trkpt>
<trkpt lat="32.99039" lon="130.80384">
<ele>88</ele>
</trkpt>
<trkpt lat="32.99024" lon="130.803315">
<ele>89</ele>
</trkpt>
<trkpt lat="32.99019805555555" lon="130.80320194444445">
<ele>88</ele>
</trkpt>
<trkpt lat="32.99008194444445" lon="130.802965">
<ele>88</ele>
</trkpt>
<trkpt lat="32.990048055555555" lon="130.80280305555556">
<ele>88</ele>
</trkpt>
<trkpt lat="32.99004" lon="130.80264">
<ele>89</ele>
</trkpt>
<trkpt lat="32.990015" lon="130.802515">
<ele>89</ele>
</trkpt>
<trkpt lat="32.98990694444444" lon="130.802065">
<ele>89</ele>
</trkpt>
<trkpt lat="32.98969" lon="130.80147805555555">
<ele>88</ele>
</trkpt>
<trkpt lat="32.98939" lon="130.80052805555556">
<ele>88</ele>
</trkpt>
<trkpt lat="32.989198055555555" lon="130.800215">
<ele>88</ele>
</trkpt>
<trkpt lat="32.98914" lon="130.80009">
<ele>89</ele>
</trkpt>
<trkpt lat="32.989106944444444" lon="130.80000305555555">
<ele>88</ele>
</trkpt>
<trkpt lat="32.988965" lon="130.79962805555556">
<ele>89</ele>
</trkpt>
<trkpt lat="32.98884805555556" lon="130.79920305555555">
<ele>88</ele>
</trkpt>
<trkpt lat="32.98880694444444" lon="130.79905305555556">
<ele>88</ele>
</trkpt>
<trkpt lat="32.988765" lon="130.79895305555556">
<ele>88</ele>
</trkpt>
<trkpt lat="32.98862305555556" lon="130.79870305555556">
<ele>89</ele>
</trkpt>
<trkpt lat="32.988548055555555" lon="130.79860305555556">
<ele>89</ele>
</trkpt>
<trkpt lat="32.98857611111111" lon="130.79856694444445">
<ele>89</ele>
</trkpt>
<trkpt lat="32.98857611111111" lon="130.79856694444445">
<ele>89</ele>
</trkpt>
<trkpt lat="32.988615" lon="130.798515">
<ele>90</ele>
</trkpt>
<trkpt lat="32.988731944444446" lon="130.79835305555557">
<ele>94</ele>
</trkpt>
<trkpt lat="32.98887305555556" lon="130.79820305555555">
<ele>98</ele>
</trkpt>
<trkpt lat="32.98904" lon="130.79805305555556">
<ele>97</ele>
</trkpt>
<trkpt lat="32.989215" lon="130.79792805555556">
<ele>98</ele>
</trkpt>
<trkpt lat="32.98957305555555" lon="130.79769">
<ele>102</ele>
</trkpt>
<trkpt lat="32.990165" lon="130.79727805555555">
<ele>108</ele>
</trkpt>
<trkpt lat="32.990473055555555" lon="130.797065">
<ele>110</ele>
</trkpt>
<trkpt lat="32.99068111111111" lon="130.796965">
<ele>113</ele>
</trkpt>
<trkpt lat="32.99074805555556" lon="130.79694">
<ele>113</ele>
</trkpt>
<trkpt lat="32.99104" lon="130.79685305555554">
<ele>116</ele>
</trkpt>
<trkpt lat="32.991265" lon="130.796815">
<ele>118</ele>
</trkpt>
<trkpt lat="32.99149805555555" lon="130.796815">
<ele>120</ele>
</trkpt>
<trkpt lat="32.99168111111111" lon="130.79682805555555">
<ele>126</ele>
</trkpt>
<trkpt lat="32.99199" lon="130.79687805555557">
<ele>127</ele>
</trkpt>
<trkpt lat="32.99213888888889" lon="130.79695305555555">
<ele>125</ele>
</trkpt>
<trkpt lat="32.99218111111111" lon="130.79686694444445">
<ele>125</ele>
</trkpt>
<trkpt lat="32.99218111111111" lon="130.79686694444445">
<ele>125</ele>
</trkpt>
<trkpt lat="32.99220611111111" lon="130.796815">
<ele>126</ele>
</trkpt>
<trkpt lat="32.99224805555556" lon="130.79664">
<ele>128</ele>
</trkpt>
<trkpt lat="32.99224805555556" lon="130.79645305555556">
<ele>128</ele>
</trkpt>
<trkpt lat="32.99223888888889" lon="130.79629">
<ele>128</ele>
</trkpt>
<trkpt lat="32.99218888888889" lon="130.79589">
<ele>127</ele>
</trkpt>
<trkpt lat="32.99200611111111" lon="130.7939661111111">
<ele>120</ele>
</trkpt>
<trkpt lat="32.99193888888889" lon="130.79332805555555">
<ele>115</ele>
</trkpt>
<trkpt lat="32.99191611111111" lon="130.792945">
<ele>115</ele>
</trkpt>
<trkpt lat="32.99191611111111" lon="130.792945">
<ele>115</ele>
</trkpt>
<trkpt lat="32.99191388888889" lon="130.7929161111111">
<ele>115</ele>
</trkpt>
<trkpt lat="32.99182305555556" lon="130.7919161111111">
<ele>113</ele>
</trkpt>
<trkpt lat="32.99176388888889" lon="130.79161611111113">
<ele>113</ele>
</trkpt>
<trkpt lat="32.99167305555556" lon="130.7912411111111">
<ele>113</ele>
</trkpt>
<trkpt lat="32.99113888888889" lon="130.78961611111112">
<ele>110</ele>
</trkpt>
<trkpt lat="32.99102305555556" lon="130.78915388888888">
<ele>109</ele>
</trkpt>
<trkpt lat="32.99082305555556" lon="130.78836611111112">
<ele>106</ele>
</trkpt>
<trkpt lat="32.99079" lon="130.7881911111111">
<ele>105</ele>
</trkpt>
<trkpt lat="32.990665" lon="130.7876411111111">
<ele>104</ele>
</trkpt>
<trkpt lat="32.99053111111111" lon="130.7869661111111">
<ele>102</ele>
</trkpt>
<trkpt lat="32.990431111111114" lon="130.7865661111111">
<ele>102</ele>
</trkpt>
<trkpt lat="32.99012305555556" lon="130.78584111111113">
<ele>101</ele>
</trkpt>
<trkpt lat="32.98993111111111" lon="130.7853661111111">
<ele>100</ele>
</trkpt>
<trkpt lat="32.989131111111114" lon="130.78346694444446">
<ele>95</ele>
</trkpt>
<trkpt lat="32.98874" lon="130.78255388888888">
<ele>94</ele>
</trkpt>
<trkpt lat="32.98837694444445" lon="130.7816938888889">
<ele>92</ele>
</trkpt>
<trkpt lat="32.98837694444445" lon="130.7816938888889">
<ele>92</ele>
</trkpt>
<trkpt lat="32.98810611111111" lon="130.7810538888889">
<ele>91</ele>
</trkpt>
<trkpt lat="32.98795611111111" lon="130.78064194444445">
<ele>90</ele>
</trkpt>
<trkpt lat="32.987898055555554" lon="130.78036694444444">
<ele>89</ele>
</trkpt>
<trkpt lat="32.987865" lon="130.78004194444443">
<ele>89</ele>
</trkpt>
<trkpt lat="32.987856111111114" lon="130.77974194444445">
<ele>89</ele>
</trkpt>
<trkpt lat="32.98786888888889" lon="130.7795888888889">
<ele>89</ele>
</trkpt>
<trkpt lat="32.98786888888889" lon="130.7795888888889">
<ele>89</ele>
</trkpt>
<trkpt lat="32.988098055555554" lon="130.77679194444445">
<ele>85</ele>
</trkpt>
<trkpt lat="32.988348055555555" lon="130.77353">
<ele>75</ele>
</trkpt>
<trkpt lat="32.98835111111111" lon="130.7735">
<ele>75</ele>
</trkpt>
<trkpt lat="32.98835111111111" lon="130.7735">
<ele>75</ele>
</trkpt>
<trkpt lat="32.988348055555555" lon="130.77353">
<ele>75</ele>
</trkpt>
<trkpt lat="32.986198055555555" lon="130.77329305555557">
<ele>69</ele>
</trkpt>
<trkpt lat="32.98587305555556" lon="130.77323">
<ele>65</ele>
</trkpt>
<trkpt lat="32.985548055555554" lon="130.773205">
<ele>59</ele>
</trkpt>
<trkpt lat="32.98504805555555" lon="130.77323">
<ele>59</ele>
</trkpt>
<trkpt lat="32.98494" lon="130.77321805555556">
<ele>58</ele>
</trkpt>
<trkpt lat="32.984815" lon="130.77316805555554">
<ele>58</ele>
</trkpt>
<trkpt lat="32.98458111111111" lon="130.77305305555555">
<ele>56</ele>
</trkpt>
<trkpt lat="32.98458111111111" lon="130.77305305555555">
<ele>56</ele>
</trkpt>
<trkpt lat="32.983715" lon="130.77263">
<ele>49</ele>
</trkpt>
<trkpt lat="32.98317388888889" lon="130.77238">
<ele>46</ele>
</trkpt>
<trkpt lat="32.98294888888889" lon="130.77231805555556">
<ele>45</ele>
</trkpt>
<trkpt lat="32.98239" lon="130.77223">
<ele>41</ele>
</trkpt>
<trkpt lat="32.98167388888889" lon="130.77211805555555">
<ele>39</ele>
</trkpt>
<trkpt lat="32.98152388888889" lon="130.7721061111111">
<ele>38</ele>
</trkpt>
<trkpt lat="32.98105694444445" lon="130.77209305555556">
<ele>37</ele>
</trkpt>
<trkpt lat="32.980941111111115" lon="130.77209305555556">
<ele>37</ele>
</trkpt>
<trkpt lat="32.98069888888889" lon="130.77206805555556">
<ele>37</ele>
</trkpt>
<trkpt lat="32.98054888888889" lon="130.77206805555556">
<ele>37</ele>
</trkpt>
<trkpt lat="32.98040694444445" lon="130.7720561111111">
<ele>37</ele>
</trkpt>
<trkpt lat="32.97899888888889" lon="130.7717311111111">
<ele>36</ele>
</trkpt>
<trkpt lat="32.978456944444446" lon="130.77159305555554">
<ele>35</ele>
</trkpt>
<trkpt lat="32.97788194444445" lon="130.77145611111112">
<ele>35</ele>
</trkpt>
<trkpt lat="32.97787805555556" lon="130.771435">
<ele>35</ele>
</trkpt>
<trkpt lat="32.97787805555556" lon="130.771435">
<ele>35</ele>
</trkpt>
<trkpt lat="32.97756611111111" lon="130.77016805555556">
<ele>35</ele>
</trkpt>
<trkpt lat="32.977516111111115" lon="130.76985611111112">
<ele>34</ele>
</trkpt>
<trkpt lat="32.977406944444446" lon="130.76906805555555">
<ele>34</ele>
</trkpt>
<trkpt lat="32.977291111111114" lon="130.76793111111112">
<ele>34</ele>
</trkpt>
<trkpt lat="32.97721611111111" lon="130.7668561111111">
<ele>34</ele>
</trkpt>
<trkpt lat="32.97721611111111" lon="130.7666811111111">
<ele>34</ele>
</trkpt>
<trkpt lat="32.977215" lon="130.76667694444444">
<ele>34</ele>
</trkpt>
<trkpt lat="32.977215" lon="130.76667694444444">
<ele>34</ele>
</trkpt>
<trkpt lat="32.97719111111111" lon="130.76659388888888">
<ele>34</ele>
</trkpt>
<trkpt lat="32.977106944444444" lon="130.76554388888889">
<ele>33</ele>
</trkpt>
<trkpt lat="32.976958055555556" lon="130.76355611111111">
<ele>33</ele>
</trkpt>
<trkpt lat="32.97694111111111" lon="130.76298111111112">
<ele>33</ele>
</trkpt>
<trkpt lat="32.97694111111111" lon="130.76261888888888">
<ele>33</ele>
</trkpt>
<trkpt lat="32.97694888888889" lon="130.76238111111113">
<ele>33</ele>
</trkpt>
<trkpt lat="32.97696611111111" lon="130.76195611111112">
<ele>32</ele>
</trkpt>
<trkpt lat="32.97699111111111" lon="130.7617438888889">
<ele>32</ele>
</trkpt>
<trkpt lat="32.97705888888889" lon="130.76093194444445">
<ele>32</ele>
</trkpt>
<trkpt lat="32.97705888888889" lon="130.76093194444445">
<ele>32</ele>
</trkpt>
<trkpt lat="32.97707388888889" lon="130.7607438888889">
<ele>32</ele>
</trkpt>
<trkpt lat="32.977108055555554" lon="130.76023194444446">
<ele>32</ele>
</trkpt>
<trkpt lat="32.97709888888889" lon="130.75988194444443">
<ele>32</ele>
</trkpt>
<trkpt lat="32.97708305555555" lon="130.75960694444444">
<ele>32</ele>
</trkpt>
<trkpt lat="32.97703305555556" lon="130.7592938888889">
<ele>32</ele>
</trkpt>
<trkpt lat="32.976933055555556" lon="130.7589438888889">
<ele>32</ele>
</trkpt>
<trkpt lat="32.97679111111111" lon="130.75854388888888">
<ele>31</ele>
</trkpt>
<trkpt lat="32.976708055555555" lon="130.7583438888889">
<ele>31</ele>
</trkpt>
<trkpt lat="32.97649888888889" lon="130.7579438888889">
<ele>31</ele>
</trkpt>
<trkpt lat="32.97634111111111" lon="130.75770694444444">
<ele>31</ele>
</trkpt>
<trkpt lat="32.97617388888889" lon="130.7574938888889">
<ele>31</ele>
</trkpt>
<trkpt lat="32.97596611111111" lon="130.7572688888889">
<ele>31</ele>
</trkpt>
<trkpt lat="32.97587388888889" lon="130.75718194444445">
<ele>31</ele>
</trkpt>
<trkpt lat="32.97575694444444" lon="130.75707305555557">
<ele>31</ele>
</trkpt>
<trkpt lat="32.97575694444444" lon="130.75707305555557">
<ele>31</ele>
</trkpt>
<trkpt lat="32.974648888888886" lon="130.75604388888888">
<ele>31</ele>
</trkpt>
<trkpt lat="32.974383055555556" lon="130.75580694444446">
<ele>30</ele>
</trkpt>
<trkpt lat="32.97398305555556" lon="130.755345">
<ele>30</ele>
</trkpt>
<trkpt lat="32.97379111111111" lon="130.75513194444446">
<ele>30</ele>
</trkpt>
<trkpt lat="32.973641111111114" lon="130.75490694444446">
<ele>30</ele>
</trkpt>
<trkpt lat="32.973483055555555" lon="130.75467">
<ele>30</ele>
</trkpt>
<trkpt lat="32.97329111111111" lon="130.75433194444443">
<ele>30</ele>
</trkpt>
<trkpt lat="32.97320805555555" lon="130.754145">
<ele>30</ele>
</trkpt>
<trkpt lat="32.972875" lon="130.75325694444444">
<ele>30</ele>
</trkpt>
<trkpt lat="32.972833055555554" lon="130.75312">
<ele>30</ele>
</trkpt>
<trkpt lat="32.97274111111111" lon="130.75280694444444">
<ele>30</ele>
</trkpt>
<trkpt lat="32.972633888888886" lon="130.7521911111111">
<ele>30</ele>
</trkpt>
<trkpt lat="32.972633888888886" lon="130.7521911111111">
<ele>30</ele>
</trkpt>
<trkpt lat="32.972633055555555" lon="130.75218305555555">
<ele>30</ele>
</trkpt>
<trkpt lat="32.972608055555554" lon="130.75195805555555">
<ele>30</ele>
</trkpt>
<trkpt lat="32.972625" lon="130.75140694444445">
<ele>29</ele>
</trkpt>
<trkpt lat="32.972658055555556" lon="130.75097">
<ele>29</ele>
</trkpt>
<trkpt lat="32.972725" lon="130.750695">
<ele>29</ele>
</trkpt>
<trkpt lat="32.972825" lon="130.75038305555555">
<ele>29</ele>
</trkpt>
<trkpt lat="32.97295" lon="130.750145">
<ele>29</ele>
</trkpt>
<trkpt lat="32.973025" lon="130.75003305555555">
<ele>29</ele>
</trkpt>
<trkpt lat="32.973175" lon="130.749845">
<ele>29</ele>
</trkpt>
<trkpt lat="32.97331611111111" lon="130.749695">
<ele>29</ele>
</trkpt>
<trkpt lat="32.97360805555556" lon="130.749395">
<ele>29</ele>
</trkpt>
<trkpt lat="32.97412388888889" lon="130.74882">
<ele>29</ele>
</trkpt>
<trkpt lat="32.97434888888889" lon="130.74908305555556">
<ele>29</ele>
</trkpt>
<trkpt lat="32.974423888888886" lon="130.74917">
<ele>29</ele>
</trkpt>
<trkpt lat="32.97443194444445" lon="130.74917694444446">
<ele>29</ele>
</trkpt>
<trkpt lat="32.97443194444445" lon="130.74917694444446">
<ele>29</ele>
</trkpt>
<trkpt lat="32.974423888888886" lon="130.74917">
<ele>29</ele>
</trkpt>
<trkpt lat="32.97434888888889" lon="130.74908305555556">
<ele>29</ele>
</trkpt>
<trkpt lat="32.97412388888889" lon="130.74882">
<ele>29</ele>
</trkpt>
<trkpt lat="32.97409888888889" lon="130.74878305555555">
<ele>29</ele>
</trkpt>
<trkpt lat="32.973458055555554" lon="130.74807">
<ele>30</ele>
</trkpt>
<trkpt lat="32.973258055555554" lon="130.74782">
<ele>29</ele>
</trkpt>
<trkpt lat="32.97324694444445" lon="130.74783694444446">
<ele>29</ele>
</trkpt>
<trkpt lat="32.97324694444445" lon="130.74783694444446">
<ele>29</ele>
</trkpt>
<trkpt lat="32.973258055555554" lon="130.74782">
<ele>29</ele>
</trkpt>
<trkpt lat="32.973325" lon="130.74773305555556">
<ele>29</ele>
</trkpt>
<trkpt lat="32.97338305555556" lon="130.74765805555555">
<ele>29</ele>
</trkpt>
<trkpt lat="32.97366611111111" lon="130.74730805555555">
<ele>29</ele>
</trkpt>
<trkpt lat="32.973883055555554" lon="130.74697">
<ele>30</ele>
</trkpt>
<trkpt lat="32.97396611111111" lon="130.746795">
<ele>30</ele>
</trkpt>
<trkpt lat="32.97402388888889" lon="130.74653305555555">
<ele>30</ele>
</trkpt>
<trkpt lat="32.974108055555554" lon="130.74588305555557">
<ele>30</ele>
</trkpt>
<trkpt lat="32.974133055555555" lon="130.74558305555556">
<ele>30</ele>
</trkpt>
<trkpt lat="32.97417388888889" lon="130.7443211111111">
<ele>30</ele>
</trkpt>
<trkpt lat="32.974158055555556" lon="130.74417111111111">
<ele>30</ele>
</trkpt>
<trkpt lat="32.97409888888889" lon="130.74390805555555">
<ele>30</ele>
</trkpt>
<trkpt lat="32.97400805555556" lon="130.74370805555554">
<ele>30</ele>
</trkpt>
<trkpt lat="32.97411388888889" lon="130.74368694444445">
<ele>30</ele>
</trkpt>
<trkpt lat="32.97411388888889" lon="130.74368694444445">
<ele>30</ele>
</trkpt>
<trkpt lat="32.974198888888886" lon="130.7436711111111">
<ele>30</ele>
</trkpt>
<trkpt lat="32.97417388888889" lon="130.74314611111112">
<ele>30</ele>
</trkpt>
<trkpt lat="32.97414888888889" lon="130.74288305555555">
<ele>30</ele>
</trkpt>
<trkpt lat="32.97398305555556" lon="130.7414711111111">
<ele>30</ele>
</trkpt>
<trkpt lat="32.97396611111111" lon="130.74123305555557">
<ele>30</ele>
</trkpt>
<trkpt lat="32.97394111111111" lon="130.7406711111111">
<ele>30</ele>
</trkpt>
<trkpt lat="32.97394111111111" lon="130.7403711111111">
<ele>30</ele>
</trkpt>
<trkpt lat="32.97399111111111" lon="130.73968305555556">
<ele>30</ele>
</trkpt>
<trkpt lat="32.97407388888889" lon="130.73900805555556">
<ele>30</ele>
</trkpt>
<trkpt lat="32.97414111111111" lon="130.73858388888888">
<ele>30</ele>
</trkpt>
<trkpt lat="32.97419111111111" lon="130.7384088888889">
<ele>30</ele>
</trkpt>
<trkpt lat="32.97422111111111" lon="130.7382561111111">
<ele>30</ele>
</trkpt>
<trkpt lat="32.97422111111111" lon="130.7382561111111">
<ele>30</ele>
</trkpt>
<trkpt lat="32.97425805555555" lon="130.7380711111111">
<ele>30</ele>
</trkpt>
<trkpt lat="32.97424111111111" lon="130.7378711111111">
<ele>29</ele>
</trkpt>
<trkpt lat="32.974133055555555" lon="130.7377211111111">
<ele>29</ele>
</trkpt>
<trkpt lat="32.97404111111111" lon="130.73768388888888">
<ele>30</ele>
</trkpt>
<trkpt lat="32.97389888888889" lon="130.7376588888889">
<ele>30</ele>
</trkpt>
<trkpt lat="32.973683055555554" lon="130.7376461111111">
<ele>30</ele>
</trkpt>
<trkpt lat="32.97334111111111" lon="130.73769611111112">
<ele>30</ele>
</trkpt>
<trkpt lat="32.97291611111111" lon="130.7377588888889">
<ele>30</ele>
</trkpt>
<trkpt lat="32.972498888888886" lon="130.7378338888889">
<ele>30</ele>
</trkpt>
<trkpt lat="32.97212388888889" lon="130.73793388888888">
<ele>30</ele>
</trkpt>
<trkpt lat="32.97139111111111" lon="130.73824611111112">
<ele>30</ele>
</trkpt>
<trkpt lat="32.9712" lon="130.7383338888889">
<ele>30</ele>
</trkpt>
<trkpt lat="32.97083305555556" lon="130.7385588888889">
<ele>30</ele>
</trkpt>
<trkpt lat="32.97046611111111" lon="130.73882111111112">
<ele>30</ele>
</trkpt>
<trkpt lat="32.96995805555556" lon="130.7392338888889">
<ele>30</ele>
</trkpt>
<trkpt lat="32.96975611111111" lon="130.73938388888888">
<ele>30</ele>
</trkpt>
<trkpt lat="32.96975611111111" lon="130.73938305555555">
<ele>30</ele>
</trkpt>
<trkpt lat="32.96913305555555" lon="130.73984611111112">
<ele>30</ele>
</trkpt>
<trkpt lat="32.968383055555556" lon="130.7404588888889">
<ele>30</ele>
</trkpt>
<trkpt lat="32.968266944444444" lon="130.7405711111111">
<ele>30</ele>
</trkpt>
<trkpt lat="32.96763305555555" lon="130.74120888888888">
<ele>30</ele>
</trkpt>
<trkpt lat="32.967258055555554" lon="130.7415711111111">
<ele>30</ele>
</trkpt>
<trkpt lat="32.96646694444444" lon="130.74243305555555">
<ele>30</ele>
</trkpt>
<trkpt lat="32.96601694444445" lon="130.74302111111112">
<ele>30</ele>
</trkpt>
<trkpt lat="32.96565" lon="130.7435461111111">
<ele>30</ele>
</trkpt>
<trkpt lat="32.964933888888886" lon="130.74482111111112">
<ele>30</ele>
</trkpt>
<trkpt lat="32.964841944444444" lon="130.7450211111111">
<ele>30</ele>
</trkpt>
<trkpt lat="32.96472611111111" lon="130.74528305555555">
<ele>30</ele>
</trkpt>
<trkpt lat="32.96445888888889" lon="130.7460461111111">
<ele>30</ele>
</trkpt>
<trkpt lat="32.96432611111111" lon="130.74663305555555">
<ele>30</ele>
</trkpt>
<trkpt lat="32.96418388888889" lon="130.74745805555557">
<ele>30</ele>
</trkpt>
<trkpt lat="32.96417611111111" lon="130.74760805555556">
<ele>30</ele>
</trkpt>
<trkpt lat="32.96417611111111" lon="130.74765805555555">
<ele>30</ele>
</trkpt>
<trkpt lat="32.96416694444444" lon="130.74779611111111">
<ele>30</ele>
</trkpt>
<trkpt lat="32.96415888888889" lon="130.74787111111112">
<ele>30</ele>
</trkpt>
<trkpt lat="32.964153055555556" lon="130.7479688888889">
<ele>30</ele>
</trkpt>
<trkpt lat="32.96415388888889" lon="130.7479688888889">
<ele>30</ele>
</trkpt>
<trkpt lat="32.96407611111111" lon="130.74938305555557">
<ele>30</ele>
</trkpt>
<trkpt lat="32.96408388888889" lon="130.74948305555554">
<ele>30</ele>
</trkpt>
<trkpt lat="32.96414194444444" lon="130.750595">
<ele>30</ele>
</trkpt>
<trkpt lat="32.964151111111114" lon="130.75093305555555">
<ele>30</ele>
</trkpt>
<trkpt lat="32.96413388888889" lon="130.75125805555555">
<ele>30</ele>
</trkpt>
<trkpt lat="32.96412611111111" lon="130.75135805555556">
<ele>30</ele>
</trkpt>
<trkpt lat="32.96410888888889" lon="130.751495">
<ele>30</ele>
</trkpt>
<trkpt lat="32.96400888888889" lon="130.75198305555554">
<ele>30</ele>
</trkpt>
<trkpt lat="32.96398111111111" lon="130.75216194444445">
<ele>30</ele>
</trkpt>
<trkpt lat="32.96398111111111" lon="130.75216194444445">
<ele>30</ele>
</trkpt>
<trkpt lat="32.963966944444444" lon="130.752245">
<ele>30</ele>
</trkpt>
<trkpt lat="32.963926111111114" lon="130.75222">
<ele>30</ele>
</trkpt>
<trkpt lat="32.96321694444445" lon="130.75163305555554">
<ele>29</ele>
</trkpt>
<trkpt lat="32.96313388888889" lon="130.751545">
<ele>30</ele>
</trkpt>
<trkpt lat="32.96310888888889" lon="130.75152">
<ele>30</ele>
</trkpt>
<trkpt lat="32.962893055555554" lon="130.75123305555556">
<ele>30</ele>
</trkpt>
<trkpt lat="32.962783888888886" lon="130.75102">
<ele>30</ele>
</trkpt>
<trkpt lat="32.96273388888889" lon="130.75085805555557">
<ele>30</ele>
</trkpt>
<trkpt lat="32.96270888888889" lon="130.75075805555556">
<ele>30</ele>
</trkpt>
<trkpt lat="32.96268694444444" lon="130.75055">
<ele>30</ele>
</trkpt>
<trkpt lat="32.96268694444444" lon="130.75055">
<ele>30</ele>
</trkpt>
<trkpt lat="32.96268388888889" lon="130.75052">
<ele>30</ele>
</trkpt>
<trkpt lat="32.96263388888889" lon="130.75010805555556">
<ele>30</ele>
</trkpt>
<trkpt lat="32.96260111111111" lon="130.7498711111111">
<ele>30</ele>
</trkpt>
<trkpt lat="32.962518055555556" lon="130.74963305555556">
<ele>30</ele>
</trkpt>
<trkpt lat="32.96245888888889" lon="130.7495461111111">
<ele>30</ele>
</trkpt>
<trkpt lat="32.96230111111111" lon="130.74935805555555">
<ele>30</ele>
</trkpt>
<trkpt lat="32.96195888888889" lon="130.74895805555556">
<ele>30</ele>
</trkpt>
<trkpt lat="32.961668055555556" lon="130.74860805555556">
<ele>31</ele>
</trkpt>
<trkpt lat="32.96162694444445" lon="130.74856">
<ele>31</ele>
</trkpt>
<trkpt lat="32.96162694444445" lon="130.74856">
<ele>31</ele>
</trkpt>
<trkpt lat="32.961668055555556" lon="130.74860805555556">
<ele>31</ele>
</trkpt>
<trkpt lat="32.96143388888889" lon="130.74923305555555">
<ele>31</ele>
</trkpt>
<trkpt lat="32.96129305555556" lon="130.7496211111111">
<ele>31</ele>
</trkpt>
<trkpt lat="32.961151111111114" lon="130.75020805555556">
<ele>31</ele>
</trkpt>
<trkpt lat="32.961018055555556" lon="130.75018305555557">
<ele>31</ele>
</trkpt>
<trkpt lat="32.961005" lon="130.75022805555557">
<ele>31</ele>
</trkpt>
<trkpt lat="32.961005" lon="130.75022805555557">
<ele>31</ele>
</trkpt>
<trkpt lat="32.961018055555556" lon="130.75018305555557">
<ele>31</ele>
</trkpt>
<trkpt lat="32.96045888888889" lon="130.75008305555556">
<ele>32</ele>
</trkpt>
<trkpt lat="32.96019305555556" lon="130.75005805555554">
<ele>33</ele>
</trkpt>
<trkpt lat="32.95996805555556" lon="130.75005805555554">
<ele>34</ele>
</trkpt>
<trkpt lat="32.95980111111111" lon="130.7500711111111">
<ele>34</ele>
</trkpt>
<trkpt lat="32.95970111111111" lon="130.75008305555556">
<ele>34</ele>
</trkpt>
<trkpt lat="32.95923388888889" lon="130.7501961111111">
<ele>35</ele>
</trkpt>
<trkpt lat="32.959093055555556" lon="130.75020805555556">
<ele>35</ele>
</trkpt>
<trkpt lat="32.95906305555555" lon="130.75020111111112">
<ele>35</ele>
</trkpt>
<trkpt lat="32.95906305555555" lon="130.75020111111112">
<ele>35</ele>
</trkpt>
<trkpt lat="32.959093055555556" lon="130.75020805555556">
<ele>35</ele>
</trkpt>
<trkpt lat="32.959043055555554" lon="130.7503461111111">
<ele>36</ele>
</trkpt>
<trkpt lat="32.95880888888889" lon="130.7507961111111">
<ele>36</ele>
</trkpt>
<trkpt lat="32.95873388888889" lon="130.7509711111111">
<ele>36</ele>
</trkpt>
<trkpt lat="32.95867611111111" lon="130.7511461111111">
<ele>35</ele>
</trkpt>
<trkpt lat="32.95862611111111" lon="130.7513461111111">
<ele>35</ele>
</trkpt>
<trkpt lat="32.95860111111111" lon="130.75149611111112">
<ele>36</ele>
</trkpt>
<trkpt lat="32.95860111111111" lon="130.75165805555557">
<ele>36</ele>
</trkpt>
<trkpt lat="32.95863388888889" lon="130.75198305555554">
<ele>37</ele>
</trkpt>
<trkpt lat="32.958643055555555" lon="130.75208305555554">
<ele>36</ele>
</trkpt>
<trkpt lat="32.95869305555556" lon="130.75278305555557">
<ele>34</ele>
</trkpt>
<trkpt lat="32.95874305555556" lon="130.75355805555554">
<ele>34</ele>
</trkpt>
<trkpt lat="32.95874305555556" lon="130.75359">
<ele>34</ele>
</trkpt>
<trkpt lat="32.95874305555556" lon="130.75359">
<ele>34</ele>
</trkpt>
<trkpt lat="32.95874305555556" lon="130.75368305555557">
<ele>34</ele>
</trkpt>
<trkpt lat="32.95873388888889" lon="130.75382">
<ele>34</ele>
</trkpt>
<trkpt lat="32.95860888888889" lon="130.75452">
<ele>33</ele>
</trkpt>
<trkpt lat="32.95855888888889" lon="130.75482">
<ele>33</ele>
</trkpt>
<trkpt lat="32.95836805555555" lon="130.75588305555556">
<ele>33</ele>
</trkpt>
<trkpt lat="32.95829305555556" lon="130.756245">
<ele>34</ele>
</trkpt>
<trkpt lat="32.958243055555556" lon="130.75648305555555">
<ele>33</ele>
</trkpt>
<trkpt lat="32.95803388888889" lon="130.757345">
<ele>33</ele>
</trkpt>
<trkpt lat="32.957993055555555" lon="130.75748305555555">
<ele>33</ele>
</trkpt>
<trkpt lat="32.957926111111114" lon="130.757595">
<ele>33</ele>
</trkpt>
<trkpt lat="32.957886944444446" lon="130.75763305555554">
<ele>33</ele>
</trkpt>
<trkpt lat="32.957886944444446" lon="130.75763305555554">
<ele>33</ele>
</trkpt>
<trkpt lat="32.95770888888889" lon="130.75780694444444">
<ele>33</ele>
</trkpt>
<trkpt lat="32.957393055555556" lon="130.75807">
<ele>34</ele>
</trkpt>
<trkpt lat="32.95700111111111" lon="130.758395">
<ele>34</ele>
</trkpt>
<trkpt lat="32.95661805555556" lon="130.758695">
<ele>39</ele>
</trkpt>
<trkpt lat="32.956435" lon="130.75880694444444">
<ele>44</ele>
</trkpt>
<trkpt lat="32.956243055555554" lon="130.75890694444445">
<ele>47</ele>
</trkpt>
<trkpt lat="32.95536805555555" lon="130.75930805555555">
<ele>46</ele>
</trkpt>
<trkpt lat="32.95525111111111" lon="130.75937">
<ele>47</ele>
</trkpt>
<trkpt lat="32.95500111111111" lon="130.75950805555556">
<ele>47</ele>
</trkpt>
<trkpt lat="32.95460111111111" lon="130.75973194444444">
<ele>47</ele>
</trkpt>
<trkpt lat="32.95397611111111" lon="130.760145">
<ele>48</ele>
</trkpt>
<trkpt lat="32.95356" lon="130.76043305555555">
<ele>48</ele>
</trkpt>
<trkpt lat="32.953251944444446" lon="130.760645">
<ele>45</ele>
</trkpt>
<trkpt lat="32.95310194444444" lon="130.76073194444444">
<ele>43</ele>
</trkpt>
<trkpt lat="32.952551944444444" lon="130.76105694444445">
<ele>45</ele>
</trkpt>
<trkpt lat="32.952218055555555" lon="130.76123305555555">
<ele>47</ele>
</trkpt>
<trkpt lat="32.951885" lon="130.761445">
<ele>47</ele>
</trkpt>
<trkpt lat="32.95176" lon="130.76153194444444">
<ele>46</ele>
</trkpt>
<trkpt lat="32.95146805555556" lon="130.76178305555555">
<ele>48</ele>
</trkpt>
<trkpt lat="32.95135194444445" lon="130.76188305555556">
<ele>47</ele>
</trkpt>
<trkpt lat="32.950876944444445" lon="130.76223305555555">
<ele>48</ele>
</trkpt>
<trkpt lat="32.950118055555556" lon="130.76275805555557">
<ele>49</ele>
</trkpt>
<trkpt lat="32.94991" lon="130.76290805555556">
<ele>49</ele>
</trkpt>
<trkpt lat="32.94951805555556" lon="130.76328305555555">
<ele>48</ele>
</trkpt>
<trkpt lat="32.949193055555554" lon="130.76362">
<ele>48</ele>
</trkpt>
<trkpt lat="32.948835" lon="130.76398194444445">
<ele>48</ele>
</trkpt>
<trkpt lat="32.948685" lon="130.76410694444445">
<ele>48</ele>
</trkpt>
<trkpt lat="32.94842694444444" lon="130.76435694444444">
<ele>48</ele>
</trkpt>
<trkpt lat="32.948326944444446" lon="130.76447">
<ele>48</ele>
</trkpt>
<trkpt lat="32.948235" lon="130.764595">
<ele>48</ele>
</trkpt>
<trkpt lat="32.94801" lon="130.76503194444444">
<ele>54</ele>
</trkpt>
<trkpt lat="32.947876944444445" lon="130.76528194444444">
<ele>55</ele>
</trkpt>
<trkpt lat="32.94774388888889" lon="130.76540694444444">
<ele>55</ele>
</trkpt>
<trkpt lat="32.947676944444446" lon="130.76545694444445">
<ele>56</ele>
</trkpt>
<trkpt lat="32.947696944444445" lon="130.7655288888889">
<ele>56</ele>
</trkpt>
<trkpt lat="32.947696944444445" lon="130.7655288888889">
<ele>56</ele>
</trkpt>
<trkpt lat="32.947676944444446" lon="130.76545694444445">
<ele>56</ele>
</trkpt>
<trkpt lat="32.94761888888889" lon="130.76548194444445">
<ele>55</ele>
</trkpt>
<trkpt lat="32.94752694444445" lon="130.76550694444444">
<ele>54</ele>
</trkpt>
<trkpt lat="32.94696888888889" lon="130.76560694444444">
<ele>49</ele>
</trkpt>
<trkpt lat="32.946151944444445" lon="130.765695">
<ele>49</ele>
</trkpt>
<trkpt lat="32.94565194444444" lon="130.76575805555555">
<ele>50</ele>
</trkpt>
<trkpt lat="32.94539388888889" lon="130.76578305555554">
<ele>51</ele>
</trkpt>
<trkpt lat="32.94495194444445" lon="130.76583305555556">
<ele>51</ele>
</trkpt>
<trkpt lat="32.944785" lon="130.765845">
<ele>52</ele>
</trkpt>
<trkpt lat="32.944651944444445" lon="130.76585805555555">
<ele>53</ele>
</trkpt>
<trkpt lat="32.94455194444444" lon="130.76588305555555">
<ele>53</ele>
</trkpt>
<trkpt lat="32.94431111111111" lon="130.76598305555555">
<ele>53</ele>
</trkpt>
<trkpt lat="32.944201944444444" lon="130.766045">
<ele>52</ele>
</trkpt>
<trkpt lat="32.94396111111111" lon="130.76620805555555">
<ele>53</ele>
</trkpt>
<trkpt lat="32.943843888888885" lon="130.76630694444444">
<ele>53</ele>
</trkpt>
<trkpt lat="32.943776944444444" lon="130.76635694444445">
<ele>53</ele>
</trkpt>
<trkpt lat="32.94367694444445" lon="130.76647">
<ele>52</ele>
</trkpt>
<trkpt lat="32.94359388888889" lon="130.76657">
<ele>52</ele>
</trkpt>
<trkpt lat="32.94318611111111" lon="130.76713305555555">
<ele>54</ele>
</trkpt>
<trkpt lat="32.94291888888889" lon="130.76748194444446">
<ele>54</ele>
</trkpt>
<trkpt lat="32.94276888888889" lon="130.76767">
<ele>54</ele>
</trkpt>
<trkpt lat="32.94253611111111" lon="130.767795">
<ele>55</ele>
</trkpt>
<trkpt lat="32.942143888888886" lon="130.76793194444446">
<ele>57</ele>
</trkpt>
<trkpt lat="32.942051944444444" lon="130.76797">
<ele>58</ele>
</trkpt>
<trkpt lat="32.94196111111111" lon="130.76803194444443">
<ele>59</ele>
</trkpt>
<trkpt lat="32.94184388888889" lon="130.768145">
<ele>60</ele>
</trkpt>
<trkpt lat="32.941451944444445" lon="130.768595">
<ele>63</ele>
</trkpt>
<trkpt lat="32.94130194444445" lon="130.76870694444443">
<ele>66</ele>
</trkpt>
<trkpt lat="32.94114388888889" lon="130.76878194444444">
<ele>66</ele>
</trkpt>
<trkpt lat="32.94076111111111" lon="130.76885694444445">
<ele>66</ele>
</trkpt>
<trkpt lat="32.94052694444444" lon="130.76892">
<ele>64</ele>
</trkpt>
<trkpt lat="32.94046111111111" lon="130.768945">
<ele>64</ele>
</trkpt>
<trkpt lat="32.94031888888889" lon="130.769045">
<ele>64</ele>
</trkpt>
<trkpt lat="32.94016888888889" lon="130.76918194444445">
<ele>65</ele>
</trkpt>
<trkpt lat="32.94013611111111" lon="130.76923194444444">
<ele>64</ele>
</trkpt>
<trkpt lat="32.93991888888889" lon="130.769545">
<ele>66</ele>
</trkpt>
<trkpt lat="32.93969388888889" lon="130.76988194444445">
<ele>67</ele>
</trkpt>
<trkpt lat="32.93938611111111" lon="130.77030694444446">
<ele>68</ele>
</trkpt>
<trkpt lat="32.93919388888889" lon="130.770545">
<ele>68</ele>
</trkpt>
<trkpt lat="32.939098055555554" lon="130.77062305555555">
<ele>69</ele>
</trkpt>
<trkpt lat="32.939098055555554" lon="130.77062305555555">
<ele>69</ele>
</trkpt>
<trkpt lat="32.93908611111111" lon="130.77063194444443">
<ele>69</ele>
</trkpt>
<trkpt lat="32.93843611111111" lon="130.770645">
<ele>70</ele>
</trkpt>
<trkpt lat="32.93781888888889" lon="130.77065694444445">
<ele>71</ele>
</trkpt>
<trkpt lat="32.93691111111111" lon="130.770645">
<ele>72</ele>
</trkpt>
<trkpt lat="32.93564388888889" lon="130.77068194444445">
<ele>72</ele>
</trkpt>
<trkpt lat="32.93543611111111" lon="130.77070694444444">
<ele>72</ele>
</trkpt>
<trkpt lat="32.93508611111111" lon="130.77075694444446">
<ele>72</ele>
</trkpt>
<trkpt lat="32.93476888888889" lon="130.77083194444444">
<ele>72</ele>
</trkpt>
<trkpt lat="32.93449388888889" lon="130.77092">
<ele>72</ele>
</trkpt>
<trkpt lat="32.933978055555556" lon="130.77113194444445">
<ele>71</ele>
</trkpt>
<trkpt lat="32.93360305555556" lon="130.771295">
<ele>71</ele>
</trkpt>
<trkpt lat="32.932795" lon="130.771645">
<ele>69</ele>
</trkpt>
<trkpt lat="32.93252805555556" lon="130.771745">
<ele>69</ele>
</trkpt>
<trkpt lat="32.93243611111111" lon="130.771795">
<ele>69</ele>
</trkpt>
<trkpt lat="32.93230305555556" lon="130.77180694444445">
<ele>69</ele>
</trkpt>
<trkpt lat="32.93221111111111" lon="130.771795">
<ele>69</ele>
</trkpt>
<trkpt lat="32.931828055555556" lon="130.77170694444445">
<ele>68</ele>
</trkpt>
<trkpt lat="32.93172" lon="130.77168194444445">
<ele>68</ele>
</trkpt>
<trkpt lat="32.93127805555556" lon="130.77157">
<ele>67</ele>
</trkpt>
<trkpt lat="32.930645" lon="130.77140805555555">
<ele>63</ele>
</trkpt>
<trkpt lat="32.93027" lon="130.77130805555555">
<ele>61</ele>
</trkpt>
<trkpt lat="32.93021805555556" lon="130.7712961111111">
<ele>60</ele>
</trkpt>
<trkpt lat="32.93021805555556" lon="130.7712961111111">
<ele>60</ele>
</trkpt>
<trkpt lat="32.93021111111111" lon="130.771295">
<ele>60</ele>
</trkpt>
<trkpt lat="32.930103055555556" lon="130.77133194444446">
<ele>60</ele>
</trkpt>
<trkpt lat="32.93006111111111" lon="130.77135694444445">
<ele>60</ele>
</trkpt>
<trkpt lat="32.93002" lon="130.77140805555555">
<ele>60</ele>
</trkpt>
<trkpt lat="32.92997805555556" lon="130.77147">
<ele>59</ele>
</trkpt>
<trkpt lat="32.929895" lon="130.77167">
<ele>58</ele>
</trkpt>
<trkpt lat="32.929828055555554" lon="130.77183305555556">
<ele>57</ele>
</trkpt>
<trkpt lat="32.92977805555556" lon="130.77192">
<ele>56</ele>
</trkpt>
<trkpt lat="32.92971111111111" lon="130.771995">
<ele>56</ele>
</trkpt>
<trkpt lat="32.929653055555555" lon="130.77202">
<ele>55</ele>
</trkpt>
<trkpt lat="32.92962611111111" lon="130.77202805555555">
<ele>55</ele>
</trkpt>
<trkpt lat="32.92962611111111" lon="130.77202805555555">
<ele>55</ele>
</trkpt>
<trkpt lat="32.929361944444445" lon="130.77210694444443">
<ele>54</ele>
</trkpt>
<trkpt lat="32.928986944444446" lon="130.77220694444443">
<ele>54</ele>
</trkpt>
<trkpt lat="32.92897" lon="130.77243194444443">
<ele>53</ele>
</trkpt>
<trkpt lat="32.92895305555555" lon="130.77258194444445">
<ele>53</ele>
</trkpt>
<trkpt lat="32.92887805555556" lon="130.77300694444443">
<ele>54</ele>
</trkpt>
<trkpt lat="32.92885111111111" lon="130.7730011111111">
<ele>54</ele>
</trkpt>
<trkpt lat="32.92885111111111" lon="130.7730011111111">
<ele>54</ele>
</trkpt>
<trkpt lat="32.92882" lon="130.772995">
<ele>54</ele>
</trkpt>
<trkpt lat="32.928645" lon="130.77300694444443">
<ele>54</ele>
</trkpt>
<trkpt lat="32.92787" lon="130.77310694444444">
<ele>53</ele>
</trkpt>
<trkpt lat="32.92776194444444" lon="130.77312">
<ele>53</ele>
</trkpt>
<trkpt lat="32.92757" lon="130.773145">
<ele>52</ele>
</trkpt>
<trkpt lat="32.92675305555556" lon="130.77325694444446">
<ele>51</ele>
</trkpt>
<trkpt lat="32.92608694444444" lon="130.773345">
<ele>50</ele>
</trkpt>
<trkpt lat="32.92595194444444" lon="130.77336194444445">
<ele>50</ele>
</trkpt>
<trkpt lat="32.92595194444444" lon="130.77336194444445">
<ele>50</ele>
</trkpt>
<trkpt lat="32.92608694444444" lon="130.773345">
<ele>50</ele>
</trkpt>
<trkpt lat="32.926028055555555" lon="130.77278194444443">
<ele>50</ele>
</trkpt>
<trkpt lat="32.925895" lon="130.77167">
<ele>49</ele>
</trkpt>
<trkpt lat="32.92587888888889" lon="130.77152">
<ele>49</ele>
</trkpt>
<trkpt lat="32.92587388888889" lon="130.77140111111112">
<ele>49</ele>
</trkpt>
<trkpt lat="32.92587388888889" lon="130.77140111111112">
<ele>49</ele>
</trkpt>
<trkpt lat="32.92587" lon="130.77130805555555">
<ele>49</ele>
</trkpt>
<trkpt lat="32.92588694444444" lon="130.77115805555556">
<ele>49</ele>
</trkpt>
<trkpt lat="32.925645" lon="130.771195">
<ele>49</ele>
</trkpt>
<trkpt lat="32.92477" lon="130.77132">
<ele>49</ele>
</trkpt>
<trkpt lat="32.92472" lon="130.771295">
<ele>49</ele>
</trkpt>
<trkpt lat="32.92453694444445" lon="130.770995">
<ele>48</ele>
</trkpt>
<trkpt lat="32.924503888888886" lon="130.77098305555555">
<ele>48</ele>
</trkpt>
<trkpt lat="32.92396194444444" lon="130.770995">
<ele>48</ele>
</trkpt>
<trkpt lat="32.92357888888889" lon="130.77102">
<ele>48</ele>
</trkpt>
<trkpt lat="32.92283694444444" lon="130.77105694444444">
<ele>47</ele>
</trkpt>
<trkpt lat="32.922711944444444" lon="130.77107">
<ele>47</ele>
</trkpt>
<trkpt lat="32.92265388888889" lon="130.77108305555555">
<ele>47</ele>
</trkpt>
<trkpt lat="32.92219611111111" lon="130.77115805555556">
<ele>47</ele>
</trkpt>
<trkpt lat="32.92210388888889" lon="130.77115805555556">
<ele>47</ele>
</trkpt>
<trkpt lat="32.92197888888889" lon="130.771145">
<ele>46</ele>
</trkpt>
<trkpt lat="32.92196611111111" lon="130.771145">
<ele>46</ele>
</trkpt>
<trkpt lat="32.92196611111111" lon="130.771145">
<ele>46</ele>
</trkpt>
<trkpt lat="32.92197888888889" lon="130.771145">
<ele>46</ele>
</trkpt>
<trkpt lat="32.92210388888889" lon="130.77115805555556">
<ele>47</ele>
</trkpt>
<trkpt lat="32.922086944444445" lon="130.77133194444446">
<ele>47</ele>
</trkpt>
<trkpt lat="32.92207111111111" lon="130.77155805555554">
<ele>47</ele>
</trkpt>
<trkpt lat="32.92203694444444" lon="130.77218194444444">
<ele>47</ele>
</trkpt>
<trkpt lat="32.92203694444444" lon="130.772795">
<ele>50</ele>
</trkpt>
<trkpt lat="32.92203694444444" lon="130.77295694444445">
<ele>50</ele>
</trkpt>
<trkpt lat="32.92202" lon="130.77310694444444">
<ele>50</ele>
</trkpt>
<trkpt lat="32.92200388888889" lon="130.77323194444443">
<ele>50</ele>
</trkpt>
<trkpt lat="32.92202" lon="130.77345694444443">
<ele>50</ele>
</trkpt>
<trkpt lat="32.92207888888889" lon="130.77377">
<ele>50</ele>
</trkpt>
<trkpt lat="32.922095" lon="130.77392">
<ele>50</ele>
</trkpt>
<trkpt lat="32.922086944444445" lon="130.77445694444444">
<ele>50</ele>
</trkpt>
<trkpt lat="32.92201194444444" lon="130.77515694444443">
<ele>50</ele>
</trkpt>
<trkpt lat="32.92193694444445" lon="130.77550694444443">
<ele>50</ele>
</trkpt>
<trkpt lat="32.92185388888889" lon="130.77593194444444">
<ele>50</ele>
</trkpt>
<trkpt lat="32.92167" lon="130.7766938888889">
<ele>50</ele>
</trkpt>
<trkpt lat="32.921645" lon="130.77683194444444">
<ele>50</ele>
</trkpt>
<trkpt lat="32.92156194444444" lon="130.77728194444444">
<ele>50</ele>
</trkpt>
<trkpt lat="32.92147" lon="130.77785694444444">
<ele>50</ele>
</trkpt>
<trkpt lat="32.92142888888889" lon="130.7782938888889">
<ele>50</ele>
</trkpt>
<trkpt lat="32.92142" lon="130.77836888888888">
<ele>50</ele>
</trkpt>
<trkpt lat="32.92142" lon="130.7788938888889">
<ele>50</ele>
</trkpt>
<trkpt lat="32.92142888888889" lon="130.77904388888888">
<ele>50</ele>
</trkpt>
<trkpt lat="32.92144111111111" lon="130.779175">
<ele>50</ele>
</trkpt>
<trkpt lat="32.92144111111111" lon="130.779175">
<ele>50</ele>
</trkpt>
<trkpt lat="32.921445" lon="130.7792188888889">
<ele>50</ele>
</trkpt>
<trkpt lat="32.92147888888889" lon="130.77945694444443">
<ele>50</ele>
</trkpt>
<trkpt lat="32.92155388888889" lon="130.77975694444444">
<ele>50</ele>
</trkpt>
<trkpt lat="32.921661944444445" lon="130.78003194444443">
<ele>50</ele>
</trkpt>
<trkpt lat="32.921695" lon="130.78013194444443">
<ele>50</ele>
</trkpt>
<trkpt lat="32.92183694444444" lon="130.78043194444444">
<ele>50</ele>
</trkpt>
<trkpt lat="32.921953888888886" lon="130.78068194444444">
<ele>50</ele>
</trkpt>
<trkpt lat="32.92242" lon="130.7816938888889">
<ele>50</ele>
</trkpt>
<trkpt lat="32.92247888888889" lon="130.78183194444443">
<ele>50</ele>
</trkpt>
<trkpt lat="32.92282" lon="130.7826938888889">
<ele>50</ele>
</trkpt>
<trkpt lat="32.923003888888886" lon="130.7831938888889">
<ele>51</ele>
</trkpt>
<trkpt lat="32.92350305555556" lon="130.78460611111112">
<ele>51</ele>
</trkpt>
<trkpt lat="32.92355305555556" lon="130.7847311111111">
<ele>51</ele>
</trkpt>
<trkpt lat="32.92391194444444" lon="130.78570611111112">
<ele>52</ele>
</trkpt>
<trkpt lat="32.924053055555554" lon="130.78604388888888">
<ele>52</ele>
</trkpt>
<trkpt lat="32.92416194444444" lon="130.78629388888888">
<ele>52</ele>
</trkpt>
<trkpt lat="32.924461944444445" lon="130.78691">
<ele>52</ele>
</trkpt>
<trkpt lat="32.924461944444445" lon="130.78691">
<ele>52</ele>
</trkpt>
<trkpt lat="32.924636944444444" lon="130.7872688888889">
<ele>53</ele>
</trkpt>
<trkpt lat="32.92552" lon="130.78890611111112">
<ele>54</ele>
</trkpt>
<trkpt lat="32.925945" lon="130.78966805555555">
<ele>54</ele>
</trkpt>
<trkpt lat="32.92635305555556" lon="130.7903311111111">
<ele>55</ele>
</trkpt>
<trkpt lat="32.92647" lon="130.79051805555557">
<ele>55</ele>
</trkpt>
<trkpt lat="32.92773611111111" lon="130.79230611111112">
<ele>56</ele>
</trkpt>
<trkpt lat="32.92786111111111" lon="130.79246805555556">
<ele>56</ele>
</trkpt>
<trkpt lat="32.928111111111114" lon="130.79279305555556">
<ele>56</ele>
</trkpt>
<trkpt lat="32.92857" lon="130.79330611111112">
<ele>56</ele>
</trkpt>
<trkpt lat="32.92878611111111" lon="130.79351805555555">
<ele>57</ele>
</trkpt>
<trkpt lat="32.929045" lon="130.793755">
<ele>57</ele>
</trkpt>
<trkpt lat="32.929253055555556" lon="130.79394305555556">
<ele>57</ele>
</trkpt>
<trkpt lat="32.929628055555554" lon="130.79423">
<ele>57</ele>
</trkpt>
<trkpt lat="32.929895" lon="130.79441805555555">
<ele>57</ele>
</trkpt>
<trkpt lat="32.93041888888889" lon="130.79476805555555">
<ele>58</ele>
</trkpt>
<trkpt lat="32.931086111111114" lon="130.79518">
<ele>58</ele>
</trkpt>
<trkpt lat="32.93129611111111" lon="130.7953038888889">
<ele>58</ele>
</trkpt>
<trkpt lat="32.93129611111111" lon="130.7953038888889">
<ele>58</ele>
</trkpt>
<trkpt lat="32.932518888888886" lon="130.79603">
<ele>59</ele>
</trkpt>
<trkpt lat="32.93300305555555" lon="130.79634305555555">
<ele>59</ele>
</trkpt>
<trkpt lat="32.933276944444444" lon="130.79654194444444">
<ele>59</ele>
</trkpt>
<trkpt lat="32.93353611111111" lon="130.79678">
<ele>59</ele>
</trkpt>
<trkpt lat="32.93371888888889" lon="130.797005">
<ele>59</ele>
</trkpt>
<trkpt lat="32.93386888888889" lon="130.79726805555555">
<ele>59</ele>
</trkpt>
<trkpt lat="32.93401111111111" lon="130.79761805555555">
<ele>60</ele>
</trkpt>
<trkpt lat="32.93406111111111" lon="130.79776694444445">
<ele>60</ele>
</trkpt>
<trkpt lat="32.934128055555554" lon="130.79814194444444">
<ele>60</ele>
</trkpt>
<trkpt lat="32.934151944444444" lon="130.79854194444445">
<ele>60</ele>
</trkpt>
<trkpt lat="32.93416888888889" lon="130.799105">
<ele>61</ele>
</trkpt>
<trkpt lat="32.93411111111111" lon="130.79953">
<ele>61</ele>
</trkpt>
<trkpt lat="32.93402694444445" lon="130.79984194444444">
<ele>61</ele>
</trkpt>
<trkpt lat="32.93391888888889" lon="130.80018">
<ele>61</ele>
</trkpt>
<trkpt lat="32.933886111111114" lon="130.80028">
<ele>61</ele>
</trkpt>
<trkpt lat="32.93385305555555" lon="130.80036694444445">
<ele>61</ele>
</trkpt>
<trkpt lat="32.93346888888889" lon="130.8015538888889">
<ele>61</ele>
</trkpt>
<trkpt lat="32.933441944444446" lon="130.80169388888888">
<ele>61</ele>
</trkpt>
<trkpt lat="32.933441944444446" lon="130.80169305555555">
<ele>61</ele>
</trkpt>
<trkpt lat="32.933328055555556" lon="130.80226694444445">
<ele>62</ele>
</trkpt>
<trkpt lat="32.933253055555554" lon="130.80260388888888">
<ele>62</ele>
</trkpt>
<trkpt lat="32.93322805555555" lon="130.8027538888889">
<ele>62</ele>
</trkpt>
<trkpt lat="32.93308611111111" lon="130.8035788888889">
<ele>62</ele>
</trkpt>
<trkpt lat="32.93306111111111" lon="130.80381694444443">
<ele>63</ele>
</trkpt>
<trkpt lat="32.933053055555554" lon="130.8041538888889">
<ele>63</ele>
</trkpt>
<trkpt lat="32.93306111111111" lon="130.80442888888888">
<ele>63</ele>
</trkpt>
<trkpt lat="32.93311888888889" lon="130.80485388888889">
<ele>63</ele>
</trkpt>
<trkpt lat="32.93318611111111" lon="130.80514194444444">
<ele>63</ele>
</trkpt>
<trkpt lat="32.933303055555555" lon="130.80546694444445">
<ele>63</ele>
</trkpt>
<trkpt lat="32.93342805555555" lon="130.8058038888889">
<ele>63</ele>
</trkpt>
<trkpt lat="32.933568888888885" lon="130.80606694444444">
<ele>64</ele>
</trkpt>
<trkpt lat="32.93369388888889" lon="130.80626694444445">
<ele>64</ele>
</trkpt>
<trkpt lat="32.933953055555556" lon="130.80659194444445">
<ele>64</ele>
</trkpt>
<trkpt lat="32.934218888888886" lon="130.8068788888889">
<ele>64</ele>
</trkpt>
<trkpt lat="32.93450305555555" lon="130.80714111111112">
<ele>64</ele>
</trkpt>
<trkpt lat="32.93476111111111" lon="130.80736611111112">
<ele>64</ele>
</trkpt>
<trkpt lat="32.93536111111111" lon="130.80780388888888">
<ele>64</ele>
</trkpt>
<trkpt lat="32.935628055555554" lon="130.8080161111111">
<ele>64</ele>
</trkpt>
<trkpt lat="32.93624611111111" lon="130.808405">
<ele>65</ele>
</trkpt>
<trkpt lat="32.93624611111111" lon="130.80840388888888">
<ele>65</ele>
</trkpt>
<trkpt lat="32.93680194444445" lon="130.8087538888889">
<ele>65</ele>
</trkpt>
<trkpt lat="32.93696888888889" lon="130.8088788888889">
<ele>65</ele>
</trkpt>
<trkpt lat="32.937018888888886" lon="130.8089288888889">
<ele>66</ele>
</trkpt>
<trkpt lat="32.93710305555555" lon="130.8090411111111">
<ele>66</ele>
</trkpt>
<trkpt lat="32.937201944444446" lon="130.8092288888889">
<ele>66</ele>
</trkpt>
<trkpt lat="32.93723611111111" lon="130.8093538888889">
<ele>66</ele>
</trkpt>
<trkpt lat="32.93726111111111" lon="130.8096038888889">
<ele>66</ele>
</trkpt>
<trkpt lat="32.93727694444444" lon="130.8097038888889">
<ele>66</ele>
</trkpt>
<trkpt lat="32.93736888888889" lon="130.8100288888889">
<ele>66</ele>
</trkpt>
<trkpt lat="32.93742694444445" lon="130.81030388888888">
<ele>66</ele>
</trkpt>
<trkpt lat="32.93748611111111" lon="130.81066611111112">
<ele>66</ele>
</trkpt>
<trkpt lat="32.93749388888889" lon="130.81086611111112">
<ele>66</ele>
</trkpt>
<trkpt lat="32.937511111111114" lon="130.8113911111111">
<ele>66</ele>
</trkpt>
<trkpt lat="32.93753611111111" lon="130.81182805555557">
<ele>66</ele>
</trkpt>
<trkpt lat="32.93756111111111" lon="130.81245305555555">
<ele>67</ele>
</trkpt>
<trkpt lat="32.937551944444444" lon="130.81279111111112">
<ele>66</ele>
</trkpt>
<trkpt lat="32.93756888888889" lon="130.8129911111111">
<ele>67</ele>
</trkpt>
<trkpt lat="32.937643888888886" lon="130.81337805555555">
<ele>67</ele>
</trkpt>
<trkpt lat="32.93768611111111" lon="130.81349111111112">
<ele>67</ele>
</trkpt>
<trkpt lat="32.93770388888889" lon="130.81352694444445">
<ele>67</ele>
</trkpt>
<trkpt lat="32.93770388888889" lon="130.81352694444445">
<ele>67</ele>
</trkpt>
<trkpt lat="32.93779388888889" lon="130.81370305555555">
<ele>67</ele>
</trkpt>
<trkpt lat="32.93787694444445" lon="130.81384111111112">
<ele>67</ele>
</trkpt>
<trkpt lat="32.93816888888889" lon="130.81420305555557">
<ele>68</ele>
</trkpt>
<trkpt lat="32.93846111111111" lon="130.81447805555555">
<ele>69</ele>
</trkpt>
<trkpt lat="32.938943888888886" lon="130.81486611111112">
<ele>69</ele>
</trkpt>
<trkpt lat="32.93904388888889" lon="130.81495305555555">
<ele>69</ele>
</trkpt>
<trkpt lat="32.93917694444445" lon="130.81505305555555">
<ele>69</ele>
</trkpt>
<trkpt lat="32.93942694444444" lon="130.81520305555554">
<ele>69</ele>
</trkpt>
<trkpt lat="32.93976111111111" lon="130.81537805555556">
<ele>69</ele>
</trkpt>
<trkpt lat="32.93993611111111" lon="130.81545305555557">
<ele>69</ele>
</trkpt>
<trkpt lat="32.940151944444445" lon="130.81552805555555">
<ele>69</ele>
</trkpt>
<trkpt lat="32.94030194444444" lon="130.81554111111112">
<ele>69</ele>
</trkpt>
<trkpt lat="32.94033611111111" lon="130.81554111111112">
<ele>69</ele>
</trkpt>
<trkpt lat="32.94033611111111" lon="130.81554111111112">
<ele>69</ele>
</trkpt>
<trkpt lat="32.940576944444445" lon="130.81554111111112">
<ele>69</ele>
</trkpt>
<trkpt lat="32.94068611111111" lon="130.81555305555557">
<ele>69</ele>
</trkpt>
<trkpt lat="32.941051944444446" lon="130.81555305555557">
<ele>70</ele>
</trkpt>
<trkpt lat="32.94117694444444" lon="130.8155661111111">
<ele>69</ele>
</trkpt>
<trkpt lat="32.94144388888889" lon="130.81564111111112">
<ele>69</ele>
</trkpt>
<trkpt lat="32.94161111111111" lon="130.81570305555556">
<ele>69</ele>
</trkpt>
<trkpt lat="32.94175194444445" lon="130.81580305555556">
<ele>69</ele>
</trkpt>
<trkpt lat="32.941811111111114" lon="130.8158411111111">
<ele>69</ele>
</trkpt>
<trkpt lat="32.94192694444445" lon="130.81597805555555">
<ele>69</ele>
</trkpt>
<trkpt lat="32.942051944444444" lon="130.8161661111111">
<ele>69</ele>
</trkpt>
<trkpt lat="32.94213611111111" lon="130.81635305555557">
<ele>69</ele>
</trkpt>
<trkpt lat="32.94215" lon="130.8164138888889">
<ele>69</ele>
</trkpt>
<trkpt lat="32.94215" lon="130.8164138888889">
<ele>69</ele>
</trkpt>
<trkpt lat="32.94217694444445" lon="130.81652805555555">
<ele>69</ele>
</trkpt>
<trkpt lat="32.94219388888889" lon="130.816615">
<ele>69</ele>
</trkpt>
<trkpt lat="32.942211111111114" lon="130.81677805555555">
<ele>69</ele>
</trkpt>
<trkpt lat="32.94211111111111" lon="130.81727805555556">
<ele>69</ele>
</trkpt>
<trkpt lat="32.94196111111111" lon="130.81780305555554">
<ele>69</ele>
</trkpt>
<trkpt lat="32.94186111111111" lon="130.81810305555555">
<ele>69</ele>
</trkpt>
<trkpt lat="32.94179388888889" lon="130.81835305555555">
<ele>69</ele>
</trkpt>
<trkpt lat="32.94173611111111" lon="130.81859">
<ele>69</ele>
</trkpt>
<trkpt lat="32.94168611111111" lon="130.81889">
<ele>69</ele>
</trkpt>
<trkpt lat="32.941676944444445" lon="130.81909">
<ele>69</ele>
</trkpt>
<trkpt lat="32.941676944444445" lon="130.819365">
<ele>69</ele>
</trkpt>
<trkpt lat="32.94169388888889" lon="130.81965305555556">
<ele>69</ele>
</trkpt>
<trkpt lat="32.941716944444444" lon="130.81979694444445">
<ele>69</ele>
</trkpt>
<trkpt lat="32.941716944444444" lon="130.81979694444445">
<ele>69</ele>
</trkpt>
<trkpt lat="32.94174388888889" lon="130.819965">
<ele>70</ele>
</trkpt>
<trkpt lat="32.94180194444444" lon="130.820165">
<ele>70</ele>
</trkpt>
<trkpt lat="32.941851944444444" lon="130.820415">
<ele>70</ele>
</trkpt>
<trkpt lat="32.941943888888886" lon="130.82074">
<ele>70</ele>
</trkpt>
<trkpt lat="32.94201888888889" lon="130.820915">
<ele>71</ele>
</trkpt>
<trkpt lat="32.94213611111111" lon="130.82119">
<ele>72</ele>
</trkpt>
<trkpt lat="32.94226111111111" lon="130.82142694444445">
<ele>72</ele>
</trkpt>
<trkpt lat="32.94236111111111" lon="130.82164">
<ele>73</ele>
</trkpt>
<trkpt lat="32.94260194444445" lon="130.822015">
<ele>74</ele>
</trkpt>
<trkpt lat="32.94264388888889" lon="130.822065">
<ele>74</ele>
</trkpt>
<trkpt lat="32.942751944444446" lon="130.82224">
<ele>75</ele>
</trkpt>
<trkpt lat="32.942951944444445" lon="130.82249">
<ele>77</ele>
</trkpt>
<trkpt lat="32.94292388888889" lon="130.82258">
<ele>77</ele>
</trkpt>
<trkpt lat="32.94292388888889" lon="130.82258">
<ele>77</ele>
</trkpt>
<trkpt lat="32.942793888888886" lon="130.82300194444446">
<ele>74</ele>
</trkpt>
<trkpt lat="32.942768055555554" lon="130.8230788888889">
<ele>75</ele>
</trkpt>
<trkpt lat="32.942768055555554" lon="130.8230788888889">
<ele>75</ele>
</trkpt>
<trkpt lat="32.94271111111111" lon="130.82325194444445">
<ele>78</ele>
</trkpt>
<trkpt lat="32.942886111111115" lon="130.823315">
<ele>76</ele>
</trkpt>
<trkpt lat="32.942976944444446" lon="130.82337694444445">
<ele>76</ele>
</trkpt>
<trkpt lat="32.94304388888889" lon="130.82345194444446">
<ele>77</ele>
</trkpt>
<trkpt lat="32.94311111111111" lon="130.82355194444443">
<ele>77</ele>
</trkpt>
<trkpt lat="32.94316" lon="130.82364">
<ele>78</ele>
</trkpt>
<trkpt lat="32.94330194444444" lon="130.82389">
<ele>78</ele>
</trkpt>
<trkpt lat="32.94331" lon="130.823965">
<ele>78</ele>
</trkpt>
<trkpt lat="32.94325194444444" lon="130.824065">
<ele>80</ele>
</trkpt>
<trkpt lat="32.94325194444444" lon="130.824065">
<ele>80</ele>
</trkpt>
<trkpt lat="32.942951944444445" lon="130.82427694444445">
<ele>80</ele>
</trkpt>
<trkpt lat="32.942951111111114" lon="130.82427805555557">
<ele>80</ele>
</trkpt>
<trkpt lat="32.942951111111114" lon="130.82427805555557">
<ele>80</ele>
</trkpt>
<trkpt lat="32.942101944444445" lon="130.82477694444444">
<ele>80</ele>
</trkpt>
<trkpt lat="32.942011111111114" lon="130.82485194444445">
<ele>80</ele>
</trkpt>
<trkpt lat="32.94196111111111" lon="130.82492694444446">
<ele>81</ele>
</trkpt>
<trkpt lat="32.941918888888885" lon="130.82487694444444">
<ele>80</ele>
</trkpt>
<trkpt lat="32.941876944444445" lon="130.82480194444443">
<ele>80</ele>
</trkpt>
<trkpt lat="32.94221" lon="130.8245738888889">
<ele>80</ele>
</trkpt>
<trkpt lat="32.94221" lon="130.8245738888889">
<ele>80</ele>
</trkpt>
<trkpt lat="32.941876944444445" lon="130.82480194444443">
<ele>80</ele>
</trkpt>
<trkpt lat="32.94146888888889" lon="130.82510194444444">
<ele>80</ele>
</trkpt>
<trkpt lat="32.94119388888889" lon="130.82532694444444">
<ele>80</ele>
</trkpt>
<trkpt lat="32.94112694444444" lon="130.82537694444446">
<ele>81</ele>
</trkpt>
<trkpt lat="32.940401944444446" lon="130.82595194444445">
<ele>80</ele>
</trkpt>
<trkpt lat="32.939461111111115" lon="130.82674">
<ele>79</ele>
</trkpt>
<trkpt lat="32.93931888888889" lon="130.826865">
<ele>79</ele>
</trkpt>
<trkpt lat="32.93906888888889" lon="130.82707694444446">
<ele>81</ele>
</trkpt>
<trkpt lat="32.93888611111111" lon="130.82722694444445">
<ele>81</ele>
</trkpt>
<trkpt lat="32.93884388888889" lon="130.82714">
<ele>81</ele>
</trkpt>
<trkpt lat="32.93901888888889" lon="130.82699">
<ele>80</ele>
</trkpt>
<trkpt lat="32.93926888888889" lon="130.82677694444445">
<ele>79</ele>
</trkpt>
<trkpt lat="32.93941888888889" lon="130.826665">
<ele>79</ele>
</trkpt>
<trkpt lat="32.93950888888889" lon="130.82659">
<ele>79</ele>
</trkpt>
<trkpt lat="32.93950888888889" lon="130.82659">
<ele>79</ele>
</trkpt>
<trkpt lat="32.93941888888889" lon="130.826665">
<ele>79</ele>
</trkpt>
<trkpt lat="32.93926888888889" lon="130.82677694444445">
<ele>79</ele>
</trkpt>
<trkpt lat="32.93901888888889" lon="130.82699">
<ele>80</ele>
</trkpt>
<trkpt lat="32.93884388888889" lon="130.82714">
<ele>81</ele>
</trkpt>
<trkpt lat="32.93724388888889" lon="130.82843888888888">
<ele>95</ele>
</trkpt>
<trkpt lat="32.93661888888889" lon="130.82878888888888">
<ele>99</ele>
</trkpt>
<trkpt lat="32.93541111111111" lon="130.8292638888889">
<ele>100</ele>
</trkpt>
<trkpt lat="32.93467805555556" lon="130.8295388888889">
<ele>101</ele>
</trkpt>
<trkpt lat="32.934705" lon="130.8296411111111">
<ele>101</ele>
</trkpt>
<trkpt lat="32.934705" lon="130.8296411111111">
<ele>101</ele>
</trkpt>
<trkpt lat="32.93472805555555" lon="130.82972694444445">
<ele>101</ele>
</trkpt>
<trkpt lat="32.93442" lon="130.8298388888889">
<ele>101</ele>
</trkpt>
<trkpt lat="32.932345" lon="130.83065194444444">
<ele>103</ele>
</trkpt>
<trkpt lat="32.93212" lon="130.8307388888889">
<ele>103</ele>
</trkpt>
<trkpt lat="32.93208805555555" lon="130.830625">
<ele>104</ele>
</trkpt>
<trkpt lat="32.93208805555555" lon="130.830625">
<ele>104</ele>
</trkpt>
<trkpt lat="32.93212" lon="130.8307388888889">
<ele>103</ele>
</trkpt>
<trkpt lat="32.93217805555555" lon="130.83102694444443">
<ele>101</ele>
</trkpt>
<trkpt lat="32.93231111111111" lon="130.8313138888889">
<ele>100</ele>
</trkpt>
<trkpt lat="32.93251111111111" lon="130.8315888888889">
<ele>100</ele>
</trkpt>
<trkpt lat="32.93275305555556" lon="130.83185194444445">
<ele>98</ele>
</trkpt>
<trkpt lat="32.933045" lon="130.83217694444446">
<ele>96</ele>
</trkpt>
<trkpt lat="32.93321111111111" lon="130.83220194444445">
<ele>96</ele>
</trkpt>
<trkpt lat="32.93326111111111" lon="130.83220194444445">
<ele>97</ele>
</trkpt>
<trkpt lat="32.933445" lon="130.83218888888888">
<ele>96</ele>
</trkpt>
<trkpt lat="32.933455" lon="130.83218805555555">
<ele>96</ele>
</trkpt>
<trkpt lat="32.933455" lon="130.83218805555555">
<ele>96</ele>
</trkpt>
<trkpt lat="32.933445" lon="130.83218888888888">
<ele>96</ele>
</trkpt>
<trkpt lat="32.93326111111111" lon="130.83220194444445">
<ele>97</ele>
</trkpt>
<trkpt lat="32.933278055555554" lon="130.83260194444443">
<ele>94</ele>
</trkpt>
<trkpt lat="32.93331111111111" lon="130.83267694444444">
<ele>94</ele>
</trkpt>
<trkpt lat="32.933458888888886" lon="130.8328238888889">
<ele>93</ele>
</trkpt>
<trkpt lat="32.933458055555555" lon="130.8328238888889">
<ele>93</ele>
</trkpt>
<trkpt lat="32.93391111111111" lon="130.83327694444444">
<ele>91</ele>
</trkpt>
<trkpt lat="32.93428611111111" lon="130.8337138888889">
<ele>90</ele>
</trkpt>
<trkpt lat="32.934553055555554" lon="130.83405194444444">
<ele>90</ele>
</trkpt>
<trkpt lat="32.934553055555554" lon="130.83411388888888">
<ele>90</ele>
</trkpt>
<trkpt lat="32.934531944444444" lon="130.8341661111111">
<ele>90</ele>
</trkpt>
<trkpt lat="32.934533055555555" lon="130.8341661111111">
<ele>90</ele>
</trkpt>
<trkpt lat="32.93452805555555" lon="130.83417694444444">
<ele>90</ele>
</trkpt>
<trkpt lat="32.934145" lon="130.83492694444445">
<ele>89</ele>
</trkpt>
<trkpt lat="32.93401111111111" lon="130.8351888888889">
<ele>92</ele>
</trkpt>
<trkpt lat="32.933978055555556" lon="130.83532694444443">
<ele>94</ele>
</trkpt>
<trkpt lat="32.933953055555556" lon="130.8355388888889">
<ele>95</ele>
</trkpt>
<trkpt lat="32.933895" lon="130.83612694444443">
<ele>98</ele>
</trkpt>
<trkpt lat="32.93402805555556" lon="130.83612694444443">
<ele>98</ele>
</trkpt>
<trkpt lat="32.93405305555556" lon="130.83613194444445">
<ele>98</ele>
</trkpt>
<trkpt lat="32.93405305555556" lon="130.83613194444445">
<ele>98</ele>
</trkpt>
<trkpt lat="32.934195" lon="130.83616388888888">
<ele>98</ele>
</trkpt>
<trkpt lat="32.934578055555555" lon="130.83627694444445">
<ele>97</ele>
</trkpt>
<trkpt lat="32.93477" lon="130.8362888888889">
<ele>96</ele>
</trkpt>
<trkpt lat="32.93485305555556" lon="130.83626388888888">
<ele>96</ele>
</trkpt>
<trkpt lat="32.93488611111111" lon="130.8362388888889">
<ele>96</ele>
</trkpt>
<trkpt lat="32.934936944444445" lon="130.83621805555555">
<ele>95</ele>
</trkpt>
<trkpt lat="32.934936944444445" lon="130.83621805555555">
<ele>95</ele>
</trkpt>
<trkpt lat="32.93501111111111" lon="130.8361888888889">
<ele>94</ele>
</trkpt>
<trkpt lat="32.93519388888889" lon="130.83603888888888">
<ele>93</ele>
</trkpt>
<trkpt lat="32.93531888888889" lon="130.83595194444445">
<ele>92</ele>
</trkpt>
<trkpt lat="32.93541111111111" lon="130.8358888888889">
<ele>92</ele>
</trkpt>
<trkpt lat="32.93553611111111" lon="130.83577694444443">
<ele>91</ele>
</trkpt>
<trkpt lat="32.93580305555555" lon="130.8356388888889">
<ele>91</ele>
</trkpt>
<trkpt lat="32.93618611111111" lon="130.8355138888889">
<ele>91</ele>
</trkpt>
<trkpt lat="32.936753055555556" lon="130.83533888888888">
<ele>92</ele>
</trkpt>
<trkpt lat="32.93678" lon="130.8353488888889">
<ele>92</ele>
</trkpt>
<trkpt lat="32.93678" lon="130.8353488888889">
<ele>92</ele>
</trkpt>
<trkpt lat="32.936753055555556" lon="130.83533888888888">
<ele>92</ele>
</trkpt>
<trkpt lat="32.937128055555554" lon="130.8350638888889">
<ele>90</ele>
</trkpt>
<trkpt lat="32.937165" lon="130.83511305555555">
<ele>91</ele>
</trkpt>
<trkpt lat="32.937165" lon="130.83511305555555">
<ele>91</ele>
</trkpt>
<trkpt lat="32.93733611111111" lon="130.83533888888888">
<ele>92</ele>
</trkpt>
<trkpt lat="32.93761111111111" lon="130.8357761111111">
<ele>94</ele>
</trkpt>
<trkpt lat="32.93831888888889" lon="130.8361261111111">
<ele>94</ele>
</trkpt>
<trkpt lat="32.93834388888889" lon="130.83613888888888">
<ele>94</ele>
</trkpt>
<trkpt lat="32.93856888888889" lon="130.8363138888889">
<ele>94</ele>
</trkpt>
<trkpt lat="32.93868611111111" lon="130.83647611111112">
<ele>94</ele>
</trkpt>
<trkpt lat="32.938878055555556" lon="130.8368638888889">
<ele>94</ele>
</trkpt>
<trkpt lat="32.938943888888886" lon="130.83695111111112">
<ele>94</ele>
</trkpt>
<trkpt lat="32.93904388888889" lon="130.8370011111111">
<ele>94</ele>
</trkpt>
<trkpt lat="32.93918611111111" lon="130.8370261111111">
<ele>94</ele>
</trkpt>
<trkpt lat="32.93931888888889" lon="130.83703888888888">
<ele>94</ele>
</trkpt>
<trkpt lat="32.93941888888889" lon="130.83703888888888">
<ele>94</ele>
</trkpt>
<trkpt lat="32.93946888888889" lon="130.837045">
<ele>93</ele>
</trkpt>
<trkpt lat="32.93946888888889" lon="130.837045">
<ele>93</ele>
</trkpt>
<trkpt lat="32.93941888888889" lon="130.83703888888888">
<ele>94</ele>
</trkpt>
<trkpt lat="32.93931888888889" lon="130.83703888888888">
<ele>94</ele>
</trkpt>
<trkpt lat="32.93948611111111" lon="130.83771388888889">
<ele>93</ele>
</trkpt>
<trkpt lat="32.93948611111111" lon="130.8381261111111">
<ele>94</ele>
</trkpt>
<trkpt lat="32.93942805555555" lon="130.83896388888888">
<ele>95</ele>
</trkpt>
<trkpt lat="32.93945305555555" lon="130.83922611111112">
<ele>95</ele>
</trkpt>
<trkpt lat="32.93956111111111" lon="130.8398511111111">
<ele>96</ele>
</trkpt>
<trkpt lat="32.939575" lon="130.83992305555554">
<ele>97</ele>
</trkpt>
<trkpt lat="32.939575" lon="130.83992305555554">
<ele>97</ele>
</trkpt>
<trkpt lat="32.939886111111115" lon="130.84153805555556">
<ele>103</ele>
</trkpt>
<trkpt lat="32.940041944444445" lon="130.84154694444445">
<ele>102</ele>
</trkpt>
<trkpt lat="32.940041944444445" lon="130.84154694444445">
<ele>102</ele>
</trkpt>
<trkpt lat="32.940311111111114" lon="130.84156305555555">
<ele>100</ele>
</trkpt>
<trkpt lat="32.94046888888889" lon="130.84151305555557">
<ele>98</ele>
</trkpt>
<trkpt lat="32.94061888888889" lon="130.8414011111111">
<ele>98</ele>
</trkpt>
<trkpt lat="32.94076111111111" lon="130.84118805555556">
<ele>98</ele>
</trkpt>
<trkpt lat="32.940801944444445" lon="130.84101305555555">
<ele>97</ele>
</trkpt>
<trkpt lat="32.940801944444445" lon="130.84083694444445">
<ele>96</ele>
</trkpt>
<trkpt lat="32.940801944444445" lon="130.84083694444445">
<ele>96</ele>
</trkpt>
<trkpt lat="32.940801944444445" lon="130.84053805555556">
<ele>96</ele>
</trkpt>
<trkpt lat="32.94084388888889" lon="130.8404011111111">
<ele>96</ele>
</trkpt>
<trkpt lat="32.940936111111114" lon="130.84032611111112">
<ele>94</ele>
</trkpt>
<trkpt lat="32.94150194444445" lon="130.84026305555557">
<ele>92</ele>
</trkpt>
<trkpt lat="32.94160194444444" lon="130.84028805555556">
<ele>92</ele>
</trkpt>
<trkpt lat="32.94161111111111" lon="130.84026">
<ele>92</ele>
</trkpt>
<trkpt lat="32.94176111111111" lon="130.84025111111112">
<ele>92</ele>
</trkpt>
<trkpt lat="32.94176111111111" lon="130.84033805555555">
<ele>92</ele>
</trkpt>
<trkpt lat="32.941786111111114" lon="130.84057611111112">
<ele>91</ele>
</trkpt>
<trkpt lat="32.94181888888889" lon="130.8407511111111">
<ele>92</ele>
</trkpt>
<trkpt lat="32.94186111111111" lon="130.8408761111111">
<ele>92</ele>
</trkpt>
<trkpt lat="32.94193611111111" lon="130.84103805555554">
<ele>93</ele>
</trkpt>
<trkpt lat="32.94206111111111" lon="130.8412761111111">
<ele>92</ele>
</trkpt>
<trkpt lat="32.942143888888886" lon="130.8414511111111">
<ele>91</ele>
</trkpt>
<trkpt lat="32.942211111111114" lon="130.8416761111111">
<ele>91</ele>
</trkpt>
<trkpt lat="32.94271" lon="130.8437761111111">
<ele>93</ele>
</trkpt>
<trkpt lat="32.94274388888889" lon="130.84397611111112">
<ele>93</ele>
</trkpt>
<trkpt lat="32.942785" lon="130.84486305555555">
<ele>96</ele>
</trkpt>
<trkpt lat="32.94351" lon="130.8449011111111">
<ele>92</ele>
</trkpt>
<trkpt lat="32.943585" lon="130.8449011111111">
<ele>92</ele>
</trkpt>
<trkpt lat="32.94372694444444" lon="130.84488805555554">
<ele>91</ele>
</trkpt>
<trkpt lat="32.94387694444445" lon="130.8448511111111">
<ele>91</ele>
</trkpt>
<trkpt lat="32.943976944444444" lon="130.8448011111111">
<ele>91</ele>
</trkpt>
<trkpt lat="32.94431" lon="130.84465111111112">
<ele>90</ele>
</trkpt>
<trkpt lat="32.94441" lon="130.84463805555555">
<ele>90</ele>
</trkpt>
<trkpt lat="32.944493888888886" lon="130.84465111111112">
<ele>90</ele>
</trkpt>
<trkpt lat="32.94457694444444" lon="130.84471305555556">
<ele>90</ele>
</trkpt>
<trkpt lat="32.94484305555556" lon="130.84493805555556">
<ele>91</ele>
</trkpt>
<trkpt lat="32.94506805555555" lon="130.845175">
<ele>92</ele>
</trkpt>
<trkpt lat="32.945326944444446" lon="130.84553805555555">
<ele>92</ele>
</trkpt>
<trkpt lat="32.94586" lon="130.84628805555556">
<ele>94</ele>
</trkpt>
<trkpt lat="32.94605194444444" lon="130.8465">
<ele>94</ele>
</trkpt>
<trkpt lat="32.94650194444444" lon="130.846925">
<ele>95</ele>
</trkpt>
<trkpt lat="32.94676" lon="130.847175">
<ele>96</ele>
</trkpt>
<trkpt lat="32.94721" lon="130.84778805555555">
<ele>97</ele>
</trkpt>
<trkpt lat="32.94776805555556" lon="130.84861305555555">
<ele>98</ele>
</trkpt>
<trkpt lat="32.947968055555556" lon="130.84898694444445">
<ele>98</ele>
</trkpt>
<trkpt lat="32.94817611111111" lon="130.849525">
<ele>99</ele>
</trkpt>
<trkpt lat="32.94846805555556" lon="130.85028694444443">
<ele>100</ele>
</trkpt>
<trkpt lat="32.948526111111114" lon="130.85046194444445">
<ele>100</ele>
</trkpt>
<trkpt lat="32.948635" lon="130.85038694444444">
<ele>102</ele>
</trkpt>
<trkpt lat="32.948685" lon="130.85023694444445">
<ele>105</ele>
</trkpt>
<trkpt lat="32.948685" lon="130.849">
<ele>106</ele>
</trkpt>
<trkpt lat="32.94846" lon="130.847425">
<ele>117</ele>
</trkpt>
<trkpt lat="32.948485" lon="130.84718694444445">
<ele>116</ele>
</trkpt>
<trkpt lat="32.948543055555554" lon="130.8471">
<ele>114</ele>
</trkpt>
<trkpt lat="32.949035" lon="130.84683694444445">
<ele>118</ele>
</trkpt>
<trkpt lat="32.94911" lon="130.84676305555556">
<ele>118</ele>
</trkpt>
<trkpt lat="32.94927611111111" lon="130.84625">
<ele>119</ele>
</trkpt>
<trkpt lat="32.94935111111111" lon="130.84616305555556">
<ele>126</ele>
</trkpt>
<trkpt lat="32.94953388888889" lon="130.846075">
<ele>128</ele>
</trkpt>
<trkpt lat="32.94970111111111" lon="130.846025">
<ele>127</ele>
</trkpt>
<trkpt lat="32.95012611111111" lon="130.8459">
<ele>123</ele>
</trkpt>
<trkpt lat="32.95045888888889" lon="130.84571194444445">
<ele>127</ele>
</trkpt>
<trkpt lat="32.95055111111111" lon="130.845575">
<ele>125</ele>
</trkpt>
<trkpt lat="32.95070111111111" lon="130.84535">
<ele>124</ele>
</trkpt>
<trkpt lat="32.95135111111111" lon="130.844475">
<ele>117</ele>
</trkpt>
<trkpt lat="32.952491944444446" lon="130.84303805555555">
<ele>119</ele>
</trkpt>
<trkpt lat="32.95258388888889" lon="130.842975">
<ele>120</ele>
</trkpt>
<trkpt lat="32.95270111111111" lon="130.84291305555556">
<ele>119</ele>
</trkpt>
<trkpt lat="32.955191944444444" lon="130.84216305555555">
<ele>125</ele>
</trkpt>
<trkpt lat="32.95538388888889" lon="130.84215">
<ele>126</ele>
</trkpt>
<trkpt lat="32.95547611111111" lon="130.84216305555555">
<ele>126</ele>
</trkpt>
<trkpt lat="32.95560888888889" lon="130.84218805555557">
<ele>125</ele>
</trkpt>
<trkpt lat="32.955708888888886" lon="130.84223805555555">
<ele>125</ele>
</trkpt>
<trkpt lat="32.95594194444445" lon="130.842325">
<ele>123</ele>
</trkpt>
<trkpt lat="32.95620888888889" lon="130.842375">
<ele>121</ele>
</trkpt>
<trkpt lat="32.956451111111114" lon="130.84235">
<ele>117</ele>
</trkpt>
<trkpt lat="32.95680888888889" lon="130.842225">
<ele>117</ele>
</trkpt>
<trkpt lat="32.95747611111111" lon="130.84198805555556">
<ele>116</ele>
</trkpt>
<trkpt lat="32.95785111111111" lon="130.841825">
<ele>115</ele>
</trkpt>
<trkpt lat="32.958058888888885" lon="130.841725">
<ele>113</ele>
</trkpt>
<trkpt lat="32.95827611111111" lon="130.84156305555555">
<ele>114</ele>
</trkpt>
<trkpt lat="32.95838388888889" lon="130.84148805555554">
<ele>113</ele>
</trkpt>
<trkpt lat="32.95887611111111" lon="130.84101305555555">
<ele>113</ele>
</trkpt>
<trkpt lat="32.95921694444444" lon="130.840625">
<ele>113</ele>
</trkpt>
<trkpt lat="32.95935111111111" lon="130.84043805555555">
<ele>114</ele>
</trkpt>
<trkpt lat="32.95960888888889" lon="130.84011305555555">
<ele>115</ele>
</trkpt>
<trkpt lat="32.95979194444445" lon="130.839825">
<ele>115</ele>
</trkpt>
<trkpt lat="32.95984194444444" lon="130.83975">
<ele>116</ele>
</trkpt>
<trkpt lat="32.95999194444445" lon="130.8396">
<ele>116</ele>
</trkpt>
<trkpt lat="32.960141944444445" lon="130.839525">
<ele>114</ele>
</trkpt>
<trkpt lat="32.96035111111111" lon="130.83946305555557">
<ele>112</ele>
</trkpt>
<trkpt lat="32.96064194444445" lon="130.839425">
<ele>109</ele>
</trkpt>
<trkpt lat="32.960991944444444" lon="130.839425">
<ele>109</ele>
</trkpt>
<trkpt lat="32.961441944444445" lon="130.839475">
<ele>108</ele>
</trkpt>
<trkpt lat="32.96185111111111" lon="130.839475">
<ele>107</ele>
</trkpt>
<trkpt lat="32.96202611111111" lon="130.83943805555555">
<ele>105</ele>
</trkpt>
<trkpt lat="32.96221694444444" lon="130.83936305555557">
<ele>104</ele>
</trkpt>
<trkpt lat="32.962466944444444" lon="130.83918805555555">
<ele>105</ele>
</trkpt>
<trkpt lat="32.96279194444445" lon="130.83888805555554">
<ele>102</ele>
</trkpt>
<trkpt lat="32.96315888888889" lon="130.83851305555555">
<ele>96</ele>
</trkpt>
<trkpt lat="32.96358388888889" lon="130.838025">
<ele>89</ele>
</trkpt>
<trkpt lat="32.96378388888889" lon="130.837825">
<ele>88</ele>
</trkpt>
<trkpt lat="32.96395888888889" lon="130.837725">
<ele>87</ele>
</trkpt>
<trkpt lat="32.96415888888889" lon="130.83765">
<ele>87</ele>
</trkpt>
<trkpt lat="32.96460888888889" lon="130.83758805555556">
<ele>86</ele>
</trkpt>
<trkpt lat="32.96494194444445" lon="130.8375">
<ele>84</ele>
</trkpt>
<trkpt lat="32.96525888888889" lon="130.837375">
<ele>84</ele>
</trkpt>
<trkpt lat="32.96541694444444" lon="130.837275">
<ele>83</ele>
</trkpt>
<trkpt lat="32.965558888888886" lon="130.83711305555556">
<ele>79</ele>
</trkpt>
<trkpt lat="32.966025" lon="130.83645">
<ele>70</ele>
</trkpt>
<trkpt lat="32.966225" lon="130.83626305555555">
<ele>68</ele>
</trkpt>
<trkpt lat="32.96638388888889" lon="130.83615">
<ele>67</ele>
</trkpt>
<trkpt lat="32.96658388888889" lon="130.83608805555556">
<ele>66</ele>
</trkpt>
<trkpt lat="32.96680888888889" lon="130.83608805555556">
<ele>66</ele>
</trkpt>
<trkpt lat="32.96694194444444" lon="130.8361">
<ele>67</ele>
</trkpt>
<trkpt lat="32.967175" lon="130.83615">
<ele>63</ele>
</trkpt>
<trkpt lat="32.9674" lon="130.83621305555556">
<ele>66</ele>
</trkpt>
<trkpt lat="32.96754194444444" lon="130.83596305555557">
<ele>64</ele>
</trkpt>
<trkpt lat="32.96828388888889" lon="130.83495">
<ele>64</ele>
</trkpt>
<trkpt lat="32.96856694444445" lon="130.83475">
<ele>62</ele>
</trkpt>
<trkpt lat="32.968925" lon="130.83448805555557">
<ele>60</ele>
</trkpt>
<trkpt lat="32.96909194444444" lon="130.8343">
<ele>60</ele>
</trkpt>
<trkpt lat="32.969166944444446" lon="130.8342">
<ele>60</ele>
</trkpt>
<trkpt lat="32.96951694444444" lon="130.83373805555556">
<ele>61</ele>
</trkpt>
<trkpt lat="32.970175" lon="130.8329261111111">
<ele>60</ele>
</trkpt>
<trkpt lat="32.970375" lon="130.83265111111112">
<ele>60</ele>
</trkpt>
<trkpt lat="32.97059194444444" lon="130.83236305555556">
<ele>60</ele>
</trkpt>
<trkpt lat="32.970908888888886" lon="130.83206305555555">
<ele>60</ele>
</trkpt>
<trkpt lat="32.97125888888889" lon="130.83168805555556">
<ele>60</ele>
</trkpt>
<trkpt lat="32.97144194444444" lon="130.83158805555556">
<ele>60</ele>
</trkpt>
<trkpt lat="32.971518055555556" lon="130.83156">
<ele>60</ele>
</trkpt>
<trkpt lat="32.971518055555556" lon="130.83156">
<ele>60</ele>
</trkpt>
<trkpt lat="32.972025" lon="130.8313761111111">
<ele>61</ele>
</trkpt>
<trkpt lat="32.972233055555556" lon="130.83127611111112">
<ele>61</ele>
</trkpt>
<trkpt lat="32.972408055555555" lon="130.83105111111112">
<ele>59</ele>
</trkpt>
<trkpt lat="32.97285" lon="130.83041305555557">
<ele>57</ele>
</trkpt>
<trkpt lat="32.973058055555555" lon="130.83018805555557">
<ele>57</ele>
</trkpt>
<trkpt lat="32.97363305555555" lon="130.82958805555555">
<ele>58</ele>
</trkpt>
<trkpt lat="32.973733055555556" lon="130.82943805555556">
<ele>58</ele>
</trkpt>
<trkpt lat="32.973841944444445" lon="130.8292261111111">
<ele>58</ele>
</trkpt>
<trkpt lat="32.97408305555555" lon="130.82847611111112">
<ele>56</ele>
</trkpt>
<trkpt lat="32.974266944444445" lon="130.82828805555556">
<ele>57</ele>
</trkpt>
<trkpt lat="32.97454194444445" lon="130.82802611111111">
<ele>57</ele>
</trkpt>
<trkpt lat="32.97463305555556" lon="130.82790111111112">
<ele>56</ele>
</trkpt>
<trkpt lat="32.974666944444444" lon="130.82778805555554">
<ele>55</ele>
</trkpt>
<trkpt lat="32.97468305555556" lon="130.8277511111111">
<ele>55</ele>
</trkpt>
<trkpt lat="32.97493305555555" lon="130.82738805555556">
<ele>54</ele>
</trkpt>
<trkpt lat="32.97508305555556" lon="130.8271761111111">
<ele>53</ele>
</trkpt>
<trkpt lat="32.97515" lon="130.8270761111111">
<ele>53</ele>
</trkpt>
<trkpt lat="32.975233055555556" lon="130.82698805555555">
<ele>54</ele>
</trkpt>
<trkpt lat="32.97528305555556" lon="130.8269511111111">
<ele>54</ele>
</trkpt>
<trkpt lat="32.975366944444445" lon="130.8269261111111">
<ele>54</ele>
</trkpt>
<trkpt lat="32.975625" lon="130.82685111111113">
<ele>55</ele>
</trkpt>
<trkpt lat="32.975775" lon="130.82677611111112">
<ele>55</ele>
</trkpt>
<trkpt lat="32.976075" lon="130.82658805555556">
<ele>56</ele>
</trkpt>
<trkpt lat="32.97614194444444" lon="130.82653805555555">
<ele>55</ele>
</trkpt>
<trkpt lat="32.97679194444444" lon="130.8261511111111">
<ele>55</ele>
</trkpt>
<trkpt lat="32.97685" lon="130.82611305555557">
<ele>55</ele>
</trkpt>
<trkpt lat="32.976891944444446" lon="130.82608805555554">
<ele>55</ele>
</trkpt>
<trkpt lat="32.97696694444444" lon="130.8260261111111">
<ele>55</ele>
</trkpt>
<trkpt lat="32.977041944444444" lon="130.82597611111112">
<ele>55</ele>
</trkpt>
<trkpt lat="32.977308055555554" lon="130.82576305555557">
<ele>54</ele>
</trkpt>
<trkpt lat="32.977475" lon="130.82561305555555">
<ele>54</ele>
</trkpt>
<trkpt lat="32.9776" lon="130.82548805555555">
<ele>54</ele>
</trkpt>
<trkpt lat="32.97769111111111" lon="130.82528805555555">
<ele>53</ele>
</trkpt>
<trkpt lat="32.977775" lon="130.82523805555556">
<ele>53</ele>
</trkpt>
<trkpt lat="32.977941111111114" lon="130.82521305555557">
<ele>54</ele>
</trkpt>
<trkpt lat="32.97808305555556" lon="130.82437611111112">
<ele>52</ele>
</trkpt>
<trkpt lat="32.97809111111111" lon="130.82433805555556">
<ele>52</ele>
</trkpt>
<trkpt lat="32.97829111111111" lon="130.8236761111111">
<ele>50</ele>
</trkpt>
<trkpt lat="32.97835805555555" lon="130.8234261111111">
<ele>50</ele>
</trkpt>
<trkpt lat="32.97841611111111" lon="130.82313888888888">
<ele>50</ele>
</trkpt>
<trkpt lat="32.978433055555556" lon="130.8231011111111">
<ele>50</ele>
</trkpt>
<trkpt lat="32.97844111111111" lon="130.8230388888889">
<ele>50</ele>
</trkpt>
<trkpt lat="32.97849111111111" lon="130.82270111111112">
<ele>50</ele>
</trkpt>
<trkpt lat="32.97854111111111" lon="130.8224138888889">
<ele>50</ele>
</trkpt>
<trkpt lat="32.97855805555555" lon="130.82200111111112">
<ele>50</ele>
</trkpt>
<trkpt lat="32.97855805555555" lon="130.8219511111111">
<ele>51</ele>
</trkpt>
<trkpt lat="32.97851611111111" lon="130.8212511111111">
<ele>55</ele>
</trkpt>
<trkpt lat="32.97851611111111" lon="130.82118888888888">
<ele>55</ele>
</trkpt>
<trkpt lat="32.978475" lon="130.8208388888889">
<ele>56</ele>
</trkpt>
<trkpt lat="32.978425" lon="130.8201511111111">
<ele>57</ele>
</trkpt>
<trkpt lat="32.978433055555556" lon="130.81993888888888">
<ele>57</ele>
</trkpt>
<trkpt lat="32.97845" lon="130.81975111111112">
<ele>58</ele>
</trkpt>
<trkpt lat="32.97849111111111" lon="130.81952611111112">
<ele>58</ele>
</trkpt>
<trkpt lat="32.978566111111114" lon="130.81927611111112">
<ele>58</ele>
</trkpt>
<trkpt lat="32.978675" lon="130.8190138888889">
<ele>59</ele>
</trkpt>
<trkpt lat="32.97875" lon="130.8188638888889">
<ele>59</ele>
</trkpt>
<trkpt lat="32.978833055555555" lon="130.81871388888888">
<ele>60</ele>
</trkpt>
<trkpt lat="32.978875" lon="130.8186638888889">
<ele>60</ele>
</trkpt>
<trkpt lat="32.978975" lon="130.8185388888889">
<ele>60</ele>
</trkpt>
<trkpt lat="32.979573888888886" lon="130.81785194444444">
<ele>63</ele>
</trkpt>
<trkpt lat="32.979998888888886" lon="130.81740194444444">
<ele>64</ele>
</trkpt>
<trkpt lat="32.98020805555556" lon="130.81725194444445">
<ele>65</ele>
</trkpt>
<trkpt lat="32.98059888888889" lon="130.81697694444443">
<ele>66</ele>
</trkpt>
<trkpt lat="32.980783055555555" lon="130.8168388888889">
<ele>67</ele>
</trkpt>
<trkpt lat="32.981473888888885" lon="130.81633888888888">
<ele>68</ele>
</trkpt>
<trkpt lat="32.98166611111111" lon="130.81620194444446">
<ele>68</ele>
</trkpt>
<trkpt lat="32.98189888888889" lon="130.81602694444445">
<ele>69</ele>
</trkpt>
<trkpt lat="32.98209888888889" lon="130.81588888888888">
<ele>69</ele>
</trkpt>
<trkpt lat="32.98235694444445" lon="130.81570194444444">
<ele>69</ele>
</trkpt>
<trkpt lat="32.98245694444444" lon="130.81562694444443">
<ele>69</ele>
</trkpt>
<trkpt lat="32.98267388888889" lon="130.8154638888889">
<ele>70</ele>
</trkpt>
<trkpt lat="32.98285805555555" lon="130.8153388888889">
<ele>71</ele>
</trkpt>
<trkpt lat="32.98343194444445" lon="130.8149388888889">
<ele>72</ele>
</trkpt>
<trkpt lat="32.98354888888889" lon="130.81485194444446">
<ele>72</ele>
</trkpt>
<trkpt lat="32.98383194444445" lon="130.81462694444446">
<ele>72</ele>
</trkpt>
<trkpt lat="32.98451611111111" lon="130.8141388888889">
<ele>74</ele>
</trkpt>
<trkpt lat="32.984845" lon="130.8139138888889">
<ele>75</ele>
</trkpt>
    </trkseg>
  </trk>
</gpx>