<?xml version="1.0" encoding="UTF-8"?>
<gpx version="1.1"
     creator="KMLtoGPX"
     xmlns="http://www.topografix.com/GPX/1/1">
  <metadata>
    <name>Ryugatake Climb</name>
    <desc>龍ヶ岳クライム</desc>
    <bounds minlat="32.3888" minlon="130.36302111111112" maxlat="32.411675" maxlon="130.38003194444445"/>
  </metadata>
  <trk>
    <name>Ryugatake Climb</name>
    <trkseg>
<trkpt lat="32.3888" lon="130.37054805555556">
<ele>2</ele>
</trkpt>
<trkpt lat="32.389901944444446" lon="130.3708961111111">
<ele>7</ele>
</trkpt>
<trkpt lat="32.390005" lon="130.37088194444445">
<ele>7</ele>
</trkpt>
<trkpt lat="32.390005" lon="130.37088194444445">
<ele>7</ele>
</trkpt>
<trkpt lat="32.389901944444446" lon="130.3708961111111">
<ele>7</ele>
</trkpt>
<trkpt lat="32.38990305555556" lon="130.3707961111111">
<ele>4</ele>
</trkpt>
<trkpt lat="32.39003611111111" lon="130.3703338888889">
<ele>2</ele>
</trkpt>
<trkpt lat="32.390076944444445" lon="130.3701961111111">
<ele>1</ele>
</trkpt>
<trkpt lat="32.39011111111111" lon="130.3700211111111">
<ele>0</ele>
</trkpt>
<trkpt lat="32.39026111111111" lon="130.3693211111111">
<ele>4</ele>
</trkpt>
<trkpt lat="32.39029388888889" lon="130.36914611111112">
<ele>4</ele>
</trkpt>
<trkpt lat="32.39031888888889" lon="130.36893388888888">
<ele>5</ele>
</trkpt>
<trkpt lat="32.39035194444445" lon="130.36870888888888">
<ele>7</ele>
</trkpt>
<trkpt lat="32.39033611111111" lon="130.3683838888889">
<ele>7</ele>
</trkpt>
<trkpt lat="32.39031888888889" lon="130.3679588888889">
<ele>5</ele>
</trkpt>
<trkpt lat="32.39024388888889" lon="130.36712111111112">
<ele>8</ele>
</trkpt>
<trkpt lat="32.39006111111111" lon="130.3667461111111">
<ele>6</ele>
</trkpt>
<trkpt lat="32.38953611111111" lon="130.3658838888889">
<ele>5</ele>
</trkpt>
<trkpt lat="32.38954694444445" lon="130.36586111111112">
<ele>5</ele>
</trkpt>
<trkpt lat="32.38954694444445" lon="130.36586111111112">
<ele>5</ele>
</trkpt>
<trkpt lat="32.38981888888889" lon="130.3652711111111">
<ele>14</ele>
</trkpt>
<trkpt lat="32.39013611111111" lon="130.3648838888889">
<ele>13</ele>
</trkpt>
<trkpt lat="32.39032805555556" lon="130.3646961111111">
<ele>11</ele>
</trkpt>
<trkpt lat="32.39035305555556" lon="130.3645838888889">
<ele>13</ele>
</trkpt>
<trkpt lat="32.390343888888886" lon="130.36448388888888">
<ele>13</ele>
</trkpt>
<trkpt lat="32.390053055555555" lon="130.36404611111112">
<ele>13</ele>
</trkpt>
<trkpt lat="32.38999388888889" lon="130.36394611111112">
<ele>15</ele>
</trkpt>
<trkpt lat="32.39022888888889" lon="130.3637038888889">
<ele>21</ele>
</trkpt>
<trkpt lat="32.39022888888889" lon="130.3637038888889">
<ele>21</ele>
</trkpt>
<trkpt lat="32.39036888888889" lon="130.3635588888889">
<ele>25</ele>
</trkpt>
<trkpt lat="32.390678055555554" lon="130.3635088888889">
<ele>27</ele>
</trkpt>
<trkpt lat="32.39097805555556" lon="130.3635711111111">
<ele>25</ele>
</trkpt>
<trkpt lat="32.391128055555555" lon="130.3635211111111">
<ele>28</ele>
</trkpt>
<trkpt lat="32.39144388888889" lon="130.3634088888889">
<ele>37</ele>
</trkpt>
<trkpt lat="32.391618888888885" lon="130.3634211111111">
<ele>34</ele>
</trkpt>
<trkpt lat="32.391953055555554" lon="130.3635588888889">
<ele>33</ele>
</trkpt>
<trkpt lat="32.39201888888889" lon="130.3636838888889">
<ele>36</ele>
</trkpt>
<trkpt lat="32.39196888888889" lon="130.3637588888889">
<ele>33</ele>
</trkpt>
<trkpt lat="32.39174388888889" lon="130.36393388888888">
<ele>36</ele>
</trkpt>
<trkpt lat="32.39166111111111" lon="130.3640961111111">
<ele>41</ele>
</trkpt>
<trkpt lat="32.39166888888889" lon="130.3642088888889">
<ele>47</ele>
</trkpt>
<trkpt lat="32.39183611111111" lon="130.3644211111111">
<ele>47</ele>
</trkpt>
<trkpt lat="32.39186888888889" lon="130.3645961111111">
<ele>45</ele>
</trkpt>
<trkpt lat="32.391826944444446" lon="130.3647711111111">
<ele>46</ele>
</trkpt>
<trkpt lat="32.391576944444445" lon="130.36515888888889">
<ele>51</ele>
</trkpt>
<trkpt lat="32.391576944444445" lon="130.3652711111111">
<ele>52</ele>
</trkpt>
<trkpt lat="32.39163611111111" lon="130.3653588888889">
<ele>51</ele>
</trkpt>
<trkpt lat="32.391711111111114" lon="130.3653588888889">
<ele>51</ele>
</trkpt>
<trkpt lat="32.39190305555555" lon="130.36509611111111">
<ele>57</ele>
</trkpt>
<trkpt lat="32.39203611111111" lon="130.3648088888889">
<ele>58</ele>
</trkpt>
<trkpt lat="32.39221888888889" lon="130.36428388888888">
<ele>64</ele>
</trkpt>
<trkpt lat="32.39234388888889" lon="130.36407111111112">
<ele>66</ele>
</trkpt>
<trkpt lat="32.39264388888889" lon="130.3637961111111">
<ele>63</ele>
</trkpt>
<trkpt lat="32.39289388888889" lon="130.3637338888889">
<ele>68</ele>
</trkpt>
<trkpt lat="32.393011111111115" lon="130.3637838888889">
<ele>79</ele>
</trkpt>
<trkpt lat="32.393011111111115" lon="130.3638838888889">
<ele>79</ele>
</trkpt>
<trkpt lat="32.39292694444445" lon="130.36394611111112">
<ele>75</ele>
</trkpt>
<trkpt lat="32.39279388888889" lon="130.3639838888889">
<ele>72</ele>
</trkpt>
<trkpt lat="32.39263611111111" lon="130.36407111111112">
<ele>72</ele>
</trkpt>
<trkpt lat="32.39252694444444" lon="130.3642088888889">
<ele>73</ele>
</trkpt>
<trkpt lat="32.39247694444445" lon="130.36429611111112">
<ele>77</ele>
</trkpt>
<trkpt lat="32.39251111111111" lon="130.3644088888889">
<ele>81</ele>
</trkpt>
<trkpt lat="32.392626944444444" lon="130.3644088888889">
<ele>84</ele>
</trkpt>
<trkpt lat="32.39292694444445" lon="130.3642461111111">
<ele>92</ele>
</trkpt>
<trkpt lat="32.393143888888886" lon="130.3642338888889">
<ele>96</ele>
</trkpt>
<trkpt lat="32.39339388888889" lon="130.36429611111112">
<ele>107</ele>
</trkpt>
<trkpt lat="32.39353611111111" lon="130.36425888888888">
<ele>106</ele>
</trkpt>
<trkpt lat="32.39385194444444" lon="130.3639838888889">
<ele>117</ele>
</trkpt>
<trkpt lat="32.39397694444445" lon="130.3640088888889">
<ele>112</ele>
</trkpt>
<trkpt lat="32.39407694444444" lon="130.3639838888889">
<ele>117</ele>
</trkpt>
<trkpt lat="32.39446888888889" lon="130.3637838888889">
<ele>124</ele>
</trkpt>
<trkpt lat="32.39458611111111" lon="130.36380888888888">
<ele>127</ele>
</trkpt>
<trkpt lat="32.39471" lon="130.36403305555555">
<ele>124</ele>
</trkpt>
<trkpt lat="32.394801944444445" lon="130.36404611111112">
<ele>123</ele>
</trkpt>
<trkpt lat="32.39490194444444" lon="130.36398305555556">
<ele>124</ele>
</trkpt>
<trkpt lat="32.39511" lon="130.3636711111111">
<ele>133</ele>
</trkpt>
<trkpt lat="32.395235" lon="130.36327111111112">
<ele>141</ele>
</trkpt>
<trkpt lat="32.395451944444446" lon="130.3630711111111">
<ele>145</ele>
</trkpt>
<trkpt lat="32.39561888888889" lon="130.36302111111112">
<ele>145</ele>
</trkpt>
<trkpt lat="32.39594388888889" lon="130.3631961111111">
<ele>158</ele>
</trkpt>
<trkpt lat="32.39609388888889" lon="130.36338305555554">
<ele>155</ele>
</trkpt>
<trkpt lat="32.396101944444446" lon="130.3635711111111">
<ele>154</ele>
</trkpt>
<trkpt lat="32.396085" lon="130.3640211111111">
<ele>156</ele>
</trkpt>
<trkpt lat="32.39612694444445" lon="130.36417111111112">
<ele>166</ele>
</trkpt>
<trkpt lat="32.396276944444445" lon="130.3642211111111">
<ele>166</ele>
</trkpt>
<trkpt lat="32.396568055555555" lon="130.36418305555554">
<ele>164</ele>
</trkpt>
<trkpt lat="32.396768055555555" lon="130.36405805555555">
<ele>167</ele>
</trkpt>
<trkpt lat="32.39696" lon="130.3640211111111">
<ele>172</ele>
</trkpt>
<trkpt lat="32.397151944444445" lon="130.36393305555555">
<ele>174</ele>
</trkpt>
<trkpt lat="32.39731" lon="130.36394611111112">
<ele>173</ele>
</trkpt>
<trkpt lat="32.39734305555555" lon="130.36407111111112">
<ele>178</ele>
</trkpt>
<trkpt lat="32.397285" lon="130.36498305555557">
<ele>177</ele>
</trkpt>
<trkpt lat="32.397376944444446" lon="130.36517111111112">
<ele>178</ele>
</trkpt>
<trkpt lat="32.39756" lon="130.36540805555555">
<ele>185</ele>
</trkpt>
<trkpt lat="32.39754305555556" lon="130.3655711111111">
<ele>174</ele>
</trkpt>
<trkpt lat="32.39731" lon="130.36599611111112">
<ele>183</ele>
</trkpt>
<trkpt lat="32.39731805555556" lon="130.36609611111112">
<ele>187</ele>
</trkpt>
<trkpt lat="32.397385" lon="130.36615805555556">
<ele>185</ele>
</trkpt>
<trkpt lat="32.397535" lon="130.36613305555557">
<ele>185</ele>
</trkpt>
<trkpt lat="32.39766" lon="130.3660711111111">
<ele>189</ele>
</trkpt>
<trkpt lat="32.397785" lon="130.36613305555557">
<ele>191</ele>
</trkpt>
<trkpt lat="32.397818055555554" lon="130.36620805555555">
<ele>191</ele>
</trkpt>
<trkpt lat="32.39772611111111" lon="130.3665711111111">
<ele>196</ele>
</trkpt>
<trkpt lat="32.397643055555555" lon="130.36689611111112">
<ele>193</ele>
</trkpt>
<trkpt lat="32.397835" lon="130.36705805555556">
<ele>196</ele>
</trkpt>
<trkpt lat="32.39797611111111" lon="130.367295">
<ele>195</ele>
</trkpt>
<trkpt lat="32.39811" lon="130.36738305555556">
<ele>195</ele>
</trkpt>
<trkpt lat="32.39834305555556" lon="130.367395">
<ele>198</ele>
</trkpt>
<trkpt lat="32.398435" lon="130.36757">
<ele>199</ele>
</trkpt>
<trkpt lat="32.398468055555554" lon="130.367845">
<ele>205</ele>
</trkpt>
<trkpt lat="32.39856805555556" lon="130.36792">
<ele>202</ele>
</trkpt>
<trkpt lat="32.398718055555555" lon="130.36787">
<ele>206</ele>
</trkpt>
<trkpt lat="32.39901" lon="130.36788305555555">
<ele>207</ele>
</trkpt>
<trkpt lat="32.39908388888889" lon="130.36797">
<ele>204</ele>
</trkpt>
<trkpt lat="32.39920111111111" lon="130.36823305555555">
<ele>201</ele>
</trkpt>
<trkpt lat="32.39928388888889" lon="130.36832">
<ele>202</ele>
</trkpt>
<trkpt lat="32.39958388888889" lon="130.36848305555554">
<ele>208</ele>
</trkpt>
<trkpt lat="32.39970888888889" lon="130.36873194444445">
<ele>206</ele>
</trkpt>
<trkpt lat="32.39987611111111" lon="130.36890805555555">
<ele>204</ele>
</trkpt>
<trkpt lat="32.39990111111111" lon="130.36903305555555">
<ele>209</ele>
</trkpt>
<trkpt lat="32.39991805555555" lon="130.36927">
<ele>211</ele>
</trkpt>
<trkpt lat="32.40014305555555" lon="130.36957">
<ele>213</ele>
</trkpt>
<trkpt lat="32.40025888888889" lon="130.369945">
<ele>212</ele>
</trkpt>
<trkpt lat="32.40038388888889" lon="130.37023194444444">
<ele>215</ele>
</trkpt>
<trkpt lat="32.40054305555555" lon="130.37032">
<ele>217</ele>
</trkpt>
<trkpt lat="32.400933888888886" lon="130.37050805555555">
<ele>218</ele>
</trkpt>
<trkpt lat="32.40112611111111" lon="130.370745">
<ele>228</ele>
</trkpt>
<trkpt lat="32.40125111111111" lon="130.371095">
<ele>227</ele>
</trkpt>
<trkpt lat="32.40145111111111" lon="130.37123194444445">
<ele>224</ele>
</trkpt>
<trkpt lat="32.40180111111111" lon="130.37138194444444">
<ele>227</ele>
</trkpt>
<trkpt lat="32.40195888888889" lon="130.37157">
<ele>226</ele>
</trkpt>
<trkpt lat="32.40205111111111" lon="130.37182">
<ele>235</ele>
</trkpt>
<trkpt lat="32.40209194444444" lon="130.37218194444443">
<ele>228</ele>
</trkpt>
<trkpt lat="32.402191944444446" lon="130.37230694444443">
<ele>225</ele>
</trkpt>
<trkpt lat="32.40229194444444" lon="130.37237">
<ele>224</ele>
</trkpt>
<trkpt lat="32.40246694444444" lon="130.3724938888889">
<ele>227</ele>
</trkpt>
<trkpt lat="32.40269194444444" lon="130.37246888888887">
<ele>229</ele>
</trkpt>
<trkpt lat="32.402925" lon="130.3723688888889">
<ele>228</ele>
</trkpt>
<trkpt lat="32.4033" lon="130.3723938888889">
<ele>228</ele>
</trkpt>
<trkpt lat="32.403616944444444" lon="130.37220694444446">
<ele>225</ele>
</trkpt>
<trkpt lat="32.40379194444444" lon="130.3720188888889">
<ele>225</ele>
</trkpt>
<trkpt lat="32.40400888888889" lon="130.37200694444445">
<ele>224</ele>
</trkpt>
<trkpt lat="32.40419194444444" lon="130.37209388888888">
<ele>224</ele>
</trkpt>
<trkpt lat="32.4044" lon="130.37221888888888">
<ele>222</ele>
</trkpt>
<trkpt lat="32.4045" lon="130.37243194444446">
<ele>221</ele>
</trkpt>
<trkpt lat="32.40460888888889" lon="130.37253194444443">
<ele>222</ele>
</trkpt>
<trkpt lat="32.404725" lon="130.3724938888889">
<ele>223</ele>
</trkpt>
<trkpt lat="32.40484194444444" lon="130.37250694444444">
<ele>221</ele>
</trkpt>
<trkpt lat="32.40490888888889" lon="130.37260694444444">
<ele>213</ele>
</trkpt>
<trkpt lat="32.40490888888889" lon="130.37270694444445">
<ele>213</ele>
</trkpt>
<trkpt lat="32.40493388888889" lon="130.37279388888888">
<ele>211</ele>
</trkpt>
<trkpt lat="32.404983888888886" lon="130.3728438888889">
<ele>211</ele>
</trkpt>
<trkpt lat="32.4051" lon="130.3728438888889">
<ele>207</ele>
</trkpt>
<trkpt lat="32.40518388888889" lon="130.37280694444445">
<ele>207</ele>
</trkpt>
<trkpt lat="32.40525888888889" lon="130.37270694444445">
<ele>206</ele>
</trkpt>
<trkpt lat="32.40535888888889" lon="130.37260694444444">
<ele>204</ele>
</trkpt>
<trkpt lat="32.40564194444445" lon="130.37256888888888">
<ele>205</ele>
</trkpt>
<trkpt lat="32.405766944444444" lon="130.37263194444444">
<ele>205</ele>
</trkpt>
<trkpt lat="32.405875" lon="130.37270694444445">
<ele>206</ele>
</trkpt>
<trkpt lat="32.40591694444444" lon="130.37276888888888">
<ele>205</ele>
</trkpt>
<trkpt lat="32.40595805555556" lon="130.37280694444445">
<ele>206</ele>
</trkpt>
<trkpt lat="32.406441944444445" lon="130.3728188888889">
<ele>207</ele>
</trkpt>
<trkpt lat="32.406525" lon="130.37279388888888">
<ele>208</ele>
</trkpt>
<trkpt lat="32.40655" lon="130.37270694444445">
<ele>206</ele>
</trkpt>
<trkpt lat="32.406625" lon="130.37255694444445">
<ele>205</ele>
</trkpt>
<trkpt lat="32.40675" lon="130.3725188888889">
<ele>204</ele>
</trkpt>
<trkpt lat="32.40691694444445" lon="130.3725188888889">
<ele>203</ele>
</trkpt>
<trkpt lat="32.407291944444445" lon="130.37254388888888">
<ele>200</ele>
</trkpt>
<trkpt lat="32.40735" lon="130.37256888888888">
<ele>196</ele>
</trkpt>
<trkpt lat="32.40739194444444" lon="130.37270694444445">
<ele>197</ele>
</trkpt>
<trkpt lat="32.407375" lon="130.37324388888888">
<ele>202</ele>
</trkpt>
<trkpt lat="32.40740805555556" lon="130.3733188888889">
<ele>202</ele>
</trkpt>
<trkpt lat="32.407466944444444" lon="130.37333194444443">
<ele>203</ele>
</trkpt>
<trkpt lat="32.407525" lon="130.3733188888889">
<ele>203</ele>
</trkpt>
<trkpt lat="32.407675" lon="130.37318194444444">
<ele>206</ele>
</trkpt>
<trkpt lat="32.407775" lon="130.37313194444445">
<ele>206</ele>
</trkpt>
<trkpt lat="32.40815" lon="130.37313194444445">
<ele>206</ele>
</trkpt>
<trkpt lat="32.408183055555554" lon="130.37313194444445">
<ele>206</ele>
</trkpt>
<trkpt lat="32.40821694444445" lon="130.37318194444444">
<ele>206</ele>
</trkpt>
<trkpt lat="32.40824194444444" lon="130.37323194444446">
<ele>205</ele>
</trkpt>
<trkpt lat="32.40825" lon="130.37350694444444">
<ele>208</ele>
</trkpt>
<trkpt lat="32.4083" lon="130.3737188888889">
<ele>215</ele>
</trkpt>
<trkpt lat="32.4085" lon="130.37369388888888">
<ele>217</ele>
</trkpt>
<trkpt lat="32.408625" lon="130.3737188888889">
<ele>215</ele>
</trkpt>
<trkpt lat="32.40870805555556" lon="130.37381888888888">
<ele>213</ele>
</trkpt>
<trkpt lat="32.40875805555556" lon="130.37408194444444">
<ele>217</ele>
</trkpt>
<trkpt lat="32.408766944444444" lon="130.37430694444444">
<ele>225</ele>
</trkpt>
<trkpt lat="32.4088" lon="130.37450694444445">
<ele>223</ele>
</trkpt>
<trkpt lat="32.408875" lon="130.37468194444443">
<ele>226</ele>
</trkpt>
<trkpt lat="32.40886694444445" lon="130.37513194444443">
<ele>234</ele>
</trkpt>
<trkpt lat="32.40884194444445" lon="130.37529388888888">
<ele>235</ele>
</trkpt>
<trkpt lat="32.408875" lon="130.37539388888888">
<ele>236</ele>
</trkpt>
<trkpt lat="32.4089" lon="130.37540694444445">
<ele>236</ele>
</trkpt>
<trkpt lat="32.408975" lon="130.37540694444445">
<ele>236</ele>
</trkpt>
<trkpt lat="32.40915805555556" lon="130.3752438888889">
<ele>242</ele>
</trkpt>
<trkpt lat="32.409216944444445" lon="130.3752188888889">
<ele>241</ele>
</trkpt>
<trkpt lat="32.409275" lon="130.37523194444444">
<ele>244</ele>
</trkpt>
<trkpt lat="32.409325" lon="130.37529388888888">
<ele>244</ele>
</trkpt>
<trkpt lat="32.40935" lon="130.37551888888888">
<ele>244</ele>
</trkpt>
<trkpt lat="32.409391944444444" lon="130.37563194444445">
<ele>245</ele>
</trkpt>
<trkpt lat="32.409458055555554" lon="130.37573194444445">
<ele>245</ele>
</trkpt>
<trkpt lat="32.40955805555556" lon="130.3757938888889">
<ele>247</ele>
</trkpt>
<trkpt lat="32.410333055555554" lon="130.3760938888889">
<ele>254</ele>
</trkpt>
<trkpt lat="32.410383055555556" lon="130.37610694444444">
<ele>253</ele>
</trkpt>
<trkpt lat="32.410425" lon="130.37608194444445">
<ele>253</ele>
</trkpt>
<trkpt lat="32.410741944444446" lon="130.37584388888888">
<ele>261</ele>
</trkpt>
<trkpt lat="32.41083305555556" lon="130.3758311111111">
<ele>263</ele>
</trkpt>
<trkpt lat="32.41090805555555" lon="130.3758811111111">
<ele>265</ele>
</trkpt>
<trkpt lat="32.41133305555555" lon="130.3766688888889">
<ele>268</ele>
</trkpt>
<trkpt lat="32.411675" lon="130.37730611111112">
<ele>271</ele>
</trkpt>
<trkpt lat="32.411566944444445" lon="130.37730611111112">
<ele>273</ele>
</trkpt>
<trkpt lat="32.41150805555556" lon="130.3772561111111">
<ele>276</ele>
</trkpt>
<trkpt lat="32.411433055555555" lon="130.3771688888889">
<ele>277</ele>
</trkpt>
<trkpt lat="32.41129194444444" lon="130.3769438888889">
<ele>274</ele>
</trkpt>
<trkpt lat="32.411233055555556" lon="130.3769188888889">
<ele>274</ele>
</trkpt>
<trkpt lat="32.411183055555554" lon="130.3769438888889">
<ele>274</ele>
</trkpt>
<trkpt lat="32.41085" lon="130.3770561111111">
<ele>274</ele>
</trkpt>
<trkpt lat="32.410783055555555" lon="130.3770561111111">
<ele>274</ele>
</trkpt>
<trkpt lat="32.41048305555555" lon="130.37699388888888">
<ele>281</ele>
</trkpt>
<trkpt lat="32.410175" lon="130.37686888888888">
<ele>284</ele>
</trkpt>
<trkpt lat="32.41005805555555" lon="130.37675694444445">
<ele>284</ele>
</trkpt>
<trkpt lat="32.409933055555555" lon="130.37670694444444">
<ele>286</ele>
</trkpt>
<trkpt lat="32.40983305555555" lon="130.37670694444444">
<ele>286</ele>
</trkpt>
<trkpt lat="32.40965805555555" lon="130.3767938888889">
<ele>294</ele>
</trkpt>
<trkpt lat="32.409508055555555" lon="130.37695694444446">
<ele>295</ele>
</trkpt>
<trkpt lat="32.40940805555555" lon="130.3771438888889">
<ele>298</ele>
</trkpt>
<trkpt lat="32.40940805555555" lon="130.37721888888888">
<ele>298</ele>
</trkpt>
<trkpt lat="32.40943305555555" lon="130.37725694444444">
<ele>302</ele>
</trkpt>
<trkpt lat="32.40949194444445" lon="130.3772688888889">
<ele>305</ele>
</trkpt>
<trkpt lat="32.40955" lon="130.3772438888889">
<ele>305</ele>
</trkpt>
<trkpt lat="32.409616944444444" lon="130.37715694444444">
<ele>304</ele>
</trkpt>
<trkpt lat="32.40969194444445" lon="130.37710694444445">
<ele>303</ele>
</trkpt>
<trkpt lat="32.409775" lon="130.37705694444443">
<ele>303</ele>
</trkpt>
<trkpt lat="32.40983305555555" lon="130.37706888888889">
<ele>304</ele>
</trkpt>
<trkpt lat="32.409875" lon="130.37710694444445">
<ele>304</ele>
</trkpt>
<trkpt lat="32.409891944444446" lon="130.3772688888889">
<ele>310</ele>
</trkpt>
<trkpt lat="32.4099" lon="130.37741888888888">
<ele>312</ele>
</trkpt>
<trkpt lat="32.410075" lon="130.3779561111111">
<ele>315</ele>
</trkpt>
<trkpt lat="32.41011694444445" lon="130.3780311111111">
<ele>314</ele>
</trkpt>
<trkpt lat="32.41018305555556" lon="130.3780561111111">
<ele>314</ele>
</trkpt>
<trkpt lat="32.410275" lon="130.3780561111111">
<ele>315</ele>
</trkpt>
<trkpt lat="32.41036694444445" lon="130.3780311111111">
<ele>317</ele>
</trkpt>
<trkpt lat="32.41056694444445" lon="130.3779311111111">
<ele>315</ele>
</trkpt>
<trkpt lat="32.41064194444444" lon="130.3779311111111">
<ele>315</ele>
</trkpt>
<trkpt lat="32.410725" lon="130.3779561111111">
<ele>315</ele>
</trkpt>
<trkpt lat="32.410783055555555" lon="130.3780311111111">
<ele>320</ele>
</trkpt>
<trkpt lat="32.4108" lon="130.37813111111112">
<ele>324</ele>
</trkpt>
<trkpt lat="32.41076694444445" lon="130.3781811111111">
<ele>324</ele>
</trkpt>
<trkpt lat="32.410741944444446" lon="130.3782061111111">
<ele>324</ele>
</trkpt>
<trkpt lat="32.41064194444444" lon="130.37823111111112">
<ele>328</ele>
</trkpt>
<trkpt lat="32.41048305555555" lon="130.37823111111112">
<ele>326</ele>
</trkpt>
<trkpt lat="32.41034194444445" lon="130.3782938888889">
<ele>325</ele>
</trkpt>
<trkpt lat="32.41021694444444" lon="130.3783811111111">
<ele>323</ele>
</trkpt>
<trkpt lat="32.410041944444444" lon="130.37858111111112">
<ele>330</ele>
</trkpt>
<trkpt lat="32.409975" lon="130.3785938888889">
<ele>333</ele>
</trkpt>
<trkpt lat="32.4099" lon="130.37855611111112">
<ele>333</ele>
</trkpt>
<trkpt lat="32.40985805555555" lon="130.3784811111111">
<ele>335</ele>
</trkpt>
<trkpt lat="32.4098" lon="130.3782561111111">
<ele>333</ele>
</trkpt>
<trkpt lat="32.40971694444445" lon="130.3780811111111">
<ele>334</ele>
</trkpt>
<trkpt lat="32.40963305555555" lon="130.37799388888888">
<ele>334</ele>
</trkpt>
<trkpt lat="32.40943305555555" lon="130.37790694444445">
<ele>336</ele>
</trkpt>
<trkpt lat="32.40915" lon="130.37790694444445">
<ele>344</ele>
</trkpt>
<trkpt lat="32.409025" lon="130.37789388888888">
<ele>345</ele>
</trkpt>
<trkpt lat="32.40885" lon="130.3777438888889">
<ele>344</ele>
</trkpt>
<trkpt lat="32.408766944444444" lon="130.37766888888888">
<ele>347</ele>
</trkpt>
<trkpt lat="32.40868305555556" lon="130.37764388888888">
<ele>345</ele>
</trkpt>
<trkpt lat="32.4086" lon="130.37765694444445">
<ele>348</ele>
</trkpt>
<trkpt lat="32.408541944444444" lon="130.37773194444443">
<ele>353</ele>
</trkpt>
<trkpt lat="32.408541944444444" lon="130.37783194444444">
<ele>356</ele>
</trkpt>
<trkpt lat="32.4086" lon="130.3779438888889">
<ele>355</ele>
</trkpt>
<trkpt lat="32.40886694444445" lon="130.37818194444444">
<ele>355</ele>
</trkpt>
<trkpt lat="32.40916694444444" lon="130.3783938888889">
<ele>362</ele>
</trkpt>
<trkpt lat="32.409216944444445" lon="130.3784938888889">
<ele>365</ele>
</trkpt>
<trkpt lat="32.409216944444445" lon="130.37858194444445">
<ele>368</ele>
</trkpt>
<trkpt lat="32.40916694444444" lon="130.37865694444446">
<ele>368</ele>
</trkpt>
<trkpt lat="32.409108055555556" lon="130.37868194444445">
<ele>375</ele>
</trkpt>
<trkpt lat="32.408791944444445" lon="130.3786438888889">
<ele>372</ele>
</trkpt>
<trkpt lat="32.40868388888889" lon="130.37868194444445">
<ele>376</ele>
</trkpt>
<trkpt lat="32.408525" lon="130.37878194444446">
<ele>378</ele>
</trkpt>
<trkpt lat="32.408125" lon="130.3792188888889">
<ele>387</ele>
</trkpt>
<trkpt lat="32.407783888888886" lon="130.3795438888889">
<ele>395</ele>
</trkpt>
<trkpt lat="32.407516944444446" lon="130.37979388888888">
<ele>401</ele>
</trkpt>
<trkpt lat="32.407275" lon="130.3798938888889">
<ele>405</ele>
</trkpt>
<trkpt lat="32.407066944444445" lon="130.3798938888889">
<ele>408</ele>
</trkpt>
<trkpt lat="32.40676694444444" lon="130.38001888888888">
<ele>415</ele>
</trkpt>
<trkpt lat="32.406666944444446" lon="130.38003194444445">
<ele>415</ele>
</trkpt>
<trkpt lat="32.40653388888889" lon="130.38001888888888">
<ele>419</ele>
</trkpt>
<trkpt lat="32.40640888888889" lon="130.37995694444444">
<ele>422</ele>
</trkpt>
<trkpt lat="32.4063" lon="130.3798688888889">
<ele>425</ele>
</trkpt>
<trkpt lat="32.406225" lon="130.3797688888889">
<ele>427</ele>
</trkpt>
<trkpt lat="32.4062" lon="130.3796188888889">
<ele>430</ele>
</trkpt>
<trkpt lat="32.406125" lon="130.37953194444444">
<ele>432</ele>
</trkpt>
<trkpt lat="32.406058888888886" lon="130.3794938888889">
<ele>433</ele>
</trkpt>
<trkpt lat="32.4059" lon="130.37948194444445">
<ele>435</ele>
</trkpt>
<trkpt lat="32.40574194444444" lon="130.37953194444444">
<ele>436</ele>
</trkpt>
<trkpt lat="32.405625" lon="130.37953194444444">
<ele>438</ele>
</trkpt>
<trkpt lat="32.40551694444444" lon="130.37956888888888">
<ele>440</ele>
</trkpt>
<trkpt lat="32.40535" lon="130.37965694444443">
<ele>442</ele>
</trkpt>
<trkpt lat="32.40509194444444" lon="130.37979388888888">
<ele>446</ele>
</trkpt>
<trkpt lat="32.40495888888889" lon="130.3798938888889">
<ele>447</ele>
</trkpt>
<trkpt lat="32.40487611111111" lon="130.37993194444445">
<ele>447</ele>
</trkpt>
<trkpt lat="32.40480888888889" lon="130.37995694444444">
<ele>447</ele>
</trkpt>
<trkpt lat="32.40473388888889" lon="130.37993194444445">
<ele>448</ele>
</trkpt>
<trkpt lat="32.40466694444444" lon="130.37988194444443">
<ele>448</ele>
</trkpt>
<trkpt lat="32.40460888888889" lon="130.37973194444444">
<ele>449</ele>
</trkpt>
<trkpt lat="32.40447611111111" lon="130.3789688888889">
<ele>444</ele>
</trkpt>
<trkpt lat="32.40439194444444" lon="130.3786438888889">
<ele>443</ele>
</trkpt>
<trkpt lat="32.404333888888885" lon="130.37854388888888">
<ele>441</ele>
</trkpt>
<trkpt lat="32.40428388888889" lon="130.3784938888889">
<ele>443</ele>
</trkpt>
<trkpt lat="32.40412611111111" lon="130.37843194444446">
<ele>443</ele>
</trkpt>
<trkpt lat="32.40396694444444" lon="130.3782938888889">
<ele>446</ele>
</trkpt>
<trkpt lat="32.403866944444445" lon="130.3781938888889">
<ele>447</ele>
</trkpt>
<trkpt lat="32.40375888888889" lon="130.37800694444445">
<ele>448</ele>
</trkpt>
<trkpt lat="32.40352611111111" lon="130.3777438888889">
<ele>445</ele>
</trkpt>
<trkpt lat="32.40342611111111" lon="130.37773194444443">
<ele>446</ele>
</trkpt>
<trkpt lat="32.40331694444444" lon="130.37775694444446">
<ele>446</ele>
</trkpt>
<trkpt lat="32.40318388888889" lon="130.3778438888889">
<ele>447</ele>
</trkpt>
<trkpt lat="32.403041944444446" lon="130.37800694444445">
<ele>451</ele>
</trkpt>
<trkpt lat="32.40293388888889" lon="130.37825694444444">
<ele>454</ele>
</trkpt>
<trkpt lat="32.40293388888889" lon="130.37825694444444">
<ele>454</ele>
</trkpt>
    </trkseg>
  </trk>
</gpx>