<?xml version="1.0" encoding="UTF-8"?>
<gpx version="1.1"
     creator="KMLtoGPX"
     xmlns="http://www.topografix.com/GPX/1/1">
  <metadata>
    <name>Route around Hamahiga Island</name>
    <desc>浜比嘉島一周ルート</desc>
    <bounds minlat="26.31111" minlon="127.9284" maxlat="26.3403" maxlon="127.96689"/>
  </metadata>
  <trk>
    <name>Route around Hamahiga Island</name>
    <trkseg>
<trkpt lat="26.33196" lon="127.9284">
<ele>4.08247566223145</ele>
</trkpt>
<trkpt lat="26.33198" lon="127.92841">
<ele>4.01413078639412</ele>
</trkpt>
<trkpt lat="26.33202" lon="127.92843">
<ele>3.87744104020637</ele>
</trkpt>
<trkpt lat="26.33206" lon="127.92846">
<ele>3.72702498107165</ele>
</trkpt>
<trkpt lat="26.33211" lon="127.92851">
<ele>3.51732933167907</ele>
</trkpt>
<trkpt lat="26.33213" lon="127.92855">
<ele>3.38890144424765</ele>
</trkpt>
<trkpt lat="26.33215" lon="127.92858">
<ele>3.28413284743107</ele>
</trkpt>
<trkpt lat="26.33216" lon="127.92862">
<ele>3.16759279139321</ele>
</trkpt>
<trkpt lat="26.33217" lon="127.92866">
<ele>3.05105274463526</ele>
</trkpt>
<trkpt lat="26.33218" lon="127.92878">
<ele>2.71272074375809</ele>
</trkpt>
<trkpt lat="26.33219" lon="127.92881">
<ele>2.6229191660646</ele>
</trkpt>
<trkpt lat="26.3322" lon="127.92895">
<ele>2.22864284390083</ele>
</trkpt>
<trkpt lat="26.3322" lon="127.92898">
<ele>2.1444192634806</ele>
</trkpt>
<trkpt lat="26.3322" lon="127.92905">
<ele>1.94789757582009</ele>
</trkpt>
<trkpt lat="26.3322" lon="127.92908">
<ele>1.86367399535996</ele>
</trkpt>
<trkpt lat="26.33218" lon="127.92911">
<ele>1.7589054273659</ele>
</trkpt>
<trkpt lat="26.33217" lon="127.92914">
<ele>1.66910384290103</ele>
</trkpt>
<trkpt lat="26.33216" lon="127.92916">
<ele>1.60488991804765</ele>
</trkpt>
<trkpt lat="26.33214" lon="127.92917">
<ele>1.53654505862688</ele>
</trkpt>
<trkpt lat="26.33211" lon="127.92919">
<ele>1.42750786132929</ele>
</trkpt>
<trkpt lat="26.33207" lon="127.9292">
<ele>1.29975990401427</ele>
</trkpt>
<trkpt lat="26.33199" lon="127.92921">
<ele>1.04893402712941</ele>
</trkpt>
<trkpt lat="26.33198" lon="127.92921">
<ele>1.01777780824563</ele>
</trkpt>
<trkpt lat="26.33173" lon="127.92921">
<ele>0.238872350460234</ele>
</trkpt>
<trkpt lat="26.33173" lon="127.92963">
<ele>-0.186665151988161</ele>
</trkpt>
<trkpt lat="26.33173" lon="127.9299">
<ele>-0.184055922778715</ele>
</trkpt>
<trkpt lat="26.33173" lon="127.92996">
<ele>-0.183476094065428</ele>
</trkpt>
<trkpt lat="26.33172" lon="127.92998">
<ele>-0.183255057189787</ele>
</trkpt>
<trkpt lat="26.33171" lon="127.93001">
<ele>-0.182945942407138</ele>
</trkpt>
<trkpt lat="26.3317" lon="127.93005">
<ele>-0.182544788479705</ele>
</trkpt>
<trkpt lat="26.33169" lon="127.93007">
<ele>-0.18232375156071</ele>
</trkpt>
<trkpt lat="26.33168" lon="127.93009">
<ele>-0.182102714627423</ele>
</trkpt>
<trkpt lat="26.33167" lon="127.93011">
<ele>-0.181881677679569</ele>
</trkpt>
<trkpt lat="26.33164" lon="127.93014">
<ele>-0.181448590184765</ele>
</trkpt>
<trkpt lat="26.33165" lon="127.93045">
<ele>-0.178450887296657</ele>
</trkpt>
<trkpt lat="26.33167" lon="127.93108">
<ele>-0.172358904998107</ele>
</trkpt>
<trkpt lat="26.33168" lon="127.93113">
<ele>-0.171863955542044</ele>
</trkpt>
<trkpt lat="26.33171" lon="127.93152">
<ele>-0.0722086839507447</ele>
</trkpt>
<trkpt lat="26.33173" lon="127.93174">
<ele>0.12253925791589</ele>
</trkpt>
<trkpt lat="26.33177" lon="127.93198">
<ele>0.337503768307512</ele>
</trkpt>
<trkpt lat="26.33182" lon="127.93228">
<ele>0.606209305894136</ele>
</trkpt>
<trkpt lat="26.33186" lon="127.93249">
<ele>0.795253049039503</ele>
</trkpt>
<trkpt lat="26.3319" lon="127.93266">
<ele>0.950000175995904</ele>
</trkpt>
<trkpt lat="26.33195" lon="127.93288">
<ele>1.14983227450597</ele>
</trkpt>
<trkpt lat="26.33211" lon="127.9335">
<ele>1.73918582274705</ele>
</trkpt>
<trkpt lat="26.33228" lon="127.93401">
<ele>2.54896728184967</ele>
</trkpt>
<trkpt lat="26.33255" lon="127.93473">
<ele>3.71031890305781</ele>
</trkpt>
<trkpt lat="26.33255" lon="127.93474">
<ele>3.72521066592832</ele>
</trkpt>
<trkpt lat="26.33269" lon="127.93503">
<ele>4.21514542378945</ele>
</trkpt>
<trkpt lat="26.33292" lon="127.93549">
<ele>4.61408097035147</ele>
</trkpt>
<trkpt lat="26.33303" lon="127.93569">
<ele>4.7048101682388</ele>
</trkpt>
<trkpt lat="26.33322" lon="127.93604">
<ele>4.86302906829228</ele>
</trkpt>
<trkpt lat="26.3335" lon="127.93647">
<ele>5.06845583243777</ele>
</trkpt>
<trkpt lat="26.33369" lon="127.93674">
<ele>5.20110717289956</ele>
</trkpt>
<trkpt lat="26.33415" lon="127.93736">
<ele>5.85426847646985</ele>
</trkpt>
<trkpt lat="26.3344" lon="127.93769">
<ele>6.27284065634461</ele>
</trkpt>
<trkpt lat="26.33458" lon="127.93794">
<ele>6.58352357405589</ele>
</trkpt>
<trkpt lat="26.33504" lon="127.93855">
<ele>7.35577703813008</ele>
</trkpt>
<trkpt lat="26.33509" lon="127.93862">
<ele>7.44249961198432</ele>
</trkpt>
<trkpt lat="26.33562" lon="127.93935">
<ele>7.79493940819487</ele>
</trkpt>
<trkpt lat="26.33566" lon="127.93941">
<ele>7.79641801464998</ele>
</trkpt>
<trkpt lat="26.33585" lon="127.93966">
<ele>7.80289713151212</ele>
</trkpt>
<trkpt lat="26.33608" lon="127.93997">
<ele>7.81085240389187</ele>
</trkpt>
<trkpt lat="26.33616" lon="127.94007">
<ele>7.81350159968053</ele>
</trkpt>
<trkpt lat="26.33618" lon="127.94009">
<ele>7.81409349179963</ele>
</trkpt>
<trkpt lat="26.33665" lon="127.94071">
<ele>5.17116657914451</ele>
</trkpt>
<trkpt lat="26.33688" lon="127.94102">
<ele>3.35990769656272</ele>
</trkpt>
<trkpt lat="26.33722" lon="127.94148">
<ele>0.676338203769153</ele>
</trkpt>
<trkpt lat="26.33762" lon="127.94201">
<ele>0.143153397582644</ele>
</trkpt>
<trkpt lat="26.33784" lon="127.94231">
<ele>0.102099881103855</ele>
</trkpt>
<trkpt lat="26.33818" lon="127.94275">
<ele>0.0405789500608077</ele>
</trkpt>
<trkpt lat="26.33841" lon="127.94308">
<ele>0.0543503552940202</ele>
</trkpt>
<trkpt lat="26.33854" lon="127.94327">
<ele>0.426184232118965</ele>
</trkpt>
<trkpt lat="26.3387" lon="127.94353">
<ele>0.916909185422878</ele>
</trkpt>
<trkpt lat="26.33884" lon="127.94376">
<ele>1.34951635824714</ele>
</trkpt>
<trkpt lat="26.33909" lon="127.9442">
<ele>2.1602534691701</ele>
</trkpt>
<trkpt lat="26.33918" lon="127.9444">
<ele>2.5086824921984</ele>
</trkpt>
<trkpt lat="26.33928" lon="127.9446">
<ele>2.86517597724799</ele>
</trkpt>
<trkpt lat="26.33938" lon="127.9448">
<ele>3.10323228739857</ele>
</trkpt>
<trkpt lat="26.33955" lon="127.94519">
<ele>3.45315314042028</ele>
</trkpt>
<trkpt lat="26.33962" lon="127.94537">
<ele>3.61149905204665</ele>
</trkpt>
<trkpt lat="26.33966" lon="127.9455">
<ele>3.72245106516815</ele>
</trkpt>
<trkpt lat="26.33974" lon="127.94572">
<ele>3.91406593228902</ele>
</trkpt>
<trkpt lat="26.33982" lon="127.94597">
<ele>4.12834219645135</ele>
</trkpt>
<trkpt lat="26.33989" lon="127.9462">
<ele>4.32441983851257</ele>
</trkpt>
<trkpt lat="26.33999" lon="127.94664">
<ele>4.62430949210843</ele>
</trkpt>
<trkpt lat="26.34005" lon="127.94689">
<ele>4.24168661840165</ele>
</trkpt>
<trkpt lat="26.34011" lon="127.94719">
<ele>3.78721033740028</ele>
</trkpt>
<trkpt lat="26.34015" lon="127.9474">
<ele>3.46977224968846</ele>
</trkpt>
<trkpt lat="26.34018" lon="127.94758">
<ele>3.19904996900575</ele>
</trkpt>
<trkpt lat="26.3402" lon="127.94773">
<ele>2.97479560606187</ele>
</trkpt>
<trkpt lat="26.34022" lon="127.9479">
<ele>2.72124446103416</ele>
</trkpt>
<trkpt lat="26.34024" lon="127.9481">
<ele>2.4236436414339</ele>
</trkpt>
<trkpt lat="26.34027" lon="127.9484">
<ele>1.97724250678485</ele>
</trkpt>
<trkpt lat="26.3403" lon="127.94868">
<ele>1.56022667779694</ele>
</trkpt>
<trkpt lat="26.3403" lon="127.94896">
<ele>1.1461283211739</ele>
</trkpt>
<trkpt lat="26.3403" lon="127.94962">
<ele>1.50288540690287</ele>
</trkpt>
<trkpt lat="26.34028" lon="127.9509">
<ele>2.36505090274469</ele>
</trkpt>
<trkpt lat="26.34028" lon="127.95124">
<ele>2.5117297518711</ele>
</trkpt>
<trkpt lat="26.34027" lon="127.952">
<ele>2.83963509268071</ele>
</trkpt>
<trkpt lat="26.34026" lon="127.9537">
<ele>3.09340153672016</ele>
</trkpt>
<trkpt lat="26.34026" lon="127.95404">
<ele>2.96913698252972</ele>
</trkpt>
<trkpt lat="26.34026" lon="127.95422">
<ele>2.90621745097414</ele>
</trkpt>
<trkpt lat="26.34025" lon="127.95446">
<ele>3.00659843062375</ele>
</trkpt>
<trkpt lat="26.34017" lon="127.95447">
<ele>3.04392915207749</ele>
</trkpt>
<trkpt lat="26.33994" lon="127.95452">
<ele>3.15260736517244</ele>
</trkpt>
<trkpt lat="26.33965" lon="127.95459">
<ele>3.2902246811298</ele>
</trkpt>
<trkpt lat="26.3394" lon="127.95465">
<ele>3.40882977147533</ele>
</trkpt>
<trkpt lat="26.33863" lon="127.95484">
<ele>3.77423843004041</ele>
</trkpt>
<trkpt lat="26.33784" lon="127.95499">
<ele>4.13640686851014</ele>
</trkpt>
<trkpt lat="26.33774" lon="127.95501">
<ele>4.18232230584894</ele>
</trkpt>
<trkpt lat="26.33726" lon="127.95513">
<ele>4.4046575658928</ele>
</trkpt>
<trkpt lat="26.33703" lon="127.95517">
<ele>4.50985728860307</ele>
</trkpt>
<trkpt lat="26.3369" lon="127.9552">
<ele>4.51540774649875</ele>
</trkpt>
<trkpt lat="26.33681" lon="127.95522">
<ele>4.32118533296351</ele>
</trkpt>
<trkpt lat="26.33674" lon="127.95524">
<ele>4.16823383474143</ele>
</trkpt>
<trkpt lat="26.33664" lon="127.95526">
<ele>3.95322288436198</ele>
</trkpt>
<trkpt lat="26.33646" lon="127.95529">
<ele>3.5680674972077</ele>
</trkpt>
<trkpt lat="26.33641" lon="127.9553">
<ele>3.46056201830576</ele>
</trkpt>
<trkpt lat="26.3361" lon="127.95535">
<ele>2.79770332439243</ele>
</trkpt>
<trkpt lat="26.33572" lon="127.95542">
<ele>1.98261280597798</ele>
</trkpt>
<trkpt lat="26.33539" lon="127.95549">
<ele>1.27168430375704</ele>
</trkpt>
<trkpt lat="26.33535" lon="127.9555">
<ele>1.18492238524624</ele>
</trkpt>
<trkpt lat="26.33522" lon="127.95553">
<ele>0.903955183128709</ele>
</trkpt>
<trkpt lat="26.33504" lon="127.95556">
<ele>0.518799766962875</ele>
</trkpt>
<trkpt lat="26.33486" lon="127.9556">
<ele>0.130354794065478</ele>
</trkpt>
<trkpt lat="26.33471" lon="127.95563">
<ele>0</ele>
</trkpt>
<trkpt lat="26.33469" lon="127.95564">
<ele>0</ele>
</trkpt>
<trkpt lat="26.33398" lon="127.95578">
<ele>0</ele>
</trkpt>
<trkpt lat="26.33395" lon="127.95578">
<ele>0</ele>
</trkpt>
<trkpt lat="26.3338" lon="127.95582">
<ele>0</ele>
</trkpt>
<trkpt lat="26.33363" lon="127.95585">
<ele>0</ele>
</trkpt>
<trkpt lat="26.33345" lon="127.95589">
<ele>0</ele>
</trkpt>
<trkpt lat="26.3332" lon="127.95595">
<ele>0</ele>
</trkpt>
<trkpt lat="26.33292" lon="127.95601">
<ele>0</ele>
</trkpt>
<trkpt lat="26.33274" lon="127.95604">
<ele>0</ele>
</trkpt>
<trkpt lat="26.33257" lon="127.95608">
<ele>0</ele>
</trkpt>
<trkpt lat="26.33239" lon="127.95612">
<ele>0</ele>
</trkpt>
<trkpt lat="26.33235" lon="127.95613">
<ele>0</ele>
</trkpt>
<trkpt lat="26.33221" lon="127.95616">
<ele>0</ele>
</trkpt>
<trkpt lat="26.33204" lon="127.9562">
<ele>0</ele>
</trkpt>
<trkpt lat="26.33186" lon="127.95624">
<ele>0</ele>
</trkpt>
<trkpt lat="26.33168" lon="127.95628">
<ele>0</ele>
</trkpt>
<trkpt lat="26.33151" lon="127.95632">
<ele>0</ele>
</trkpt>
<trkpt lat="26.33133" lon="127.95636">
<ele>0</ele>
</trkpt>
<trkpt lat="26.33125" lon="127.95638">
<ele>0</ele>
</trkpt>
<trkpt lat="26.33045" lon="127.95657">
<ele>0</ele>
</trkpt>
<trkpt lat="26.33028" lon="127.95662">
<ele>0</ele>
</trkpt>
<trkpt lat="26.33021" lon="127.95663">
<ele>0</ele>
</trkpt>
<trkpt lat="26.32905" lon="127.95692">
<ele>0</ele>
</trkpt>
<trkpt lat="26.32885" lon="127.95697">
<ele>0</ele>
</trkpt>
<trkpt lat="26.32828" lon="127.95712">
<ele>0</ele>
</trkpt>
<trkpt lat="26.32821" lon="127.95714">
<ele>0.0335658811511834</ele>
</trkpt>
<trkpt lat="26.32804" lon="127.95718">
<ele>1.60595358862122</ele>
</trkpt>
<trkpt lat="26.32786" lon="127.95723">
<ele>3.28487567484166</ele>
</trkpt>
<trkpt lat="26.32771" lon="127.95727">
<ele>4.68074000399548</ele>
</trkpt>
<trkpt lat="26.32768" lon="127.95758">
<ele>7.22287262950262</ele>
</trkpt>
<trkpt lat="26.32765" lon="127.95798">
<ele>10.495567860193</ele>
</trkpt>
<trkpt lat="26.32764" lon="127.95804">
<ele>10.9930778697814</ele>
</trkpt>
<trkpt lat="26.32762" lon="127.95811">
<ele>11.5918279496403</ele>
</trkpt>
<trkpt lat="26.3276" lon="127.95817">
<ele>12.1134382173236</ele>
</trkpt>
<trkpt lat="26.32756" lon="127.95823">
<ele>12.7219783270584</ele>
</trkpt>
<trkpt lat="26.3273" lon="127.95856">
<ele>13.5546378911723</ele>
</trkpt>
<trkpt lat="26.32714" lon="127.95876">
<ele>12.6537484691515</ele>
</trkpt>
<trkpt lat="26.32701" lon="127.95891">
<ele>11.9527060381194</ele>
</trkpt>
<trkpt lat="26.327" lon="127.95892">
<ele>11.9023864958313</ele>
</trkpt>
<trkpt lat="26.32688" lon="127.95904">
<ele>11.2985518398594</ele>
</trkpt>
<trkpt lat="26.32682" lon="127.95909">
<ele>11.0180658551028</ele>
</trkpt>
<trkpt lat="26.32674" lon="127.95917">
<ele>10.6155091748176</ele>
</trkpt>
<trkpt lat="26.32667" lon="127.95923">
<ele>10.2848736520335</ele>
</trkpt>
<trkpt lat="26.3266" lon="127.9593">
<ele>9.93263636409988</ele>
</trkpt>
<trkpt lat="26.32652" lon="127.95939">
<ele>9.5067934131787</ele>
</trkpt>
<trkpt lat="26.32641" lon="127.95955">
<ele>8.82888032313492</ele>
</trkpt>
<trkpt lat="26.32628" lon="127.95975">
<ele>7.99819469227652</ele>
</trkpt>
<trkpt lat="26.32627" lon="127.95977">
<ele>7.92114784432831</ele>
</trkpt>
<trkpt lat="26.32619" lon="127.95995">
<ele>7.765642966134</ele>
</trkpt>
<trkpt lat="26.3261" lon="127.96013">
<ele>7.99230621696604</ele>
</trkpt>
<trkpt lat="26.32602" lon="127.9603">
<ele>8.20348058896198</ele>
</trkpt>
<trkpt lat="26.32593" lon="127.96048">
<ele>8.430144091592</ele>
</trkpt>
<trkpt lat="26.3259" lon="127.96054">
<ele>8.50569862209727</ele>
</trkpt>
<trkpt lat="26.32569" lon="127.96102">
<ele>9.09322531740905</ele>
</trkpt>
<trkpt lat="26.3256" lon="127.9612">
<ele>9.31988930881696</ele>
</trkpt>
<trkpt lat="26.32558" lon="127.96124">
<ele>9.37025910278938</ele>
</trkpt>
<trkpt lat="26.32553" lon="127.96138">
<ele>9.5360794137567</ele>
</trkpt>
<trkpt lat="26.32546" lon="127.96156">
<ele>9.75194723716422</ele>
</trkpt>
<trkpt lat="26.32543" lon="127.96164">
<ele>9.84735872145795</ele>
</trkpt>
<trkpt lat="26.32526" lon="127.96226">
<ele>13.2781283621361</ele>
</trkpt>
<trkpt lat="26.32503" lon="127.96306">
<ele>18.8821549909921</ele>
</trkpt>
<trkpt lat="26.32502" lon="127.96309">
<ele>19.0956217618807</ele>
</trkpt>
<trkpt lat="26.32499" lon="127.96318">
<ele>19.7360221711765</ele>
</trkpt>
<trkpt lat="26.32494" lon="127.96327">
<ele>20.4416172349172</ele>
</trkpt>
<trkpt lat="26.32493" lon="127.96327">
<ele>20.5156744178816</ele>
</trkpt>
<trkpt lat="26.32491" lon="127.9633">
<ele>20.7647156461983</ele>
</trkpt>
<trkpt lat="26.32489" lon="127.96333">
<ele>21.0137569020309</ele>
</trkpt>
<trkpt lat="26.32486" lon="127.96336">
<ele>21.3128286249238</ele>
</trkpt>
<trkpt lat="26.32469" lon="127.96352">
<ele>21.89192938488</ele>
</trkpt>
<trkpt lat="26.32438" lon="127.96378">
<ele>19.9332386877716</ele>
</trkpt>
<trkpt lat="26.32415" lon="127.96406">
<ele>18.2122807119452</ele>
</trkpt>
<trkpt lat="26.32403" lon="127.96429">
<ele>17.0050691605831</ele>
</trkpt>
<trkpt lat="26.32396" lon="127.96447">
<ele>16.1145582375577</ele>
</trkpt>
<trkpt lat="26.32394" lon="127.96452">
<ele>15.8660711450751</ele>
</trkpt>
<trkpt lat="26.32388" lon="127.96473">
<ele>14.8653774185848</ele>
</trkpt>
<trkpt lat="26.32386" lon="127.96483">
<ele>14.4000879273257</ele>
</trkpt>
<trkpt lat="26.32383" lon="127.96506">
<ele>13.2658730985728</ele>
</trkpt>
<trkpt lat="26.32383" lon="127.96507">
<ele>13.2148013777969</ele>
</trkpt>
<trkpt lat="26.32382" lon="127.96512">
<ele>12.9532293550317</ele>
</trkpt>
<trkpt lat="26.32381" lon="127.96536">
<ele>11.7261983901125</ele>
</trkpt>
<trkpt lat="26.3238" lon="127.96548">
<ele>11.1107227711592</ele>
</trkpt>
<trkpt lat="26.32378" lon="127.96556">
<ele>10.6867177703659</ele>
</trkpt>
<trkpt lat="26.32377" lon="127.96562">
<ele>10.3750905356096</ele>
</trkpt>
<trkpt lat="26.32376" lon="127.96569">
<ele>10.013124023372</ele>
</trkpt>
<trkpt lat="26.32372" lon="127.96578">
<ele>9.50061576564794</ele>
</trkpt>
<trkpt lat="26.32368" lon="127.96587">
<ele>8.98810736688313</ele>
</trkpt>
<trkpt lat="26.32367" lon="127.96588">
<ele>8.91181694528577</ele>
</trkpt>
<trkpt lat="26.32362" lon="127.96595">
<ele>8.45563097627341</ele>
</trkpt>
<trkpt lat="26.32356" lon="127.96602">
<ele>7.96223796246999</ele>
</trkpt>
<trkpt lat="26.32349" lon="127.96608">
<ele>7.46095643553883</ele>
</trkpt>
<trkpt lat="26.32346" lon="127.96609">
<ele>7.28343054356062</ele>
</trkpt>
<trkpt lat="26.32342" lon="127.96612">
<ele>7.00981502329333</ele>
</trkpt>
<trkpt lat="26.32333" lon="127.96617">
<ele>6.43940072581637</ele>
</trkpt>
<trkpt lat="26.32323" lon="127.96622">
<ele>5.81779097760727</ele>
</trkpt>
<trkpt lat="26.32322" lon="127.96623">
<ele>5.74150042655458</ele>
</trkpt>
<trkpt lat="26.32291" lon="127.96637">
<ele>4.83027950088512</ele>
</trkpt>
<trkpt lat="26.32234" lon="127.96663">
<ele>4.74413637916589</ele>
</trkpt>
<trkpt lat="26.32193" lon="127.96683">
<ele>4.68153373259757</ele>
</trkpt>
<trkpt lat="26.32178" lon="127.96689">
<ele>4.65924615923653</ele>
</trkpt>
<trkpt lat="26.32177" lon="127.96683">
<ele>4.65156005944867</ele>
</trkpt>
<trkpt lat="26.32177" lon="127.96682">
<ele>4.65030040455517</ele>
</trkpt>
<trkpt lat="26.32175" lon="127.96651">
<ele>6.60415267154724</ele>
</trkpt>
<trkpt lat="26.32173" lon="127.96636">
<ele>7.95018345075538</ele>
</trkpt>
<trkpt lat="26.32172" lon="127.96627">
<ele>8.7551545132475</ele>
</trkpt>
<trkpt lat="26.32172" lon="127.96626">
<ele>8.84392355861878</ele>
</trkpt>
<trkpt lat="26.32172" lon="127.96624">
<ele>9.02146164923527</ele>
</trkpt>
<trkpt lat="26.32173" lon="127.96621">
<ele>9.30540272520273</ele>
</trkpt>
<trkpt lat="26.32175" lon="127.96607">
<ele>10.5636875013015</ele>
</trkpt>
<trkpt lat="26.32175" lon="127.96601">
<ele>11.0963016361854</ele>
</trkpt>
<trkpt lat="26.32171" lon="127.96555">
<ele>15.198643186314</ele>
</trkpt>
<trkpt lat="26.3217" lon="127.96546">
<ele>16.0036143849507</ele>
</trkpt>
<trkpt lat="26.32171" lon="127.96524">
<ele>17.9590162984754</ele>
</trkpt>
<trkpt lat="26.32172" lon="127.96511">
<ele>19.1172104103341</ele>
</trkpt>
<trkpt lat="26.32173" lon="127.96508">
<ele>19.4011514861833</ele>
</trkpt>
<trkpt lat="26.32174" lon="127.96505">
<ele>19.6850925407391</ele>
</trkpt>
<trkpt lat="26.32174" lon="127.96504">
<ele>19.7738615707378</ele>
</trkpt>
<trkpt lat="26.32175" lon="127.96501">
<ele>20.0578026038929</ele>
</trkpt>
<trkpt lat="26.32179" lon="127.96494">
<ele>19.876040889905</ele>
</trkpt>
<trkpt lat="26.32183" lon="127.96487">
<ele>19.3812402006769</ele>
</trkpt>
<trkpt lat="26.32184" lon="127.96485">
<ele>19.2447021883592</ele>
</trkpt>
<trkpt lat="26.32186" lon="127.96483">
<ele>19.0663570711701</ele>
</trkpt>
<trkpt lat="26.32188" lon="127.9648">
<ele>18.8435901455066</ele>
</trkpt>
<trkpt lat="26.32195" lon="127.96473">
<ele>18.2193823885003</ele>
</trkpt>
<trkpt lat="26.32184" lon="127.96438">
<ele>16.0066009649137</ele>
</trkpt>
<trkpt lat="26.32178" lon="127.96424">
<ele>15.0811586003575</ele>
</trkpt>
<trkpt lat="26.32165" lon="127.96394">
<ele>13.0939838641704</ele>
</trkpt>
<trkpt lat="26.32156" lon="127.96373">
<ele>11.7058183316313</ele>
</trkpt>
<trkpt lat="26.32151" lon="127.96372">
<ele>11.3692672953394</ele>
</trkpt>
<trkpt lat="26.32147" lon="127.9637">
<ele>11.0786395531517</ele>
</trkpt>
<trkpt lat="26.32139" lon="127.96368">
<ele>10.5354138507004</ele>
</trkpt>
<trkpt lat="26.32131" lon="127.96364">
<ele>9.95415825789517</ele>
</trkpt>
<trkpt lat="26.32103" lon="127.96349">
<ele>7.89452002436868</ele>
</trkpt>
<trkpt lat="26.32095" lon="127.96344">
<ele>7.55717185192171</ele>
</trkpt>
<trkpt lat="26.32091" lon="127.96341">
<ele>7.5246774509782</ele>
</trkpt>
<trkpt lat="26.32091" lon="127.9634">
<ele>7.51861209412967</ele>
</trkpt>
<trkpt lat="26.32084" lon="127.96332">
<ele>7.45097973639276</ele>
</trkpt>
<trkpt lat="26.32079" lon="127.96326">
<ele>7.40141288034783</ele>
</trkpt>
<trkpt lat="26.32075" lon="127.9632">
<ele>7.35614500755378</ele>
</trkpt>
<trkpt lat="26.32066" lon="127.96312">
<ele>7.27853237366742</ele>
</trkpt>
<trkpt lat="26.32054" lon="127.963">
<ele>7.16980941222982</ele>
</trkpt>
<trkpt lat="26.32033" lon="127.9628">
<ele>6.98355007225364</ele>
</trkpt>
<trkpt lat="26.32023" lon="127.96272">
<ele>6.90057763866601</ele>
</trkpt>
<trkpt lat="26.32009" lon="127.96263">
<ele>6.791680543613</ele>
</trkpt>
<trkpt lat="26.31989" lon="127.96248">
<ele>6.62920814227627</ele>
</trkpt>
<trkpt lat="26.31984" lon="127.96246">
<ele>6.59343609060343</ele>
</trkpt>
<trkpt lat="26.31979" lon="127.96244">
<ele>6.55766403738416</ele>
</trkpt>
<trkpt lat="26.31973" lon="127.96244">
<ele>6.51728117938564</ele>
</trkpt>
<trkpt lat="26.31963" lon="127.96243">
<ele>6.44970366539494</ele>
</trkpt>
<trkpt lat="26.31923" lon="127.9624">
<ele>6.04783578381697</ele>
</trkpt>
<trkpt lat="26.31901" lon="127.96238">
<ele>5.81212062352267</ele>
</trkpt>
<trkpt lat="26.31897" lon="127.96237">
<ele>5.76833577777774</ele>
</trkpt>
<trkpt lat="26.31893" lon="127.96235">
<ele>5.72148554540046</ele>
</trkpt>
<trkpt lat="26.31891" lon="127.96233">
<ele>5.6927354537604</ele>
</trkpt>
<trkpt lat="26.31888" lon="127.9623">
<ele>5.64961031224311</ele>
</trkpt>
<trkpt lat="26.31887" lon="127.96227">
<ele>5.61882838567333</ele>
</trkpt>
<trkpt lat="26.31883" lon="127.96215">
<ele>5.49570065623354</ele>
</trkpt>
<trkpt lat="26.31881" lon="127.96208">
<ele>5.42503206066818</ele>
</trkpt>
<trkpt lat="26.31879" lon="127.96204">
<ele>5.38101050419871</ele>
</trkpt>
<trkpt lat="26.31878" lon="127.96203">
<ele>5.36663545106432</ele>
</trkpt>
<trkpt lat="26.31875" lon="127.96199">
<ele>5.31655496338199</ele>
</trkpt>
<trkpt lat="26.3187" lon="127.96194">
<ele>5.24467968143924</ele>
</trkpt>
<trkpt lat="26.31862" lon="127.96187">
<ele>5.13588654858752</ele>
</trkpt>
<trkpt lat="26.31844" lon="127.96167">
<ele>4.86387435153252</ele>
</trkpt>
<trkpt lat="26.3184" lon="127.96162">
<ele>4.79953318529765</ele>
</trkpt>
<trkpt lat="26.31829" lon="127.96149">
<ele>4.62792568588005</ele>
</trkpt>
<trkpt lat="26.31809" lon="127.96127">
<ele>4.22478348804827</ele>
</trkpt>
<trkpt lat="26.31792" lon="127.9611">
<ele>3.89316757513266</ele>
</trkpt>
<trkpt lat="26.31766" lon="127.96083">
<ele>3.37715623296785</ele>
</trkpt>
<trkpt lat="26.31749" lon="127.96064">
<ele>3.027516092923</ele>
</trkpt>
<trkpt lat="26.31729" lon="127.96042">
<ele>2.61943233439941</ele>
</trkpt>
<trkpt lat="26.31694" lon="127.96008">
<ele>2.17191572006682</ele>
</trkpt>
<trkpt lat="26.31681" lon="127.95992">
<ele>2.50768275118119</ele>
</trkpt>
<trkpt lat="26.31672" lon="127.9598">
<ele>2.75101341666531</ele>
</trkpt>
<trkpt lat="26.31658" lon="127.95961">
<ele>3.13353586694009</ele>
</trkpt>
<trkpt lat="26.31655" lon="127.95958">
<ele>3.20338114207711</ele>
</trkpt>
<trkpt lat="26.3165" lon="127.95954">
<ele>3.30998615171348</ele>
</trkpt>
<trkpt lat="26.31643" lon="127.9595">
<ele>3.44615974703192</ele>
</trkpt>
<trkpt lat="26.31626" lon="127.95942">
<ele>3.7655187281491</ele>
</trkpt>
<trkpt lat="26.31608" lon="127.95933">
<ele>4.10696985943825</ele>
</trkpt>
<trkpt lat="26.31598" lon="127.95927">
<ele>4.30358242909204</ele>
</trkpt>
<trkpt lat="26.31591" lon="127.95922">
<ele>4.44756050124327</ele>
</trkpt>
<trkpt lat="26.31579" lon="127.95914">
<ele>4.65897151479451</ele>
</trkpt>
<trkpt lat="26.31575" lon="127.95912">
<ele>4.72456130527999</ele>
</trkpt>
<trkpt lat="26.31568" lon="127.9591">
<ele>4.83262324187396</ele>
</trkpt>
<trkpt lat="26.31566" lon="127.95909">
<ele>4.86541814147923</ele>
</trkpt>
<trkpt lat="26.31562" lon="127.95909">
<ele>4.92521724246891</ele>
</trkpt>
<trkpt lat="26.31554" lon="127.95908">
<ele>5.04557193606621</ele>
</trkpt>
<trkpt lat="26.31548" lon="127.95909">
<ele>5.13627679038733</ele>
</trkpt>
<trkpt lat="26.31532" lon="127.9591">
<ele>5.97825987876719</ele>
</trkpt>
<trkpt lat="26.31508" lon="127.95906">
<ele>8.64379913734923</ele>
</trkpt>
<trkpt lat="26.31485" lon="127.95903">
<ele>11.1873303098436</ele>
</trkpt>
<trkpt lat="26.31472" lon="127.95899">
<ele>12.6690269318625</ele>
</trkpt>
<trkpt lat="26.31461" lon="127.95896">
<ele>13.9131382031638</ele>
</trkpt>
<trkpt lat="26.3145" lon="127.95891">
<ele>15.218732845262</ele>
</trkpt>
<trkpt lat="26.3143" lon="127.95882">
<ele>17.5891451973722</ele>
</trkpt>
<trkpt lat="26.31421" lon="127.95909">
<ele>20.425323396047</ele>
</trkpt>
<trkpt lat="26.31418" lon="127.95918">
<ele>20.1506902553646</ele>
</trkpt>
<trkpt lat="26.31414" lon="127.95931">
<ele>19.757544535816</ele>
</trkpt>
<trkpt lat="26.31406" lon="127.95966">
<ele>18.7241320520224</ele>
</trkpt>
<trkpt lat="26.31405" lon="127.95973">
<ele>18.5212910674776</ele>
</trkpt>
<trkpt lat="26.31383" lon="127.95975">
<ele>17.8203073868089</ele>
</trkpt>
<trkpt lat="26.31365" lon="127.9598">
<ele>17.2310507285679</ele>
</trkpt>
<trkpt lat="26.31347" lon="127.95985">
<ele>16.6417940305549</ele>
</trkpt>
<trkpt lat="26.3133" lon="127.9599">
<ele>16.0832898710742</ele>
</trkpt>
<trkpt lat="26.3131" lon="127.95996">
<ele>15.4253553330781</ele>
</trkpt>
<trkpt lat="26.31297" lon="127.96">
<ele>14.9969419538163</ele>
</trkpt>
<trkpt lat="26.31294" lon="127.96001">
<ele>14.8974663978836</ele>
</trkpt>
<trkpt lat="26.3129" lon="127.96001">
<ele>14.8797266795765</ele>
</trkpt>
<trkpt lat="26.31288" lon="127.96001">
<ele>14.8801093359025</ele>
</trkpt>
<trkpt lat="26.31286" lon="127.96">
<ele>14.8805290488161</ele>
</trkpt>
<trkpt lat="26.31283" lon="127.95997">
<ele>14.8813017427431</ele>
</trkpt>
<trkpt lat="26.31275" lon="127.95989">
<ele>14.8833622603095</ele>
</trkpt>
<trkpt lat="26.31283" lon="127.95997">
<ele>14.8854227778759</ele>
</trkpt>
<trkpt lat="26.31286" lon="127.96">
<ele>14.886195471803</ele>
</trkpt>
<trkpt lat="26.31288" lon="127.96001">
<ele>14.8866151847166</ele>
</trkpt>
<trkpt lat="26.3129" lon="127.96001">
<ele>14.8869978410426</ele>
</trkpt>
<trkpt lat="26.31294" lon="127.96001">
<ele>14.8877631536978</ele>
</trkpt>
<trkpt lat="26.31297" lon="127.96">
<ele>14.888362479338</ele>
</trkpt>
<trkpt lat="26.3131" lon="127.95996">
<ele>14.8909436071374</ele>
</trkpt>
<trkpt lat="26.3133" lon="127.9599">
<ele>14.8949075662676</ele>
</trkpt>
<trkpt lat="26.31347" lon="127.95985">
<ele>14.8982724719449</ele>
</trkpt>
<trkpt lat="26.31365" lon="127.9598">
<ele>14.9018226571582</ele>
</trkpt>
<trkpt lat="26.31383" lon="127.95975">
<ele>14.9053728421318</ele>
</trkpt>
<trkpt lat="26.31405" lon="127.95973">
<ele>14.909596166035</ele>
</trkpt>
<trkpt lat="26.31406" lon="127.95966">
<ele>14.9108182532279</ele>
</trkpt>
<trkpt lat="26.31414" lon="127.95931">
<ele>13.2374050769008</ele>
</trkpt>
<trkpt lat="26.31418" lon="127.95918">
<ele>12.5133412980709</ele>
</trkpt>
<trkpt lat="26.31421" lon="127.95909">
<ele>12.0075443384453</ele>
</trkpt>
<trkpt lat="26.3143" lon="127.95882">
<ele>10.4901541454205</ele>
</trkpt>
<trkpt lat="26.31423" lon="127.95877">
<ele>10.0032546999653</ele>
</trkpt>
<trkpt lat="26.31408" lon="127.95868">
<ele>9.00591020557437</ele>
</trkpt>
<trkpt lat="26.31383" lon="127.95855">
<ele>7.39114718402287</ele>
</trkpt>
<trkpt lat="26.31375" lon="127.9585">
<ele>6.85413535842118</ele>
</trkpt>
<trkpt lat="26.31367" lon="127.95843">
<ele>6.25826439825691</ele>
</trkpt>
<trkpt lat="26.31355" lon="127.95831">
<ele>5.76997263600173</ele>
</trkpt>
<trkpt lat="26.3134" lon="127.95817">
<ele>5.65772453811827</ele>
</trkpt>
<trkpt lat="26.31339" lon="127.95816">
<ele>5.65001534863286</ele>
</trkpt>
<trkpt lat="26.31327" lon="127.95804">
<ele>5.55750505214518</ele>
</trkpt>
<trkpt lat="26.31311" lon="127.95788">
<ele>5.43415792505291</ele>
</trkpt>
<trkpt lat="26.31299" lon="127.95777">
<ele>5.34502026577988</ele>
</trkpt>
<trkpt lat="26.31296" lon="127.95775">
<ele>5.32497778577988</ele>
</trkpt>
<trkpt lat="26.31289" lon="127.95769">
<ele>5.27432329678239</ele>
</trkpt>
<trkpt lat="26.31281" lon="127.95764">
<ele>5.22174200648822</ele>
</trkpt>
<trkpt lat="26.31268" lon="127.95756">
<ele>5.13661215475049</ele>
</trkpt>
<trkpt lat="26.31238" lon="127.95739">
<ele>4.94370428523836</ele>
</trkpt>
<trkpt lat="26.31227" lon="127.95732">
<ele>4.8710861407331</ele>
</trkpt>
<trkpt lat="26.3122" lon="127.95724">
<ele>4.82847395615632</ele>
</trkpt>
<trkpt lat="26.31214" lon="127.95718">
<ele>4.82147623153858</ele>
</trkpt>
<trkpt lat="26.3121" lon="127.95716">
<ele>4.81767520406131</ele>
</trkpt>
<trkpt lat="26.31209" lon="127.95716">
<ele>4.81680884663761</ele>
</trkpt>
<trkpt lat="26.31202" lon="127.95714">
<ele>4.81054651534321</ele>
</trkpt>
<trkpt lat="26.31188" lon="127.95711">
<ele>4.7981933938004</ele>
</trkpt>
<trkpt lat="26.31175" lon="127.95711">
<ele>4.78693074773018</ele>
</trkpt>
<trkpt lat="26.31173" lon="127.95712">
<ele>4.78503023302902</ele>
</trkpt>
<trkpt lat="26.31161" lon="127.95712">
<ele>4.7746339445592</ele>
</trkpt>
<trkpt lat="26.31155" lon="127.95713">
<ele>4.76937748565966</ele>
</trkpt>
<trkpt lat="26.31151" lon="127.95713">
<ele>4.76591205623701</ele>
</trkpt>
<trkpt lat="26.31143" lon="127.95712">
<ele>4.75893735466402</ele>
</trkpt>
<trkpt lat="26.31133" lon="127.95711">
<ele>4.75023866723087</ele>
</trkpt>
<trkpt lat="26.31129" lon="127.9571">
<ele>4.74668636367862</ele>
</trkpt>
<trkpt lat="26.31126" lon="127.9571">
<ele>4.74408729170401</ele>
</trkpt>
<trkpt lat="26.31124" lon="127.9571">
<ele>4.74235457706052</ele>
</trkpt>
<trkpt lat="26.31122" lon="127.9571">
<ele>4.74062186242195</ele>
</trkpt>
<trkpt lat="26.3112" lon="127.95711">
<ele>4.73872134637835</ele>
</trkpt>
<trkpt lat="26.31118" lon="127.95712">
<ele>4.73682083028418</ele>
</trkpt>
<trkpt lat="26.31117" lon="127.95715">
<ele>4.73432332565719</ele>
</trkpt>
<trkpt lat="26.31115" lon="127.9572">
<ele>4.73005204437391</ele>
</trkpt>
<trkpt lat="26.31111" lon="127.9573">
<ele>4.72150947997626</ele>
</trkpt>
<trkpt lat="26.31115" lon="127.9572">
<ele>4.71296691557855</ele>
</trkpt>
<trkpt lat="26.31117" lon="127.95715">
<ele>4.70869563429515</ele>
</trkpt>
<trkpt lat="26.31118" lon="127.95712">
<ele>4.70619812966807</ele>
</trkpt>
<trkpt lat="26.3112" lon="127.95711">
<ele>4.7042976135737</ele>
</trkpt>
<trkpt lat="26.31122" lon="127.9571">
<ele>4.70239709752991</ele>
</trkpt>
<trkpt lat="26.31124" lon="127.9571">
<ele>4.70066438289135</ele>
</trkpt>
<trkpt lat="26.31126" lon="127.9571">
<ele>4.69893166824785</ele>
</trkpt>
<trkpt lat="26.31129" lon="127.9571">
<ele>4.69633259627324</ele>
</trkpt>
<trkpt lat="26.31133" lon="127.95711">
<ele>4.69278029272078</ele>
</trkpt>
<trkpt lat="26.31143" lon="127.95712">
<ele>4.68408160528743</ele>
</trkpt>
<trkpt lat="26.31151" lon="127.95713">
<ele>4.68539271635585</ele>
</trkpt>
<trkpt lat="26.31155" lon="127.95713">
<ele>4.6873197768983</ele>
</trkpt>
<trkpt lat="26.31161" lon="127.95712">
<ele>4.69024279546347</ele>
</trkpt>
<trkpt lat="26.31173" lon="127.95712">
<ele>4.69602397720305</ele>
</trkpt>
<trkpt lat="26.31175" lon="127.95711">
<ele>4.697080817913</ele>
</trkpt>
<trkpt lat="26.31188" lon="127.95711">
<ele>4.7033437649243</ele>
</trkpt>
<trkpt lat="26.31202" lon="127.95714">
<ele>4.710213104968</ele>
</trkpt>
<trkpt lat="26.31209" lon="127.95716">
<ele>4.71369547037467</ele>
</trkpt>
<trkpt lat="26.3121" lon="127.95716">
<ele>4.71417723554811</ele>
</trkpt>
<trkpt lat="26.31214" lon="127.95718">
<ele>4.71629091589718</ele>
</trkpt>
<trkpt lat="26.3122" lon="127.95724">
<ele>4.72018221978868</ele>
</trkpt>
<trkpt lat="26.31227" lon="127.95732">
<ele>4.72502350782316</ele>
</trkpt>
<trkpt lat="26.31238" lon="127.95739">
<ele>4.73113262309128</ele>
</trkpt>
<trkpt lat="26.31268" lon="127.95756">
<ele>4.74736130008389</ele>
</trkpt>
<trkpt lat="26.31281" lon="127.95764">
<ele>4.75452298234065</ele>
</trkpt>
<trkpt lat="26.31289" lon="127.95769">
<ele>4.75894646583169</ele>
</trkpt>
<trkpt lat="26.31296" lon="127.95775">
<ele>4.76320785414232</ele>
</trkpt>
<trkpt lat="26.31299" lon="127.95777">
<ele>4.76489395919781</ele>
</trkpt>
<trkpt lat="26.31311" lon="127.95788">
<ele>4.77239280454757</ele>
</trkpt>
<trkpt lat="26.31327" lon="127.95804">
<ele>5.10883376659451</ele>
</trkpt>
<trkpt lat="26.31339" lon="127.95816">
<ele>5.47318923673828</ele>
</trkpt>
<trkpt lat="26.3134" lon="127.95817">
<ele>5.50355218514954</ele>
</trkpt>
<trkpt lat="26.31355" lon="127.95831">
<ele>5.94564576856857</ele>
</trkpt>
<trkpt lat="26.31367" lon="127.95843">
<ele>6.31000085402796</ele>
</trkpt>
<trkpt lat="26.31375" lon="127.9585">
<ele>6.53979239131233</ele>
</trkpt>
<trkpt lat="26.31383" lon="127.95855">
<ele>6.74688550574828</ele>
</trkpt>
<trkpt lat="26.31408" lon="127.95868">
<ele>7.36960233854774</ele>
</trkpt>
<trkpt lat="26.31423" lon="127.95877">
<ele>7.75421803539099</ele>
</trkpt>
<trkpt lat="26.3143" lon="127.95882">
<ele>7.94198582330442</ele>
</trkpt>
<trkpt lat="26.3145" lon="127.95891">
<ele>8.42876540095136</ele>
</trkpt>
<trkpt lat="26.31461" lon="127.95896">
<ele>8.6968777434652</ele>
</trkpt>
<trkpt lat="26.31472" lon="127.95899">
<ele>8.95236407632363</ele>
</trkpt>
<trkpt lat="26.31485" lon="127.95903">
<ele>8.86514844025186</ele>
</trkpt>
<trkpt lat="26.31508" lon="127.95906">
<ele>8.64547176781356</ele>
</trkpt>
<trkpt lat="26.31532" lon="127.9591">
<ele>8.41525764623832</ele>
</trkpt>
<trkpt lat="26.31548" lon="127.95909">
<ele>8.26324353460685</ele>
</trkpt>
<trkpt lat="26.31554" lon="127.95908">
<ele>8.20569000516057</ele>
</trkpt>
<trkpt lat="26.31562" lon="127.95909">
<ele>8.12932322794976</ele>
</trkpt>
<trkpt lat="26.31566" lon="127.95909">
<ele>8.09137984172983</ele>
</trkpt>
<trkpt lat="26.31568" lon="127.9591">
<ele>8.07057100813028</ele>
</trkpt>
<trkpt lat="26.31575" lon="127.95912">
<ele>8.00200416134071</ele>
</trkpt>
<trkpt lat="26.31579" lon="127.95914">
<ele>7.96038649968442</ele>
</trkpt>
<trkpt lat="26.31591" lon="127.95922">
<ele>7.82759129727543</ele>
</trkpt>
<trkpt lat="26.31598" lon="127.95927">
<ele>7.74862209416555</ele>
</trkpt>
<trkpt lat="26.31608" lon="127.95933">
<ele>7.64078388161508</ele>
</trkpt>
<trkpt lat="26.31626" lon="127.95942">
<ele>7.45350450402456</ele>
</trkpt>
<trkpt lat="26.31643" lon="127.9595">
<ele>7.93126165763601</ele>
</trkpt>
<trkpt lat="26.3165" lon="127.95954">
<ele>8.15326364745296</ele>
</trkpt>
<trkpt lat="26.31655" lon="127.95958">
<ele>8.32706036779729</ele>
</trkpt>
<trkpt lat="26.31658" lon="127.95961">
<ele>8.44092818500604</ele>
</trkpt>
<trkpt lat="26.31672" lon="127.9598">
<ele>9.06454941575793</ele>
</trkpt>
<trkpt lat="26.31681" lon="127.95992">
<ele>9.46124814279947</ele>
</trkpt>
<trkpt lat="26.31694" lon="127.96008">
<ele>10.0086446395027</ele>
</trkpt>
<trkpt lat="26.31729" lon="127.96042">
<ele>11.3202246416446</ele>
</trkpt>
<trkpt lat="26.31749" lon="127.96064">
<ele>12.1142607494573</ele>
</trkpt>
<trkpt lat="26.31766" lon="127.96083">
<ele>11.3137158203203</ele>
</trkpt>
<trkpt lat="26.31792" lon="127.9611">
<ele>9.86075116536129</ele>
</trkpt>
<trkpt lat="26.31809" lon="127.96127">
<ele>8.92699998371502</ele>
</trkpt>
<trkpt lat="26.31829" lon="127.96149">
<ele>7.77793746580354</ele>
</trkpt>
<trkpt lat="26.3184" lon="127.96162">
<ele>7.12223356115778</ele>
</trkpt>
<trkpt lat="26.31844" lon="127.96167">
<ele>6.8763890958934</ele>
</trkpt>
<trkpt lat="26.31862" lon="127.96187">
<ele>5.83704372739166</ele>
</trkpt>
<trkpt lat="26.3187" lon="127.96194">
<ele>5.67033326406068</ele>
</trkpt>
<trkpt lat="26.31875" lon="127.96199">
<ele>5.69442720190782</ele>
</trkpt>
<trkpt lat="26.31878" lon="127.96203">
<ele>5.71121511737601</ele>
</trkpt>
<trkpt lat="26.31879" lon="127.96204">
<ele>5.71603390385523</ele>
</trkpt>
<trkpt lat="26.31881" lon="127.96208">
<ele>5.73079075234042</ele>
</trkpt>
<trkpt lat="26.31883" lon="127.96215">
<ele>5.75448018636073</ele>
</trkpt>
<trkpt lat="26.31887" lon="127.96227">
<ele>5.79575490251057</ele>
</trkpt>
<trkpt lat="26.31888" lon="127.9623">
<ele>5.8060735796075</ele>
</trkpt>
<trkpt lat="26.31891" lon="127.96233">
<ele>5.82052993304851</ele>
</trkpt>
<trkpt lat="26.31893" lon="127.96235">
<ele>5.8301675011011</ele>
</trkpt>
<trkpt lat="26.31897" lon="127.96237">
<ele>5.84587257461796</ele>
</trkpt>
<trkpt lat="26.31901" lon="127.96238">
<ele>5.86055007324566</ele>
</trkpt>
<trkpt lat="26.31923" lon="127.9624">
<ele>5.93956620046129</ele>
</trkpt>
<trkpt lat="26.31963" lon="127.96243">
<ele>6.08307885274928</ele>
</trkpt>
<trkpt lat="26.31973" lon="127.96244">
<ele>6.79719460536572</ele>
</trkpt>
<trkpt lat="26.31979" lon="127.96244">
<ele>7.35314417906438</ele>
</trkpt>
<trkpt lat="26.31984" lon="127.96246">
<ele>7.84561694405493</ele>
</trkpt>
<trkpt lat="26.31989" lon="127.96248">
<ele>8.3380896877558</ele>
</trkpt>
<trkpt lat="26.32009" lon="127.96263">
<ele>10.5748422787723</ele>
</trkpt>
<trkpt lat="26.32023" lon="127.96272">
<ele>12.0740252631525</ele>
</trkpt>
<trkpt lat="26.32033" lon="127.9628">
<ele>13.2163042242389</ele>
</trkpt>
<trkpt lat="26.32054" lon="127.963">
<ele>15.7805308735985</ele>
</trkpt>
<trkpt lat="26.32066" lon="127.96312">
<ele>17.2773165658069</ele>
</trkpt>
<trkpt lat="26.32075" lon="127.9632">
<ele>18.3458073279763</ele>
</trkpt>
<trkpt lat="26.32079" lon="127.96326">
<ele>18.9690087513163</ele>
</trkpt>
<trkpt lat="26.32084" lon="127.96332">
<ele>19.6513941458831</ele>
</trkpt>
<trkpt lat="26.32091" lon="127.9634">
<ele>20.5824867508768</ele>
</trkpt>
<trkpt lat="26.32091" lon="127.96341">
<ele>20.6659883335136</ele>
</trkpt>
<trkpt lat="26.32095" lon="127.96344">
<ele>21.1133377597029</ele>
</trkpt>
<trkpt lat="26.32103" lon="127.96349">
<ele>20.98436027799</ele>
</trkpt>
<trkpt lat="26.32131" lon="127.96364">
<ele>18.7478166465164</ele>
</trkpt>
<trkpt lat="26.32139" lon="127.96368">
<ele>18.1166361444525</ele>
</trkpt>
<trkpt lat="26.32147" lon="127.9637">
<ele>17.5267519767106</ele>
</trkpt>
<trkpt lat="26.32151" lon="127.96372">
<ele>17.2111617845564</ele>
</trkpt>
<trkpt lat="26.32156" lon="127.96373">
<ele>16.8457038780818</ele>
</trkpt>
<trkpt lat="26.32165" lon="127.96394">
<ele>15.338306738772</ele>
</trkpt>
<trkpt lat="26.32178" lon="127.96424">
<ele>13.1804506024396</ele>
</trkpt>
<trkpt lat="26.32184" lon="127.96438">
<ele>12.175520613741</ele>
</trkpt>
<trkpt lat="26.32195" lon="127.96473">
<ele>9.77268009535057</ele>
</trkpt>
<trkpt lat="26.32188" lon="127.9648">
<ele>9.09485820363823</ele>
</trkpt>
<trkpt lat="26.32186" lon="127.96483">
<ele>8.85295749469687</ele>
</trkpt>
<trkpt lat="26.32184" lon="127.96485">
<ele>8.65929404954262</ele>
</trkpt>
<trkpt lat="26.32183" lon="127.96487">
<ele>8.5110285838181</ele>
</trkpt>
<trkpt lat="26.32179" lon="127.96494">
<ele>8.27562000848268</ele>
</trkpt>
<trkpt lat="26.32175" lon="127.96501">
<ele>8.31968883885507</ele>
</trkpt>
<trkpt lat="26.32174" lon="127.96504">
<ele>8.33669531426692</ele>
</trkpt>
<trkpt lat="26.32174" lon="127.96505">
<ele>8.34201208130589</ele>
</trkpt>
<trkpt lat="26.32173" lon="127.96508">
<ele>8.35901855799954</ele>
</trkpt>
<trkpt lat="26.32172" lon="127.96511">
<ele>8.37602503596852</ele>
</trkpt>
<trkpt lat="26.32171" lon="127.96524">
<ele>8.44539436757838</ele>
</trkpt>
<trkpt lat="26.3217" lon="127.96546">
<ele>8.56251197539634</ele>
</trkpt>
<trkpt lat="26.32171" lon="127.96555">
<ele>8.61072523554255</ele>
</trkpt>
<trkpt lat="26.32175" lon="127.96601">
<ele>8.85643248655867</ele>
</trkpt>
<trkpt lat="26.32175" lon="127.96607">
<ele>8.88833308609076</ele>
</trkpt>
<trkpt lat="26.32173" lon="127.96621">
<ele>8.96369728713358</ele>
</trkpt>
<trkpt lat="26.32172" lon="127.96624">
<ele>8.98070376510966</ele>
</trkpt>
<trkpt lat="26.32172" lon="127.96626">
<ele>8.99133730102151</ele>
</trkpt>
<trkpt lat="26.32172" lon="127.96627">
<ele>8.99665406898122</ele>
</trkpt>
<trkpt lat="26.32173" lon="127.96636">
<ele>9.04486732097314</ele>
</trkpt>
<trkpt lat="26.32175" lon="127.96651">
<ele>9.12548701548199</ele>
</trkpt>
<trkpt lat="26.32177" lon="127.96682">
<ele>8.96005304726816</ele>
</trkpt>
<trkpt lat="26.32177" lon="127.96683">
<ele>8.94267243692316</ele>
</trkpt>
<trkpt lat="26.32178" lon="127.96689">
<ele>8.83662029028005</ele>
</trkpt>
<trkpt lat="26.32193" lon="127.96683">
<ele>8.52909826173009</ele>
</trkpt>
<trkpt lat="26.32234" lon="127.96663">
<ele>7.66531230560052</ele>
</trkpt>
<trkpt lat="26.32291" lon="127.96637">
<ele>6.47671688933188</ele>
</trkpt>
<trkpt lat="26.32323" lon="127.96622">
<ele>5.80673786080821</ele>
</trkpt>
<trkpt lat="26.32333" lon="127.96617">
<ele>5.59519680599181</ele>
</trkpt>
<trkpt lat="26.32342" lon="127.96612">
<ele>5.66050719157694</ele>
</trkpt>
<trkpt lat="26.32346" lon="127.96609">
<ele>5.80027395615534</ele>
</trkpt>
<trkpt lat="26.32349" lon="127.96608">
<ele>5.89095674902612</ele>
</trkpt>
<trkpt lat="26.32356" lon="127.96602">
<ele>6.14701860212599</ele>
</trkpt>
<trkpt lat="26.32362" lon="127.96595">
<ele>6.39905088863558</ele>
</trkpt>
<trkpt lat="26.32368" lon="127.96587">
<ele>6.67058203436766</ele>
</trkpt>
<trkpt lat="26.32372" lon="127.96578">
<ele>6.93237873595299</ele>
</trkpt>
<trkpt lat="26.32376" lon="127.96569">
<ele>7.19417536549276</ele>
</trkpt>
<trkpt lat="26.32377" lon="127.96562">
<ele>7.37907309441963</ele>
</trkpt>
<trkpt lat="26.32378" lon="127.96556">
<ele>7.53825679244343</ele>
</trkpt>
<trkpt lat="26.3238" lon="127.96548">
<ele>7.75484467847735</ele>
</trkpt>
<trkpt lat="26.32381" lon="127.96536">
<ele>8.06923852516747</ele>
</trkpt>
<trkpt lat="26.32382" lon="127.96512">
<ele>8.69602368641221</ele>
</trkpt>
<trkpt lat="26.32383" lon="127.96507">
<ele>8.82963845829305</ele>
</trkpt>
<trkpt lat="26.32383" lon="127.96506">
<ele>8.85572663182478</ele>
</trkpt>
<trkpt lat="26.32386" lon="127.96483">
<ele>9.46200731766789</ele>
</trkpt>
<trkpt lat="26.32388" lon="127.96473">
<ele>9.72923676303054</ele>
</trkpt>
<trkpt lat="26.32394" lon="127.96452">
<ele>10.3039646142547</ele>
</trkpt>
<trkpt lat="26.32396" lon="127.96447">
<ele>10.4466780628778</ele>
</trkpt>
<trkpt lat="26.32403" lon="127.96429">
<ele>10.2603229954976</ele>
</trkpt>
<trkpt lat="26.32415" lon="127.96406">
<ele>9.28907414876886</ele>
</trkpt>
<trkpt lat="26.32438" lon="127.96378">
<ele>7.90449623663102</ele>
</trkpt>
<trkpt lat="26.32469" lon="127.96352">
<ele>6.32865306439548</ele>
</trkpt>
<trkpt lat="26.32486" lon="127.96336">
<ele>5.42467040702036</ele>
</trkpt>
<trkpt lat="26.32489" lon="127.96333">
<ele>5.2608988210444</ele>
</trkpt>
<trkpt lat="26.32491" lon="127.9633">
<ele>5.12452390386174</ele>
</trkpt>
<trkpt lat="26.32493" lon="127.96327">
<ele>4.98814900174676</ele>
</trkpt>
<trkpt lat="26.32494" lon="127.96327">
<ele>4.94759531051197</ele>
</trkpt>
<trkpt lat="26.32499" lon="127.96318">
<ele>4.56121166470414</ele>
</trkpt>
<trkpt lat="26.32502" lon="127.96309">
<ele>4.21052859216653</ele>
</trkpt>
<trkpt lat="26.32503" lon="127.96306">
<ele>4.09363425229468</ele>
</trkpt>
<trkpt lat="26.32526" lon="127.96226">
<ele>1.96872737140723</ele>
</trkpt>
<trkpt lat="26.32543" lon="127.96164">
<ele>0.850664927472858</ele>
</trkpt>
<trkpt lat="26.32546" lon="127.96156">
<ele>0.701173029129193</ele>
</trkpt>
<trkpt lat="26.32553" lon="127.96138">
<ele>0.362948642908803</ele>
</trkpt>
<trkpt lat="26.32558" lon="127.96124">
<ele>0.10943915319673</ele>
</trkpt>
<trkpt lat="26.3256" lon="127.9612">
<ele>0.202714785616701</ele>
</trkpt>
<trkpt lat="26.32569" lon="127.96102">
<ele>0.622454980650851</ele>
</trkpt>
<trkpt lat="26.3259" lon="127.96054">
<ele>1.71044680566568</ele>
</trkpt>
<trkpt lat="26.32593" lon="127.96048">
<ele>1.85035995716982</ele>
</trkpt>
<trkpt lat="26.32602" lon="127.9603">
<ele>2.27009924707554</ele>
</trkpt>
<trkpt lat="26.3261" lon="127.96013">
<ele>2.66115550412448</ele>
</trkpt>
<trkpt lat="26.32619" lon="127.95995">
<ele>3.08089432774758</ele>
</trkpt>
<trkpt lat="26.32627" lon="127.95977">
<ele>3.49013324878927</ele>
</trkpt>
<trkpt lat="26.32628" lon="127.95975">
<ele>3.53677085622541</ele>
</trkpt>
<trkpt lat="26.32641" lon="127.95955">
<ele>4.03187915035057</ele>
</trkpt>
<trkpt lat="26.32652" lon="127.95939">
<ele>4.08629260569732</ele>
</trkpt>
<trkpt lat="26.3266" lon="127.9593">
<ele>4.12047336829855</ele>
</trkpt>
<trkpt lat="26.32667" lon="127.95923">
<ele>4.14874608971332</ele>
</trkpt>
<trkpt lat="26.32674" lon="127.95917">
<ele>4.17528492119415</ele>
</trkpt>
<trkpt lat="26.32682" lon="127.95909">
<ele>4.20759658513481</ele>
</trkpt>
<trkpt lat="26.32688" lon="127.95904">
<ele>4.23011010763592</ele>
</trkpt>
<trkpt lat="26.327" lon="127.95892">
<ele>4.27857757429436</ele>
</trkpt>
<trkpt lat="26.32701" lon="127.95891">
<ele>4.28261652885647</ele>
</trkpt>
<trkpt lat="26.32714" lon="127.95876">
<ele>4.33888648672799</ele>
</trkpt>
<trkpt lat="26.3273" lon="127.95856">
<ele>4.41119738772236</ele>
</trkpt>
<trkpt lat="26.32756" lon="127.95823">
<ele>4.52971685631389</ele>
</trkpt>
<trkpt lat="26.3276" lon="127.95817">
<ele>4.54989648862808</ele>
</trkpt>
<trkpt lat="26.32762" lon="127.95811">
<ele>4.56719346420072</ele>
</trkpt>
<trkpt lat="26.32764" lon="127.95804">
<ele>4.56608967832399</ele>
</trkpt>
<trkpt lat="26.32765" lon="127.95798">
<ele>4.55882084517622</ele>
</trkpt>
<trkpt lat="26.32768" lon="127.95758">
<ele>4.51100537389596</ele>
</trkpt>
<trkpt lat="26.32771" lon="127.95727">
<ele>4.47386373345057</ele>
</trkpt>
<trkpt lat="26.32775" lon="127.95672">
<ele>4.40813099665649</ele>
</trkpt>
<trkpt lat="26.32775" lon="127.95661">
<ele>4.3950270596061</ele>
</trkpt>
<trkpt lat="26.32774" lon="127.95648">
<ele>4.37948426593922</ele>
</trkpt>
<trkpt lat="26.32774" lon="127.95647">
<ele>4.37829299883185</ele>
</trkpt>
<trkpt lat="26.32772" lon="127.95637">
<ele>4.36609044704023</ele>
</trkpt>
<trkpt lat="26.3277" lon="127.95625">
<ele>4.3515527885908</ele>
</trkpt>
<trkpt lat="26.32767" lon="127.95612">
<ele>4.33556655358608</ele>
</trkpt>
<trkpt lat="26.3276" lon="127.95589">
<ele>4.30744649706899</ele>
</trkpt>
<trkpt lat="26.32757" lon="127.95579">
<ele>4.29990894529178</ele>
</trkpt>
<trkpt lat="26.32753" lon="127.9557">
<ele>4.29273217961227</ele>
</trkpt>
<trkpt lat="26.3275" lon="127.95563">
<ele>4.28718869109565</ele>
</trkpt>
<trkpt lat="26.32747" lon="127.95557">
<ele>4.28228142215556</ele>
</trkpt>
<trkpt lat="26.32743" lon="127.95551">
<ele>4.27694379250431</ele>
</trkpt>
<trkpt lat="26.32739" lon="127.95546">
<ele>4.27216213717759</ele>
</trkpt>
<trkpt lat="26.32728" lon="127.95535">
<ele>4.26041056452409</ele>
</trkpt>
<trkpt lat="26.32721" lon="127.95527">
<ele>4.25243581969832</ele>
</trkpt>
<trkpt lat="26.32701" lon="127.95506">
<ele>4.23058409346226</ele>
</trkpt>
<trkpt lat="26.3269" lon="127.95493">
<ele>4.21002305687643</ele>
</trkpt>
<trkpt lat="26.32685" lon="127.95483">
<ele>4.14564732366763</ele>
</trkpt>
<trkpt lat="26.32681" lon="127.95475">
<ele>4.09414672194367</ele>
</trkpt>
<trkpt lat="26.32678" lon="127.95468">
<ele>4.05051351011835</ele>
</trkpt>
<trkpt lat="26.32665" lon="127.95412">
<ele>3.72499052260237</ele>
</trkpt>
<trkpt lat="26.32665" lon="127.95411">
<ele>3.71936139484392</ele>
</trkpt>
<trkpt lat="26.32665" lon="127.95387">
<ele>3.58426232868103</ele>
</trkpt>
<trkpt lat="26.32662" lon="127.95365">
<ele>3.45901160223935</ele>
</trkpt>
<trkpt lat="26.32662" lon="127.95357">
<ele>3.41397856858331</ele>
</trkpt>
<trkpt lat="26.32662" lon="127.95346">
<ele>3.35205814730026</ele>
</trkpt>
<trkpt lat="26.32663" lon="127.95345">
<ele>3.34364930290911</ele>
</trkpt>
<trkpt lat="26.32665" lon="127.9532">
<ele>3.20236761885437</ele>
</trkpt>
<trkpt lat="26.32666" lon="127.95313">
<ele>3.16247165009233</ele>
</trkpt>
<trkpt lat="26.32668" lon="127.95305">
<ele>3.11573773665274</ele>
</trkpt>
<trkpt lat="26.3267" lon="127.95299">
<ele>3.07972634459866</ele>
</trkpt>
<trkpt lat="26.32673" lon="127.95294">
<ele>3.04591258635452</ele>
</trkpt>
<trkpt lat="26.32678" lon="127.95284">
<ele>2.89291186471745</ele>
</trkpt>
<trkpt lat="26.32685" lon="127.95267">
<ele>2.47607124711922</ele>
</trkpt>
<trkpt lat="26.32688" lon="127.95258">
<ele>2.26206092503714</ele>
</trkpt>
<trkpt lat="26.32711" lon="127.95204">
<ele>0.930003747391242</ele>
</trkpt>
<trkpt lat="26.32718" lon="127.95187">
<ele>0.513164103952702</ele>
</trkpt>
<trkpt lat="26.32721" lon="127.95176">
<ele>0.256853156210808</ele>
</trkpt>
<trkpt lat="26.32722" lon="127.95171">
<ele>0.208596723719733</ele>
</trkpt>
<trkpt lat="26.32723" lon="127.95166">
<ele>0.300424313171298</ele>
</trkpt>
<trkpt lat="26.32723" lon="127.95161">
<ele>0.390070492102075</ele>
</trkpt>
<trkpt lat="26.32722" lon="127.95157">
<ele>0.464496216649868</ele>
</trkpt>
<trkpt lat="26.32721" lon="127.95155">
<ele>0.505504732892769</ele>
</trkpt>
<trkpt lat="26.32721" lon="127.95154">
<ele>0.52343397176927</ele>
</trkpt>
<trkpt lat="26.3272" lon="127.95153">
<ele>0.550216908944205</ele>
</trkpt>
<trkpt lat="26.32719" lon="127.95152">
<ele>0.576999847112049</ele>
</trkpt>
<trkpt lat="26.32717" lon="127.95151">
<ele>0.620645352264342</ele>
</trkpt>
<trkpt lat="26.32715" lon="127.9515">
<ele>0.664290858573037</ele>
</trkpt>
<trkpt lat="26.32711" lon="127.95149">
<ele>0.745871170845396</ele>
</trkpt>
<trkpt lat="26.32708" lon="127.95149">
<ele>0.805560472196925</ele>
</trkpt>
<trkpt lat="26.32682" lon="127.95152">
<ele>1.32565656034586</ele>
</trkpt>
<trkpt lat="26.3266" lon="127.95155">
<ele>1.76667047419038</ele>
</trkpt>
<trkpt lat="26.32641" lon="127.95157">
<ele>2.14639958609337</ele>
</trkpt>
<trkpt lat="26.32623" lon="127.9516">
<ele>2.50855202920461</ele>
</trkpt>
<trkpt lat="26.32603" lon="127.95162">
<ele>2.90809306919206</ele>
</trkpt>
<trkpt lat="26.32568" lon="127.95167">
<ele>3.59199624485479</ele>
</trkpt>
<trkpt lat="26.32554" lon="127.95171">
<ele>3.66744915805937</ele>
</trkpt>
<trkpt lat="26.32523" lon="127.95174">
<ele>3.82986079124587</ele>
</trkpt>
<trkpt lat="26.32503" lon="127.95178">
<ele>3.93592810716543</ele>
</trkpt>
<trkpt lat="26.32483" lon="127.9518">
<ele>4.04073660073367</ele>
</trkpt>
<trkpt lat="26.32478" lon="127.9518">
<ele>4.06683297821131</ele>
</trkpt>
<trkpt lat="26.32473" lon="127.9518">
<ele>4.09292935551017</ele>
</trkpt>
<trkpt lat="26.32458" lon="127.9518">
<ele>4.17121848631254</ele>
</trkpt>
<trkpt lat="26.32414" lon="127.95175">
<ele>4.40206755305737</ele>
</trkpt>
<trkpt lat="26.3241" lon="127.95174">
<ele>4.4234679018266</ele>
</trkpt>
<trkpt lat="26.32394" lon="127.95172">
<ele>4.19568625784408</ele>
</trkpt>
<trkpt lat="26.32384" lon="127.95169">
<ele>3.911310679369</ele>
</trkpt>
<trkpt lat="26.32394" lon="127.95172">
<ele>3.62693510088071</ele>
</trkpt>
<trkpt lat="26.3241" lon="127.95174">
<ele>3.18492440436522</ele>
</trkpt>
<trkpt lat="26.32414" lon="127.95175">
<ele>3.07236404001025</ele>
</trkpt>
<trkpt lat="26.32458" lon="127.9518">
<ele>1.85815695663299</ele>
</trkpt>
<trkpt lat="26.32473" lon="127.9518">
<ele>1.44637614022609</ele>
</trkpt>
<trkpt lat="26.32478" lon="127.9518">
<ele>1.30911586617205</ele>
</trkpt>
<trkpt lat="26.32483" lon="127.9518">
<ele>1.17185559117765</ele>
</trkpt>
<trkpt lat="26.32503" lon="127.95178">
<ele>0.620589705285611</ele>
</trkpt>
<trkpt lat="26.32523" lon="127.95174">
<ele>0.0627027355937441</ele>
</trkpt>
<trkpt lat="26.32554" lon="127.95171">
<ele>0</ele>
</trkpt>
<trkpt lat="26.32568" lon="127.95167">
<ele>0</ele>
</trkpt>
<trkpt lat="26.32603" lon="127.95162">
<ele>0</ele>
</trkpt>
<trkpt lat="26.32623" lon="127.9516">
<ele>0</ele>
</trkpt>
<trkpt lat="26.32641" lon="127.95157">
<ele>0</ele>
</trkpt>
<trkpt lat="26.3266" lon="127.95155">
<ele>0</ele>
</trkpt>
<trkpt lat="26.32682" lon="127.95152">
<ele>0</ele>
</trkpt>
<trkpt lat="26.32708" lon="127.95149">
<ele>0</ele>
</trkpt>
<trkpt lat="26.32711" lon="127.95149">
<ele>0</ele>
</trkpt>
<trkpt lat="26.32715" lon="127.9515">
<ele>0</ele>
</trkpt>
<trkpt lat="26.32717" lon="127.95151">
<ele>0</ele>
</trkpt>
<trkpt lat="26.32719" lon="127.95152">
<ele>0</ele>
</trkpt>
<trkpt lat="26.3272" lon="127.95153">
<ele>0</ele>
</trkpt>
<trkpt lat="26.32721" lon="127.95154">
<ele>0</ele>
</trkpt>
<trkpt lat="26.32721" lon="127.95155">
<ele>0</ele>
</trkpt>
<trkpt lat="26.32722" lon="127.95157">
<ele>0</ele>
</trkpt>
<trkpt lat="26.32723" lon="127.95161">
<ele>0</ele>
</trkpt>
<trkpt lat="26.32723" lon="127.95166">
<ele>0</ele>
</trkpt>
<trkpt lat="26.32722" lon="127.95171">
<ele>0</ele>
</trkpt>
<trkpt lat="26.32721" lon="127.95176">
<ele>0</ele>
</trkpt>
<trkpt lat="26.32718" lon="127.95187">
<ele>0</ele>
</trkpt>
<trkpt lat="26.32711" lon="127.95204">
<ele>0</ele>
</trkpt>
<trkpt lat="26.32688" lon="127.95258">
<ele>0</ele>
</trkpt>
<trkpt lat="26.32685" lon="127.95267">
<ele>0</ele>
</trkpt>
<trkpt lat="26.32678" lon="127.95284">
<ele>0</ele>
</trkpt>
<trkpt lat="26.32673" lon="127.95294">
<ele>0</ele>
</trkpt>
<trkpt lat="26.3267" lon="127.95299">
<ele>0</ele>
</trkpt>
<trkpt lat="26.32668" lon="127.95305">
<ele>0</ele>
</trkpt>
<trkpt lat="26.32666" lon="127.95313">
<ele>0</ele>
</trkpt>
<trkpt lat="26.32665" lon="127.9532">
<ele>0</ele>
</trkpt>
<trkpt lat="26.32663" lon="127.95345">
<ele>0</ele>
</trkpt>
<trkpt lat="26.32662" lon="127.95346">
<ele>0</ele>
</trkpt>
<trkpt lat="26.32662" lon="127.95357">
<ele>0</ele>
</trkpt>
<trkpt lat="26.32662" lon="127.95365">
<ele>0</ele>
</trkpt>
<trkpt lat="26.32665" lon="127.95387">
<ele>0</ele>
</trkpt>
<trkpt lat="26.32665" lon="127.95411">
<ele>0</ele>
</trkpt>
<trkpt lat="26.32665" lon="127.95412">
<ele>0</ele>
</trkpt>
<trkpt lat="26.32678" lon="127.95468">
<ele>0</ele>
</trkpt>
<trkpt lat="26.32681" lon="127.95475">
<ele>0</ele>
</trkpt>
<trkpt lat="26.32685" lon="127.95483">
<ele>0</ele>
</trkpt>
<trkpt lat="26.3269" lon="127.95493">
<ele>0</ele>
</trkpt>
<trkpt lat="26.32701" lon="127.95506">
<ele>0</ele>
</trkpt>
<trkpt lat="26.32721" lon="127.95527">
<ele>0</ele>
</trkpt>
<trkpt lat="26.32728" lon="127.95535">
<ele>0</ele>
</trkpt>
<trkpt lat="26.32739" lon="127.95546">
<ele>0</ele>
</trkpt>
<trkpt lat="26.32743" lon="127.95551">
<ele>0</ele>
</trkpt>
<trkpt lat="26.32747" lon="127.95557">
<ele>0</ele>
</trkpt>
<trkpt lat="26.3275" lon="127.95563">
<ele>0</ele>
</trkpt>
<trkpt lat="26.32753" lon="127.9557">
<ele>0</ele>
</trkpt>
<trkpt lat="26.32757" lon="127.95579">
<ele>0</ele>
</trkpt>
<trkpt lat="26.3276" lon="127.95589">
<ele>0</ele>
</trkpt>
<trkpt lat="26.32767" lon="127.95612">
<ele>0</ele>
</trkpt>
<trkpt lat="26.3277" lon="127.95625">
<ele>0</ele>
</trkpt>
<trkpt lat="26.32772" lon="127.95637">
<ele>0</ele>
</trkpt>
<trkpt lat="26.32774" lon="127.95647">
<ele>0</ele>
</trkpt>
<trkpt lat="26.32774" lon="127.95648">
<ele>0</ele>
</trkpt>
<trkpt lat="26.32775" lon="127.95661">
<ele>0</ele>
</trkpt>
<trkpt lat="26.32775" lon="127.95672">
<ele>0</ele>
</trkpt>
<trkpt lat="26.32771" lon="127.95727">
<ele>0.986948220723532</ele>
</trkpt>
<trkpt lat="26.32786" lon="127.95723">
<ele>1.31569691581088</ele>
</trkpt>
<trkpt lat="26.32804" lon="127.95718">
<ele>1.71111030482653</ele>
</trkpt>
<trkpt lat="26.32821" lon="127.95714">
<ele>2.08143311930523</ele>
</trkpt>
<trkpt lat="26.32828" lon="127.95712">
<ele>2.23546749818983</ele>
</trkpt>
<trkpt lat="26.32885" lon="127.95697">
<ele>3.48382046237846</ele>
</trkpt>
<trkpt lat="26.32905" lon="127.95692">
<ele>3.64798702667528</ele>
</trkpt>
<trkpt lat="26.33021" lon="127.95663">
<ele>3.37584852038735</ele>
</trkpt>
<trkpt lat="26.33028" lon="127.95662">
<ele>3.3596956645962</ele>
</trkpt>
<trkpt lat="26.33045" lon="127.95657">
<ele>3.31944508674289</ele>
</trkpt>
<trkpt lat="26.33125" lon="127.95638">
<ele>3.23233107287297</ele>
</trkpt>
<trkpt lat="26.33133" lon="127.95636">
<ele>3.23200842446254</ele>
</trkpt>
<trkpt lat="26.33151" lon="127.95632">
<ele>3.23128615426557</ele>
</trkpt>
<trkpt lat="26.33168" lon="127.95628">
<ele>3.23060241964981</ele>
</trkpt>
<trkpt lat="26.33186" lon="127.95624">
<ele>3.22988014950264</ele>
</trkpt>
<trkpt lat="26.33204" lon="127.9562">
<ele>3.22915787938111</ele>
</trkpt>
<trkpt lat="26.33221" lon="127.95616">
<ele>3.22847414485089</ele>
</trkpt>
<trkpt lat="26.33235" lon="127.95613">
<ele>3.22791313939156</ele>
</trkpt>
<trkpt lat="26.33239" lon="127.95612">
<ele>3.22775181523551</ele>
</trkpt>
<trkpt lat="26.33257" lon="127.95608">
<ele>3.01588316995105</ele>
</trkpt>
<trkpt lat="26.33274" lon="127.95604">
<ele>2.78213282341861</ele>
</trkpt>
<trkpt lat="26.33292" lon="127.95601">
<ele>2.53729937234553</ele>
</trkpt>
<trkpt lat="26.3332" lon="127.95595">
<ele>2.15371418446398</ele>
</trkpt>
<trkpt lat="26.33345" lon="127.95589">
<ele>1.80966515059854</ele>
</trkpt>
<trkpt lat="26.33363" lon="127.95585">
<ele>1.56274057393459</ele>
</trkpt>
<trkpt lat="26.3338" lon="127.95582">
<ele>1.33120036589961</ele>
</trkpt>
<trkpt lat="26.33395" lon="127.95578">
<ele>1.12369209790219</ele>
</trkpt>
<trkpt lat="26.33398" lon="127.95578">
<ele>1.08333904498685</ele>
</trkpt>
<trkpt lat="26.33469" lon="127.95564">
<ele>0.422433333834223</ele>
</trkpt>
<trkpt lat="26.33471" lon="127.95563">
<ele>0.415758261127361</ele>
</trkpt>
<trkpt lat="26.33486" lon="127.9556">
<ele>0.369378555419432</ele>
</trkpt>
<trkpt lat="26.33504" lon="127.95556">
<ele>0.313517962093915</ele>
</trkpt>
<trkpt lat="26.33522" lon="127.95553">
<ele>0.258130425710156</ele>
</trkpt>
<trkpt lat="26.33535" lon="127.9555">
<ele>0.217725746256694</ele>
</trkpt>
<trkpt lat="26.33539" lon="127.95549">
<ele>0.205248889600568</ele>
</trkpt>
<trkpt lat="26.33572" lon="127.95542">
<ele>0.103013333174155</ele>
</trkpt>
<trkpt lat="26.3361" lon="127.95535">
<ele>0</ele>
</trkpt>
<trkpt lat="26.33641" lon="127.9553">
<ele>0</ele>
</trkpt>
<trkpt lat="26.33646" lon="127.95529">
<ele>0</ele>
</trkpt>
<trkpt lat="26.33664" lon="127.95526">
<ele>0</ele>
</trkpt>
<trkpt lat="26.33674" lon="127.95524">
<ele>0</ele>
</trkpt>
<trkpt lat="26.33681" lon="127.95522">
<ele>0</ele>
</trkpt>
<trkpt lat="26.3369" lon="127.9552">
<ele>0</ele>
</trkpt>
<trkpt lat="26.33703" lon="127.95517">
<ele>0</ele>
</trkpt>
<trkpt lat="26.33726" lon="127.95513">
<ele>0</ele>
</trkpt>
<trkpt lat="26.33774" lon="127.95501">
<ele>0</ele>
</trkpt>
<trkpt lat="26.33784" lon="127.95499">
<ele>0</ele>
</trkpt>
<trkpt lat="26.33863" lon="127.95484">
<ele>1.68923946956305</ele>
</trkpt>
<trkpt lat="26.3394" lon="127.95465">
<ele>3.98334569336476</ele>
</trkpt>
<trkpt lat="26.33965" lon="127.95459">
<ele>4.72723760514906</ele>
</trkpt>
<trkpt lat="26.33994" lon="127.95452">
<ele>4.94735366722689</ele>
</trkpt>
<trkpt lat="26.34017" lon="127.95447">
<ele>4.97397989247436</ele>
</trkpt>
<trkpt lat="26.34017" lon="127.95423">
<ele>4.99854705463491</ele>
</trkpt>
<trkpt lat="26.34017" lon="127.95263">
<ele>5.13774776443242</ele>
</trkpt>
<trkpt lat="26.34018" lon="127.95199">
<ele>5.17644730871546</ele>
</trkpt>
<trkpt lat="26.3402" lon="127.95103">
<ele>5.23450340393973</ele>
</trkpt>
<trkpt lat="26.34021" lon="127.95012">
<ele>3.47534119189028</ele>
</trkpt>
<trkpt lat="26.34021" lon="127.94957">
<ele>2.01158162089252</ele>
</trkpt>
<trkpt lat="26.34021" lon="127.94928">
<ele>1.23978111984603</ele>
</trkpt>
<trkpt lat="26.34021" lon="127.94904">
<ele>0.601049670674063</ele>
</trkpt>
<trkpt lat="26.34021" lon="127.94899">
<ele>0.467980618761653</ele>
</trkpt>
<trkpt lat="26.3402" lon="127.94885">
<ele>0.0942183135094486</ele>
</trkpt>
<trkpt lat="26.3402" lon="127.9487">
<ele>-0.0159055317224109</ele>
</trkpt>
<trkpt lat="26.34018" lon="127.9484">
<ele>-0.0206195136384626</ele>
</trkpt>
<trkpt lat="26.34012" lon="127.94786">
<ele>-0.0291456508096825</ele>
</trkpt>
<trkpt lat="26.34003" lon="127.94722">
<ele>-0.0394488300188896</ele>
</trkpt>
<trkpt lat="26.33996" lon="127.94683">
<ele>-0.0471768497310179</ele>
</trkpt>
<trkpt lat="26.33986" lon="127.94646">
<ele>-0.0546838015205698</ele>
</trkpt>
<trkpt lat="26.33974" lon="127.94603">
<ele>-0.0634319009470599</ele>
</trkpt>
<trkpt lat="26.33967" lon="127.9458">
<ele>-0.0681497408628192</ele>
</trkpt>
<trkpt lat="26.33956" lon="127.94547">
<ele>-0.074987634936835</ele>
</trkpt>
<trkpt lat="26.33946" lon="127.94523">
<ele>-0.0801262719826149</ele>
</trkpt>
<trkpt lat="26.33933" lon="127.94491">
<ele>-0.0869479297686906</ele>
</trkpt>
<trkpt lat="26.33922" lon="127.94466">
<ele>-0.0925278394237914</ele>
</trkpt>
<trkpt lat="26.3391" lon="127.94441">
<ele>-0.100654165547474</ele>
</trkpt>
<trkpt lat="26.33897" lon="127.94415">
<ele>-0.109184646676303</ele>
</trkpt>
<trkpt lat="26.33887" lon="127.94397">
<ele>-0.115251250404136</ele>
</trkpt>
<trkpt lat="26.33871" lon="127.94369">
<ele>-0.124763228000487</ele>
</trkpt>
<trkpt lat="26.33861" lon="127.94353">
<ele>-0.130349565824775</ele>
</trkpt>
<trkpt lat="26.33853" lon="127.9434">
<ele>-0.135143670713719</ele>
</trkpt>
<trkpt lat="26.33845" lon="127.94328">
<ele>-0.139859922038558</ele>
</trkpt>
<trkpt lat="26.33836" lon="127.94315">
<ele>-0.145039568036066</ele>
</trkpt>
<trkpt lat="26.33816" lon="127.94287">
<ele>-0.156328502389997</ele>
</trkpt>
<trkpt lat="26.33783" lon="127.94243">
<ele>-0.174415732928049</ele>
</trkpt>
<trkpt lat="26.33771" lon="127.94227">
<ele>-0.1809929150977</ele>
</trkpt>
<trkpt lat="26.33756" lon="127.94206">
<ele>-0.189459643504113</ele>
</trkpt>
<trkpt lat="26.33723" lon="127.94163">
<ele>-0.19674586181592</ele>
</trkpt>
<trkpt lat="26.33669" lon="127.94091">
<ele>-0.205198780504919</ele>
</trkpt>
<trkpt lat="26.33611" lon="127.94015">
<ele>-0.205470282423201</ele>
</trkpt>
<trkpt lat="26.33602" lon="127.94002">
<ele>-0.203109393871088</ele>
</trkpt>
<trkpt lat="26.33579" lon="127.93971">
<ele>-0.197326485462692</ele>
</trkpt>
<trkpt lat="26.33565" lon="127.93952">
<ele>-0.193791930093386</ele>
</trkpt>
<trkpt lat="26.33556" lon="127.9394">
<ele>-0.191543518468502</ele>
</trkpt>
<trkpt lat="26.33502" lon="127.93867">
<ele>0.45342032568422</ele>
</trkpt>
<trkpt lat="26.33422" lon="127.93759">
<ele>4.54941280078765</ele>
</trkpt>
<trkpt lat="26.33377" lon="127.93699">
<ele>4.90869283676147</ele>
</trkpt>
<trkpt lat="26.33358" lon="127.93672">
<ele>4.90869283676147</ele>
</trkpt>
<trkpt lat="26.33343" lon="127.9365">
<ele>4.90869283676147</ele>
</trkpt>
<trkpt lat="26.33325" lon="127.93624">
<ele>4.90869283676147</ele>
</trkpt>
<trkpt lat="26.3331" lon="127.93599">
<ele>4.90869283676147</ele>
</trkpt>
<trkpt lat="26.333" lon="127.93581">
<ele>4.90869283676147</ele>
</trkpt>
<trkpt lat="26.33288" lon="127.93559">
<ele>4.90869283676147</ele>
</trkpt>
<trkpt lat="26.33278" lon="127.9354">
<ele>4.90869283676147</ele>
</trkpt>
<trkpt lat="26.33264" lon="127.93512">
<ele>4.90869283676147</ele>
</trkpt>
<trkpt lat="26.33253" lon="127.93487">
<ele>4.90869283676147</ele>
</trkpt>
<trkpt lat="26.33243" lon="127.93464">
<ele>4.90869283676147</ele>
</trkpt>
<trkpt lat="26.33236" lon="127.93447">
<ele>4.90869283676147</ele>
</trkpt>
<trkpt lat="26.33227" lon="127.93423">
<ele>4.90869283676147</ele>
</trkpt>
<trkpt lat="26.33218" lon="127.93397">
<ele>4.90869283676147</ele>
</trkpt>
<trkpt lat="26.33214" lon="127.93386">
<ele>4.90869283676147</ele>
</trkpt>
<trkpt lat="26.33212" lon="127.93377">
<ele>4.90869283676147</ele>
</trkpt>
<trkpt lat="26.33203" lon="127.9335">
<ele>4.90869283676147</ele>
</trkpt>
<trkpt lat="26.33197" lon="127.93326">
<ele>4.90869283676147</ele>
</trkpt>
<trkpt lat="26.33193" lon="127.93312">
<ele>4.90869283676147</ele>
</trkpt>
<trkpt lat="26.33189" lon="127.93297">
<ele>4.90869283676147</ele>
</trkpt>
<trkpt lat="26.33185" lon="127.93278">
<ele>4.90869283676147</ele>
</trkpt>
<trkpt lat="26.3318" lon="127.93257">
<ele>4.90869283676147</ele>
</trkpt>
<trkpt lat="26.33176" lon="127.93236">
<ele>4.90869283676147</ele>
</trkpt>
<trkpt lat="26.3317" lon="127.93202">
<ele>4.90869283676147</ele>
</trkpt>
<trkpt lat="26.33166" lon="127.93169">
<ele>4.90869283676147</ele>
</trkpt>
<trkpt lat="26.33163" lon="127.9315">
<ele>4.90869283676147</ele>
</trkpt>
<trkpt lat="26.33162" lon="127.93132">
<ele>4.90869283676147</ele>
</trkpt>
<trkpt lat="26.33159" lon="127.93093">
<ele>4.90869283676147</ele>
</trkpt>
<trkpt lat="26.33158" lon="127.93076">
<ele>4.90869283676147</ele>
</trkpt>
<trkpt lat="26.33158" lon="127.93072">
<ele>4.90869283676147</ele>
</trkpt>
<trkpt lat="26.33157" lon="127.93054">
<ele>4.90869283676147</ele>
</trkpt>
<trkpt lat="26.33157" lon="127.93018">
<ele>4.90869283676147</ele>
</trkpt>
<trkpt lat="26.33153" lon="127.93016">
<ele>4.90869283676147</ele>
</trkpt>
<trkpt lat="26.33151" lon="127.93014">
<ele>4.90869283676147</ele>
</trkpt>
<trkpt lat="26.33143" lon="127.93003">
<ele>4.90869283676147</ele>
</trkpt>
<trkpt lat="26.3314" lon="127.93">
<ele>4.90869283676147</ele>
</trkpt>
<trkpt lat="26.33138" lon="127.92998">
<ele>4.90869283676147</ele>
</trkpt>
<trkpt lat="26.33137" lon="127.92996">
<ele>4.90869283676147</ele>
</trkpt>
<trkpt lat="26.33136" lon="127.92994">
<ele>4.90869283676147</ele>
</trkpt>
<trkpt lat="26.33136" lon="127.92993">
<ele>4.90869283676147</ele>
</trkpt>
<trkpt lat="26.33136" lon="127.92988">
<ele>4.90869283676147</ele>
</trkpt>
<trkpt lat="26.33136" lon="127.92974">
<ele>4.90869283676147</ele>
</trkpt>
<trkpt lat="26.33136" lon="127.92966">
<ele>4.90869283676147</ele>
</trkpt>
<trkpt lat="26.33136" lon="127.92939">
<ele>4.90869283676147</ele>
</trkpt>
<trkpt lat="26.33136" lon="127.92926">
<ele>4.90869283676147</ele>
</trkpt>
<trkpt lat="26.33137" lon="127.92921">
<ele>4.90869283676147</ele>
</trkpt>
    </trkseg>
  </trk>
</gpx>