<?xml version="1.0" encoding="UTF-8"?>
<gpx version="1.1"
     creator="KMLtoGPX"
     xmlns="http://www.topografix.com/GPX/1/1">
  <metadata>
    <name>Lake tour course</name>
    <desc>湖めぐりコース</desc>
    <bounds minlat="32.93264805555555" minlon="130.8572988888889" maxlat="32.96308388888889" maxlon="130.88078611111112"/>
  </metadata>
  <trk>
    <name>Lake tour course</name>
    <trkseg>
<trkpt lat="32.93267888888889" lon="130.8807461111111">
<ele>191</ele>
</trkpt>
<trkpt lat="32.932761944444444" lon="130.88078611111112">
<ele>190</ele>
</trkpt>
<trkpt lat="32.93362805555556" lon="130.8807361111111">
<ele>182</ele>
</trkpt>
<trkpt lat="32.93377" lon="130.88068611111112">
<ele>184</ele>
</trkpt>
<trkpt lat="32.93385305555555" lon="130.8806111111111">
<ele>186</ele>
</trkpt>
<trkpt lat="32.93393694444445" lon="130.8804861111111">
<ele>187</ele>
</trkpt>
<trkpt lat="32.93403694444444" lon="130.88014805555557">
<ele>186</ele>
</trkpt>
<trkpt lat="32.93412" lon="130.88001111111112">
<ele>186</ele>
</trkpt>
<trkpt lat="32.93423694444444" lon="130.8799111111111">
<ele>187</ele>
</trkpt>
<trkpt lat="32.934295" lon="130.87988611111112">
<ele>185</ele>
</trkpt>
<trkpt lat="32.93515305555555" lon="130.87947305555556">
<ele>186</ele>
</trkpt>
<trkpt lat="32.935403055555554" lon="130.8792861111111">
<ele>183</ele>
</trkpt>
<trkpt lat="32.93553611111111" lon="130.87909805555554">
<ele>184</ele>
</trkpt>
<trkpt lat="32.93582" lon="130.8786111111111">
<ele>185</ele>
</trkpt>
<trkpt lat="32.93592805555556" lon="130.87851111111112">
<ele>184</ele>
</trkpt>
<trkpt lat="32.936095" lon="130.87847305555556">
<ele>185</ele>
</trkpt>
<trkpt lat="32.93642805555555" lon="130.8784361111111">
<ele>181</ele>
</trkpt>
<trkpt lat="32.93663611111111" lon="130.8783611111111">
<ele>182</ele>
</trkpt>
<trkpt lat="32.93680305555556" lon="130.87817305555555">
<ele>184</ele>
</trkpt>
<trkpt lat="32.93716111111111" lon="130.87782305555555">
<ele>183</ele>
</trkpt>
<trkpt lat="32.93721111111111" lon="130.87774805555554">
<ele>182</ele>
</trkpt>
<trkpt lat="32.93722805555556" lon="130.8775861111111">
<ele>180</ele>
</trkpt>
<trkpt lat="32.937395" lon="130.87607305555557">
<ele>173</ele>
</trkpt>
<trkpt lat="32.93746111111111" lon="130.87542305555556">
<ele>172</ele>
</trkpt>
<trkpt lat="32.93747805555556" lon="130.87524805555555">
<ele>171</ele>
</trkpt>
<trkpt lat="32.937511111111114" lon="130.87513611111112">
<ele>171</ele>
</trkpt>
<trkpt lat="32.93763611111111" lon="130.87488611111112">
<ele>166</ele>
</trkpt>
<trkpt lat="32.938253055555556" lon="130.87377305555555">
<ele>161</ele>
</trkpt>
<trkpt lat="32.93848611111111" lon="130.87343611111112">
<ele>161</ele>
</trkpt>
<trkpt lat="32.93878611111111" lon="130.87304805555556">
<ele>159</ele>
</trkpt>
<trkpt lat="32.939078055555555" lon="130.87264805555554">
<ele>157</ele>
</trkpt>
<trkpt lat="32.93951888888889" lon="130.8719861111111">
<ele>153</ele>
</trkpt>
<trkpt lat="32.93981888888889" lon="130.87167305555556">
<ele>152</ele>
</trkpt>
<trkpt lat="32.94011888888889" lon="130.8714361111111">
<ele>150</ele>
</trkpt>
<trkpt lat="32.94036888888889" lon="130.87127305555555">
<ele>148</ele>
</trkpt>
<trkpt lat="32.94045194444445" lon="130.87116111111112">
<ele>146</ele>
</trkpt>
<trkpt lat="32.94058611111111" lon="130.87084805555557">
<ele>144</ele>
</trkpt>
<trkpt lat="32.94092805555555" lon="130.87024888888888">
<ele>142</ele>
</trkpt>
<trkpt lat="32.940978055555554" lon="130.87016111111112">
<ele>142</ele>
</trkpt>
<trkpt lat="32.94096888888889" lon="130.8700988888889">
<ele>142</ele>
</trkpt>
<trkpt lat="32.94099388888889" lon="130.8698738888889">
<ele>142</ele>
</trkpt>
<trkpt lat="32.94107694444445" lon="130.8695488888889">
<ele>142</ele>
</trkpt>
<trkpt lat="32.94137805555555" lon="130.86878611111112">
<ele>142</ele>
</trkpt>
<trkpt lat="32.94141111111111" lon="130.86867388888888">
<ele>141</ele>
</trkpt>
<trkpt lat="32.941451944444445" lon="130.8685111111111">
<ele>142</ele>
</trkpt>
<trkpt lat="32.94150305555556" lon="130.86821111111112">
<ele>142</ele>
</trkpt>
<trkpt lat="32.94150305555556" lon="130.8676738888889">
<ele>141</ele>
</trkpt>
<trkpt lat="32.941518888888886" lon="130.8660988888889">
<ele>137</ele>
</trkpt>
<trkpt lat="32.94153611111111" lon="130.8648611111111">
<ele>135</ele>
</trkpt>
<trkpt lat="32.94155194444444" lon="130.8646861111111">
<ele>134</ele>
</trkpt>
<trkpt lat="32.94156111111111" lon="130.86457388888888">
<ele>135</ele>
</trkpt>
<trkpt lat="32.941626944444444" lon="130.86436111111112">
<ele>134</ele>
</trkpt>
<trkpt lat="32.941651944444445" lon="130.8641738888889">
<ele>133</ele>
</trkpt>
<trkpt lat="32.94166888888889" lon="130.8638861111111">
<ele>130</ele>
</trkpt>
<trkpt lat="32.94166888888889" lon="130.8638238888889">
<ele>130</ele>
</trkpt>
<trkpt lat="32.941651944444445" lon="130.8628361111111">
<ele>126</ele>
</trkpt>
<trkpt lat="32.94171111111111" lon="130.8623738888889">
<ele>124</ele>
</trkpt>
<trkpt lat="32.941786111111114" lon="130.8620738888889">
<ele>123</ele>
</trkpt>
<trkpt lat="32.941943888888886" lon="130.8615988888889">
<ele>123</ele>
</trkpt>
<trkpt lat="32.94199388888889" lon="130.86136194444444">
<ele>122</ele>
</trkpt>
<trkpt lat="32.94211111111111" lon="130.86096194444445">
<ele>122</ele>
</trkpt>
<trkpt lat="32.94222694444444" lon="130.86068694444444">
<ele>122</ele>
</trkpt>
<trkpt lat="32.942368888888886" lon="130.8604738888889">
<ele>123</ele>
</trkpt>
<trkpt lat="32.94287694444444" lon="130.86021194444444">
<ele>121</ele>
</trkpt>
<trkpt lat="32.94307694444444" lon="130.86008694444445">
<ele>119</ele>
</trkpt>
<trkpt lat="32.94330194444444" lon="130.8598988888889">
<ele>119</ele>
</trkpt>
<trkpt lat="32.94349388888889" lon="130.85966194444444">
<ele>119</ele>
</trkpt>
<trkpt lat="32.943735" lon="130.8594238888889">
<ele>119</ele>
</trkpt>
<trkpt lat="32.94409388888889" lon="130.85898694444444">
<ele>119</ele>
</trkpt>
<trkpt lat="32.94441" lon="130.8584988888889">
<ele>119</ele>
</trkpt>
<trkpt lat="32.944685" lon="130.8579488888889">
<ele>119</ele>
</trkpt>
<trkpt lat="32.94496888888889" lon="130.8572988888889">
<ele>119</ele>
</trkpt>
<trkpt lat="32.945085" lon="130.8573988888889">
<ele>119</ele>
</trkpt>
<trkpt lat="32.94509388888889" lon="130.8577488888889">
<ele>121</ele>
</trkpt>
<trkpt lat="32.94516" lon="130.85792388888888">
<ele>124</ele>
</trkpt>
<trkpt lat="32.94526888888889" lon="130.85801194444446">
<ele>125</ele>
</trkpt>
<trkpt lat="32.945385" lon="130.8580488888889">
<ele>123</ele>
</trkpt>
<trkpt lat="32.945585" lon="130.85803694444445">
<ele>119</ele>
</trkpt>
<trkpt lat="32.94620194444445" lon="130.85786194444444">
<ele>117</ele>
</trkpt>
<trkpt lat="32.947068055555555" lon="130.85766194444443">
<ele>112</ele>
</trkpt>
<trkpt lat="32.947293055555555" lon="130.85763694444444">
<ele>110</ele>
</trkpt>
<trkpt lat="32.94750194444445" lon="130.85761194444444">
<ele>109</ele>
</trkpt>
<trkpt lat="32.94786" lon="130.8576238888889">
<ele>106</ele>
</trkpt>
<trkpt lat="32.948076944444445" lon="130.8576488888889">
<ele>105</ele>
</trkpt>
<trkpt lat="32.94851805555555" lon="130.85776194444443">
<ele>105</ele>
</trkpt>
<trkpt lat="32.94882611111111" lon="130.85786194444444">
<ele>106</ele>
</trkpt>
<trkpt lat="32.94926805555556" lon="130.85796194444444">
<ele>107</ele>
</trkpt>
<trkpt lat="32.95016" lon="130.8581738888889">
<ele>112</ele>
</trkpt>
<trkpt lat="32.95016694444445" lon="130.8582861111111">
<ele>111</ele>
</trkpt>
<trkpt lat="32.95016694444445" lon="130.8582861111111">
<ele>111</ele>
</trkpt>
<trkpt lat="32.95016805555556" lon="130.85831194444444">
<ele>111</ele>
</trkpt>
<trkpt lat="32.95031" lon="130.85853694444444">
<ele>111</ele>
</trkpt>
<trkpt lat="32.95036805555556" lon="130.8587361111111">
<ele>112</ele>
</trkpt>
<trkpt lat="32.950385" lon="130.8588988888889">
<ele>113</ele>
</trkpt>
<trkpt lat="32.950451111111114" lon="130.85906111111112">
<ele>114</ele>
</trkpt>
<trkpt lat="32.950493055555555" lon="130.85916111111112">
<ele>115</ele>
</trkpt>
<trkpt lat="32.950493055555555" lon="130.8593361111111">
<ele>117</ele>
</trkpt>
<trkpt lat="32.950435" lon="130.8595611111111">
<ele>117</ele>
</trkpt>
<trkpt lat="32.95041805555555" lon="130.8596488888889">
<ele>117</ele>
</trkpt>
<trkpt lat="32.95042611111111" lon="130.8597611111111">
<ele>117</ele>
</trkpt>
<trkpt lat="32.950493055555555" lon="130.86004888888888">
<ele>119</ele>
</trkpt>
<trkpt lat="32.95055111111111" lon="130.86031111111112">
<ele>118</ele>
</trkpt>
<trkpt lat="32.95061611111111" lon="130.8605161111111">
<ele>119</ele>
</trkpt>
<trkpt lat="32.95061611111111" lon="130.8605161111111">
<ele>119</ele>
</trkpt>
<trkpt lat="32.95062611111111" lon="130.8605488888889">
<ele>119</ele>
</trkpt>
<trkpt lat="32.950735" lon="130.8606611111111">
<ele>119</ele>
</trkpt>
<trkpt lat="32.95081" lon="130.86073611111112">
<ele>119</ele>
</trkpt>
<trkpt lat="32.95090111111111" lon="130.8608238888889">
<ele>119</ele>
</trkpt>
<trkpt lat="32.951101111111115" lon="130.8610488888889">
<ele>119</ele>
</trkpt>
<trkpt lat="32.95121805555556" lon="130.86117388888889">
<ele>118</ele>
</trkpt>
<trkpt lat="32.951318055555554" lon="130.86129888888888">
<ele>119</ele>
</trkpt>
<trkpt lat="32.95147611111111" lon="130.86142388888888">
<ele>119</ele>
</trkpt>
<trkpt lat="32.95160111111111" lon="130.8614988888889">
<ele>119</ele>
</trkpt>
<trkpt lat="32.95171" lon="130.86156111111111">
<ele>118</ele>
</trkpt>
<trkpt lat="32.95177611111111" lon="130.86163611111112">
<ele>118</ele>
</trkpt>
<trkpt lat="32.951935" lon="130.8618488888889">
<ele>118</ele>
</trkpt>
<trkpt lat="32.95196" lon="130.86187388888888">
<ele>118</ele>
</trkpt>
<trkpt lat="32.95214305555555" lon="130.8621238888889">
<ele>118</ele>
</trkpt>
<trkpt lat="32.95236805555555" lon="130.8623738888889">
<ele>118</ele>
</trkpt>
<trkpt lat="32.95252611111111" lon="130.8625361111111">
<ele>120</ele>
</trkpt>
<trkpt lat="32.952756111111114" lon="130.8627038888889">
<ele>123</ele>
</trkpt>
<trkpt lat="32.952756111111114" lon="130.8627038888889">
<ele>123</ele>
</trkpt>
<trkpt lat="32.952818055555554" lon="130.8627488888889">
<ele>124</ele>
</trkpt>
<trkpt lat="32.95296805555556" lon="130.8627611111111">
<ele>125</ele>
</trkpt>
<trkpt lat="32.954101111111115" lon="130.8627361111111">
<ele>134</ele>
</trkpt>
<trkpt lat="32.95467611111111" lon="130.86277388888888">
<ele>134</ele>
</trkpt>
<trkpt lat="32.95513388888889" lon="130.8628111111111">
<ele>124</ele>
</trkpt>
<trkpt lat="32.95535888888889" lon="130.86288611111112">
<ele>124</ele>
</trkpt>
<trkpt lat="32.955418055555555" lon="130.86289888888888">
<ele>123</ele>
</trkpt>
<trkpt lat="32.95565888888889" lon="130.86299888888888">
<ele>124</ele>
</trkpt>
<trkpt lat="32.955893055555556" lon="130.86301111111112">
<ele>124</ele>
</trkpt>
<trkpt lat="32.956405" lon="130.8629938888889">
<ele>125</ele>
</trkpt>
<trkpt lat="32.956405" lon="130.8629938888889">
<ele>125</ele>
</trkpt>
<trkpt lat="32.956668055555554" lon="130.8629861111111">
<ele>125</ele>
</trkpt>
<trkpt lat="32.95701694444445" lon="130.86297305555556">
<ele>126</ele>
</trkpt>
<trkpt lat="32.95720111111111" lon="130.86301111111112">
<ele>126</ele>
</trkpt>
<trkpt lat="32.957341944444444" lon="130.86309805555555">
<ele>127</ele>
</trkpt>
<trkpt lat="32.957616944444446" lon="130.86342305555556">
<ele>126</ele>
</trkpt>
<trkpt lat="32.957765" lon="130.86356805555556">
<ele>126</ele>
</trkpt>
<trkpt lat="32.957765" lon="130.86356694444444">
<ele>126</ele>
</trkpt>
<trkpt lat="32.95778388888889" lon="130.86358611111112">
<ele>126</ele>
</trkpt>
<trkpt lat="32.95795888888889" lon="130.86372305555557">
<ele>127</ele>
</trkpt>
<trkpt lat="32.95817611111111" lon="130.86384805555556">
<ele>127</ele>
</trkpt>
<trkpt lat="32.95836805555555" lon="130.86391111111112">
<ele>128</ele>
</trkpt>
<trkpt lat="32.958345" lon="130.8639638888889">
<ele>128</ele>
</trkpt>
<trkpt lat="32.958345" lon="130.8639638888889">
<ele>128</ele>
</trkpt>
<trkpt lat="32.95836805555555" lon="130.86391111111112">
<ele>128</ele>
</trkpt>
<trkpt lat="32.958643055555555" lon="130.86354805555555">
<ele>129</ele>
</trkpt>
<trkpt lat="32.95890888888889" lon="130.86327305555557">
<ele>133</ele>
</trkpt>
<trkpt lat="32.95889611111111" lon="130.863245">
<ele>133</ele>
</trkpt>
<trkpt lat="32.95889611111111" lon="130.863245">
<ele>133</ele>
</trkpt>
<trkpt lat="32.95875888888889" lon="130.8629611111111">
<ele>133</ele>
</trkpt>
<trkpt lat="32.95862611111111" lon="130.86277305555555">
<ele>133</ele>
</trkpt>
<trkpt lat="32.95840888888889" lon="130.86261888888887">
<ele>133</ele>
</trkpt>
<trkpt lat="32.95840888888889" lon="130.86261888888887">
<ele>133</ele>
</trkpt>
<trkpt lat="32.95813388888889" lon="130.86242305555555">
<ele>133</ele>
</trkpt>
<trkpt lat="32.95811805555556" lon="130.8624111111111">
<ele>133</ele>
</trkpt>
<trkpt lat="32.95811805555556" lon="130.8624111111111">
<ele>133</ele>
</trkpt>
<trkpt lat="32.95813388888889" lon="130.86242305555555">
<ele>133</ele>
</trkpt>
<trkpt lat="32.95862611111111" lon="130.86277305555555">
<ele>133</ele>
</trkpt>
<trkpt lat="32.95875888888889" lon="130.8629611111111">
<ele>133</ele>
</trkpt>
<trkpt lat="32.95890888888889" lon="130.86327305555557">
<ele>133</ele>
</trkpt>
<trkpt lat="32.958643055555555" lon="130.86354805555555">
<ele>129</ele>
</trkpt>
<trkpt lat="32.95836805555555" lon="130.86391111111112">
<ele>128</ele>
</trkpt>
<trkpt lat="32.95802805555556" lon="130.86469694444443">
<ele>130</ele>
</trkpt>
<trkpt lat="32.95802805555556" lon="130.86469694444443">
<ele>130</ele>
</trkpt>
<trkpt lat="32.95800111111111" lon="130.8647611111111">
<ele>130</ele>
</trkpt>
<trkpt lat="32.95826805555556" lon="130.86487305555556">
<ele>130</ele>
</trkpt>
<trkpt lat="32.958466944444446" lon="130.86517305555554">
<ele>132</ele>
</trkpt>
<trkpt lat="32.95920111111111" lon="130.8655361111111">
<ele>132</ele>
</trkpt>
<trkpt lat="32.959066944444444" lon="130.86579805555556">
<ele>135</ele>
</trkpt>
<trkpt lat="32.959055" lon="130.86583611111112">
<ele>135</ele>
</trkpt>
<trkpt lat="32.959055" lon="130.86583611111112">
<ele>135</ele>
</trkpt>
<trkpt lat="32.959066944444444" lon="130.86579805555556">
<ele>135</ele>
</trkpt>
<trkpt lat="32.95920111111111" lon="130.8655361111111">
<ele>132</ele>
</trkpt>
<trkpt lat="32.959268055555555" lon="130.86539805555554">
<ele>131</ele>
</trkpt>
<trkpt lat="32.95938388888889" lon="130.86517305555554">
<ele>130</ele>
</trkpt>
<trkpt lat="32.95956694444445" lon="130.86494805555554">
<ele>131</ele>
</trkpt>
<trkpt lat="32.95964305555555" lon="130.8648861111111">
<ele>131</ele>
</trkpt>
<trkpt lat="32.95980888888889" lon="130.86472305555554">
<ele>133</ele>
</trkpt>
<trkpt lat="32.959941944444445" lon="130.86462305555557">
<ele>135</ele>
</trkpt>
<trkpt lat="32.959983888888885" lon="130.8646588888889">
<ele>136</ele>
</trkpt>
<trkpt lat="32.959983888888885" lon="130.8646588888889">
<ele>136</ele>
</trkpt>
<trkpt lat="32.96005888888889" lon="130.86472305555554">
<ele>137</ele>
</trkpt>
<trkpt lat="32.96049194444444" lon="130.8652361111111">
<ele>133</ele>
</trkpt>
<trkpt lat="32.960766944444444" lon="130.8656861111111">
<ele>133</ele>
</trkpt>
<trkpt lat="32.96080194444444" lon="130.86600694444445">
<ele>134</ele>
</trkpt>
<trkpt lat="32.96080194444444" lon="130.86600694444445">
<ele>134</ele>
</trkpt>
<trkpt lat="32.96080888888889" lon="130.86607305555555">
<ele>134</ele>
</trkpt>
<trkpt lat="32.960816944444446" lon="130.86627305555555">
<ele>134</ele>
</trkpt>
<trkpt lat="32.96084194444445" lon="130.8667861111111">
<ele>136</ele>
</trkpt>
<trkpt lat="32.96091694444444" lon="130.86697305555555">
<ele>137</ele>
</trkpt>
<trkpt lat="32.96093194444445" lon="130.86699305555555">
<ele>137</ele>
</trkpt>
<trkpt lat="32.96093194444445" lon="130.86699305555555">
<ele>137</ele>
</trkpt>
<trkpt lat="32.961191944444444" lon="130.8673611111111">
<ele>137</ele>
</trkpt>
<trkpt lat="32.96143388888889" lon="130.86771">
<ele>137</ele>
</trkpt>
<trkpt lat="32.96155111111111" lon="130.86792305555556">
<ele>137</ele>
</trkpt>
<trkpt lat="32.96173388888889" lon="130.86827305555556">
<ele>138</ele>
</trkpt>
<trkpt lat="32.96195111111111" lon="130.86862305555556">
<ele>138</ele>
</trkpt>
<trkpt lat="32.96208388888889" lon="130.86884805555556">
<ele>139</ele>
</trkpt>
<trkpt lat="32.96228194444444" lon="130.869135">
<ele>140</ele>
</trkpt>
<trkpt lat="32.96228194444444" lon="130.869135">
<ele>140</ele>
</trkpt>
<trkpt lat="32.962358888888886" lon="130.86924805555554">
<ele>141</ele>
</trkpt>
<trkpt lat="32.96258388888889" lon="130.869485">
<ele>142</ele>
</trkpt>
<trkpt lat="32.96282611111111" lon="130.86964805555556">
<ele>143</ele>
</trkpt>
<trkpt lat="32.96304194444444" lon="130.869735">
<ele>145</ele>
</trkpt>
<trkpt lat="32.96305111111111" lon="130.86996">
<ele>142</ele>
</trkpt>
<trkpt lat="32.96305111111111" lon="130.87006">
<ele>142</ele>
</trkpt>
<trkpt lat="32.96308388888889" lon="130.870155">
<ele>143</ele>
</trkpt>
<trkpt lat="32.96308388888889" lon="130.870155">
<ele>143</ele>
</trkpt>
<trkpt lat="32.96305111111111" lon="130.87006">
<ele>142</ele>
</trkpt>
<trkpt lat="32.96305111111111" lon="130.86996">
<ele>142</ele>
</trkpt>
<trkpt lat="32.961376111111115" lon="130.870735">
<ele>147</ele>
</trkpt>
<trkpt lat="32.96115888888889" lon="130.870835">
<ele>150</ele>
</trkpt>
<trkpt lat="32.961083888888886" lon="130.87087305555556">
<ele>151</ele>
</trkpt>
<trkpt lat="32.960993888888886" lon="130.8709388888889">
<ele>152</ele>
</trkpt>
<trkpt lat="32.960993888888886" lon="130.8709388888889">
<ele>152</ele>
</trkpt>
<trkpt lat="32.961083888888886" lon="130.87087305555556">
<ele>151</ele>
</trkpt>
<trkpt lat="32.96097611111111" lon="130.87074805555557">
<ele>151</ele>
</trkpt>
<trkpt lat="32.96091694444444" lon="130.87064805555556">
<ele>151</ele>
</trkpt>
<trkpt lat="32.96077611111111" lon="130.87026">
<ele>151</ele>
</trkpt>
<trkpt lat="32.96073388888889" lon="130.87009805555556">
<ele>150</ele>
</trkpt>
<trkpt lat="32.96068388888889" lon="130.869885">
<ele>150</ele>
</trkpt>
<trkpt lat="32.96062611111111" lon="130.86967305555555">
<ele>150</ele>
</trkpt>
<trkpt lat="32.960591944444445" lon="130.869535">
<ele>150</ele>
</trkpt>
<trkpt lat="32.96052611111111" lon="130.869385">
<ele>150</ele>
</trkpt>
<trkpt lat="32.96050388888889" lon="130.8693461111111">
<ele>150</ele>
</trkpt>
<trkpt lat="32.96050388888889" lon="130.8693461111111">
<ele>150</ele>
</trkpt>
<trkpt lat="32.96040888888889" lon="130.86917305555556">
<ele>150</ele>
</trkpt>
<trkpt lat="32.96026805555555" lon="130.868935">
<ele>150</ele>
</trkpt>
<trkpt lat="32.96005111111111" lon="130.86861">
<ele>150</ele>
</trkpt>
<trkpt lat="32.95985888888889" lon="130.86834805555554">
<ele>150</ele>
</trkpt>
<trkpt lat="32.95982611111111" lon="130.86827305555556">
<ele>148</ele>
</trkpt>
<trkpt lat="32.95977611111111" lon="130.86821111111112">
<ele>145</ele>
</trkpt>
<trkpt lat="32.959691944444444" lon="130.8679361111111">
<ele>140</ele>
</trkpt>
<trkpt lat="32.95965888888889" lon="130.86786111111113">
<ele>141</ele>
</trkpt>
<trkpt lat="32.959583888888886" lon="130.86776111111112">
<ele>141</ele>
</trkpt>
<trkpt lat="32.95886388888889" lon="130.86689805555557">
<ele>139</ele>
</trkpt>
<trkpt lat="32.95886388888889" lon="130.86689805555557">
<ele>139</ele>
</trkpt>
<trkpt lat="32.95875888888889" lon="130.86677305555557">
<ele>139</ele>
</trkpt>
<trkpt lat="32.957633888888886" lon="130.86753611111112">
<ele>138</ele>
</trkpt>
<trkpt lat="32.95732611111111" lon="130.86774805555555">
<ele>137</ele>
</trkpt>
<trkpt lat="32.95715888888889" lon="130.86784805555556">
<ele>136</ele>
</trkpt>
<trkpt lat="32.95695111111111" lon="130.86797305555555">
<ele>135</ele>
</trkpt>
<trkpt lat="32.95667611111111" lon="130.8681611111111">
<ele>136</ele>
</trkpt>
<trkpt lat="32.95632388888889" lon="130.86838305555557">
<ele>134</ele>
</trkpt>
<trkpt lat="32.95632388888889" lon="130.86838305555557">
<ele>134</ele>
</trkpt>
<trkpt lat="32.95620111111111" lon="130.86846111111112">
<ele>134</ele>
</trkpt>
<trkpt lat="32.95607611111111" lon="130.8685361111111">
<ele>133</ele>
</trkpt>
<trkpt lat="32.955511111111115" lon="130.86888805555554">
<ele>136</ele>
</trkpt>
<trkpt lat="32.955511111111115" lon="130.86888805555554">
<ele>136</ele>
</trkpt>
<trkpt lat="32.95543388888889" lon="130.8689361111111">
<ele>136</ele>
</trkpt>
<trkpt lat="32.95535111111111" lon="130.86901111111112">
<ele>137</ele>
</trkpt>
<trkpt lat="32.95525888888889" lon="130.86914805555554">
<ele>137</ele>
</trkpt>
<trkpt lat="32.955218055555555" lon="130.86932305555555">
<ele>138</ele>
</trkpt>
<trkpt lat="32.95520111111111" lon="130.8700111111111">
<ele>143</ele>
</trkpt>
<trkpt lat="32.95517611111111" lon="130.8701111111111">
<ele>143</ele>
</trkpt>
<trkpt lat="32.95513388888889" lon="130.8701861111111">
<ele>145</ele>
</trkpt>
<trkpt lat="32.95507611111111" lon="130.8702361111111">
<ele>145</ele>
</trkpt>
<trkpt lat="32.955061944444445" lon="130.870245">
<ele>145</ele>
</trkpt>
<trkpt lat="32.955061944444445" lon="130.870245">
<ele>145</ele>
</trkpt>
<trkpt lat="32.95455888888889" lon="130.87061111111112">
<ele>147</ele>
</trkpt>
<trkpt lat="32.95442611111111" lon="130.87069805555555">
<ele>148</ele>
</trkpt>
<trkpt lat="32.95433388888889" lon="130.8707611111111">
<ele>148</ele>
</trkpt>
<trkpt lat="32.95419305555556" lon="130.87081111111112">
<ele>147</ele>
</trkpt>
<trkpt lat="32.95406805555555" lon="130.87079805555555">
<ele>145</ele>
</trkpt>
<trkpt lat="32.95382611111111" lon="130.8706861111111">
<ele>144</ele>
</trkpt>
<trkpt lat="32.95379305555556" lon="130.8706811111111">
<ele>144</ele>
</trkpt>
<trkpt lat="32.95379305555556" lon="130.8706811111111">
<ele>144</ele>
</trkpt>
<trkpt lat="32.95362611111111" lon="130.8706611111111">
<ele>144</ele>
</trkpt>
<trkpt lat="32.95334305555556" lon="130.87067305555556">
<ele>141</ele>
</trkpt>
<trkpt lat="32.953001111111114" lon="130.8706861111111">
<ele>139</ele>
</trkpt>
<trkpt lat="32.952935" lon="130.8706611111111">
<ele>139</ele>
</trkpt>
<trkpt lat="32.95294388888889" lon="130.87067805555554">
<ele>139</ele>
</trkpt>
<trkpt lat="32.95294388888889" lon="130.87067805555554">
<ele>139</ele>
</trkpt>
<trkpt lat="32.952935" lon="130.8706611111111">
<ele>139</ele>
</trkpt>
<trkpt lat="32.952735" lon="130.8705111111111">
<ele>138</ele>
</trkpt>
<trkpt lat="32.95252611111111" lon="130.87027305555554">
<ele>138</ele>
</trkpt>
<trkpt lat="32.952443055555555" lon="130.87014805555555">
<ele>136</ele>
</trkpt>
<trkpt lat="32.95216805555555" lon="130.86969805555555">
<ele>129</ele>
</trkpt>
<trkpt lat="32.952018055555556" lon="130.86949805555557">
<ele>129</ele>
</trkpt>
<trkpt lat="32.95189305555556" lon="130.86929805555556">
<ele>129</ele>
</trkpt>
<trkpt lat="32.95185111111111" lon="130.86922305555555">
<ele>128</ele>
</trkpt>
<trkpt lat="32.95180111111111" lon="130.8690861111111">
<ele>129</ele>
</trkpt>
<trkpt lat="32.95161" lon="130.8685361111111">
<ele>124</ele>
</trkpt>
<trkpt lat="32.95155805555556" lon="130.86844305555556">
<ele>124</ele>
</trkpt>
<trkpt lat="32.95155805555556" lon="130.86844305555556">
<ele>124</ele>
</trkpt>
<trkpt lat="32.951526111111114" lon="130.8683861111111">
<ele>124</ele>
</trkpt>
<trkpt lat="32.95141805555556" lon="130.8682861111111">
<ele>124</ele>
</trkpt>
<trkpt lat="32.95129305555555" lon="130.86822305555555">
<ele>124</ele>
</trkpt>
<trkpt lat="32.95109305555555" lon="130.86819805555555">
<ele>123</ele>
</trkpt>
<trkpt lat="32.950651111111114" lon="130.86824805555557">
<ele>121</ele>
</trkpt>
<trkpt lat="32.95032694444444" lon="130.86824805555557">
<ele>122</ele>
</trkpt>
<trkpt lat="32.949551944444444" lon="130.86807305555556">
<ele>122</ele>
</trkpt>
<trkpt lat="32.94766" lon="130.8675861111111">
<ele>126</ele>
</trkpt>
<trkpt lat="32.947651111111114" lon="130.86763611111112">
<ele>126</ele>
</trkpt>
<trkpt lat="32.947651111111114" lon="130.86763611111112">
<ele>126</ele>
</trkpt>
<trkpt lat="32.947585" lon="130.86799805555555">
<ele>126</ele>
</trkpt>
<trkpt lat="32.94755194444444" lon="130.86811111111112">
<ele>126</ele>
</trkpt>
<trkpt lat="32.94737694444444" lon="130.8684861111111">
<ele>127</ele>
</trkpt>
<trkpt lat="32.94719388888889" lon="130.8688361111111">
<ele>128</ele>
</trkpt>
<trkpt lat="32.947135" lon="130.86888611111112">
<ele>128</ele>
</trkpt>
<trkpt lat="32.94689388888889" lon="130.86902305555554">
<ele>129</ele>
</trkpt>
<trkpt lat="32.946626944444446" lon="130.86913611111112">
<ele>131</ele>
</trkpt>
<trkpt lat="32.94636888888889" lon="130.86924805555554">
<ele>132</ele>
</trkpt>
<trkpt lat="32.946285" lon="130.86933611111112">
<ele>133</ele>
</trkpt>
<trkpt lat="32.946235" lon="130.86939805555556">
<ele>133</ele>
</trkpt>
<trkpt lat="32.94610194444444" lon="130.86959805555554">
<ele>135</ele>
</trkpt>
<trkpt lat="32.94605194444444" lon="130.86964805555556">
<ele>135</ele>
</trkpt>
<trkpt lat="32.945951944444445" lon="130.86968611111112">
<ele>136</ele>
</trkpt>
<trkpt lat="32.94569388888889" lon="130.86981111111112">
<ele>137</ele>
</trkpt>
<trkpt lat="32.94562694444444" lon="130.86992305555555">
<ele>138</ele>
</trkpt>
<trkpt lat="32.94551888888889" lon="130.87027305555554">
<ele>139</ele>
</trkpt>
<trkpt lat="32.945485" lon="130.87039805555557">
<ele>139</ele>
</trkpt>
<trkpt lat="32.94536" lon="130.87038611111112">
<ele>140</ele>
</trkpt>
<trkpt lat="32.94525194444444" lon="130.8704111111111">
<ele>140</ele>
</trkpt>
<trkpt lat="32.94515194444445" lon="130.87047305555555">
<ele>142</ele>
</trkpt>
<trkpt lat="32.94496888888889" lon="130.87057305555555">
<ele>143</ele>
</trkpt>
<trkpt lat="32.944786111111114" lon="130.87061111111112">
<ele>144</ele>
</trkpt>
<trkpt lat="32.94463611111111" lon="130.8706861111111">
<ele>145</ele>
</trkpt>
<trkpt lat="32.94451888888889" lon="130.87074805555557">
<ele>146</ele>
</trkpt>
<trkpt lat="32.944426944444444" lon="130.87082305555555">
<ele>146</ele>
</trkpt>
<trkpt lat="32.94421888888889" lon="130.8710111111111">
<ele>146</ele>
</trkpt>
<trkpt lat="32.94408611111111" lon="130.87109805555556">
<ele>147</ele>
</trkpt>
<trkpt lat="32.94395194444444" lon="130.87114805555555">
<ele>147</ele>
</trkpt>
<trkpt lat="32.94327694444444" lon="130.87138611111112">
<ele>151</ele>
</trkpt>
<trkpt lat="32.94261888888889" lon="130.87154805555556">
<ele>151</ele>
</trkpt>
<trkpt lat="32.94233611111111" lon="130.8715611111111">
<ele>149</ele>
</trkpt>
<trkpt lat="32.94208611111111" lon="130.87148611111112">
<ele>148</ele>
</trkpt>
<trkpt lat="32.94201888888889" lon="130.8714611111111">
<ele>148</ele>
</trkpt>
<trkpt lat="32.94193611111111" lon="130.8714361111111">
<ele>147</ele>
</trkpt>
<trkpt lat="32.94157805555555" lon="130.87128611111112">
<ele>146</ele>
</trkpt>
<trkpt lat="32.94161888888889" lon="130.87097305555557">
<ele>146</ele>
</trkpt>
<trkpt lat="32.941628055555555" lon="130.87083611111112">
<ele>146</ele>
</trkpt>
<trkpt lat="32.94146888888889" lon="130.87024805555555">
<ele>146</ele>
</trkpt>
<trkpt lat="32.94144388888889" lon="130.8701861111111">
<ele>145</ele>
</trkpt>
<trkpt lat="32.94141111111111" lon="130.87017305555557">
<ele>145</ele>
</trkpt>
<trkpt lat="32.941003888888886" lon="130.87016194444445">
<ele>142</ele>
</trkpt>
<trkpt lat="32.941003888888886" lon="130.87016194444445">
<ele>142</ele>
</trkpt>
<trkpt lat="32.940978055555554" lon="130.87016111111112">
<ele>142</ele>
</trkpt>
<trkpt lat="32.94092805555555" lon="130.87024888888888">
<ele>142</ele>
</trkpt>
<trkpt lat="32.94058611111111" lon="130.87084805555557">
<ele>144</ele>
</trkpt>
<trkpt lat="32.94045194444445" lon="130.87116111111112">
<ele>146</ele>
</trkpt>
<trkpt lat="32.94036888888889" lon="130.87127305555555">
<ele>148</ele>
</trkpt>
<trkpt lat="32.94011888888889" lon="130.8714361111111">
<ele>150</ele>
</trkpt>
<trkpt lat="32.93981888888889" lon="130.87167305555556">
<ele>152</ele>
</trkpt>
<trkpt lat="32.93951888888889" lon="130.8719861111111">
<ele>153</ele>
</trkpt>
<trkpt lat="32.939078055555555" lon="130.87264805555554">
<ele>157</ele>
</trkpt>
<trkpt lat="32.93878611111111" lon="130.87304805555556">
<ele>159</ele>
</trkpt>
<trkpt lat="32.93848611111111" lon="130.87343611111112">
<ele>161</ele>
</trkpt>
<trkpt lat="32.938253055555556" lon="130.87377305555555">
<ele>161</ele>
</trkpt>
<trkpt lat="32.93763611111111" lon="130.87488611111112">
<ele>166</ele>
</trkpt>
<trkpt lat="32.937511111111114" lon="130.87513611111112">
<ele>171</ele>
</trkpt>
<trkpt lat="32.93747805555556" lon="130.87524805555555">
<ele>171</ele>
</trkpt>
<trkpt lat="32.93746111111111" lon="130.87542305555556">
<ele>172</ele>
</trkpt>
<trkpt lat="32.937395" lon="130.87607305555557">
<ele>173</ele>
</trkpt>
<trkpt lat="32.93722805555556" lon="130.8775861111111">
<ele>180</ele>
</trkpt>
<trkpt lat="32.93721111111111" lon="130.87774805555554">
<ele>182</ele>
</trkpt>
<trkpt lat="32.93716111111111" lon="130.87782305555555">
<ele>183</ele>
</trkpt>
<trkpt lat="32.93680305555556" lon="130.87817305555555">
<ele>184</ele>
</trkpt>
<trkpt lat="32.93663611111111" lon="130.8783611111111">
<ele>182</ele>
</trkpt>
<trkpt lat="32.93642805555555" lon="130.8784361111111">
<ele>181</ele>
</trkpt>
<trkpt lat="32.936095" lon="130.87847305555556">
<ele>185</ele>
</trkpt>
<trkpt lat="32.93592805555556" lon="130.87851111111112">
<ele>184</ele>
</trkpt>
<trkpt lat="32.93582" lon="130.8786111111111">
<ele>185</ele>
</trkpt>
<trkpt lat="32.93553611111111" lon="130.87909805555554">
<ele>184</ele>
</trkpt>
<trkpt lat="32.935403055555554" lon="130.8792861111111">
<ele>183</ele>
</trkpt>
<trkpt lat="32.93515305555555" lon="130.87947305555556">
<ele>186</ele>
</trkpt>
<trkpt lat="32.934295" lon="130.87988611111112">
<ele>185</ele>
</trkpt>
<trkpt lat="32.93423694444444" lon="130.8799111111111">
<ele>187</ele>
</trkpt>
<trkpt lat="32.93412" lon="130.88001111111112">
<ele>186</ele>
</trkpt>
<trkpt lat="32.93403694444444" lon="130.88014805555557">
<ele>186</ele>
</trkpt>
<trkpt lat="32.93393694444445" lon="130.8804861111111">
<ele>187</ele>
</trkpt>
<trkpt lat="32.93385305555555" lon="130.8806111111111">
<ele>186</ele>
</trkpt>
<trkpt lat="32.93377" lon="130.88068611111112">
<ele>184</ele>
</trkpt>
<trkpt lat="32.93362805555556" lon="130.8807361111111">
<ele>182</ele>
</trkpt>
<trkpt lat="32.932761944444444" lon="130.88078611111112">
<ele>190</ele>
</trkpt>
<trkpt lat="32.93264805555555" lon="130.88073194444445">
<ele>191</ele>
</trkpt>
    </trkseg>
  </trk>
</gpx>