<?xml version="1.0" encoding="UTF-8"?>
<gpx version="1.1"
     creator="KMLtoGPX"
     xmlns="http://www.topografix.com/GPX/1/1">
  <metadata>
    <name>Tomioka Peninsula Tour Course</name>
    <desc>富岡半島周遊コース</desc>
    <bounds minlat="32.52132" minlon="130.01542" maxlat="32.53087" maxlon="130.03474"/>
  </metadata>
  <trk>
    <name>Tomioka Peninsula Tour Course</name>
    <trkseg>
<trkpt lat="32.52295" lon="130.03472">
<ele>0</ele>
</trkpt>
<trkpt lat="32.52326" lon="130.03464">
<ele>0</ele>
</trkpt>
<trkpt lat="32.52346" lon="130.03459">
<ele>0</ele>
</trkpt>
<trkpt lat="32.5235399" lon="130.03458">
<ele>0</ele>
</trkpt>
<trkpt lat="32.52359" lon="130.03457">
<ele>0</ele>
</trkpt>
<trkpt lat="32.52361" lon="130.03456">
<ele>0</ele>
</trkpt>
<trkpt lat="32.52364" lon="130.03454">
<ele>0</ele>
</trkpt>
<trkpt lat="32.5237" lon="130.03449">
<ele>0</ele>
</trkpt>
<trkpt lat="32.5238" lon="130.03441">
<ele>0</ele>
</trkpt>
<trkpt lat="32.524" lon="130.0342499">
<ele>0</ele>
</trkpt>
<trkpt lat="32.52405" lon="130.03421">
<ele>0</ele>
</trkpt>
<trkpt lat="32.52414" lon="130.03412">
<ele>0</ele>
</trkpt>
<trkpt lat="32.52426" lon="130.03404">
<ele>0</ele>
</trkpt>
<trkpt lat="32.52441" lon="130.03395">
<ele>0</ele>
</trkpt>
<trkpt lat="32.52456" lon="130.03387">
<ele>0</ele>
</trkpt>
<trkpt lat="32.5247" lon="130.03378">
<ele>0</ele>
</trkpt>
<trkpt lat="32.5247" lon="130.03378">
<ele>0</ele>
</trkpt>
<trkpt lat="32.52455" lon="130.03343">
<ele>1</ele>
</trkpt>
<trkpt lat="32.52453" lon="130.03339">
<ele>1</ele>
</trkpt>
<trkpt lat="32.5245" lon="130.03332">
<ele>2</ele>
</trkpt>
<trkpt lat="32.52442" lon="130.03313">
<ele>3</ele>
</trkpt>
<trkpt lat="32.52438" lon="130.03307">
<ele>3</ele>
</trkpt>
<trkpt lat="32.52437" lon="130.03304">
<ele>4</ele>
</trkpt>
<trkpt lat="32.52434" lon="130.03302">
<ele>4</ele>
</trkpt>
<trkpt lat="32.52432" lon="130.03301">
<ele>4</ele>
</trkpt>
<trkpt lat="32.52429" lon="130.0329999">
<ele>4</ele>
</trkpt>
<trkpt lat="32.52425" lon="130.03299">
<ele>4</ele>
</trkpt>
<trkpt lat="32.52389" lon="130.0329099">
<ele>5</ele>
</trkpt>
<trkpt lat="32.52378" lon="130.03288">
<ele>5</ele>
</trkpt>
<trkpt lat="32.5237399" lon="130.03287">
<ele>5</ele>
</trkpt>
<trkpt lat="32.52373" lon="130.03286">
<ele>5</ele>
</trkpt>
<trkpt lat="32.5237" lon="130.03285">
<ele>5</ele>
</trkpt>
<trkpt lat="32.52368" lon="130.03284">
<ele>5</ele>
</trkpt>
<trkpt lat="32.52365" lon="130.0328">
<ele>5</ele>
</trkpt>
<trkpt lat="32.52364" lon="130.03279">
<ele>5</ele>
</trkpt>
<trkpt lat="32.52363" lon="130.03277">
<ele>5</ele>
</trkpt>
<trkpt lat="32.52361" lon="130.03274">
<ele>5</ele>
</trkpt>
<trkpt lat="32.52357" lon="130.03265">
<ele>6</ele>
</trkpt>
<trkpt lat="32.52357" lon="130.03265">
<ele>6</ele>
</trkpt>
<trkpt lat="32.52361" lon="130.0326399">
<ele>6</ele>
</trkpt>
<trkpt lat="32.52364" lon="130.03263">
<ele>6</ele>
</trkpt>
<trkpt lat="32.52367" lon="130.03263">
<ele>6</ele>
</trkpt>
<trkpt lat="32.5237" lon="130.0326399">
<ele>6</ele>
</trkpt>
<trkpt lat="32.5237399" lon="130.03267">
<ele>6</ele>
</trkpt>
<trkpt lat="32.52377" lon="130.03268">
<ele>6</ele>
</trkpt>
<trkpt lat="32.52384" lon="130.03271">
<ele>6</ele>
</trkpt>
<trkpt lat="32.52391" lon="130.03275">
<ele>6</ele>
</trkpt>
<trkpt lat="32.52398" lon="130.03277">
<ele>6</ele>
</trkpt>
<trkpt lat="32.52403" lon="130.03277">
<ele>6</ele>
</trkpt>
<trkpt lat="32.52409" lon="130.03277">
<ele>6</ele>
</trkpt>
<trkpt lat="32.52414" lon="130.03275">
<ele>6</ele>
</trkpt>
<trkpt lat="32.52419" lon="130.0327299">
<ele>7</ele>
</trkpt>
<trkpt lat="32.52431" lon="130.03267">
<ele>7</ele>
</trkpt>
<trkpt lat="32.52442" lon="130.0326">
<ele>7</ele>
</trkpt>
<trkpt lat="32.52452" lon="130.03254">
<ele>8</ele>
</trkpt>
<trkpt lat="32.52465" lon="130.0324599">
<ele>8</ele>
</trkpt>
<trkpt lat="32.52482" lon="130.0323699">
<ele>9</ele>
</trkpt>
<trkpt lat="32.52493" lon="130.03231">
<ele>9</ele>
</trkpt>
<trkpt lat="32.525" lon="130.0322799">
<ele>9</ele>
</trkpt>
<trkpt lat="32.52505" lon="130.03227">
<ele>9</ele>
</trkpt>
<trkpt lat="32.52511" lon="130.03226">
<ele>9</ele>
</trkpt>
<trkpt lat="32.52517" lon="130.03225">
<ele>10</ele>
</trkpt>
<trkpt lat="32.52523" lon="130.03223">
<ele>10</ele>
</trkpt>
<trkpt lat="32.52526" lon="130.03222">
<ele>10</ele>
</trkpt>
<trkpt lat="32.52552" lon="130.03213">
<ele>10</ele>
</trkpt>
<trkpt lat="32.52572" lon="130.03204">
<ele>10</ele>
</trkpt>
<trkpt lat="32.52574" lon="130.03203">
<ele>10</ele>
</trkpt>
<trkpt lat="32.52597" lon="130.03193">
<ele>10</ele>
</trkpt>
<trkpt lat="32.52608" lon="130.03188">
<ele>10</ele>
</trkpt>
<trkpt lat="32.52622" lon="130.03182">
<ele>9</ele>
</trkpt>
<trkpt lat="32.52629" lon="130.03178">
<ele>8</ele>
</trkpt>
<trkpt lat="32.52633" lon="130.03176">
<ele>8</ele>
</trkpt>
<trkpt lat="32.52635" lon="130.03175">
<ele>8</ele>
</trkpt>
<trkpt lat="32.52638" lon="130.03175">
<ele>7</ele>
</trkpt>
<trkpt lat="32.52641" lon="130.03175">
<ele>7</ele>
</trkpt>
<trkpt lat="32.52643" lon="130.03176">
<ele>7</ele>
</trkpt>
<trkpt lat="32.52648" lon="130.03179">
<ele>7</ele>
</trkpt>
<trkpt lat="32.52652" lon="130.03184">
<ele>6</ele>
</trkpt>
<trkpt lat="32.52656" lon="130.03188">
<ele>6</ele>
</trkpt>
<trkpt lat="32.52661" lon="130.03196">
<ele>5</ele>
</trkpt>
<trkpt lat="32.52668" lon="130.03207">
<ele>5</ele>
</trkpt>
<trkpt lat="32.52681" lon="130.03226">
<ele>5</ele>
</trkpt>
<trkpt lat="32.52711" lon="130.03275">
<ele>7</ele>
</trkpt>
<trkpt lat="32.52718" lon="130.03286">
<ele>8</ele>
</trkpt>
<trkpt lat="32.52728" lon="130.03301">
<ele>9</ele>
</trkpt>
<trkpt lat="32.52733" lon="130.03308">
<ele>9</ele>
</trkpt>
<trkpt lat="32.52734" lon="130.03308">
<ele>9</ele>
</trkpt>
<trkpt lat="32.52738" lon="130.03312">
<ele>10</ele>
</trkpt>
<trkpt lat="32.52742" lon="130.03314">
<ele>10</ele>
</trkpt>
<trkpt lat="32.52747" lon="130.03316">
<ele>10</ele>
</trkpt>
<trkpt lat="32.52752" lon="130.03315">
<ele>11</ele>
</trkpt>
<trkpt lat="32.52758" lon="130.03315">
<ele>11</ele>
</trkpt>
<trkpt lat="32.52763" lon="130.03313">
<ele>12</ele>
</trkpt>
<trkpt lat="32.52764" lon="130.03313">
<ele>12</ele>
</trkpt>
<trkpt lat="32.52767" lon="130.03313">
<ele>12</ele>
</trkpt>
<trkpt lat="32.52773" lon="130.03314">
<ele>12</ele>
</trkpt>
<trkpt lat="32.52783" lon="130.03316">
<ele>12</ele>
</trkpt>
<trkpt lat="32.5278599" lon="130.03317">
<ele>13</ele>
</trkpt>
<trkpt lat="32.52793" lon="130.03319">
<ele>13</ele>
</trkpt>
<trkpt lat="32.52796" lon="130.0332">
<ele>13</ele>
</trkpt>
<trkpt lat="32.52808" lon="130.03325">
<ele>14</ele>
</trkpt>
<trkpt lat="32.52819" lon="130.03329">
<ele>14</ele>
</trkpt>
<trkpt lat="32.52828" lon="130.03333">
<ele>14</ele>
</trkpt>
<trkpt lat="32.52834" lon="130.03334">
<ele>15</ele>
</trkpt>
<trkpt lat="32.52839" lon="130.03333">
<ele>15</ele>
</trkpt>
<trkpt lat="32.5284199" lon="130.03332">
<ele>15</ele>
</trkpt>
<trkpt lat="32.52845" lon="130.03331">
<ele>15</ele>
</trkpt>
<trkpt lat="32.52854" lon="130.0332699">
<ele>15</ele>
</trkpt>
<trkpt lat="32.52861" lon="130.03324">
<ele>15</ele>
</trkpt>
<trkpt lat="32.52869" lon="130.03321">
<ele>16</ele>
</trkpt>
<trkpt lat="32.52877" lon="130.0332">
<ele>16</ele>
</trkpt>
<trkpt lat="32.52902" lon="130.03319">
<ele>16</ele>
</trkpt>
<trkpt lat="32.52915" lon="130.03319">
<ele>15</ele>
</trkpt>
<trkpt lat="32.52925" lon="130.0332">
<ele>14</ele>
</trkpt>
<trkpt lat="32.52935" lon="130.03323">
<ele>13</ele>
</trkpt>
<trkpt lat="32.52948" lon="130.03326">
<ele>12</ele>
</trkpt>
<trkpt lat="32.5296" lon="130.03331">
<ele>11</ele>
</trkpt>
<trkpt lat="32.52993" lon="130.03342">
<ele>8</ele>
</trkpt>
<trkpt lat="32.53009" lon="130.03349">
<ele>6</ele>
</trkpt>
<trkpt lat="32.53009" lon="130.03349">
<ele>6</ele>
</trkpt>
<trkpt lat="32.5301199" lon="130.03346">
<ele>5</ele>
</trkpt>
<trkpt lat="32.53014" lon="130.0334499">
<ele>5</ele>
</trkpt>
<trkpt lat="32.53017" lon="130.0334499">
<ele>5</ele>
</trkpt>
<trkpt lat="32.53022" lon="130.03343">
<ele>4</ele>
</trkpt>
<trkpt lat="32.53031" lon="130.03339">
<ele>4</ele>
</trkpt>
<trkpt lat="32.53037" lon="130.03335">
<ele>4</ele>
</trkpt>
<trkpt lat="32.53041" lon="130.03331">
<ele>4</ele>
</trkpt>
<trkpt lat="32.53047" lon="130.03326">
<ele>5</ele>
</trkpt>
<trkpt lat="32.53053" lon="130.0332">
<ele>5</ele>
</trkpt>
<trkpt lat="32.53055" lon="130.0331799">
<ele>5</ele>
</trkpt>
<trkpt lat="32.5305899" lon="130.03313">
<ele>6</ele>
</trkpt>
<trkpt lat="32.53063" lon="130.0330899">
<ele>6</ele>
</trkpt>
<trkpt lat="32.53065" lon="130.03306">
<ele>6</ele>
</trkpt>
<trkpt lat="32.53067" lon="130.03301">
<ele>6</ele>
</trkpt>
<trkpt lat="32.53067" lon="130.0329999">
<ele>6</ele>
</trkpt>
<trkpt lat="32.53071" lon="130.0329">
<ele>7</ele>
</trkpt>
<trkpt lat="32.53071" lon="130.03285">
<ele>7</ele>
</trkpt>
<trkpt lat="32.53072" lon="130.03278">
<ele>8</ele>
</trkpt>
<trkpt lat="32.53073" lon="130.03267">
<ele>8</ele>
</trkpt>
<trkpt lat="32.53073" lon="130.0326">
<ele>8</ele>
</trkpt>
<trkpt lat="32.53073" lon="130.03259">
<ele>8</ele>
</trkpt>
<trkpt lat="32.53073" lon="130.0324599">
<ele>9</ele>
</trkpt>
<trkpt lat="32.53073" lon="130.0323">
<ele>9</ele>
</trkpt>
<trkpt lat="32.53072" lon="130.03218">
<ele>10</ele>
</trkpt>
<trkpt lat="32.53072" lon="130.03214">
<ele>10</ele>
</trkpt>
<trkpt lat="32.53072" lon="130.03204">
<ele>10</ele>
</trkpt>
<trkpt lat="32.53072" lon="130.03196">
<ele>10</ele>
</trkpt>
<trkpt lat="32.53072" lon="130.0319">
<ele>10</ele>
</trkpt>
<trkpt lat="32.53072" lon="130.0318">
<ele>10</ele>
</trkpt>
<trkpt lat="32.53073" lon="130.03168">
<ele>10</ele>
</trkpt>
<trkpt lat="32.53074" lon="130.03153">
<ele>10</ele>
</trkpt>
<trkpt lat="32.53076" lon="130.03136">
<ele>10</ele>
</trkpt>
<trkpt lat="32.53076" lon="130.03135">
<ele>10</ele>
</trkpt>
<trkpt lat="32.5307699" lon="130.0312">
<ele>10</ele>
</trkpt>
<trkpt lat="32.53079" lon="130.03099">
<ele>9</ele>
</trkpt>
<trkpt lat="32.5308" lon="130.03082">
<ele>8</ele>
</trkpt>
<trkpt lat="32.53081" lon="130.0306699">
<ele>7</ele>
</trkpt>
<trkpt lat="32.5308" lon="130.03056">
<ele>6</ele>
</trkpt>
<trkpt lat="32.53079" lon="130.0303999">
<ele>5</ele>
</trkpt>
<trkpt lat="32.53079" lon="130.03032">
<ele>5</ele>
</trkpt>
<trkpt lat="32.53079" lon="130.03029">
<ele>5</ele>
</trkpt>
<trkpt lat="32.5308" lon="130.0302">
<ele>5</ele>
</trkpt>
<trkpt lat="32.53081" lon="130.03008">
<ele>5</ele>
</trkpt>
<trkpt lat="32.53083" lon="130.02994">
<ele>5</ele>
</trkpt>
<trkpt lat="32.53084" lon="130.02987">
<ele>6</ele>
</trkpt>
<trkpt lat="32.53087" lon="130.0298">
<ele>6</ele>
</trkpt>
<trkpt lat="32.53087" lon="130.0298">
<ele>6</ele>
</trkpt>
<trkpt lat="32.53079" lon="130.02978">
<ele>6</ele>
</trkpt>
<trkpt lat="32.53069" lon="130.02975">
<ele>6</ele>
</trkpt>
<trkpt lat="32.53065" lon="130.02974">
<ele>6</ele>
</trkpt>
<trkpt lat="32.5305899" lon="130.02972">
<ele>7</ele>
</trkpt>
<trkpt lat="32.53052" lon="130.0297">
<ele>8</ele>
</trkpt>
<trkpt lat="32.53042" lon="130.02968">
<ele>9</ele>
</trkpt>
<trkpt lat="32.53031" lon="130.02967">
<ele>10</ele>
</trkpt>
<trkpt lat="32.5302099" lon="130.02965">
<ele>11</ele>
</trkpt>
<trkpt lat="32.53009" lon="130.02962">
<ele>12</ele>
</trkpt>
<trkpt lat="32.52998" lon="130.0295999">
<ele>13</ele>
</trkpt>
<trkpt lat="32.52986" lon="130.02957">
<ele>14</ele>
</trkpt>
<trkpt lat="32.52981" lon="130.02956">
<ele>15</ele>
</trkpt>
<trkpt lat="32.52971" lon="130.02954">
<ele>16</ele>
</trkpt>
<trkpt lat="32.52955" lon="130.02949">
<ele>17</ele>
</trkpt>
<trkpt lat="32.52939" lon="130.02944">
<ele>19</ele>
</trkpt>
<trkpt lat="32.52926" lon="130.02941">
<ele>20</ele>
</trkpt>
<trkpt lat="32.52912" lon="130.02939">
<ele>22</ele>
</trkpt>
<trkpt lat="32.5291" lon="130.02938">
<ele>22</ele>
</trkpt>
<trkpt lat="32.529" lon="130.02937">
<ele>23</ele>
</trkpt>
<trkpt lat="32.52892" lon="130.02936">
<ele>23</ele>
</trkpt>
<trkpt lat="32.5289" lon="130.02936">
<ele>24</ele>
</trkpt>
<trkpt lat="32.52886" lon="130.02935">
<ele>24</ele>
</trkpt>
<trkpt lat="32.52882" lon="130.02935">
<ele>24</ele>
</trkpt>
<trkpt lat="32.52881" lon="130.02934">
<ele>24</ele>
</trkpt>
<trkpt lat="32.52881" lon="130.02934">
<ele>24</ele>
</trkpt>
<trkpt lat="32.52879" lon="130.02944">
<ele>25</ele>
</trkpt>
<trkpt lat="32.52879" lon="130.02953">
<ele>26</ele>
</trkpt>
<trkpt lat="32.5287999" lon="130.02955">
<ele>26</ele>
</trkpt>
<trkpt lat="32.52881" lon="130.02957">
<ele>26</ele>
</trkpt>
<trkpt lat="32.52882" lon="130.02958">
<ele>26</ele>
</trkpt>
<trkpt lat="32.52883" lon="130.02959">
<ele>26</ele>
</trkpt>
<trkpt lat="32.52885" lon="130.0295999">
<ele>26</ele>
</trkpt>
<trkpt lat="32.5289" lon="130.02962">
<ele>26</ele>
</trkpt>
<trkpt lat="32.52896" lon="130.02963">
<ele>26</ele>
</trkpt>
<trkpt lat="32.52908" lon="130.02966">
<ele>26</ele>
</trkpt>
<trkpt lat="32.5291799" lon="130.0296899">
<ele>26</ele>
</trkpt>
<trkpt lat="32.52928" lon="130.02975">
<ele>25</ele>
</trkpt>
<trkpt lat="32.52937" lon="130.02983">
<ele>25</ele>
</trkpt>
<trkpt lat="32.52946" lon="130.02993">
<ele>25</ele>
</trkpt>
<trkpt lat="32.52952" lon="130.03003">
<ele>25</ele>
</trkpt>
<trkpt lat="32.52957" lon="130.03018">
<ele>25</ele>
</trkpt>
<trkpt lat="32.5296" lon="130.03033">
<ele>25</ele>
</trkpt>
<trkpt lat="32.5296" lon="130.03034">
<ele>25</ele>
</trkpt>
<trkpt lat="32.52961" lon="130.0303999">
<ele>25</ele>
</trkpt>
<trkpt lat="32.52961" lon="130.0303999">
<ele>25</ele>
</trkpt>
<trkpt lat="32.52972" lon="130.03043">
<ele>25</ele>
</trkpt>
<trkpt lat="32.52977" lon="130.03044">
<ele>25</ele>
</trkpt>
<trkpt lat="32.5298" lon="130.03046">
<ele>25</ele>
</trkpt>
<trkpt lat="32.52984" lon="130.0304899">
<ele>25</ele>
</trkpt>
<trkpt lat="32.52986" lon="130.03052">
<ele>24</ele>
</trkpt>
<trkpt lat="32.52988" lon="130.03055">
<ele>24</ele>
</trkpt>
<trkpt lat="32.52991" lon="130.0306">
<ele>24</ele>
</trkpt>
<trkpt lat="32.52992" lon="130.03061">
<ele>24</ele>
</trkpt>
<trkpt lat="32.52998" lon="130.0306699">
<ele>23</ele>
</trkpt>
<trkpt lat="32.53002" lon="130.0307">
<ele>23</ele>
</trkpt>
<trkpt lat="32.53006" lon="130.03072">
<ele>22</ele>
</trkpt>
<trkpt lat="32.53008" lon="130.03072">
<ele>22</ele>
</trkpt>
<trkpt lat="32.53009" lon="130.03072">
<ele>22</ele>
</trkpt>
<trkpt lat="32.5301" lon="130.03071">
<ele>22</ele>
</trkpt>
<trkpt lat="32.53011" lon="130.0307">
<ele>22</ele>
</trkpt>
<trkpt lat="32.53011" lon="130.03069">
<ele>22</ele>
</trkpt>
<trkpt lat="32.53011" lon="130.03068">
<ele>22</ele>
</trkpt>
<trkpt lat="32.5301199" lon="130.0306699">
<ele>21</ele>
</trkpt>
<trkpt lat="32.5301199" lon="130.03063">
<ele>21</ele>
</trkpt>
<trkpt lat="32.53008" lon="130.03036">
<ele>19</ele>
</trkpt>
<trkpt lat="32.53007" lon="130.0303">
<ele>19</ele>
</trkpt>
<trkpt lat="32.53007" lon="130.03029">
<ele>19</ele>
</trkpt>
<trkpt lat="32.53006" lon="130.03028">
<ele>19</ele>
</trkpt>
<trkpt lat="32.53004" lon="130.03027">
<ele>18</ele>
</trkpt>
<trkpt lat="32.52989" lon="130.0302">
<ele>17</ele>
</trkpt>
<trkpt lat="32.52984" lon="130.03018">
<ele>17</ele>
</trkpt>
<trkpt lat="32.5298299" lon="130.03018">
<ele>17</ele>
</trkpt>
<trkpt lat="32.5298299" lon="130.03017">
<ele>17</ele>
</trkpt>
<trkpt lat="32.52982" lon="130.03017">
<ele>17</ele>
</trkpt>
<trkpt lat="32.52982" lon="130.03016">
<ele>17</ele>
</trkpt>
<trkpt lat="32.52982" lon="130.03015">
<ele>16</ele>
</trkpt>
<trkpt lat="32.52982" lon="130.03014">
<ele>16</ele>
</trkpt>
<trkpt lat="32.52982" lon="130.03012">
<ele>16</ele>
</trkpt>
<trkpt lat="32.52982" lon="130.03011">
<ele>16</ele>
</trkpt>
<trkpt lat="32.5298299" lon="130.03008">
<ele>16</ele>
</trkpt>
<trkpt lat="32.52984" lon="130.03005">
<ele>16</ele>
</trkpt>
<trkpt lat="32.52987" lon="130.03">
<ele>15</ele>
</trkpt>
<trkpt lat="32.52988" lon="130.02999">
<ele>15</ele>
</trkpt>
<trkpt lat="32.52989" lon="130.02999">
<ele>15</ele>
</trkpt>
<trkpt lat="32.5299" lon="130.02999">
<ele>15</ele>
</trkpt>
<trkpt lat="32.5300299" lon="130.03004">
<ele>14</ele>
</trkpt>
<trkpt lat="32.53008" lon="130.03005">
<ele>14</ele>
</trkpt>
<trkpt lat="32.53009" lon="130.03006">
<ele>14</ele>
</trkpt>
<trkpt lat="32.53009" lon="130.03007">
<ele>14</ele>
</trkpt>
<trkpt lat="32.5301" lon="130.03009">
<ele>14</ele>
</trkpt>
<trkpt lat="32.53011" lon="130.03014">
<ele>14</ele>
</trkpt>
<trkpt lat="32.5301" lon="130.03009">
<ele>14</ele>
</trkpt>
<trkpt lat="32.53009" lon="130.03007">
<ele>14</ele>
</trkpt>
<trkpt lat="32.53009" lon="130.03006">
<ele>14</ele>
</trkpt>
<trkpt lat="32.53008" lon="130.03005">
<ele>14</ele>
</trkpt>
<trkpt lat="32.5300299" lon="130.03004">
<ele>14</ele>
</trkpt>
<trkpt lat="32.5299" lon="130.02999">
<ele>15</ele>
</trkpt>
<trkpt lat="32.52989" lon="130.02999">
<ele>15</ele>
</trkpt>
<trkpt lat="32.52988" lon="130.02999">
<ele>15</ele>
</trkpt>
<trkpt lat="32.52987" lon="130.03">
<ele>15</ele>
</trkpt>
<trkpt lat="32.52984" lon="130.03005">
<ele>16</ele>
</trkpt>
<trkpt lat="32.5298299" lon="130.03008">
<ele>16</ele>
</trkpt>
<trkpt lat="32.52982" lon="130.03011">
<ele>16</ele>
</trkpt>
<trkpt lat="32.52982" lon="130.03012">
<ele>16</ele>
</trkpt>
<trkpt lat="32.52982" lon="130.03014">
<ele>16</ele>
</trkpt>
<trkpt lat="32.52982" lon="130.03015">
<ele>16</ele>
</trkpt>
<trkpt lat="32.52982" lon="130.03016">
<ele>16</ele>
</trkpt>
<trkpt lat="32.52982" lon="130.03017">
<ele>16</ele>
</trkpt>
<trkpt lat="32.5298299" lon="130.03017">
<ele>16</ele>
</trkpt>
<trkpt lat="32.5298299" lon="130.03018">
<ele>16</ele>
</trkpt>
<trkpt lat="32.52984" lon="130.03018">
<ele>16</ele>
</trkpt>
<trkpt lat="32.52989" lon="130.0302">
<ele>17</ele>
</trkpt>
<trkpt lat="32.53004" lon="130.03027">
<ele>18</ele>
</trkpt>
<trkpt lat="32.53005" lon="130.03028">
<ele>18</ele>
</trkpt>
<trkpt lat="32.53006" lon="130.03028">
<ele>18</ele>
</trkpt>
<trkpt lat="32.53007" lon="130.03029">
<ele>18</ele>
</trkpt>
<trkpt lat="32.53007" lon="130.0303">
<ele>18</ele>
</trkpt>
<trkpt lat="32.53008" lon="130.03036">
<ele>19</ele>
</trkpt>
<trkpt lat="32.5301199" lon="130.03063">
<ele>21</ele>
</trkpt>
<trkpt lat="32.5301199" lon="130.0306699">
<ele>21</ele>
</trkpt>
<trkpt lat="32.53011" lon="130.03068">
<ele>22</ele>
</trkpt>
<trkpt lat="32.53011" lon="130.03069">
<ele>22</ele>
</trkpt>
<trkpt lat="32.53011" lon="130.0307">
<ele>22</ele>
</trkpt>
<trkpt lat="32.5301" lon="130.03071">
<ele>22</ele>
</trkpt>
<trkpt lat="32.53009" lon="130.03072">
<ele>22</ele>
</trkpt>
<trkpt lat="32.53008" lon="130.03072">
<ele>22</ele>
</trkpt>
<trkpt lat="32.53006" lon="130.03072">
<ele>22</ele>
</trkpt>
<trkpt lat="32.53002" lon="130.0307">
<ele>23</ele>
</trkpt>
<trkpt lat="32.52998" lon="130.0306699">
<ele>23</ele>
</trkpt>
<trkpt lat="32.52992" lon="130.03061">
<ele>24</ele>
</trkpt>
<trkpt lat="32.52991" lon="130.0306">
<ele>24</ele>
</trkpt>
<trkpt lat="32.52988" lon="130.03055">
<ele>25</ele>
</trkpt>
<trkpt lat="32.52986" lon="130.03052">
<ele>25</ele>
</trkpt>
<trkpt lat="32.52984" lon="130.0304899">
<ele>26</ele>
</trkpt>
<trkpt lat="32.5298" lon="130.03046">
<ele>26</ele>
</trkpt>
<trkpt lat="32.52977" lon="130.03044">
<ele>27</ele>
</trkpt>
<trkpt lat="32.52972" lon="130.03043">
<ele>28</ele>
</trkpt>
<trkpt lat="32.52961" lon="130.0303999">
<ele>29</ele>
</trkpt>
<trkpt lat="32.52961" lon="130.0303999">
<ele>29</ele>
</trkpt>
<trkpt lat="32.52961" lon="130.03044">
<ele>30</ele>
</trkpt>
<trkpt lat="32.52962" lon="130.03045">
<ele>30</ele>
</trkpt>
<trkpt lat="32.52963" lon="130.0305">
<ele>31</ele>
</trkpt>
<trkpt lat="32.52966" lon="130.03055">
<ele>31</ele>
</trkpt>
<trkpt lat="32.5297" lon="130.0306">
<ele>32</ele>
</trkpt>
<trkpt lat="32.52971" lon="130.03062">
<ele>32</ele>
</trkpt>
<trkpt lat="32.52972" lon="130.03063">
<ele>33</ele>
</trkpt>
<trkpt lat="32.52973" lon="130.03066">
<ele>33</ele>
</trkpt>
<trkpt lat="32.5297399" lon="130.03068">
<ele>33</ele>
</trkpt>
<trkpt lat="32.5297399" lon="130.03071">
<ele>34</ele>
</trkpt>
<trkpt lat="32.52973" lon="130.03074">
<ele>34</ele>
</trkpt>
<trkpt lat="32.52972" lon="130.0307599">
<ele>34</ele>
</trkpt>
<trkpt lat="32.52971" lon="130.03078">
<ele>35</ele>
</trkpt>
<trkpt lat="32.52971" lon="130.03079">
<ele>35</ele>
</trkpt>
<trkpt lat="32.5297" lon="130.0308">
<ele>35</ele>
</trkpt>
<trkpt lat="32.52969" lon="130.0308">
<ele>35</ele>
</trkpt>
<trkpt lat="32.52968" lon="130.03081">
<ele>35</ele>
</trkpt>
<trkpt lat="32.52967" lon="130.03081">
<ele>35</ele>
</trkpt>
<trkpt lat="32.52966" lon="130.03082">
<ele>35</ele>
</trkpt>
<trkpt lat="32.52964" lon="130.03082">
<ele>35</ele>
</trkpt>
<trkpt lat="32.52961" lon="130.03081">
<ele>36</ele>
</trkpt>
<trkpt lat="32.52958" lon="130.03079">
<ele>36</ele>
</trkpt>
<trkpt lat="32.52954" lon="130.0307599">
<ele>36</ele>
</trkpt>
<trkpt lat="32.52951" lon="130.03075">
<ele>37</ele>
</trkpt>
<trkpt lat="32.52949" lon="130.03074">
<ele>37</ele>
</trkpt>
<trkpt lat="32.52946" lon="130.03073">
<ele>37</ele>
</trkpt>
<trkpt lat="32.52944" lon="130.03073">
<ele>37</ele>
</trkpt>
<trkpt lat="32.52943" lon="130.03074">
<ele>37</ele>
</trkpt>
<trkpt lat="32.52941" lon="130.0307599">
<ele>37</ele>
</trkpt>
<trkpt lat="32.52938" lon="130.03078">
<ele>38</ele>
</trkpt>
<trkpt lat="32.52937" lon="130.0308">
<ele>38</ele>
</trkpt>
<trkpt lat="32.52937" lon="130.03082">
<ele>38</ele>
</trkpt>
<trkpt lat="32.5293599" lon="130.03084">
<ele>38</ele>
</trkpt>
<trkpt lat="32.5293599" lon="130.03086">
<ele>38</ele>
</trkpt>
<trkpt lat="32.5293599" lon="130.03088">
<ele>39</ele>
</trkpt>
<trkpt lat="32.5293599" lon="130.03091">
<ele>39</ele>
</trkpt>
<trkpt lat="32.52937" lon="130.03092">
<ele>39</ele>
</trkpt>
<trkpt lat="32.52937" lon="130.0309399">
<ele>39</ele>
</trkpt>
<trkpt lat="32.52938" lon="130.03095">
<ele>39</ele>
</trkpt>
<trkpt lat="32.52939" lon="130.03097">
<ele>39</ele>
</trkpt>
<trkpt lat="32.52941" lon="130.03098">
<ele>40</ele>
</trkpt>
<trkpt lat="32.52943" lon="130.03099">
<ele>40</ele>
</trkpt>
<trkpt lat="32.5295" lon="130.03101">
<ele>40</ele>
</trkpt>
<trkpt lat="32.52953" lon="130.0310299">
<ele>40</ele>
</trkpt>
<trkpt lat="32.52954" lon="130.03104">
<ele>40</ele>
</trkpt>
<trkpt lat="32.52955" lon="130.03105">
<ele>40</ele>
</trkpt>
<trkpt lat="32.5295599" lon="130.03106">
<ele>40</ele>
</trkpt>
<trkpt lat="32.52957" lon="130.03108">
<ele>40</ele>
</trkpt>
<trkpt lat="32.52957" lon="130.03109">
<ele>40</ele>
</trkpt>
<trkpt lat="32.52957" lon="130.0311">
<ele>40</ele>
</trkpt>
<trkpt lat="32.52957" lon="130.0311199">
<ele>40</ele>
</trkpt>
<trkpt lat="32.52957" lon="130.03113">
<ele>40</ele>
</trkpt>
<trkpt lat="32.5295599" lon="130.03115">
<ele>40</ele>
</trkpt>
<trkpt lat="32.52955" lon="130.03118">
<ele>40</ele>
</trkpt>
<trkpt lat="32.52954" lon="130.03122">
<ele>40</ele>
</trkpt>
<trkpt lat="32.52952" lon="130.03124">
<ele>40</ele>
</trkpt>
<trkpt lat="32.52951" lon="130.03127">
<ele>40</ele>
</trkpt>
<trkpt lat="32.52952" lon="130.03124">
<ele>40</ele>
</trkpt>
<trkpt lat="32.52954" lon="130.03122">
<ele>40</ele>
</trkpt>
<trkpt lat="32.52955" lon="130.03118">
<ele>40</ele>
</trkpt>
<trkpt lat="32.5295599" lon="130.03115">
<ele>40</ele>
</trkpt>
<trkpt lat="32.52957" lon="130.03113">
<ele>40</ele>
</trkpt>
<trkpt lat="32.52957" lon="130.0311199">
<ele>40</ele>
</trkpt>
<trkpt lat="32.52957" lon="130.0311">
<ele>40</ele>
</trkpt>
<trkpt lat="32.52957" lon="130.03109">
<ele>40</ele>
</trkpt>
<trkpt lat="32.52957" lon="130.03108">
<ele>40</ele>
</trkpt>
<trkpt lat="32.5295599" lon="130.03106">
<ele>40</ele>
</trkpt>
<trkpt lat="32.52955" lon="130.03105">
<ele>40</ele>
</trkpt>
<trkpt lat="32.52954" lon="130.03104">
<ele>40</ele>
</trkpt>
<trkpt lat="32.52953" lon="130.0310299">
<ele>40</ele>
</trkpt>
<trkpt lat="32.5295" lon="130.03101">
<ele>40</ele>
</trkpt>
<trkpt lat="32.52943" lon="130.03099">
<ele>40</ele>
</trkpt>
<trkpt lat="32.52941" lon="130.03098">
<ele>40</ele>
</trkpt>
<trkpt lat="32.52939" lon="130.03097">
<ele>40</ele>
</trkpt>
<trkpt lat="32.52938" lon="130.03095">
<ele>40</ele>
</trkpt>
<trkpt lat="32.52937" lon="130.0309399">
<ele>40</ele>
</trkpt>
<trkpt lat="32.52937" lon="130.03092">
<ele>40</ele>
</trkpt>
<trkpt lat="32.5293599" lon="130.03091">
<ele>39</ele>
</trkpt>
<trkpt lat="32.5293599" lon="130.03088">
<ele>39</ele>
</trkpt>
<trkpt lat="32.5293599" lon="130.03086">
<ele>39</ele>
</trkpt>
<trkpt lat="32.5293599" lon="130.03084">
<ele>39</ele>
</trkpt>
<trkpt lat="32.52937" lon="130.03082">
<ele>38</ele>
</trkpt>
<trkpt lat="32.52937" lon="130.0308">
<ele>38</ele>
</trkpt>
<trkpt lat="32.52938" lon="130.03078">
<ele>38</ele>
</trkpt>
<trkpt lat="32.52941" lon="130.0307599">
<ele>37</ele>
</trkpt>
<trkpt lat="32.52943" lon="130.03074">
<ele>37</ele>
</trkpt>
<trkpt lat="32.52944" lon="130.03073">
<ele>37</ele>
</trkpt>
<trkpt lat="32.52946" lon="130.03073">
<ele>36</ele>
</trkpt>
<trkpt lat="32.52949" lon="130.03074">
<ele>36</ele>
</trkpt>
<trkpt lat="32.52951" lon="130.03075">
<ele>35</ele>
</trkpt>
<trkpt lat="32.52954" lon="130.0307599">
<ele>35</ele>
</trkpt>
<trkpt lat="32.52958" lon="130.03079">
<ele>34</ele>
</trkpt>
<trkpt lat="32.52961" lon="130.03081">
<ele>34</ele>
</trkpt>
<trkpt lat="32.52964" lon="130.03082">
<ele>33</ele>
</trkpt>
<trkpt lat="32.52966" lon="130.03082">
<ele>33</ele>
</trkpt>
<trkpt lat="32.52967" lon="130.03081">
<ele>33</ele>
</trkpt>
<trkpt lat="32.52968" lon="130.03081">
<ele>32</ele>
</trkpt>
<trkpt lat="32.52969" lon="130.0308">
<ele>32</ele>
</trkpt>
<trkpt lat="32.5297" lon="130.0308">
<ele>32</ele>
</trkpt>
<trkpt lat="32.52971" lon="130.03079">
<ele>32</ele>
</trkpt>
<trkpt lat="32.52971" lon="130.03078">
<ele>32</ele>
</trkpt>
<trkpt lat="32.52972" lon="130.0307599">
<ele>31</ele>
</trkpt>
<trkpt lat="32.52973" lon="130.03074">
<ele>31</ele>
</trkpt>
<trkpt lat="32.5297399" lon="130.03071">
<ele>31</ele>
</trkpt>
<trkpt lat="32.5297399" lon="130.03068">
<ele>30</ele>
</trkpt>
<trkpt lat="32.52973" lon="130.03066">
<ele>30</ele>
</trkpt>
<trkpt lat="32.52972" lon="130.03063">
<ele>30</ele>
</trkpt>
<trkpt lat="32.52971" lon="130.03062">
<ele>29</ele>
</trkpt>
<trkpt lat="32.5297" lon="130.0306">
<ele>29</ele>
</trkpt>
<trkpt lat="32.52966" lon="130.03055">
<ele>28</ele>
</trkpt>
<trkpt lat="32.52963" lon="130.0305">
<ele>28</ele>
</trkpt>
<trkpt lat="32.52962" lon="130.03047">
<ele>28</ele>
</trkpt>
<trkpt lat="32.52961" lon="130.03044">
<ele>28</ele>
</trkpt>
<trkpt lat="32.52961" lon="130.03041">
<ele>27</ele>
</trkpt>
<trkpt lat="32.5296" lon="130.03033">
<ele>27</ele>
</trkpt>
<trkpt lat="32.52957" lon="130.03018">
<ele>26</ele>
</trkpt>
<trkpt lat="32.52952" lon="130.03003">
<ele>25</ele>
</trkpt>
<trkpt lat="32.52946" lon="130.02993">
<ele>24</ele>
</trkpt>
<trkpt lat="32.52937" lon="130.02983">
<ele>24</ele>
</trkpt>
<trkpt lat="32.52928" lon="130.02975">
<ele>24</ele>
</trkpt>
<trkpt lat="32.5291799" lon="130.0296899">
<ele>24</ele>
</trkpt>
<trkpt lat="32.52908" lon="130.02966">
<ele>24</ele>
</trkpt>
<trkpt lat="32.52896" lon="130.02963">
<ele>24</ele>
</trkpt>
<trkpt lat="32.5289" lon="130.02962">
<ele>24</ele>
</trkpt>
<trkpt lat="32.52885" lon="130.0295999">
<ele>24</ele>
</trkpt>
<trkpt lat="32.52883" lon="130.02959">
<ele>24</ele>
</trkpt>
<trkpt lat="32.52882" lon="130.02958">
<ele>24</ele>
</trkpt>
<trkpt lat="32.52881" lon="130.02957">
<ele>24</ele>
</trkpt>
<trkpt lat="32.5287999" lon="130.02955">
<ele>24</ele>
</trkpt>
<trkpt lat="32.52879" lon="130.02953">
<ele>24</ele>
</trkpt>
<trkpt lat="32.52879" lon="130.02944">
<ele>23</ele>
</trkpt>
<trkpt lat="32.52881" lon="130.02935">
<ele>23</ele>
</trkpt>
<trkpt lat="32.52881" lon="130.02935">
<ele>23</ele>
</trkpt>
<trkpt lat="32.52878" lon="130.02932">
<ele>23</ele>
</trkpt>
<trkpt lat="32.52876" lon="130.02931">
<ele>23</ele>
</trkpt>
<trkpt lat="32.52875" lon="130.02928">
<ele>23</ele>
</trkpt>
<trkpt lat="32.52873" lon="130.02926">
<ele>23</ele>
</trkpt>
<trkpt lat="32.5287099" lon="130.0292">
<ele>23</ele>
</trkpt>
<trkpt lat="32.52869" lon="130.02913">
<ele>22</ele>
</trkpt>
<trkpt lat="32.52867" lon="130.02905">
<ele>22</ele>
</trkpt>
<trkpt lat="32.52865" lon="130.0289699">
<ele>22</ele>
</trkpt>
<trkpt lat="32.52864" lon="130.02889">
<ele>22</ele>
</trkpt>
<trkpt lat="32.52864" lon="130.02887">
<ele>22</ele>
</trkpt>
<trkpt lat="32.52863" lon="130.02885">
<ele>22</ele>
</trkpt>
<trkpt lat="32.52864" lon="130.02878">
<ele>22</ele>
</trkpt>
<trkpt lat="32.52865" lon="130.02871">
<ele>21</ele>
</trkpt>
<trkpt lat="32.52866" lon="130.02866">
<ele>21</ele>
</trkpt>
<trkpt lat="32.52867" lon="130.02862">
<ele>21</ele>
</trkpt>
<trkpt lat="32.52868" lon="130.02854">
<ele>21</ele>
</trkpt>
<trkpt lat="32.52868" lon="130.0285">
<ele>21</ele>
</trkpt>
<trkpt lat="32.52869" lon="130.02845">
<ele>20</ele>
</trkpt>
<trkpt lat="32.52868" lon="130.02841">
<ele>20</ele>
</trkpt>
<trkpt lat="32.52867" lon="130.02838">
<ele>20</ele>
</trkpt>
<trkpt lat="32.52865" lon="130.0283399">
<ele>20</ele>
</trkpt>
<trkpt lat="32.52864" lon="130.0283">
<ele>20</ele>
</trkpt>
<trkpt lat="32.5286199" lon="130.02825">
<ele>20</ele>
</trkpt>
<trkpt lat="32.5286199" lon="130.02821">
<ele>19</ele>
</trkpt>
<trkpt lat="32.52861" lon="130.02816">
<ele>19</ele>
</trkpt>
<trkpt lat="32.5286" lon="130.02812">
<ele>19</ele>
</trkpt>
<trkpt lat="32.52859" lon="130.0281">
<ele>19</ele>
</trkpt>
<trkpt lat="32.52858" lon="130.02809">
<ele>19</ele>
</trkpt>
<trkpt lat="32.52857" lon="130.02806">
<ele>19</ele>
</trkpt>
<trkpt lat="32.52854" lon="130.02802">
<ele>19</ele>
</trkpt>
<trkpt lat="32.52851" lon="130.02798">
<ele>18</ele>
</trkpt>
<trkpt lat="32.52849" lon="130.02795">
<ele>18</ele>
</trkpt>
<trkpt lat="32.52847" lon="130.02793">
<ele>18</ele>
</trkpt>
<trkpt lat="32.52846" lon="130.02792">
<ele>18</ele>
</trkpt>
<trkpt lat="32.52843" lon="130.0279">
<ele>17</ele>
</trkpt>
<trkpt lat="32.5284" lon="130.02788">
<ele>17</ele>
</trkpt>
<trkpt lat="32.52837" lon="130.02787">
<ele>17</ele>
</trkpt>
<trkpt lat="32.52831" lon="130.02787">
<ele>16</ele>
</trkpt>
<trkpt lat="32.52827" lon="130.02787">
<ele>16</ele>
</trkpt>
<trkpt lat="32.52822" lon="130.02788">
<ele>15</ele>
</trkpt>
<trkpt lat="32.52817" lon="130.02789">
<ele>15</ele>
</trkpt>
<trkpt lat="32.52813" lon="130.02789">
<ele>14</ele>
</trkpt>
<trkpt lat="32.52812" lon="130.0279">
<ele>14</ele>
</trkpt>
<trkpt lat="32.52807" lon="130.0279">
<ele>14</ele>
</trkpt>
<trkpt lat="32.52803" lon="130.0279">
<ele>13</ele>
</trkpt>
<trkpt lat="32.528" lon="130.0279">
<ele>13</ele>
</trkpt>
<trkpt lat="32.52795" lon="130.02789">
<ele>13</ele>
</trkpt>
<trkpt lat="32.52792" lon="130.02787">
<ele>12</ele>
</trkpt>
<trkpt lat="32.52789" lon="130.02785">
<ele>12</ele>
</trkpt>
<trkpt lat="32.5278599" lon="130.02782">
<ele>11</ele>
</trkpt>
<trkpt lat="32.52782" lon="130.02779">
<ele>11</ele>
</trkpt>
<trkpt lat="32.52779" lon="130.02776">
<ele>11</ele>
</trkpt>
<trkpt lat="32.5277699" lon="130.02773">
<ele>11</ele>
</trkpt>
<trkpt lat="32.52775" lon="130.02769">
<ele>11</ele>
</trkpt>
<trkpt lat="32.52774" lon="130.02766">
<ele>11</ele>
</trkpt>
<trkpt lat="32.52773" lon="130.0276299">
<ele>11</ele>
</trkpt>
<trkpt lat="32.52772" lon="130.02759">
<ele>10</ele>
</trkpt>
<trkpt lat="32.52772" lon="130.02758">
<ele>10</ele>
</trkpt>
<trkpt lat="32.52772" lon="130.02757">
<ele>10</ele>
</trkpt>
<trkpt lat="32.52771" lon="130.02753">
<ele>10</ele>
</trkpt>
<trkpt lat="32.52771" lon="130.02749">
<ele>10</ele>
</trkpt>
<trkpt lat="32.52771" lon="130.02744">
<ele>10</ele>
</trkpt>
<trkpt lat="32.5277" lon="130.0274">
<ele>10</ele>
</trkpt>
<trkpt lat="32.52769" lon="130.02737">
<ele>10</ele>
</trkpt>
<trkpt lat="32.52769" lon="130.0273599">
<ele>10</ele>
</trkpt>
<trkpt lat="32.52767" lon="130.02731">
<ele>9</ele>
</trkpt>
<trkpt lat="32.52764" lon="130.0272699">
<ele>9</ele>
</trkpt>
<trkpt lat="32.52762" lon="130.02725">
<ele>9</ele>
</trkpt>
<trkpt lat="32.5276" lon="130.02724">
<ele>9</ele>
</trkpt>
<trkpt lat="32.52758" lon="130.02723">
<ele>9</ele>
</trkpt>
<trkpt lat="32.52757" lon="130.02723">
<ele>9</ele>
</trkpt>
<trkpt lat="32.52757" lon="130.02722">
<ele>9</ele>
</trkpt>
<trkpt lat="32.52755" lon="130.02722">
<ele>9</ele>
</trkpt>
<trkpt lat="32.52753" lon="130.02723">
<ele>9</ele>
</trkpt>
<trkpt lat="32.52751" lon="130.02724">
<ele>8</ele>
</trkpt>
<trkpt lat="32.52749" lon="130.02725">
<ele>8</ele>
</trkpt>
<trkpt lat="32.52744" lon="130.02731">
<ele>8</ele>
</trkpt>
<trkpt lat="32.52742" lon="130.02732">
<ele>8</ele>
</trkpt>
<trkpt lat="32.52742" lon="130.02733">
<ele>8</ele>
</trkpt>
<trkpt lat="32.5273899" lon="130.02734">
<ele>8</ele>
</trkpt>
<trkpt lat="32.52737" lon="130.02735">
<ele>8</ele>
</trkpt>
<trkpt lat="32.52733" lon="130.02735">
<ele>8</ele>
</trkpt>
<trkpt lat="32.52725" lon="130.0273599">
<ele>8</ele>
</trkpt>
<trkpt lat="32.52719" lon="130.0273599">
<ele>8</ele>
</trkpt>
<trkpt lat="32.52714" lon="130.0273599">
<ele>8</ele>
</trkpt>
<trkpt lat="32.5271199" lon="130.0273599">
<ele>8</ele>
</trkpt>
<trkpt lat="32.52711" lon="130.0273599">
<ele>8</ele>
</trkpt>
<trkpt lat="32.5271" lon="130.02735">
<ele>8</ele>
</trkpt>
<trkpt lat="32.52709" lon="130.02735">
<ele>8</ele>
</trkpt>
<trkpt lat="32.52708" lon="130.02734">
<ele>8</ele>
</trkpt>
<trkpt lat="32.52708" lon="130.02733">
<ele>8</ele>
</trkpt>
<trkpt lat="32.52708" lon="130.02733">
<ele>8</ele>
</trkpt>
<trkpt lat="32.527" lon="130.02738">
<ele>8</ele>
</trkpt>
<trkpt lat="32.5269199" lon="130.02743">
<ele>8</ele>
</trkpt>
<trkpt lat="32.52686" lon="130.02746">
<ele>7</ele>
</trkpt>
<trkpt lat="32.5268" lon="130.0275">
<ele>7</ele>
</trkpt>
<trkpt lat="32.52676" lon="130.02752">
<ele>7</ele>
</trkpt>
<trkpt lat="32.52672" lon="130.0275399">
<ele>7</ele>
</trkpt>
<trkpt lat="32.52669" lon="130.02755">
<ele>7</ele>
</trkpt>
<trkpt lat="32.5266499" lon="130.02756">
<ele>7</ele>
</trkpt>
<trkpt lat="32.52661" lon="130.02756">
<ele>7</ele>
</trkpt>
<trkpt lat="32.52656" lon="130.02756">
<ele>7</ele>
</trkpt>
<trkpt lat="32.5265" lon="130.02756">
<ele>7</ele>
</trkpt>
<trkpt lat="32.5264499" lon="130.02757">
<ele>7</ele>
</trkpt>
<trkpt lat="32.52638" lon="130.02758">
<ele>7</ele>
</trkpt>
<trkpt lat="32.52632" lon="130.02759">
<ele>7</ele>
</trkpt>
<trkpt lat="32.52626" lon="130.0276">
<ele>7</ele>
</trkpt>
<trkpt lat="32.5262" lon="130.02762">
<ele>7</ele>
</trkpt>
<trkpt lat="32.5261799" lon="130.02762">
<ele>7</ele>
</trkpt>
<trkpt lat="32.52611" lon="130.02764">
<ele>7</ele>
</trkpt>
<trkpt lat="32.52602" lon="130.02767">
<ele>8</ele>
</trkpt>
<trkpt lat="32.526" lon="130.02767">
<ele>8</ele>
</trkpt>
<trkpt lat="32.52596" lon="130.02769">
<ele>9</ele>
</trkpt>
<trkpt lat="32.52591" lon="130.0277">
<ele>9</ele>
</trkpt>
<trkpt lat="32.5259" lon="130.0277">
<ele>9</ele>
</trkpt>
<trkpt lat="32.52583" lon="130.02771">
<ele>10</ele>
</trkpt>
<trkpt lat="32.52583" lon="130.02771">
<ele>10</ele>
</trkpt>
<trkpt lat="32.5257999" lon="130.02764">
<ele>10</ele>
</trkpt>
<trkpt lat="32.52578" lon="130.02759">
<ele>11</ele>
</trkpt>
<trkpt lat="32.52576" lon="130.02753">
<ele>11</ele>
</trkpt>
<trkpt lat="32.52573" lon="130.02748">
<ele>12</ele>
</trkpt>
<trkpt lat="32.5257099" lon="130.02744">
<ele>12</ele>
</trkpt>
<trkpt lat="32.52568" lon="130.0274">
<ele>13</ele>
</trkpt>
<trkpt lat="32.52566" lon="130.02738">
<ele>13</ele>
</trkpt>
<trkpt lat="32.52565" lon="130.02737">
<ele>13</ele>
</trkpt>
<trkpt lat="32.52562" lon="130.0273599">
<ele>13</ele>
</trkpt>
<trkpt lat="32.52558" lon="130.02734">
<ele>13</ele>
</trkpt>
<trkpt lat="32.52555" lon="130.02732">
<ele>14</ele>
</trkpt>
<trkpt lat="32.52551" lon="130.02729">
<ele>14</ele>
</trkpt>
<trkpt lat="32.52549" lon="130.0272699">
<ele>14</ele>
</trkpt>
<trkpt lat="32.52547" lon="130.02725">
<ele>15</ele>
</trkpt>
<trkpt lat="32.52546" lon="130.02723">
<ele>15</ele>
</trkpt>
<trkpt lat="32.52545" lon="130.02719">
<ele>15</ele>
</trkpt>
<trkpt lat="32.52543" lon="130.02716">
<ele>15</ele>
</trkpt>
<trkpt lat="32.52541" lon="130.02711">
<ele>16</ele>
</trkpt>
<trkpt lat="32.52539" lon="130.02706">
<ele>16</ele>
</trkpt>
<trkpt lat="32.52538" lon="130.02704">
<ele>16</ele>
</trkpt>
<trkpt lat="32.52536" lon="130.02702">
<ele>17</ele>
</trkpt>
<trkpt lat="32.5253299" lon="130.02701">
<ele>17</ele>
</trkpt>
<trkpt lat="32.5253" lon="130.02699">
<ele>17</ele>
</trkpt>
<trkpt lat="32.52525" lon="130.02698">
<ele>18</ele>
</trkpt>
<trkpt lat="32.52523" lon="130.02697">
<ele>18</ele>
</trkpt>
<trkpt lat="32.5251" lon="130.02694">
<ele>18</ele>
</trkpt>
<trkpt lat="32.52506" lon="130.02693">
<ele>18</ele>
</trkpt>
<trkpt lat="32.52501" lon="130.02692">
<ele>18</ele>
</trkpt>
<trkpt lat="32.52493" lon="130.02688">
<ele>18</ele>
</trkpt>
<trkpt lat="32.52489" lon="130.02686">
<ele>17</ele>
</trkpt>
<trkpt lat="32.52487" lon="130.02685">
<ele>17</ele>
</trkpt>
<trkpt lat="32.52481" lon="130.02681">
<ele>17</ele>
</trkpt>
<trkpt lat="32.5247699" lon="130.02678">
<ele>17</ele>
</trkpt>
<trkpt lat="32.52473" lon="130.02675">
<ele>17</ele>
</trkpt>
<trkpt lat="32.52472" lon="130.02674">
<ele>16</ele>
</trkpt>
<trkpt lat="32.52465" lon="130.0267">
<ele>16</ele>
</trkpt>
<trkpt lat="32.52461" lon="130.02666">
<ele>16</ele>
</trkpt>
<trkpt lat="32.52458" lon="130.0266399">
<ele>16</ele>
</trkpt>
<trkpt lat="32.52454" lon="130.0266">
<ele>16</ele>
</trkpt>
<trkpt lat="32.5245" lon="130.02656">
<ele>16</ele>
</trkpt>
<trkpt lat="32.52446" lon="130.0265">
<ele>16</ele>
</trkpt>
<trkpt lat="32.52442" lon="130.02644">
<ele>16</ele>
</trkpt>
<trkpt lat="32.52441" lon="130.02643">
<ele>16</ele>
</trkpt>
<trkpt lat="32.52438" lon="130.02638">
<ele>16</ele>
</trkpt>
<trkpt lat="32.52435" lon="130.02631">
<ele>16</ele>
</trkpt>
<trkpt lat="32.52435" lon="130.02631">
<ele>16</ele>
</trkpt>
<trkpt lat="32.52437" lon="130.02629">
<ele>16</ele>
</trkpt>
<trkpt lat="32.5243899" lon="130.02625">
<ele>16</ele>
</trkpt>
<trkpt lat="32.52442" lon="130.02619">
<ele>16</ele>
</trkpt>
<trkpt lat="32.52445" lon="130.02612">
<ele>16</ele>
</trkpt>
<trkpt lat="32.52449" lon="130.02602">
<ele>16</ele>
</trkpt>
<trkpt lat="32.52461" lon="130.02569">
<ele>16</ele>
</trkpt>
<trkpt lat="32.52462" lon="130.02565">
<ele>16</ele>
</trkpt>
<trkpt lat="32.52463" lon="130.02561">
<ele>16</ele>
</trkpt>
<trkpt lat="32.52463" lon="130.0255699">
<ele>16</ele>
</trkpt>
<trkpt lat="32.52464" lon="130.02549">
<ele>16</ele>
</trkpt>
<trkpt lat="32.52465" lon="130.02541">
<ele>16</ele>
</trkpt>
<trkpt lat="32.52466" lon="130.02534">
<ele>16</ele>
</trkpt>
<trkpt lat="32.52469" lon="130.02525">
<ele>16</ele>
</trkpt>
<trkpt lat="32.5247" lon="130.0252099">
<ele>16</ele>
</trkpt>
<trkpt lat="32.52472" lon="130.02518">
<ele>16</ele>
</trkpt>
<trkpt lat="32.5247699" lon="130.0251199">
<ele>17</ele>
</trkpt>
<trkpt lat="32.52481" lon="130.02507">
<ele>17</ele>
</trkpt>
<trkpt lat="32.52485" lon="130.0250299">
<ele>17</ele>
</trkpt>
<trkpt lat="32.5249499" lon="130.02491">
<ele>17</ele>
</trkpt>
<trkpt lat="32.52505" lon="130.02478">
<ele>17</ele>
</trkpt>
<trkpt lat="32.52523" lon="130.0245799">
<ele>17</ele>
</trkpt>
<trkpt lat="32.52544" lon="130.02433">
<ele>17</ele>
</trkpt>
<trkpt lat="32.52558" lon="130.02417">
<ele>17</ele>
</trkpt>
<trkpt lat="32.52562" lon="130.02413">
<ele>17</ele>
</trkpt>
<trkpt lat="32.52566" lon="130.0241">
<ele>17</ele>
</trkpt>
<trkpt lat="32.52569" lon="130.02408">
<ele>17</ele>
</trkpt>
<trkpt lat="32.52575" lon="130.02405">
<ele>17</ele>
</trkpt>
<trkpt lat="32.52587" lon="130.024">
<ele>18</ele>
</trkpt>
<trkpt lat="32.5259799" lon="130.02394">
<ele>19</ele>
</trkpt>
<trkpt lat="32.52603" lon="130.02391">
<ele>19</ele>
</trkpt>
<trkpt lat="32.52606" lon="130.0239">
<ele>19</ele>
</trkpt>
<trkpt lat="32.52608" lon="130.0238699">
<ele>19</ele>
</trkpt>
<trkpt lat="32.5261" lon="130.02385">
<ele>20</ele>
</trkpt>
<trkpt lat="32.52613" lon="130.02382">
<ele>20</ele>
</trkpt>
<trkpt lat="32.52615" lon="130.02379">
<ele>20</ele>
</trkpt>
<trkpt lat="32.52617" lon="130.02374">
<ele>20</ele>
</trkpt>
<trkpt lat="32.52619" lon="130.0237">
<ele>20</ele>
</trkpt>
<trkpt lat="32.52621" lon="130.02362">
<ele>21</ele>
</trkpt>
<trkpt lat="32.52622" lon="130.02355">
<ele>21</ele>
</trkpt>
<trkpt lat="32.52626" lon="130.0234">
<ele>22</ele>
</trkpt>
<trkpt lat="32.52629" lon="130.02328">
<ele>22</ele>
</trkpt>
<trkpt lat="32.5263" lon="130.0232399">
<ele>22</ele>
</trkpt>
<trkpt lat="32.52631" lon="130.02321">
<ele>23</ele>
</trkpt>
<trkpt lat="32.52633" lon="130.02318">
<ele>23</ele>
</trkpt>
<trkpt lat="32.5263599" lon="130.02314">
<ele>23</ele>
</trkpt>
<trkpt lat="32.5264499" lon="130.02305">
<ele>23</ele>
</trkpt>
<trkpt lat="32.52649" lon="130.02301">
<ele>24</ele>
</trkpt>
<trkpt lat="32.52661" lon="130.02289">
<ele>24</ele>
</trkpt>
<trkpt lat="32.52672" lon="130.02277">
<ele>25</ele>
</trkpt>
<trkpt lat="32.52676" lon="130.02273">
<ele>26</ele>
</trkpt>
<trkpt lat="32.52679" lon="130.02269">
<ele>26</ele>
</trkpt>
<trkpt lat="32.52681" lon="130.02266">
<ele>26</ele>
</trkpt>
<trkpt lat="32.52684" lon="130.02262">
<ele>26</ele>
</trkpt>
<trkpt lat="32.52686" lon="130.02256">
<ele>27</ele>
</trkpt>
<trkpt lat="32.52688" lon="130.0225199">
<ele>27</ele>
</trkpt>
<trkpt lat="32.52689" lon="130.02245">
<ele>28</ele>
</trkpt>
<trkpt lat="32.5269199" lon="130.0223">
<ele>29</ele>
</trkpt>
<trkpt lat="32.52693" lon="130.02225">
<ele>29</ele>
</trkpt>
<trkpt lat="32.52694" lon="130.02221">
<ele>29</ele>
</trkpt>
<trkpt lat="32.52695" lon="130.02218">
<ele>29</ele>
</trkpt>
<trkpt lat="32.52696" lon="130.02214">
<ele>30</ele>
</trkpt>
<trkpt lat="32.52698" lon="130.02212">
<ele>30</ele>
</trkpt>
<trkpt lat="32.52699" lon="130.02211">
<ele>30</ele>
</trkpt>
<trkpt lat="32.52701" lon="130.02208">
<ele>30</ele>
</trkpt>
<trkpt lat="32.52706" lon="130.02204">
<ele>30</ele>
</trkpt>
<trkpt lat="32.5271" lon="130.02201">
<ele>30</ele>
</trkpt>
<trkpt lat="32.52723" lon="130.02194">
<ele>31</ele>
</trkpt>
<trkpt lat="32.5272999" lon="130.0218999">
<ele>31</ele>
</trkpt>
<trkpt lat="32.52734" lon="130.02189">
<ele>31</ele>
</trkpt>
<trkpt lat="32.52736" lon="130.02188">
<ele>31</ele>
</trkpt>
<trkpt lat="32.5273899" lon="130.02188">
<ele>32</ele>
</trkpt>
<trkpt lat="32.5273899" lon="130.02188">
<ele>32</ele>
</trkpt>
<trkpt lat="32.5273899" lon="130.02177">
<ele>32</ele>
</trkpt>
<trkpt lat="32.52741" lon="130.0215399">
<ele>33</ele>
</trkpt>
<trkpt lat="32.52742" lon="130.0214499">
<ele>34</ele>
</trkpt>
<trkpt lat="32.52744" lon="130.02133">
<ele>35</ele>
</trkpt>
<trkpt lat="32.52748" lon="130.0211799">
<ele>36</ele>
</trkpt>
<trkpt lat="32.5275" lon="130.0210899">
<ele>37</ele>
</trkpt>
<trkpt lat="32.52752" lon="130.02105">
<ele>38</ele>
</trkpt>
<trkpt lat="32.52754" lon="130.02101">
<ele>38</ele>
</trkpt>
<trkpt lat="32.52758" lon="130.02096">
<ele>39</ele>
</trkpt>
<trkpt lat="32.52763" lon="130.02092">
<ele>39</ele>
</trkpt>
<trkpt lat="32.52769" lon="130.02087">
<ele>40</ele>
</trkpt>
<trkpt lat="32.528" lon="130.02068">
<ele>45</ele>
</trkpt>
<trkpt lat="32.52801" lon="130.02067">
<ele>45</ele>
</trkpt>
<trkpt lat="32.52806" lon="130.0206399">
<ele>46</ele>
</trkpt>
<trkpt lat="32.5281" lon="130.02061">
<ele>46</ele>
</trkpt>
<trkpt lat="32.52813" lon="130.02057">
<ele>47</ele>
</trkpt>
<trkpt lat="32.52816" lon="130.02053">
<ele>47</ele>
</trkpt>
<trkpt lat="32.52819" lon="130.02048">
<ele>48</ele>
</trkpt>
<trkpt lat="32.52821" lon="130.02042">
<ele>48</ele>
</trkpt>
<trkpt lat="32.52825" lon="130.0203">
<ele>48</ele>
</trkpt>
<trkpt lat="32.5283" lon="130.02011">
<ele>48</ele>
</trkpt>
<trkpt lat="32.52834" lon="130.01995">
<ele>48</ele>
</trkpt>
<trkpt lat="32.52836" lon="130.01987">
<ele>48</ele>
</trkpt>
<trkpt lat="32.5284" lon="130.01978">
<ele>48</ele>
</trkpt>
<trkpt lat="32.52841" lon="130.01977">
<ele>48</ele>
</trkpt>
<trkpt lat="32.52844" lon="130.01969">
<ele>48</ele>
</trkpt>
<trkpt lat="32.52849" lon="130.01963">
<ele>47</ele>
</trkpt>
<trkpt lat="32.52853" lon="130.0195699">
<ele>47</ele>
</trkpt>
<trkpt lat="32.52859" lon="130.01952">
<ele>46</ele>
</trkpt>
<trkpt lat="32.52863" lon="130.01947">
<ele>45</ele>
</trkpt>
<trkpt lat="32.52865" lon="130.01945">
<ele>45</ele>
</trkpt>
<trkpt lat="32.52867" lon="130.01943">
<ele>45</ele>
</trkpt>
<trkpt lat="32.5287" lon="130.01935">
<ele>44</ele>
</trkpt>
<trkpt lat="32.52873" lon="130.01929">
<ele>44</ele>
</trkpt>
<trkpt lat="32.52874" lon="130.01924">
<ele>43</ele>
</trkpt>
<trkpt lat="32.52875" lon="130.01917">
<ele>43</ele>
</trkpt>
<trkpt lat="32.52876" lon="130.01906">
<ele>42</ele>
</trkpt>
<trkpt lat="32.52876" lon="130.01893">
<ele>41</ele>
</trkpt>
<trkpt lat="32.52876" lon="130.01878">
<ele>41</ele>
</trkpt>
<trkpt lat="32.52876" lon="130.01866">
<ele>40</ele>
</trkpt>
<trkpt lat="32.52876" lon="130.01864">
<ele>40</ele>
</trkpt>
<trkpt lat="32.52874" lon="130.01855">
<ele>40</ele>
</trkpt>
<trkpt lat="32.52873" lon="130.01851">
<ele>40</ele>
</trkpt>
<trkpt lat="32.52873" lon="130.01851">
<ele>40</ele>
</trkpt>
<trkpt lat="32.5287099" lon="130.01847">
<ele>40</ele>
</trkpt>
<trkpt lat="32.52867" lon="130.0184">
<ele>39</ele>
</trkpt>
<trkpt lat="32.52863" lon="130.01832">
<ele>39</ele>
</trkpt>
<trkpt lat="32.5286" lon="130.01818">
<ele>38</ele>
</trkpt>
<trkpt lat="32.52859" lon="130.01805">
<ele>37</ele>
</trkpt>
<trkpt lat="32.52859" lon="130.01791">
<ele>35</ele>
</trkpt>
<trkpt lat="32.52859" lon="130.01789">
<ele>34</ele>
</trkpt>
<trkpt lat="32.52861" lon="130.0177799">
<ele>33</ele>
</trkpt>
<trkpt lat="32.52864" lon="130.01765">
<ele>31</ele>
</trkpt>
<trkpt lat="32.52867" lon="130.01758">
<ele>30</ele>
</trkpt>
<trkpt lat="32.52868" lon="130.01756">
<ele>30</ele>
</trkpt>
<trkpt lat="32.5287099" lon="130.01749">
<ele>29</ele>
</trkpt>
<trkpt lat="32.52872" lon="130.01745">
<ele>28</ele>
</trkpt>
<trkpt lat="32.52873" lon="130.01739">
<ele>27</ele>
</trkpt>
<trkpt lat="32.52873" lon="130.0173299">
<ele>27</ele>
</trkpt>
<trkpt lat="32.52872" lon="130.01729">
<ele>27</ele>
</trkpt>
<trkpt lat="32.52872" lon="130.01726">
<ele>27</ele>
</trkpt>
<trkpt lat="32.5287" lon="130.01719">
<ele>26</ele>
</trkpt>
<trkpt lat="32.52869" lon="130.01717">
<ele>26</ele>
</trkpt>
<trkpt lat="32.52867" lon="130.01713">
<ele>25</ele>
</trkpt>
<trkpt lat="32.52864" lon="130.0170599">
<ele>25</ele>
</trkpt>
<trkpt lat="32.52863" lon="130.017">
<ele>24</ele>
</trkpt>
<trkpt lat="32.5286199" lon="130.01695">
<ele>24</ele>
</trkpt>
<trkpt lat="32.52863" lon="130.01692">
<ele>24</ele>
</trkpt>
<trkpt lat="32.52864" lon="130.01689">
<ele>24</ele>
</trkpt>
<trkpt lat="32.52866" lon="130.01684">
<ele>23</ele>
</trkpt>
<trkpt lat="32.52869" lon="130.0167899">
<ele>23</ele>
</trkpt>
<trkpt lat="32.52872" lon="130.01674">
<ele>22</ele>
</trkpt>
<trkpt lat="32.5287999" lon="130.01665">
<ele>21</ele>
</trkpt>
<trkpt lat="32.52886" lon="130.0166099">
<ele>21</ele>
</trkpt>
<trkpt lat="32.52888" lon="130.01659">
<ele>21</ele>
</trkpt>
<trkpt lat="32.52892" lon="130.01656">
<ele>21</ele>
</trkpt>
<trkpt lat="32.52895" lon="130.01653">
<ele>21</ele>
</trkpt>
<trkpt lat="32.52897" lon="130.01652">
<ele>21</ele>
</trkpt>
<trkpt lat="32.52903" lon="130.01647">
<ele>21</ele>
</trkpt>
<trkpt lat="32.52903" lon="130.01647">
<ele>21</ele>
</trkpt>
<trkpt lat="32.52897" lon="130.01635">
<ele>20</ele>
</trkpt>
<trkpt lat="32.52895" lon="130.01632">
<ele>20</ele>
</trkpt>
<trkpt lat="32.5289" lon="130.01622">
<ele>20</ele>
</trkpt>
<trkpt lat="32.5289" lon="130.0162">
<ele>20</ele>
</trkpt>
<trkpt lat="32.5289" lon="130.01619">
<ele>20</ele>
</trkpt>
<trkpt lat="32.5289" lon="130.01618">
<ele>20</ele>
</trkpt>
<trkpt lat="32.5289" lon="130.01616">
<ele>20</ele>
</trkpt>
<trkpt lat="32.5289" lon="130.01616">
<ele>20</ele>
</trkpt>
<trkpt lat="32.52893" lon="130.01612">
<ele>20</ele>
</trkpt>
<trkpt lat="32.52903" lon="130.01603">
<ele>19</ele>
</trkpt>
<trkpt lat="32.52934" lon="130.01574">
<ele>19</ele>
</trkpt>
<trkpt lat="32.52948" lon="130.01561">
<ele>19</ele>
</trkpt>
<trkpt lat="32.52969" lon="130.01542">
<ele>19</ele>
</trkpt>
<trkpt lat="32.52948" lon="130.01561">
<ele>20</ele>
</trkpt>
<trkpt lat="32.52934" lon="130.01574">
<ele>20</ele>
</trkpt>
<trkpt lat="32.52903" lon="130.01603">
<ele>21</ele>
</trkpt>
<trkpt lat="32.52893" lon="130.01612">
<ele>21</ele>
</trkpt>
<trkpt lat="32.5289" lon="130.01616">
<ele>21</ele>
</trkpt>
<trkpt lat="32.5289" lon="130.01616">
<ele>21</ele>
</trkpt>
<trkpt lat="32.5289" lon="130.01618">
<ele>21</ele>
</trkpt>
<trkpt lat="32.5289" lon="130.01619">
<ele>21</ele>
</trkpt>
<trkpt lat="32.5289" lon="130.0162">
<ele>21</ele>
</trkpt>
<trkpt lat="32.5289" lon="130.01622">
<ele>21</ele>
</trkpt>
<trkpt lat="32.52895" lon="130.01632">
<ele>21</ele>
</trkpt>
<trkpt lat="32.52897" lon="130.01635">
<ele>21</ele>
</trkpt>
<trkpt lat="32.52903" lon="130.01647">
<ele>23</ele>
</trkpt>
<trkpt lat="32.52903" lon="130.01647">
<ele>23</ele>
</trkpt>
<trkpt lat="32.52897" lon="130.01652">
<ele>23</ele>
</trkpt>
<trkpt lat="32.52895" lon="130.01653">
<ele>24</ele>
</trkpt>
<trkpt lat="32.52892" lon="130.01656">
<ele>24</ele>
</trkpt>
<trkpt lat="32.52888" lon="130.01659">
<ele>24</ele>
</trkpt>
<trkpt lat="32.52886" lon="130.0166099">
<ele>25</ele>
</trkpt>
<trkpt lat="32.5287999" lon="130.01665">
<ele>25</ele>
</trkpt>
<trkpt lat="32.52872" lon="130.01674">
<ele>27</ele>
</trkpt>
<trkpt lat="32.52869" lon="130.0167899">
<ele>27</ele>
</trkpt>
<trkpt lat="32.52866" lon="130.01684">
<ele>28</ele>
</trkpt>
<trkpt lat="32.52864" lon="130.01689">
<ele>28</ele>
</trkpt>
<trkpt lat="32.52863" lon="130.01692">
<ele>28</ele>
</trkpt>
<trkpt lat="32.5286199" lon="130.01695">
<ele>29</ele>
</trkpt>
<trkpt lat="32.52863" lon="130.017">
<ele>29</ele>
</trkpt>
<trkpt lat="32.52864" lon="130.0170599">
<ele>30</ele>
</trkpt>
<trkpt lat="32.52867" lon="130.01713">
<ele>31</ele>
</trkpt>
<trkpt lat="32.52869" lon="130.01717">
<ele>32</ele>
</trkpt>
<trkpt lat="32.5287" lon="130.01719">
<ele>32</ele>
</trkpt>
<trkpt lat="32.52872" lon="130.01726">
<ele>33</ele>
</trkpt>
<trkpt lat="32.52872" lon="130.01729">
<ele>33</ele>
</trkpt>
<trkpt lat="32.52873" lon="130.0173299">
<ele>34</ele>
</trkpt>
<trkpt lat="32.52873" lon="130.01739">
<ele>34</ele>
</trkpt>
<trkpt lat="32.52872" lon="130.01745">
<ele>35</ele>
</trkpt>
<trkpt lat="32.5287099" lon="130.01749">
<ele>36</ele>
</trkpt>
<trkpt lat="32.52868" lon="130.01756">
<ele>36</ele>
</trkpt>
<trkpt lat="32.52867" lon="130.01758">
<ele>37</ele>
</trkpt>
<trkpt lat="32.52864" lon="130.01765">
<ele>38</ele>
</trkpt>
<trkpt lat="32.52861" lon="130.0177799">
<ele>39</ele>
</trkpt>
<trkpt lat="32.52859" lon="130.01789">
<ele>39</ele>
</trkpt>
<trkpt lat="32.52859" lon="130.01791">
<ele>39</ele>
</trkpt>
<trkpt lat="32.52859" lon="130.01805">
<ele>40</ele>
</trkpt>
<trkpt lat="32.5286" lon="130.01818">
<ele>40</ele>
</trkpt>
<trkpt lat="32.52863" lon="130.01832">
<ele>41</ele>
</trkpt>
<trkpt lat="32.52867" lon="130.0184">
<ele>41</ele>
</trkpt>
<trkpt lat="32.5287099" lon="130.01847">
<ele>41</ele>
</trkpt>
<trkpt lat="32.52873" lon="130.01851">
<ele>42</ele>
</trkpt>
<trkpt lat="32.52874" lon="130.01855">
<ele>42</ele>
</trkpt>
<trkpt lat="32.52876" lon="130.01864">
<ele>43</ele>
</trkpt>
<trkpt lat="32.52876" lon="130.01866">
<ele>43</ele>
</trkpt>
<trkpt lat="32.52876" lon="130.01878">
<ele>44</ele>
</trkpt>
<trkpt lat="32.52876" lon="130.01893">
<ele>45</ele>
</trkpt>
<trkpt lat="32.52876" lon="130.01906">
<ele>46</ele>
</trkpt>
<trkpt lat="32.52875" lon="130.01917">
<ele>46</ele>
</trkpt>
<trkpt lat="32.52874" lon="130.01924">
<ele>47</ele>
</trkpt>
<trkpt lat="32.52873" lon="130.01929">
<ele>47</ele>
</trkpt>
<trkpt lat="32.5287" lon="130.01935">
<ele>48</ele>
</trkpt>
<trkpt lat="32.52867" lon="130.01943">
<ele>48</ele>
</trkpt>
<trkpt lat="32.52865" lon="130.01945">
<ele>48</ele>
</trkpt>
<trkpt lat="32.52863" lon="130.01947">
<ele>48</ele>
</trkpt>
<trkpt lat="32.52859" lon="130.01952">
<ele>48</ele>
</trkpt>
<trkpt lat="32.52853" lon="130.0195699">
<ele>48</ele>
</trkpt>
<trkpt lat="32.52849" lon="130.01963">
<ele>48</ele>
</trkpt>
<trkpt lat="32.52844" lon="130.01969">
<ele>48</ele>
</trkpt>
<trkpt lat="32.52841" lon="130.01977">
<ele>48</ele>
</trkpt>
<trkpt lat="32.5284" lon="130.01978">
<ele>48</ele>
</trkpt>
<trkpt lat="32.52836" lon="130.01987">
<ele>48</ele>
</trkpt>
<trkpt lat="32.52834" lon="130.01995">
<ele>48</ele>
</trkpt>
<trkpt lat="32.5283" lon="130.02011">
<ele>47</ele>
</trkpt>
<trkpt lat="32.52825" lon="130.0203">
<ele>45</ele>
</trkpt>
<trkpt lat="32.52821" lon="130.02042">
<ele>43</ele>
</trkpt>
<trkpt lat="32.52819" lon="130.02048">
<ele>43</ele>
</trkpt>
<trkpt lat="32.52816" lon="130.02053">
<ele>42</ele>
</trkpt>
<trkpt lat="32.52813" lon="130.02057">
<ele>41</ele>
</trkpt>
<trkpt lat="32.5281" lon="130.02061">
<ele>41</ele>
</trkpt>
<trkpt lat="32.52806" lon="130.0206399">
<ele>40</ele>
</trkpt>
<trkpt lat="32.52801" lon="130.02067">
<ele>40</ele>
</trkpt>
<trkpt lat="32.528" lon="130.02068">
<ele>39</ele>
</trkpt>
<trkpt lat="32.52769" lon="130.02087">
<ele>36</ele>
</trkpt>
<trkpt lat="32.52763" lon="130.02092">
<ele>35</ele>
</trkpt>
<trkpt lat="32.52758" lon="130.02096">
<ele>35</ele>
</trkpt>
<trkpt lat="32.52754" lon="130.02101">
<ele>34</ele>
</trkpt>
<trkpt lat="32.52752" lon="130.02105">
<ele>34</ele>
</trkpt>
<trkpt lat="32.5275" lon="130.0210899">
<ele>33</ele>
</trkpt>
<trkpt lat="32.52748" lon="130.0211799">
<ele>32</ele>
</trkpt>
<trkpt lat="32.52744" lon="130.02133">
<ele>32</ele>
</trkpt>
<trkpt lat="32.52742" lon="130.0214499">
<ele>31</ele>
</trkpt>
<trkpt lat="32.52741" lon="130.0215399">
<ele>31</ele>
</trkpt>
<trkpt lat="32.5273899" lon="130.02177">
<ele>30</ele>
</trkpt>
<trkpt lat="32.5273899" lon="130.02188">
<ele>30</ele>
</trkpt>
<trkpt lat="32.5273899" lon="130.02188">
<ele>30</ele>
</trkpt>
<trkpt lat="32.52734" lon="130.02189">
<ele>30</ele>
</trkpt>
<trkpt lat="32.5272999" lon="130.0218999">
<ele>29</ele>
</trkpt>
<trkpt lat="32.52723" lon="130.02194">
<ele>29</ele>
</trkpt>
<trkpt lat="32.5271" lon="130.02201">
<ele>28</ele>
</trkpt>
<trkpt lat="32.52706" lon="130.02204">
<ele>28</ele>
</trkpt>
<trkpt lat="32.52701" lon="130.02208">
<ele>27</ele>
</trkpt>
<trkpt lat="32.52699" lon="130.02211">
<ele>27</ele>
</trkpt>
<trkpt lat="32.52698" lon="130.02212">
<ele>27</ele>
</trkpt>
<trkpt lat="32.52696" lon="130.02214">
<ele>27</ele>
</trkpt>
<trkpt lat="32.52695" lon="130.02218">
<ele>26</ele>
</trkpt>
<trkpt lat="32.52694" lon="130.02221">
<ele>26</ele>
</trkpt>
<trkpt lat="32.52693" lon="130.02225">
<ele>26</ele>
</trkpt>
<trkpt lat="32.5269199" lon="130.0223">
<ele>26</ele>
</trkpt>
<trkpt lat="32.52689" lon="130.02245">
<ele>25</ele>
</trkpt>
<trkpt lat="32.52688" lon="130.0225199">
<ele>24</ele>
</trkpt>
<trkpt lat="32.52686" lon="130.02256">
<ele>24</ele>
</trkpt>
<trkpt lat="32.52684" lon="130.02262">
<ele>24</ele>
</trkpt>
<trkpt lat="32.52681" lon="130.02266">
<ele>24</ele>
</trkpt>
<trkpt lat="32.52679" lon="130.02269">
<ele>24</ele>
</trkpt>
<trkpt lat="32.52676" lon="130.02273">
<ele>23</ele>
</trkpt>
<trkpt lat="32.52672" lon="130.02277">
<ele>23</ele>
</trkpt>
<trkpt lat="32.52661" lon="130.02289">
<ele>23</ele>
</trkpt>
<trkpt lat="32.52649" lon="130.02301">
<ele>22</ele>
</trkpt>
<trkpt lat="32.5264499" lon="130.02305">
<ele>22</ele>
</trkpt>
<trkpt lat="32.5263599" lon="130.02314">
<ele>21</ele>
</trkpt>
<trkpt lat="32.52633" lon="130.02318">
<ele>21</ele>
</trkpt>
<trkpt lat="32.52631" lon="130.02321">
<ele>21</ele>
</trkpt>
<trkpt lat="32.5263" lon="130.0232399">
<ele>20</ele>
</trkpt>
<trkpt lat="32.52629" lon="130.02328">
<ele>20</ele>
</trkpt>
<trkpt lat="32.52626" lon="130.0234">
<ele>20</ele>
</trkpt>
<trkpt lat="32.52622" lon="130.02355">
<ele>19</ele>
</trkpt>
<trkpt lat="32.52621" lon="130.02362">
<ele>18</ele>
</trkpt>
<trkpt lat="32.52619" lon="130.0237">
<ele>18</ele>
</trkpt>
<trkpt lat="32.52617" lon="130.02374">
<ele>18</ele>
</trkpt>
<trkpt lat="32.52615" lon="130.02379">
<ele>18</ele>
</trkpt>
<trkpt lat="32.52613" lon="130.02382">
<ele>17</ele>
</trkpt>
<trkpt lat="32.5261" lon="130.02385">
<ele>17</ele>
</trkpt>
<trkpt lat="32.52608" lon="130.0238699">
<ele>17</ele>
</trkpt>
<trkpt lat="32.52606" lon="130.0239">
<ele>17</ele>
</trkpt>
<trkpt lat="32.52603" lon="130.02391">
<ele>17</ele>
</trkpt>
<trkpt lat="32.5259799" lon="130.02394">
<ele>17</ele>
</trkpt>
<trkpt lat="32.52587" lon="130.024">
<ele>17</ele>
</trkpt>
<trkpt lat="32.52575" lon="130.02405">
<ele>17</ele>
</trkpt>
<trkpt lat="32.52569" lon="130.02408">
<ele>17</ele>
</trkpt>
<trkpt lat="32.52566" lon="130.0241">
<ele>17</ele>
</trkpt>
<trkpt lat="32.52562" lon="130.02413">
<ele>17</ele>
</trkpt>
<trkpt lat="32.52558" lon="130.02417">
<ele>17</ele>
</trkpt>
<trkpt lat="32.52544" lon="130.02433">
<ele>17</ele>
</trkpt>
<trkpt lat="32.52523" lon="130.0245799">
<ele>17</ele>
</trkpt>
<trkpt lat="32.52505" lon="130.02478">
<ele>17</ele>
</trkpt>
<trkpt lat="32.5249499" lon="130.02491">
<ele>16</ele>
</trkpt>
<trkpt lat="32.52485" lon="130.0250299">
<ele>16</ele>
</trkpt>
<trkpt lat="32.52481" lon="130.02507">
<ele>16</ele>
</trkpt>
<trkpt lat="32.5247699" lon="130.0251199">
<ele>16</ele>
</trkpt>
<trkpt lat="32.52472" lon="130.02518">
<ele>16</ele>
</trkpt>
<trkpt lat="32.5247" lon="130.0252099">
<ele>16</ele>
</trkpt>
<trkpt lat="32.52469" lon="130.02525">
<ele>16</ele>
</trkpt>
<trkpt lat="32.52466" lon="130.02534">
<ele>16</ele>
</trkpt>
<trkpt lat="32.52465" lon="130.02541">
<ele>16</ele>
</trkpt>
<trkpt lat="32.52464" lon="130.02549">
<ele>15</ele>
</trkpt>
<trkpt lat="32.52463" lon="130.0255699">
<ele>15</ele>
</trkpt>
<trkpt lat="32.52463" lon="130.02561">
<ele>15</ele>
</trkpt>
<trkpt lat="32.52462" lon="130.02565">
<ele>15</ele>
</trkpt>
<trkpt lat="32.52461" lon="130.02569">
<ele>15</ele>
</trkpt>
<trkpt lat="32.52449" lon="130.02602">
<ele>15</ele>
</trkpt>
<trkpt lat="32.52445" lon="130.02612">
<ele>15</ele>
</trkpt>
<trkpt lat="32.52442" lon="130.02619">
<ele>15</ele>
</trkpt>
<trkpt lat="32.5243899" lon="130.02625">
<ele>15</ele>
</trkpt>
<trkpt lat="32.52437" lon="130.02629">
<ele>15</ele>
</trkpt>
<trkpt lat="32.52435" lon="130.02631">
<ele>15</ele>
</trkpt>
<trkpt lat="32.52431" lon="130.02633">
<ele>16</ele>
</trkpt>
<trkpt lat="32.52425" lon="130.02636">
<ele>16</ele>
</trkpt>
<trkpt lat="32.52418" lon="130.02638">
<ele>17</ele>
</trkpt>
<trkpt lat="32.52412" lon="130.0264">
<ele>17</ele>
</trkpt>
<trkpt lat="32.52404" lon="130.02644">
<ele>18</ele>
</trkpt>
<trkpt lat="32.52397" lon="130.02648">
<ele>18</ele>
</trkpt>
<trkpt lat="32.52389" lon="130.02653">
<ele>19</ele>
</trkpt>
<trkpt lat="32.52382" lon="130.02656">
<ele>19</ele>
</trkpt>
<trkpt lat="32.52373" lon="130.02662">
<ele>21</ele>
</trkpt>
<trkpt lat="32.52366" lon="130.02665">
<ele>22</ele>
</trkpt>
<trkpt lat="32.5236" lon="130.02668">
<ele>22</ele>
</trkpt>
<trkpt lat="32.52355" lon="130.02669">
<ele>23</ele>
</trkpt>
<trkpt lat="32.52352" lon="130.0267">
<ele>23</ele>
</trkpt>
<trkpt lat="32.5234" lon="130.02672">
<ele>25</ele>
</trkpt>
<trkpt lat="32.52337" lon="130.02672">
<ele>25</ele>
</trkpt>
<trkpt lat="32.52326" lon="130.02675">
<ele>27</ele>
</trkpt>
<trkpt lat="32.52316" lon="130.02678">
<ele>28</ele>
</trkpt>
<trkpt lat="32.52306" lon="130.0268">
<ele>29</ele>
</trkpt>
<trkpt lat="32.52297" lon="130.0268199">
<ele>29</ele>
</trkpt>
<trkpt lat="32.52284" lon="130.0268199">
<ele>29</ele>
</trkpt>
<trkpt lat="32.52256" lon="130.02676">
<ele>29</ele>
</trkpt>
<trkpt lat="32.52249" lon="130.02674">
<ele>29</ele>
</trkpt>
<trkpt lat="32.52243" lon="130.0267299">
<ele>29</ele>
</trkpt>
<trkpt lat="32.52232" lon="130.02671">
<ele>28</ele>
</trkpt>
<trkpt lat="32.52231" lon="130.0267">
<ele>28</ele>
</trkpt>
<trkpt lat="32.5221" lon="130.0266399">
<ele>26</ele>
</trkpt>
<trkpt lat="32.52202" lon="130.02662">
<ele>25</ele>
</trkpt>
<trkpt lat="32.52198" lon="130.0266">
<ele>25</ele>
</trkpt>
<trkpt lat="32.52196" lon="130.02659">
<ele>24</ele>
</trkpt>
<trkpt lat="32.52193" lon="130.02657">
<ele>24</ele>
</trkpt>
<trkpt lat="32.52192" lon="130.0265499">
<ele>24</ele>
</trkpt>
<trkpt lat="32.5219" lon="130.02653">
<ele>24</ele>
</trkpt>
<trkpt lat="32.52189" lon="130.02651">
<ele>23</ele>
</trkpt>
<trkpt lat="32.52188" lon="130.02648">
<ele>23</ele>
</trkpt>
<trkpt lat="32.52187" lon="130.02645">
<ele>23</ele>
</trkpt>
<trkpt lat="32.5218599" lon="130.02641">
<ele>23</ele>
</trkpt>
<trkpt lat="32.5218599" lon="130.0263699">
<ele>23</ele>
</trkpt>
<trkpt lat="32.5218599" lon="130.02633">
<ele>23</ele>
</trkpt>
<trkpt lat="32.5218599" lon="130.02622">
<ele>23</ele>
</trkpt>
<trkpt lat="32.5218599" lon="130.02621">
<ele>23</ele>
</trkpt>
<trkpt lat="32.5218599" lon="130.0261">
<ele>23</ele>
</trkpt>
<trkpt lat="32.52188" lon="130.02602">
<ele>23</ele>
</trkpt>
<trkpt lat="32.52188" lon="130.026">
<ele>23</ele>
</trkpt>
<trkpt lat="32.5219" lon="130.02594">
<ele>23</ele>
</trkpt>
<trkpt lat="32.52193" lon="130.02588">
<ele>23</ele>
</trkpt>
<trkpt lat="32.52194" lon="130.02584">
<ele>23</ele>
</trkpt>
<trkpt lat="32.52198" lon="130.02581">
<ele>23</ele>
</trkpt>
<trkpt lat="32.52231" lon="130.02555">
<ele>23</ele>
</trkpt>
<trkpt lat="32.52198" lon="130.02581">
<ele>23</ele>
</trkpt>
<trkpt lat="32.52194" lon="130.02584">
<ele>23</ele>
</trkpt>
<trkpt lat="32.52193" lon="130.02588">
<ele>24</ele>
</trkpt>
<trkpt lat="32.5219" lon="130.02594">
<ele>24</ele>
</trkpt>
<trkpt lat="32.52188" lon="130.026">
<ele>25</ele>
</trkpt>
<trkpt lat="32.52188" lon="130.02602">
<ele>25</ele>
</trkpt>
<trkpt lat="32.5218599" lon="130.0261">
<ele>26</ele>
</trkpt>
<trkpt lat="32.5218599" lon="130.02621">
<ele>27</ele>
</trkpt>
<trkpt lat="32.5218599" lon="130.02622">
<ele>27</ele>
</trkpt>
<trkpt lat="32.5218599" lon="130.02633">
<ele>28</ele>
</trkpt>
<trkpt lat="32.5218599" lon="130.0263699">
<ele>28</ele>
</trkpt>
<trkpt lat="32.5218599" lon="130.02641">
<ele>28</ele>
</trkpt>
<trkpt lat="32.52187" lon="130.02645">
<ele>29</ele>
</trkpt>
<trkpt lat="32.52188" lon="130.02648">
<ele>29</ele>
</trkpt>
<trkpt lat="32.52189" lon="130.02651">
<ele>29</ele>
</trkpt>
<trkpt lat="32.5219" lon="130.02653">
<ele>29</ele>
</trkpt>
<trkpt lat="32.52192" lon="130.0265499">
<ele>30</ele>
</trkpt>
<trkpt lat="32.52193" lon="130.02657">
<ele>30</ele>
</trkpt>
<trkpt lat="32.52196" lon="130.02659">
<ele>30</ele>
</trkpt>
<trkpt lat="32.52198" lon="130.0266">
<ele>30</ele>
</trkpt>
<trkpt lat="32.52202" lon="130.02662">
<ele>30</ele>
</trkpt>
<trkpt lat="32.5221" lon="130.0266399">
<ele>30</ele>
</trkpt>
<trkpt lat="32.52231" lon="130.0267">
<ele>30</ele>
</trkpt>
<trkpt lat="32.52232" lon="130.02671">
<ele>30</ele>
</trkpt>
<trkpt lat="32.52243" lon="130.0267299">
<ele>30</ele>
</trkpt>
<trkpt lat="32.52249" lon="130.02674">
<ele>30</ele>
</trkpt>
<trkpt lat="32.52256" lon="130.02676">
<ele>30</ele>
</trkpt>
<trkpt lat="32.52284" lon="130.0268199">
<ele>29</ele>
</trkpt>
<trkpt lat="32.52284" lon="130.0268199">
<ele>29</ele>
</trkpt>
<trkpt lat="32.5226" lon="130.0269">
<ele>29</ele>
</trkpt>
<trkpt lat="32.52255" lon="130.02692">
<ele>29</ele>
</trkpt>
<trkpt lat="32.52244" lon="130.02695">
<ele>29</ele>
</trkpt>
<trkpt lat="32.52238" lon="130.02697">
<ele>29</ele>
</trkpt>
<trkpt lat="32.52228" lon="130.02701">
<ele>28</ele>
</trkpt>
<trkpt lat="32.52221" lon="130.02704">
<ele>27</ele>
</trkpt>
<trkpt lat="32.52215" lon="130.02707">
<ele>26</ele>
</trkpt>
<trkpt lat="32.5218599" lon="130.0272">
<ele>23</ele>
</trkpt>
<trkpt lat="32.52176" lon="130.02726">
<ele>21</ele>
</trkpt>
<trkpt lat="32.52168" lon="130.0273">
<ele>20</ele>
</trkpt>
<trkpt lat="32.5215699" lon="130.02737">
<ele>20</ele>
</trkpt>
<trkpt lat="32.52149" lon="130.02743">
<ele>19</ele>
</trkpt>
<trkpt lat="32.52143" lon="130.02748">
<ele>19</ele>
</trkpt>
<trkpt lat="32.5214" lon="130.02751">
<ele>18</ele>
</trkpt>
<trkpt lat="32.52138" lon="130.02753">
<ele>18</ele>
</trkpt>
<trkpt lat="32.52136" lon="130.02758">
<ele>18</ele>
</trkpt>
<trkpt lat="32.52134" lon="130.02762">
<ele>18</ele>
</trkpt>
<trkpt lat="32.52133" lon="130.02766">
<ele>18</ele>
</trkpt>
<trkpt lat="32.52132" lon="130.0277">
<ele>17</ele>
</trkpt>
<trkpt lat="32.52133" lon="130.02775">
<ele>17</ele>
</trkpt>
<trkpt lat="32.52134" lon="130.02785">
<ele>17</ele>
</trkpt>
<trkpt lat="32.52137" lon="130.02806">
<ele>17</ele>
</trkpt>
<trkpt lat="32.52138" lon="130.02811">
<ele>17</ele>
</trkpt>
<trkpt lat="32.5214" lon="130.02819">
<ele>18</ele>
</trkpt>
<trkpt lat="32.52143" lon="130.02825">
<ele>18</ele>
</trkpt>
<trkpt lat="32.52145" lon="130.0283">
<ele>18</ele>
</trkpt>
<trkpt lat="32.52146" lon="130.0283">
<ele>18</ele>
</trkpt>
<trkpt lat="32.52149" lon="130.0283399">
<ele>18</ele>
</trkpt>
<trkpt lat="32.52156" lon="130.02842">
<ele>19</ele>
</trkpt>
<trkpt lat="32.52166" lon="130.0285199">
<ele>19</ele>
</trkpt>
<trkpt lat="32.5217699" lon="130.02862">
<ele>19</ele>
</trkpt>
<trkpt lat="32.52189" lon="130.02873">
<ele>19</ele>
</trkpt>
<trkpt lat="32.522" lon="130.02881">
<ele>18</ele>
</trkpt>
<trkpt lat="32.52206" lon="130.02887">
<ele>18</ele>
</trkpt>
<trkpt lat="32.52211" lon="130.02893">
<ele>18</ele>
</trkpt>
<trkpt lat="32.52215" lon="130.02898">
<ele>18</ele>
</trkpt>
<trkpt lat="32.52216" lon="130.02899">
<ele>18</ele>
</trkpt>
<trkpt lat="32.52225" lon="130.02911">
<ele>17</ele>
</trkpt>
<trkpt lat="32.52227" lon="130.02914">
<ele>17</ele>
</trkpt>
<trkpt lat="32.52231" lon="130.02921">
<ele>16</ele>
</trkpt>
<trkpt lat="32.52237" lon="130.02931">
<ele>15</ele>
</trkpt>
<trkpt lat="32.52241" lon="130.02939">
<ele>14</ele>
</trkpt>
<trkpt lat="32.5225" lon="130.02959">
<ele>12</ele>
</trkpt>
<trkpt lat="32.52253" lon="130.02967">
<ele>12</ele>
</trkpt>
<trkpt lat="32.52255" lon="130.02973">
<ele>11</ele>
</trkpt>
<trkpt lat="32.52256" lon="130.02977">
<ele>11</ele>
</trkpt>
<trkpt lat="32.52256" lon="130.02981">
<ele>10</ele>
</trkpt>
<trkpt lat="32.52256" lon="130.02984">
<ele>10</ele>
</trkpt>
<trkpt lat="32.52255" lon="130.02987">
<ele>10</ele>
</trkpt>
<trkpt lat="32.52254" lon="130.02991">
<ele>10</ele>
</trkpt>
<trkpt lat="32.52252" lon="130.02994">
<ele>9</ele>
</trkpt>
<trkpt lat="32.52249" lon="130.02998">
<ele>9</ele>
</trkpt>
<trkpt lat="32.52244" lon="130.03002">
<ele>8</ele>
</trkpt>
<trkpt lat="32.52243" lon="130.03005">
<ele>8</ele>
</trkpt>
<trkpt lat="32.5224199" lon="130.03006">
<ele>8</ele>
</trkpt>
<trkpt lat="32.52241" lon="130.03009">
<ele>7</ele>
</trkpt>
<trkpt lat="32.5224" lon="130.03014">
<ele>7</ele>
</trkpt>
<trkpt lat="32.52239" lon="130.03023">
<ele>6</ele>
</trkpt>
<trkpt lat="32.52238" lon="130.03026">
<ele>6</ele>
</trkpt>
<trkpt lat="32.52236" lon="130.03036">
<ele>5</ele>
</trkpt>
<trkpt lat="32.52234" lon="130.03046">
<ele>4</ele>
</trkpt>
<trkpt lat="32.52232" lon="130.03057">
<ele>3</ele>
</trkpt>
<trkpt lat="32.5223" lon="130.03064">
<ele>3</ele>
</trkpt>
<trkpt lat="32.52228" lon="130.03068">
<ele>3</ele>
</trkpt>
<trkpt lat="32.52227" lon="130.0307">
<ele>3</ele>
</trkpt>
<trkpt lat="32.5222399" lon="130.03072">
<ele>3</ele>
</trkpt>
<trkpt lat="32.5222" lon="130.03075">
<ele>2</ele>
</trkpt>
<trkpt lat="32.52205" lon="130.03088">
<ele>1</ele>
</trkpt>
<trkpt lat="32.52199" lon="130.03092">
<ele>1</ele>
</trkpt>
<trkpt lat="32.52198" lon="130.03092">
<ele>1</ele>
</trkpt>
<trkpt lat="32.52194" lon="130.03096">
<ele>0</ele>
</trkpt>
<trkpt lat="32.52187" lon="130.0310299">
<ele>0</ele>
</trkpt>
<trkpt lat="32.5218599" lon="130.03106">
<ele>0</ele>
</trkpt>
<trkpt lat="32.52182" lon="130.0311199">
<ele>0</ele>
</trkpt>
<trkpt lat="32.5217" lon="130.03142">
<ele>0</ele>
</trkpt>
<trkpt lat="32.52162" lon="130.03161">
<ele>0</ele>
</trkpt>
<trkpt lat="32.52153" lon="130.03178">
<ele>0</ele>
</trkpt>
<trkpt lat="32.52152" lon="130.03181">
<ele>0</ele>
</trkpt>
<trkpt lat="32.52137" lon="130.03207">
<ele>0</ele>
</trkpt>
<trkpt lat="32.52136" lon="130.0321">
<ele>0</ele>
</trkpt>
<trkpt lat="32.52135" lon="130.03214">
<ele>0</ele>
</trkpt>
<trkpt lat="32.52137" lon="130.03221">
<ele>0</ele>
</trkpt>
<trkpt lat="32.52137" lon="130.03221">
<ele>0</ele>
</trkpt>
<trkpt lat="32.52132" lon="130.03224">
<ele>0</ele>
</trkpt>
<trkpt lat="32.52132" lon="130.03224">
<ele>0</ele>
</trkpt>
<trkpt lat="32.52138" lon="130.03233">
<ele>0</ele>
</trkpt>
<trkpt lat="32.5214" lon="130.0323699">
<ele>0</ele>
</trkpt>
<trkpt lat="32.52144" lon="130.03243">
<ele>0</ele>
</trkpt>
<trkpt lat="32.52149" lon="130.0325">
<ele>0</ele>
</trkpt>
<trkpt lat="32.52153" lon="130.0325499">
<ele>0</ele>
</trkpt>
<trkpt lat="32.5216" lon="130.03265">
<ele>0</ele>
</trkpt>
<trkpt lat="32.52169" lon="130.03279">
<ele>0</ele>
</trkpt>
<trkpt lat="32.5218" lon="130.03298">
<ele>0</ele>
</trkpt>
<trkpt lat="32.52182" lon="130.03302">
<ele>0</ele>
</trkpt>
<trkpt lat="32.52183" lon="130.03304">
<ele>0</ele>
</trkpt>
<trkpt lat="32.52183" lon="130.03305">
<ele>0</ele>
</trkpt>
<trkpt lat="32.52183" lon="130.03308">
<ele>0</ele>
</trkpt>
<trkpt lat="32.52187" lon="130.0331">
<ele>0</ele>
</trkpt>
<trkpt lat="32.52194" lon="130.03316">
<ele>0</ele>
</trkpt>
<trkpt lat="32.52202" lon="130.03323">
<ele>0</ele>
</trkpt>
<trkpt lat="32.52208" lon="130.0333">
<ele>0</ele>
</trkpt>
<trkpt lat="32.52214" lon="130.03334">
<ele>0</ele>
</trkpt>
<trkpt lat="32.52221" lon="130.03337">
<ele>0</ele>
</trkpt>
<trkpt lat="32.52228" lon="130.03339">
<ele>0</ele>
</trkpt>
<trkpt lat="32.52243" lon="130.03342">
<ele>0</ele>
</trkpt>
<trkpt lat="32.52255" lon="130.03344">
<ele>0</ele>
</trkpt>
<trkpt lat="32.52254" lon="130.03352">
<ele>0</ele>
</trkpt>
<trkpt lat="32.52249" lon="130.03394">
<ele>0</ele>
</trkpt>
<trkpt lat="32.52268" lon="130.03402">
<ele>0</ele>
</trkpt>
<trkpt lat="32.52268" lon="130.03402">
<ele>0</ele>
</trkpt>
<trkpt lat="32.52276" lon="130.03462">
<ele>0</ele>
</trkpt>
<trkpt lat="32.52277" lon="130.03468">
<ele>0</ele>
</trkpt>
<trkpt lat="32.52278" lon="130.03469">
<ele>0</ele>
</trkpt>
<trkpt lat="32.52279" lon="130.03471">
<ele>0</ele>
</trkpt>
<trkpt lat="32.5227999" lon="130.03472">
<ele>0</ele>
</trkpt>
<trkpt lat="32.52281" lon="130.03473">
<ele>0</ele>
</trkpt>
<trkpt lat="32.52282" lon="130.03473">
<ele>0</ele>
</trkpt>
<trkpt lat="32.52285" lon="130.03474">
<ele>0</ele>
</trkpt>
<trkpt lat="32.52291" lon="130.03473">
<ele>0</ele>
</trkpt>
<trkpt lat="32.52293" lon="130.03472">
<ele>0</ele>
</trkpt>
    </trkseg>
  </trk>
</gpx>