<?xml version="1.0" encoding="UTF-8"?>
<gpx version="1.1"
     creator="KMLtoGPX"
     xmlns="http://www.topografix.com/GPX/1/1">
  <metadata>
    <name>Walking around the city and visiting sweets</name>
    <desc>街中散策＆スイーツ巡り</desc>
    <bounds minlat="33.43895" minlon="130.01803" maxlat="33.45153" maxlon="130.039358"/>
  </metadata>
  <trk>
    <name>Walking around the city and visiting sweets</name>
    <trkseg>
<trkpt lat="33.45153" lon="130.03727">
<ele>3</ele>
</trkpt>
<trkpt lat="33.45153" lon="130.03727">
<ele>3</ele>
</trkpt>
<trkpt lat="33.450535" lon="130.037966">
<ele>6</ele>
</trkpt>
<trkpt lat="33.44954" lon="130.0386619">
<ele>4</ele>
</trkpt>
<trkpt lat="33.448545" lon="130.039358">
<ele>3</ele>
</trkpt>
<trkpt lat="33.4485699" lon="130.03935">
<ele>3</ele>
</trkpt>
<trkpt lat="33.4485" lon="130.03921">
<ele>3</ele>
</trkpt>
<trkpt lat="33.44843" lon="130.03907">
<ele>3</ele>
</trkpt>
<trkpt lat="33.44835" lon="130.0389099">
<ele>3</ele>
</trkpt>
<trkpt lat="33.44829" lon="130.03878">
<ele>3</ele>
</trkpt>
<trkpt lat="33.44824" lon="130.03868">
<ele>3</ele>
</trkpt>
<trkpt lat="33.44822" lon="130.03863">
<ele>3</ele>
</trkpt>
<trkpt lat="33.44818" lon="130.0385499">
<ele>3</ele>
</trkpt>
<trkpt lat="33.44816" lon="130.0385">
<ele>3</ele>
</trkpt>
<trkpt lat="33.44813" lon="130.03844">
<ele>3</ele>
</trkpt>
<trkpt lat="33.44808" lon="130.03833">
<ele>3</ele>
</trkpt>
<trkpt lat="33.44805" lon="130.03826">
<ele>3</ele>
</trkpt>
<trkpt lat="33.44796" lon="130.03806">
<ele>3</ele>
</trkpt>
<trkpt lat="33.44791" lon="130.03792">
<ele>3</ele>
</trkpt>
<trkpt lat="33.44786" lon="130.03781">
<ele>3</ele>
</trkpt>
<trkpt lat="33.44782" lon="130.03769">
<ele>3</ele>
</trkpt>
<trkpt lat="33.44778" lon="130.0376">
<ele>3</ele>
</trkpt>
<trkpt lat="33.44776" lon="130.03753">
<ele>3</ele>
</trkpt>
<trkpt lat="33.44766" lon="130.03724">
<ele>4</ele>
</trkpt>
<trkpt lat="33.44764" lon="130.0372">
<ele>4</ele>
</trkpt>
<trkpt lat="33.44758" lon="130.03699">
<ele>4</ele>
</trkpt>
<trkpt lat="33.44753" lon="130.03682">
<ele>4</ele>
</trkpt>
<trkpt lat="33.44742" lon="130.0364899">
<ele>5</ele>
</trkpt>
<trkpt lat="33.44739" lon="130.03642">
<ele>5</ele>
</trkpt>
<trkpt lat="33.4473399" lon="130.03629">
<ele>5</ele>
</trkpt>
<trkpt lat="33.44729" lon="130.03613">
<ele>5</ele>
</trkpt>
<trkpt lat="33.44723" lon="130.03595">
<ele>5</ele>
</trkpt>
<trkpt lat="33.44715" lon="130.03572">
<ele>5</ele>
</trkpt>
<trkpt lat="33.44711" lon="130.03562">
<ele>5</ele>
</trkpt>
<trkpt lat="33.4471" lon="130.0356">
<ele>5</ele>
</trkpt>
<trkpt lat="33.44709" lon="130.03559">
<ele>5</ele>
</trkpt>
<trkpt lat="33.44708" lon="130.03557">
<ele>5</ele>
</trkpt>
<trkpt lat="33.4470699" lon="130.03556">
<ele>5</ele>
</trkpt>
<trkpt lat="33.44706" lon="130.03554">
<ele>5</ele>
</trkpt>
<trkpt lat="33.44705" lon="130.03552">
<ele>5</ele>
</trkpt>
<trkpt lat="33.44704" lon="130.0355">
<ele>5</ele>
</trkpt>
<trkpt lat="33.44703" lon="130.03546">
<ele>5</ele>
</trkpt>
<trkpt lat="33.44696" lon="130.03529">
<ele>5</ele>
</trkpt>
<trkpt lat="33.44684" lon="130.035">
<ele>5</ele>
</trkpt>
<trkpt lat="33.44675" lon="130.0348">
<ele>5</ele>
</trkpt>
<trkpt lat="33.44662" lon="130.0345">
<ele>5</ele>
</trkpt>
<trkpt lat="33.44653" lon="130.03426">
<ele>6</ele>
</trkpt>
<trkpt lat="33.4465" lon="130.03419">
<ele>6</ele>
</trkpt>
<trkpt lat="33.44648" lon="130.03412">
<ele>6</ele>
</trkpt>
<trkpt lat="33.44645" lon="130.03407">
<ele>7</ele>
</trkpt>
<trkpt lat="33.44642" lon="130.03399">
<ele>7</ele>
</trkpt>
<trkpt lat="33.44638" lon="130.03391">
<ele>7</ele>
</trkpt>
<trkpt lat="33.44637" lon="130.03388">
<ele>7</ele>
</trkpt>
<trkpt lat="33.44635" lon="130.03385">
<ele>8</ele>
</trkpt>
<trkpt lat="33.44627" lon="130.03371">
<ele>8</ele>
</trkpt>
<trkpt lat="33.44627" lon="130.0337">
<ele>8</ele>
</trkpt>
<trkpt lat="33.4462199" lon="130.0336">
<ele>8</ele>
</trkpt>
<trkpt lat="33.44614" lon="130.03347">
<ele>8</ele>
</trkpt>
<trkpt lat="33.44594" lon="130.03308">
<ele>6</ele>
</trkpt>
<trkpt lat="33.44579" lon="130.03276">
<ele>6</ele>
</trkpt>
<trkpt lat="33.4456599" lon="130.03249">
<ele>6</ele>
</trkpt>
<trkpt lat="33.44561" lon="130.0323699">
<ele>6</ele>
</trkpt>
<trkpt lat="33.4455699" lon="130.0322799">
<ele>7</ele>
</trkpt>
<trkpt lat="33.44548" lon="130.0321">
<ele>7</ele>
</trkpt>
<trkpt lat="33.44543" lon="130.03199">
<ele>8</ele>
</trkpt>
<trkpt lat="33.44529" lon="130.03173">
<ele>8</ele>
</trkpt>
<trkpt lat="33.44526" lon="130.03168">
<ele>8</ele>
</trkpt>
<trkpt lat="33.4452" lon="130.03155">
<ele>9</ele>
</trkpt>
<trkpt lat="33.44511" lon="130.03136">
<ele>9</ele>
</trkpt>
<trkpt lat="33.4450999" lon="130.03135">
<ele>9</ele>
</trkpt>
<trkpt lat="33.44498" lon="130.03113">
<ele>9</ele>
</trkpt>
<trkpt lat="33.44491" lon="130.031">
<ele>9</ele>
</trkpt>
<trkpt lat="33.44483" lon="130.03083">
<ele>9</ele>
</trkpt>
<trkpt lat="33.44482" lon="130.03081">
<ele>9</ele>
</trkpt>
<trkpt lat="33.44474" lon="130.03062">
<ele>9</ele>
</trkpt>
<trkpt lat="33.44468" lon="130.03048">
<ele>9</ele>
</trkpt>
<trkpt lat="33.44466" lon="130.03042">
<ele>9</ele>
</trkpt>
<trkpt lat="33.44464" lon="130.03036">
<ele>9</ele>
</trkpt>
<trkpt lat="33.44458" lon="130.03023">
<ele>9</ele>
</trkpt>
<trkpt lat="33.44458" lon="130.03022">
<ele>9</ele>
</trkpt>
<trkpt lat="33.44449" lon="130.03005">
<ele>10</ele>
</trkpt>
<trkpt lat="33.44439" lon="130.02986">
<ele>10</ele>
</trkpt>
<trkpt lat="33.4442499" lon="130.02954">
<ele>10</ele>
</trkpt>
<trkpt lat="33.44422" lon="130.02948">
<ele>10</ele>
</trkpt>
<trkpt lat="33.44413" lon="130.0293">
<ele>10</ele>
</trkpt>
<trkpt lat="33.44404" lon="130.02911">
<ele>10</ele>
</trkpt>
<trkpt lat="33.44394" lon="130.02893">
<ele>10</ele>
</trkpt>
<trkpt lat="33.44391" lon="130.02886">
<ele>10</ele>
</trkpt>
<trkpt lat="33.44385" lon="130.02875">
<ele>10</ele>
</trkpt>
<trkpt lat="33.4437799" lon="130.02863">
<ele>10</ele>
</trkpt>
<trkpt lat="33.44375" lon="130.02857">
<ele>10</ele>
</trkpt>
<trkpt lat="33.44371" lon="130.02847">
<ele>10</ele>
</trkpt>
<trkpt lat="33.44367" lon="130.02838">
<ele>10</ele>
</trkpt>
<trkpt lat="33.44359" lon="130.02818">
<ele>11</ele>
</trkpt>
<trkpt lat="33.44358" lon="130.02814">
<ele>11</ele>
</trkpt>
<trkpt lat="33.44344" lon="130.02779">
<ele>12</ele>
</trkpt>
<trkpt lat="33.44337" lon="130.02759">
<ele>12</ele>
</trkpt>
<trkpt lat="33.44334" lon="130.02751">
<ele>12</ele>
</trkpt>
<trkpt lat="33.44325" lon="130.02723">
<ele>12</ele>
</trkpt>
<trkpt lat="33.44318" lon="130.02699">
<ele>11</ele>
</trkpt>
<trkpt lat="33.44315" lon="130.02688">
<ele>10</ele>
</trkpt>
<trkpt lat="33.44312" lon="130.02678">
<ele>10</ele>
</trkpt>
<trkpt lat="33.44306" lon="130.02657">
<ele>10</ele>
</trkpt>
<trkpt lat="33.44295" lon="130.02626">
<ele>9</ele>
</trkpt>
<trkpt lat="33.44292" lon="130.02619">
<ele>9</ele>
</trkpt>
<trkpt lat="33.44292" lon="130.02619">
<ele>9</ele>
</trkpt>
<trkpt lat="33.44292" lon="130.02618">
<ele>9</ele>
</trkpt>
<trkpt lat="33.44285" lon="130.02599">
<ele>8</ele>
</trkpt>
<trkpt lat="33.44282" lon="130.02591">
<ele>8</ele>
</trkpt>
<trkpt lat="33.44277" lon="130.02579">
<ele>7</ele>
</trkpt>
<trkpt lat="33.44273" lon="130.02571">
<ele>7</ele>
</trkpt>
<trkpt lat="33.44268" lon="130.0256">
<ele>6</ele>
</trkpt>
<trkpt lat="33.4426599" lon="130.02555">
<ele>6</ele>
</trkpt>
<trkpt lat="33.4426" lon="130.02545">
<ele>5</ele>
</trkpt>
<trkpt lat="33.44258" lon="130.02542">
<ele>5</ele>
</trkpt>
<trkpt lat="33.44249" lon="130.02524">
<ele>5</ele>
</trkpt>
<trkpt lat="33.4424" lon="130.02505">
<ele>5</ele>
</trkpt>
<trkpt lat="33.44236" lon="130.02497">
<ele>5</ele>
</trkpt>
<trkpt lat="33.44231" lon="130.02486">
<ele>5</ele>
</trkpt>
<trkpt lat="33.44226" lon="130.02474">
<ele>4</ele>
</trkpt>
<trkpt lat="33.44222" lon="130.02464">
<ele>4</ele>
</trkpt>
<trkpt lat="33.4421899" lon="130.02456">
<ele>4</ele>
</trkpt>
<trkpt lat="33.44218" lon="130.02454">
<ele>4</ele>
</trkpt>
<trkpt lat="33.44218" lon="130.02452">
<ele>4</ele>
</trkpt>
<trkpt lat="33.44217" lon="130.0245">
<ele>4</ele>
</trkpt>
<trkpt lat="33.44217" lon="130.02447">
<ele>4</ele>
</trkpt>
<trkpt lat="33.44217" lon="130.02447">
<ele>4</ele>
</trkpt>
<trkpt lat="33.44201" lon="130.0244">
<ele>4</ele>
</trkpt>
<trkpt lat="33.44201" lon="130.0244">
<ele>4</ele>
</trkpt>
<trkpt lat="33.442" lon="130.02437">
<ele>4</ele>
</trkpt>
<trkpt lat="33.4419899" lon="130.02434">
<ele>4</ele>
</trkpt>
<trkpt lat="33.44197" lon="130.02429">
<ele>4</ele>
</trkpt>
<trkpt lat="33.44194" lon="130.02421">
<ele>4</ele>
</trkpt>
<trkpt lat="33.44192" lon="130.02415">
<ele>4</ele>
</trkpt>
<trkpt lat="33.4418999" lon="130.0241">
<ele>4</ele>
</trkpt>
<trkpt lat="33.44185" lon="130.02397">
<ele>4</ele>
</trkpt>
<trkpt lat="33.44179" lon="130.02383">
<ele>5</ele>
</trkpt>
<trkpt lat="33.44176" lon="130.0237799">
<ele>5</ele>
</trkpt>
<trkpt lat="33.44171" lon="130.02365">
<ele>5</ele>
</trkpt>
<trkpt lat="33.44165" lon="130.02352">
<ele>5</ele>
</trkpt>
<trkpt lat="33.44156" lon="130.02332">
<ele>5</ele>
</trkpt>
<trkpt lat="33.44145" lon="130.02302">
<ele>4</ele>
</trkpt>
<trkpt lat="33.44142" lon="130.02293">
<ele>4</ele>
</trkpt>
<trkpt lat="33.44133" lon="130.02269">
<ele>3</ele>
</trkpt>
<trkpt lat="33.44128" lon="130.02257">
<ele>3</ele>
</trkpt>
<trkpt lat="33.44126" lon="130.02251">
<ele>3</ele>
</trkpt>
<trkpt lat="33.44118" lon="130.02231">
<ele>3</ele>
</trkpt>
<trkpt lat="33.44109" lon="130.02209">
<ele>3</ele>
</trkpt>
<trkpt lat="33.44103" lon="130.0218999">
<ele>3</ele>
</trkpt>
<trkpt lat="33.44092" lon="130.02161">
<ele>4</ele>
</trkpt>
<trkpt lat="33.44076" lon="130.02114">
<ele>5</ele>
</trkpt>
<trkpt lat="33.44066" lon="130.02087">
<ele>5</ele>
</trkpt>
<trkpt lat="33.4406" lon="130.0207299">
<ele>5</ele>
</trkpt>
<trkpt lat="33.44051" lon="130.02052">
<ele>5</ele>
</trkpt>
<trkpt lat="33.44042" lon="130.0203">
<ele>5</ele>
</trkpt>
<trkpt lat="33.44041" lon="130.02027">
<ele>5</ele>
</trkpt>
<trkpt lat="33.44032" lon="130.02004">
<ele>4</ele>
</trkpt>
<trkpt lat="33.4403" lon="130.02">
<ele>4</ele>
</trkpt>
<trkpt lat="33.44023" lon="130.01983">
<ele>4</ele>
</trkpt>
<trkpt lat="33.44019" lon="130.0197499">
<ele>4</ele>
</trkpt>
<trkpt lat="33.44017" lon="130.0197">
<ele>4</ele>
</trkpt>
<trkpt lat="33.44006" lon="130.01943">
<ele>3</ele>
</trkpt>
<trkpt lat="33.44001" lon="130.01927">
<ele>3</ele>
</trkpt>
<trkpt lat="33.43992" lon="130.01899">
<ele>3</ele>
</trkpt>
<trkpt lat="33.43983" lon="130.01873">
<ele>3</ele>
</trkpt>
<trkpt lat="33.4398" lon="130.0186">
<ele>3</ele>
</trkpt>
<trkpt lat="33.43974" lon="130.0183">
<ele>2</ele>
</trkpt>
<trkpt lat="33.43971" lon="130.01819">
<ele>2</ele>
</trkpt>
<trkpt lat="33.43971" lon="130.01819">
<ele>2</ele>
</trkpt>
<trkpt lat="33.4397" lon="130.01815">
<ele>2</ele>
</trkpt>
<trkpt lat="33.43968" lon="130.01812">
<ele>2</ele>
</trkpt>
<trkpt lat="33.43967" lon="130.01808">
<ele>2</ele>
</trkpt>
<trkpt lat="33.43967" lon="130.01808">
<ele>2</ele>
</trkpt>
<trkpt lat="33.43962" lon="130.01805">
<ele>2</ele>
</trkpt>
<trkpt lat="33.43959" lon="130.01804">
<ele>2</ele>
</trkpt>
<trkpt lat="33.43953" lon="130.01804">
<ele>2</ele>
</trkpt>
<trkpt lat="33.43941" lon="130.01803">
<ele>2</ele>
</trkpt>
<trkpt lat="33.43931" lon="130.01803">
<ele>2</ele>
</trkpt>
<trkpt lat="33.4389899" lon="130.01804">
<ele>2</ele>
</trkpt>
<trkpt lat="33.43895" lon="130.01804">
<ele>2</ele>
</trkpt>
<trkpt lat="33.43895" lon="130.01804">
<ele>2</ele>
</trkpt>
<trkpt lat="33.43902" lon="130.01841">
<ele>2</ele>
</trkpt>
<trkpt lat="33.43911" lon="130.01891">
<ele>1</ele>
</trkpt>
<trkpt lat="33.43914" lon="130.01909">
<ele>1</ele>
</trkpt>
<trkpt lat="33.43917" lon="130.01929">
<ele>1</ele>
</trkpt>
<trkpt lat="33.4393" lon="130.01995">
<ele>1</ele>
</trkpt>
<trkpt lat="33.43936" lon="130.02033">
<ele>1</ele>
</trkpt>
<trkpt lat="33.4394599" lon="130.02086">
<ele>2</ele>
</trkpt>
<trkpt lat="33.43953" lon="130.02124">
<ele>2</ele>
</trkpt>
<trkpt lat="33.43954" lon="130.02128">
<ele>2</ele>
</trkpt>
<trkpt lat="33.43961" lon="130.02165">
<ele>1</ele>
</trkpt>
<trkpt lat="33.4397" lon="130.02216">
<ele>1</ele>
</trkpt>
<trkpt lat="33.43972" lon="130.02226">
<ele>1</ele>
</trkpt>
<trkpt lat="33.4398399" lon="130.0229">
<ele>1</ele>
</trkpt>
<trkpt lat="33.4399299" lon="130.02343">
<ele>1</ele>
</trkpt>
<trkpt lat="33.43999" lon="130.02375">
<ele>2</ele>
</trkpt>
<trkpt lat="33.44006" lon="130.02415">
<ele>2</ele>
</trkpt>
<trkpt lat="33.4401" lon="130.02436">
<ele>1</ele>
</trkpt>
<trkpt lat="33.44011" lon="130.02443">
<ele>1</ele>
</trkpt>
<trkpt lat="33.44011" lon="130.02452">
<ele>1</ele>
</trkpt>
<trkpt lat="33.44011" lon="130.02465">
<ele>1</ele>
</trkpt>
<trkpt lat="33.44011" lon="130.0247599">
<ele>1</ele>
</trkpt>
<trkpt lat="33.44011" lon="130.02483">
<ele>0</ele>
</trkpt>
<trkpt lat="33.44012" lon="130.02496">
<ele>0</ele>
</trkpt>
<trkpt lat="33.44013" lon="130.02504">
<ele>0</ele>
</trkpt>
<trkpt lat="33.44014" lon="130.02513">
<ele>0</ele>
</trkpt>
<trkpt lat="33.44016" lon="130.02525">
<ele>0</ele>
</trkpt>
<trkpt lat="33.44018" lon="130.02544">
<ele>0</ele>
</trkpt>
<trkpt lat="33.44021" lon="130.02563">
<ele>0</ele>
</trkpt>
<trkpt lat="33.44023" lon="130.02582">
<ele>0</ele>
</trkpt>
<trkpt lat="33.44027" lon="130.02603">
<ele>1</ele>
</trkpt>
<trkpt lat="33.44034" lon="130.02641">
<ele>1</ele>
</trkpt>
<trkpt lat="33.44038" lon="130.0266399">
<ele>2</ele>
</trkpt>
<trkpt lat="33.44061" lon="130.02789">
<ele>2</ele>
</trkpt>
<trkpt lat="33.44072" lon="130.0285199">
<ele>4</ele>
</trkpt>
<trkpt lat="33.44093" lon="130.02967">
<ele>3</ele>
</trkpt>
<trkpt lat="33.44098" lon="130.02993">
<ele>3</ele>
</trkpt>
<trkpt lat="33.44099" lon="130.02999">
<ele>2</ele>
</trkpt>
<trkpt lat="33.441" lon="130.03005">
<ele>2</ele>
</trkpt>
<trkpt lat="33.44101" lon="130.03008">
<ele>2</ele>
</trkpt>
<trkpt lat="33.44102" lon="130.03011">
<ele>2</ele>
</trkpt>
<trkpt lat="33.44103" lon="130.03014">
<ele>2</ele>
</trkpt>
<trkpt lat="33.44104" lon="130.03017">
<ele>2</ele>
</trkpt>
<trkpt lat="33.44106" lon="130.0302">
<ele>2</ele>
</trkpt>
<trkpt lat="33.4412" lon="130.03047">
<ele>2</ele>
</trkpt>
<trkpt lat="33.44135" lon="130.03074">
<ele>1</ele>
</trkpt>
<trkpt lat="33.44137" lon="130.03079">
<ele>1</ele>
</trkpt>
<trkpt lat="33.44139" lon="130.03082">
<ele>1</ele>
</trkpt>
<trkpt lat="33.44141" lon="130.0308499">
<ele>1</ele>
</trkpt>
<trkpt lat="33.4414299" lon="130.03089">
<ele>1</ele>
</trkpt>
<trkpt lat="33.44145" lon="130.03093">
<ele>1</ele>
</trkpt>
<trkpt lat="33.44149" lon="130.03098">
<ele>1</ele>
</trkpt>
<trkpt lat="33.44156" lon="130.03108">
<ele>1</ele>
</trkpt>
<trkpt lat="33.44168" lon="130.03123">
<ele>1</ele>
</trkpt>
<trkpt lat="33.44188" lon="130.0315">
<ele>2</ele>
</trkpt>
<trkpt lat="33.4424" lon="130.0322">
<ele>2</ele>
</trkpt>
<trkpt lat="33.44276" lon="130.03269">
<ele>1</ele>
</trkpt>
<trkpt lat="33.44335" lon="130.03348">
<ele>0</ele>
</trkpt>
<trkpt lat="33.44339" lon="130.03353">
<ele>0</ele>
</trkpt>
<trkpt lat="33.44343" lon="130.03357">
<ele>0</ele>
</trkpt>
<trkpt lat="33.44345" lon="130.0336">
<ele>0</ele>
</trkpt>
<trkpt lat="33.44348" lon="130.03362">
<ele>0</ele>
</trkpt>
<trkpt lat="33.4435" lon="130.03364">
<ele>0</ele>
</trkpt>
<trkpt lat="33.44353" lon="130.03366">
<ele>0</ele>
</trkpt>
<trkpt lat="33.44357" lon="130.03368">
<ele>0</ele>
</trkpt>
<trkpt lat="33.44364" lon="130.03372">
<ele>0</ele>
</trkpt>
<trkpt lat="33.44379" lon="130.0338">
<ele>0</ele>
</trkpt>
<trkpt lat="33.44384" lon="130.03383">
<ele>0</ele>
</trkpt>
<trkpt lat="33.44384" lon="130.03383">
<ele>0</ele>
</trkpt>
<trkpt lat="33.44395" lon="130.03373">
<ele>1</ele>
</trkpt>
<trkpt lat="33.44409" lon="130.03359">
<ele>2</ele>
</trkpt>
<trkpt lat="33.44414" lon="130.0335399">
<ele>3</ele>
</trkpt>
<trkpt lat="33.44419" lon="130.0335">
<ele>3</ele>
</trkpt>
<trkpt lat="33.4442499" lon="130.0334499">
<ele>3</ele>
</trkpt>
<trkpt lat="33.44427" lon="130.03343">
<ele>4</ele>
</trkpt>
<trkpt lat="33.44429" lon="130.03341">
<ele>4</ele>
</trkpt>
<trkpt lat="33.44431" lon="130.03339">
<ele>4</ele>
</trkpt>
<trkpt lat="33.44435" lon="130.03337">
<ele>4</ele>
</trkpt>
<trkpt lat="33.44436" lon="130.0333599">
<ele>4</ele>
</trkpt>
<trkpt lat="33.44438" lon="130.03335">
<ele>4</ele>
</trkpt>
<trkpt lat="33.4444" lon="130.03333">
<ele>4</ele>
</trkpt>
<trkpt lat="33.44442" lon="130.03332">
<ele>4</ele>
</trkpt>
<trkpt lat="33.44447" lon="130.03329">
<ele>5</ele>
</trkpt>
<trkpt lat="33.44452" lon="130.0332699">
<ele>5</ele>
</trkpt>
<trkpt lat="33.44454" lon="130.03325">
<ele>5</ele>
</trkpt>
<trkpt lat="33.44455" lon="130.03325">
<ele>5</ele>
</trkpt>
<trkpt lat="33.44455" lon="130.03324">
<ele>5</ele>
</trkpt>
<trkpt lat="33.44456" lon="130.03324">
<ele>5</ele>
</trkpt>
<trkpt lat="33.44456" lon="130.03323">
<ele>5</ele>
</trkpt>
<trkpt lat="33.44473" lon="130.0331">
<ele>5</ele>
</trkpt>
<trkpt lat="33.44473" lon="130.0331">
<ele>5</ele>
</trkpt>
<trkpt lat="33.44483" lon="130.03316">
<ele>5</ele>
</trkpt>
<trkpt lat="33.4448999" lon="130.0332">
<ele>5</ele>
</trkpt>
<trkpt lat="33.44507" lon="130.03331">
<ele>5</ele>
</trkpt>
<trkpt lat="33.44518" lon="130.03339">
<ele>5</ele>
</trkpt>
<trkpt lat="33.44536" lon="130.03351">
<ele>5</ele>
</trkpt>
<trkpt lat="33.44542" lon="130.03355">
<ele>5</ele>
</trkpt>
<trkpt lat="33.4458" lon="130.0338">
<ele>6</ele>
</trkpt>
<trkpt lat="33.44583" lon="130.03382">
<ele>6</ele>
</trkpt>
<trkpt lat="33.44595" lon="130.03389">
<ele>6</ele>
</trkpt>
<trkpt lat="33.44626" lon="130.0341">
<ele>5</ele>
</trkpt>
<trkpt lat="33.44653" lon="130.03426">
<ele>5</ele>
</trkpt>
<trkpt lat="33.44655" lon="130.03433">
<ele>5</ele>
</trkpt>
<trkpt lat="33.44662" lon="130.0345">
<ele>5</ele>
</trkpt>
<trkpt lat="33.44675" lon="130.0348">
<ele>5</ele>
</trkpt>
<trkpt lat="33.44684" lon="130.035">
<ele>5</ele>
</trkpt>
<trkpt lat="33.44696" lon="130.03529">
<ele>5</ele>
</trkpt>
<trkpt lat="33.44703" lon="130.03546">
<ele>5</ele>
</trkpt>
<trkpt lat="33.44704" lon="130.0355">
<ele>5</ele>
</trkpt>
<trkpt lat="33.44705" lon="130.03552">
<ele>5</ele>
</trkpt>
<trkpt lat="33.44706" lon="130.03554">
<ele>5</ele>
</trkpt>
<trkpt lat="33.4470699" lon="130.03556">
<ele>5</ele>
</trkpt>
<trkpt lat="33.44708" lon="130.03557">
<ele>5</ele>
</trkpt>
<trkpt lat="33.44709" lon="130.03559">
<ele>5</ele>
</trkpt>
<trkpt lat="33.4471" lon="130.0356">
<ele>5</ele>
</trkpt>
<trkpt lat="33.44711" lon="130.03562">
<ele>5</ele>
</trkpt>
<trkpt lat="33.44715" lon="130.03572">
<ele>5</ele>
</trkpt>
<trkpt lat="33.44723" lon="130.03595">
<ele>5</ele>
</trkpt>
<trkpt lat="33.44729" lon="130.03613">
<ele>5</ele>
</trkpt>
<trkpt lat="33.4473399" lon="130.03629">
<ele>5</ele>
</trkpt>
<trkpt lat="33.44739" lon="130.03642">
<ele>5</ele>
</trkpt>
<trkpt lat="33.44742" lon="130.0364899">
<ele>5</ele>
</trkpt>
<trkpt lat="33.44753" lon="130.03682">
<ele>4</ele>
</trkpt>
<trkpt lat="33.44758" lon="130.03699">
<ele>4</ele>
</trkpt>
<trkpt lat="33.44764" lon="130.0372">
<ele>4</ele>
</trkpt>
<trkpt lat="33.44766" lon="130.03724">
<ele>4</ele>
</trkpt>
<trkpt lat="33.44776" lon="130.03753">
<ele>3</ele>
</trkpt>
<trkpt lat="33.44778" lon="130.0376">
<ele>3</ele>
</trkpt>
<trkpt lat="33.44782" lon="130.03769">
<ele>3</ele>
</trkpt>
<trkpt lat="33.44786" lon="130.03781">
<ele>3</ele>
</trkpt>
<trkpt lat="33.44791" lon="130.03792">
<ele>3</ele>
</trkpt>
<trkpt lat="33.44796" lon="130.03806">
<ele>3</ele>
</trkpt>
<trkpt lat="33.44805" lon="130.03826">
<ele>3</ele>
</trkpt>
<trkpt lat="33.44808" lon="130.03833">
<ele>3</ele>
</trkpt>
<trkpt lat="33.44813" lon="130.03844">
<ele>3</ele>
</trkpt>
<trkpt lat="33.44816" lon="130.0385">
<ele>3</ele>
</trkpt>
<trkpt lat="33.44818" lon="130.0385499">
<ele>3</ele>
</trkpt>
<trkpt lat="33.44822" lon="130.03863">
<ele>3</ele>
</trkpt>
<trkpt lat="33.44824" lon="130.03868">
<ele>3</ele>
</trkpt>
<trkpt lat="33.44829" lon="130.03878">
<ele>3</ele>
</trkpt>
<trkpt lat="33.44835" lon="130.0389099">
<ele>3</ele>
</trkpt>
<trkpt lat="33.44843" lon="130.03907">
<ele>3</ele>
</trkpt>
<trkpt lat="33.4485" lon="130.03921">
<ele>3</ele>
</trkpt>
<trkpt lat="33.4485699" lon="130.03935">
<ele>3</ele>
</trkpt>
<trkpt lat="33.4485699" lon="130.03935">
<ele>3</ele>
</trkpt>
<trkpt lat="33.4487" lon="130.03926">
<ele>4</ele>
</trkpt>
<trkpt lat="33.44947" lon="130.03871">
<ele>5</ele>
</trkpt>
<trkpt lat="33.44949" lon="130.03874">
<ele>5</ele>
</trkpt>
<trkpt lat="33.44957" lon="130.03868">
<ele>5</ele>
</trkpt>
<trkpt lat="33.44973" lon="130.03857">
<ele>5</ele>
</trkpt>
<trkpt lat="33.4497799" lon="130.03853">
<ele>5</ele>
</trkpt>
<trkpt lat="33.4499" lon="130.03843">
<ele>6</ele>
</trkpt>
<trkpt lat="33.45019" lon="130.03822">
<ele>6</ele>
</trkpt>
<trkpt lat="33.4505" lon="130.038">
<ele>6</ele>
</trkpt>
<trkpt lat="33.45056" lon="130.03796">
<ele>6</ele>
</trkpt>
<trkpt lat="33.45092" lon="130.03769">
<ele>4</ele>
</trkpt>
<trkpt lat="33.45092" lon="130.03769">
<ele>4</ele>
</trkpt>
<trkpt lat="33.4510999" lon="130.03756">
<ele>4</ele>
</trkpt>
<trkpt lat="33.45136" lon="130.0373899">
<ele>3</ele>
</trkpt>
<trkpt lat="33.45153" lon="130.03727">
<ele>3</ele>
</trkpt>
    </trkseg>
  </trk>
</gpx>