<?xml version="1.0" encoding="UTF-8"?>
<gpx version="1.1"
     creator="KMLtoGPX"
     xmlns="http://www.topografix.com/GPX/1/1">
  <metadata>
    <name>World Cultural Heritage Sakitsu Village Course</name>
    <desc>世界文化遺産 﨑津集落コース</desc>
    <bounds minlat="32.3047899" minlon="130.01848" maxlat="32.32734" maxlon="130.03"/>
  </metadata>
  <trk>
    <name>World Cultural Heritage Sakitsu Village Course</name>
    <trkseg>
<trkpt lat="32.3163" lon="130.02554">
<ele>1</ele>
</trkpt>
<trkpt lat="32.31631" lon="130.02567">
<ele>1</ele>
</trkpt>
<trkpt lat="32.31631" lon="130.02578">
<ele>1</ele>
</trkpt>
<trkpt lat="32.31631" lon="130.02587">
<ele>1</ele>
</trkpt>
<trkpt lat="32.31632" lon="130.0261">
<ele>1</ele>
</trkpt>
<trkpt lat="32.31633" lon="130.0263">
<ele>1</ele>
</trkpt>
<trkpt lat="32.31633" lon="130.02631">
<ele>1</ele>
</trkpt>
<trkpt lat="32.3163399" lon="130.02672">
<ele>3</ele>
</trkpt>
<trkpt lat="32.3163399" lon="130.02677">
<ele>4</ele>
</trkpt>
<trkpt lat="32.31633" lon="130.0268">
<ele>4</ele>
</trkpt>
<trkpt lat="32.31633" lon="130.02684">
<ele>4</ele>
</trkpt>
<trkpt lat="32.31631" lon="130.02688">
<ele>4</ele>
</trkpt>
<trkpt lat="32.31629" lon="130.0269099">
<ele>5</ele>
</trkpt>
<trkpt lat="32.3162" lon="130.0269999">
<ele>6</ele>
</trkpt>
<trkpt lat="32.31615" lon="130.02703">
<ele>6</ele>
</trkpt>
<trkpt lat="32.3161" lon="130.02706">
<ele>7</ele>
</trkpt>
<trkpt lat="32.31605" lon="130.02707">
<ele>7</ele>
</trkpt>
<trkpt lat="32.31585" lon="130.02711">
<ele>8</ele>
</trkpt>
<trkpt lat="32.31559" lon="130.02714">
<ele>7</ele>
</trkpt>
<trkpt lat="32.31547" lon="130.02714">
<ele>6</ele>
</trkpt>
<trkpt lat="32.3153999" lon="130.02713">
<ele>6</ele>
</trkpt>
<trkpt lat="32.31524" lon="130.02711">
<ele>5</ele>
</trkpt>
<trkpt lat="32.31518" lon="130.02711">
<ele>5</ele>
</trkpt>
<trkpt lat="32.31509" lon="130.0271">
<ele>5</ele>
</trkpt>
<trkpt lat="32.31505" lon="130.02711">
<ele>5</ele>
</trkpt>
<trkpt lat="32.31503" lon="130.02713">
<ele>5</ele>
</trkpt>
<trkpt lat="32.31501" lon="130.02714">
<ele>5</ele>
</trkpt>
<trkpt lat="32.31497" lon="130.02719">
<ele>5</ele>
</trkpt>
<trkpt lat="32.3149" lon="130.02731">
<ele>5</ele>
</trkpt>
<trkpt lat="32.31485" lon="130.02742">
<ele>5</ele>
</trkpt>
<trkpt lat="32.31464" lon="130.02784">
<ele>6</ele>
</trkpt>
<trkpt lat="32.3146" lon="130.02792">
<ele>6</ele>
</trkpt>
<trkpt lat="32.31457" lon="130.02796">
<ele>6</ele>
</trkpt>
<trkpt lat="32.31456" lon="130.02797">
<ele>6</ele>
</trkpt>
<trkpt lat="32.31454" lon="130.028">
<ele>6</ele>
</trkpt>
<trkpt lat="32.31451" lon="130.02804">
<ele>7</ele>
</trkpt>
<trkpt lat="32.31447" lon="130.02807">
<ele>7</ele>
</trkpt>
<trkpt lat="32.31444" lon="130.02811">
<ele>7</ele>
</trkpt>
<trkpt lat="32.31441" lon="130.02812">
<ele>7</ele>
</trkpt>
<trkpt lat="32.31436" lon="130.02814">
<ele>7</ele>
</trkpt>
<trkpt lat="32.31429" lon="130.02816">
<ele>8</ele>
</trkpt>
<trkpt lat="32.31404" lon="130.02819">
<ele>9</ele>
</trkpt>
<trkpt lat="32.31379" lon="130.02824">
<ele>10</ele>
</trkpt>
<trkpt lat="32.31349" lon="130.02832">
<ele>10</ele>
</trkpt>
<trkpt lat="32.31332" lon="130.02836">
<ele>10</ele>
</trkpt>
<trkpt lat="32.31269" lon="130.02846">
<ele>9</ele>
</trkpt>
<trkpt lat="32.31266" lon="130.02847">
<ele>9</ele>
</trkpt>
<trkpt lat="32.31248" lon="130.0285">
<ele>9</ele>
</trkpt>
<trkpt lat="32.31237" lon="130.02853">
<ele>9</ele>
</trkpt>
<trkpt lat="32.3123099" lon="130.02854">
<ele>9</ele>
</trkpt>
<trkpt lat="32.31197" lon="130.02862">
<ele>10</ele>
</trkpt>
<trkpt lat="32.31195" lon="130.02862">
<ele>10</ele>
</trkpt>
<trkpt lat="32.31165" lon="130.02869">
<ele>11</ele>
</trkpt>
<trkpt lat="32.31143" lon="130.02873">
<ele>12</ele>
</trkpt>
<trkpt lat="32.31142" lon="130.02873">
<ele>12</ele>
</trkpt>
<trkpt lat="32.31124" lon="130.02875">
<ele>13</ele>
</trkpt>
<trkpt lat="32.3112" lon="130.02876">
<ele>13</ele>
</trkpt>
<trkpt lat="32.31114" lon="130.02876">
<ele>13</ele>
</trkpt>
<trkpt lat="32.3111" lon="130.02876">
<ele>13</ele>
</trkpt>
<trkpt lat="32.31107" lon="130.02875">
<ele>13</ele>
</trkpt>
<trkpt lat="32.31104" lon="130.02873">
<ele>14</ele>
</trkpt>
<trkpt lat="32.3109899" lon="130.02869">
<ele>14</ele>
</trkpt>
<trkpt lat="32.31095" lon="130.02866">
<ele>14</ele>
</trkpt>
<trkpt lat="32.31083" lon="130.02854">
<ele>15</ele>
</trkpt>
<trkpt lat="32.31077" lon="130.02847">
<ele>18</ele>
</trkpt>
<trkpt lat="32.31072" lon="130.0284299">
<ele>20</ele>
</trkpt>
<trkpt lat="32.31064" lon="130.02839">
<ele>23</ele>
</trkpt>
<trkpt lat="32.31063" lon="130.02839">
<ele>23</ele>
</trkpt>
<trkpt lat="32.31058" lon="130.02837">
<ele>24</ele>
</trkpt>
<trkpt lat="32.31045" lon="130.02835">
<ele>29</ele>
</trkpt>
<trkpt lat="32.31036" lon="130.0283399">
<ele>31</ele>
</trkpt>
<trkpt lat="32.31027" lon="130.02833">
<ele>34</ele>
</trkpt>
<trkpt lat="32.31025" lon="130.02833">
<ele>35</ele>
</trkpt>
<trkpt lat="32.3102" lon="130.02833">
<ele>36</ele>
</trkpt>
<trkpt lat="32.31011" lon="130.02835">
<ele>39</ele>
</trkpt>
<trkpt lat="32.3100499" lon="130.02836">
<ele>39</ele>
</trkpt>
<trkpt lat="32.30991" lon="130.02838">
<ele>36</ele>
</trkpt>
<trkpt lat="32.30973" lon="130.02841">
<ele>32</ele>
</trkpt>
<trkpt lat="32.3095" lon="130.02844">
<ele>28</ele>
</trkpt>
<trkpt lat="32.30944" lon="130.02845">
<ele>27</ele>
</trkpt>
<trkpt lat="32.30942" lon="130.02846">
<ele>27</ele>
</trkpt>
<trkpt lat="32.30939" lon="130.02847">
<ele>26</ele>
</trkpt>
<trkpt lat="32.30938" lon="130.02848">
<ele>26</ele>
</trkpt>
<trkpt lat="32.30922" lon="130.02857">
<ele>26</ele>
</trkpt>
<trkpt lat="32.3092" lon="130.02858">
<ele>26</ele>
</trkpt>
<trkpt lat="32.30915" lon="130.0286099">
<ele>27</ele>
</trkpt>
<trkpt lat="32.3091" lon="130.02863">
<ele>27</ele>
</trkpt>
<trkpt lat="32.30906" lon="130.02864">
<ele>28</ele>
</trkpt>
<trkpt lat="32.309" lon="130.02866">
<ele>28</ele>
</trkpt>
<trkpt lat="32.30896" lon="130.02866">
<ele>29</ele>
</trkpt>
<trkpt lat="32.30891" lon="130.02866">
<ele>29</ele>
</trkpt>
<trkpt lat="32.30887" lon="130.02865">
<ele>30</ele>
</trkpt>
<trkpt lat="32.30886" lon="130.02865">
<ele>30</ele>
</trkpt>
<trkpt lat="32.30882" lon="130.02864">
<ele>30</ele>
</trkpt>
<trkpt lat="32.30873" lon="130.02862">
<ele>31</ele>
</trkpt>
<trkpt lat="32.30866" lon="130.02859">
<ele>32</ele>
</trkpt>
<trkpt lat="32.30863" lon="130.02857">
<ele>33</ele>
</trkpt>
<trkpt lat="32.30859" lon="130.02855">
<ele>33</ele>
</trkpt>
<trkpt lat="32.30856" lon="130.0285199">
<ele>33</ele>
</trkpt>
<trkpt lat="32.30854" lon="130.0285">
<ele>33</ele>
</trkpt>
<trkpt lat="32.30853" lon="130.02849">
<ele>33</ele>
</trkpt>
<trkpt lat="32.30851" lon="130.02845">
<ele>33</ele>
</trkpt>
<trkpt lat="32.3084599" lon="130.0283399">
<ele>33</ele>
</trkpt>
<trkpt lat="32.30842" lon="130.02826">
<ele>33</ele>
</trkpt>
<trkpt lat="32.30839" lon="130.02821">
<ele>33</ele>
</trkpt>
<trkpt lat="32.30838" lon="130.02818">
<ele>33</ele>
</trkpt>
<trkpt lat="32.30835" lon="130.02816">
<ele>33</ele>
</trkpt>
<trkpt lat="32.30832" lon="130.02812">
<ele>32</ele>
</trkpt>
<trkpt lat="32.30822" lon="130.02805">
<ele>32</ele>
</trkpt>
<trkpt lat="32.30819" lon="130.02804">
<ele>32</ele>
</trkpt>
<trkpt lat="32.30806" lon="130.02796">
<ele>32</ele>
</trkpt>
<trkpt lat="32.30803" lon="130.02795">
<ele>32</ele>
</trkpt>
<trkpt lat="32.30786" lon="130.02785">
<ele>27</ele>
</trkpt>
<trkpt lat="32.30775" lon="130.0278">
<ele>23</ele>
</trkpt>
<trkpt lat="32.30763" lon="130.0277199">
<ele>19</ele>
</trkpt>
<trkpt lat="32.30758" lon="130.02767">
<ele>16</ele>
</trkpt>
<trkpt lat="32.30756" lon="130.02764">
<ele>15</ele>
</trkpt>
<trkpt lat="32.30754" lon="130.0276">
<ele>14</ele>
</trkpt>
<trkpt lat="32.30748" lon="130.0274499">
<ele>10</ele>
</trkpt>
<trkpt lat="32.30745" lon="130.02738">
<ele>7</ele>
</trkpt>
<trkpt lat="32.30742" lon="130.02729">
<ele>6</ele>
</trkpt>
<trkpt lat="32.30739" lon="130.02724">
<ele>6</ele>
</trkpt>
<trkpt lat="32.30737" lon="130.02721">
<ele>7</ele>
</trkpt>
<trkpt lat="32.30735" lon="130.02719">
<ele>7</ele>
</trkpt>
<trkpt lat="32.30733" lon="130.02717">
<ele>7</ele>
</trkpt>
<trkpt lat="32.3073" lon="130.02717">
<ele>8</ele>
</trkpt>
<trkpt lat="32.30729" lon="130.02716">
<ele>8</ele>
</trkpt>
<trkpt lat="32.30726" lon="130.02717">
<ele>8</ele>
</trkpt>
<trkpt lat="32.30725" lon="130.02717">
<ele>8</ele>
</trkpt>
<trkpt lat="32.30724" lon="130.0271799">
<ele>8</ele>
</trkpt>
<trkpt lat="32.30722" lon="130.02719">
<ele>9</ele>
</trkpt>
<trkpt lat="32.30721" lon="130.0272">
<ele>9</ele>
</trkpt>
<trkpt lat="32.30719" lon="130.02722">
<ele>9</ele>
</trkpt>
<trkpt lat="32.30715" lon="130.02733">
<ele>10</ele>
</trkpt>
<trkpt lat="32.30712" lon="130.02739">
<ele>11</ele>
</trkpt>
<trkpt lat="32.30708" lon="130.02749">
<ele>12</ele>
</trkpt>
<trkpt lat="32.30703" lon="130.02757">
<ele>13</ele>
</trkpt>
<trkpt lat="32.30698" lon="130.02765">
<ele>14</ele>
</trkpt>
<trkpt lat="32.30695" lon="130.02769">
<ele>14</ele>
</trkpt>
<trkpt lat="32.30694" lon="130.02773">
<ele>15</ele>
</trkpt>
<trkpt lat="32.30694" lon="130.02778">
<ele>15</ele>
</trkpt>
<trkpt lat="32.30694" lon="130.02786">
<ele>15</ele>
</trkpt>
<trkpt lat="32.30694" lon="130.0279">
<ele>15</ele>
</trkpt>
<trkpt lat="32.30697" lon="130.0281">
<ele>16</ele>
</trkpt>
<trkpt lat="32.30697" lon="130.02811">
<ele>16</ele>
</trkpt>
<trkpt lat="32.30698" lon="130.02819">
<ele>16</ele>
</trkpt>
<trkpt lat="32.30697" lon="130.02824">
<ele>16</ele>
</trkpt>
<trkpt lat="32.3069599" lon="130.02829">
<ele>16</ele>
</trkpt>
<trkpt lat="32.30695" lon="130.02831">
<ele>16</ele>
</trkpt>
<trkpt lat="32.30692" lon="130.02838">
<ele>17</ele>
</trkpt>
<trkpt lat="32.30688" lon="130.02846">
<ele>17</ele>
</trkpt>
<trkpt lat="32.30683" lon="130.02853">
<ele>17</ele>
</trkpt>
<trkpt lat="32.30673" lon="130.02864">
<ele>17</ele>
</trkpt>
<trkpt lat="32.30665" lon="130.02875">
<ele>16</ele>
</trkpt>
<trkpt lat="32.30661" lon="130.0288">
<ele>16</ele>
</trkpt>
<trkpt lat="32.30659" lon="130.02883">
<ele>16</ele>
</trkpt>
<trkpt lat="32.30656" lon="130.0288799">
<ele>15</ele>
</trkpt>
<trkpt lat="32.30654" lon="130.02895">
<ele>15</ele>
</trkpt>
<trkpt lat="32.30653" lon="130.02899">
<ele>15</ele>
</trkpt>
<trkpt lat="32.30651" lon="130.0291">
<ele>14</ele>
</trkpt>
<trkpt lat="32.30651" lon="130.0291499">
<ele>14</ele>
</trkpt>
<trkpt lat="32.3065" lon="130.0292">
<ele>14</ele>
</trkpt>
<trkpt lat="32.3065" lon="130.02927">
<ele>13</ele>
</trkpt>
<trkpt lat="32.30651" lon="130.02941">
<ele>13</ele>
</trkpt>
<trkpt lat="32.3064899" lon="130.0295099">
<ele>13</ele>
</trkpt>
<trkpt lat="32.30648" lon="130.02956">
<ele>13</ele>
</trkpt>
<trkpt lat="32.30646" lon="130.0295999">
<ele>13</ele>
</trkpt>
<trkpt lat="32.30643" lon="130.02965">
<ele>13</ele>
</trkpt>
<trkpt lat="32.3063999" lon="130.0296899">
<ele>13</ele>
</trkpt>
<trkpt lat="32.30638" lon="130.02972">
<ele>13</ele>
</trkpt>
<trkpt lat="32.30633" lon="130.02978">
<ele>13</ele>
</trkpt>
<trkpt lat="32.30627" lon="130.02984">
<ele>14</ele>
</trkpt>
<trkpt lat="32.3061999" lon="130.0299">
<ele>14</ele>
</trkpt>
<trkpt lat="32.30612" lon="130.02995">
<ele>14</ele>
</trkpt>
<trkpt lat="32.30607" lon="130.02998">
<ele>14</ele>
</trkpt>
<trkpt lat="32.30599" lon="130.02999">
<ele>14</ele>
</trkpt>
<trkpt lat="32.30578" lon="130.03">
<ele>16</ele>
</trkpt>
<trkpt lat="32.30559" lon="130.02998">
<ele>18</ele>
</trkpt>
<trkpt lat="32.30544" lon="130.02997">
<ele>19</ele>
</trkpt>
<trkpt lat="32.30541" lon="130.02996">
<ele>19</ele>
</trkpt>
<trkpt lat="32.30524" lon="130.02994">
<ele>21</ele>
</trkpt>
<trkpt lat="32.30523" lon="130.02994">
<ele>21</ele>
</trkpt>
<trkpt lat="32.30519" lon="130.02994">
<ele>21</ele>
</trkpt>
<trkpt lat="32.30509" lon="130.02994">
<ele>21</ele>
</trkpt>
<trkpt lat="32.30489" lon="130.02997">
<ele>21</ele>
</trkpt>
<trkpt lat="32.30487" lon="130.02998">
<ele>21</ele>
</trkpt>
<trkpt lat="32.3047899" lon="130.02999">
<ele>21</ele>
</trkpt>
<trkpt lat="32.30487" lon="130.02998">
<ele>20</ele>
</trkpt>
<trkpt lat="32.30489" lon="130.02997">
<ele>20</ele>
</trkpt>
<trkpt lat="32.30509" lon="130.02994">
<ele>20</ele>
</trkpt>
<trkpt lat="32.30519" lon="130.02994">
<ele>20</ele>
</trkpt>
<trkpt lat="32.30523" lon="130.02994">
<ele>19</ele>
</trkpt>
<trkpt lat="32.30524" lon="130.02994">
<ele>19</ele>
</trkpt>
<trkpt lat="32.30541" lon="130.02996">
<ele>17</ele>
</trkpt>
<trkpt lat="32.30544" lon="130.02997">
<ele>17</ele>
</trkpt>
<trkpt lat="32.30559" lon="130.02998">
<ele>15</ele>
</trkpt>
<trkpt lat="32.30578" lon="130.03">
<ele>13</ele>
</trkpt>
<trkpt lat="32.30599" lon="130.02999">
<ele>11</ele>
</trkpt>
<trkpt lat="32.30607" lon="130.02998">
<ele>11</ele>
</trkpt>
<trkpt lat="32.30612" lon="130.02995">
<ele>11</ele>
</trkpt>
<trkpt lat="32.3061999" lon="130.0299">
<ele>11</ele>
</trkpt>
<trkpt lat="32.30627" lon="130.02984">
<ele>11</ele>
</trkpt>
<trkpt lat="32.30633" lon="130.02978">
<ele>11</ele>
</trkpt>
<trkpt lat="32.30638" lon="130.02972">
<ele>12</ele>
</trkpt>
<trkpt lat="32.3063999" lon="130.0296899">
<ele>12</ele>
</trkpt>
<trkpt lat="32.30643" lon="130.02965">
<ele>12</ele>
</trkpt>
<trkpt lat="32.30646" lon="130.0295999">
<ele>12</ele>
</trkpt>
<trkpt lat="32.30648" lon="130.02956">
<ele>12</ele>
</trkpt>
<trkpt lat="32.3064899" lon="130.0295099">
<ele>12</ele>
</trkpt>
<trkpt lat="32.30651" lon="130.02941">
<ele>12</ele>
</trkpt>
<trkpt lat="32.3065" lon="130.02927">
<ele>13</ele>
</trkpt>
<trkpt lat="32.3065" lon="130.0292">
<ele>14</ele>
</trkpt>
<trkpt lat="32.30651" lon="130.0291499">
<ele>14</ele>
</trkpt>
<trkpt lat="32.30651" lon="130.0291">
<ele>15</ele>
</trkpt>
<trkpt lat="32.30653" lon="130.02899">
<ele>16</ele>
</trkpt>
<trkpt lat="32.30654" lon="130.02895">
<ele>17</ele>
</trkpt>
<trkpt lat="32.30656" lon="130.0288799">
<ele>17</ele>
</trkpt>
<trkpt lat="32.30659" lon="130.02883">
<ele>18</ele>
</trkpt>
<trkpt lat="32.30661" lon="130.0288">
<ele>18</ele>
</trkpt>
<trkpt lat="32.30665" lon="130.02875">
<ele>19</ele>
</trkpt>
<trkpt lat="32.30673" lon="130.02864">
<ele>21</ele>
</trkpt>
<trkpt lat="32.30683" lon="130.02853">
<ele>22</ele>
</trkpt>
<trkpt lat="32.30688" lon="130.02846">
<ele>22</ele>
</trkpt>
<trkpt lat="32.30692" lon="130.02838">
<ele>20</ele>
</trkpt>
<trkpt lat="32.30695" lon="130.02831">
<ele>19</ele>
</trkpt>
<trkpt lat="32.3069599" lon="130.02829">
<ele>19</ele>
</trkpt>
<trkpt lat="32.30697" lon="130.02824">
<ele>18</ele>
</trkpt>
<trkpt lat="32.30698" lon="130.02819">
<ele>18</ele>
</trkpt>
<trkpt lat="32.30697" lon="130.02811">
<ele>17</ele>
</trkpt>
<trkpt lat="32.30697" lon="130.0281">
<ele>17</ele>
</trkpt>
<trkpt lat="32.30694" lon="130.0279">
<ele>14</ele>
</trkpt>
<trkpt lat="32.30694" lon="130.02786">
<ele>14</ele>
</trkpt>
<trkpt lat="32.30694" lon="130.02778">
<ele>13</ele>
</trkpt>
<trkpt lat="32.30694" lon="130.02773">
<ele>12</ele>
</trkpt>
<trkpt lat="32.30695" lon="130.02769">
<ele>11</ele>
</trkpt>
<trkpt lat="32.30698" lon="130.02765">
<ele>11</ele>
</trkpt>
<trkpt lat="32.30703" lon="130.02757">
<ele>11</ele>
</trkpt>
<trkpt lat="32.30708" lon="130.02749">
<ele>12</ele>
</trkpt>
<trkpt lat="32.30712" lon="130.02739">
<ele>13</ele>
</trkpt>
<trkpt lat="32.30715" lon="130.02733">
<ele>14</ele>
</trkpt>
<trkpt lat="32.30719" lon="130.02722">
<ele>15</ele>
</trkpt>
<trkpt lat="32.30721" lon="130.0272">
<ele>15</ele>
</trkpt>
<trkpt lat="32.30722" lon="130.02719">
<ele>16</ele>
</trkpt>
<trkpt lat="32.30724" lon="130.0271799">
<ele>16</ele>
</trkpt>
<trkpt lat="32.30725" lon="130.02717">
<ele>16</ele>
</trkpt>
<trkpt lat="32.30726" lon="130.02717">
<ele>16</ele>
</trkpt>
<trkpt lat="32.30729" lon="130.02716">
<ele>16</ele>
</trkpt>
<trkpt lat="32.3073" lon="130.02717">
<ele>17</ele>
</trkpt>
<trkpt lat="32.30733" lon="130.02717">
<ele>17</ele>
</trkpt>
<trkpt lat="32.30735" lon="130.02719">
<ele>17</ele>
</trkpt>
<trkpt lat="32.30737" lon="130.02721">
<ele>17</ele>
</trkpt>
<trkpt lat="32.30739" lon="130.02724">
<ele>18</ele>
</trkpt>
<trkpt lat="32.30742" lon="130.02729">
<ele>18</ele>
</trkpt>
<trkpt lat="32.30745" lon="130.02738">
<ele>19</ele>
</trkpt>
<trkpt lat="32.30748" lon="130.0274499">
<ele>21</ele>
</trkpt>
<trkpt lat="32.30754" lon="130.0276">
<ele>24</ele>
</trkpt>
<trkpt lat="32.30756" lon="130.02764">
<ele>24</ele>
</trkpt>
<trkpt lat="32.30758" lon="130.02767">
<ele>25</ele>
</trkpt>
<trkpt lat="32.30763" lon="130.0277199">
<ele>26</ele>
</trkpt>
<trkpt lat="32.30775" lon="130.0278">
<ele>29</ele>
</trkpt>
<trkpt lat="32.30786" lon="130.02785">
<ele>32</ele>
</trkpt>
<trkpt lat="32.30803" lon="130.02795">
<ele>36</ele>
</trkpt>
<trkpt lat="32.30806" lon="130.02796">
<ele>36</ele>
</trkpt>
<trkpt lat="32.30819" lon="130.02804">
<ele>35</ele>
</trkpt>
<trkpt lat="32.30822" lon="130.02805">
<ele>35</ele>
</trkpt>
<trkpt lat="32.30832" lon="130.02812">
<ele>34</ele>
</trkpt>
<trkpt lat="32.30835" lon="130.02816">
<ele>33</ele>
</trkpt>
<trkpt lat="32.30838" lon="130.02818">
<ele>33</ele>
</trkpt>
<trkpt lat="32.30839" lon="130.02821">
<ele>32</ele>
</trkpt>
<trkpt lat="32.30842" lon="130.02826">
<ele>32</ele>
</trkpt>
<trkpt lat="32.3084599" lon="130.0283399">
<ele>31</ele>
</trkpt>
<trkpt lat="32.30851" lon="130.02845">
<ele>30</ele>
</trkpt>
<trkpt lat="32.30853" lon="130.02849">
<ele>30</ele>
</trkpt>
<trkpt lat="32.30854" lon="130.0285">
<ele>30</ele>
</trkpt>
<trkpt lat="32.30856" lon="130.0285199">
<ele>29</ele>
</trkpt>
<trkpt lat="32.30859" lon="130.02855">
<ele>29</ele>
</trkpt>
<trkpt lat="32.30863" lon="130.02857">
<ele>29</ele>
</trkpt>
<trkpt lat="32.30866" lon="130.02859">
<ele>28</ele>
</trkpt>
<trkpt lat="32.30873" lon="130.02862">
<ele>28</ele>
</trkpt>
<trkpt lat="32.30882" lon="130.02864">
<ele>28</ele>
</trkpt>
<trkpt lat="32.30886" lon="130.02865">
<ele>28</ele>
</trkpt>
<trkpt lat="32.30887" lon="130.02865">
<ele>28</ele>
</trkpt>
<trkpt lat="32.30891" lon="130.02866">
<ele>28</ele>
</trkpt>
<trkpt lat="32.30896" lon="130.02866">
<ele>28</ele>
</trkpt>
<trkpt lat="32.309" lon="130.02866">
<ele>28</ele>
</trkpt>
<trkpt lat="32.30906" lon="130.02864">
<ele>28</ele>
</trkpt>
<trkpt lat="32.3091" lon="130.02863">
<ele>28</ele>
</trkpt>
<trkpt lat="32.30915" lon="130.0286099">
<ele>28</ele>
</trkpt>
<trkpt lat="32.3092" lon="130.02858">
<ele>28</ele>
</trkpt>
<trkpt lat="32.30922" lon="130.02857">
<ele>28</ele>
</trkpt>
<trkpt lat="32.30938" lon="130.02848">
<ele>28</ele>
</trkpt>
<trkpt lat="32.30939" lon="130.02847">
<ele>28</ele>
</trkpt>
<trkpt lat="32.30942" lon="130.02846">
<ele>28</ele>
</trkpt>
<trkpt lat="32.30944" lon="130.02845">
<ele>28</ele>
</trkpt>
<trkpt lat="32.3095" lon="130.02844">
<ele>28</ele>
</trkpt>
<trkpt lat="32.30973" lon="130.02841">
<ele>29</ele>
</trkpt>
<trkpt lat="32.30991" lon="130.02838">
<ele>30</ele>
</trkpt>
<trkpt lat="32.3100499" lon="130.02836">
<ele>31</ele>
</trkpt>
<trkpt lat="32.31011" lon="130.02835">
<ele>31</ele>
</trkpt>
<trkpt lat="32.3102" lon="130.02833">
<ele>31</ele>
</trkpt>
<trkpt lat="32.31025" lon="130.02833">
<ele>30</ele>
</trkpt>
<trkpt lat="32.31027" lon="130.02833">
<ele>30</ele>
</trkpt>
<trkpt lat="32.31036" lon="130.0283399">
<ele>28</ele>
</trkpt>
<trkpt lat="32.31045" lon="130.02835">
<ele>26</ele>
</trkpt>
<trkpt lat="32.31058" lon="130.02837">
<ele>23</ele>
</trkpt>
<trkpt lat="32.31063" lon="130.02839">
<ele>22</ele>
</trkpt>
<trkpt lat="32.31064" lon="130.02839">
<ele>22</ele>
</trkpt>
<trkpt lat="32.31072" lon="130.0284299">
<ele>20</ele>
</trkpt>
<trkpt lat="32.31077" lon="130.02847">
<ele>18</ele>
</trkpt>
<trkpt lat="32.31083" lon="130.02854">
<ele>17</ele>
</trkpt>
<trkpt lat="32.31095" lon="130.02866">
<ele>14</ele>
</trkpt>
<trkpt lat="32.3109899" lon="130.02869">
<ele>14</ele>
</trkpt>
<trkpt lat="32.31104" lon="130.02873">
<ele>13</ele>
</trkpt>
<trkpt lat="32.31107" lon="130.02875">
<ele>13</ele>
</trkpt>
<trkpt lat="32.3111" lon="130.02876">
<ele>13</ele>
</trkpt>
<trkpt lat="32.31114" lon="130.02876">
<ele>13</ele>
</trkpt>
<trkpt lat="32.3112" lon="130.02876">
<ele>12</ele>
</trkpt>
<trkpt lat="32.31124" lon="130.02875">
<ele>12</ele>
</trkpt>
<trkpt lat="32.31142" lon="130.02873">
<ele>11</ele>
</trkpt>
<trkpt lat="32.31143" lon="130.02873">
<ele>11</ele>
</trkpt>
<trkpt lat="32.31165" lon="130.02869">
<ele>10</ele>
</trkpt>
<trkpt lat="32.31195" lon="130.02862">
<ele>9</ele>
</trkpt>
<trkpt lat="32.31197" lon="130.02862">
<ele>9</ele>
</trkpt>
<trkpt lat="32.3123099" lon="130.02854">
<ele>8</ele>
</trkpt>
<trkpt lat="32.31237" lon="130.02853">
<ele>8</ele>
</trkpt>
<trkpt lat="32.31248" lon="130.0285">
<ele>8</ele>
</trkpt>
<trkpt lat="32.31266" lon="130.02847">
<ele>9</ele>
</trkpt>
<trkpt lat="32.31269" lon="130.02846">
<ele>9</ele>
</trkpt>
<trkpt lat="32.31332" lon="130.02836">
<ele>11</ele>
</trkpt>
<trkpt lat="32.31349" lon="130.02832">
<ele>10</ele>
</trkpt>
<trkpt lat="32.31379" lon="130.02824">
<ele>8</ele>
</trkpt>
<trkpt lat="32.31404" lon="130.02819">
<ele>7</ele>
</trkpt>
<trkpt lat="32.31429" lon="130.02816">
<ele>7</ele>
</trkpt>
<trkpt lat="32.31436" lon="130.02814">
<ele>7</ele>
</trkpt>
<trkpt lat="32.31441" lon="130.02812">
<ele>7</ele>
</trkpt>
<trkpt lat="32.31444" lon="130.02811">
<ele>7</ele>
</trkpt>
<trkpt lat="32.31447" lon="130.02807">
<ele>7</ele>
</trkpt>
<trkpt lat="32.31451" lon="130.02804">
<ele>7</ele>
</trkpt>
<trkpt lat="32.31454" lon="130.028">
<ele>7</ele>
</trkpt>
<trkpt lat="32.31456" lon="130.02797">
<ele>7</ele>
</trkpt>
<trkpt lat="32.31457" lon="130.02796">
<ele>7</ele>
</trkpt>
<trkpt lat="32.3146" lon="130.02792">
<ele>7</ele>
</trkpt>
<trkpt lat="32.31464" lon="130.02784">
<ele>7</ele>
</trkpt>
<trkpt lat="32.31485" lon="130.02742">
<ele>7</ele>
</trkpt>
<trkpt lat="32.3149" lon="130.02731">
<ele>7</ele>
</trkpt>
<trkpt lat="32.31497" lon="130.02719">
<ele>7</ele>
</trkpt>
<trkpt lat="32.31501" lon="130.02714">
<ele>7</ele>
</trkpt>
<trkpt lat="32.31503" lon="130.02713">
<ele>7</ele>
</trkpt>
<trkpt lat="32.31505" lon="130.02711">
<ele>7</ele>
</trkpt>
<trkpt lat="32.31509" lon="130.0271">
<ele>7</ele>
</trkpt>
<trkpt lat="32.31518" lon="130.02711">
<ele>7</ele>
</trkpt>
<trkpt lat="32.31524" lon="130.02711">
<ele>7</ele>
</trkpt>
<trkpt lat="32.3153999" lon="130.02713">
<ele>7</ele>
</trkpt>
<trkpt lat="32.31547" lon="130.02714">
<ele>7</ele>
</trkpt>
<trkpt lat="32.31559" lon="130.02714">
<ele>7</ele>
</trkpt>
<trkpt lat="32.31585" lon="130.02711">
<ele>7</ele>
</trkpt>
<trkpt lat="32.31605" lon="130.02707">
<ele>8</ele>
</trkpt>
<trkpt lat="32.3161" lon="130.02706">
<ele>8</ele>
</trkpt>
<trkpt lat="32.31615" lon="130.02703">
<ele>8</ele>
</trkpt>
<trkpt lat="32.3162" lon="130.0269999">
<ele>8</ele>
</trkpt>
<trkpt lat="32.31629" lon="130.0269099">
<ele>9</ele>
</trkpt>
<trkpt lat="32.31629" lon="130.0269099">
<ele>9</ele>
</trkpt>
<trkpt lat="32.31631" lon="130.02694">
<ele>9</ele>
</trkpt>
<trkpt lat="32.3163399" lon="130.02695">
<ele>9</ele>
</trkpt>
<trkpt lat="32.31637" lon="130.02695">
<ele>9</ele>
</trkpt>
<trkpt lat="32.31646" lon="130.02694">
<ele>10</ele>
</trkpt>
<trkpt lat="32.31654" lon="130.02693">
<ele>10</ele>
</trkpt>
<trkpt lat="32.31662" lon="130.0269099">
<ele>10</ele>
</trkpt>
<trkpt lat="32.31667" lon="130.0269">
<ele>10</ele>
</trkpt>
<trkpt lat="32.31671" lon="130.02689">
<ele>10</ele>
</trkpt>
<trkpt lat="32.31676" lon="130.02687">
<ele>10</ele>
</trkpt>
<trkpt lat="32.3168099" lon="130.02684">
<ele>10</ele>
</trkpt>
<trkpt lat="32.31687" lon="130.0268199">
<ele>10</ele>
</trkpt>
<trkpt lat="32.31691" lon="130.02679">
<ele>10</ele>
</trkpt>
<trkpt lat="32.31695" lon="130.02677">
<ele>10</ele>
</trkpt>
<trkpt lat="32.31701" lon="130.02672">
<ele>9</ele>
</trkpt>
<trkpt lat="32.31706" lon="130.02668">
<ele>9</ele>
</trkpt>
<trkpt lat="32.31712" lon="130.02665">
<ele>9</ele>
</trkpt>
<trkpt lat="32.31714" lon="130.0266399">
<ele>9</ele>
</trkpt>
<trkpt lat="32.31716" lon="130.0266399">
<ele>9</ele>
</trkpt>
<trkpt lat="32.31717" lon="130.0266399">
<ele>9</ele>
</trkpt>
<trkpt lat="32.31718" lon="130.0266399">
<ele>9</ele>
</trkpt>
<trkpt lat="32.3171899" lon="130.02665">
<ele>9</ele>
</trkpt>
<trkpt lat="32.31721" lon="130.02666">
<ele>8</ele>
</trkpt>
<trkpt lat="32.31722" lon="130.02666">
<ele>8</ele>
</trkpt>
<trkpt lat="32.31723" lon="130.02667">
<ele>8</ele>
</trkpt>
<trkpt lat="32.31724" lon="130.02667">
<ele>8</ele>
</trkpt>
<trkpt lat="32.31726" lon="130.02668">
<ele>8</ele>
</trkpt>
<trkpt lat="32.3172799" lon="130.02668">
<ele>8</ele>
</trkpt>
<trkpt lat="32.31734" lon="130.02666">
<ele>8</ele>
</trkpt>
<trkpt lat="32.31741" lon="130.02663">
<ele>8</ele>
</trkpt>
<trkpt lat="32.31758" lon="130.02658">
<ele>7</ele>
</trkpt>
<trkpt lat="32.3177499" lon="130.02651">
<ele>6</ele>
</trkpt>
<trkpt lat="32.31777" lon="130.0265">
<ele>5</ele>
</trkpt>
<trkpt lat="32.31785" lon="130.0264599">
<ele>5</ele>
</trkpt>
<trkpt lat="32.31786" lon="130.02645">
<ele>5</ele>
</trkpt>
<trkpt lat="32.31819" lon="130.02622">
<ele>3</ele>
</trkpt>
<trkpt lat="32.3183099" lon="130.02614">
<ele>4</ele>
</trkpt>
<trkpt lat="32.31835" lon="130.02609">
<ele>4</ele>
</trkpt>
<trkpt lat="32.31838" lon="130.02603">
<ele>5</ele>
</trkpt>
<trkpt lat="32.31839" lon="130.02601">
<ele>5</ele>
</trkpt>
<trkpt lat="32.31844" lon="130.02592">
<ele>5</ele>
</trkpt>
<trkpt lat="32.31849" lon="130.02582">
<ele>6</ele>
</trkpt>
<trkpt lat="32.31855" lon="130.0257499">
<ele>7</ele>
</trkpt>
<trkpt lat="32.31867" lon="130.02564">
<ele>8</ele>
</trkpt>
<trkpt lat="32.31879" lon="130.02556">
<ele>9</ele>
</trkpt>
<trkpt lat="32.31888" lon="130.02549">
<ele>9</ele>
</trkpt>
<trkpt lat="32.31892" lon="130.02546">
<ele>9</ele>
</trkpt>
<trkpt lat="32.31896" lon="130.02542">
<ele>9</ele>
</trkpt>
<trkpt lat="32.31903" lon="130.02533">
<ele>9</ele>
</trkpt>
<trkpt lat="32.31909" lon="130.02524">
<ele>9</ele>
</trkpt>
<trkpt lat="32.31928" lon="130.02498">
<ele>9</ele>
</trkpt>
<trkpt lat="32.31939" lon="130.0248499">
<ele>9</ele>
</trkpt>
<trkpt lat="32.31949" lon="130.0247599">
<ele>8</ele>
</trkpt>
<trkpt lat="32.3196299" lon="130.02465">
<ele>7</ele>
</trkpt>
<trkpt lat="32.31974" lon="130.02459">
<ele>6</ele>
</trkpt>
<trkpt lat="32.3198" lon="130.02456">
<ele>5</ele>
</trkpt>
<trkpt lat="32.31987" lon="130.02454">
<ele>5</ele>
</trkpt>
<trkpt lat="32.3198999" lon="130.02453">
<ele>4</ele>
</trkpt>
<trkpt lat="32.31992" lon="130.02452">
<ele>4</ele>
</trkpt>
<trkpt lat="32.31992" lon="130.02452">
<ele>4</ele>
</trkpt>
<trkpt lat="32.31993" lon="130.02452">
<ele>4</ele>
</trkpt>
<trkpt lat="32.31993" lon="130.02451">
<ele>4</ele>
</trkpt>
<trkpt lat="32.31993" lon="130.0245">
<ele>4</ele>
</trkpt>
<trkpt lat="32.31994" lon="130.0245">
<ele>4</ele>
</trkpt>
<trkpt lat="32.31994" lon="130.0244899">
<ele>4</ele>
</trkpt>
<trkpt lat="32.31993" lon="130.02434">
<ele>3</ele>
</trkpt>
<trkpt lat="32.31992" lon="130.02414">
<ele>3</ele>
</trkpt>
<trkpt lat="32.3198999" lon="130.02399">
<ele>2</ele>
</trkpt>
<trkpt lat="32.31988" lon="130.02379">
<ele>1</ele>
</trkpt>
<trkpt lat="32.31987" lon="130.02373">
<ele>1</ele>
</trkpt>
<trkpt lat="32.31986" lon="130.02363">
<ele>1</ele>
</trkpt>
<trkpt lat="32.31987" lon="130.02352">
<ele>1</ele>
</trkpt>
<trkpt lat="32.31987" lon="130.02352">
<ele>1</ele>
</trkpt>
<trkpt lat="32.32" lon="130.02356">
<ele>1</ele>
</trkpt>
<trkpt lat="32.32005" lon="130.02355">
<ele>1</ele>
</trkpt>
<trkpt lat="32.32012" lon="130.02354">
<ele>1</ele>
</trkpt>
<trkpt lat="32.32026" lon="130.0235">
<ele>1</ele>
</trkpt>
<trkpt lat="32.32042" lon="130.02345">
<ele>1</ele>
</trkpt>
<trkpt lat="32.32056" lon="130.02339">
<ele>1</ele>
</trkpt>
<trkpt lat="32.32064" lon="130.02335">
<ele>1</ele>
</trkpt>
<trkpt lat="32.32086" lon="130.02325">
<ele>1</ele>
</trkpt>
<trkpt lat="32.32112" lon="130.02313">
<ele>1</ele>
</trkpt>
<trkpt lat="32.32146" lon="130.023">
<ele>2</ele>
</trkpt>
<trkpt lat="32.32175" lon="130.0229">
<ele>2</ele>
</trkpt>
<trkpt lat="32.32203" lon="130.02281">
<ele>2</ele>
</trkpt>
<trkpt lat="32.3222499" lon="130.02274">
<ele>2</ele>
</trkpt>
<trkpt lat="32.32244" lon="130.02268">
<ele>3</ele>
</trkpt>
<trkpt lat="32.3226" lon="130.02262">
<ele>4</ele>
</trkpt>
<trkpt lat="32.32276" lon="130.02254">
<ele>5</ele>
</trkpt>
<trkpt lat="32.32291" lon="130.02248">
<ele>5</ele>
</trkpt>
<trkpt lat="32.32296" lon="130.02246">
<ele>6</ele>
</trkpt>
<trkpt lat="32.32308" lon="130.0224">
<ele>6</ele>
</trkpt>
<trkpt lat="32.3232" lon="130.02236">
<ele>6</ele>
</trkpt>
<trkpt lat="32.32329" lon="130.02234">
<ele>6</ele>
</trkpt>
<trkpt lat="32.32345" lon="130.02231">
<ele>7</ele>
</trkpt>
<trkpt lat="32.3236599" lon="130.02228">
<ele>7</ele>
</trkpt>
<trkpt lat="32.32377" lon="130.02227">
<ele>8</ele>
</trkpt>
<trkpt lat="32.32386" lon="130.02228">
<ele>8</ele>
</trkpt>
<trkpt lat="32.32395" lon="130.02227">
<ele>9</ele>
</trkpt>
<trkpt lat="32.3241" lon="130.02229">
<ele>10</ele>
</trkpt>
<trkpt lat="32.32426" lon="130.02231">
<ele>11</ele>
</trkpt>
<trkpt lat="32.32455" lon="130.02235">
<ele>12</ele>
</trkpt>
<trkpt lat="32.3246899" lon="130.02237">
<ele>12</ele>
</trkpt>
<trkpt lat="32.32472" lon="130.02237">
<ele>12</ele>
</trkpt>
<trkpt lat="32.32482" lon="130.02235">
<ele>11</ele>
</trkpt>
<trkpt lat="32.3249" lon="130.02235">
<ele>11</ele>
</trkpt>
<trkpt lat="32.32502" lon="130.02233">
<ele>10</ele>
</trkpt>
<trkpt lat="32.3253" lon="130.0223">
<ele>9</ele>
</trkpt>
<trkpt lat="32.32537" lon="130.02229">
<ele>8</ele>
</trkpt>
<trkpt lat="32.32543" lon="130.02227">
<ele>8</ele>
</trkpt>
<trkpt lat="32.32552" lon="130.02225">
<ele>8</ele>
</trkpt>
<trkpt lat="32.32561" lon="130.02222">
<ele>7</ele>
</trkpt>
<trkpt lat="32.32568" lon="130.02219">
<ele>7</ele>
</trkpt>
<trkpt lat="32.32578" lon="130.02215">
<ele>7</ele>
</trkpt>
<trkpt lat="32.32598" lon="130.02207">
<ele>6</ele>
</trkpt>
<trkpt lat="32.32613" lon="130.02201">
<ele>6</ele>
</trkpt>
<trkpt lat="32.32642" lon="130.02175">
<ele>7</ele>
</trkpt>
<trkpt lat="32.32678" lon="130.02142">
<ele>9</ele>
</trkpt>
<trkpt lat="32.32691" lon="130.02132">
<ele>9</ele>
</trkpt>
<trkpt lat="32.32694" lon="130.0213">
<ele>9</ele>
</trkpt>
<trkpt lat="32.3269499" lon="130.02129">
<ele>9</ele>
</trkpt>
<trkpt lat="32.32698" lon="130.02128">
<ele>9</ele>
</trkpt>
<trkpt lat="32.3270399" lon="130.02126">
<ele>9</ele>
</trkpt>
<trkpt lat="32.32718" lon="130.02126">
<ele>9</ele>
</trkpt>
<trkpt lat="32.32718" lon="130.02126">
<ele>9</ele>
</trkpt>
<trkpt lat="32.32718" lon="130.02113">
<ele>9</ele>
</trkpt>
<trkpt lat="32.32718" lon="130.02126">
<ele>9</ele>
</trkpt>
<trkpt lat="32.32718" lon="130.02126">
<ele>9</ele>
</trkpt>
<trkpt lat="32.3270399" lon="130.02126">
<ele>8</ele>
</trkpt>
<trkpt lat="32.3270399" lon="130.02126">
<ele>8</ele>
</trkpt>
<trkpt lat="32.32707" lon="130.02113">
<ele>8</ele>
</trkpt>
<trkpt lat="32.32707" lon="130.0210899">
<ele>8</ele>
</trkpt>
<trkpt lat="32.32709" lon="130.02098">
<ele>8</ele>
</trkpt>
<trkpt lat="32.3271299" lon="130.02085">
<ele>8</ele>
</trkpt>
<trkpt lat="32.32716" lon="130.02075">
<ele>8</ele>
</trkpt>
<trkpt lat="32.3272" lon="130.02066">
<ele>8</ele>
</trkpt>
<trkpt lat="32.32728" lon="130.02048">
<ele>8</ele>
</trkpt>
<trkpt lat="32.32734" lon="130.02034">
<ele>7</ele>
</trkpt>
<trkpt lat="32.32734" lon="130.02034">
<ele>7</ele>
</trkpt>
<trkpt lat="32.32728" lon="130.02013">
<ele>7</ele>
</trkpt>
<trkpt lat="32.32727" lon="130.02012">
<ele>7</ele>
</trkpt>
<trkpt lat="32.32725" lon="130.02011">
<ele>7</ele>
</trkpt>
<trkpt lat="32.32723" lon="130.02011">
<ele>7</ele>
</trkpt>
<trkpt lat="32.32714" lon="130.02011">
<ele>7</ele>
</trkpt>
<trkpt lat="32.32702" lon="130.02008">
<ele>7</ele>
</trkpt>
<trkpt lat="32.32696" lon="130.02005">
<ele>7</ele>
</trkpt>
<trkpt lat="32.32688" lon="130.02003">
<ele>7</ele>
</trkpt>
<trkpt lat="32.32684" lon="130.02003">
<ele>7</ele>
</trkpt>
<trkpt lat="32.32679" lon="130.02004">
<ele>7</ele>
</trkpt>
<trkpt lat="32.3267499" lon="130.02005">
<ele>6</ele>
</trkpt>
<trkpt lat="32.32665" lon="130.0201">
<ele>6</ele>
</trkpt>
<trkpt lat="32.32655" lon="130.02015">
<ele>6</ele>
</trkpt>
<trkpt lat="32.32663" lon="130.02062">
<ele>5</ele>
</trkpt>
<trkpt lat="32.32663" lon="130.02062">
<ele>5</ele>
</trkpt>
<trkpt lat="32.3266" lon="130.02063">
<ele>5</ele>
</trkpt>
<trkpt lat="32.32487" lon="130.02107">
<ele>2</ele>
</trkpt>
<trkpt lat="32.32459" lon="130.02114">
<ele>2</ele>
</trkpt>
<trkpt lat="32.32265" lon="130.02164">
<ele>1</ele>
</trkpt>
<trkpt lat="32.32064" lon="130.02216">
<ele>3</ele>
</trkpt>
<trkpt lat="32.31964" lon="130.02241">
<ele>2</ele>
</trkpt>
<trkpt lat="32.31964" lon="130.02241">
<ele>2</ele>
</trkpt>
<trkpt lat="32.31961" lon="130.02237">
<ele>2</ele>
</trkpt>
<trkpt lat="32.31958" lon="130.02234">
<ele>2</ele>
</trkpt>
<trkpt lat="32.31955" lon="130.02232">
<ele>2</ele>
</trkpt>
<trkpt lat="32.31955" lon="130.02232">
<ele>2</ele>
</trkpt>
<trkpt lat="32.31979" lon="130.0218999">
<ele>5</ele>
</trkpt>
<trkpt lat="32.31983" lon="130.02184">
<ele>6</ele>
</trkpt>
<trkpt lat="32.31992" lon="130.02173">
<ele>7</ele>
</trkpt>
<trkpt lat="32.31998" lon="130.02166">
<ele>7</ele>
</trkpt>
<trkpt lat="32.32005" lon="130.0216">
<ele>8</ele>
</trkpt>
<trkpt lat="32.32015" lon="130.02148">
<ele>9</ele>
</trkpt>
<trkpt lat="32.32023" lon="130.02135">
<ele>9</ele>
</trkpt>
<trkpt lat="32.32025" lon="130.02132">
<ele>9</ele>
</trkpt>
<trkpt lat="32.32031" lon="130.02119">
<ele>9</ele>
</trkpt>
<trkpt lat="32.3203699" lon="130.02105">
<ele>10</ele>
</trkpt>
<trkpt lat="32.32039" lon="130.02098">
<ele>10</ele>
</trkpt>
<trkpt lat="32.32042" lon="130.0209099">
<ele>10</ele>
</trkpt>
<trkpt lat="32.32046" lon="130.02075">
<ele>10</ele>
</trkpt>
<trkpt lat="32.32049" lon="130.02065">
<ele>11</ele>
</trkpt>
<trkpt lat="32.32052" lon="130.02061">
<ele>11</ele>
</trkpt>
<trkpt lat="32.32058" lon="130.02052">
<ele>12</ele>
</trkpt>
<trkpt lat="32.32063" lon="130.02046">
<ele>12</ele>
</trkpt>
<trkpt lat="32.3206599" lon="130.02043">
<ele>12</ele>
</trkpt>
<trkpt lat="32.32074" lon="130.02033">
<ele>13</ele>
</trkpt>
<trkpt lat="32.32079" lon="130.02029">
<ele>13</ele>
</trkpt>
<trkpt lat="32.32093" lon="130.02015">
<ele>15</ele>
</trkpt>
<trkpt lat="32.32107" lon="130.02005">
<ele>16</ele>
</trkpt>
<trkpt lat="32.32112" lon="130.01998">
<ele>16</ele>
</trkpt>
<trkpt lat="32.32117" lon="130.01992">
<ele>16</ele>
</trkpt>
<trkpt lat="32.32118" lon="130.01987">
<ele>16</ele>
</trkpt>
<trkpt lat="32.3212" lon="130.01983">
<ele>16</ele>
</trkpt>
<trkpt lat="32.3212" lon="130.01979">
<ele>17</ele>
</trkpt>
<trkpt lat="32.32112" lon="130.01946">
<ele>18</ele>
</trkpt>
<trkpt lat="32.32109" lon="130.01936">
<ele>18</ele>
</trkpt>
<trkpt lat="32.32106" lon="130.0192099">
<ele>18</ele>
</trkpt>
<trkpt lat="32.32107" lon="130.01898">
<ele>16</ele>
</trkpt>
<trkpt lat="32.32111" lon="130.01884">
<ele>14</ele>
</trkpt>
<trkpt lat="32.3211299" lon="130.0187599">
<ele>12</ele>
</trkpt>
<trkpt lat="32.3211299" lon="130.01863">
<ele>11</ele>
</trkpt>
<trkpt lat="32.32114" lon="130.01859">
<ele>10</ele>
</trkpt>
<trkpt lat="32.32114" lon="130.01857">
<ele>10</ele>
</trkpt>
<trkpt lat="32.32114" lon="130.01856">
<ele>10</ele>
</trkpt>
<trkpt lat="32.3211299" lon="130.01854">
<ele>9</ele>
</trkpt>
<trkpt lat="32.3211299" lon="130.01853">
<ele>9</ele>
</trkpt>
<trkpt lat="32.32112" lon="130.01852">
<ele>9</ele>
</trkpt>
<trkpt lat="32.3211" lon="130.0185">
<ele>9</ele>
</trkpt>
<trkpt lat="32.32109" lon="130.0185">
<ele>8</ele>
</trkpt>
<trkpt lat="32.32107" lon="130.01849">
<ele>8</ele>
</trkpt>
<trkpt lat="32.32106" lon="130.01849">
<ele>8</ele>
</trkpt>
<trkpt lat="32.32101" lon="130.01848">
<ele>7</ele>
</trkpt>
<trkpt lat="32.32096" lon="130.01849">
<ele>6</ele>
</trkpt>
<trkpt lat="32.32091" lon="130.0185">
<ele>6</ele>
</trkpt>
<trkpt lat="32.32089" lon="130.0185">
<ele>6</ele>
</trkpt>
<trkpt lat="32.32087" lon="130.01851">
<ele>6</ele>
</trkpt>
<trkpt lat="32.32086" lon="130.01852">
<ele>6</ele>
</trkpt>
<trkpt lat="32.32085" lon="130.01854">
<ele>6</ele>
</trkpt>
<trkpt lat="32.3208399" lon="130.01856">
<ele>6</ele>
</trkpt>
<trkpt lat="32.32081" lon="130.01862">
<ele>6</ele>
</trkpt>
<trkpt lat="32.32078" lon="130.0186699">
<ele>6</ele>
</trkpt>
<trkpt lat="32.32077" lon="130.01869">
<ele>6</ele>
</trkpt>
<trkpt lat="32.32074" lon="130.01874">
<ele>7</ele>
</trkpt>
<trkpt lat="32.3206599" lon="130.01884">
<ele>7</ele>
</trkpt>
<trkpt lat="32.3205699" lon="130.0189399">
<ele>7</ele>
</trkpt>
<trkpt lat="32.32052" lon="130.01898">
<ele>8</ele>
</trkpt>
<trkpt lat="32.32043" lon="130.01907">
<ele>8</ele>
</trkpt>
<trkpt lat="32.32032" lon="130.01918">
<ele>9</ele>
</trkpt>
<trkpt lat="32.32025" lon="130.01927">
<ele>9</ele>
</trkpt>
<trkpt lat="32.32023" lon="130.01929">
<ele>9</ele>
</trkpt>
<trkpt lat="32.3201899" lon="130.01934">
<ele>9</ele>
</trkpt>
<trkpt lat="32.32006" lon="130.01947">
<ele>9</ele>
</trkpt>
<trkpt lat="32.31991" lon="130.01954">
<ele>9</ele>
</trkpt>
<trkpt lat="32.3198" lon="130.01961">
<ele>9</ele>
</trkpt>
<trkpt lat="32.31979" lon="130.01962">
<ele>9</ele>
</trkpt>
<trkpt lat="32.31966" lon="130.01974">
<ele>8</ele>
</trkpt>
<trkpt lat="32.31964" lon="130.01976">
<ele>8</ele>
</trkpt>
<trkpt lat="32.31954" lon="130.0199">
<ele>7</ele>
</trkpt>
<trkpt lat="32.31949" lon="130.01999">
<ele>7</ele>
</trkpt>
<trkpt lat="32.3194299" lon="130.02007">
<ele>6</ele>
</trkpt>
<trkpt lat="32.31939" lon="130.02013">
<ele>6</ele>
</trkpt>
<trkpt lat="32.31933" lon="130.02025">
<ele>5</ele>
</trkpt>
<trkpt lat="32.31919" lon="130.0205">
<ele>5</ele>
</trkpt>
<trkpt lat="32.31905" lon="130.02071">
<ele>6</ele>
</trkpt>
<trkpt lat="32.31902" lon="130.02077">
<ele>6</ele>
</trkpt>
<trkpt lat="32.31896" lon="130.02087">
<ele>6</ele>
</trkpt>
<trkpt lat="32.3188699" lon="130.02106">
<ele>7</ele>
</trkpt>
<trkpt lat="32.31884" lon="130.02123">
<ele>7</ele>
</trkpt>
<trkpt lat="32.31882" lon="130.0213599">
<ele>7</ele>
</trkpt>
<trkpt lat="32.31881" lon="130.02147">
<ele>7</ele>
</trkpt>
<trkpt lat="32.3188" lon="130.02156">
<ele>7</ele>
</trkpt>
<trkpt lat="32.3188" lon="130.02156">
<ele>7</ele>
</trkpt>
<trkpt lat="32.31852" lon="130.02183">
<ele>6</ele>
</trkpt>
<trkpt lat="32.31842" lon="130.02193">
<ele>6</ele>
</trkpt>
<trkpt lat="32.31834" lon="130.022">
<ele>6</ele>
</trkpt>
<trkpt lat="32.31826" lon="130.02207">
<ele>6</ele>
</trkpt>
<trkpt lat="32.31824" lon="130.02209">
<ele>6</ele>
</trkpt>
<trkpt lat="32.31823" lon="130.02209">
<ele>6</ele>
</trkpt>
<trkpt lat="32.31823" lon="130.0221">
<ele>6</ele>
</trkpt>
<trkpt lat="32.3182199" lon="130.02211">
<ele>6</ele>
</trkpt>
<trkpt lat="32.3182199" lon="130.02212">
<ele>6</ele>
</trkpt>
<trkpt lat="32.3182199" lon="130.02214">
<ele>6</ele>
</trkpt>
<trkpt lat="32.3182199" lon="130.02216">
<ele>6</ele>
</trkpt>
<trkpt lat="32.3182199" lon="130.02217">
<ele>6</ele>
</trkpt>
<trkpt lat="32.3182199" lon="130.02218">
<ele>6</ele>
</trkpt>
<trkpt lat="32.3182199" lon="130.02218">
<ele>6</ele>
</trkpt>
<trkpt lat="32.3182" lon="130.02221">
<ele>6</ele>
</trkpt>
<trkpt lat="32.31817" lon="130.02227">
<ele>6</ele>
</trkpt>
<trkpt lat="32.3181299" lon="130.02232">
<ele>7</ele>
</trkpt>
<trkpt lat="32.3181" lon="130.02234">
<ele>7</ele>
</trkpt>
<trkpt lat="32.31808" lon="130.02234">
<ele>7</ele>
</trkpt>
<trkpt lat="32.31805" lon="130.02235">
<ele>7</ele>
</trkpt>
<trkpt lat="32.318" lon="130.02236">
<ele>7</ele>
</trkpt>
<trkpt lat="32.31789" lon="130.02237">
<ele>7</ele>
</trkpt>
<trkpt lat="32.31785" lon="130.0224">
<ele>7</ele>
</trkpt>
<trkpt lat="32.31782" lon="130.02243">
<ele>7</ele>
</trkpt>
<trkpt lat="32.3177499" lon="130.02254">
<ele>8</ele>
</trkpt>
<trkpt lat="32.31774" lon="130.02255">
<ele>8</ele>
</trkpt>
<trkpt lat="32.31762" lon="130.02272">
<ele>8</ele>
</trkpt>
<trkpt lat="32.31751" lon="130.02286">
<ele>8</ele>
</trkpt>
<trkpt lat="32.31747" lon="130.02292">
<ele>8</ele>
</trkpt>
<trkpt lat="32.31744" lon="130.02303">
<ele>8</ele>
</trkpt>
<trkpt lat="32.31741" lon="130.02313">
<ele>8</ele>
</trkpt>
<trkpt lat="32.3174" lon="130.02319">
<ele>8</ele>
</trkpt>
<trkpt lat="32.31735" lon="130.02336">
<ele>7</ele>
</trkpt>
<trkpt lat="32.31729" lon="130.02361">
<ele>6</ele>
</trkpt>
<trkpt lat="32.31727" lon="130.0237">
<ele>5</ele>
</trkpt>
<trkpt lat="32.31727" lon="130.02374">
<ele>5</ele>
</trkpt>
<trkpt lat="32.31723" lon="130.02376">
<ele>5</ele>
</trkpt>
<trkpt lat="32.31718" lon="130.02381">
<ele>4</ele>
</trkpt>
<trkpt lat="32.31714" lon="130.02385">
<ele>4</ele>
</trkpt>
<trkpt lat="32.31706" lon="130.02396">
<ele>3</ele>
</trkpt>
<trkpt lat="32.31696" lon="130.02413">
<ele>3</ele>
</trkpt>
<trkpt lat="32.31694" lon="130.02417">
<ele>3</ele>
</trkpt>
<trkpt lat="32.31692" lon="130.02419">
<ele>3</ele>
</trkpt>
<trkpt lat="32.31689" lon="130.02422">
<ele>3</ele>
</trkpt>
<trkpt lat="32.31686" lon="130.02426">
<ele>3</ele>
</trkpt>
<trkpt lat="32.3167" lon="130.02441">
<ele>4</ele>
</trkpt>
<trkpt lat="32.31651" lon="130.02456">
<ele>5</ele>
</trkpt>
<trkpt lat="32.31644" lon="130.02461">
<ele>5</ele>
</trkpt>
<trkpt lat="32.3163" lon="130.02472">
<ele>6</ele>
</trkpt>
<trkpt lat="32.31621" lon="130.0248">
<ele>6</ele>
</trkpt>
<trkpt lat="32.31621" lon="130.0248">
<ele>6</ele>
</trkpt>
<trkpt lat="32.31605" lon="130.0247599">
<ele>6</ele>
</trkpt>
<trkpt lat="32.31597" lon="130.02474">
<ele>6</ele>
</trkpt>
<trkpt lat="32.31592" lon="130.02472">
<ele>6</ele>
</trkpt>
<trkpt lat="32.31588" lon="130.0247">
<ele>6</ele>
</trkpt>
<trkpt lat="32.31582" lon="130.0246699">
<ele>6</ele>
</trkpt>
<trkpt lat="32.31581" lon="130.02466">
<ele>6</ele>
</trkpt>
<trkpt lat="32.31571" lon="130.0246">
<ele>6</ele>
</trkpt>
<trkpt lat="32.31563" lon="130.02454">
<ele>6</ele>
</trkpt>
<trkpt lat="32.3153099" lon="130.02431">
<ele>8</ele>
</trkpt>
<trkpt lat="32.31521" lon="130.02422">
<ele>8</ele>
</trkpt>
<trkpt lat="32.31517" lon="130.02418">
<ele>8</ele>
</trkpt>
<trkpt lat="32.3151" lon="130.02412">
<ele>9</ele>
</trkpt>
<trkpt lat="32.31501" lon="130.02405">
<ele>9</ele>
</trkpt>
<trkpt lat="32.3149299" lon="130.024">
<ele>10</ele>
</trkpt>
<trkpt lat="32.3148399" lon="130.02393">
<ele>10</ele>
</trkpt>
<trkpt lat="32.31477" lon="130.02389">
<ele>10</ele>
</trkpt>
<trkpt lat="32.31472" lon="130.0238699">
<ele>10</ele>
</trkpt>
<trkpt lat="32.31468" lon="130.02386">
<ele>10</ele>
</trkpt>
<trkpt lat="32.31464" lon="130.02384">
<ele>10</ele>
</trkpt>
<trkpt lat="32.31456" lon="130.02382">
<ele>11</ele>
</trkpt>
<trkpt lat="32.3145" lon="130.02381">
<ele>11</ele>
</trkpt>
<trkpt lat="32.31445" lon="130.02381">
<ele>11</ele>
</trkpt>
<trkpt lat="32.31433" lon="130.02382">
<ele>11</ele>
</trkpt>
<trkpt lat="32.31409" lon="130.0238699">
<ele>12</ele>
</trkpt>
<trkpt lat="32.3138099" lon="130.0239">
<ele>12</ele>
</trkpt>
<trkpt lat="32.31363" lon="130.02394">
<ele>12</ele>
</trkpt>
<trkpt lat="32.31351" lon="130.024">
<ele>12</ele>
</trkpt>
<trkpt lat="32.3132499" lon="130.02417">
<ele>12</ele>
</trkpt>
<trkpt lat="32.31293" lon="130.02438">
<ele>11</ele>
</trkpt>
<trkpt lat="32.31279" lon="130.0245">
<ele>11</ele>
</trkpt>
<trkpt lat="32.31268" lon="130.02459">
<ele>10</ele>
</trkpt>
<trkpt lat="32.31227" lon="130.02501">
<ele>6</ele>
</trkpt>
<trkpt lat="32.31198" lon="130.02532">
<ele>5</ele>
</trkpt>
<trkpt lat="32.31198" lon="130.02532">
<ele>5</ele>
</trkpt>
<trkpt lat="32.312" lon="130.02542">
<ele>5</ele>
</trkpt>
<trkpt lat="32.31206" lon="130.02581">
<ele>5</ele>
</trkpt>
<trkpt lat="32.31207" lon="130.02583">
<ele>5</ele>
</trkpt>
<trkpt lat="32.3120199" lon="130.02584">
<ele>5</ele>
</trkpt>
<trkpt lat="32.3119299" lon="130.02584">
<ele>6</ele>
</trkpt>
<trkpt lat="32.31187" lon="130.02584">
<ele>6</ele>
</trkpt>
<trkpt lat="32.31179" lon="130.02584">
<ele>6</ele>
</trkpt>
<trkpt lat="32.31161" lon="130.0258">
<ele>6</ele>
</trkpt>
<trkpt lat="32.31158" lon="130.02579">
<ele>6</ele>
</trkpt>
<trkpt lat="32.31153" lon="130.02578">
<ele>6</ele>
</trkpt>
<trkpt lat="32.3114599" lon="130.0257499">
<ele>6</ele>
</trkpt>
<trkpt lat="32.31142" lon="130.02573">
<ele>6</ele>
</trkpt>
<trkpt lat="32.31139" lon="130.02571">
<ele>6</ele>
</trkpt>
<trkpt lat="32.3113699" lon="130.02569">
<ele>6</ele>
</trkpt>
<trkpt lat="32.31114" lon="130.02563">
<ele>7</ele>
</trkpt>
<trkpt lat="32.31101" lon="130.0255699">
<ele>8</ele>
</trkpt>
<trkpt lat="32.31094" lon="130.02554">
<ele>9</ele>
</trkpt>
<trkpt lat="32.31087" lon="130.02551">
<ele>10</ele>
</trkpt>
<trkpt lat="32.31076" lon="130.02544">
<ele>11</ele>
</trkpt>
<trkpt lat="32.31051" lon="130.02526">
<ele>14</ele>
</trkpt>
<trkpt lat="32.31031" lon="130.02513">
<ele>14</ele>
</trkpt>
<trkpt lat="32.31031" lon="130.0251199">
<ele>14</ele>
</trkpt>
<trkpt lat="32.31012" lon="130.02504">
<ele>14</ele>
</trkpt>
<trkpt lat="32.3100499" lon="130.025">
<ele>14</ele>
</trkpt>
<trkpt lat="32.30999" lon="130.02496">
<ele>14</ele>
</trkpt>
<trkpt lat="32.30994" lon="130.02492">
<ele>14</ele>
</trkpt>
<trkpt lat="32.30991" lon="130.02489">
<ele>14</ele>
</trkpt>
<trkpt lat="32.30986" lon="130.02481">
<ele>14</ele>
</trkpt>
<trkpt lat="32.30984" lon="130.02478">
<ele>14</ele>
</trkpt>
<trkpt lat="32.30979" lon="130.02465">
<ele>14</ele>
</trkpt>
<trkpt lat="32.30978" lon="130.02462">
<ele>14</ele>
</trkpt>
<trkpt lat="32.30975" lon="130.02455">
<ele>14</ele>
</trkpt>
<trkpt lat="32.30972" lon="130.02442">
<ele>15</ele>
</trkpt>
<trkpt lat="32.30971" lon="130.0244">
<ele>15</ele>
</trkpt>
<trkpt lat="32.30966" lon="130.02422">
<ele>15</ele>
</trkpt>
<trkpt lat="32.30965" lon="130.02417">
<ele>15</ele>
</trkpt>
<trkpt lat="32.3096" lon="130.02399">
<ele>16</ele>
</trkpt>
<trkpt lat="32.30957" lon="130.0238699">
<ele>16</ele>
</trkpt>
<trkpt lat="32.30956" lon="130.02381">
<ele>16</ele>
</trkpt>
<trkpt lat="32.30957" lon="130.0238699">
<ele>16</ele>
</trkpt>
<trkpt lat="32.3096" lon="130.02399">
<ele>15</ele>
</trkpt>
<trkpt lat="32.30965" lon="130.02417">
<ele>14</ele>
</trkpt>
<trkpt lat="32.30966" lon="130.02422">
<ele>14</ele>
</trkpt>
<trkpt lat="32.30971" lon="130.0244">
<ele>12</ele>
</trkpt>
<trkpt lat="32.30972" lon="130.02442">
<ele>12</ele>
</trkpt>
<trkpt lat="32.30975" lon="130.02455">
<ele>11</ele>
</trkpt>
<trkpt lat="32.30978" lon="130.02462">
<ele>11</ele>
</trkpt>
<trkpt lat="32.30979" lon="130.02465">
<ele>11</ele>
</trkpt>
<trkpt lat="32.30984" lon="130.02478">
<ele>10</ele>
</trkpt>
<trkpt lat="32.30986" lon="130.02481">
<ele>10</ele>
</trkpt>
<trkpt lat="32.30991" lon="130.02489">
<ele>9</ele>
</trkpt>
<trkpt lat="32.30994" lon="130.02492">
<ele>9</ele>
</trkpt>
<trkpt lat="32.30999" lon="130.02496">
<ele>9</ele>
</trkpt>
<trkpt lat="32.3100499" lon="130.025">
<ele>9</ele>
</trkpt>
<trkpt lat="32.31012" lon="130.02504">
<ele>8</ele>
</trkpt>
<trkpt lat="32.31031" lon="130.0251199">
<ele>7</ele>
</trkpt>
<trkpt lat="32.31031" lon="130.02513">
<ele>7</ele>
</trkpt>
<trkpt lat="32.31051" lon="130.02526">
<ele>7</ele>
</trkpt>
<trkpt lat="32.31076" lon="130.02544">
<ele>7</ele>
</trkpt>
<trkpt lat="32.31087" lon="130.02551">
<ele>7</ele>
</trkpt>
<trkpt lat="32.31094" lon="130.02554">
<ele>7</ele>
</trkpt>
<trkpt lat="32.31101" lon="130.0255699">
<ele>7</ele>
</trkpt>
<trkpt lat="32.31114" lon="130.02563">
<ele>7</ele>
</trkpt>
<trkpt lat="32.3113699" lon="130.02569">
<ele>8</ele>
</trkpt>
<trkpt lat="32.31149" lon="130.02568">
<ele>9</ele>
</trkpt>
<trkpt lat="32.3115499" lon="130.02567">
<ele>9</ele>
</trkpt>
<trkpt lat="32.31159" lon="130.0256599">
<ele>9</ele>
</trkpt>
<trkpt lat="32.31161" lon="130.02565">
<ele>9</ele>
</trkpt>
<trkpt lat="32.31165" lon="130.02563">
<ele>9</ele>
</trkpt>
<trkpt lat="32.31169" lon="130.02561">
<ele>10</ele>
</trkpt>
<trkpt lat="32.31172" lon="130.02559">
<ele>10</ele>
</trkpt>
<trkpt lat="32.31177" lon="130.02555">
<ele>10</ele>
</trkpt>
<trkpt lat="32.31181" lon="130.0255">
<ele>10</ele>
</trkpt>
<trkpt lat="32.31198" lon="130.02532">
<ele>11</ele>
</trkpt>
<trkpt lat="32.31227" lon="130.02501">
<ele>11</ele>
</trkpt>
<trkpt lat="32.31268" lon="130.02459">
<ele>11</ele>
</trkpt>
<trkpt lat="32.31279" lon="130.0245">
<ele>11</ele>
</trkpt>
<trkpt lat="32.31293" lon="130.02438">
<ele>11</ele>
</trkpt>
<trkpt lat="32.3132499" lon="130.02417">
<ele>11</ele>
</trkpt>
<trkpt lat="32.31351" lon="130.024">
<ele>10</ele>
</trkpt>
<trkpt lat="32.31363" lon="130.02394">
<ele>9</ele>
</trkpt>
<trkpt lat="32.3138099" lon="130.0239">
<ele>9</ele>
</trkpt>
<trkpt lat="32.31409" lon="130.0238699">
<ele>8</ele>
</trkpt>
<trkpt lat="32.31433" lon="130.02382">
<ele>7</ele>
</trkpt>
<trkpt lat="32.31445" lon="130.02381">
<ele>6</ele>
</trkpt>
<trkpt lat="32.3145" lon="130.02381">
<ele>6</ele>
</trkpt>
<trkpt lat="32.31456" lon="130.02382">
<ele>6</ele>
</trkpt>
<trkpt lat="32.31464" lon="130.02384">
<ele>6</ele>
</trkpt>
<trkpt lat="32.31468" lon="130.02386">
<ele>5</ele>
</trkpt>
<trkpt lat="32.31472" lon="130.0238699">
<ele>5</ele>
</trkpt>
<trkpt lat="32.31477" lon="130.02389">
<ele>5</ele>
</trkpt>
<trkpt lat="32.3148399" lon="130.02393">
<ele>5</ele>
</trkpt>
<trkpt lat="32.3149299" lon="130.024">
<ele>5</ele>
</trkpt>
<trkpt lat="32.31501" lon="130.02405">
<ele>5</ele>
</trkpt>
<trkpt lat="32.3151" lon="130.02412">
<ele>4</ele>
</trkpt>
<trkpt lat="32.31517" lon="130.02418">
<ele>4</ele>
</trkpt>
<trkpt lat="32.31521" lon="130.02422">
<ele>4</ele>
</trkpt>
<trkpt lat="32.3153099" lon="130.02431">
<ele>4</ele>
</trkpt>
<trkpt lat="32.31563" lon="130.02454">
<ele>2</ele>
</trkpt>
<trkpt lat="32.31571" lon="130.0246">
<ele>2</ele>
</trkpt>
<trkpt lat="32.31581" lon="130.02466">
<ele>1</ele>
</trkpt>
<trkpt lat="32.31582" lon="130.0246699">
<ele>1</ele>
</trkpt>
<trkpt lat="32.31588" lon="130.0247">
<ele>1</ele>
</trkpt>
<trkpt lat="32.31592" lon="130.02472">
<ele>1</ele>
</trkpt>
<trkpt lat="32.31597" lon="130.02474">
<ele>1</ele>
</trkpt>
<trkpt lat="32.31605" lon="130.0247599">
<ele>1</ele>
</trkpt>
<trkpt lat="32.31621" lon="130.0248">
<ele>1</ele>
</trkpt>
<trkpt lat="32.31621" lon="130.0248">
<ele>1</ele>
</trkpt>
<trkpt lat="32.31627" lon="130.02499">
<ele>1</ele>
</trkpt>
<trkpt lat="32.31628" lon="130.0250299">
<ele>1</ele>
</trkpt>
<trkpt lat="32.31629" lon="130.02517">
<ele>1</ele>
</trkpt>
<trkpt lat="32.31629" lon="130.0252099">
<ele>1</ele>
</trkpt>
<trkpt lat="32.31629" lon="130.02525">
<ele>1</ele>
</trkpt>
<trkpt lat="32.3163" lon="130.0253899">
<ele>1</ele>
</trkpt>
<trkpt lat="32.3163" lon="130.02546">
<ele>1</ele>
</trkpt>
<trkpt lat="32.3163" lon="130.02553">
<ele>1</ele>
</trkpt>
    </trkseg>
  </trk>
</gpx>