<?xml version="1.0" encoding="UTF-8"?>
<gpx version="1.1"
     creator="KMLtoGPX"
     xmlns="http://www.topografix.com/GPX/1/1">
  <metadata>
    <name>Bingo Fuchu Goshuin Tour Tenryo Joshu Road Back Ground Route</name>
    <desc>びんご府中御朱印巡り　天領上下　路地裏ルート</desc>
    <bounds minlat="34.692812" minlon="133.113537" maxlat="34.699678" maxlon="133.125229"/>
  </metadata>
  <trk>
    <name>Bingo Fuchu Goshuin Tour Tenryo Joshu Road Back Ground Route</name>
    <trkseg>
<trkpt lat="34.695056" lon="133.120441">
<ele>387.4</ele>
</trkpt>
<trkpt lat="34.695054" lon="133.120459">
<ele>387.5</ele>
</trkpt>
<trkpt lat="34.695048" lon="133.120504">
<ele>387.5</ele>
</trkpt>
<trkpt lat="34.695032" lon="133.120619">
<ele>387.7</ele>
</trkpt>
<trkpt lat="34.695004" lon="133.120857">
<ele>388</ele>
</trkpt>
<trkpt lat="34.694922" lon="133.121702">
<ele>388.1</ele>
</trkpt>
<trkpt lat="34.694868" lon="133.122506">
<ele>387.3</ele>
</trkpt>
<trkpt lat="34.694838" lon="133.122785">
<ele>387.7</ele>
</trkpt>
<trkpt lat="34.694821" lon="133.122903">
<ele>387.9</ele>
</trkpt>
<trkpt lat="34.695233" lon="133.123017">
<ele>387.6</ele>
</trkpt>
<trkpt lat="34.695364" lon="133.123045">
<ele>387.7</ele>
</trkpt>
<trkpt lat="34.695734" lon="133.123106">
<ele>387.7</ele>
</trkpt>
<trkpt lat="34.695938" lon="133.123137">
<ele>388.8</ele>
</trkpt>
<trkpt lat="34.695981" lon="133.123087">
<ele>389.2</ele>
</trkpt>
<trkpt lat="34.69602" lon="133.12247">
<ele>389.7</ele>
</trkpt>
<trkpt lat="34.696097" lon="133.121357">
<ele>391</ele>
</trkpt>
<trkpt lat="34.696106" lon="133.121304">
<ele>391</ele>
</trkpt>
<trkpt lat="34.696154" lon="133.121328">
<ele>391.7</ele>
</trkpt>
<trkpt lat="34.696194" lon="133.121372">
<ele>392.3</ele>
</trkpt>
<trkpt lat="34.696226" lon="133.121426">
<ele>392.8</ele>
</trkpt>
<trkpt lat="34.69626" lon="133.121504">
<ele>393.3</ele>
</trkpt>
<trkpt lat="34.696303" lon="133.121634">
<ele>394.1</ele>
</trkpt>
<trkpt lat="34.696348" lon="133.121758">
<ele>394.8</ele>
</trkpt>
<trkpt lat="34.696365" lon="133.121875">
<ele>394.9</ele>
</trkpt>
<trkpt lat="34.696368" lon="133.122026">
<ele>394.9</ele>
</trkpt>
<trkpt lat="34.696377" lon="133.122276">
<ele>394.9</ele>
</trkpt>
<trkpt lat="34.696378" lon="133.122455">
<ele>394.9</ele>
</trkpt>
<trkpt lat="34.696348" lon="133.122728">
<ele>393.8</ele>
</trkpt>
<trkpt lat="34.696356" lon="133.122856">
<ele>393.6</ele>
</trkpt>
<trkpt lat="34.696384" lon="133.123013">
<ele>393.5</ele>
</trkpt>
<trkpt lat="34.696408" lon="133.123126">
<ele>393.4</ele>
</trkpt>
<trkpt lat="34.696489" lon="133.12326">
<ele>393.8</ele>
</trkpt>
<trkpt lat="34.696539" lon="133.123339">
<ele>393.9</ele>
</trkpt>
<trkpt lat="34.696619" lon="133.123435">
<ele>394</ele>
</trkpt>
<trkpt lat="34.696699" lon="133.123733">
<ele>393</ele>
</trkpt>
<trkpt lat="34.696729" lon="133.123787">
<ele>393.1</ele>
</trkpt>
<trkpt lat="34.696874" lon="133.123834">
<ele>394.6</ele>
</trkpt>
<trkpt lat="34.69693" lon="133.123877">
<ele>395</ele>
</trkpt>
<trkpt lat="34.696969" lon="133.123915">
<ele>395.2</ele>
</trkpt>
<trkpt lat="34.697029" lon="133.123995">
<ele>395.3</ele>
</trkpt>
<trkpt lat="34.697115" lon="133.124236">
<ele>394.6</ele>
</trkpt>
<trkpt lat="34.69716" lon="133.124367">
<ele>394.5</ele>
</trkpt>
<trkpt lat="34.697232" lon="133.124524">
<ele>394.5</ele>
</trkpt>
<trkpt lat="34.697261" lon="133.124586">
<ele>394.5</ele>
</trkpt>
<trkpt lat="34.697243" lon="133.124595">
<ele>394.3</ele>
</trkpt>
<trkpt lat="34.696753" lon="133.124731">
<ele>390</ele>
</trkpt>
<trkpt lat="34.696692" lon="133.12476">
<ele>389.5</ele>
</trkpt>
<trkpt lat="34.696009" lon="133.124975">
<ele>388.2</ele>
</trkpt>
<trkpt lat="34.695925" lon="133.125003">
<ele>388.1</ele>
</trkpt>
<trkpt lat="34.69534" lon="133.125188">
<ele>390.7</ele>
</trkpt>
<trkpt lat="34.69518" lon="133.125229">
<ele>391.9</ele>
</trkpt>
<trkpt lat="34.695106" lon="133.125043">
<ele>390.9</ele>
</trkpt>
<trkpt lat="34.695048" lon="133.124954">
<ele>390.7</ele>
</trkpt>
<trkpt lat="34.694864" lon="133.124823">
<ele>395.6</ele>
</trkpt>
<trkpt lat="34.69476" lon="133.124527">
<ele>395.8</ele>
</trkpt>
<trkpt lat="34.694699" lon="133.12432">
<ele>394.3</ele>
</trkpt>
<trkpt lat="34.694581" lon="133.123974">
<ele>392.5</ele>
</trkpt>
<trkpt lat="34.694484" lon="133.12366">
<ele>391.4</ele>
</trkpt>
<trkpt lat="34.694465" lon="133.123651">
<ele>391.5</ele>
</trkpt>
<trkpt lat="34.694324" lon="133.123705">
<ele>392.9</ele>
</trkpt>
<trkpt lat="34.694288" lon="133.123695">
<ele>393</ele>
</trkpt>
<trkpt lat="34.694139" lon="133.123583">
<ele>392.9</ele>
</trkpt>
<trkpt lat="34.693931" lon="133.123399">
<ele>392.5</ele>
</trkpt>
<trkpt lat="34.69383" lon="133.123271">
<ele>392.2</ele>
</trkpt>
<trkpt lat="34.693712" lon="133.123123">
<ele>392.5</ele>
</trkpt>
<trkpt lat="34.693595" lon="133.123002">
<ele>392.6</ele>
</trkpt>
<trkpt lat="34.693552" lon="133.122957">
<ele>392.6</ele>
</trkpt>
<trkpt lat="34.693357" lon="133.122866">
<ele>393.1</ele>
</trkpt>
<trkpt lat="34.693387" lon="133.122842">
<ele>392.8</ele>
</trkpt>
<trkpt lat="34.69348" lon="133.122834">
<ele>392.4</ele>
</trkpt>
<trkpt lat="34.693475" lon="133.122735">
<ele>391.9</ele>
</trkpt>
<trkpt lat="34.693356" lon="133.122754">
<ele>392.4</ele>
</trkpt>
<trkpt lat="34.693328" lon="133.122729">
<ele>392.4</ele>
</trkpt>
<trkpt lat="34.693344" lon="133.122535">
<ele>391.2</ele>
</trkpt>
<trkpt lat="34.693359" lon="133.122452">
<ele>391.4</ele>
</trkpt>
<trkpt lat="34.693374" lon="133.12244">
<ele>391.5</ele>
</trkpt>
<trkpt lat="34.693541" lon="133.122455">
<ele>390.8</ele>
</trkpt>
<trkpt lat="34.693695" lon="133.122476">
<ele>390.3</ele>
</trkpt>
<trkpt lat="34.693836" lon="133.122486">
<ele>389.9</ele>
</trkpt>
<trkpt lat="34.694207" lon="133.122495">
<ele>388.9</ele>
</trkpt>
<trkpt lat="34.694217" lon="133.122473">
<ele>388.9</ele>
</trkpt>
<trkpt lat="34.694218" lon="133.122286">
<ele>389.1</ele>
</trkpt>
<trkpt lat="34.694216" lon="133.122145">
<ele>389.3</ele>
</trkpt>
<trkpt lat="34.694202" lon="133.122128">
<ele>389.4</ele>
</trkpt>
<trkpt lat="34.69418" lon="133.122069">
<ele>389.5</ele>
</trkpt>
<trkpt lat="34.694149" lon="133.121917">
<ele>389.8</ele>
</trkpt>
<trkpt lat="34.694095" lon="133.121608">
<ele>390.6</ele>
</trkpt>
<trkpt lat="34.69407" lon="133.121401">
<ele>390.2</ele>
</trkpt>
<trkpt lat="34.694038" lon="133.121272">
<ele>390.3</ele>
</trkpt>
<trkpt lat="34.693996" lon="133.121086">
<ele>390.3</ele>
</trkpt>
<trkpt lat="34.694029" lon="133.12093">
<ele>389.4</ele>
</trkpt>
<trkpt lat="34.694033" lon="133.120847">
<ele>389.1</ele>
</trkpt>
<trkpt lat="34.694017" lon="133.120707">
<ele>389.2</ele>
</trkpt>
<trkpt lat="34.694014" lon="133.120579">
<ele>389.1</ele>
</trkpt>
<trkpt lat="34.694038" lon="133.120426">
<ele>388.6</ele>
</trkpt>
<trkpt lat="34.694048" lon="133.12036">
<ele>388.4</ele>
</trkpt>
<trkpt lat="34.694042" lon="133.120276">
<ele>388.4</ele>
</trkpt>
<trkpt lat="34.694013" lon="133.120226">
<ele>388.7</ele>
</trkpt>
<trkpt lat="34.693975" lon="133.120073">
<ele>388.9</ele>
</trkpt>
<trkpt lat="34.693974" lon="133.119969">
<ele>388.7</ele>
</trkpt>
<trkpt lat="34.693966" lon="133.119899">
<ele>388.5</ele>
</trkpt>
<trkpt lat="34.693938" lon="133.119847">
<ele>388.5</ele>
</trkpt>
<trkpt lat="34.693889" lon="133.119776">
<ele>388.6</ele>
</trkpt>
<trkpt lat="34.693849" lon="133.119713">
<ele>388.6</ele>
</trkpt>
<trkpt lat="34.693837" lon="133.119638">
<ele>388.3</ele>
</trkpt>
<trkpt lat="34.693862" lon="133.1196">
<ele>387.9</ele>
</trkpt>
<trkpt lat="34.694003" lon="133.119509">
<ele>386.7</ele>
</trkpt>
<trkpt lat="34.694056" lon="133.119447">
<ele>386.2</ele>
</trkpt>
<trkpt lat="34.694061" lon="133.119355">
<ele>385.9</ele>
</trkpt>
<trkpt lat="34.694032" lon="133.119312">
<ele>385.8</ele>
</trkpt>
<trkpt lat="34.693984" lon="133.11919">
<ele>385.5</ele>
</trkpt>
<trkpt lat="34.693942" lon="133.119028">
<ele>385.5</ele>
</trkpt>
<trkpt lat="34.693793" lon="133.119078">
<ele>385.8</ele>
</trkpt>
<trkpt lat="34.693719" lon="133.119028">
<ele>386</ele>
</trkpt>
<trkpt lat="34.693598" lon="133.118731">
<ele>386</ele>
</trkpt>
<trkpt lat="34.693523" lon="133.1187">
<ele>386.1</ele>
</trkpt>
<trkpt lat="34.693274" lon="133.118824">
<ele>386.6</ele>
</trkpt>
<trkpt lat="34.693167" lon="133.118868">
<ele>386.7</ele>
</trkpt>
<trkpt lat="34.693016" lon="133.118927">
<ele>386.9</ele>
</trkpt>
<trkpt lat="34.69282" lon="133.118975">
<ele>387.1</ele>
</trkpt>
<trkpt lat="34.692812" lon="133.11895">
<ele>387</ele>
</trkpt>
<trkpt lat="34.693014" lon="133.118904">
<ele>386.8</ele>
</trkpt>
<trkpt lat="34.693149" lon="133.118854">
<ele>386.7</ele>
</trkpt>
<trkpt lat="34.693295" lon="133.11879">
<ele>386.6</ele>
</trkpt>
<trkpt lat="34.693501" lon="133.118669">
<ele>386.1</ele>
</trkpt>
<trkpt lat="34.693502" lon="133.118639">
<ele>386.1</ele>
</trkpt>
<trkpt lat="34.693463" lon="133.11856">
<ele>386.1</ele>
</trkpt>
<trkpt lat="34.693468" lon="133.118519">
<ele>386</ele>
</trkpt>
<trkpt lat="34.693743" lon="133.1183">
<ele>385.6</ele>
</trkpt>
<trkpt lat="34.693801" lon="133.118196">
<ele>385.8</ele>
</trkpt>
<trkpt lat="34.693814" lon="133.117917">
<ele>386.6</ele>
</trkpt>
<trkpt lat="34.693819" lon="133.117376">
<ele>389.8</ele>
</trkpt>
<trkpt lat="34.693822" lon="133.117344">
<ele>390.4</ele>
</trkpt>
<trkpt lat="34.693854" lon="133.117324">
<ele>390.4</ele>
</trkpt>
<trkpt lat="34.693921" lon="133.117263">
<ele>390.7</ele>
</trkpt>
<trkpt lat="34.694017" lon="133.117193">
<ele>390.5</ele>
</trkpt>
<trkpt lat="34.694203" lon="133.117094">
<ele>389.3</ele>
</trkpt>
<trkpt lat="34.694355" lon="133.117015">
<ele>389.2</ele>
</trkpt>
<trkpt lat="34.694432" lon="133.116935">
<ele>389.2</ele>
</trkpt>
<trkpt lat="34.694544" lon="133.11684">
<ele>389</ele>
</trkpt>
<trkpt lat="34.694604" lon="133.116777">
<ele>388.9</ele>
</trkpt>
<trkpt lat="34.694612" lon="133.116718">
<ele>389.1</ele>
</trkpt>
<trkpt lat="34.694622" lon="133.116526">
<ele>390.7</ele>
</trkpt>
<trkpt lat="34.69463" lon="133.116453">
<ele>391.4</ele>
</trkpt>
<trkpt lat="34.694695" lon="133.116105">
<ele>393.9</ele>
</trkpt>
<trkpt lat="34.694735" lon="133.115854">
<ele>395.1</ele>
</trkpt>
<trkpt lat="34.694787" lon="133.115658">
<ele>394.3</ele>
</trkpt>
<trkpt lat="34.694813" lon="133.115572">
<ele>393.8</ele>
</trkpt>
<trkpt lat="34.694835" lon="133.115517">
<ele>393.2</ele>
</trkpt>
<trkpt lat="34.694872" lon="133.115472">
<ele>392.2</ele>
</trkpt>
<trkpt lat="34.694928" lon="133.115441">
<ele>390.6</ele>
</trkpt>
<trkpt lat="34.695046" lon="133.115391">
<ele>388.3</ele>
</trkpt>
<trkpt lat="34.6951" lon="133.115342">
<ele>388</ele>
</trkpt>
<trkpt lat="34.695165" lon="133.11545">
<ele>387.5</ele>
</trkpt>
<trkpt lat="34.695203" lon="133.115497">
<ele>387.2</ele>
</trkpt>
<trkpt lat="34.695247" lon="133.115506">
<ele>387</ele>
</trkpt>
<trkpt lat="34.695298" lon="133.115483">
<ele>386.7</ele>
</trkpt>
<trkpt lat="34.695396" lon="133.115397">
<ele>386.1</ele>
</trkpt>
<trkpt lat="34.695574" lon="133.115257">
<ele>385</ele>
</trkpt>
<trkpt lat="34.695755" lon="133.115138">
<ele>383.7</ele>
</trkpt>
<trkpt lat="34.695882" lon="133.115059">
<ele>383.2</ele>
</trkpt>
<trkpt lat="34.696122" lon="133.114905">
<ele>385.2</ele>
</trkpt>
<trkpt lat="34.696306" lon="133.114781">
<ele>388</ele>
</trkpt>
<trkpt lat="34.696376" lon="133.114714">
<ele>389.6</ele>
</trkpt>
<trkpt lat="34.696414" lon="133.114653">
<ele>390.9</ele>
</trkpt>
<trkpt lat="34.696446" lon="133.114585">
<ele>392.4</ele>
</trkpt>
<trkpt lat="34.696505" lon="133.114623">
<ele>392.2</ele>
</trkpt>
<trkpt lat="34.696583" lon="133.114611">
<ele>393.2</ele>
</trkpt>
<trkpt lat="34.696818" lon="133.11457">
<ele>394</ele>
</trkpt>
<trkpt lat="34.696967" lon="133.11456">
<ele>393.5</ele>
</trkpt>
<trkpt lat="34.697122" lon="133.114552">
<ele>392.9</ele>
</trkpt>
<trkpt lat="34.697198" lon="133.114536">
<ele>392.8</ele>
</trkpt>
<trkpt lat="34.697349" lon="133.114472">
<ele>393.3</ele>
</trkpt>
<trkpt lat="34.697483" lon="133.114399">
<ele>393.9</ele>
</trkpt>
<trkpt lat="34.697552" lon="133.114346">
<ele>394.2</ele>
</trkpt>
<trkpt lat="34.697657" lon="133.11425">
<ele>394.4</ele>
</trkpt>
<trkpt lat="34.697804" lon="133.114108">
<ele>395.4</ele>
</trkpt>
<trkpt lat="34.697913" lon="133.113988">
<ele>397.3</ele>
</trkpt>
<trkpt lat="34.697991" lon="133.113918">
<ele>398.1</ele>
</trkpt>
<trkpt lat="34.698101" lon="133.11385">
<ele>398.2</ele>
</trkpt>
<trkpt lat="34.698207" lon="133.113804">
<ele>397.7</ele>
</trkpt>
<trkpt lat="34.698302" lon="133.113766">
<ele>397.1</ele>
</trkpt>
<trkpt lat="34.698404" lon="133.11371">
<ele>397.5</ele>
</trkpt>
<trkpt lat="34.698494" lon="133.113642">
<ele>398.3</ele>
</trkpt>
<trkpt lat="34.698584" lon="133.113583">
<ele>398.6</ele>
</trkpt>
<trkpt lat="34.698634" lon="133.113556">
<ele>398.5</ele>
</trkpt>
<trkpt lat="34.698823" lon="133.113538">
<ele>396.5</ele>
</trkpt>
<trkpt lat="34.698942" lon="133.113537">
<ele>395.1</ele>
</trkpt>
<trkpt lat="34.699096" lon="133.113595">
<ele>392.8</ele>
</trkpt>
<trkpt lat="34.699129" lon="133.113616">
<ele>392.4</ele>
</trkpt>
<trkpt lat="34.699085" lon="133.11374">
<ele>392.1</ele>
</trkpt>
<trkpt lat="34.699068" lon="133.113819">
<ele>391.7</ele>
</trkpt>
<trkpt lat="34.699091" lon="133.113957">
<ele>390.8</ele>
</trkpt>
<trkpt lat="34.699142" lon="133.114207">
<ele>389.6</ele>
</trkpt>
<trkpt lat="34.699179" lon="133.114369">
<ele>389.2</ele>
</trkpt>
<trkpt lat="34.699247" lon="133.114525">
<ele>390.3</ele>
</trkpt>
<trkpt lat="34.699303" lon="133.114618">
<ele>391.1</ele>
</trkpt>
<trkpt lat="34.699383" lon="133.11473">
<ele>392.2</ele>
</trkpt>
<trkpt lat="34.699427" lon="133.114833">
<ele>392.2</ele>
</trkpt>
<trkpt lat="34.699473" lon="133.114953">
<ele>391.8</ele>
</trkpt>
<trkpt lat="34.699505" lon="133.115044">
<ele>391.3</ele>
</trkpt>
<trkpt lat="34.699537" lon="133.115099">
<ele>391.2</ele>
</trkpt>
<trkpt lat="34.699594" lon="133.11517">
<ele>391.2</ele>
</trkpt>
<trkpt lat="34.69965" lon="133.115221">
<ele>391.3</ele>
</trkpt>
<trkpt lat="34.699674" lon="133.115249">
<ele>391.2</ele>
</trkpt>
<trkpt lat="34.699678" lon="133.115287">
<ele>390.7</ele>
</trkpt>
<trkpt lat="34.699672" lon="133.11535">
<ele>389.6</ele>
</trkpt>
<trkpt lat="34.699661" lon="133.115391">
<ele>388.8</ele>
</trkpt>
<trkpt lat="34.699652" lon="133.11544">
<ele>387.9</ele>
</trkpt>
<trkpt lat="34.699641" lon="133.115479">
<ele>387.1</ele>
</trkpt>
<trkpt lat="34.699621" lon="133.115493">
<ele>386.7</ele>
</trkpt>
<trkpt lat="34.699578" lon="133.11549">
<ele>386.4</ele>
</trkpt>
<trkpt lat="34.699541" lon="133.115486">
<ele>386.1</ele>
</trkpt>
<trkpt lat="34.699467" lon="133.115469">
<ele>385.6</ele>
</trkpt>
<trkpt lat="34.699421" lon="133.115461">
<ele>385.3</ele>
</trkpt>
<trkpt lat="34.699354" lon="133.115451">
<ele>384.7</ele>
</trkpt>
<trkpt lat="34.699263" lon="133.115434">
<ele>383.9</ele>
</trkpt>
<trkpt lat="34.699151" lon="133.115415">
<ele>383</ele>
</trkpt>
<trkpt lat="34.69913" lon="133.115431">
<ele>382.9</ele>
</trkpt>
<trkpt lat="34.699139" lon="133.115581">
<ele>382.2</ele>
</trkpt>
<trkpt lat="34.699171" lon="133.115609">
<ele>382.1</ele>
</trkpt>
<trkpt lat="34.699186" lon="133.115653">
<ele>382</ele>
</trkpt>
<trkpt lat="34.69927" lon="133.115717">
<ele>382</ele>
</trkpt>
<trkpt lat="34.699226" lon="133.115754">
<ele>381.6</ele>
</trkpt>
<trkpt lat="34.699136" lon="133.115781">
<ele>381.2</ele>
</trkpt>
<trkpt lat="34.698536" lon="133.116008">
<ele>382.8</ele>
</trkpt>
<trkpt lat="34.698187" lon="133.116146">
<ele>383.2</ele>
</trkpt>
<trkpt lat="34.698172" lon="133.116182">
<ele>383.4</ele>
</trkpt>
<trkpt lat="34.698212" lon="133.116309">
<ele>384.2</ele>
</trkpt>
<trkpt lat="34.698245" lon="133.116421">
<ele>385</ele>
</trkpt>
<trkpt lat="34.69822" lon="133.116495">
<ele>385.4</ele>
</trkpt>
<trkpt lat="34.698124" lon="133.116583">
<ele>385.5</ele>
</trkpt>
<trkpt lat="34.697571" lon="133.116997">
<ele>385.2</ele>
</trkpt>
<trkpt lat="34.697462" lon="133.1171">
<ele>384.4</ele>
</trkpt>
<trkpt lat="34.697317" lon="133.117277">
<ele>384.5</ele>
</trkpt>
<trkpt lat="34.697235" lon="133.117429">
<ele>384.6</ele>
</trkpt>
<trkpt lat="34.697345" lon="133.11752">
<ele>385.4</ele>
</trkpt>
<trkpt lat="34.697336" lon="133.117535">
<ele>385.4</ele>
</trkpt>
<trkpt lat="34.697229" lon="133.117442">
<ele>384.6</ele>
</trkpt>
<trkpt lat="34.697216" lon="133.117454">
<ele>384.5</ele>
</trkpt>
<trkpt lat="34.69719" lon="133.11751">
<ele>384.6</ele>
</trkpt>
<trkpt lat="34.697174" lon="133.117551">
<ele>384.7</ele>
</trkpt>
<trkpt lat="34.697149" lon="133.117601">
<ele>384.7</ele>
</trkpt>
<trkpt lat="34.697065" lon="133.117755">
<ele>384.8</ele>
</trkpt>
<trkpt lat="34.69697" lon="133.117921">
<ele>384.6</ele>
</trkpt>
<trkpt lat="34.696892" lon="133.118055">
<ele>384.2</ele>
</trkpt>
<trkpt lat="34.696849" lon="133.118129">
<ele>383.9</ele>
</trkpt>
<trkpt lat="34.696734" lon="133.11826">
<ele>382.8</ele>
</trkpt>
<trkpt lat="34.696695" lon="133.118309">
<ele>382.3</ele>
</trkpt>
<trkpt lat="34.696669" lon="133.118352">
<ele>382.1</ele>
</trkpt>
<trkpt lat="34.696634" lon="133.118407">
<ele>382.3</ele>
</trkpt>
<trkpt lat="34.696592" lon="133.118458">
<ele>382.5</ele>
</trkpt>
<trkpt lat="34.696585" lon="133.118485">
<ele>382.5</ele>
</trkpt>
<trkpt lat="34.696591" lon="133.118507">
<ele>382.6</ele>
</trkpt>
<trkpt lat="34.696552" lon="133.11859">
<ele>382.8</ele>
</trkpt>
<trkpt lat="34.696502" lon="133.118707">
<ele>383.2</ele>
</trkpt>
<trkpt lat="34.696414" lon="133.118904">
<ele>384.02</ele>
</trkpt>
<trkpt lat="34.696398" lon="133.118935">
<ele>384.16</ele>
</trkpt>
<trkpt lat="34.696382" lon="133.118947">
<ele>384.24</ele>
</trkpt>
<trkpt lat="34.696365" lon="133.118986">
<ele>384</ele>
</trkpt>
<trkpt lat="34.696524" lon="133.119109">
<ele>385.24</ele>
</trkpt>
<trkpt lat="34.696554" lon="133.119128">
<ele>385.39</ele>
</trkpt>
<trkpt lat="34.696553" lon="133.119167">
<ele>385.54</ele>
</trkpt>
<trkpt lat="34.696371" lon="133.119684">
<ele>387.6</ele>
</trkpt>
<trkpt lat="34.696365" lon="133.11977">
<ele>388.1</ele>
</trkpt>
<trkpt lat="34.696374" lon="133.119945">
<ele>389.2</ele>
</trkpt>
<trkpt lat="34.696302" lon="133.120419">
<ele>390.8</ele>
</trkpt>
<trkpt lat="34.69624" lon="133.120767">
<ele>391.6</ele>
</trkpt>
<trkpt lat="34.696206" lon="133.120759">
<ele>391.2</ele>
</trkpt>
<trkpt lat="34.696097" lon="133.120731">
<ele>389.8</ele>
</trkpt>
<trkpt lat="34.69594" lon="133.120682">
<ele>387.8</ele>
</trkpt>
<trkpt lat="34.695812" lon="133.121163">
<ele>387.4</ele>
</trkpt>
<trkpt lat="34.695747" lon="133.121173">
<ele>387.5</ele>
</trkpt>
<trkpt lat="34.695691" lon="133.121175">
<ele>387.5</ele>
</trkpt>
<trkpt lat="34.695658" lon="133.121256">
<ele>387.6</ele>
</trkpt>
<trkpt lat="34.695534" lon="133.121248">
<ele>387.7</ele>
</trkpt>
<trkpt lat="34.695447" lon="133.121251">
<ele>387.7</ele>
</trkpt>
<trkpt lat="34.695357" lon="133.121244">
<ele>387.8</ele>
</trkpt>
<trkpt lat="34.695229" lon="133.12123">
<ele>387.9</ele>
</trkpt>
<trkpt lat="34.695079" lon="133.121215">
<ele>387.9</ele>
</trkpt>
<trkpt lat="34.694981" lon="133.121214">
<ele>388</ele>
</trkpt>
<trkpt lat="34.69493" lon="133.121208">
<ele>388</ele>
</trkpt>
<trkpt lat="34.694983" lon="133.120679">
<ele>387.8</ele>
</trkpt>
<trkpt lat="34.695009" lon="133.120515">
<ele>387.6</ele>
</trkpt>
<trkpt lat="34.695044" lon="133.12017">
<ele>387.1</ele>
</trkpt>
<trkpt lat="34.695028" lon="133.120152">
<ele>387.1</ele>
</trkpt>
<trkpt lat="34.694668" lon="133.120068">
<ele>387</ele>
</trkpt>
<trkpt lat="34.694502" lon="133.120092">
<ele>387</ele>
</trkpt>
<trkpt lat="34.694495" lon="133.120395">
<ele>387.2</ele>
</trkpt>
<trkpt lat="34.694576" lon="133.120485">
<ele>387.3</ele>
</trkpt>
<trkpt lat="34.694567" lon="133.120502">
<ele>387.3</ele>
</trkpt>
<trkpt lat="34.694485" lon="133.120412">
<ele>387.2</ele>
</trkpt>
<trkpt lat="34.694489" lon="133.120103">
<ele>387</ele>
</trkpt>
<trkpt lat="34.694492" lon="133.120078">
<ele>387</ele>
</trkpt>
<trkpt lat="34.694669" lon="133.12005">
<ele>387</ele>
</trkpt>
<trkpt lat="34.695035" lon="133.120119">
<ele>387.1</ele>
</trkpt>
<trkpt lat="34.69505" lon="133.12011">
<ele>387</ele>
</trkpt>
<trkpt lat="34.695074" lon="133.119908">
<ele>386.7</ele>
</trkpt>
<trkpt lat="34.695096" lon="133.119714">
<ele>386.5</ele>
</trkpt>
<trkpt lat="34.695134" lon="133.119574">
<ele>386.2</ele>
</trkpt>
<trkpt lat="34.69517" lon="133.119499">
<ele>386.1</ele>
</trkpt>
<trkpt lat="34.695215" lon="133.119422">
<ele>386</ele>
</trkpt>
<trkpt lat="34.69527" lon="133.119364">
<ele>385.8</ele>
</trkpt>
<trkpt lat="34.695365" lon="133.11929">
<ele>385.6</ele>
</trkpt>
<trkpt lat="34.695395" lon="133.119263">
<ele>385.6</ele>
</trkpt>
<trkpt lat="34.695444" lon="133.119227">
<ele>385.5</ele>
</trkpt>
<trkpt lat="34.695509" lon="133.11918">
<ele>385.4</ele>
</trkpt>
<trkpt lat="34.695557" lon="133.119146">
<ele>385.3</ele>
</trkpt>
<trkpt lat="34.695613" lon="133.119104">
<ele>385.2</ele>
</trkpt>
<trkpt lat="34.695674" lon="133.119046">
<ele>385.1</ele>
</trkpt>
<trkpt lat="34.695725" lon="133.118991">
<ele>384.9</ele>
</trkpt>
<trkpt lat="34.695758" lon="133.118965">
<ele>384.9</ele>
</trkpt>
<trkpt lat="34.695781" lon="133.118941">
<ele>384.8</ele>
</trkpt>
<trkpt lat="34.695839" lon="133.11888">
<ele>384.6</ele>
</trkpt>
<trkpt lat="34.695869" lon="133.118832">
<ele>384.5</ele>
</trkpt>
<trkpt lat="34.695918" lon="133.118768">
<ele>384.4</ele>
</trkpt>
<trkpt lat="34.695974" lon="133.118705">
<ele>384.2</ele>
</trkpt>
<trkpt lat="34.696002" lon="133.118661">
<ele>384.1</ele>
</trkpt>
<trkpt lat="34.696023" lon="133.118704">
<ele>384.1</ele>
</trkpt>
<trkpt lat="34.696027" lon="133.118724">
<ele>384.1</ele>
</trkpt>
<trkpt lat="34.696039" lon="133.118735">
<ele>384.1</ele>
</trkpt>
<trkpt lat="34.696255" lon="133.118899">
<ele>384</ele>
</trkpt>
<trkpt lat="34.696226" lon="133.118966">
<ele>384.2</ele>
</trkpt>
<trkpt lat="34.695989" lon="133.119795">
<ele>385.9</ele>
</trkpt>
<trkpt lat="34.695966" lon="133.119824">
<ele>385.8</ele>
</trkpt>
<trkpt lat="34.695806" lon="133.120387">
<ele>386</ele>
</trkpt>
<trkpt lat="34.695701" lon="133.120351">
<ele>386.1</ele>
</trkpt>
<trkpt lat="34.695559" lon="133.120295">
<ele>386.2</ele>
</trkpt>
<trkpt lat="34.695472" lon="133.120281">
<ele>386.4</ele>
</trkpt>
<trkpt lat="34.695419" lon="133.120271">
<ele>386.5</ele>
</trkpt>
<trkpt lat="34.695343" lon="133.120247">
<ele>386.6</ele>
</trkpt>
<trkpt lat="34.695173" lon="133.120192">
<ele>386.9</ele>
</trkpt>
<trkpt lat="34.695079" lon="133.120176">
<ele>387</ele>
</trkpt>
<trkpt lat="34.695056" lon="133.120404">
<ele>387.4</ele>
</trkpt>
<trkpt lat="34.695055" lon="133.120441">
<ele>387.4</ele>
</trkpt>
    </trkseg>
  </trk>
</gpx>