<?xml version="1.0" encoding="UTF-8"?>
<gpx version="1.1"
     creator="KMLtoGPX"
     xmlns="http://www.topografix.com/GPX/1/1">
  <metadata>
    <name>Course A VillagesCountryside</name>
    <desc>Aコース　里地・田園</desc>
    <bounds minlat="35.34083305555556" minlon="133.3189338888889" maxlat="35.36851388888889" maxlon="133.35118444444444"/>
  </metadata>
  <trk>
    <name>Course A VillagesCountryside</name>
    <trkseg>
<trkpt lat="35.34083305555556" lon="133.32735805555555">
<ele>39</ele>
</trkpt>
<trkpt lat="35.34104888888889" lon="133.32733305555556">
<ele>39</ele>
</trkpt>
<trkpt lat="35.34124888888889" lon="133.3273211111111">
<ele>39</ele>
</trkpt>
<trkpt lat="35.34139111111111" lon="133.32728305555557">
<ele>39</ele>
</trkpt>
<trkpt lat="35.341498888888886" lon="133.32723305555555">
<ele>39</ele>
</trkpt>
<trkpt lat="35.34199888888889" lon="133.32698305555556">
<ele>37</ele>
</trkpt>
<trkpt lat="35.342041944444446" lon="133.3269611111111">
<ele>37</ele>
</trkpt>
<trkpt lat="35.342041944444446" lon="133.3269611111111">
<ele>37</ele>
</trkpt>
<trkpt lat="35.34199888888889" lon="133.32698305555556">
<ele>37</ele>
</trkpt>
<trkpt lat="35.34164888888889" lon="133.32598305555555">
<ele>38</ele>
</trkpt>
<trkpt lat="35.34124111111111" lon="133.3248461111111">
<ele>39</ele>
</trkpt>
<trkpt lat="35.34119111111111" lon="133.3247088888889">
<ele>39</ele>
</trkpt>
<trkpt lat="35.34117388888889" lon="133.3246088888889">
<ele>39</ele>
</trkpt>
<trkpt lat="35.34115694444444" lon="133.3243461111111">
<ele>39</ele>
</trkpt>
<trkpt lat="35.341166111111114" lon="133.32408388888888">
<ele>39</ele>
</trkpt>
<trkpt lat="35.34118" lon="133.32370305555557">
<ele>39</ele>
</trkpt>
<trkpt lat="35.34118" lon="133.32370305555557">
<ele>39</ele>
</trkpt>
<trkpt lat="35.34122055555556" lon="133.3236797222222">
<ele>39</ele>
</trkpt>
<trkpt lat="35.34126138888889" lon="133.32365638888888">
<ele>39</ele>
</trkpt>
<trkpt lat="35.341301944444446" lon="133.32363305555555">
<ele>39</ele>
</trkpt>
<trkpt lat="35.341342777777776" lon="133.32360972222222">
<ele>39</ele>
</trkpt>
<trkpt lat="35.34138333333333" lon="133.32358638888888">
<ele>39</ele>
</trkpt>
<trkpt lat="35.34142416666667" lon="133.32356305555555">
<ele>39</ele>
</trkpt>
<trkpt lat="35.34146472222222" lon="133.32353972222222">
<ele>39</ele>
</trkpt>
<trkpt lat="35.34150555555556" lon="133.3235163888889">
<ele>39</ele>
</trkpt>
<trkpt lat="35.341546111111114" lon="133.32349305555556">
<ele>39</ele>
</trkpt>
<trkpt lat="35.341586666666664" lon="133.32346972222223">
<ele>39</ele>
</trkpt>
<trkpt lat="35.3416275" lon="133.3234463888889">
<ele>39</ele>
</trkpt>
<trkpt lat="35.34166805555556" lon="133.32342305555557">
<ele>39</ele>
</trkpt>
<trkpt lat="35.34170888888889" lon="133.32339972222223">
<ele>39</ele>
</trkpt>
<trkpt lat="35.341749444444446" lon="133.32337611111112">
<ele>39</ele>
</trkpt>
<trkpt lat="35.341790277777775" lon="133.32335277777779">
<ele>39</ele>
</trkpt>
<trkpt lat="35.34183083333333" lon="133.32332944444445">
<ele>39</ele>
</trkpt>
<trkpt lat="35.34187166666667" lon="133.32330611111112">
<ele>39</ele>
</trkpt>
<trkpt lat="35.34191222222222" lon="133.3232827777778">
<ele>39</ele>
</trkpt>
<trkpt lat="35.34195277777778" lon="133.32325944444443">
<ele>39</ele>
</trkpt>
<trkpt lat="35.341993611111114" lon="133.3232361111111">
<ele>39</ele>
</trkpt>
<trkpt lat="35.342034166666664" lon="133.32321277777777">
<ele>38</ele>
</trkpt>
<trkpt lat="35.342075" lon="133.32318944444444">
<ele>38</ele>
</trkpt>
<trkpt lat="35.34211555555556" lon="133.3231661111111">
<ele>37</ele>
</trkpt>
<trkpt lat="35.34215638888889" lon="133.32314277777778">
<ele>37</ele>
</trkpt>
<trkpt lat="35.342196944444446" lon="133.32311944444444">
<ele>37</ele>
</trkpt>
<trkpt lat="35.342237777777775" lon="133.3230961111111">
<ele>37</ele>
</trkpt>
<trkpt lat="35.34227833333333" lon="133.32307277777778">
<ele>37</ele>
</trkpt>
<trkpt lat="35.34231916666667" lon="133.32304944444445">
<ele>37</ele>
</trkpt>
<trkpt lat="35.34235972222222" lon="133.32302611111112">
<ele>36</ele>
</trkpt>
<trkpt lat="35.342373333333335" lon="133.32301833333332">
<ele>36</ele>
</trkpt>
<trkpt lat="35.342373333333335" lon="133.32301833333332">
<ele>36</ele>
</trkpt>
<trkpt lat="35.34234305555555" lon="133.32297777777777">
<ele>36</ele>
</trkpt>
<trkpt lat="35.34231277777778" lon="133.32293694444445">
<ele>36</ele>
</trkpt>
<trkpt lat="35.342282222222224" lon="133.3228963888889">
<ele>36</ele>
</trkpt>
<trkpt lat="35.34225194444444" lon="133.32285583333334">
<ele>37</ele>
</trkpt>
<trkpt lat="35.34222166666667" lon="133.32281527777778">
<ele>37</ele>
</trkpt>
<trkpt lat="35.34219138888889" lon="133.32277472222222">
<ele>37</ele>
</trkpt>
<trkpt lat="35.34216083333333" lon="133.32273416666666">
<ele>37</ele>
</trkpt>
<trkpt lat="35.342130555555556" lon="133.3226936111111">
<ele>37</ele>
</trkpt>
<trkpt lat="35.342100277777774" lon="133.32265305555555">
<ele>38</ele>
</trkpt>
<trkpt lat="35.34207" lon="133.32261222222223">
<ele>38</ele>
</trkpt>
<trkpt lat="35.342039444444445" lon="133.32257166666668">
<ele>38</ele>
</trkpt>
<trkpt lat="35.342009166666664" lon="133.32253111111112">
<ele>38</ele>
</trkpt>
<trkpt lat="35.34198833333333" lon="133.32250333333334">
<ele>39</ele>
</trkpt>
<trkpt lat="35.34202111111111" lon="133.3224911111111">
<ele>39</ele>
</trkpt>
<trkpt lat="35.34196611111111" lon="133.32227111111112">
<ele>39</ele>
</trkpt>
<trkpt lat="35.342131944444446" lon="133.32203388888888">
<ele>39</ele>
</trkpt>
<trkpt lat="35.34242388888889" lon="133.32149611111112">
<ele>39</ele>
</trkpt>
<trkpt lat="35.342306944444445" lon="133.3211088888889">
<ele>36</ele>
</trkpt>
<trkpt lat="35.342348888888885" lon="133.32103388888888">
<ele>35</ele>
</trkpt>
<trkpt lat="35.342565" lon="133.3209338888889">
<ele>35</ele>
</trkpt>
<trkpt lat="35.342665" lon="133.3209588888889">
<ele>35</ele>
</trkpt>
<trkpt lat="35.342665" lon="133.3209588888889">
<ele>35</ele>
</trkpt>
<trkpt lat="35.34307388888889" lon="133.32127111111112">
<ele>34</ele>
</trkpt>
<trkpt lat="35.343631944444446" lon="133.32127111111112">
<ele>35</ele>
</trkpt>
<trkpt lat="35.343615" lon="133.3213838888889">
<ele>34</ele>
</trkpt>
<trkpt lat="35.343615" lon="133.3213838888889">
<ele>34</ele>
</trkpt>
<trkpt lat="35.343631944444446" lon="133.32127111111112">
<ele>35</ele>
</trkpt>
<trkpt lat="35.34365694444445" lon="133.32102111111112">
<ele>35</ele>
</trkpt>
<trkpt lat="35.343648888888886" lon="133.32058388888888">
<ele>36</ele>
</trkpt>
<trkpt lat="35.34362388888889" lon="133.31978388888888">
<ele>38</ele>
</trkpt>
<trkpt lat="35.343648888888886" lon="133.31965888888888">
<ele>39</ele>
</trkpt>
<trkpt lat="35.34365694444445" lon="133.3195961111111">
<ele>39</ele>
</trkpt>
<trkpt lat="35.34388194444445" lon="133.3191338888889">
<ele>38</ele>
</trkpt>
<trkpt lat="35.344065" lon="133.3189338888889">
<ele>35</ele>
</trkpt>
<trkpt lat="35.34410805555556" lon="133.3189638888889">
<ele>35</ele>
</trkpt>
<trkpt lat="35.34410805555556" lon="133.3189638888889">
<ele>35</ele>
</trkpt>
<trkpt lat="35.34459805555556" lon="133.31930888888888">
<ele>37</ele>
</trkpt>
<trkpt lat="35.34480694444444" lon="133.31944611111112">
<ele>36</ele>
</trkpt>
<trkpt lat="35.34563194444444" lon="133.32002111111112">
<ele>34</ele>
</trkpt>
<trkpt lat="35.34715694444444" lon="133.32104611111112">
<ele>30</ele>
</trkpt>
<trkpt lat="35.34871305555556" lon="133.322175">
<ele>30</ele>
</trkpt>
<trkpt lat="35.34871305555556" lon="133.322175">
<ele>30</ele>
</trkpt>
<trkpt lat="35.34919" lon="133.32252111111112">
<ele>29</ele>
</trkpt>
<trkpt lat="35.34887305555556" lon="133.32390805555556">
<ele>29</ele>
</trkpt>
<trkpt lat="35.348815" lon="133.32420805555554">
<ele>29</ele>
</trkpt>
<trkpt lat="35.348798055555555" lon="133.32428305555555">
<ele>29</ele>
</trkpt>
<trkpt lat="35.34870611111111" lon="133.32487111111112">
<ele>29</ele>
</trkpt>
<trkpt lat="35.349015" lon="133.32489611111112">
<ele>29</ele>
</trkpt>
<trkpt lat="35.349133055555555" lon="133.3249338888889">
<ele>29</ele>
</trkpt>
<trkpt lat="35.349133055555555" lon="133.3249338888889">
<ele>29</ele>
</trkpt>
<trkpt lat="35.35077305555556" lon="133.3254711111111">
<ele>28</ele>
</trkpt>
<trkpt lat="35.352423055555555" lon="133.3254211111111">
<ele>28</ele>
</trkpt>
<trkpt lat="35.35475611111111" lon="133.32657">
<ele>27</ele>
</trkpt>
<trkpt lat="35.356073055555555" lon="133.32742">
<ele>26</ele>
</trkpt>
<trkpt lat="35.35681388888889" lon="133.32787">
<ele>26</ele>
</trkpt>
<trkpt lat="35.357033888888886" lon="133.32799888888889">
<ele>26</ele>
</trkpt>
<trkpt lat="35.357033888888886" lon="133.32799888888889">
<ele>26</ele>
</trkpt>
<trkpt lat="35.35807194444445" lon="133.32860805555555">
<ele>25</ele>
</trkpt>
<trkpt lat="35.35945611111111" lon="133.32930694444445">
<ele>25</ele>
</trkpt>
<trkpt lat="35.36137194444444" lon="133.330045">
<ele>24</ele>
</trkpt>
<trkpt lat="35.36185611111111" lon="133.330145">
<ele>24</ele>
</trkpt>
<trkpt lat="35.36251388888889" lon="133.33045694444445">
<ele>23</ele>
</trkpt>
<trkpt lat="35.36284694444444" lon="133.3306938888889">
<ele>23</ele>
</trkpt>
<trkpt lat="35.36313888888889" lon="133.33095111111112">
<ele>23</ele>
</trkpt>
<trkpt lat="35.36313888888889" lon="133.33095111111112">
<ele>23</ele>
</trkpt>
<trkpt lat="35.36318888888889" lon="133.33099388888888">
<ele>23</ele>
</trkpt>
<trkpt lat="35.36364694444445" lon="133.3315188888889">
<ele>23</ele>
</trkpt>
<trkpt lat="35.364131111111114" lon="133.33248194444445">
<ele>22</ele>
</trkpt>
<trkpt lat="35.364581111111114" lon="133.33339388888888">
<ele>22</ele>
</trkpt>
<trkpt lat="35.36559694444444" lon="133.33529388888888">
<ele>20</ele>
</trkpt>
<trkpt lat="35.366971944444444" lon="133.3369188888889">
<ele>20</ele>
</trkpt>
<trkpt lat="35.366976111111114" lon="133.33692194444444">
<ele>19</ele>
</trkpt>
<trkpt lat="35.366976111111114" lon="133.33692194444444">
<ele>19</ele>
</trkpt>
<trkpt lat="35.36851388888889" lon="133.33848111111112">
<ele>19</ele>
</trkpt>
<trkpt lat="35.36845611111111" lon="133.33857194444445">
<ele>19</ele>
</trkpt>
<trkpt lat="35.36845611111111" lon="133.33857194444445">
<ele>19</ele>
</trkpt>
<trkpt lat="35.36783" lon="133.3395561111111">
<ele>21</ele>
</trkpt>
<trkpt lat="35.36732194444444" lon="133.3403311111111">
<ele>21</ele>
</trkpt>
<trkpt lat="35.367221944444445" lon="133.3404938888889">
<ele>22</ele>
</trkpt>
<trkpt lat="35.36683111111111" lon="133.34109388888888">
<ele>22</ele>
</trkpt>
<trkpt lat="35.36631388888889" lon="133.34189305555554">
<ele>23</ele>
</trkpt>
<trkpt lat="35.36580611111111" lon="133.34266805555555">
<ele>24</ele>
</trkpt>
<trkpt lat="35.36558111111111" lon="133.34301805555555">
<ele>24</ele>
</trkpt>
<trkpt lat="35.365496944444445" lon="133.3431561111111">
<ele>24</ele>
</trkpt>
<trkpt lat="35.36543888888889" lon="133.34326805555557">
<ele>24</ele>
</trkpt>
<trkpt lat="35.36542305555555" lon="133.34334305555555">
<ele>24</ele>
</trkpt>
<trkpt lat="35.36541388888889" lon="133.34344305555555">
<ele>24</ele>
</trkpt>
<trkpt lat="35.365431111111114" lon="133.34349305555557">
<ele>25</ele>
</trkpt>
<trkpt lat="35.36539111111111" lon="133.34350388888888">
<ele>26</ele>
</trkpt>
<trkpt lat="35.36539111111111" lon="133.34350388888888">
<ele>26</ele>
</trkpt>
<trkpt lat="35.365431111111114" lon="133.34349305555557">
<ele>25</ele>
</trkpt>
<trkpt lat="35.36543888888889" lon="133.3435561111111">
<ele>27</ele>
</trkpt>
<trkpt lat="35.36550611111111" lon="133.3436561111111">
<ele>26</ele>
</trkpt>
<trkpt lat="35.36615611111111" lon="133.34449305555555">
<ele>26</ele>
</trkpt>
<trkpt lat="35.36645611111111" lon="133.34495611111112">
<ele>25</ele>
</trkpt>
<trkpt lat="35.366598055555556" lon="133.34521805555556">
<ele>25</ele>
</trkpt>
<trkpt lat="35.36668888888889" lon="133.34539305555555">
<ele>24</ele>
</trkpt>
<trkpt lat="35.36680611111111" lon="133.34564305555554">
<ele>24</ele>
</trkpt>
<trkpt lat="35.36685611111111" lon="133.34574305555554">
<ele>24</ele>
</trkpt>
<trkpt lat="35.367156111111115" lon="133.34644305555557">
<ele>24</ele>
</trkpt>
<trkpt lat="35.36758888888889" lon="133.34741805555555">
<ele>24</ele>
</trkpt>
<trkpt lat="35.367688888888885" lon="133.34766805555554">
<ele>26</ele>
</trkpt>
<trkpt lat="35.36776388888889" lon="133.347955">
<ele>26</ele>
</trkpt>
<trkpt lat="35.36785611111111" lon="133.348605">
<ele>26</ele>
</trkpt>
<trkpt lat="35.36785611111111" lon="133.34893">
<ele>27</ele>
</trkpt>
<trkpt lat="35.367848055555555" lon="133.34909305555556">
<ele>27</ele>
</trkpt>
<trkpt lat="35.3676" lon="133.35064888888888">
<ele>26</ele>
</trkpt>
<trkpt lat="35.3676" lon="133.35064888888888">
<ele>26</ele>
</trkpt>
<trkpt lat="35.367581111111114" lon="133.35076805555556">
<ele>26</ele>
</trkpt>
<trkpt lat="35.36756388888889" lon="133.3508911111111">
<ele>26</ele>
</trkpt>
<trkpt lat="35.36756388888889" lon="133.3508911111111">
<ele>27</ele>
</trkpt>
<trkpt lat="35.36752083333333" lon="133.35090694444443">
<ele>27</ele>
</trkpt>
<trkpt lat="35.36747777777778" lon="133.3509225">
<ele>27</ele>
</trkpt>
<trkpt lat="35.36743472222222" lon="133.35093833333335">
<ele>27</ele>
</trkpt>
<trkpt lat="35.36739166666667" lon="133.35095416666667">
<ele>27</ele>
</trkpt>
<trkpt lat="35.36734861111111" lon="133.35097">
<ele>27</ele>
</trkpt>
<trkpt lat="35.367305555555554" lon="133.35098555555555">
<ele>27</ele>
</trkpt>
<trkpt lat="35.3672625" lon="133.35100138888887">
<ele>27</ele>
</trkpt>
<trkpt lat="35.367219444444444" lon="133.35101722222223">
<ele>27</ele>
</trkpt>
<trkpt lat="35.367176666666666" lon="133.35103305555555">
<ele>27</ele>
</trkpt>
<trkpt lat="35.367133611111115" lon="133.3510486111111">
<ele>27</ele>
</trkpt>
<trkpt lat="35.367090555555556" lon="133.35106444444443">
<ele>27</ele>
</trkpt>
<trkpt lat="35.3670475" lon="133.35108027777778">
<ele>27</ele>
</trkpt>
<trkpt lat="35.36700444444445" lon="133.35109583333335">
<ele>27</ele>
</trkpt>
<trkpt lat="35.36696138888889" lon="133.35111166666667">
<ele>28</ele>
</trkpt>
<trkpt lat="35.36691833333333" lon="133.3511275">
<ele>28</ele>
</trkpt>
<trkpt lat="35.36687527777778" lon="133.35114333333334">
<ele>28</ele>
</trkpt>
<trkpt lat="35.36683222222222" lon="133.35115888888888">
<ele>28</ele>
</trkpt>
<trkpt lat="35.36678916666666" lon="133.35117472222223">
<ele>28</ele>
</trkpt>
<trkpt lat="35.3667625" lon="133.35118444444444">
<ele>28</ele>
</trkpt>
<trkpt lat="35.3667625" lon="133.35118444444444">
<ele>28</ele>
</trkpt>
<trkpt lat="35.366708055555556" lon="133.3511738888889">
<ele>28</ele>
</trkpt>
<trkpt lat="35.36665361111111" lon="133.35116333333335">
<ele>28</ele>
</trkpt>
<trkpt lat="35.36659944444445" lon="133.35115277777777">
<ele>28</ele>
</trkpt>
<trkpt lat="35.366545" lon="133.35114222222222">
<ele>28</ele>
</trkpt>
<trkpt lat="35.36649055555556" lon="133.35113166666667">
<ele>28</ele>
</trkpt>
<trkpt lat="35.36643611111111" lon="133.3511211111111">
<ele>28</ele>
</trkpt>
<trkpt lat="35.36638194444444" lon="133.35111055555555">
<ele>29</ele>
</trkpt>
<trkpt lat="35.3663275" lon="133.3511">
<ele>29</ele>
</trkpt>
<trkpt lat="35.36627305555555" lon="133.35108916666667">
<ele>29</ele>
</trkpt>
<trkpt lat="35.36621861111111" lon="133.35107861111112">
<ele>29</ele>
</trkpt>
<trkpt lat="35.366164166666664" lon="133.35106805555554">
<ele>30</ele>
</trkpt>
<trkpt lat="35.36611" lon="133.3510575">
<ele>30</ele>
</trkpt>
<trkpt lat="35.366055555555555" lon="133.35104694444445">
<ele>30</ele>
</trkpt>
<trkpt lat="35.36600111111111" lon="133.3510363888889">
<ele>31</ele>
</trkpt>
<trkpt lat="35.365946666666666" lon="133.35102583333332">
<ele>31</ele>
</trkpt>
<trkpt lat="35.3658925" lon="133.35101527777778">
<ele>33</ele>
</trkpt>
<trkpt lat="35.36583805555556" lon="133.35100472222223">
<ele>33</ele>
</trkpt>
<trkpt lat="35.36578361111111" lon="133.35099416666668">
<ele>34</ele>
</trkpt>
<trkpt lat="35.36572916666667" lon="133.3509836111111">
<ele>34</ele>
</trkpt>
<trkpt lat="35.36572916666667" lon="133.3509836111111">
<ele>34</ele>
</trkpt>
<trkpt lat="35.36572916666667" lon="133.3509836111111">
<ele>34</ele>
</trkpt>
<trkpt lat="35.365703333333336" lon="133.3509386111111">
<ele>29</ele>
</trkpt>
<trkpt lat="35.3656775" lon="133.3508936111111">
<ele>29</ele>
</trkpt>
<trkpt lat="35.36565138888889" lon="133.3508486111111">
<ele>29</ele>
</trkpt>
<trkpt lat="35.36562555555555" lon="133.3508036111111">
<ele>30</ele>
</trkpt>
<trkpt lat="35.36559972222222" lon="133.3507586111111">
<ele>31</ele>
</trkpt>
<trkpt lat="35.36557361111111" lon="133.3507136111111">
<ele>33</ele>
</trkpt>
<trkpt lat="35.36554777777778" lon="133.3506686111111">
<ele>34</ele>
</trkpt>
<trkpt lat="35.365521944444446" lon="133.3506236111111">
<ele>34</ele>
</trkpt>
<trkpt lat="35.36549611111111" lon="133.3505786111111">
<ele>34</ele>
</trkpt>
<trkpt lat="35.36547" lon="133.3505336111111">
<ele>34</ele>
</trkpt>
<trkpt lat="35.36545388888889" lon="133.35050555555554">
<ele>36</ele>
</trkpt>
<trkpt lat="35.36545388888889" lon="133.35050555555554">
<ele>36</ele>
</trkpt>
<trkpt lat="35.3654825" lon="133.35054805555555">
<ele>36</ele>
</trkpt>
<trkpt lat="35.36551083333333" lon="133.35059055555556">
<ele>37</ele>
</trkpt>
<trkpt lat="35.365539444444444" lon="133.35063305555556">
<ele>37</ele>
</trkpt>
<trkpt lat="35.365568055555556" lon="133.35067555555557">
<ele>36</ele>
</trkpt>
<trkpt lat="35.36559638888889" lon="133.35071833333333">
<ele>36</ele>
</trkpt>
<trkpt lat="35.365625" lon="133.35076083333334">
<ele>36</ele>
</trkpt>
<trkpt lat="35.365653611111114" lon="133.35080333333335">
<ele>36</ele>
</trkpt>
<trkpt lat="35.36568194444445" lon="133.35084583333332">
<ele>35</ele>
</trkpt>
<trkpt lat="35.36571055555556" lon="133.35088833333333">
<ele>35</ele>
</trkpt>
<trkpt lat="35.365739166666664" lon="133.35093083333334">
<ele>34</ele>
</trkpt>
<trkpt lat="35.36575388888889" lon="133.35095305555555">
<ele>34</ele>
</trkpt>
<trkpt lat="35.36575388888889" lon="133.35095305555555">
<ele>34</ele>
</trkpt>
<trkpt lat="35.365806944444444" lon="133.3509625">
<ele>33</ele>
</trkpt>
<trkpt lat="35.365859722222226" lon="133.35097194444444">
<ele>33</ele>
</trkpt>
<trkpt lat="35.36591277777778" lon="133.3509813888889">
<ele>31</ele>
</trkpt>
<trkpt lat="35.365965555555555" lon="133.35099055555557">
<ele>31</ele>
</trkpt>
<trkpt lat="35.36601861111111" lon="133.351">
<ele>30</ele>
</trkpt>
<trkpt lat="35.36607138888889" lon="133.35100944444446">
<ele>30</ele>
</trkpt>
<trkpt lat="35.366124444444445" lon="133.3510188888889">
<ele>29</ele>
</trkpt>
<trkpt lat="35.36617722222222" lon="133.35102833333335">
<ele>29</ele>
</trkpt>
<trkpt lat="35.36623027777778" lon="133.3510375">
<ele>29</ele>
</trkpt>
<trkpt lat="35.366283055555556" lon="133.35104694444445">
<ele>29</ele>
</trkpt>
<trkpt lat="35.36633611111111" lon="133.35105638888888">
<ele>28</ele>
</trkpt>
<trkpt lat="35.36638888888889" lon="133.35106583333334">
<ele>28</ele>
</trkpt>
<trkpt lat="35.366441944444446" lon="133.351075">
<ele>28</ele>
</trkpt>
<trkpt lat="35.36649472222222" lon="133.35108444444444">
<ele>28</ele>
</trkpt>
<trkpt lat="35.366547777777775" lon="133.3510938888889">
<ele>28</ele>
</trkpt>
<trkpt lat="35.36660055555556" lon="133.35110333333333">
<ele>28</ele>
</trkpt>
<trkpt lat="35.36665361111111" lon="133.3511127777778">
<ele>28</ele>
</trkpt>
<trkpt lat="35.366706388888886" lon="133.35112194444446">
<ele>28</ele>
</trkpt>
<trkpt lat="35.36675944444445" lon="133.3511313888889">
<ele>28</ele>
</trkpt>
<trkpt lat="35.36675944444445" lon="133.3511313888889">
<ele>28</ele>
</trkpt>
<trkpt lat="35.3668025" lon="133.3511163888889">
<ele>28</ele>
</trkpt>
<trkpt lat="35.366845833333336" lon="133.35110138888888">
<ele>28</ele>
</trkpt>
<trkpt lat="35.36688916666667" lon="133.3510861111111">
<ele>28</ele>
</trkpt>
<trkpt lat="35.366932222222225" lon="133.3510711111111">
<ele>28</ele>
</trkpt>
<trkpt lat="35.366975555555555" lon="133.35105611111112">
<ele>28</ele>
</trkpt>
<trkpt lat="35.367018611111114" lon="133.3510411111111">
<ele>27</ele>
</trkpt>
<trkpt lat="35.367061944444444" lon="133.35102583333332">
<ele>27</ele>
</trkpt>
<trkpt lat="35.367105" lon="133.35101083333333">
<ele>27</ele>
</trkpt>
<trkpt lat="35.36714833333333" lon="133.35099583333334">
<ele>27</ele>
</trkpt>
<trkpt lat="35.36719138888889" lon="133.35098055555557">
<ele>27</ele>
</trkpt>
<trkpt lat="35.36723472222222" lon="133.35096555555555">
<ele>27</ele>
</trkpt>
<trkpt lat="35.36727777777778" lon="133.35095055555556">
<ele>27</ele>
</trkpt>
<trkpt lat="35.36732111111111" lon="133.35093555555557">
<ele>27</ele>
</trkpt>
<trkpt lat="35.36736416666667" lon="133.3509202777778">
<ele>27</ele>
</trkpt>
<trkpt lat="35.3674075" lon="133.35090527777777">
<ele>27</ele>
</trkpt>
<trkpt lat="35.36745055555556" lon="133.35089027777778">
<ele>27</ele>
</trkpt>
<trkpt lat="35.36749388888889" lon="133.350875">
<ele>27</ele>
</trkpt>
<trkpt lat="35.367536944444446" lon="133.35086">
<ele>27</ele>
</trkpt>
<trkpt lat="35.36756361111111" lon="133.35085055555555">
<ele>26</ele>
</trkpt>
<trkpt lat="35.36756361111111" lon="133.35085055555555">
<ele>26</ele>
</trkpt>
<trkpt lat="35.36757388888889" lon="133.35079694444445">
<ele>26</ele>
</trkpt>
<trkpt lat="35.36758416666667" lon="133.35074333333333">
<ele>26</ele>
</trkpt>
<trkpt lat="35.36758527777778" lon="133.35073694444444">
<ele>40</ele>
</trkpt>
<trkpt lat="35.36758611111111" lon="133.35073694444444">
<ele>26</ele>
</trkpt>
<trkpt lat="35.367848055555555" lon="133.34909305555556">
<ele>27</ele>
</trkpt>
<trkpt lat="35.36785611111111" lon="133.34893">
<ele>27</ele>
</trkpt>
<trkpt lat="35.36785611111111" lon="133.348605">
<ele>26</ele>
</trkpt>
<trkpt lat="35.36776388888889" lon="133.347955">
<ele>26</ele>
</trkpt>
<trkpt lat="35.367688888888885" lon="133.34766805555554">
<ele>26</ele>
</trkpt>
<trkpt lat="35.36758888888889" lon="133.34741805555555">
<ele>24</ele>
</trkpt>
<trkpt lat="35.367156111111115" lon="133.34644305555557">
<ele>24</ele>
</trkpt>
<trkpt lat="35.36685611111111" lon="133.34574305555554">
<ele>24</ele>
</trkpt>
<trkpt lat="35.36680611111111" lon="133.34564305555554">
<ele>24</ele>
</trkpt>
<trkpt lat="35.36668888888889" lon="133.34539305555555">
<ele>24</ele>
</trkpt>
<trkpt lat="35.366598055555556" lon="133.34521805555556">
<ele>25</ele>
</trkpt>
<trkpt lat="35.36645611111111" lon="133.34495611111112">
<ele>25</ele>
</trkpt>
<trkpt lat="35.36615611111111" lon="133.34449305555555">
<ele>26</ele>
</trkpt>
<trkpt lat="35.36551" lon="133.34366111111112">
<ele>26</ele>
</trkpt>
<trkpt lat="35.36551" lon="133.34366111111112">
<ele>26</ele>
</trkpt>
<trkpt lat="35.36550611111111" lon="133.3436561111111">
<ele>26</ele>
</trkpt>
<trkpt lat="35.36543888888889" lon="133.3435561111111">
<ele>27</ele>
</trkpt>
<trkpt lat="35.365431111111114" lon="133.34349305555557">
<ele>25</ele>
</trkpt>
<trkpt lat="35.365298055555556" lon="133.3435311111111">
<ele>27</ele>
</trkpt>
<trkpt lat="35.36523888888889" lon="133.3435061111111">
<ele>27</ele>
</trkpt>
<trkpt lat="35.36508888888889" lon="133.34344305555555">
<ele>28</ele>
</trkpt>
<trkpt lat="35.36483388888889" lon="133.34326805555557">
<ele>29</ele>
</trkpt>
<trkpt lat="35.36483388888889" lon="133.34326805555557">
<ele>29</ele>
</trkpt>
<trkpt lat="35.36421388888889" lon="133.3428438888889">
<ele>31</ele>
</trkpt>
<trkpt lat="35.363838888888885" lon="133.3426188888889">
<ele>32</ele>
</trkpt>
<trkpt lat="35.36348888888889" lon="133.3422561111111">
<ele>30</ele>
</trkpt>
<trkpt lat="35.36318111111111" lon="133.3418311111111">
<ele>28</ele>
</trkpt>
<trkpt lat="35.36280611111111" lon="133.34133111111112">
<ele>29</ele>
</trkpt>
<trkpt lat="35.36217194444444" lon="133.3410561111111">
<ele>28</ele>
</trkpt>
<trkpt lat="35.361871944444445" lon="133.3408061111111">
<ele>29</ele>
</trkpt>
<trkpt lat="35.36173888888889" lon="133.3405438888889">
<ele>29</ele>
</trkpt>
<trkpt lat="35.361423055555555" lon="133.33984388888888">
<ele>29</ele>
</trkpt>
<trkpt lat="35.36123111111111" lon="133.33940611111112">
<ele>28</ele>
</trkpt>
<trkpt lat="35.36060611111111" lon="133.3380688888889">
<ele>31</ele>
</trkpt>
<trkpt lat="35.36053111111111" lon="133.33755694444446">
<ele>31</ele>
</trkpt>
<trkpt lat="35.36038888888889" lon="133.33665694444446">
<ele>31</ele>
</trkpt>
<trkpt lat="35.36023888888889" lon="133.33625694444444">
<ele>31</ele>
</trkpt>
<trkpt lat="35.360146944444445" lon="133.33605694444444">
<ele>31</ele>
</trkpt>
<trkpt lat="35.36002194444445" lon="133.3359188888889">
<ele>31</ele>
</trkpt>
<trkpt lat="35.359856111111114" lon="133.3357938888889">
<ele>31</ele>
</trkpt>
<trkpt lat="35.35968111111111" lon="133.33573194444443">
<ele>31</ele>
</trkpt>
<trkpt lat="35.35941" lon="133.3356388888889">
<ele>32</ele>
</trkpt>
<trkpt lat="35.35941" lon="133.33563805555556">
<ele>32</ele>
</trkpt>
<trkpt lat="35.35917194444445" lon="133.33555694444445">
<ele>33</ele>
</trkpt>
<trkpt lat="35.35897305555556" lon="133.3354688888889">
<ele>32</ele>
</trkpt>
<trkpt lat="35.358806111111114" lon="133.33529388888888">
<ele>32</ele>
</trkpt>
<trkpt lat="35.358381111111115" lon="133.3347688888889">
<ele>31</ele>
</trkpt>
<trkpt lat="35.35769805555555" lon="133.33393194444446">
<ele>29</ele>
</trkpt>
<trkpt lat="35.35703111111111" lon="133.33328194444445">
<ele>29</ele>
</trkpt>
<trkpt lat="35.356898055555554" lon="133.33312">
<ele>29</ele>
</trkpt>
<trkpt lat="35.35661388888889" lon="133.332745">
<ele>29</ele>
</trkpt>
<trkpt lat="35.356563888888886" lon="133.33265694444444">
<ele>29</ele>
</trkpt>
<trkpt lat="35.35618888888889" lon="133.33178194444446">
<ele>29</ele>
</trkpt>
<trkpt lat="35.35616388888889" lon="133.33170694444445">
<ele>29</ele>
</trkpt>
<trkpt lat="35.356135" lon="133.33162305555555">
<ele>29</ele>
</trkpt>
<trkpt lat="35.356135" lon="133.33162305555555">
<ele>29</ele>
</trkpt>
<trkpt lat="35.356098055555556" lon="133.33152">
<ele>29</ele>
</trkpt>
<trkpt lat="35.35543111111111" lon="133.331045">
<ele>28</ele>
</trkpt>
<trkpt lat="35.35373888888889" lon="133.33022">
<ele>29</ele>
</trkpt>
<trkpt lat="35.352473055555556" lon="133.32960805555555">
<ele>29</ele>
</trkpt>
<trkpt lat="35.35188111111111" lon="133.329095">
<ele>29</ele>
</trkpt>
<trkpt lat="35.35167305555556" lon="133.32880805555556">
<ele>29</ele>
</trkpt>
<trkpt lat="35.351258055555554" lon="133.32812305555555">
<ele>29</ele>
</trkpt>
<trkpt lat="35.351258055555554" lon="133.32812305555555">
<ele>29</ele>
</trkpt>
<trkpt lat="35.35109" lon="133.327845">
<ele>29</ele>
</trkpt>
<trkpt lat="35.35095611111111" lon="133.32768305555555">
<ele>29</ele>
</trkpt>
<trkpt lat="35.350723055555555" lon="133.32735805555555">
<ele>29</ele>
</trkpt>
<trkpt lat="35.35068694444445" lon="133.3273438888889">
<ele>29</ele>
</trkpt>
<trkpt lat="35.35068694444445" lon="133.3273438888889">
<ele>29</ele>
</trkpt>
<trkpt lat="35.34869805555556" lon="133.32659611111112">
<ele>29</ele>
</trkpt>
<trkpt lat="35.348481944444444" lon="133.3264961111111">
<ele>29</ele>
</trkpt>
<trkpt lat="35.34842694444445" lon="133.3264761111111">
<ele>29</ele>
</trkpt>
<trkpt lat="35.34842694444445" lon="133.3264761111111">
<ele>29</ele>
</trkpt>
<trkpt lat="35.347431944444445" lon="133.32612111111112">
<ele>29</ele>
</trkpt>
<trkpt lat="35.34614" lon="133.32565805555555">
<ele>30</ele>
</trkpt>
<trkpt lat="35.34587888888889" lon="133.325565">
<ele>30</ele>
</trkpt>
<trkpt lat="35.34587888888889" lon="133.325565">
<ele>30</ele>
</trkpt>
<trkpt lat="35.345756944444446" lon="133.3255211111111">
<ele>31</ele>
</trkpt>
<trkpt lat="35.34549" lon="133.32548305555557">
<ele>31</ele>
</trkpt>
<trkpt lat="35.34534" lon="133.3254711111111">
<ele>31</ele>
</trkpt>
<trkpt lat="35.34520694444444" lon="133.3254711111111">
<ele>31</ele>
</trkpt>
<trkpt lat="35.34502388888889" lon="133.32548305555557">
<ele>31</ele>
</trkpt>
<trkpt lat="35.344881944444445" lon="133.32550805555556">
<ele>32</ele>
</trkpt>
<trkpt lat="35.34373194444444" lon="133.3260711111111">
<ele>33</ele>
</trkpt>
<trkpt lat="35.34339" lon="133.32624611111112">
<ele>34</ele>
</trkpt>
<trkpt lat="35.342956944444445" lon="133.32647111111112">
<ele>35</ele>
</trkpt>
<trkpt lat="35.34231611111111" lon="133.32682111111112">
<ele>37</ele>
</trkpt>
<trkpt lat="35.342315" lon="133.32682111111112">
<ele>37</ele>
</trkpt>
<trkpt lat="35.342315" lon="133.32682111111112">
<ele>37</ele>
</trkpt>
<trkpt lat="35.34199888888889" lon="133.32698305555556">
<ele>37</ele>
</trkpt>
<trkpt lat="35.341498888888886" lon="133.32723305555555">
<ele>39</ele>
</trkpt>
<trkpt lat="35.34139111111111" lon="133.32728305555557">
<ele>39</ele>
</trkpt>
<trkpt lat="35.34124888888889" lon="133.3273211111111">
<ele>39</ele>
</trkpt>
<trkpt lat="35.34104888888889" lon="133.32733305555556">
<ele>39</ele>
</trkpt>
<trkpt lat="35.341" lon="133.3273388888889">
<ele>39</ele>
</trkpt>
    </trkseg>
  </trk>
</gpx>