<?xml version="1.0" encoding="UTF-8"?>
<gpx version="1.1"
     creator="KMLtoGPX"
     xmlns="http://www.topografix.com/GPX/1/1">
  <metadata>
    <name>Hiruzen Kogen Highland Course</name>
    <desc>ひるぜん高原 高原コース</desc>
    <bounds minlat="35.29147388888889" minlon="133.62928888888888" maxlat="35.306601111111114" maxlon="133.73143694444445"/>
  </metadata>
  <trk>
    <name>Hiruzen Kogen Highland Course</name>
    <trkseg>
<trkpt lat="35.29147388888889" lon="133.73143694444445">
<ele>417</ele>
</trkpt>
<trkpt lat="35.29147388888889" lon="133.73142388888888">
<ele>0</ele>
</trkpt>
<trkpt lat="35.291475" lon="133.73143694444445">
<ele>417</ele>
</trkpt>
<trkpt lat="35.291488055555554" lon="133.73143611111112">
<ele>417</ele>
</trkpt>
<trkpt lat="35.29165388888889" lon="133.73143611111112">
<ele>417</ele>
</trkpt>
<trkpt lat="35.29179611111111" lon="133.7313488888889">
<ele>417</ele>
</trkpt>
<trkpt lat="35.292028888888886" lon="133.73108611111113">
<ele>418</ele>
</trkpt>
<trkpt lat="35.29380388888889" lon="133.72997388888888">
<ele>419</ele>
</trkpt>
<trkpt lat="35.29457" lon="133.72953611111112">
<ele>421</ele>
</trkpt>
<trkpt lat="35.29481194444445" lon="133.72939888888888">
<ele>422</ele>
</trkpt>
<trkpt lat="35.294945" lon="133.7293488888889">
<ele>422</ele>
</trkpt>
<trkpt lat="35.29512888888889" lon="133.7293238888889">
<ele>423</ele>
</trkpt>
<trkpt lat="35.29523694444445" lon="133.7293488888889">
<ele>423</ele>
</trkpt>
<trkpt lat="35.29503694444445" lon="133.7282238888889">
<ele>424</ele>
</trkpt>
<trkpt lat="35.29512888888889" lon="133.72816194444445">
<ele>424</ele>
</trkpt>
<trkpt lat="35.29678694444444" lon="133.7272238888889">
<ele>430</ele>
</trkpt>
<trkpt lat="35.29695" lon="133.7270638888889">
<ele>430</ele>
</trkpt>
<trkpt lat="35.29695" lon="133.7270638888889">
<ele>430</ele>
</trkpt>
<trkpt lat="35.29700305555556" lon="133.72701194444446">
<ele>430</ele>
</trkpt>
<trkpt lat="35.297536111111114" lon="133.72631194444443">
<ele>434</ele>
</trkpt>
<trkpt lat="35.297803055555555" lon="133.7260488888889">
<ele>435</ele>
</trkpt>
<trkpt lat="35.29812" lon="133.72586194444443">
<ele>435</ele>
</trkpt>
<trkpt lat="35.299503055555554" lon="133.72513694444444">
<ele>438</ele>
</trkpt>
<trkpt lat="35.30028611111111" lon="133.72476805555556">
<ele>439</ele>
</trkpt>
<trkpt lat="35.30028611111111" lon="133.72476805555556">
<ele>439</ele>
</trkpt>
<trkpt lat="35.300353055555554" lon="133.72473694444443">
<ele>439</ele>
</trkpt>
<trkpt lat="35.300243888888886" lon="133.7240238888889">
<ele>444</ele>
</trkpt>
<trkpt lat="35.30021111111111" lon="133.7237738888889">
<ele>443</ele>
</trkpt>
<trkpt lat="35.30021888888889" lon="133.72353694444445">
<ele>443</ele>
</trkpt>
<trkpt lat="35.30026111111111" lon="133.72323694444444">
<ele>444</ele>
</trkpt>
<trkpt lat="35.30031888888889" lon="133.72296194444445">
<ele>443</ele>
</trkpt>
<trkpt lat="35.30095305555555" lon="133.7204">
<ele>441</ele>
</trkpt>
<trkpt lat="35.30108611111111" lon="133.71998805555555">
<ele>441</ele>
</trkpt>
<trkpt lat="35.301161111111114" lon="133.71978694444445">
<ele>441</ele>
</trkpt>
<trkpt lat="35.30149388888889" lon="133.71891305555556">
<ele>441</ele>
</trkpt>
<trkpt lat="35.301518888888886" lon="133.71881305555556">
<ele>440</ele>
</trkpt>
<trkpt lat="35.30153611111111" lon="133.7187">
<ele>440</ele>
</trkpt>
<trkpt lat="35.30153888888889" lon="133.7186561111111">
<ele>440</ele>
</trkpt>
<trkpt lat="35.30153888888889" lon="133.7186561111111">
<ele>440</ele>
</trkpt>
<trkpt lat="35.30154388888889" lon="133.71858694444444">
<ele>440</ele>
</trkpt>
<trkpt lat="35.30152694444445" lon="133.71848694444444">
<ele>440</ele>
</trkpt>
<trkpt lat="35.30144388888889" lon="133.71826305555555">
<ele>440</ele>
</trkpt>
<trkpt lat="35.30078611111111" lon="133.71708805555556">
<ele>441</ele>
</trkpt>
<trkpt lat="35.30061888888889" lon="133.7168">
<ele>440</ele>
</trkpt>
<trkpt lat="35.30054388888889" lon="133.71663805555556">
<ele>440</ele>
</trkpt>
<trkpt lat="35.30048611111111" lon="133.716475">
<ele>440</ele>
</trkpt>
<trkpt lat="35.30011888888889" lon="133.7148511111111">
<ele>444</ele>
</trkpt>
<trkpt lat="35.299776944444446" lon="133.7134761111111">
<ele>443</ele>
</trkpt>
<trkpt lat="35.29961111111111" lon="133.7127761111111">
<ele>444</ele>
</trkpt>
<trkpt lat="35.2995" lon="133.7123288888889">
<ele>445</ele>
</trkpt>
<trkpt lat="35.2995" lon="133.7123288888889">
<ele>445</ele>
</trkpt>
<trkpt lat="35.29928611111111" lon="133.71146305555556">
<ele>447</ele>
</trkpt>
<trkpt lat="35.29856111111111" lon="133.70880111111111">
<ele>453</ele>
</trkpt>
<trkpt lat="35.29828611111111" lon="133.7077261111111">
<ele>454</ele>
</trkpt>
<trkpt lat="35.29779388888889" lon="133.7057888888889">
<ele>455</ele>
</trkpt>
<trkpt lat="35.29752694444444" lon="133.70452694444444">
<ele>460</ele>
</trkpt>
<trkpt lat="35.29708611111111" lon="133.70278888888888">
<ele>460</ele>
</trkpt>
<trkpt lat="35.297018888888886" lon="133.70243888888888">
<ele>457</ele>
</trkpt>
<trkpt lat="35.29698611111111" lon="133.7021388888889">
<ele>455</ele>
</trkpt>
<trkpt lat="35.29696888888889" lon="133.70185194444446">
<ele>454</ele>
</trkpt>
<trkpt lat="35.29696388888889" lon="133.70172194444444">
<ele>454</ele>
</trkpt>
<trkpt lat="35.29696388888889" lon="133.70172194444444">
<ele>454</ele>
</trkpt>
<trkpt lat="35.296926944444444" lon="133.70062694444445">
<ele>454</ele>
</trkpt>
<trkpt lat="35.29686" lon="133.69884">
<ele>468</ele>
</trkpt>
<trkpt lat="35.296835" lon="133.698215">
<ele>468</ele>
</trkpt>
<trkpt lat="35.296835" lon="133.69814">
<ele>468</ele>
</trkpt>
<trkpt lat="35.296835" lon="133.697665">
<ele>473</ele>
</trkpt>
<trkpt lat="35.29685194444444" lon="133.697315">
<ele>475</ele>
</trkpt>
<trkpt lat="35.29689388888889" lon="133.697015">
<ele>477</ele>
</trkpt>
<trkpt lat="35.296976944444445" lon="133.696665">
<ele>480</ele>
</trkpt>
<trkpt lat="35.29707694444444" lon="133.696365">
<ele>483</ele>
</trkpt>
<trkpt lat="35.29721" lon="133.69605305555555">
<ele>486</ele>
</trkpt>
<trkpt lat="35.29731" lon="133.695865">
<ele>488</ele>
</trkpt>
<trkpt lat="35.297468888888886" lon="133.695615">
<ele>489</ele>
</trkpt>
<trkpt lat="35.29752694444444" lon="133.69552805555554">
<ele>490</ele>
</trkpt>
<trkpt lat="35.29775194444444" lon="133.69524">
<ele>491</ele>
</trkpt>
<trkpt lat="35.297918055555556" lon="133.69505305555555">
<ele>493</ele>
</trkpt>
<trkpt lat="35.298276944444446" lon="133.69472805555554">
<ele>495</ele>
</trkpt>
<trkpt lat="35.29846805555555" lon="133.694515">
<ele>496</ele>
</trkpt>
<trkpt lat="35.29866" lon="133.69432805555556">
<ele>496</ele>
</trkpt>
<trkpt lat="35.298901944444445" lon="133.69407805555556">
<ele>498</ele>
</trkpt>
<trkpt lat="35.29906" lon="133.69391611111112">
<ele>498</ele>
</trkpt>
<trkpt lat="35.29917694444445" lon="133.69377805555555">
<ele>499</ele>
</trkpt>
<trkpt lat="35.29927694444444" lon="133.69357805555555">
<ele>498</ele>
</trkpt>
<trkpt lat="35.299335" lon="133.69330305555556">
<ele>498</ele>
</trkpt>
<trkpt lat="35.29936" lon="133.69314111111112">
<ele>498</ele>
</trkpt>
<trkpt lat="35.299351944444446" lon="133.69296888888888">
<ele>498</ele>
</trkpt>
<trkpt lat="35.299351944444446" lon="133.69296888888888">
<ele>498</ele>
</trkpt>
<trkpt lat="35.299351944444446" lon="133.6929661111111">
<ele>498</ele>
</trkpt>
<trkpt lat="35.299326944444445" lon="133.6928161111111">
<ele>498</ele>
</trkpt>
<trkpt lat="35.29925194444444" lon="133.69250305555556">
<ele>498</ele>
</trkpt>
<trkpt lat="35.299185" lon="133.69224111111112">
<ele>498</ele>
</trkpt>
<trkpt lat="35.29916" lon="133.69215305555556">
<ele>499</ele>
</trkpt>
<trkpt lat="35.299101944444445" lon="133.69190305555554">
<ele>499</ele>
</trkpt>
<trkpt lat="35.298968055555555" lon="133.69141611111112">
<ele>498</ele>
</trkpt>
<trkpt lat="35.29885194444444" lon="133.6909411111111">
<ele>496</ele>
</trkpt>
<trkpt lat="35.29876" lon="133.6905911111111">
<ele>494</ele>
</trkpt>
<trkpt lat="35.29864305555556" lon="133.6901161111111">
<ele>491</ele>
</trkpt>
<trkpt lat="35.29861" lon="133.68996611111112">
<ele>490</ele>
</trkpt>
<trkpt lat="35.298568055555556" lon="133.68977805555556">
<ele>489</ele>
</trkpt>
<trkpt lat="35.298485" lon="133.68941611111111">
<ele>486</ele>
</trkpt>
<trkpt lat="35.29841" lon="133.68902805555555">
<ele>483</ele>
</trkpt>
<trkpt lat="35.298235" lon="133.68802888888888">
<ele>481</ele>
</trkpt>
<trkpt lat="35.29816" lon="133.6876538888889">
<ele>481</ele>
</trkpt>
<trkpt lat="35.29806" lon="133.6871661111111">
<ele>481</ele>
</trkpt>
<trkpt lat="35.298001944444444" lon="133.68701611111112">
<ele>480</ele>
</trkpt>
<trkpt lat="35.29795611111111" lon="133.68693305555556">
<ele>482</ele>
</trkpt>
<trkpt lat="35.29795611111111" lon="133.68693305555556">
<ele>482</ele>
</trkpt>
<trkpt lat="35.29792694444444" lon="133.68687888888888">
<ele>483</ele>
</trkpt>
<trkpt lat="35.29775194444444" lon="133.6868161111111">
<ele>482</ele>
</trkpt>
<trkpt lat="35.29691888888889" lon="133.6869411111111">
<ele>487</ele>
</trkpt>
<trkpt lat="35.29661888888889" lon="133.68690388888888">
<ele>484</ele>
</trkpt>
<trkpt lat="35.29644388888889" lon="133.6868288888889">
<ele>484</ele>
</trkpt>
<trkpt lat="35.29643305555555" lon="133.68682">
<ele>484</ele>
</trkpt>
<trkpt lat="35.29643305555555" lon="133.68682">
<ele>484</ele>
</trkpt>
<trkpt lat="35.29631888888889" lon="133.6867288888889">
<ele>484</ele>
</trkpt>
<trkpt lat="35.29626888888889" lon="133.68667888888888">
<ele>484</ele>
</trkpt>
<trkpt lat="35.29611888888889" lon="133.68646611111112">
<ele>484</ele>
</trkpt>
<trkpt lat="35.29601" lon="133.68621611111112">
<ele>484</ele>
</trkpt>
<trkpt lat="35.29596" lon="133.68600388888888">
<ele>484</ele>
</trkpt>
<trkpt lat="35.295968888888886" lon="133.68566611111112">
<ele>483</ele>
</trkpt>
<trkpt lat="35.29599388888889" lon="133.6853788888889">
<ele>483</ele>
</trkpt>
<trkpt lat="35.29602694444444" lon="133.6850161111111">
<ele>483</ele>
</trkpt>
<trkpt lat="35.29606" lon="133.6847038888889">
<ele>485</ele>
</trkpt>
<trkpt lat="35.296085" lon="133.6844788888889">
<ele>485</ele>
</trkpt>
<trkpt lat="35.296101944444445" lon="133.68431611111112">
<ele>485</ele>
</trkpt>
<trkpt lat="35.29611888888889" lon="133.6841038888889">
<ele>488</ele>
</trkpt>
<trkpt lat="35.296126944444445" lon="133.68369194444443">
<ele>488</ele>
</trkpt>
<trkpt lat="35.29611" lon="133.68351694444445">
<ele>486</ele>
</trkpt>
<trkpt lat="35.29606" lon="133.68317888888888">
<ele>484</ele>
</trkpt>
<trkpt lat="35.29602694444444" lon="133.68302888888888">
<ele>484</ele>
</trkpt>
<trkpt lat="35.295968888888886" lon="133.68274194444444">
<ele>483</ele>
</trkpt>
<trkpt lat="35.29582694444444" lon="133.68224194444446">
<ele>483</ele>
</trkpt>
<trkpt lat="35.295743888888886" lon="133.68192888888888">
<ele>484</ele>
</trkpt>
<trkpt lat="35.295701944444446" lon="133.68176694444443">
<ele>485</ele>
</trkpt>
<trkpt lat="35.29559388888889" lon="133.68132888888888">
<ele>487</ele>
</trkpt>
<trkpt lat="35.295385" lon="133.6804788888889">
<ele>489</ele>
</trkpt>
<trkpt lat="35.29496" lon="133.6791538888889">
<ele>496</ele>
</trkpt>
<trkpt lat="35.294985" lon="133.67895388888888">
<ele>497</ele>
</trkpt>
<trkpt lat="35.29504388888889" lon="133.67881805555555">
<ele>498</ele>
</trkpt>
<trkpt lat="35.29504388888889" lon="133.67881805555555">
<ele>498</ele>
</trkpt>
<trkpt lat="35.29506" lon="133.6787788888889">
<ele>498</ele>
</trkpt>
<trkpt lat="35.29602694444444" lon="133.67716694444445">
<ele>505</ele>
</trkpt>
<trkpt lat="35.29616" lon="133.67688">
<ele>505</ele>
</trkpt>
<trkpt lat="35.29617694444445" lon="133.676815">
<ele>505</ele>
</trkpt>
<trkpt lat="35.29617694444445" lon="133.676815">
<ele>505</ele>
</trkpt>
<trkpt lat="35.296235" lon="133.67659194444445">
<ele>505</ele>
</trkpt>
<trkpt lat="35.296393055555555" lon="133.67571694444445">
<ele>508</ele>
</trkpt>
<trkpt lat="35.296418055555556" lon="133.67559194444445">
<ele>509</ele>
</trkpt>
<trkpt lat="35.296501944444444" lon="133.67478">
<ele>512</ele>
</trkpt>
<trkpt lat="35.296501944444444" lon="133.67478">
<ele>512</ele>
</trkpt>
<trkpt lat="35.296501944444444" lon="133.674405">
<ele>513</ele>
</trkpt>
<trkpt lat="35.29631805555555" lon="133.67349194444444">
<ele>518</ele>
</trkpt>
<trkpt lat="35.296185" lon="133.67284305555555">
<ele>517</ele>
</trkpt>
<trkpt lat="35.295785" lon="133.67098">
<ele>518</ele>
</trkpt>
<trkpt lat="35.295726944444446" lon="133.67066805555555">
<ele>517</ele>
</trkpt>
<trkpt lat="35.29526" lon="133.66849305555556">
<ele>513</ele>
</trkpt>
<trkpt lat="35.29519305555556" lon="133.66816805555555">
<ele>514</ele>
</trkpt>
<trkpt lat="35.294868055555554" lon="133.6665561111111">
<ele>510</ele>
</trkpt>
<trkpt lat="35.294651944444446" lon="133.6655561111111">
<ele>504</ele>
</trkpt>
<trkpt lat="35.29434305555556" lon="133.66409388888889">
<ele>500</ele>
</trkpt>
<trkpt lat="35.29430194444444" lon="133.66388111111112">
<ele>497</ele>
</trkpt>
<trkpt lat="35.293976944444445" lon="133.6630811111111">
<ele>493</ele>
</trkpt>
<trkpt lat="35.29395805555556" lon="133.66286888888888">
<ele>494</ele>
</trkpt>
<trkpt lat="35.29395805555556" lon="133.66286888888888">
<ele>494</ele>
</trkpt>
<trkpt lat="35.293951944444444" lon="133.6627938888889">
<ele>495</ele>
</trkpt>
<trkpt lat="35.294001944444446" lon="133.6623688888889">
<ele>498</ele>
</trkpt>
<trkpt lat="35.29416" lon="133.6619311111111">
<ele>502</ele>
</trkpt>
<trkpt lat="35.29445194444445" lon="133.66129388888888">
<ele>508</ele>
</trkpt>
<trkpt lat="35.295251944444445" lon="133.65969388888888">
<ele>518</ele>
</trkpt>
<trkpt lat="35.29604305555556" lon="133.65803194444445">
<ele>520</ele>
</trkpt>
<trkpt lat="35.296168055555555" lon="133.65778194444445">
<ele>520</ele>
</trkpt>
<trkpt lat="35.296935" lon="133.65615694444443">
<ele>523</ele>
</trkpt>
<trkpt lat="35.297035" lon="133.6559188888889">
<ele>524</ele>
</trkpt>
<trkpt lat="35.29712611111111" lon="133.6557938888889">
<ele>524</ele>
</trkpt>
<trkpt lat="35.29736194444445" lon="133.65561805555555">
<ele>523</ele>
</trkpt>
<trkpt lat="35.29736194444445" lon="133.65561805555555">
<ele>523</ele>
</trkpt>
<trkpt lat="35.29777611111111" lon="133.65530694444445">
<ele>521</ele>
</trkpt>
<trkpt lat="35.299143055555554" lon="133.6549938888889">
<ele>527</ele>
</trkpt>
<trkpt lat="35.29928388888889" lon="133.65490694444443">
<ele>526</ele>
</trkpt>
<trkpt lat="35.29946805555556" lon="133.6546938888889">
<ele>524</ele>
</trkpt>
<trkpt lat="35.29960111111111" lon="133.65443194444444">
<ele>523</ele>
</trkpt>
<trkpt lat="35.299661944444445" lon="133.65406194444444">
<ele>522</ele>
</trkpt>
<trkpt lat="35.299661944444445" lon="133.6540611111111">
<ele>522</ele>
</trkpt>
<trkpt lat="35.29970111111111" lon="133.65382">
<ele>521</ele>
</trkpt>
<trkpt lat="35.29971805555556" lon="133.65350694444444">
<ele>520</ele>
</trkpt>
<trkpt lat="35.29962611111111" lon="133.65313194444445">
<ele>517</ele>
</trkpt>
<trkpt lat="35.299393055555555" lon="133.652695">
<ele>514</ele>
</trkpt>
<trkpt lat="35.299126111111114" lon="133.652245">
<ele>511</ele>
</trkpt>
<trkpt lat="35.298718055555554" lon="133.65177">
<ele>508</ele>
</trkpt>
<trkpt lat="35.29835111111111" lon="133.65145694444445">
<ele>508</ele>
</trkpt>
<trkpt lat="35.29796805555556" lon="133.65122">
<ele>508</ele>
</trkpt>
<trkpt lat="35.29785888888889" lon="133.65112">
<ele>507</ele>
</trkpt>
<trkpt lat="35.297826111111114" lon="133.65098305555554">
<ele>508</ele>
</trkpt>
<trkpt lat="35.29783888888889" lon="133.650635">
<ele>508</ele>
</trkpt>
<trkpt lat="35.29783888888889" lon="133.650635">
<ele>508</ele>
</trkpt>
<trkpt lat="35.29785888888889" lon="133.65010805555556">
<ele>508</ele>
</trkpt>
<trkpt lat="35.29788388888889" lon="133.64998305555557">
<ele>508</ele>
</trkpt>
<trkpt lat="35.29796805555556" lon="133.64977">
<ele>508</ele>
</trkpt>
<trkpt lat="35.29807611111111" lon="133.649595">
<ele>508</ele>
</trkpt>
<trkpt lat="35.29841805555556" lon="133.64920805555556">
<ele>508</ele>
</trkpt>
<trkpt lat="35.29860111111111" lon="133.64900805555556">
<ele>508</ele>
</trkpt>
<trkpt lat="35.29888388888889" lon="133.64873305555557">
<ele>507</ele>
</trkpt>
<trkpt lat="35.299258888888886" lon="133.64832">
<ele>509</ele>
</trkpt>
<trkpt lat="35.29946694444445" lon="133.64810805555555">
<ele>510</ele>
</trkpt>
<trkpt lat="35.299618055555555" lon="133.64793305555557">
<ele>510</ele>
</trkpt>
<trkpt lat="35.299751111111114" lon="133.64772">
<ele>510</ele>
</trkpt>
<trkpt lat="35.29979" lon="133.64761305555555">
<ele>510</ele>
</trkpt>
<trkpt lat="35.29979" lon="133.64761305555555">
<ele>510</ele>
</trkpt>
<trkpt lat="35.299883888888886" lon="133.64735805555554">
<ele>511</ele>
</trkpt>
<trkpt lat="35.30000111111111" lon="133.64695805555556">
<ele>513</ele>
</trkpt>
<trkpt lat="35.300091944444446" lon="133.64648305555556">
<ele>516</ele>
</trkpt>
<trkpt lat="35.300108888888886" lon="133.64610805555554">
<ele>518</ele>
</trkpt>
<trkpt lat="35.30008388888889" lon="133.64600194444444">
<ele>518</ele>
</trkpt>
<trkpt lat="35.30008388888889" lon="133.6460011111111">
<ele>518</ele>
</trkpt>
<trkpt lat="35.300018055555554" lon="133.6457211111111">
<ele>520</ele>
</trkpt>
<trkpt lat="35.29987611111111" lon="133.6454711111111">
<ele>524</ele>
</trkpt>
<trkpt lat="35.29967611111111" lon="133.64520805555554">
<ele>528</ele>
</trkpt>
<trkpt lat="35.299458888888886" lon="133.64485805555555">
<ele>530</ele>
</trkpt>
<trkpt lat="35.29935888888889" lon="133.64453305555554">
<ele>532</ele>
</trkpt>
<trkpt lat="35.29930111111111" lon="133.64420805555557">
<ele>533</ele>
</trkpt>
<trkpt lat="35.29931805555555" lon="133.64400805555556">
<ele>533</ele>
</trkpt>
<trkpt lat="35.29935611111111" lon="133.6438761111111">
<ele>533</ele>
</trkpt>
<trkpt lat="35.29935611111111" lon="133.6438761111111">
<ele>533</ele>
</trkpt>
<trkpt lat="35.29942611111111" lon="133.64363305555557">
<ele>534</ele>
</trkpt>
<trkpt lat="35.29965111111111" lon="133.64325805555555">
<ele>534</ele>
</trkpt>
<trkpt lat="35.30003388888889" lon="133.6428461111111">
<ele>536</ele>
</trkpt>
<trkpt lat="35.30144194444444" lon="133.64160805555557">
<ele>540</ele>
</trkpt>
<trkpt lat="35.30190694444445" lon="133.64125388888888">
<ele>541</ele>
</trkpt>
<trkpt lat="35.30190694444445" lon="133.64125388888888">
<ele>541</ele>
</trkpt>
<trkpt lat="35.302016944444446" lon="133.6411711111111">
<ele>542</ele>
</trkpt>
<trkpt lat="35.30248388888889" lon="133.64089611111112">
<ele>543</ele>
</trkpt>
<trkpt lat="35.302975" lon="133.64073305555556">
<ele>545</ele>
</trkpt>
<trkpt lat="35.30589194444445" lon="133.63980805555556">
<ele>537</ele>
</trkpt>
<trkpt lat="35.30615" lon="133.63965805555554">
<ele>534</ele>
</trkpt>
<trkpt lat="35.30634194444445" lon="133.6394461111111">
<ele>534</ele>
</trkpt>
<trkpt lat="35.306441944444444" lon="133.6392461111111">
<ele>531</ele>
</trkpt>
<trkpt lat="35.306601111111114" lon="133.639305">
<ele>533</ele>
</trkpt>
<trkpt lat="35.306601111111114" lon="133.639305">
<ele>533</ele>
</trkpt>
<trkpt lat="35.306441944444444" lon="133.6392461111111">
<ele>531</ele>
</trkpt>
<trkpt lat="35.306516944444446" lon="133.63908305555555">
<ele>530</ele>
</trkpt>
<trkpt lat="35.3066" lon="133.63872111111112">
<ele>530</ele>
</trkpt>
<trkpt lat="35.306575" lon="133.63839611111112">
<ele>528</ele>
</trkpt>
<trkpt lat="35.306425" lon="133.6381088888889">
<ele>528</ele>
</trkpt>
<trkpt lat="35.30540805555555" lon="133.6369961111111">
<ele>527</ele>
</trkpt>
<trkpt lat="35.30475" lon="133.6364338888889">
<ele>526</ele>
</trkpt>
<trkpt lat="35.3046" lon="133.63614611111112">
<ele>527</ele>
</trkpt>
<trkpt lat="35.304566944444446" lon="133.63578388888888">
<ele>529</ele>
</trkpt>
<trkpt lat="35.30469194444444" lon="133.63440888888888">
<ele>528</ele>
</trkpt>
<trkpt lat="35.3047" lon="133.63397111111112">
<ele>532</ele>
</trkpt>
<trkpt lat="35.304608055555555" lon="133.6336588888889">
<ele>533</ele>
</trkpt>
<trkpt lat="35.3046" lon="133.63364611111112">
<ele>533</ele>
</trkpt>
<trkpt lat="35.3046" lon="133.63364611111112">
<ele>533</ele>
</trkpt>
<trkpt lat="35.304433055555556" lon="133.63339611111113">
<ele>536</ele>
</trkpt>
<trkpt lat="35.303325" lon="133.63248388888888">
<ele>530</ele>
</trkpt>
<trkpt lat="35.30305" lon="133.63229694444445">
<ele>537</ele>
</trkpt>
<trkpt lat="35.30274194444444" lon="133.63219694444444">
<ele>536</ele>
</trkpt>
<trkpt lat="35.302" lon="133.63204694444445">
<ele>542</ele>
</trkpt>
<trkpt lat="35.301175" lon="133.63184694444445">
<ele>547</ele>
</trkpt>
<trkpt lat="35.30085" lon="133.63182194444445">
<ele>546</ele>
</trkpt>
<trkpt lat="35.30055" lon="133.6318588888889">
<ele>547</ele>
</trkpt>
<trkpt lat="35.30015888888889" lon="133.6320088888889">
<ele>544</ele>
</trkpt>
<trkpt lat="35.29991805555556" lon="133.63216305555557">
<ele>543</ele>
</trkpt>
<trkpt lat="35.29991805555556" lon="133.63216305555557">
<ele>543</ele>
</trkpt>
<trkpt lat="35.299416944444445" lon="133.63248388888888">
<ele>541</ele>
</trkpt>
<trkpt lat="35.298966944444444" lon="133.6326588888889">
<ele>542</ele>
</trkpt>
<trkpt lat="35.29875888888889" lon="133.63269694444443">
<ele>541</ele>
</trkpt>
<trkpt lat="35.298566944444445" lon="133.63260888888888">
<ele>540</ele>
</trkpt>
<trkpt lat="35.29835111111111" lon="133.6323338888889">
<ele>537</ele>
</trkpt>
<trkpt lat="35.29845888888889" lon="133.63224694444443">
<ele>538</ele>
</trkpt>
<trkpt lat="35.29853388888889" lon="133.6321911111111">
<ele>537</ele>
</trkpt>
<trkpt lat="35.29853388888889" lon="133.6321911111111">
<ele>537</ele>
</trkpt>
<trkpt lat="35.298541944444445" lon="133.63218388888887">
<ele>537</ele>
</trkpt>
<trkpt lat="35.29858388888889" lon="133.63212194444444">
<ele>538</ele>
</trkpt>
<trkpt lat="35.29865888888889" lon="133.6320088888889">
<ele>538</ele>
</trkpt>
<trkpt lat="35.298966944444444" lon="133.63117194444445">
<ele>537</ele>
</trkpt>
<trkpt lat="35.29895111111111" lon="133.6309588888889">
<ele>536</ele>
</trkpt>
<trkpt lat="35.298608888888886" lon="133.6295338888889">
<ele>533</ele>
</trkpt>
<trkpt lat="35.298608888888886" lon="133.6293588888889">
<ele>532</ele>
</trkpt>
<trkpt lat="35.298628055555554" lon="133.62928888888888">
<ele>532</ele>
</trkpt>
    </trkseg>
  </trk>
</gpx>