<?xml version="1.0" encoding="UTF-8"?>
<gpx version="1.1"
     creator="KMLtoGPX"
     xmlns="http://www.topografix.com/GPX/1/1">
  <metadata>
    <name>Hiruzen Plateau Panorama Course</name>
    <desc>ひるぜん高原　パノラマコース</desc>
    <bounds minlat="35.267046666666666" minlon="133.6273325" maxlat="35.29858388888889" maxlon="133.73409083333334"/>
  </metadata>
  <trk>
    <name>Hiruzen Plateau Panorama Course</name>
    <trkseg>
<trkpt lat="35.29858388888889" lon="133.62933694444445">
<ele>532</ele>
</trkpt>
<trkpt lat="35.29837611111111" lon="133.6291588888889">
<ele>531</ele>
</trkpt>
<trkpt lat="35.298186944444446" lon="133.62907305555555">
<ele>532</ele>
</trkpt>
<trkpt lat="35.29822611111111" lon="133.62894666666668">
<ele>533</ele>
</trkpt>
<trkpt lat="35.297891666666665" lon="133.62910333333335">
<ele>533</ele>
</trkpt>
<trkpt lat="35.297557222222224" lon="133.62926027777777">
<ele>533</ele>
</trkpt>
<trkpt lat="35.2972225" lon="133.62941722222223">
<ele>533</ele>
</trkpt>
<trkpt lat="35.296888055555556" lon="133.6295738888889">
<ele>533</ele>
</trkpt>
<trkpt lat="35.29655361111111" lon="133.62973083333333">
<ele>537</ele>
</trkpt>
<trkpt lat="35.29621888888889" lon="133.62988777777778">
<ele>538</ele>
</trkpt>
<trkpt lat="35.29588444444445" lon="133.6300447222222">
<ele>537</ele>
</trkpt>
<trkpt lat="35.29555" lon="133.63020138888888">
<ele>536</ele>
</trkpt>
<trkpt lat="35.29521527777778" lon="133.63035833333333">
<ele>536</ele>
</trkpt>
<trkpt lat="35.29488083333333" lon="133.6305152777778">
<ele>536</ele>
</trkpt>
<trkpt lat="35.29454638888889" lon="133.63067194444446">
<ele>535</ele>
</trkpt>
<trkpt lat="35.29421166666667" lon="133.63082888888889">
<ele>534</ele>
</trkpt>
<trkpt lat="35.29387722222222" lon="133.63098583333334">
<ele>533</ele>
</trkpt>
<trkpt lat="35.29354277777778" lon="133.6311425">
<ele>532</ele>
</trkpt>
<trkpt lat="35.29320805555555" lon="133.63129944444444">
<ele>532</ele>
</trkpt>
<trkpt lat="35.29287361111111" lon="133.6314563888889">
<ele>532</ele>
</trkpt>
<trkpt lat="35.292539166666664" lon="133.63161333333332">
<ele>531</ele>
</trkpt>
<trkpt lat="35.292204444444444" lon="133.63177">
<ele>531</ele>
</trkpt>
<trkpt lat="35.29187" lon="133.63192694444444">
<ele>530</ele>
</trkpt>
<trkpt lat="35.29102555555556" lon="133.6322075">
<ele>536</ele>
</trkpt>
<trkpt lat="35.29008888888889" lon="133.63236">
<ele>524</ele>
</trkpt>
<trkpt lat="35.29008888888889" lon="133.63236">
<ele>524</ele>
</trkpt>
<trkpt lat="35.290038055555556" lon="133.63236805555556">
<ele>529</ele>
</trkpt>
<trkpt lat="35.28996305555555" lon="133.63236305555554">
<ele>528</ele>
</trkpt>
<trkpt lat="35.2891325" lon="133.63140277777777">
<ele>509</ele>
</trkpt>
<trkpt lat="35.2891325" lon="133.63140277777777">
<ele>509</ele>
</trkpt>
<trkpt lat="35.289206666666665" lon="133.63148805555556">
<ele>513</ele>
</trkpt>
<trkpt lat="35.29000638888889" lon="133.63079666666667">
<ele>504</ele>
</trkpt>
<trkpt lat="35.290885555555555" lon="133.6303352777778">
<ele>509</ele>
</trkpt>
<trkpt lat="35.29165666666667" lon="133.62998055555556">
<ele>507</ele>
</trkpt>
<trkpt lat="35.29165666666667" lon="133.62998055555556">
<ele>507</ele>
</trkpt>
<trkpt lat="35.292006666666666" lon="133.62982027777778">
<ele>510</ele>
</trkpt>
<trkpt lat="35.292516666666664" lon="133.62901027777778">
<ele>508</ele>
</trkpt>
<trkpt lat="35.29235555555555" lon="133.62892416666668">
<ele>507</ele>
</trkpt>
<trkpt lat="35.291556666666665" lon="133.62841416666666">
<ele>505</ele>
</trkpt>
<trkpt lat="35.29004416666667" lon="133.62833666666666">
<ele>494</ele>
</trkpt>
<trkpt lat="35.29004416666667" lon="133.62833666666666">
<ele>494</ele>
</trkpt>
<trkpt lat="35.2893625" lon="133.62830166666666">
<ele>500</ele>
</trkpt>
<trkpt lat="35.28728638888889" lon="133.62825916666668">
<ele>497</ele>
</trkpt>
<trkpt lat="35.28670666666667" lon="133.62786166666666">
<ele>494</ele>
</trkpt>
<trkpt lat="35.286723055555555" lon="133.62778666666668">
<ele>494</ele>
</trkpt>
<trkpt lat="35.28674916666667" lon="133.62777055555554">
<ele>509</ele>
</trkpt>
<trkpt lat="35.2864275" lon="133.6273325">
<ele>487</ele>
</trkpt>
<trkpt lat="35.2864275" lon="133.6273325">
<ele>487</ele>
</trkpt>
<trkpt lat="35.28646555555556" lon="133.62738416666667">
<ele>494</ele>
</trkpt>
<trkpt lat="35.28494166666667" lon="133.62813055555554">
<ele>485</ele>
</trkpt>
<trkpt lat="35.28472166666667" lon="133.62839305555556">
<ele>492</ele>
</trkpt>
<trkpt lat="35.28308555555556" lon="133.62970166666668">
<ele>488</ele>
</trkpt>
<trkpt lat="35.280924166666665" lon="133.63138666666666">
<ele>484</ele>
</trkpt>
<trkpt lat="35.28091777777778" lon="133.63144527777777">
<ele>477</ele>
</trkpt>
<trkpt lat="35.28091777777778" lon="133.63144527777777">
<ele>477</ele>
</trkpt>
<trkpt lat="35.28058055555555" lon="133.6346375">
<ele>481</ele>
</trkpt>
<trkpt lat="35.2806025" lon="133.6355063888889">
<ele>481</ele>
</trkpt>
<trkpt lat="35.280768055555555" lon="133.63588166666668">
<ele>486</ele>
</trkpt>
<trkpt lat="35.28073055555556" lon="133.63659">
<ele>477</ele>
</trkpt>
<trkpt lat="35.28068277777778" lon="133.63663305555556">
<ele>473</ele>
</trkpt>
<trkpt lat="35.280704166666666" lon="133.63642388888888">
<ele>479</ele>
</trkpt>
<trkpt lat="35.28069305555555" lon="133.636515">
<ele>480</ele>
</trkpt>
<trkpt lat="35.28055916666667" lon="133.63667055555555">
<ele>480</ele>
</trkpt>
<trkpt lat="35.280521666666665" lon="133.6367563888889">
<ele>481</ele>
</trkpt>
<trkpt lat="35.28042" lon="133.63688527777776">
<ele>477</ele>
</trkpt>
<trkpt lat="35.279914166666664" lon="133.63887055555554">
<ele>470</ele>
</trkpt>
<trkpt lat="35.279914166666664" lon="133.63887055555554">
<ele>470</ele>
</trkpt>
<trkpt lat="35.279964166666666" lon="133.63867666666667">
<ele>472</ele>
</trkpt>
<trkpt lat="35.279674166666666" lon="133.63941166666666">
<ele>476</ele>
</trkpt>
<trkpt lat="35.27880527777778" lon="133.64131055555555">
<ele>475</ele>
</trkpt>
<trkpt lat="35.27752805555556" lon="133.64418805555556">
<ele>460</ele>
</trkpt>
<trkpt lat="35.27752805555556" lon="133.64418805555556">
<ele>460</ele>
</trkpt>
<trkpt lat="35.277539166666664" lon="133.64416416666666">
<ele>471</ele>
</trkpt>
<trkpt lat="35.27690055555556" lon="133.64477055555557">
<ele>471</ele>
</trkpt>
<trkpt lat="35.276691666666665" lon="133.64471666666665">
<ele>471</ele>
</trkpt>
<trkpt lat="35.27646055555556" lon="133.64437916666665">
<ele>470</ele>
</trkpt>
<trkpt lat="35.27553805555556" lon="133.64368666666667">
<ele>471</ele>
</trkpt>
<trkpt lat="35.274497777777775" lon="133.64385305555555">
<ele>471</ele>
</trkpt>
<trkpt lat="35.27321027777778" lon="133.6438427777778">
<ele>474</ele>
</trkpt>
<trkpt lat="35.27231416666667" lon="133.64367638888888">
<ele>475</ele>
</trkpt>
<trkpt lat="35.27243027777778" lon="133.64375666666666">
<ele>469</ele>
</trkpt>
<trkpt lat="35.27243027777778" lon="133.64375666666666">
<ele>469</ele>
</trkpt>
<trkpt lat="35.2711075" lon="133.64283416666666">
<ele>478</ele>
</trkpt>
<trkpt lat="35.270361666666666" lon="133.64259277777776">
<ele>481</ele>
</trkpt>
<trkpt lat="35.27035055555555" lon="133.642695">
<ele>479</ele>
</trkpt>
<trkpt lat="35.27030805555555" lon="133.64282305555557">
<ele>481</ele>
</trkpt>
<trkpt lat="35.27022777777778" lon="133.64287166666668">
<ele>481</ele>
</trkpt>
<trkpt lat="35.27034555555556" lon="133.64296305555555">
<ele>481</ele>
</trkpt>
<trkpt lat="35.270157777777776" lon="133.64283916666668">
<ele>482</ele>
</trkpt>
<trkpt lat="35.270133055555554" lon="133.64376305555555">
<ele>476</ele>
</trkpt>
<trkpt lat="35.270133055555554" lon="133.64376305555555">
<ele>476</ele>
</trkpt>
<trkpt lat="35.27012555555556" lon="133.64406277777778">
<ele>482</ele>
</trkpt>
<trkpt lat="35.27061388888889" lon="133.6449477777778">
<ele>488</ele>
</trkpt>
<trkpt lat="35.27079055555556" lon="133.64528555555555">
<ele>497</ele>
</trkpt>
<trkpt lat="35.27082305555555" lon="133.6453663888889">
<ele>491</ele>
</trkpt>
<trkpt lat="35.270892777777775" lon="133.64588138888888">
<ele>496</ele>
</trkpt>
<trkpt lat="35.27081777777778" lon="133.64650305555554">
<ele>499</ele>
</trkpt>
<trkpt lat="35.27075305555555" lon="133.64705055555555">
<ele>502</ele>
</trkpt>
<trkpt lat="35.270741666666666" lon="133.64741027777777">
<ele>506</ele>
</trkpt>
<trkpt lat="35.27097805555555" lon="133.64779055555556">
<ele>507</ele>
</trkpt>
<trkpt lat="35.271295277777774" lon="133.64811277777778">
<ele>508</ele>
</trkpt>
<trkpt lat="35.271385277777775" lon="133.64843638888888">
<ele>512</ele>
</trkpt>
<trkpt lat="35.271385277777775" lon="133.64843638888888">
<ele>512</ele>
</trkpt>
<trkpt lat="35.27142388888889" lon="133.64857416666666">
<ele>513</ele>
</trkpt>
<trkpt lat="35.27198666666666" lon="133.65177666666668">
<ele>491</ele>
</trkpt>
<trkpt lat="35.272598055555555" lon="133.65478555555555">
<ele>473</ele>
</trkpt>
<trkpt lat="35.27241055555555" lon="133.65476416666667">
<ele>473</ele>
</trkpt>
<trkpt lat="35.27244805555556" lon="133.65474305555554">
<ele>473</ele>
</trkpt>
<trkpt lat="35.272485555555555" lon="133.65485555555554">
<ele>474</ele>
</trkpt>
<trkpt lat="35.27252305555555" lon="133.65475916666668">
<ele>474</ele>
</trkpt>
<trkpt lat="35.27249666666667" lon="133.65499555555556">
<ele>473</ele>
</trkpt>
<trkpt lat="35.27281305555555" lon="133.65714055555554">
<ele>467</ele>
</trkpt>
<trkpt lat="35.272980277777776" lon="133.65916666666666">
<ele>455</ele>
</trkpt>
<trkpt lat="35.272980277777776" lon="133.65916666666666">
<ele>455</ele>
</trkpt>
<trkpt lat="35.27299027777778" lon="133.65928666666667">
<ele>463</ele>
</trkpt>
<trkpt lat="35.27197638888889" lon="133.66007555555555">
<ele>467</ele>
</trkpt>
<trkpt lat="35.2726525" lon="133.66126055555554">
<ele>470</ele>
</trkpt>
<trkpt lat="35.27251277777778" lon="133.66091777777777">
<ele>467</ele>
</trkpt>
<trkpt lat="35.27236277777778" lon="133.6624575">
<ele>470</ele>
</trkpt>
<trkpt lat="35.27126805555555" lon="133.66460305555555">
<ele>471</ele>
</trkpt>
<trkpt lat="35.270093055555556" lon="133.66670055555556">
<ele>468</ele>
</trkpt>
<trkpt lat="35.26997277777778" lon="133.6670063888889">
<ele>461</ele>
</trkpt>
<trkpt lat="35.26997277777778" lon="133.6670063888889">
<ele>461</ele>
</trkpt>
<trkpt lat="35.2697825" lon="133.66748916666666">
<ele>465</ele>
</trkpt>
<trkpt lat="35.269305" lon="133.6684977777778">
<ele>467</ele>
</trkpt>
<trkpt lat="35.268253055555554" lon="133.67046055555556">
<ele>467</ele>
</trkpt>
<trkpt lat="35.26706277777778" lon="133.67244527777777">
<ele>458</ele>
</trkpt>
<trkpt lat="35.26706277777778" lon="133.67244527777777">
<ele>458</ele>
</trkpt>
<trkpt lat="35.267046666666666" lon="133.67247277777778">
<ele>465</ele>
</trkpt>
<trkpt lat="35.26776" lon="133.67441416666668">
<ele>463</ele>
</trkpt>
<trkpt lat="35.26954638888889" lon="133.67563777777778">
<ele>461</ele>
</trkpt>
<trkpt lat="35.270715555555554" lon="133.67757166666667">
<ele>450</ele>
</trkpt>
<trkpt lat="35.270715555555554" lon="133.67757166666667">
<ele>450</ele>
</trkpt>
<trkpt lat="35.271295555555554" lon="133.67863305555557">
<ele>449</ele>
</trkpt>
<trkpt lat="35.271295555555554" lon="133.67863305555557">
<ele>449</ele>
</trkpt>
<trkpt lat="35.273739444444445" lon="133.67880527777777">
<ele>439</ele>
</trkpt>
<trkpt lat="35.273739444444445" lon="133.67880527777777">
<ele>439</ele>
</trkpt>
<trkpt lat="35.27391166666666" lon="133.67927805555556">
<ele>437</ele>
</trkpt>
<trkpt lat="35.27391166666666" lon="133.67927805555556">
<ele>437</ele>
</trkpt>
<trkpt lat="35.27390166666667" lon="133.67927416666666">
<ele>446</ele>
</trkpt>
<trkpt lat="35.27512" lon="133.68139916666667">
<ele>445</ele>
</trkpt>
<trkpt lat="35.27511916666667" lon="133.68134805555556">
<ele>435</ele>
</trkpt>
<trkpt lat="35.27511916666667" lon="133.68134805555556">
<ele>435</ele>
</trkpt>
<trkpt lat="35.275151666666666" lon="133.68398416666668">
<ele>445</ele>
</trkpt>
<trkpt lat="35.274969166666665" lon="133.68438166666667">
<ele>443</ele>
</trkpt>
<trkpt lat="35.27462055555556" lon="133.68549305555555">
<ele>434</ele>
</trkpt>
<trkpt lat="35.27462055555556" lon="133.68549305555555">
<ele>434</ele>
</trkpt>
<trkpt lat="35.27410777777778" lon="133.68928666666667">
<ele>430</ele>
</trkpt>
<trkpt lat="35.27410777777778" lon="133.68928666666667">
<ele>430</ele>
</trkpt>
<trkpt lat="35.27558805555555" lon="133.69262388888887">
<ele>429</ele>
</trkpt>
<trkpt lat="35.27558805555555" lon="133.69262388888887">
<ele>429</ele>
</trkpt>
<trkpt lat="35.276201388888886" lon="133.69382555555555">
<ele>429</ele>
</trkpt>
<trkpt lat="35.276201388888886" lon="133.69382555555555">
<ele>429</ele>
</trkpt>
<trkpt lat="35.27770777777778" lon="133.69478055555555">
<ele>430</ele>
</trkpt>
<trkpt lat="35.27770777777778" lon="133.69478055555555">
<ele>430</ele>
</trkpt>
<trkpt lat="35.277769166666666" lon="133.69528416666665">
<ele>436</ele>
</trkpt>
<trkpt lat="35.277769166666666" lon="133.69528416666665">
<ele>436</ele>
</trkpt>
<trkpt lat="35.27858805555555" lon="133.69602166666667">
<ele>433</ele>
</trkpt>
<trkpt lat="35.27858805555555" lon="133.69602166666667">
<ele>433</ele>
</trkpt>
<trkpt lat="35.27856388888889" lon="133.69599555555556">
<ele>439</ele>
</trkpt>
<trkpt lat="35.280339166666664" lon="133.69681055555554">
<ele>439</ele>
</trkpt>
<trkpt lat="35.28171277777778" lon="133.69821055555556">
<ele>444</ele>
</trkpt>
<trkpt lat="35.28228277777778" lon="133.7001788888889">
<ele>438</ele>
</trkpt>
<trkpt lat="35.28228277777778" lon="133.7001788888889">
<ele>438</ele>
</trkpt>
<trkpt lat="35.28234055555556" lon="133.70037805555555">
<ele>441</ele>
</trkpt>
<trkpt lat="35.28378305555555" lon="133.7022452777778">
<ele>438</ele>
</trkpt>
<trkpt lat="35.285865" lon="133.70307666666668">
<ele>436</ele>
</trkpt>
<trkpt lat="35.28740416666667" lon="133.70412805555554">
<ele>434</ele>
</trkpt>
<trkpt lat="35.28740166666667" lon="133.7041888888889">
<ele>427</ele>
</trkpt>
<trkpt lat="35.28740166666667" lon="133.7041888888889">
<ele>427</ele>
</trkpt>
<trkpt lat="35.287308055555556" lon="133.70660055555555">
<ele>434</ele>
</trkpt>
<trkpt lat="35.28751805555556" lon="133.7089963888889">
<ele>429</ele>
</trkpt>
<trkpt lat="35.28751805555556" lon="133.7089963888889">
<ele>429</ele>
</trkpt>
<trkpt lat="35.28762388888889" lon="133.70927">
<ele>428</ele>
</trkpt>
<trkpt lat="35.287661944444444" lon="133.7096261111111">
<ele>428</ele>
</trkpt>
<trkpt lat="35.28735388888889" lon="133.7108388888889">
<ele>429</ele>
</trkpt>
<trkpt lat="35.28731194444445" lon="133.71140111111112">
<ele>429</ele>
</trkpt>
<trkpt lat="35.28756194444444" lon="133.71195111111112">
<ele>427</ele>
</trkpt>
<trkpt lat="35.28757888888889" lon="133.7123138888889">
<ele>427</ele>
</trkpt>
<trkpt lat="35.28740388888889" lon="133.71343805555554">
<ele>428</ele>
</trkpt>
<trkpt lat="35.288111944444445" lon="133.71618805555556">
<ele>425</ele>
</trkpt>
<trkpt lat="35.288178888888886" lon="133.71678805555555">
<ele>427</ele>
</trkpt>
<trkpt lat="35.288153888888885" lon="133.71706305555554">
<ele>427</ele>
</trkpt>
<trkpt lat="35.28838388888889" lon="133.71875194444445">
<ele>427</ele>
</trkpt>
<trkpt lat="35.28838388888889" lon="133.71875194444445">
<ele>427</ele>
</trkpt>
<trkpt lat="35.28839611111111" lon="133.71883805555555">
<ele>427</ele>
</trkpt>
<trkpt lat="35.288691944444444" lon="133.72275">
<ele>426</ele>
</trkpt>
<trkpt lat="35.288691944444444" lon="133.72275">
<ele>426</ele>
</trkpt>
<trkpt lat="35.288713055555554" lon="133.723025">
<ele>426</ele>
</trkpt>
<trkpt lat="35.289321111111114" lon="133.72654888888889">
<ele>420</ele>
</trkpt>
<trkpt lat="35.289318888888886" lon="133.72681">
<ele>420</ele>
</trkpt>
<trkpt lat="35.289318888888886" lon="133.72681">
<ele>420</ele>
</trkpt>
<trkpt lat="35.28931305555555" lon="133.72771194444445">
<ele>419</ele>
</trkpt>
<trkpt lat="35.28910388888889" lon="133.72881194444443">
<ele>418</ele>
</trkpt>
<trkpt lat="35.28887111111111" lon="133.72936194444443">
<ele>419</ele>
</trkpt>
<trkpt lat="35.288493055555556" lon="133.72996694444444">
<ele>418</ele>
</trkpt>
<trkpt lat="35.28849388888889" lon="133.72996694444444">
<ele>419</ele>
</trkpt>
<trkpt lat="35.28847277777778" lon="133.7300325">
<ele>419</ele>
</trkpt>
<trkpt lat="35.28845166666667" lon="133.7300977777778">
<ele>419</ele>
</trkpt>
<trkpt lat="35.28843027777778" lon="133.73016333333334">
<ele>419</ele>
</trkpt>
<trkpt lat="35.28840916666667" lon="133.7302288888889">
<ele>418</ele>
</trkpt>
<trkpt lat="35.28838805555556" lon="133.73029416666665">
<ele>418</ele>
</trkpt>
<trkpt lat="35.28836694444445" lon="133.73035972222223">
<ele>418</ele>
</trkpt>
<trkpt lat="35.28834555555556" lon="133.73042527777778">
<ele>418</ele>
</trkpt>
<trkpt lat="35.28832444444444" lon="133.73049055555555">
<ele>418</ele>
</trkpt>
<trkpt lat="35.28830333333333" lon="133.7305561111111">
<ele>418</ele>
</trkpt>
<trkpt lat="35.28828222222222" lon="133.7306213888889">
<ele>418</ele>
</trkpt>
<trkpt lat="35.28826083333333" lon="133.73068694444444">
<ele>417</ele>
</trkpt>
<trkpt lat="35.28823972222222" lon="133.7307525">
<ele>417</ele>
</trkpt>
<trkpt lat="35.28821861111111" lon="133.7308177777778">
<ele>417</ele>
</trkpt>
<trkpt lat="35.2881975" lon="133.73088333333334">
<ele>417</ele>
</trkpt>
<trkpt lat="35.28817611111111" lon="133.7309488888889">
<ele>417</ele>
</trkpt>
<trkpt lat="35.288155" lon="133.73101416666665">
<ele>416</ele>
</trkpt>
<trkpt lat="35.288133888888886" lon="133.73107972222223">
<ele>416</ele>
</trkpt>
<trkpt lat="35.288112777777776" lon="133.73114527777778">
<ele>416</ele>
</trkpt>
<trkpt lat="35.28809138888889" lon="133.73121055555555">
<ele>416</ele>
</trkpt>
<trkpt lat="35.28809138888889" lon="133.73121055555555">
<ele>416</ele>
</trkpt>
<trkpt lat="35.28809138888889" lon="133.73121055555555">
<ele>416</ele>
</trkpt>
<trkpt lat="35.288111666666666" lon="133.73126194444444">
<ele>416</ele>
</trkpt>
<trkpt lat="35.288131944444444" lon="133.73131333333333">
<ele>416</ele>
</trkpt>
<trkpt lat="35.28815222222222" lon="133.73136472222222">
<ele>415</ele>
</trkpt>
<trkpt lat="35.2881725" lon="133.73141611111112">
<ele>415</ele>
</trkpt>
<trkpt lat="35.28819277777778" lon="133.7314675">
<ele>415</ele>
</trkpt>
<trkpt lat="35.28821305555556" lon="133.7315188888889">
<ele>415</ele>
</trkpt>
<trkpt lat="35.28823333333333" lon="133.7315702777778">
<ele>414</ele>
</trkpt>
<trkpt lat="35.28825361111111" lon="133.73162166666665">
<ele>414</ele>
</trkpt>
<trkpt lat="35.28827388888889" lon="133.73167305555555">
<ele>413</ele>
</trkpt>
<trkpt lat="35.28829416666667" lon="133.73172444444444">
<ele>413</ele>
</trkpt>
<trkpt lat="35.288314444444445" lon="133.73177583333333">
<ele>413</ele>
</trkpt>
<trkpt lat="35.288334722222224" lon="133.73182722222222">
<ele>413</ele>
</trkpt>
<trkpt lat="35.288355" lon="133.7318786111111">
<ele>413</ele>
</trkpt>
<trkpt lat="35.288375277777774" lon="133.73193">
<ele>413</ele>
</trkpt>
<trkpt lat="35.28839555555555" lon="133.7319813888889">
<ele>413</ele>
</trkpt>
<trkpt lat="35.28841583333333" lon="133.7320327777778">
<ele>414</ele>
</trkpt>
<trkpt lat="35.28843611111111" lon="133.73208416666668">
<ele>414</ele>
</trkpt>
<trkpt lat="35.28845666666667" lon="133.73213555555554">
<ele>415</ele>
</trkpt>
<trkpt lat="35.28847694444445" lon="133.73218694444444">
<ele>415</ele>
</trkpt>
<trkpt lat="35.28847694444445" lon="133.73218694444444">
<ele>415</ele>
</trkpt>
<trkpt lat="35.28843527777778" lon="133.73220833333335">
<ele>414</ele>
</trkpt>
<trkpt lat="35.28839388888889" lon="133.73222944444444">
<ele>415</ele>
</trkpt>
<trkpt lat="35.2883525" lon="133.73225083333332">
<ele>415</ele>
</trkpt>
<trkpt lat="35.28831111111111" lon="133.73227194444445">
<ele>415</ele>
</trkpt>
<trkpt lat="35.288269722222225" lon="133.73229333333333">
<ele>415</ele>
</trkpt>
<trkpt lat="35.288228333333336" lon="133.73231444444446">
<ele>415</ele>
</trkpt>
<trkpt lat="35.28818694444445" lon="133.73233583333334">
<ele>415</ele>
</trkpt>
<trkpt lat="35.28815361111111" lon="133.73235277777778">
<ele>415</ele>
</trkpt>
<trkpt lat="35.28815361111111" lon="133.73235277777778">
<ele>415</ele>
</trkpt>
<trkpt lat="35.288111111111114" lon="133.7324025">
<ele>415</ele>
</trkpt>
<trkpt lat="35.288068611111115" lon="133.73245222222224">
<ele>415</ele>
</trkpt>
<trkpt lat="35.288025833333336" lon="133.73250166666668">
<ele>415</ele>
</trkpt>
<trkpt lat="35.28798333333334" lon="133.73255138888888">
<ele>415</ele>
</trkpt>
<trkpt lat="35.28794055555556" lon="133.7326011111111">
<ele>415</ele>
</trkpt>
<trkpt lat="35.28789805555556" lon="133.73265083333334">
<ele>415</ele>
</trkpt>
<trkpt lat="35.28785527777778" lon="133.73270055555557">
<ele>415</ele>
</trkpt>
<trkpt lat="35.28781277777778" lon="133.73275027777777">
<ele>415</ele>
</trkpt>
<trkpt lat="35.28777" lon="133.7328">
<ele>415</ele>
</trkpt>
<trkpt lat="35.2877275" lon="133.73284972222223">
<ele>415</ele>
</trkpt>
<trkpt lat="35.287684722222224" lon="133.73289944444446">
<ele>415</ele>
</trkpt>
<trkpt lat="35.287642222222225" lon="133.7329488888889">
<ele>415</ele>
</trkpt>
<trkpt lat="35.287599444444446" lon="133.7329986111111">
<ele>415</ele>
</trkpt>
<trkpt lat="35.28755694444445" lon="133.73304833333333">
<ele>415</ele>
</trkpt>
<trkpt lat="35.28751416666667" lon="133.73309805555556">
<ele>415</ele>
</trkpt>
<trkpt lat="35.28747166666667" lon="133.7331477777778">
<ele>415</ele>
</trkpt>
<trkpt lat="35.28742888888889" lon="133.7331975">
<ele>415</ele>
</trkpt>
<trkpt lat="35.28738638888889" lon="133.73324722222222">
<ele>415</ele>
</trkpt>
<trkpt lat="35.28734361111111" lon="133.73329694444445">
<ele>415</ele>
</trkpt>
<trkpt lat="35.28734361111111" lon="133.73329694444445">
<ele>415</ele>
</trkpt>
<trkpt lat="35.28731666666667" lon="133.73334083333333">
<ele>415</ele>
</trkpt>
<trkpt lat="35.28728972222222" lon="133.7333847222222">
<ele>415</ele>
</trkpt>
<trkpt lat="35.28726277777778" lon="133.73342888888888">
<ele>415</ele>
</trkpt>
<trkpt lat="35.287235555555554" lon="133.7334727777778">
<ele>415</ele>
</trkpt>
<trkpt lat="35.28720861111111" lon="133.73351666666667">
<ele>415</ele>
</trkpt>
<trkpt lat="35.28718166666667" lon="133.73356083333334">
<ele>415</ele>
</trkpt>
<trkpt lat="35.28715472222222" lon="133.73360472222222">
<ele>415</ele>
</trkpt>
<trkpt lat="35.287127777777776" lon="133.7336486111111">
<ele>415</ele>
</trkpt>
<trkpt lat="35.287100555555554" lon="133.7336925">
<ele>415</ele>
</trkpt>
<trkpt lat="35.28707361111111" lon="133.73373666666666">
<ele>415</ele>
</trkpt>
<trkpt lat="35.28704666666667" lon="133.73378055555557">
<ele>415</ele>
</trkpt>
<trkpt lat="35.28701972222222" lon="133.73382444444445">
<ele>415</ele>
</trkpt>
<trkpt lat="35.286992777777776" lon="133.73386861111112">
<ele>414</ele>
</trkpt>
<trkpt lat="35.28696583333333" lon="133.7339125">
<ele>414</ele>
</trkpt>
<trkpt lat="35.28695833333333" lon="133.73392444444445">
<ele>414</ele>
</trkpt>
<trkpt lat="35.28695833333333" lon="133.73392444444445">
<ele>414</ele>
</trkpt>
<trkpt lat="35.28700361111111" lon="133.73393333333334">
<ele>415</ele>
</trkpt>
<trkpt lat="35.28704861111111" lon="133.73394194444444">
<ele>415</ele>
</trkpt>
<trkpt lat="35.28709388888889" lon="133.73395083333332">
<ele>415</ele>
</trkpt>
<trkpt lat="35.28713888888889" lon="133.73395944444445">
<ele>415</ele>
</trkpt>
<trkpt lat="35.28718416666667" lon="133.73396833333334">
<ele>415</ele>
</trkpt>
<trkpt lat="35.28722944444444" lon="133.73397694444444">
<ele>415</ele>
</trkpt>
<trkpt lat="35.28727444444444" lon="133.73398583333332">
<ele>415</ele>
</trkpt>
<trkpt lat="35.28731972222222" lon="133.73399444444445">
<ele>415</ele>
</trkpt>
<trkpt lat="35.287365" lon="133.73400333333333">
<ele>415</ele>
</trkpt>
<trkpt lat="35.28741" lon="133.73401194444443">
<ele>415</ele>
</trkpt>
<trkpt lat="35.28745527777778" lon="133.73402083333335">
<ele>415</ele>
</trkpt>
<trkpt lat="35.28750027777778" lon="133.73402944444445">
<ele>415</ele>
</trkpt>
<trkpt lat="35.28754555555555" lon="133.73403833333333">
<ele>415</ele>
</trkpt>
<trkpt lat="35.28759083333333" lon="133.73404694444446">
<ele>415</ele>
</trkpt>
<trkpt lat="35.28763583333333" lon="133.73405583333334">
<ele>415</ele>
</trkpt>
<trkpt lat="35.28768111111111" lon="133.73406444444444">
<ele>415</ele>
</trkpt>
<trkpt lat="35.28772611111111" lon="133.73407333333333">
<ele>415</ele>
</trkpt>
<trkpt lat="35.28777138888889" lon="133.73408194444445">
<ele>415</ele>
</trkpt>
<trkpt lat="35.287816666666664" lon="133.73409083333334">
<ele>415</ele>
</trkpt>
<trkpt lat="35.287816666666664" lon="133.73409083333334">
<ele>415</ele>
</trkpt>
<trkpt lat="35.28784777777778" lon="133.7340511111111">
<ele>415</ele>
</trkpt>
<trkpt lat="35.28787888888889" lon="133.73401166666667">
<ele>415</ele>
</trkpt>
<trkpt lat="35.287910277777776" lon="133.73397194444445">
<ele>415</ele>
</trkpt>
<trkpt lat="35.28794138888889" lon="133.7339325">
<ele>415</ele>
</trkpt>
<trkpt lat="35.2879725" lon="133.73389277777778">
<ele>415</ele>
</trkpt>
<trkpt lat="35.28800361111111" lon="133.73385333333334">
<ele>415</ele>
</trkpt>
<trkpt lat="35.288035" lon="133.73381361111112">
<ele>415</ele>
</trkpt>
<trkpt lat="35.2880575" lon="133.733785">
<ele>415</ele>
</trkpt>
<trkpt lat="35.2880575" lon="133.733785">
<ele>415</ele>
</trkpt>
<trkpt lat="35.2881" lon="133.7337672222222">
<ele>415</ele>
</trkpt>
<trkpt lat="35.2881425" lon="133.73374972222223">
<ele>415</ele>
</trkpt>
<trkpt lat="35.288185" lon="133.73373194444446">
<ele>415</ele>
</trkpt>
<trkpt lat="35.2882275" lon="133.73371416666666">
<ele>415</ele>
</trkpt>
<trkpt lat="35.28827" lon="133.7336963888889">
<ele>415</ele>
</trkpt>
<trkpt lat="35.2883125" lon="133.73367861111112">
<ele>415</ele>
</trkpt>
<trkpt lat="35.288355" lon="133.7336611111111">
<ele>415</ele>
</trkpt>
<trkpt lat="35.2883975" lon="133.73364333333333">
<ele>415</ele>
</trkpt>
<trkpt lat="35.28844027777778" lon="133.73362555555556">
<ele>415</ele>
</trkpt>
<trkpt lat="35.28848277777778" lon="133.7336077777778">
<ele>415</ele>
</trkpt>
<trkpt lat="35.28849527777778" lon="133.7336025">
<ele>415</ele>
</trkpt>
<trkpt lat="35.28849527777778" lon="133.7336025">
<ele>415</ele>
</trkpt>
<trkpt lat="35.28853138888889" lon="133.73357">
<ele>415</ele>
</trkpt>
<trkpt lat="35.28856777777778" lon="133.7335375">
<ele>415</ele>
</trkpt>
<trkpt lat="35.288603888888886" lon="133.73350472222222">
<ele>415</ele>
</trkpt>
<trkpt lat="35.28864" lon="133.73347222222222">
<ele>415</ele>
</trkpt>
<trkpt lat="35.288644166666664" lon="133.7334686111111">
<ele>415</ele>
</trkpt>
<trkpt lat="35.288644166666664" lon="133.7334686111111">
<ele>415</ele>
</trkpt>
<trkpt lat="35.28868027777778" lon="133.7334275">
<ele>415</ele>
</trkpt>
<trkpt lat="35.288716666666666" lon="133.73338666666666">
<ele>415</ele>
</trkpt>
<trkpt lat="35.28875277777778" lon="133.73334555555556">
<ele>415</ele>
</trkpt>
<trkpt lat="35.28878888888889" lon="133.73330472222221">
<ele>415</ele>
</trkpt>
<trkpt lat="35.288825" lon="133.7332638888889">
<ele>415</ele>
</trkpt>
<trkpt lat="35.28886138888889" lon="133.73322277777777">
<ele>415</ele>
</trkpt>
<trkpt lat="35.2888975" lon="133.73318194444445">
<ele>415</ele>
</trkpt>
<trkpt lat="35.28893361111111" lon="133.7331411111111">
<ele>415</ele>
</trkpt>
<trkpt lat="35.28896972222222" lon="133.7331">
<ele>415</ele>
</trkpt>
<trkpt lat="35.289006111111114" lon="133.73305916666666">
<ele>415</ele>
</trkpt>
<trkpt lat="35.28904222222222" lon="133.73301805555556">
<ele>415</ele>
</trkpt>
<trkpt lat="35.289078333333336" lon="133.73297722222222">
<ele>415</ele>
</trkpt>
<trkpt lat="35.289114444444444" lon="133.7329363888889">
<ele>415</ele>
</trkpt>
<trkpt lat="35.28915083333333" lon="133.73289527777777">
<ele>415</ele>
</trkpt>
<trkpt lat="35.289186944444445" lon="133.73285444444446">
<ele>415</ele>
</trkpt>
<trkpt lat="35.28922305555555" lon="133.7328136111111">
<ele>415</ele>
</trkpt>
<trkpt lat="35.28925916666667" lon="133.7327725">
<ele>415</ele>
</trkpt>
<trkpt lat="35.289295555555555" lon="133.73273166666667">
<ele>415</ele>
</trkpt>
<trkpt lat="35.28933166666667" lon="133.73269055555556">
<ele>415</ele>
</trkpt>
<trkpt lat="35.28933166666667" lon="133.73269055555556">
<ele>415</ele>
</trkpt>
<trkpt lat="35.28933166666667" lon="133.73269055555556">
<ele>415</ele>
</trkpt>
<trkpt lat="35.289363055555555" lon="133.73265138888888">
<ele>415</ele>
</trkpt>
<trkpt lat="35.28939472222222" lon="133.73261222222223">
<ele>415</ele>
</trkpt>
<trkpt lat="35.28942611111111" lon="133.73257305555555">
<ele>415</ele>
</trkpt>
<trkpt lat="35.28945777777778" lon="133.7325338888889">
<ele>415</ele>
</trkpt>
<trkpt lat="35.28948916666667" lon="133.7324947222222">
<ele>415</ele>
</trkpt>
<trkpt lat="35.289520833333334" lon="133.73245555555556">
<ele>415</ele>
</trkpt>
<trkpt lat="35.28955222222222" lon="133.73241611111112">
<ele>415</ele>
</trkpt>
<trkpt lat="35.28958388888889" lon="133.73237694444444">
<ele>415</ele>
</trkpt>
<trkpt lat="35.28961527777778" lon="133.7323377777778">
<ele>415</ele>
</trkpt>
<trkpt lat="35.28964694444444" lon="133.7322986111111">
<ele>415</ele>
</trkpt>
<trkpt lat="35.289678333333335" lon="133.73225944444445">
<ele>415</ele>
</trkpt>
<trkpt lat="35.28970972222222" lon="133.73222027777777">
<ele>415</ele>
</trkpt>
<trkpt lat="35.28974138888889" lon="133.73218111111112">
<ele>415</ele>
</trkpt>
<trkpt lat="35.28977277777778" lon="133.73214194444444">
<ele>415</ele>
</trkpt>
<trkpt lat="35.28980444444444" lon="133.7321025">
<ele>415</ele>
</trkpt>
<trkpt lat="35.289835833333335" lon="133.73206333333334">
<ele>415</ele>
</trkpt>
<trkpt lat="35.2898675" lon="133.73202416666666">
<ele>415</ele>
</trkpt>
<trkpt lat="35.28989888888889" lon="133.731985">
<ele>415</ele>
</trkpt>
<trkpt lat="35.28990527777778" lon="133.7319772222222">
<ele>415</ele>
</trkpt>
<trkpt lat="35.28990527777778" lon="133.7319772222222">
<ele>415</ele>
</trkpt>
<trkpt lat="35.28994888888889" lon="133.73196472222222">
<ele>415</ele>
</trkpt>
<trkpt lat="35.289992777777776" lon="133.73195222222222">
<ele>415</ele>
</trkpt>
<trkpt lat="35.290036388888886" lon="133.73194">
<ele>415</ele>
</trkpt>
<trkpt lat="35.290080277777776" lon="133.7319275">
<ele>415</ele>
</trkpt>
<trkpt lat="35.290123888888886" lon="133.731915">
<ele>415</ele>
</trkpt>
<trkpt lat="35.290167777777775" lon="133.7319025">
<ele>415</ele>
</trkpt>
<trkpt lat="35.29021138888889" lon="133.73189027777778">
<ele>415</ele>
</trkpt>
<trkpt lat="35.290255277777774" lon="133.73187777777778">
<ele>416</ele>
</trkpt>
<trkpt lat="35.29029888888889" lon="133.73186527777779">
<ele>416</ele>
</trkpt>
<trkpt lat="35.29034277777778" lon="133.7318527777778">
<ele>416</ele>
</trkpt>
<trkpt lat="35.29038638888889" lon="133.7318402777778">
<ele>416</ele>
</trkpt>
<trkpt lat="35.29043027777778" lon="133.73182805555555">
<ele>416</ele>
</trkpt>
<trkpt lat="35.2904525" lon="133.73182166666666">
<ele>416</ele>
</trkpt>
<trkpt lat="35.2904525" lon="133.73182166666666">
<ele>416</ele>
</trkpt>
<trkpt lat="35.29049722222222" lon="133.731815">
<ele>416</ele>
</trkpt>
<trkpt lat="35.29054166666667" lon="133.73180861111112">
<ele>416</ele>
</trkpt>
<trkpt lat="35.29058638888889" lon="133.73180194444444">
<ele>416</ele>
</trkpt>
<trkpt lat="35.29063083333333" lon="133.73179555555555">
<ele>416</ele>
</trkpt>
<trkpt lat="35.29067555555555" lon="133.7317888888889">
<ele>416</ele>
</trkpt>
<trkpt lat="35.29072027777778" lon="133.7317825">
<ele>416</ele>
</trkpt>
<trkpt lat="35.29076472222222" lon="133.73177583333333">
<ele>416</ele>
</trkpt>
<trkpt lat="35.29080944444444" lon="133.73176944444444">
<ele>416</ele>
</trkpt>
<trkpt lat="35.29085388888889" lon="133.7317627777778">
<ele>416</ele>
</trkpt>
<trkpt lat="35.29089861111111" lon="133.7317563888889">
<ele>416</ele>
</trkpt>
<trkpt lat="35.29094305555556" lon="133.73174972222222">
<ele>416</ele>
</trkpt>
<trkpt lat="35.29098777777778" lon="133.73174333333333">
<ele>416</ele>
</trkpt>
<trkpt lat="35.29103222222222" lon="133.73173666666668">
<ele>416</ele>
</trkpt>
<trkpt lat="35.291044444444445" lon="133.731735">
<ele>416</ele>
</trkpt>
<trkpt lat="35.291044444444445" lon="133.731735">
<ele>416</ele>
</trkpt>
<trkpt lat="35.291085277777775" lon="133.7317125">
<ele>416</ele>
</trkpt>
<trkpt lat="35.29112638888889" lon="133.73169027777777">
<ele>417</ele>
</trkpt>
<trkpt lat="35.2911675" lon="133.73166805555556">
<ele>417</ele>
</trkpt>
<trkpt lat="35.29120861111111" lon="133.73164555555556">
<ele>417</ele>
</trkpt>
<trkpt lat="35.291249722222226" lon="133.73162333333335">
<ele>417</ele>
</trkpt>
<trkpt lat="35.291290555555555" lon="133.7316011111111">
<ele>417</ele>
</trkpt>
<trkpt lat="35.291331666666665" lon="133.7315786111111">
<ele>417</ele>
</trkpt>
<trkpt lat="35.29137277777778" lon="133.7315563888889">
<ele>417</ele>
</trkpt>
<trkpt lat="35.29141388888889" lon="133.73153416666668">
<ele>417</ele>
</trkpt>
<trkpt lat="35.291455" lon="133.73151166666668">
<ele>417</ele>
</trkpt>
<trkpt lat="35.291495833333336" lon="133.73148944444443">
<ele>417</ele>
</trkpt>
<trkpt lat="35.291536944444445" lon="133.73146722222222">
<ele>417</ele>
</trkpt>
<trkpt lat="35.291578055555554" lon="133.73144472222222">
<ele>417</ele>
</trkpt>
<trkpt lat="35.29159444444444" lon="133.73143583333334">
<ele>417</ele>
</trkpt>
    </trkseg>
  </trk>
</gpx>