<?xml version="1.0" encoding="UTF-8"?>
<gpx version="1.1"
     creator="KMLtoGPX"
     xmlns="http://www.topografix.com/GPX/1/1">
  <metadata>
    <name>Oshiba Shiokaze Route</name>
    <desc>大芝汐風ルート</desc>
    <bounds minlat="34.27067888888889" minlon="132.78593305555555" maxlat="34.27978888888889" maxlon="132.80337694444444"/>
  </metadata>
  <trk>
    <name>Oshiba Shiokaze Route</name>
    <trkseg>
<trkpt lat="34.27974305555556" lon="132.78593305555555">
<ele>5</ele>
</trkpt>
<trkpt lat="34.27978888888889" lon="132.7868288888889">
<ele>8</ele>
</trkpt>
<trkpt lat="34.27975611111111" lon="132.78697888888888">
<ele>10</ele>
</trkpt>
<trkpt lat="34.27968888888889" lon="132.78710388888888">
<ele>12</ele>
</trkpt>
<trkpt lat="34.27958888888889" lon="132.7871911111111">
<ele>12</ele>
</trkpt>
<trkpt lat="34.27934" lon="132.78731611111112">
<ele>11</ele>
</trkpt>
<trkpt lat="34.279181111111114" lon="132.7874161111111">
<ele>11</ele>
</trkpt>
<trkpt lat="34.27864805555556" lon="132.7880411111111">
<ele>13</ele>
</trkpt>
<trkpt lat="34.27855611111111" lon="132.78814111111112">
<ele>12</ele>
</trkpt>
<trkpt lat="34.27818111111111" lon="132.78857888888888">
<ele>0</ele>
</trkpt>
<trkpt lat="34.277765" lon="132.7890788888889">
<ele>0</ele>
</trkpt>
<trkpt lat="34.276473055555556" lon="132.79047888888888">
<ele>0</ele>
</trkpt>
<trkpt lat="34.27538194444445" lon="132.7915788888889">
<ele>20</ele>
</trkpt>
<trkpt lat="34.27532388888889" lon="132.7916538888889">
<ele>22</ele>
</trkpt>
<trkpt lat="34.275215" lon="132.79174111111112">
<ele>26</ele>
</trkpt>
<trkpt lat="34.275081944444445" lon="132.7917788888889">
<ele>28</ele>
</trkpt>
<trkpt lat="34.27497388888889" lon="132.79175388888888">
<ele>24</ele>
</trkpt>
<trkpt lat="34.27487388888889" lon="132.7916911111111">
<ele>29</ele>
</trkpt>
<trkpt lat="34.27479888888889" lon="132.7915911111111">
<ele>29</ele>
</trkpt>
<trkpt lat="34.27469" lon="132.79130388888888">
<ele>31</ele>
</trkpt>
<trkpt lat="34.27460694444444" lon="132.7912161111111">
<ele>34</ele>
</trkpt>
<trkpt lat="34.274523888888886" lon="132.79119111111112">
<ele>33</ele>
</trkpt>
<trkpt lat="34.274298888888886" lon="132.7912411111111">
<ele>40</ele>
</trkpt>
<trkpt lat="34.27404" lon="132.79131611111112">
<ele>40</ele>
</trkpt>
<trkpt lat="34.27395694444444" lon="132.7913661111111">
<ele>42</ele>
</trkpt>
<trkpt lat="34.27379111111111" lon="132.7914911111111">
<ele>43</ele>
</trkpt>
<trkpt lat="34.27356611111111" lon="132.7918288888889">
<ele>44</ele>
</trkpt>
<trkpt lat="34.27345694444445" lon="132.7919161111111">
<ele>46</ele>
</trkpt>
<trkpt lat="34.27319888888889" lon="132.7920161111111">
<ele>47</ele>
</trkpt>
<trkpt lat="34.27305694444444" lon="132.79207888888888">
<ele>45</ele>
</trkpt>
<trkpt lat="34.27294888888889" lon="132.79221611111112">
<ele>45</ele>
</trkpt>
<trkpt lat="34.27289888888889" lon="132.7923788888889">
<ele>48</ele>
</trkpt>
<trkpt lat="34.27294111111111" lon="132.79276611111112">
<ele>46</ele>
</trkpt>
<trkpt lat="34.272931944444444" lon="132.79287888888888">
<ele>46</ele>
</trkpt>
<trkpt lat="34.272866111111114" lon="132.79300388888888">
<ele>53</ele>
</trkpt>
<trkpt lat="34.27254111111111" lon="132.79330305555555">
<ele>52</ele>
</trkpt>
<trkpt lat="34.272441111111114" lon="132.79354111111113">
<ele>51</ele>
</trkpt>
<trkpt lat="34.27239111111111" lon="132.79375305555556">
<ele>55</ele>
</trkpt>
<trkpt lat="34.27238194444445" lon="132.7940911111111">
<ele>56</ele>
</trkpt>
<trkpt lat="34.27242388888889" lon="132.79430305555556">
<ele>53</ele>
</trkpt>
<trkpt lat="34.272506944444444" lon="132.7944161111111">
<ele>54</ele>
</trkpt>
<trkpt lat="34.27294888888889" lon="132.79472805555557">
<ele>55</ele>
</trkpt>
<trkpt lat="34.27307388888889" lon="132.79487805555556">
<ele>56</ele>
</trkpt>
<trkpt lat="34.27326611111111" lon="132.79546805555555">
<ele>54</ele>
</trkpt>
<trkpt lat="34.27326611111111" lon="132.79546805555555">
<ele>54</ele>
</trkpt>
<trkpt lat="34.27343194444445" lon="132.79597805555557">
<ele>53</ele>
</trkpt>
<trkpt lat="34.27353194444444" lon="132.79615305555555">
<ele>54</ele>
</trkpt>
<trkpt lat="34.27389111111111" lon="132.7964661111111">
<ele>52</ele>
</trkpt>
<trkpt lat="34.27395" lon="132.79658388888888">
<ele>53</ele>
</trkpt>
<trkpt lat="34.27395" lon="132.79658388888888">
<ele>53</ele>
</trkpt>
<trkpt lat="34.27396611111111" lon="132.79661611111112">
<ele>54</ele>
</trkpt>
<trkpt lat="34.27399111111111" lon="132.79675305555557">
<ele>54</ele>
</trkpt>
<trkpt lat="34.27397388888889" lon="132.7969161111111">
<ele>54</ele>
</trkpt>
<trkpt lat="34.27392388888889" lon="132.79707805555555">
<ele>57</ele>
</trkpt>
<trkpt lat="34.27391611111111" lon="132.7972161111111">
<ele>62</ele>
</trkpt>
<trkpt lat="34.273941111111114" lon="132.79735305555556">
<ele>63</ele>
</trkpt>
<trkpt lat="34.273941111111114" lon="132.79751611111112">
<ele>63</ele>
</trkpt>
<trkpt lat="34.27389111111111" lon="132.79762805555555">
<ele>65</ele>
</trkpt>
<trkpt lat="34.27373194444444" lon="132.79777805555557">
<ele>66</ele>
</trkpt>
<trkpt lat="34.27369111111111" lon="132.79790305555557">
<ele>67</ele>
</trkpt>
<trkpt lat="34.27369111111111" lon="132.7980661111111">
<ele>66</ele>
</trkpt>
<trkpt lat="34.273741111111114" lon="132.79825305555556">
<ele>71</ele>
</trkpt>
<trkpt lat="34.27386611111111" lon="132.798515">
<ele>72</ele>
</trkpt>
<trkpt lat="34.27414111111111" lon="132.79874">
<ele>75</ele>
</trkpt>
<trkpt lat="34.27418194444444" lon="132.79884">
<ele>72</ele>
</trkpt>
<trkpt lat="34.27419111111111" lon="132.79899">
<ele>73</ele>
</trkpt>
<trkpt lat="34.27410694444445" lon="132.79949">
<ele>75</ele>
</trkpt>
<trkpt lat="34.27414111111111" lon="132.79980305555554">
<ele>77</ele>
</trkpt>
<trkpt lat="34.27419111111111" lon="132.799865">
<ele>77</ele>
</trkpt>
<trkpt lat="34.27422388888889" lon="132.79992805555557">
<ele>77</ele>
</trkpt>
<trkpt lat="34.27437388888889" lon="132.79997805555556">
<ele>78</ele>
</trkpt>
<trkpt lat="34.27446611111111" lon="132.80004">
<ele>76</ele>
</trkpt>
<trkpt lat="34.27451611111111" lon="132.800115">
<ele>74</ele>
</trkpt>
<trkpt lat="34.27455694444444" lon="132.800315">
<ele>77</ele>
</trkpt>
<trkpt lat="34.27453194444445" lon="132.80045305555555">
<ele>75</ele>
</trkpt>
<trkpt lat="34.274431944444444" lon="132.80062805555556">
<ele>70</ele>
</trkpt>
<trkpt lat="34.27442388888889" lon="132.80077805555555">
<ele>71</ele>
</trkpt>
<trkpt lat="34.27447388888889" lon="132.80092805555554">
<ele>73</ele>
</trkpt>
<trkpt lat="34.27522388888889" lon="132.802015">
<ele>58</ele>
</trkpt>
<trkpt lat="34.27525694444444" lon="132.802165">
<ele>57</ele>
</trkpt>
<trkpt lat="34.275241111111114" lon="132.802315">
<ele>57</ele>
</trkpt>
<trkpt lat="34.27520694444444" lon="132.80242694444445">
<ele>54</ele>
</trkpt>
<trkpt lat="34.27521611111111" lon="132.802565">
<ele>52</ele>
</trkpt>
<trkpt lat="34.27532388888889" lon="132.80284">
<ele>52</ele>
</trkpt>
<trkpt lat="34.27535694444445" lon="132.80297694444445">
<ele>54</ele>
</trkpt>
<trkpt lat="34.27535611111111" lon="132.80301694444444">
<ele>54</ele>
</trkpt>
<trkpt lat="34.27535611111111" lon="132.80301694444444">
<ele>54</ele>
</trkpt>
<trkpt lat="34.27534888888889" lon="132.80337694444444">
<ele>58</ele>
</trkpt>
<trkpt lat="34.27520694444444" lon="132.80332694444445">
<ele>52</ele>
</trkpt>
<trkpt lat="34.27515694444445" lon="132.803065">
<ele>48</ele>
</trkpt>
<trkpt lat="34.275016111111114" lon="132.802715">
<ele>46</ele>
</trkpt>
<trkpt lat="34.27489888888889" lon="132.80257805555556">
<ele>40</ele>
</trkpt>
<trkpt lat="34.27464111111111" lon="132.802365">
<ele>37</ele>
</trkpt>
<trkpt lat="34.27426611111111" lon="132.80199">
<ele>33</ele>
</trkpt>
<trkpt lat="34.27379888888889" lon="132.80157805555555">
<ele>26</ele>
</trkpt>
<trkpt lat="34.27354888888889" lon="132.80145305555556">
<ele>29</ele>
</trkpt>
<trkpt lat="34.27274888888889" lon="132.801015">
<ele>16</ele>
</trkpt>
<trkpt lat="34.27219888888889" lon="132.80065305555556">
<ele>9</ele>
</trkpt>
<trkpt lat="34.272058055555554" lon="132.800515">
<ele>9</ele>
</trkpt>
<trkpt lat="34.27157388888889" lon="132.80015305555557">
<ele>8</ele>
</trkpt>
<trkpt lat="34.27126611111111" lon="132.80017805555556">
<ele>8</ele>
</trkpt>
<trkpt lat="34.27111611111111" lon="132.80004">
<ele>8</ele>
</trkpt>
<trkpt lat="34.27082388888889" lon="132.79972805555556">
<ele>4</ele>
</trkpt>
<trkpt lat="34.27067888888889" lon="132.79961805555556">
<ele>3</ele>
</trkpt>
    </trkseg>
  </trk>
</gpx>