<?xml version="1.0" encoding="UTF-8"?>
<gpx version="1.1"
     creator="KMLtoGPX"
     xmlns="http://www.topografix.com/GPX/1/1">
  <metadata>
    <name>Mikata Five Lakes Round Trip Course</name>
    <desc>三方五湖一周コース</desc>
    <bounds minlat="35.555486944444446" minlon="135.8639988888889" maxlat="35.615318888888886" maxlon="135.91311472222222"/>
  </metadata>
  <trk>
    <name>Mikata Five Lakes Round Trip Course</name>
    <trkseg>
<trkpt lat="35.555486944444446" lon="135.90195305555557">
<ele>6</ele>
</trkpt>
<trkpt lat="35.55560111111111" lon="135.90193305555556">
<ele>7</ele>
</trkpt>
<trkpt lat="35.556018055555555" lon="135.9018461111111">
<ele>7</ele>
</trkpt>
<trkpt lat="35.556418055555554" lon="135.90177111111112">
<ele>7</ele>
</trkpt>
<trkpt lat="35.55663388888889" lon="135.90174611111112">
<ele>7</ele>
</trkpt>
<trkpt lat="35.55690888888889" lon="135.90174611111112">
<ele>7</ele>
</trkpt>
<trkpt lat="35.557118055555556" lon="135.9017961111111">
<ele>7</ele>
</trkpt>
<trkpt lat="35.55727611111111" lon="135.90185805555555">
<ele>7</ele>
</trkpt>
<trkpt lat="35.557451111111114" lon="135.90195805555555">
<ele>7</ele>
</trkpt>
<trkpt lat="35.55759305555556" lon="135.90208305555555">
<ele>6</ele>
</trkpt>
<trkpt lat="35.55801805555556" lon="135.90245805555554">
<ele>6</ele>
</trkpt>
<trkpt lat="35.558683888888886" lon="135.903095">
<ele>5</ele>
</trkpt>
<trkpt lat="35.55878388888889" lon="135.90318305555556">
<ele>5</ele>
</trkpt>
<trkpt lat="35.55898388888889" lon="135.90335805555554">
<ele>5</ele>
</trkpt>
<trkpt lat="35.55912611111111" lon="135.90345805555555">
<ele>5</ele>
</trkpt>
<trkpt lat="35.559466944444445" lon="135.90372">
<ele>5</ele>
</trkpt>
<trkpt lat="35.559668055555555" lon="135.90382">
<ele>6</ele>
</trkpt>
<trkpt lat="35.55993388888889" lon="135.90392">
<ele>5</ele>
</trkpt>
<trkpt lat="35.560091944444444" lon="135.90397">
<ele>5</ele>
</trkpt>
<trkpt lat="35.56088388888889" lon="135.904045">
<ele>5</ele>
</trkpt>
<trkpt lat="35.56182611111111" lon="135.90415805555557">
<ele>5</ele>
</trkpt>
<trkpt lat="35.561976111111115" lon="135.90417">
<ele>6</ele>
</trkpt>
<trkpt lat="35.563451111111114" lon="135.90433305555555">
<ele>5</ele>
</trkpt>
<trkpt lat="35.56366694444444" lon="135.90438305555554">
<ele>5</ele>
</trkpt>
<trkpt lat="35.56389194444444" lon="135.90445805555555">
<ele>5</ele>
</trkpt>
<trkpt lat="35.56393388888889" lon="135.904145">
<ele>5</ele>
</trkpt>
<trkpt lat="35.56393388888889" lon="135.90370805555557">
<ele>5</ele>
</trkpt>
<trkpt lat="35.563941944444444" lon="135.90322">
<ele>6</ele>
</trkpt>
<trkpt lat="35.564033888888886" lon="135.903195">
<ele>6</ele>
</trkpt>
<trkpt lat="35.56418388888889" lon="135.903145">
<ele>6</ele>
</trkpt>
<trkpt lat="35.56424194444445" lon="135.90312">
<ele>6</ele>
</trkpt>
<trkpt lat="35.56469194444445" lon="135.90293305555556">
<ele>5</ele>
</trkpt>
<trkpt lat="35.56554194444445" lon="135.90260805555556">
<ele>5</ele>
</trkpt>
<trkpt lat="35.565641944444444" lon="135.90253305555555">
<ele>5</ele>
</trkpt>
<trkpt lat="35.565716944444446" lon="135.90225805555556">
<ele>5</ele>
</trkpt>
<trkpt lat="35.56579194444444" lon="135.90209611111112">
<ele>5</ele>
</trkpt>
<trkpt lat="35.565925" lon="135.90193305555556">
<ele>5</ele>
</trkpt>
<trkpt lat="35.56608388888889" lon="135.9018211111111">
<ele>5</ele>
</trkpt>
<trkpt lat="35.566383888888886" lon="135.90174611111112">
<ele>5</ele>
</trkpt>
<trkpt lat="35.56655" lon="135.90168305555557">
<ele>9</ele>
</trkpt>
<trkpt lat="35.5667" lon="135.90153305555555">
<ele>8</ele>
</trkpt>
<trkpt lat="35.566808888888886" lon="135.9013461111111">
<ele>9</ele>
</trkpt>
<trkpt lat="35.56686694444444" lon="135.90115805555556">
<ele>8</ele>
</trkpt>
<trkpt lat="35.56685888888889" lon="135.90058305555556">
<ele>9</ele>
</trkpt>
<trkpt lat="35.566875" lon="135.9004461111111">
<ele>9</ele>
</trkpt>
<trkpt lat="35.56695" lon="135.90029611111112">
<ele>9</ele>
</trkpt>
<trkpt lat="35.56695888888889" lon="135.90028805555556">
<ele>9</ele>
</trkpt>
<trkpt lat="35.56695888888889" lon="135.90028805555556">
<ele>9</ele>
</trkpt>
<trkpt lat="35.567075" lon="135.90018305555554">
<ele>9</ele>
</trkpt>
<trkpt lat="35.567208055555554" lon="135.9000961111111">
<ele>9</ele>
</trkpt>
<trkpt lat="35.56730805555556" lon="135.90004611111112">
<ele>9</ele>
</trkpt>
<trkpt lat="35.56778305555556" lon="135.89960805555555">
<ele>9</ele>
</trkpt>
<trkpt lat="35.56789194444445" lon="135.89940805555557">
<ele>9</ele>
</trkpt>
<trkpt lat="35.56793305555556" lon="135.89925805555555">
<ele>9</ele>
</trkpt>
<trkpt lat="35.56794194444444" lon="135.89838305555554">
<ele>9</ele>
</trkpt>
<trkpt lat="35.568016944444445" lon="135.89785805555556">
<ele>9</ele>
</trkpt>
<trkpt lat="35.56815805555556" lon="135.8975461111111">
<ele>9</ele>
</trkpt>
<trkpt lat="35.56831694444445" lon="135.8971711111111">
<ele>9</ele>
</trkpt>
<trkpt lat="35.568558055555556" lon="135.89685805555555">
<ele>9</ele>
</trkpt>
<trkpt lat="35.568675" lon="135.89675888888888">
<ele>9</ele>
</trkpt>
<trkpt lat="35.5688" lon="135.8967211111111">
<ele>9</ele>
</trkpt>
<trkpt lat="35.569133055555554" lon="135.8967088888889">
<ele>9</ele>
</trkpt>
<trkpt lat="35.569341944444446" lon="135.89665888888888">
<ele>9</ele>
</trkpt>
<trkpt lat="35.569475" lon="135.89657111111111">
<ele>9</ele>
</trkpt>
<trkpt lat="35.56966611111111" lon="135.8962711111111">
<ele>9</ele>
</trkpt>
<trkpt lat="35.5698" lon="135.89619611111112">
<ele>9</ele>
</trkpt>
<trkpt lat="35.57013305555556" lon="135.8960711111111">
<ele>9</ele>
</trkpt>
<trkpt lat="35.57034111111111" lon="135.8960588888889">
<ele>9</ele>
</trkpt>
<trkpt lat="35.57051611111111" lon="135.89608388888888">
<ele>9</ele>
</trkpt>
<trkpt lat="35.5708" lon="135.8960588888889">
<ele>9</ele>
</trkpt>
<trkpt lat="35.571041111111114" lon="135.89597111111112">
<ele>9</ele>
</trkpt>
<trkpt lat="35.57116611111111" lon="135.89585888888888">
<ele>9</ele>
</trkpt>
<trkpt lat="35.57116611111111" lon="135.89585888888888">
<ele>9</ele>
</trkpt>
<trkpt lat="35.571780833333335" lon="135.8962488888889">
<ele>9</ele>
</trkpt>
<trkpt lat="35.571780833333335" lon="135.8962488888889">
<ele>9</ele>
</trkpt>
<trkpt lat="35.57222138888889" lon="135.8972388888889">
<ele>9</ele>
</trkpt>
<trkpt lat="35.57222138888889" lon="135.8972388888889">
<ele>9</ele>
</trkpt>
<trkpt lat="35.572177777777775" lon="135.89734055555556">
<ele>9</ele>
</trkpt>
<trkpt lat="35.572177777777775" lon="135.89734055555556">
<ele>9</ele>
</trkpt>
<trkpt lat="35.572245555555554" lon="135.89781277777777">
<ele>9</ele>
</trkpt>
<trkpt lat="35.572245555555554" lon="135.89781277777777">
<ele>9</ele>
</trkpt>
<trkpt lat="35.57259666666667" lon="135.8983438888889">
<ele>9</ele>
</trkpt>
<trkpt lat="35.57259666666667" lon="135.8983438888889">
<ele>9</ele>
</trkpt>
<trkpt lat="35.57439" lon="135.89945972222222">
<ele>9</ele>
</trkpt>
<trkpt lat="35.57439" lon="135.89945972222222">
<ele>9</ele>
</trkpt>
<trkpt lat="35.57485694444444" lon="135.90017833333334">
<ele>9</ele>
</trkpt>
<trkpt lat="35.57485694444444" lon="135.90017833333334">
<ele>9</ele>
</trkpt>
<trkpt lat="35.575293055555555" lon="135.90146583333333">
<ele>9</ele>
</trkpt>
<trkpt lat="35.575293055555555" lon="135.90146583333333">
<ele>9</ele>
</trkpt>
<trkpt lat="35.57588666666667" lon="135.90168055555554">
<ele>9</ele>
</trkpt>
<trkpt lat="35.57588666666667" lon="135.90168055555554">
<ele>9</ele>
</trkpt>
<trkpt lat="35.57730027777778" lon="135.90155166666668">
<ele>9</ele>
</trkpt>
<trkpt lat="35.57730027777778" lon="135.90155166666668">
<ele>9</ele>
</trkpt>
<trkpt lat="35.57797222222222" lon="135.90180916666668">
<ele>9</ele>
</trkpt>
<trkpt lat="35.57797222222222" lon="135.90180916666668">
<ele>9</ele>
</trkpt>
<trkpt lat="35.57903888888889" lon="135.90191305555555">
<ele>9</ele>
</trkpt>
<trkpt lat="35.57903888888889" lon="135.90191305555555">
<ele>9</ele>
</trkpt>
<trkpt lat="35.57946611111111" lon="135.90195805555555">
<ele>9</ele>
</trkpt>
<trkpt lat="35.57949111111111" lon="135.90197111111112">
<ele>9</ele>
</trkpt>
<trkpt lat="35.58012388888889" lon="135.9020461111111">
<ele>9</ele>
</trkpt>
<trkpt lat="35.58025694444444" lon="135.9020461111111">
<ele>9</ele>
</trkpt>
<trkpt lat="35.58034888888889" lon="135.9020211111111">
<ele>9</ele>
</trkpt>
<trkpt lat="35.580465" lon="135.90198305555555">
<ele>9</ele>
</trkpt>
<trkpt lat="35.580556944444446" lon="135.90187111111112">
<ele>9</ele>
</trkpt>
<trkpt lat="35.58059" lon="135.9016961111111">
<ele>9</ele>
</trkpt>
<trkpt lat="35.58069" lon="135.90175805555555">
<ele>9</ele>
</trkpt>
<trkpt lat="35.58077388888889" lon="135.90195805555555">
<ele>9</ele>
</trkpt>
<trkpt lat="35.58090694444444" lon="135.90344611111112">
<ele>9</ele>
</trkpt>
<trkpt lat="35.58089888888889" lon="135.90415805555557">
<ele>9</ele>
</trkpt>
<trkpt lat="35.58094888888889" lon="135.90520805555556">
<ele>9</ele>
</trkpt>
<trkpt lat="35.58094" lon="135.905445">
<ele>9</ele>
</trkpt>
<trkpt lat="35.580915" lon="135.90582">
<ele>9</ele>
</trkpt>
<trkpt lat="35.58089888888889" lon="135.906395">
<ele>9</ele>
</trkpt>
<trkpt lat="35.58094888888889" lon="135.90657">
<ele>9</ele>
</trkpt>
<trkpt lat="35.58108194444444" lon="135.90670805555555">
<ele>9</ele>
</trkpt>
<trkpt lat="35.58119" lon="135.90682">
<ele>9</ele>
</trkpt>
<trkpt lat="35.58137388888889" lon="135.906995">
<ele>9</ele>
</trkpt>
<trkpt lat="35.58149" lon="135.90708305555555">
<ele>9</ele>
</trkpt>
<trkpt lat="35.581648888888886" lon="135.90717">
<ele>9</ele>
</trkpt>
<trkpt lat="35.581915" lon="135.907245">
<ele>9</ele>
</trkpt>
<trkpt lat="35.58198194444444" lon="135.90728305555555">
<ele>9</ele>
</trkpt>
<trkpt lat="35.58193194444444" lon="135.90740805555555">
<ele>9</ele>
</trkpt>
<trkpt lat="35.58210694444445" lon="135.90745694444445">
<ele>9</ele>
</trkpt>
<trkpt lat="35.58233194444445" lon="135.90755694444445">
<ele>9</ele>
</trkpt>
<trkpt lat="35.58258194444444" lon="135.90768194444445">
<ele>9</ele>
</trkpt>
<trkpt lat="35.583131944444446" lon="135.90795694444444">
<ele>9</ele>
</trkpt>
<trkpt lat="35.58369" lon="135.90810694444446">
<ele>8</ele>
</trkpt>
<trkpt lat="35.583798055555555" lon="135.90815694444444">
<ele>8</ele>
</trkpt>
<trkpt lat="35.58389805555556" lon="135.90827">
<ele>8</ele>
</trkpt>
<trkpt lat="35.58410694444444" lon="135.90818305555555">
<ele>8</ele>
</trkpt>
<trkpt lat="35.58477305555556" lon="135.90793194444444">
<ele>7</ele>
</trkpt>
<trkpt lat="35.58585611111111" lon="135.90750805555555">
<ele>6</ele>
</trkpt>
<trkpt lat="35.586106111111114" lon="135.90775805555555">
<ele>6</ele>
</trkpt>
<trkpt lat="35.58634" lon="135.907895">
<ele>6</ele>
</trkpt>
<trkpt lat="35.58649805555556" lon="135.907945">
<ele>6</ele>
</trkpt>
<trkpt lat="35.58674805555555" lon="135.907995">
<ele>6</ele>
</trkpt>
<trkpt lat="35.58689" lon="135.90798305555555">
<ele>7</ele>
</trkpt>
<trkpt lat="35.58705611111111" lon="135.90798305555555">
<ele>7</ele>
</trkpt>
<trkpt lat="35.58723888888889" lon="135.908045">
<ele>7</ele>
</trkpt>
<trkpt lat="35.58723888888889" lon="135.908045">
<ele>7</ele>
</trkpt>
<trkpt lat="35.592039444444445" lon="135.9102286111111">
<ele>6</ele>
</trkpt>
<trkpt lat="35.592039444444445" lon="135.9102286111111">
<ele>6</ele>
</trkpt>
<trkpt lat="35.592440833333335" lon="135.91038972222222">
<ele>5</ele>
</trkpt>
<trkpt lat="35.592440833333335" lon="135.91038972222222">
<ele>5</ele>
</trkpt>
<trkpt lat="35.59273722222222" lon="135.9104861111111">
<ele>5</ele>
</trkpt>
<trkpt lat="35.59273722222222" lon="135.9104861111111">
<ele>5</ele>
</trkpt>
<trkpt lat="35.59283777777778" lon="135.91093666666666">
<ele>5</ele>
</trkpt>
<trkpt lat="35.59283777777778" lon="135.91093666666666">
<ele>5</ele>
</trkpt>
<trkpt lat="35.59282888888889" lon="135.91104944444444">
<ele>5</ele>
</trkpt>
<trkpt lat="35.59282888888889" lon="135.91104944444444">
<ele>5</ele>
</trkpt>
<trkpt lat="35.59299472222222" lon="135.9114088888889">
<ele>5</ele>
</trkpt>
<trkpt lat="35.59299472222222" lon="135.9114088888889">
<ele>5</ele>
</trkpt>
<trkpt lat="35.5931475" lon="135.9115375">
<ele>5</ele>
</trkpt>
<trkpt lat="35.5931475" lon="135.9115375">
<ele>5</ele>
</trkpt>
<trkpt lat="35.593474444444446" lon="135.911645">
<ele>5</ele>
</trkpt>
<trkpt lat="35.593474444444446" lon="135.911645">
<ele>5</ele>
</trkpt>
<trkpt lat="35.59356611111111" lon="135.91158055555556">
<ele>5</ele>
</trkpt>
<trkpt lat="35.59356611111111" lon="135.91158055555556">
<ele>5</ele>
</trkpt>
<trkpt lat="35.59407222222222" lon="135.9116825">
<ele>6</ele>
</trkpt>
<trkpt lat="35.59407222222222" lon="135.9116825">
<ele>6</ele>
</trkpt>
<trkpt lat="35.594298888888886" lon="135.91180583333335">
<ele>6</ele>
</trkpt>
<trkpt lat="35.594298888888886" lon="135.91180583333335">
<ele>6</ele>
</trkpt>
<trkpt lat="35.59498388888889" lon="135.91195055555556">
<ele>0</ele>
</trkpt>
<trkpt lat="35.59498388888889" lon="135.91195055555556">
<ele>0</ele>
</trkpt>
<trkpt lat="35.5952675" lon="135.9118327777778">
<ele>0</ele>
</trkpt>
<trkpt lat="35.5952675" lon="135.9118327777778">
<ele>0</ele>
</trkpt>
<trkpt lat="35.59572111111111" lon="135.91163416666666">
<ele>0</ele>
</trkpt>
<trkpt lat="35.59572111111111" lon="135.91163416666666">
<ele>0</ele>
</trkpt>
<trkpt lat="35.59581277777778" lon="135.91163694444444">
<ele>0</ele>
</trkpt>
<trkpt lat="35.59581277777778" lon="135.91163694444444">
<ele>0</ele>
</trkpt>
<trkpt lat="35.595819166666665" lon="135.91186472222222">
<ele>9</ele>
</trkpt>
<trkpt lat="35.595819166666665" lon="135.91186472222222">
<ele>9</ele>
</trkpt>
<trkpt lat="35.59778638888889" lon="135.91209555555557">
<ele>0</ele>
</trkpt>
<trkpt lat="35.59778638888889" lon="135.91209555555557">
<ele>0</ele>
</trkpt>
<trkpt lat="35.59798277777778" lon="135.91224583333334">
<ele>9</ele>
</trkpt>
<trkpt lat="35.59798277777778" lon="135.91224583333334">
<ele>9</ele>
</trkpt>
<trkpt lat="35.598126666666666" lon="135.91222972222224">
<ele>9</ele>
</trkpt>
<trkpt lat="35.598126666666666" lon="135.91222972222224">
<ele>9</ele>
</trkpt>
<trkpt lat="35.59950944444444" lon="135.9130288888889">
<ele>9</ele>
</trkpt>
<trkpt lat="35.59950944444444" lon="135.9130288888889">
<ele>9</ele>
</trkpt>
<trkpt lat="35.59977972222222" lon="135.91311472222222">
<ele>8</ele>
</trkpt>
<trkpt lat="35.59977972222222" lon="135.91311472222222">
<ele>8</ele>
</trkpt>
<trkpt lat="35.60007638888889" lon="135.9124872222222">
<ele>7</ele>
</trkpt>
<trkpt lat="35.60007638888889" lon="135.9124872222222">
<ele>7</ele>
</trkpt>
<trkpt lat="35.60029888888889" lon="135.91174694444445">
<ele>0</ele>
</trkpt>
<trkpt lat="35.60029888888889" lon="135.91174694444445">
<ele>0</ele>
</trkpt>
<trkpt lat="35.60062166666667" lon="135.91131222222222">
<ele>8</ele>
</trkpt>
<trkpt lat="35.60062166666667" lon="135.91131222222222">
<ele>8</ele>
</trkpt>
<trkpt lat="35.601031666666664" lon="135.91038972222222">
<ele>9</ele>
</trkpt>
<trkpt lat="35.601031666666664" lon="135.91038972222222">
<ele>9</ele>
</trkpt>
<trkpt lat="35.60120611111111" lon="135.91031444444445">
<ele>0</ele>
</trkpt>
<trkpt lat="35.60120611111111" lon="135.91031444444445">
<ele>0</ele>
</trkpt>
<trkpt lat="35.602540833333336" lon="135.91073305555557">
<ele>0</ele>
</trkpt>
<trkpt lat="35.602540833333336" lon="135.91073305555557">
<ele>0</ele>
</trkpt>
<trkpt lat="35.602780833333334" lon="135.9109261111111">
<ele>6</ele>
</trkpt>
<trkpt lat="35.602780833333334" lon="135.9109261111111">
<ele>6</ele>
</trkpt>
<trkpt lat="35.60301722222222" lon="135.91087694444445">
<ele>6</ele>
</trkpt>
<trkpt lat="35.60301722222222" lon="135.91087694444445">
<ele>6</ele>
</trkpt>
<trkpt lat="35.60323527777778" lon="135.9107375">
<ele>6</ele>
</trkpt>
<trkpt lat="35.60323527777778" lon="135.9107375">
<ele>6</ele>
</trkpt>
<trkpt lat="35.603837222222225" lon="135.91078027777777">
<ele>7</ele>
</trkpt>
<trkpt lat="35.603837222222225" lon="135.91078027777777">
<ele>7</ele>
</trkpt>
<trkpt lat="35.60420361111111" lon="135.91064083333333">
<ele>0</ele>
</trkpt>
<trkpt lat="35.60420361111111" lon="135.91064083333333">
<ele>0</ele>
</trkpt>
<trkpt lat="35.60476194444445" lon="135.91112361111112">
<ele>8</ele>
</trkpt>
<trkpt lat="35.60476194444445" lon="135.91112361111112">
<ele>8</ele>
</trkpt>
<trkpt lat="35.60505861111111" lon="135.9116386111111">
<ele>0</ele>
</trkpt>
<trkpt lat="35.60505861111111" lon="135.9116386111111">
<ele>0</ele>
</trkpt>
<trkpt lat="35.60577388888889" lon="135.91172444444445">
<ele>8</ele>
</trkpt>
<trkpt lat="35.60577388888889" lon="135.91172444444445">
<ele>8</ele>
</trkpt>
<trkpt lat="35.60623611111111" lon="135.91203555555555">
<ele>8</ele>
</trkpt>
<trkpt lat="35.606231111111114" lon="135.91203611111112">
<ele>8</ele>
</trkpt>
<trkpt lat="35.606228888888886" lon="135.91192">
<ele>8</ele>
</trkpt>
<trkpt lat="35.606228888888886" lon="135.911545">
<ele>8</ele>
</trkpt>
<trkpt lat="35.60620388888889" lon="135.91025805555554">
<ele>9</ele>
</trkpt>
<trkpt lat="35.606211944444446" lon="135.910045">
<ele>9</ele>
</trkpt>
<trkpt lat="35.606228888888886" lon="135.90993194444445">
<ele>9</ele>
</trkpt>
<trkpt lat="35.60625388888889" lon="135.90982">
<ele>9</ele>
</trkpt>
<trkpt lat="35.60635388888889" lon="135.90962">
<ele>9</ele>
</trkpt>
<trkpt lat="35.60643694444445" lon="135.909545">
<ele>9</ele>
</trkpt>
<trkpt lat="35.606645" lon="135.90943305555555">
<ele>9</ele>
</trkpt>
<trkpt lat="35.606786944444444" lon="135.909395">
<ele>9</ele>
</trkpt>
<trkpt lat="35.606878055555555" lon="135.909395">
<ele>9</ele>
</trkpt>
<trkpt lat="35.606995" lon="135.90940805555556">
<ele>9</ele>
</trkpt>
<trkpt lat="35.607445" lon="135.90950805555556">
<ele>7</ele>
</trkpt>
<trkpt lat="35.60762" lon="135.909545">
<ele>8</ele>
</trkpt>
<trkpt lat="35.607928055555554" lon="135.909545">
<ele>9</ele>
</trkpt>
<trkpt lat="35.60807" lon="135.90955805555555">
<ele>9</ele>
</trkpt>
<trkpt lat="35.60825305555556" lon="135.909595">
<ele>9</ele>
</trkpt>
<trkpt lat="35.608495" lon="135.90968305555555">
<ele>9</ele>
</trkpt>
<trkpt lat="35.60853111111111" lon="135.90970194444444">
<ele>9</ele>
</trkpt>
<trkpt lat="35.60853111111111" lon="135.90970194444444">
<ele>9</ele>
</trkpt>
<trkpt lat="35.608845" lon="135.90987">
<ele>7</ele>
</trkpt>
<trkpt lat="35.608995" lon="135.90993194444445">
<ele>7</ele>
</trkpt>
<trkpt lat="35.609186111111114" lon="135.90997">
<ele>7</ele>
</trkpt>
<trkpt lat="35.60957" lon="135.909995">
<ele>7</ele>
</trkpt>
<trkpt lat="35.60997805555556" lon="135.910095">
<ele>6</ele>
</trkpt>
<trkpt lat="35.610053055555554" lon="135.91005694444445">
<ele>7</ele>
</trkpt>
<trkpt lat="35.61028611111111" lon="135.909745">
<ele>9</ele>
</trkpt>
<trkpt lat="35.610461111111114" lon="135.90955805555555">
<ele>8</ele>
</trkpt>
<trkpt lat="35.61121111111111" lon="135.90892">
<ele>9</ele>
</trkpt>
<trkpt lat="35.61129388888889" lon="135.90887">
<ele>9</ele>
</trkpt>
<trkpt lat="35.611668888888886" lon="135.908745">
<ele>6</ele>
</trkpt>
<trkpt lat="35.61254388888889" lon="135.90835805555557">
<ele>5</ele>
</trkpt>
<trkpt lat="35.61311111111111" lon="135.908095">
<ele>5</ele>
</trkpt>
<trkpt lat="35.61389388888889" lon="135.90773305555555">
<ele>5</ele>
</trkpt>
<trkpt lat="35.61434388888889" lon="135.90750805555555">
<ele>5</ele>
</trkpt>
<trkpt lat="35.61467694444445" lon="135.907245">
<ele>6</ele>
</trkpt>
<trkpt lat="35.614961111111114" lon="135.906895">
<ele>7</ele>
</trkpt>
<trkpt lat="35.61516888888889" lon="135.90647">
<ele>5</ele>
</trkpt>
<trkpt lat="35.61530194444445" lon="135.90613305555556">
<ele>0</ele>
</trkpt>
<trkpt lat="35.615318888888886" lon="135.90605805555555">
<ele>6</ele>
</trkpt>
<trkpt lat="35.615316944444444" lon="135.90602305555555">
<ele>6</ele>
</trkpt>
<trkpt lat="35.615316944444444" lon="135.90602305555555">
<ele>6</ele>
</trkpt>
<trkpt lat="35.61531" lon="135.905795">
<ele>6</ele>
</trkpt>
<trkpt lat="35.615276944444446" lon="135.90563305555557">
<ele>7</ele>
</trkpt>
<trkpt lat="35.61516" lon="135.9053461111111">
<ele>7</ele>
</trkpt>
<trkpt lat="35.61503611111111" lon="135.9051211111111">
<ele>8</ele>
</trkpt>
<trkpt lat="35.61474388888889" lon="135.90473305555557">
<ele>9</ele>
</trkpt>
<trkpt lat="35.61470194444444" lon="135.90469611111112">
<ele>9</ele>
</trkpt>
<trkpt lat="35.61426888888889" lon="135.90445805555555">
<ele>9</ele>
</trkpt>
<trkpt lat="35.61421111111111" lon="135.9043961111111">
<ele>9</ele>
</trkpt>
<trkpt lat="35.61410194444444" lon="135.90414611111112">
<ele>9</ele>
</trkpt>
<trkpt lat="35.61381111111111" lon="135.90325805555557">
<ele>9</ele>
</trkpt>
<trkpt lat="35.613576944444446" lon="135.90270805555556">
<ele>9</ele>
</trkpt>
<trkpt lat="35.61343611111111" lon="135.90243305555555">
<ele>9</ele>
</trkpt>
<trkpt lat="35.61331888888889" lon="135.9022711111111">
<ele>9</ele>
</trkpt>
<trkpt lat="35.61272694444445" lon="135.90160805555556">
<ele>9</ele>
</trkpt>
<trkpt lat="35.61261888888889" lon="135.9014711111111">
<ele>9</ele>
</trkpt>
<trkpt lat="35.61244388888889" lon="135.9011711111111">
<ele>9</ele>
</trkpt>
<trkpt lat="35.612093888888886" lon="135.9005461111111">
<ele>8</ele>
</trkpt>
<trkpt lat="35.612026944444445" lon="135.90039611111112">
<ele>8</ele>
</trkpt>
<trkpt lat="35.61198611111111" lon="135.90020805555557">
<ele>8</ele>
</trkpt>
<trkpt lat="35.61201111111111" lon="135.89993305555555">
<ele>7</ele>
</trkpt>
<trkpt lat="35.61203611111111" lon="135.89988305555556">
<ele>8</ele>
</trkpt>
<trkpt lat="35.61226111111111" lon="135.8995711111111">
<ele>7</ele>
</trkpt>
<trkpt lat="35.61231111111111" lon="135.89945805555556">
<ele>7</ele>
</trkpt>
<trkpt lat="35.61234388888889" lon="135.89925805555555">
<ele>7</ele>
</trkpt>
<trkpt lat="35.61235305555556" lon="135.8990961111111">
<ele>8</ele>
</trkpt>
<trkpt lat="35.61236888888889" lon="135.8983088888889">
<ele>6</ele>
</trkpt>
<trkpt lat="35.612386111111114" lon="135.8979961111111">
<ele>8</ele>
</trkpt>
<trkpt lat="35.612426944444444" lon="135.89747111111112">
<ele>6</ele>
</trkpt>
<trkpt lat="35.61246888888889" lon="135.89724611111112">
<ele>8</ele>
</trkpt>
<trkpt lat="35.61255194444445" lon="135.8970461111111">
<ele>5</ele>
</trkpt>
<trkpt lat="35.61263611111111" lon="135.8967211111111">
<ele>7</ele>
</trkpt>
<trkpt lat="35.612651944444444" lon="135.8963711111111">
<ele>6</ele>
</trkpt>
<trkpt lat="35.61261888888889" lon="135.8962461111111">
<ele>6</ele>
</trkpt>
<trkpt lat="35.61255194444445" lon="135.89609611111112">
<ele>8</ele>
</trkpt>
<trkpt lat="35.612051944444445" lon="135.8952338888889">
<ele>9</ele>
</trkpt>
<trkpt lat="35.61170194444444" lon="135.8946588888889">
<ele>7</ele>
</trkpt>
<trkpt lat="35.61161888888889" lon="135.8943711111111">
<ele>5</ele>
</trkpt>
<trkpt lat="35.61151888888889" lon="135.89384611111112">
<ele>3</ele>
</trkpt>
<trkpt lat="35.61147694444445" lon="135.8936461111111">
<ele>1</ele>
</trkpt>
<trkpt lat="35.61141111111111" lon="135.89324611111113">
<ele>3</ele>
</trkpt>
<trkpt lat="35.61141111111111" lon="135.89314611111112">
<ele>4</ele>
</trkpt>
<trkpt lat="35.61143611111111" lon="135.89294611111112">
<ele>4</ele>
</trkpt>
<trkpt lat="35.611441944444444" lon="135.89247194444445">
<ele>5</ele>
</trkpt>
<trkpt lat="35.611441944444444" lon="135.89247194444445">
<ele>5</ele>
</trkpt>
<trkpt lat="35.611443888888886" lon="135.89225888888888">
<ele>6</ele>
</trkpt>
<trkpt lat="35.61147694444445" lon="135.89214611111112">
<ele>3</ele>
</trkpt>
<trkpt lat="35.611536111111114" lon="135.8920461111111">
<ele>4</ele>
</trkpt>
<trkpt lat="35.61174388888889" lon="135.8917588888889">
<ele>0</ele>
</trkpt>
<trkpt lat="35.61177694444444" lon="135.8917088888889">
<ele>0</ele>
</trkpt>
<trkpt lat="35.61192805555556" lon="135.8914838888889">
<ele>0</ele>
</trkpt>
<trkpt lat="35.61196888888889" lon="135.89142194444443">
<ele>0</ele>
</trkpt>
<trkpt lat="35.611961111111114" lon="135.89089694444445">
<ele>1</ele>
</trkpt>
<trkpt lat="35.61208611111111" lon="135.8908088888889">
<ele>3</ele>
</trkpt>
<trkpt lat="35.61219388888889" lon="135.89064694444446">
<ele>0</ele>
</trkpt>
<trkpt lat="35.61223611111111" lon="135.8903838888889">
<ele>6</ele>
</trkpt>
<trkpt lat="35.61221888888889" lon="135.8900338888889">
<ele>0</ele>
</trkpt>
<trkpt lat="35.61216888888889" lon="135.8898338888889">
<ele>0</ele>
</trkpt>
<trkpt lat="35.61177694444444" lon="135.88919694444445">
<ele>0</ele>
</trkpt>
<trkpt lat="35.61150305555555" lon="135.8886838888889">
<ele>0</ele>
</trkpt>
<trkpt lat="35.61125194444445" lon="135.8882338888889">
<ele>0</ele>
</trkpt>
<trkpt lat="35.61108611111111" lon="135.88784694444445">
<ele>0</ele>
</trkpt>
<trkpt lat="35.61098611111111" lon="135.88725888888888">
<ele>0</ele>
</trkpt>
<trkpt lat="35.61091111111111" lon="135.88697194444444">
<ele>9</ele>
</trkpt>
<trkpt lat="35.610753055555556" lon="135.8861588888889">
<ele>0</ele>
</trkpt>
<trkpt lat="35.61061888888889" lon="135.8855838888889">
<ele>0</ele>
</trkpt>
<trkpt lat="35.610575" lon="135.8853311111111">
<ele>0</ele>
</trkpt>
<trkpt lat="35.60790194444444" lon="135.885145">
<ele>9</ele>
</trkpt>
<trkpt lat="35.60789805555556" lon="135.88513805555556">
<ele>0</ele>
</trkpt>
<trkpt lat="35.60790194444444" lon="135.885145">
<ele>9</ele>
</trkpt>
<trkpt lat="35.60782805555556" lon="135.88521">
<ele>9</ele>
</trkpt>
<trkpt lat="35.60762" lon="135.885485">
<ele>9</ele>
</trkpt>
<trkpt lat="35.60747805555555" lon="135.88554694444446">
<ele>9</ele>
</trkpt>
<trkpt lat="35.60725305555555" lon="135.885535">
<ele>9</ele>
</trkpt>
<trkpt lat="35.60682" lon="135.88536">
<ele>9</ele>
</trkpt>
<trkpt lat="35.60637805555555" lon="135.88534694444445">
<ele>9</ele>
</trkpt>
<trkpt lat="35.605511944444444" lon="135.88562194444444">
<ele>9</ele>
</trkpt>
<trkpt lat="35.60516194444445" lon="135.88577194444446">
<ele>9</ele>
</trkpt>
<trkpt lat="35.60485388888889" lon="135.88589694444445">
<ele>9</ele>
</trkpt>
<trkpt lat="35.60470388888889" lon="135.885885">
<ele>9</ele>
</trkpt>
<trkpt lat="35.60455388888889" lon="135.88576">
<ele>9</ele>
</trkpt>
<trkpt lat="35.60441194444444" lon="135.88559694444444">
<ele>8</ele>
</trkpt>
<trkpt lat="35.60422888888889" lon="135.88552194444443">
<ele>9</ele>
</trkpt>
<trkpt lat="35.604011944444444" lon="135.88559694444444">
<ele>9</ele>
</trkpt>
<trkpt lat="35.60368694444445" lon="135.88584694444444">
<ele>9</ele>
</trkpt>
<trkpt lat="35.60346194444445" lon="135.88606">
<ele>9</ele>
</trkpt>
<trkpt lat="35.603361944444444" lon="135.88622194444446">
<ele>9</ele>
</trkpt>
<trkpt lat="35.603361944444444" lon="135.88622194444446">
<ele>9</ele>
</trkpt>
<trkpt lat="35.60327111111111" lon="135.8866588888889">
<ele>9</ele>
</trkpt>
<trkpt lat="35.60317888888889" lon="135.88678388888889">
<ele>9</ele>
</trkpt>
<trkpt lat="35.60303694444445" lon="135.88679694444446">
<ele>9</ele>
</trkpt>
<trkpt lat="35.60292111111111" lon="135.88669694444445">
<ele>9</ele>
</trkpt>
<trkpt lat="35.60242888888889" lon="135.88632194444443">
<ele>9</ele>
</trkpt>
<trkpt lat="35.60222111111111" lon="135.88627194444445">
<ele>9</ele>
</trkpt>
<trkpt lat="35.60194611111111" lon="135.88632194444443">
<ele>9</ele>
</trkpt>
<trkpt lat="35.60161305555555" lon="135.8864338888889">
<ele>9</ele>
</trkpt>
<trkpt lat="35.60149611111111" lon="135.8864338888889">
<ele>9</ele>
</trkpt>
<trkpt lat="35.60092111111111" lon="135.886135">
<ele>8</ele>
</trkpt>
<trkpt lat="35.60067111111111" lon="135.886135">
<ele>9</ele>
</trkpt>
<trkpt lat="35.60048694444444" lon="135.88624694444445">
<ele>9</ele>
</trkpt>
<trkpt lat="35.60012888888889" lon="135.88647194444445">
<ele>9</ele>
</trkpt>
<trkpt lat="35.59992111111111" lon="135.88674694444444">
<ele>8</ele>
</trkpt>
<trkpt lat="35.59970388888889" lon="135.8872088888889">
<ele>9</ele>
</trkpt>
<trkpt lat="35.59963805555556" lon="135.88767194444443">
<ele>9</ele>
</trkpt>
<trkpt lat="35.59967888888889" lon="135.88828388888888">
<ele>9</ele>
</trkpt>
<trkpt lat="35.59975388888889" lon="135.88867194444444">
<ele>8</ele>
</trkpt>
<trkpt lat="35.59976805555556" lon="135.88879194444445">
<ele>9</ele>
</trkpt>
<trkpt lat="35.59976805555556" lon="135.88879194444445">
<ele>9</ele>
</trkpt>
<trkpt lat="35.599803888888886" lon="135.8891088888889">
<ele>9</ele>
</trkpt>
<trkpt lat="35.59992111111111" lon="135.8897088888889">
<ele>9</ele>
</trkpt>
<trkpt lat="35.60019611111111" lon="135.8902838888889">
<ele>9</ele>
</trkpt>
<trkpt lat="35.600228888888886" lon="135.89040888888889">
<ele>9</ele>
</trkpt>
<trkpt lat="35.60019611111111" lon="135.8905088888889">
<ele>9</ele>
</trkpt>
<trkpt lat="35.59981305555556" lon="135.89094694444444">
<ele>9</ele>
</trkpt>
<trkpt lat="35.599738055555555" lon="135.89122194444445">
<ele>9</ele>
</trkpt>
<trkpt lat="35.599738055555555" lon="135.8916088888889">
<ele>9</ele>
</trkpt>
<trkpt lat="35.59978805555556" lon="135.89190888888888">
<ele>9</ele>
</trkpt>
<trkpt lat="35.60017111111111" lon="135.89302194444446">
<ele>9</ele>
</trkpt>
<trkpt lat="35.60030388888889" lon="135.89324611111113">
<ele>9</ele>
</trkpt>
<trkpt lat="35.600546111111115" lon="135.8935211111111">
<ele>9</ele>
</trkpt>
<trkpt lat="35.60066305555556" lon="135.89380888888888">
<ele>8</ele>
</trkpt>
<trkpt lat="35.60066305555556" lon="135.89397888888888">
<ele>9</ele>
</trkpt>
<trkpt lat="35.60066305555556" lon="135.89397888888888">
<ele>9</ele>
</trkpt>
<trkpt lat="35.60066305555556" lon="135.8941961111111">
<ele>9</ele>
</trkpt>
<trkpt lat="35.60071305555556" lon="135.89460888888888">
<ele>9</ele>
</trkpt>
<trkpt lat="35.600788055555554" lon="135.8949961111111">
<ele>9</ele>
</trkpt>
<trkpt lat="35.60096305555555" lon="135.8960711111111">
<ele>9</ele>
</trkpt>
<trkpt lat="35.60088805555556" lon="135.89608388888888">
<ele>9</ele>
</trkpt>
<trkpt lat="35.60073805555555" lon="135.8961461111111">
<ele>8</ele>
</trkpt>
<trkpt lat="35.60063805555556" lon="135.8961588888889">
<ele>9</ele>
</trkpt>
<trkpt lat="35.60023805555556" lon="135.89619611111112">
<ele>9</ele>
</trkpt>
<trkpt lat="35.59994611111111" lon="135.8962588888889">
<ele>9</ele>
</trkpt>
<trkpt lat="35.59968" lon="135.8963588888889">
<ele>9</ele>
</trkpt>
<trkpt lat="35.599446111111114" lon="135.89654611111112">
<ele>9</ele>
</trkpt>
<trkpt lat="35.59919611111111" lon="135.8968588888889">
<ele>9</ele>
</trkpt>
<trkpt lat="35.59896305555556" lon="135.89723388888888">
<ele>9</ele>
</trkpt>
<trkpt lat="35.598838055555554" lon="135.89744611111112">
<ele>9</ele>
</trkpt>
<trkpt lat="35.59833805555556" lon="135.89823388888888">
<ele>9</ele>
</trkpt>
<trkpt lat="35.59803" lon="135.89869611111112">
<ele>9</ele>
</trkpt>
<trkpt lat="35.597971944444446" lon="135.8987838888889">
<ele>9</ele>
</trkpt>
<trkpt lat="35.59793" lon="135.8988338888889">
<ele>9</ele>
</trkpt>
<trkpt lat="35.597813055555555" lon="135.8989711111111">
<ele>9</ele>
</trkpt>
<trkpt lat="35.59762194444444" lon="135.8991211111111">
<ele>9</ele>
</trkpt>
<trkpt lat="35.597346944444446" lon="135.8993088888889">
<ele>9</ele>
</trkpt>
<trkpt lat="35.59694694444445" lon="135.8994338888889">
<ele>9</ele>
</trkpt>
<trkpt lat="35.59668805555555" lon="135.8994461111111">
<ele>9</ele>
</trkpt>
<trkpt lat="35.59659388888889" lon="135.89943694444443">
<ele>9</ele>
</trkpt>
<trkpt lat="35.59659388888889" lon="135.89943694444443">
<ele>9</ele>
</trkpt>
<trkpt lat="35.59592194444444" lon="135.89937111111112">
<ele>9</ele>
</trkpt>
<trkpt lat="35.59563888888889" lon="135.89938388888888">
<ele>9</ele>
</trkpt>
<trkpt lat="35.59547194444445" lon="135.8994211111111">
<ele>9</ele>
</trkpt>
<trkpt lat="35.59513" lon="135.8995338888889">
<ele>8</ele>
</trkpt>
<trkpt lat="35.594813888888886" lon="135.89970888888888">
<ele>9</ele>
</trkpt>
<trkpt lat="35.59462194444444" lon="135.89980888888888">
<ele>9</ele>
</trkpt>
<trkpt lat="35.59424611111111" lon="135.90002805555557">
<ele>9</ele>
</trkpt>
<trkpt lat="35.59424611111111" lon="135.90002805555557">
<ele>9</ele>
</trkpt>
<trkpt lat="35.59402194444444" lon="135.90015805555555">
<ele>9</ele>
</trkpt>
<trkpt lat="35.59354694444445" lon="135.9004461111111">
<ele>9</ele>
</trkpt>
<trkpt lat="35.59281388888889" lon="135.8996588888889">
<ele>8</ele>
</trkpt>
<trkpt lat="35.59316388888889" lon="135.8992211111111">
<ele>9</ele>
</trkpt>
<trkpt lat="35.59343888888889" lon="135.89890888888888">
<ele>9</ele>
</trkpt>
<trkpt lat="35.593448055555555" lon="135.89889805555555">
<ele>9</ele>
</trkpt>
<trkpt lat="35.593448055555555" lon="135.89889805555555">
<ele>9</ele>
</trkpt>
<trkpt lat="35.59315055555555" lon="135.8985575">
<ele>9</ele>
</trkpt>
<trkpt lat="35.59315055555555" lon="135.8985575">
<ele>9</ele>
</trkpt>
<trkpt lat="35.59238722222222" lon="135.8978925">
<ele>20</ele>
</trkpt>
<trkpt lat="35.59238722222222" lon="135.8978925">
<ele>20</ele>
</trkpt>
<trkpt lat="35.59192916666667" lon="135.8971547222222">
<ele>9</ele>
</trkpt>
<trkpt lat="35.59192916666667" lon="135.8971547222222">
<ele>9</ele>
</trkpt>
<trkpt lat="35.59173305555556" lon="135.89692416666668">
<ele>12</ele>
</trkpt>
<trkpt lat="35.59173305555556" lon="135.89692416666668">
<ele>12</ele>
</trkpt>
<trkpt lat="35.591549722222226" lon="135.89689722222224">
<ele>20</ele>
</trkpt>
<trkpt lat="35.591549722222226" lon="135.89689722222224">
<ele>20</ele>
</trkpt>
<trkpt lat="35.59148638888889" lon="135.89688916666665">
<ele>20</ele>
</trkpt>
<trkpt lat="35.59148638888889" lon="135.89688916666665">
<ele>20</ele>
</trkpt>
<trkpt lat="35.59182666666667" lon="135.8964386111111">
<ele>19</ele>
</trkpt>
<trkpt lat="35.59182666666667" lon="135.8964386111111">
<ele>19</ele>
</trkpt>
<trkpt lat="35.5915825" lon="135.8961275">
<ele>9</ele>
</trkpt>
<trkpt lat="35.59160888888889" lon="135.89611194444444">
<ele>13</ele>
</trkpt>
<trkpt lat="35.59157305555556" lon="135.8960211111111">
<ele>12</ele>
</trkpt>
<trkpt lat="35.59139694444445" lon="135.8957211111111">
<ele>9</ele>
</trkpt>
<trkpt lat="35.59130611111111" lon="135.8954461111111">
<ele>9</ele>
</trkpt>
<trkpt lat="35.591231111111114" lon="135.89497111111112">
<ele>9</ele>
</trkpt>
<trkpt lat="35.591256111111115" lon="135.89485888888888">
<ele>9</ele>
</trkpt>
<trkpt lat="35.591388055555555" lon="135.89466">
<ele>9</ele>
</trkpt>
<trkpt lat="35.591388055555555" lon="135.89466">
<ele>9</ele>
</trkpt>
<trkpt lat="35.59143888888889" lon="135.8945838888889">
<ele>9</ele>
</trkpt>
<trkpt lat="35.59144805555555" lon="135.8943088888889">
<ele>9</ele>
</trkpt>
<trkpt lat="35.59143888888889" lon="135.89393388888888">
<ele>9</ele>
</trkpt>
<trkpt lat="35.59148888888889" lon="135.8936961111111">
<ele>9</ele>
</trkpt>
<trkpt lat="35.591496944444444" lon="135.8935711111111">
<ele>9</ele>
</trkpt>
<trkpt lat="35.59148111111111" lon="135.8929588888889">
<ele>9</ele>
</trkpt>
<trkpt lat="35.59143888888889" lon="135.89269694444445">
<ele>9</ele>
</trkpt>
<trkpt lat="35.59143888888889" lon="135.89252194444444">
<ele>9</ele>
</trkpt>
<trkpt lat="35.59147194444444" lon="135.89209694444443">
<ele>9</ele>
</trkpt>
<trkpt lat="35.59147194444444" lon="135.8919588888889">
<ele>9</ele>
</trkpt>
<trkpt lat="35.591496944444444" lon="135.89168388888888">
<ele>9</ele>
</trkpt>
<trkpt lat="35.591571944444446" lon="135.8913588888889">
<ele>9</ele>
</trkpt>
<trkpt lat="35.59161" lon="135.891275">
<ele>9</ele>
</trkpt>
<trkpt lat="35.59161" lon="135.891275">
<ele>9</ele>
</trkpt>
<trkpt lat="35.59188888888889" lon="135.89065888888888">
<ele>9</ele>
</trkpt>
<trkpt lat="35.59205611111111" lon="135.89017194444443">
<ele>9</ele>
</trkpt>
<trkpt lat="35.59207194444444" lon="135.8900338888889">
<ele>9</ele>
</trkpt>
<trkpt lat="35.59202194444445" lon="135.8896588888889">
<ele>9</ele>
</trkpt>
<trkpt lat="35.59202194444445" lon="135.88953388888888">
<ele>9</ele>
</trkpt>
<trkpt lat="35.59208111111111" lon="135.8894338888889">
<ele>0</ele>
</trkpt>
<trkpt lat="35.592095" lon="135.88941694444443">
<ele>0</ele>
</trkpt>
<trkpt lat="35.592095" lon="135.8894161111111">
<ele>0</ele>
</trkpt>
<trkpt lat="35.59250611111111" lon="135.8889088888889">
<ele>9</ele>
</trkpt>
<trkpt lat="35.59272194444444" lon="135.88874694444445">
<ele>9</ele>
</trkpt>
<trkpt lat="35.593313888888886" lon="135.88849694444446">
<ele>9</ele>
</trkpt>
<trkpt lat="35.593505" lon="135.88847194444443">
<ele>9</ele>
</trkpt>
<trkpt lat="35.59366388888889" lon="135.8884588888889">
<ele>9</ele>
</trkpt>
<trkpt lat="35.59378" lon="135.88842194444445">
<ele>9</ele>
</trkpt>
<trkpt lat="35.59403888888889" lon="135.88829694444445">
<ele>0</ele>
</trkpt>
<trkpt lat="35.594346944444446" lon="135.8882338888889">
<ele>0</ele>
</trkpt>
<trkpt lat="35.594363055555554" lon="135.8882361111111">
<ele>0</ele>
</trkpt>
<trkpt lat="35.594363055555554" lon="135.8882361111111">
<ele>0</ele>
</trkpt>
<trkpt lat="35.594571944444446" lon="135.88825888888888">
<ele>0</ele>
</trkpt>
<trkpt lat="35.595005" lon="135.88838388888888">
<ele>9</ele>
</trkpt>
<trkpt lat="35.59528" lon="135.88828388888888">
<ele>9</ele>
</trkpt>
<trkpt lat="35.59573" lon="135.88824694444443">
<ele>8</ele>
</trkpt>
<trkpt lat="35.59593" lon="135.88819694444445">
<ele>9</ele>
</trkpt>
<trkpt lat="35.596246944444445" lon="135.88819694444445">
<ele>9</ele>
</trkpt>
<trkpt lat="35.596293055555556" lon="135.8882">
<ele>9</ele>
</trkpt>
<trkpt lat="35.596293055555556" lon="135.8882">
<ele>9</ele>
</trkpt>
<trkpt lat="35.59643" lon="135.8882088888889">
<ele>9</ele>
</trkpt>
<trkpt lat="35.596738055555555" lon="135.88828388888888">
<ele>9</ele>
</trkpt>
<trkpt lat="35.59707111111111" lon="135.88828388888888">
<ele>9</ele>
</trkpt>
<trkpt lat="35.59729611111111" lon="135.88832194444444">
<ele>9</ele>
</trkpt>
<trkpt lat="35.59749611111111" lon="135.88818388888888">
<ele>9</ele>
</trkpt>
<trkpt lat="35.59759611111111" lon="135.88807194444445">
<ele>8</ele>
</trkpt>
<trkpt lat="35.597613055555556" lon="135.8880538888889">
<ele>8</ele>
</trkpt>
<trkpt lat="35.597613055555556" lon="135.8880538888889">
<ele>8</ele>
</trkpt>
<trkpt lat="35.59778" lon="135.8878838888889">
<ele>9</ele>
</trkpt>
<trkpt lat="35.597855" lon="135.88770888888888">
<ele>9</ele>
</trkpt>
<trkpt lat="35.597855" lon="135.88748388888888">
<ele>9</ele>
</trkpt>
<trkpt lat="35.597788055555554" lon="135.88714694444445">
<ele>9</ele>
</trkpt>
<trkpt lat="35.59779611111111" lon="135.88693388888888">
<ele>8</ele>
</trkpt>
<trkpt lat="35.59771305555556" lon="135.88677194444443">
<ele>9</ele>
</trkpt>
<trkpt lat="35.59727111111111" lon="135.88648388888888">
<ele>9</ele>
</trkpt>
<trkpt lat="35.59682111111111" lon="135.88649694444445">
<ele>9</ele>
</trkpt>
<trkpt lat="35.59658805555556" lon="135.88639694444444">
<ele>9</ele>
</trkpt>
<trkpt lat="35.596488055555554" lon="135.88527194444444">
<ele>9</ele>
</trkpt>
<trkpt lat="35.596536111111114" lon="135.88524805555556">
<ele>9</ele>
</trkpt>
<trkpt lat="35.596536111111114" lon="135.88524805555556">
<ele>9</ele>
</trkpt>
<trkpt lat="35.59701305555556" lon="135.88501">
<ele>9</ele>
</trkpt>
<trkpt lat="35.59757111111111" lon="135.88401">
<ele>9</ele>
</trkpt>
<trkpt lat="35.597838055555556" lon="135.88354694444445">
<ele>8</ele>
</trkpt>
<trkpt lat="35.59824611111111" lon="135.88307194444445">
<ele>9</ele>
</trkpt>
<trkpt lat="35.59836888888889" lon="135.8830988888889">
<ele>9</ele>
</trkpt>
<trkpt lat="35.59836888888889" lon="135.8830988888889">
<ele>9</ele>
</trkpt>
<trkpt lat="35.59870388888889" lon="135.88317194444446">
<ele>9</ele>
</trkpt>
<trkpt lat="35.59913805555556" lon="135.883085">
<ele>9</ele>
</trkpt>
<trkpt lat="35.59954611111111" lon="135.88317194444446">
<ele>9</ele>
</trkpt>
<trkpt lat="35.600253888888886" lon="135.88322194444444">
<ele>9</ele>
</trkpt>
<trkpt lat="35.600763055555554" lon="135.88243">
<ele>9</ele>
</trkpt>
<trkpt lat="35.600763055555554" lon="135.88243">
<ele>9</ele>
</trkpt>
<trkpt lat="35.60092888888889" lon="135.88217194444445">
<ele>9</ele>
</trkpt>
<trkpt lat="35.60142111111111" lon="135.881785">
<ele>9</ele>
</trkpt>
<trkpt lat="35.60179611111111" lon="135.88152194444444">
<ele>9</ele>
</trkpt>
<trkpt lat="35.602111944444445" lon="135.88107305555556">
<ele>9</ele>
</trkpt>
<trkpt lat="35.60210388888889" lon="135.88037194444445">
<ele>8</ele>
</trkpt>
<trkpt lat="35.60189611111111" lon="135.87979388888888">
<ele>9</ele>
</trkpt>
<trkpt lat="35.60189611111111" lon="135.87979388888888">
<ele>9</ele>
</trkpt>
<trkpt lat="35.60187111111111" lon="135.87972305555556">
<ele>9</ele>
</trkpt>
<trkpt lat="35.60137111111111" lon="135.879085">
<ele>9</ele>
</trkpt>
<trkpt lat="35.60099611111111" lon="135.878885">
<ele>8</ele>
</trkpt>
<trkpt lat="35.60057111111111" lon="135.87894805555555">
<ele>9</ele>
</trkpt>
<trkpt lat="35.599988055555556" lon="135.87891">
<ele>9</ele>
</trkpt>
<trkpt lat="35.599603055555555" lon="135.87867305555557">
<ele>9</ele>
</trkpt>
<trkpt lat="35.599603055555555" lon="135.87867305555557">
<ele>9</ele>
</trkpt>
<trkpt lat="35.59923805555555" lon="135.87844805555557">
<ele>9</ele>
</trkpt>
<trkpt lat="35.59905388888889" lon="135.87832305555557">
<ele>9</ele>
</trkpt>
<trkpt lat="35.598488055555556" lon="135.87772305555555">
<ele>9</ele>
</trkpt>
<trkpt lat="35.59609611111111" lon="135.87661111111112">
<ele>9</ele>
</trkpt>
<trkpt lat="35.59558805555555" lon="135.8767611111111">
<ele>9</ele>
</trkpt>
<trkpt lat="35.595213055555554" lon="135.87679805555555">
<ele>9</ele>
</trkpt>
<trkpt lat="35.59474111111111" lon="135.87660888888888">
<ele>9</ele>
</trkpt>
<trkpt lat="35.59474111111111" lon="135.87660888888888">
<ele>9</ele>
</trkpt>
<trkpt lat="35.594588055555555" lon="135.87654805555556">
<ele>9</ele>
</trkpt>
<trkpt lat="35.594055" lon="135.8762861111111">
<ele>9</ele>
</trkpt>
<trkpt lat="35.59272194444444" lon="135.87537305555554">
<ele>9</ele>
</trkpt>
<trkpt lat="35.59238805555555" lon="135.87526111111112">
<ele>12</ele>
</trkpt>
<trkpt lat="35.59191388888889" lon="135.87569805555555">
<ele>10</ele>
</trkpt>
<trkpt lat="35.591305" lon="135.87639805555557">
<ele>9</ele>
</trkpt>
<trkpt lat="35.59082194444444" lon="135.8766361111111">
<ele>9</ele>
</trkpt>
<trkpt lat="35.59038888888889" lon="135.87716">
<ele>9</ele>
</trkpt>
<trkpt lat="35.589863888888885" lon="135.87736">
<ele>9</ele>
</trkpt>
<trkpt lat="35.589106111111114" lon="135.87774805555554">
<ele>12</ele>
</trkpt>
<trkpt lat="35.58867388888889" lon="135.87766194444444">
<ele>9</ele>
</trkpt>
<trkpt lat="35.58867388888889" lon="135.87766194444444">
<ele>9</ele>
</trkpt>
<trkpt lat="35.58866388888889" lon="135.87766">
<ele>9</ele>
</trkpt>
<trkpt lat="35.58837194444445" lon="135.87719805555557">
<ele>9</ele>
</trkpt>
<trkpt lat="35.588298055555555" lon="135.87694805555554">
<ele>9</ele>
</trkpt>
<trkpt lat="35.58848111111111" lon="135.8753861111111">
<ele>9</ele>
</trkpt>
<trkpt lat="35.58797194444445" lon="135.8738111111111">
<ele>9</ele>
</trkpt>
<trkpt lat="35.58804111111111" lon="135.8737138888889">
<ele>9</ele>
</trkpt>
<trkpt lat="35.58804111111111" lon="135.8737138888889">
<ele>9</ele>
</trkpt>
<trkpt lat="35.58915611111111" lon="135.87214805555556">
<ele>9</ele>
</trkpt>
<trkpt lat="35.58928888888889" lon="135.87184805555555">
<ele>9</ele>
</trkpt>
<trkpt lat="35.58976388888889" lon="135.87132305555556">
<ele>9</ele>
</trkpt>
<trkpt lat="35.58992194444444" lon="135.87122305555556">
<ele>9</ele>
</trkpt>
<trkpt lat="35.59101388888889" lon="135.8700988888889">
<ele>9</ele>
</trkpt>
<trkpt lat="35.591613055555555" lon="135.86991111111112">
<ele>9</ele>
</trkpt>
<trkpt lat="35.592038055555555" lon="135.8691861111111">
<ele>9</ele>
</trkpt>
<trkpt lat="35.59209694444444" lon="135.8687238888889">
<ele>9</ele>
</trkpt>
<trkpt lat="35.591883055555556" lon="135.86809194444444">
<ele>9</ele>
</trkpt>
<trkpt lat="35.591883055555556" lon="135.86809194444444">
<ele>9</ele>
</trkpt>
<trkpt lat="35.591813055555555" lon="135.86788611111112">
<ele>9</ele>
</trkpt>
<trkpt lat="35.59126305555556" lon="135.86742388888888">
<ele>9</ele>
</trkpt>
<trkpt lat="35.59118" lon="135.8674488888889">
<ele>9</ele>
</trkpt>
<trkpt lat="35.59103" lon="135.86742388888888">
<ele>9</ele>
</trkpt>
<trkpt lat="35.59057194444444" lon="135.8672488888889">
<ele>9</ele>
</trkpt>
<trkpt lat="35.590071944444446" lon="135.8670488888889">
<ele>0</ele>
</trkpt>
<trkpt lat="35.58987194444445" lon="135.8669988888889">
<ele>9</ele>
</trkpt>
<trkpt lat="35.58934305555555" lon="135.86678305555554">
<ele>2</ele>
</trkpt>
<trkpt lat="35.58934305555555" lon="135.86678305555554">
<ele>2</ele>
</trkpt>
<trkpt lat="35.589196944444446" lon="135.86672388888888">
<ele>0</ele>
</trkpt>
<trkpt lat="35.58902194444445" lon="135.8666111111111">
<ele>9</ele>
</trkpt>
<trkpt lat="35.588771944444446" lon="135.8663611111111">
<ele>0</ele>
</trkpt>
<trkpt lat="35.58858111111111" lon="135.86604888888888">
<ele>9</ele>
</trkpt>
<trkpt lat="35.58853111111111" lon="135.8659238888889">
<ele>0</ele>
</trkpt>
<trkpt lat="35.58848888888889" lon="135.86571111111112">
<ele>9</ele>
</trkpt>
<trkpt lat="35.58846388888889" lon="135.86538611111112">
<ele>9</ele>
</trkpt>
<trkpt lat="35.58843888888889" lon="135.86503611111112">
<ele>9</ele>
</trkpt>
<trkpt lat="35.58840611111111" lon="135.86481111111112">
<ele>9</ele>
</trkpt>
<trkpt lat="35.58835611111111" lon="135.8646238888889">
<ele>9</ele>
</trkpt>
<trkpt lat="35.58827194444444" lon="135.8644238888889">
<ele>9</ele>
</trkpt>
<trkpt lat="35.58815611111111" lon="135.86426194444445">
<ele>9</ele>
</trkpt>
<trkpt lat="35.58798111111111" lon="135.86411194444443">
<ele>9</ele>
</trkpt>
<trkpt lat="35.58782194444444" lon="135.8639988888889">
<ele>9</ele>
</trkpt>
<trkpt lat="35.58770611111111" lon="135.8643361111111">
<ele>9</ele>
</trkpt>
<trkpt lat="35.58748888888889" lon="135.8646611111111">
<ele>9</ele>
</trkpt>
<trkpt lat="35.58718888888889" lon="135.8649861111111">
<ele>9</ele>
</trkpt>
<trkpt lat="35.58698111111111" lon="135.8651988888889">
<ele>9</ele>
</trkpt>
<trkpt lat="35.58678111111111" lon="135.86537388888888">
<ele>9</ele>
</trkpt>
<trkpt lat="35.586621944444445" lon="135.86547388888889">
<ele>9</ele>
</trkpt>
<trkpt lat="35.58654694444444" lon="135.8655361111111">
<ele>9</ele>
</trkpt>
<trkpt lat="35.58649694444444" lon="135.8655738888889">
<ele>9</ele>
</trkpt>
<trkpt lat="35.58640611111111" lon="135.8656488888889">
<ele>9</ele>
</trkpt>
<trkpt lat="35.58603111111111" lon="135.8659988888889">
<ele>9</ele>
</trkpt>
<trkpt lat="35.58588888888889" lon="135.8661988888889">
<ele>9</ele>
</trkpt>
<trkpt lat="35.58578111111111" lon="135.86631111111112">
<ele>9</ele>
</trkpt>
<trkpt lat="35.58565611111111" lon="135.8664238888889">
<ele>9</ele>
</trkpt>
<trkpt lat="35.585521944444444" lon="135.8665988888889">
<ele>8</ele>
</trkpt>
<trkpt lat="35.585388888888886" lon="135.8668238888889">
<ele>7</ele>
</trkpt>
<trkpt lat="35.58517194444445" lon="135.8670361111111">
<ele>6</ele>
</trkpt>
<trkpt lat="35.584831111111114" lon="135.8672611111111">
<ele>7</ele>
</trkpt>
<trkpt lat="35.58442888888889" lon="135.86766">
<ele>9</ele>
</trkpt>
<trkpt lat="35.58442888888889" lon="135.86766">
<ele>9</ele>
</trkpt>
<trkpt lat="35.58438888888889" lon="135.8676988888889">
<ele>9</ele>
</trkpt>
<trkpt lat="35.584198055555554" lon="135.86786111111113">
<ele>9</ele>
</trkpt>
<trkpt lat="35.58392305555556" lon="135.8680488888889">
<ele>9</ele>
</trkpt>
<trkpt lat="35.583663888888886" lon="135.8682611111111">
<ele>9</ele>
</trkpt>
<trkpt lat="35.58333888888889" lon="135.86846111111112">
<ele>9</ele>
</trkpt>
<trkpt lat="35.582165" lon="135.86909888888889">
<ele>9</ele>
</trkpt>
<trkpt lat="35.58204805555555" lon="135.8691988888889">
<ele>9</ele>
</trkpt>
<trkpt lat="35.581848055555554" lon="135.86946111111112">
<ele>9</ele>
</trkpt>
<trkpt lat="35.58168111111111" lon="135.8696238888889">
<ele>9</ele>
</trkpt>
<trkpt lat="35.58135611111111" lon="135.8698861111111">
<ele>9</ele>
</trkpt>
<trkpt lat="35.58119" lon="135.8700111111111">
<ele>9</ele>
</trkpt>
<trkpt lat="35.580998055555554" lon="135.8700861111111">
<ele>9</ele>
</trkpt>
<trkpt lat="35.58038111111111" lon="135.8700988888889">
<ele>9</ele>
</trkpt>
<trkpt lat="35.58018111111111" lon="135.8701111111111">
<ele>9</ele>
</trkpt>
<trkpt lat="35.579931944444446" lon="135.8701988888889">
<ele>9</ele>
</trkpt>
<trkpt lat="35.579765" lon="135.8703111111111">
<ele>9</ele>
</trkpt>
<trkpt lat="35.57959" lon="135.8704488888889">
<ele>9</ele>
</trkpt>
<trkpt lat="35.57944" lon="135.87061111111112">
<ele>9</ele>
</trkpt>
<trkpt lat="35.57929" lon="135.8707488888889">
<ele>9</ele>
</trkpt>
<trkpt lat="35.57849" lon="135.87151111111112">
<ele>9</ele>
</trkpt>
<trkpt lat="35.57805694444444" lon="135.87187305555557">
<ele>9</ele>
</trkpt>
<trkpt lat="35.57797388888889" lon="135.8719861111111">
<ele>9</ele>
</trkpt>
<trkpt lat="35.57789888888889" lon="135.87214805555556">
<ele>9</ele>
</trkpt>
<trkpt lat="35.57777388888889" lon="135.8724611111111">
<ele>8</ele>
</trkpt>
<trkpt lat="35.57774" lon="135.87267305555557">
<ele>8</ele>
</trkpt>
<trkpt lat="35.577731944444444" lon="135.87286111111112">
<ele>9</ele>
</trkpt>
<trkpt lat="35.577981944444446" lon="135.87429805555556">
<ele>9</ele>
</trkpt>
<trkpt lat="35.57804" lon="135.8746361111111">
<ele>9</ele>
</trkpt>
<trkpt lat="35.57809" lon="135.87511111111112">
<ele>9</ele>
</trkpt>
<trkpt lat="35.57809888888889" lon="135.87539805555556">
<ele>9</ele>
</trkpt>
<trkpt lat="35.578165" lon="135.87572305555557">
<ele>9</ele>
</trkpt>
<trkpt lat="35.57842388888889" lon="135.87624805555555">
<ele>9</ele>
</trkpt>
<trkpt lat="35.578515" lon="135.8764361111111">
<ele>9</ele>
</trkpt>
<trkpt lat="35.57852388888889" lon="135.87649805555554">
<ele>9</ele>
</trkpt>
<trkpt lat="35.57850694444444" lon="135.87672305555554">
<ele>8</ele>
</trkpt>
<trkpt lat="35.57839" lon="135.87699805555556">
<ele>9</ele>
</trkpt>
<trkpt lat="35.57828888888889" lon="135.87717805555556">
<ele>9</ele>
</trkpt>
<trkpt lat="35.57828888888889" lon="135.87717805555556">
<ele>9</ele>
</trkpt>
<trkpt lat="35.57817388888889" lon="135.877385">
<ele>9</ele>
</trkpt>
<trkpt lat="35.577981944444446" lon="135.87769805555556">
<ele>9</ele>
</trkpt>
<trkpt lat="35.57785694444444" lon="135.87787305555557">
<ele>9</ele>
</trkpt>
<trkpt lat="35.577706944444444" lon="135.87794805555555">
<ele>9</ele>
</trkpt>
<trkpt lat="35.57695694444445" lon="135.878035">
<ele>9</ele>
</trkpt>
<trkpt lat="35.576723888888885" lon="135.87804805555555">
<ele>9</ele>
</trkpt>
<trkpt lat="35.57657388888889" lon="135.87802305555556">
<ele>9</ele>
</trkpt>
<trkpt lat="35.57644111111111" lon="135.87797305555554">
<ele>9</ele>
</trkpt>
<trkpt lat="35.57631611111111" lon="135.877885">
<ele>9</ele>
</trkpt>
<trkpt lat="35.57621611111111" lon="135.87779805555556">
<ele>9</ele>
</trkpt>
<trkpt lat="35.57607388888889" lon="135.87759805555555">
<ele>9</ele>
</trkpt>
<trkpt lat="35.57589111111111" lon="135.877235">
<ele>9</ele>
</trkpt>
<trkpt lat="35.57529888888889" lon="135.8757361111111">
<ele>9</ele>
</trkpt>
<trkpt lat="35.575181944444445" lon="135.8754111111111">
<ele>9</ele>
</trkpt>
<trkpt lat="35.57512388888889" lon="135.87509805555555">
<ele>9</ele>
</trkpt>
<trkpt lat="35.57513194444444" lon="135.87464805555555">
<ele>7</ele>
</trkpt>
<trkpt lat="35.57514888888889" lon="135.87437305555557">
<ele>6</ele>
</trkpt>
<trkpt lat="35.57509888888889" lon="135.87392305555557">
<ele>6</ele>
</trkpt>
<trkpt lat="35.574931944444444" lon="135.87344805555554">
<ele>7</ele>
</trkpt>
<trkpt lat="35.57474111111111" lon="135.87312305555557">
<ele>7</ele>
</trkpt>
<trkpt lat="35.57448194444444" lon="135.87287305555554">
<ele>8</ele>
</trkpt>
<trkpt lat="35.57416611111111" lon="135.87273611111112">
<ele>9</ele>
</trkpt>
<trkpt lat="35.573816111111114" lon="135.87267305555557">
<ele>8</ele>
</trkpt>
<trkpt lat="35.572766111111115" lon="135.87253611111112">
<ele>9</ele>
</trkpt>
<trkpt lat="35.57266611111111" lon="135.87251111111112">
<ele>9</ele>
</trkpt>
<trkpt lat="35.57259888888889" lon="135.8724611111111">
<ele>9</ele>
</trkpt>
<trkpt lat="35.57249888888889" lon="135.87232305555557">
<ele>9</ele>
</trkpt>
<trkpt lat="35.57243305555556" lon="135.87222305555557">
<ele>9</ele>
</trkpt>
<trkpt lat="35.572408055555556" lon="135.87214805555556">
<ele>9</ele>
</trkpt>
<trkpt lat="35.572381944444444" lon="135.87207305555555">
<ele>9</ele>
</trkpt>
<trkpt lat="35.572356944444444" lon="135.87183611111112">
<ele>9</ele>
</trkpt>
<trkpt lat="35.57251611111111" lon="135.87102305555555">
<ele>8</ele>
</trkpt>
<trkpt lat="35.572518055555555" lon="135.87092611111112">
<ele>8</ele>
</trkpt>
<trkpt lat="35.572518055555555" lon="135.87092611111112">
<ele>8</ele>
</trkpt>
<trkpt lat="35.57253194444444" lon="135.8702361111111">
<ele>9</ele>
</trkpt>
<trkpt lat="35.57254888888889" lon="135.8700488888889">
<ele>9</ele>
</trkpt>
<trkpt lat="35.57266611111111" lon="135.8695488888889">
<ele>9</ele>
</trkpt>
<trkpt lat="35.57273194444444" lon="135.8691738888889">
<ele>9</ele>
</trkpt>
<trkpt lat="35.57273194444444" lon="135.8688611111111">
<ele>9</ele>
</trkpt>
<trkpt lat="35.572631944444446" lon="135.8683988888889">
<ele>8</ele>
</trkpt>
<trkpt lat="35.57252388888889" lon="135.86798611111112">
<ele>8</ele>
</trkpt>
<trkpt lat="35.572381944444444" lon="135.86764888888888">
<ele>8</ele>
</trkpt>
<trkpt lat="35.572316111111114" lon="135.8675861111111">
<ele>8</ele>
</trkpt>
<trkpt lat="35.57164111111111" lon="135.8672611111111">
<ele>9</ele>
</trkpt>
<trkpt lat="35.57140694444445" lon="135.86717388888889">
<ele>9</ele>
</trkpt>
<trkpt lat="35.57132388888889" lon="135.8671611111111">
<ele>9</ele>
</trkpt>
<trkpt lat="35.57106611111111" lon="135.86717388888889">
<ele>8</ele>
</trkpt>
<trkpt lat="35.570856944444444" lon="135.8672238888889">
<ele>8</ele>
</trkpt>
<trkpt lat="35.570231944444444" lon="135.8672238888889">
<ele>9</ele>
</trkpt>
<trkpt lat="35.56974888888889" lon="135.86732388888888">
<ele>8</ele>
</trkpt>
<trkpt lat="35.56951611111111" lon="135.86742388888888">
<ele>9</ele>
</trkpt>
<trkpt lat="35.56834111111111" lon="135.8684988888889">
<ele>9</ele>
</trkpt>
<trkpt lat="35.56800805555555" lon="135.86879888888888">
<ele>9</ele>
</trkpt>
<trkpt lat="35.56786611111111" lon="135.86888611111112">
<ele>9</ele>
</trkpt>
<trkpt lat="35.56756611111111" lon="135.8690488888889">
<ele>9</ele>
</trkpt>
<trkpt lat="35.567433055555554" lon="135.8690861111111">
<ele>9</ele>
</trkpt>
<trkpt lat="35.56721611111111" lon="135.86912388888888">
<ele>9</ele>
</trkpt>
<trkpt lat="35.56710805555556" lon="135.8690738888889">
<ele>9</ele>
</trkpt>
<trkpt lat="35.566985" lon="135.8689511111111">
<ele>9</ele>
</trkpt>
<trkpt lat="35.566985" lon="135.8689511111111">
<ele>9</ele>
</trkpt>
<trkpt lat="35.56698305555555" lon="135.8689488888889">
<ele>9</ele>
</trkpt>
<trkpt lat="35.56694888888889" lon="135.86888611111112">
<ele>9</ele>
</trkpt>
<trkpt lat="35.56692388888889" lon="135.8688361111111">
<ele>9</ele>
</trkpt>
<trkpt lat="35.56689111111111" lon="135.8687238888889">
<ele>9</ele>
</trkpt>
<trkpt lat="35.56641611111111" lon="135.86729888888888">
<ele>6</ele>
</trkpt>
<trkpt lat="35.56628305555556" lon="135.8670611111111">
<ele>6</ele>
</trkpt>
<trkpt lat="35.566175" lon="135.8669238888889">
<ele>6</ele>
</trkpt>
<trkpt lat="35.565983055555556" lon="135.86676111111112">
<ele>6</ele>
</trkpt>
<trkpt lat="35.565575" lon="135.86649888888888">
<ele>5</ele>
</trkpt>
<trkpt lat="35.56506611111111" lon="135.8662361111111">
<ele>5</ele>
</trkpt>
<trkpt lat="35.564725" lon="135.8662111111111">
<ele>5</ele>
</trkpt>
<trkpt lat="35.5645" lon="135.8662361111111">
<ele>5</ele>
</trkpt>
<trkpt lat="35.564375" lon="135.86627388888888">
<ele>5</ele>
</trkpt>
<trkpt lat="35.564275" lon="135.86631111111112">
<ele>5</ele>
</trkpt>
<trkpt lat="35.564208055555554" lon="135.8663738888889">
<ele>5</ele>
</trkpt>
<trkpt lat="35.563541944444445" lon="135.86696111111112">
<ele>6</ele>
</trkpt>
<trkpt lat="35.561658055555554" lon="135.8686111111111">
<ele>5</ele>
</trkpt>
<trkpt lat="35.561391944444445" lon="135.86889888888888">
<ele>5</ele>
</trkpt>
<trkpt lat="35.56133305555556" lon="135.8689738888889">
<ele>5</ele>
</trkpt>
<trkpt lat="35.5608" lon="135.8697611111111">
<ele>5</ele>
</trkpt>
<trkpt lat="35.56073388888889" lon="135.8698361111111">
<ele>5</ele>
</trkpt>
<trkpt lat="35.56065" lon="135.86989888888888">
<ele>5</ele>
</trkpt>
<trkpt lat="35.56050888888889" lon="135.8699488888889">
<ele>5</ele>
</trkpt>
<trkpt lat="35.56025888888889" lon="135.8700111111111">
<ele>5</ele>
</trkpt>
<trkpt lat="35.55990888888889" lon="135.87003611111112">
<ele>5</ele>
</trkpt>
<trkpt lat="35.55970888888889" lon="135.8700861111111">
<ele>5</ele>
</trkpt>
<trkpt lat="35.5591" lon="135.8702861111111">
<ele>5</ele>
</trkpt>
<trkpt lat="35.55905888888889" lon="135.8703238888889">
<ele>5</ele>
</trkpt>
<trkpt lat="35.5588" lon="135.8705238888889">
<ele>5</ele>
</trkpt>
<trkpt lat="35.55848388888889" lon="135.8708738888889">
<ele>5</ele>
</trkpt>
<trkpt lat="35.558326111111114" lon="135.87114805555555">
<ele>5</ele>
</trkpt>
<trkpt lat="35.55827611111111" lon="135.87122305555556">
<ele>5</ele>
</trkpt>
<trkpt lat="35.55824194444445" lon="135.87127305555555">
<ele>5</ele>
</trkpt>
<trkpt lat="35.55800888888889" lon="135.87179805555556">
<ele>6</ele>
</trkpt>
<trkpt lat="35.55795888888889" lon="135.8719861111111">
<ele>5</ele>
</trkpt>
<trkpt lat="35.55791694444444" lon="135.87214805555556">
<ele>6</ele>
</trkpt>
<trkpt lat="35.55782611111111" lon="135.87282305555556">
<ele>5</ele>
</trkpt>
<trkpt lat="35.55783388888889" lon="135.87308611111112">
<ele>6</ele>
</trkpt>
<trkpt lat="35.55783388888889" lon="135.87347305555556">
<ele>6</ele>
</trkpt>
<trkpt lat="35.55785111111111" lon="135.87369805555556">
<ele>6</ele>
</trkpt>
<trkpt lat="35.55788388888889" lon="135.87402305555557">
<ele>6</ele>
</trkpt>
<trkpt lat="35.55795111111111" lon="135.87457305555554">
<ele>7</ele>
</trkpt>
<trkpt lat="35.55797611111111" lon="135.87474805555556">
<ele>7</ele>
</trkpt>
<trkpt lat="35.558033888888886" lon="135.8749611111111">
<ele>8</ele>
</trkpt>
<trkpt lat="35.558166944444444" lon="135.87513611111112">
<ele>8</ele>
</trkpt>
<trkpt lat="35.55840111111111" lon="135.8752861111111">
<ele>8</ele>
</trkpt>
<trkpt lat="35.558816944444445" lon="135.87557305555555">
<ele>9</ele>
</trkpt>
<trkpt lat="35.55900888888889" lon="135.87577305555556">
<ele>9</ele>
</trkpt>
<trkpt lat="35.55948388888889" lon="135.87658611111112">
<ele>9</ele>
</trkpt>
<trkpt lat="35.559601111111114" lon="135.8769111111111">
<ele>9</ele>
</trkpt>
<trkpt lat="35.55978388888889" lon="135.87774805555554">
<ele>9</ele>
</trkpt>
<trkpt lat="35.560051111111115" lon="135.87891">
<ele>9</ele>
</trkpt>
<trkpt lat="35.560141944444446" lon="135.87944805555554">
<ele>9</ele>
</trkpt>
<trkpt lat="35.56015111111111" lon="135.879735">
<ele>9</ele>
</trkpt>
<trkpt lat="35.560141944444446" lon="135.879935">
<ele>9</ele>
</trkpt>
<trkpt lat="35.55998388888889" lon="135.88052194444444">
<ele>9</ele>
</trkpt>
<trkpt lat="35.55984388888889" lon="135.88098305555556">
<ele>9</ele>
</trkpt>
<trkpt lat="35.55984388888889" lon="135.88098305555556">
<ele>9</ele>
</trkpt>
<trkpt lat="35.55980888888889" lon="135.88109805555555">
<ele>9</ele>
</trkpt>
<trkpt lat="35.559641944444444" lon="135.88141">
<ele>9</ele>
</trkpt>
<trkpt lat="35.559466944444445" lon="135.881685">
<ele>9</ele>
</trkpt>
<trkpt lat="35.55878388888889" lon="135.88234805555555">
<ele>9</ele>
</trkpt>
<trkpt lat="35.55827611111111" lon="135.88281">
<ele>9</ele>
</trkpt>
<trkpt lat="35.55815888888889" lon="135.88304694444443">
<ele>9</ele>
</trkpt>
<trkpt lat="35.558101111111114" lon="135.883235">
<ele>9</ele>
</trkpt>
<trkpt lat="35.55806694444444" lon="135.884135">
<ele>9</ele>
</trkpt>
<trkpt lat="35.55806694444444" lon="135.88437194444444">
<ele>9</ele>
</trkpt>
<trkpt lat="35.55808388888889" lon="135.884585">
<ele>9</ele>
</trkpt>
<trkpt lat="35.55811805555555" lon="135.88474694444446">
<ele>9</ele>
</trkpt>
<trkpt lat="35.55820888888889" lon="135.88501">
<ele>9</ele>
</trkpt>
<trkpt lat="35.55853388888889" lon="135.88591">
<ele>9</ele>
</trkpt>
<trkpt lat="35.55871805555556" lon="135.88633388888888">
<ele>9</ele>
</trkpt>
<trkpt lat="35.55891694444445" lon="135.8865338888889">
<ele>9</ele>
</trkpt>
<trkpt lat="35.55907611111111" lon="135.8866088888889">
<ele>9</ele>
</trkpt>
<trkpt lat="35.55962611111111" lon="135.88649694444445">
<ele>9</ele>
</trkpt>
<trkpt lat="35.55983388888889" lon="135.88647194444445">
<ele>9</ele>
</trkpt>
<trkpt lat="35.55999194444444" lon="135.88652194444444">
<ele>9</ele>
</trkpt>
<trkpt lat="35.56013388888889" lon="135.8866338888889">
<ele>9</ele>
</trkpt>
<trkpt lat="35.56107611111111" lon="135.88742194444444">
<ele>9</ele>
</trkpt>
<trkpt lat="35.561191944444445" lon="135.88764694444444">
<ele>9</ele>
</trkpt>
<trkpt lat="35.561641944444446" lon="135.8886838888889">
<ele>9</ele>
</trkpt>
<trkpt lat="35.56198388888889" lon="135.88940888888888">
<ele>9</ele>
</trkpt>
<trkpt lat="35.562041944444445" lon="135.88957194444444">
<ele>9</ele>
</trkpt>
<trkpt lat="35.56205888888889" lon="135.88969694444444">
<ele>9</ele>
</trkpt>
<trkpt lat="35.562041944444445" lon="135.8898088888889">
<ele>9</ele>
</trkpt>
<trkpt lat="35.56200888888889" lon="135.88992194444444">
<ele>9</ele>
</trkpt>
<trkpt lat="35.561791944444444" lon="135.89010888888888">
<ele>9</ele>
</trkpt>
<trkpt lat="35.56154194444444" lon="135.89020888888888">
<ele>9</ele>
</trkpt>
<trkpt lat="35.56130888888889" lon="135.89030888888888">
<ele>9</ele>
</trkpt>
<trkpt lat="35.56112611111111" lon="135.89032194444445">
<ele>9</ele>
</trkpt>
<trkpt lat="35.560566944444446" lon="135.89022194444445">
<ele>9</ele>
</trkpt>
<trkpt lat="35.56041694444444" lon="135.89022194444445">
<ele>9</ele>
</trkpt>
<trkpt lat="35.56025888888889" lon="135.89024694444444">
<ele>9</ele>
</trkpt>
<trkpt lat="35.56013388888889" lon="135.89033388888888">
<ele>9</ele>
</trkpt>
<trkpt lat="35.56001805555555" lon="135.89047194444444">
<ele>9</ele>
</trkpt>
<trkpt lat="35.559401111111114" lon="135.89155888888888">
<ele>9</ele>
</trkpt>
<trkpt lat="35.55915111111111" lon="135.8919961111111">
<ele>9</ele>
</trkpt>
<trkpt lat="35.55909194444445" lon="135.8921588888889">
<ele>9</ele>
</trkpt>
<trkpt lat="35.55905888888889" lon="135.89237111111112">
<ele>9</ele>
</trkpt>
<trkpt lat="35.55907611111111" lon="135.8926338888889">
<ele>9</ele>
</trkpt>
<trkpt lat="35.559418055555554" lon="135.8939711111111">
<ele>9</ele>
</trkpt>
<trkpt lat="35.55948388888889" lon="135.89427111111112">
<ele>9</ele>
</trkpt>
<trkpt lat="35.55949" lon="135.8943911111111">
<ele>9</ele>
</trkpt>
<trkpt lat="35.55949" lon="135.8943911111111">
<ele>9</ele>
</trkpt>
<trkpt lat="35.55950111111111" lon="135.89460888888888">
<ele>9</ele>
</trkpt>
<trkpt lat="35.55948388888889" lon="135.8947588888889">
<ele>9</ele>
</trkpt>
<trkpt lat="35.55942611111111" lon="135.8949088888889">
<ele>9</ele>
</trkpt>
<trkpt lat="35.55928388888889" lon="135.89509611111112">
<ele>9</ele>
</trkpt>
<trkpt lat="35.558951111111114" lon="135.8954961111111">
<ele>9</ele>
</trkpt>
<trkpt lat="35.55831805555555" lon="135.89630888888888">
<ele>9</ele>
</trkpt>
<trkpt lat="35.55821805555556" lon="135.89655888888888">
<ele>9</ele>
</trkpt>
<trkpt lat="35.55820111111111" lon="135.89667111111112">
<ele>9</ele>
</trkpt>
<trkpt lat="35.55818388888889" lon="135.89689611111112">
<ele>9</ele>
</trkpt>
<trkpt lat="35.558168055555555" lon="135.89724611111112">
<ele>9</ele>
</trkpt>
<trkpt lat="35.55809305555555" lon="135.89814611111112">
<ele>9</ele>
</trkpt>
<trkpt lat="35.55805111111111" lon="135.89857111111112">
<ele>9</ele>
</trkpt>
<trkpt lat="35.558033888888886" lon="135.8986461111111">
<ele>9</ele>
</trkpt>
<trkpt lat="35.55795111111111" lon="135.89890805555555">
<ele>9</ele>
</trkpt>
<trkpt lat="35.55787611111111" lon="135.89908305555556">
<ele>9</ele>
</trkpt>
<trkpt lat="35.55777611111111" lon="135.89923305555556">
<ele>8</ele>
</trkpt>
<trkpt lat="35.557293055555554" lon="135.89965805555556">
<ele>8</ele>
</trkpt>
<trkpt lat="35.55690888888889" lon="135.90000805555556">
<ele>9</ele>
</trkpt>
<trkpt lat="35.55675111111111" lon="135.90013305555556">
<ele>9</ele>
</trkpt>
<trkpt lat="35.55656805555556" lon="135.90025805555555">
<ele>9</ele>
</trkpt>
<trkpt lat="35.55631805555556" lon="135.90040805555554">
<ele>9</ele>
</trkpt>
<trkpt lat="35.555976111111114" lon="135.90052111111112">
<ele>9</ele>
</trkpt>
<trkpt lat="35.55576805555555" lon="135.90058305555556">
<ele>9</ele>
</trkpt>
<trkpt lat="35.555635" lon="135.90065805555557">
<ele>9</ele>
</trkpt>
<trkpt lat="35.555593055555555" lon="135.90072111111112">
<ele>9</ele>
</trkpt>
<trkpt lat="35.555568055555554" lon="135.90075805555554">
<ele>9</ele>
</trkpt>
<trkpt lat="35.55556" lon="135.90080805555556">
<ele>9</ele>
</trkpt>
<trkpt lat="35.55556694444444" lon="135.9011711111111">
<ele>8</ele>
</trkpt>
    </trkseg>
  </trk>
</gpx>