<?xml version="1.0" encoding="UTF-8"?>
<gpx version="1.1"
     creator="KMLtoGPX"
     xmlns="http://www.topografix.com/GPX/1/1">
  <metadata>
    <name>Enshu Sanzan & Yokosuka</name>
    <desc>遠州三山＆横須賀</desc>
    <bounds minlat="34.681375" minlon="137.916324" maxlat="34.784462" maxlon="138.040448"/>
  </metadata>
  <trk>
    <name>Enshu Sanzan & Yokosuka</name>
    <trkseg>
<trkpt lat="34.741592" lon="137.925573">
<ele>13.61</ele>
</trkpt>
<trkpt lat="34.741701" lon="137.925552">
<ele>13.84</ele>
</trkpt>
<trkpt lat="34.741776" lon="137.925525">
<ele>13.83</ele>
</trkpt>
<trkpt lat="34.741888" lon="137.925501">
<ele>13.95</ele>
</trkpt>
<trkpt lat="34.742047" lon="137.925386">
<ele>13.81</ele>
</trkpt>
<trkpt lat="34.742161" lon="137.925268">
<ele>13.38</ele>
</trkpt>
<trkpt lat="34.742228" lon="137.925213">
<ele>13.27</ele>
</trkpt>
<trkpt lat="34.742858" lon="137.92487">
<ele>12.36</ele>
</trkpt>
<trkpt lat="34.743198" lon="137.924717">
<ele>11.88</ele>
</trkpt>
<trkpt lat="34.743735" lon="137.924473">
<ele>11.27</ele>
</trkpt>
<trkpt lat="34.744771" lon="137.923969">
<ele>10.94</ele>
</trkpt>
<trkpt lat="34.744797" lon="137.923991">
<ele>11</ele>
</trkpt>
<trkpt lat="34.744969" lon="137.923902">
<ele>10.96</ele>
</trkpt>
<trkpt lat="34.745549" lon="137.923626">
<ele>10.78</ele>
</trkpt>
<trkpt lat="34.745995" lon="137.923404">
<ele>10.09</ele>
</trkpt>
<trkpt lat="34.746021" lon="137.923393">
<ele>10.05</ele>
</trkpt>
<trkpt lat="34.746552" lon="137.923125">
<ele>9.68</ele>
</trkpt>
<trkpt lat="34.747102" lon="137.922863">
<ele>12.32</ele>
</trkpt>
<trkpt lat="34.747375" lon="137.922736">
<ele>11.93</ele>
</trkpt>
<trkpt lat="34.747819" lon="137.92255">
<ele>11.27</ele>
</trkpt>
<trkpt lat="34.748042" lon="137.922478">
<ele>10.87</ele>
</trkpt>
<trkpt lat="34.748481" lon="137.922315">
<ele>10.28</ele>
</trkpt>
<trkpt lat="34.748874" lon="137.922159">
<ele>10.32</ele>
</trkpt>
<trkpt lat="34.749619" lon="137.921822">
<ele>10.52</ele>
</trkpt>
<trkpt lat="34.749885" lon="137.921693">
<ele>10.59</ele>
</trkpt>
<trkpt lat="34.750181" lon="137.921555">
<ele>10.5</ele>
</trkpt>
<trkpt lat="34.750948" lon="137.921233">
<ele>10.5</ele>
</trkpt>
<trkpt lat="34.751321" lon="137.921057">
<ele>10.5</ele>
</trkpt>
<trkpt lat="34.751804" lon="137.920819">
<ele>10.48</ele>
</trkpt>
<trkpt lat="34.753832" lon="137.919748">
<ele>10.37</ele>
</trkpt>
<trkpt lat="34.754721" lon="137.919302">
<ele>10.3</ele>
</trkpt>
<trkpt lat="34.755121" lon="137.919084">
<ele>10.3</ele>
</trkpt>
<trkpt lat="34.755542" lon="137.918857">
<ele>10.3</ele>
</trkpt>
<trkpt lat="34.755704" lon="137.91876">
<ele>10.3</ele>
</trkpt>
<trkpt lat="34.755832" lon="137.918672">
<ele>10.3</ele>
</trkpt>
<trkpt lat="34.75598" lon="137.918603">
<ele>10.3</ele>
</trkpt>
<trkpt lat="34.756173" lon="137.918545">
<ele>10.37</ele>
</trkpt>
<trkpt lat="34.756502" lon="137.918494">
<ele>10.67</ele>
</trkpt>
<trkpt lat="34.757943" lon="137.918332">
<ele>11.69</ele>
</trkpt>
<trkpt lat="34.758358" lon="137.918246">
<ele>11.51</ele>
</trkpt>
<trkpt lat="34.758963" lon="137.918021">
<ele>11.52</ele>
</trkpt>
<trkpt lat="34.761365" lon="137.917147">
<ele>12.81</ele>
</trkpt>
<trkpt lat="34.762164" lon="137.916823">
<ele>13.39</ele>
</trkpt>
<trkpt lat="34.762457" lon="137.916716">
<ele>13.48</ele>
</trkpt>
<trkpt lat="34.763089" lon="137.916452">
<ele>13.91</ele>
</trkpt>
<trkpt lat="34.76322" lon="137.916388">
<ele>13.99</ele>
</trkpt>
<trkpt lat="34.763336" lon="137.916324">
<ele>14.15</ele>
</trkpt>
<trkpt lat="34.76335" lon="137.916345">
<ele>14.15</ele>
</trkpt>
<trkpt lat="34.763356" lon="137.916363">
<ele>14.07</ele>
</trkpt>
<trkpt lat="34.763385" lon="137.916553">
<ele>13.87</ele>
</trkpt>
<trkpt lat="34.763488" lon="137.916635">
<ele>13.85</ele>
</trkpt>
<trkpt lat="34.763846" lon="137.916693">
<ele>13.83</ele>
</trkpt>
<trkpt lat="34.763945" lon="137.916734">
<ele>13.67</ele>
</trkpt>
<trkpt lat="34.764016" lon="137.916757">
<ele>13.61</ele>
</trkpt>
<trkpt lat="34.763976" lon="137.91674">
<ele>13.61</ele>
</trkpt>
<trkpt lat="34.764417" lon="137.916797">
<ele>13.08</ele>
</trkpt>
<trkpt lat="34.764846" lon="137.916926">
<ele>12.87</ele>
</trkpt>
<trkpt lat="34.765153" lon="137.917073">
<ele>12.87</ele>
</trkpt>
<trkpt lat="34.76538" lon="137.917193">
<ele>13.03</ele>
</trkpt>
<trkpt lat="34.765454" lon="137.917235">
<ele>13.08</ele>
</trkpt>
<trkpt lat="34.765888" lon="137.91754">
<ele>13.46</ele>
</trkpt>
<trkpt lat="34.766098" lon="137.917638">
<ele>13.57</ele>
</trkpt>
<trkpt lat="34.766816" lon="137.91792">
<ele>13.7</ele>
</trkpt>
<trkpt lat="34.767758" lon="137.91828">
<ele>14.49</ele>
</trkpt>
<trkpt lat="34.768173" lon="137.918383">
<ele>14.43</ele>
</trkpt>
<trkpt lat="34.768206" lon="137.918382">
<ele>14.42</ele>
</trkpt>
<trkpt lat="34.769014" lon="137.918392">
<ele>14.71</ele>
</trkpt>
<trkpt lat="34.769691" lon="137.918558">
<ele>15.3</ele>
</trkpt>
<trkpt lat="34.770683" lon="137.918857">
<ele>19.82</ele>
</trkpt>
<trkpt lat="34.771328" lon="137.919081">
<ele>16.9</ele>
</trkpt>
<trkpt lat="34.771565" lon="137.919155">
<ele>16.68</ele>
</trkpt>
<trkpt lat="34.77183" lon="137.919238">
<ele>16.83</ele>
</trkpt>
<trkpt lat="34.772157" lon="137.919362">
<ele>17.84</ele>
</trkpt>
<trkpt lat="34.772472" lon="137.919464">
<ele>18.85</ele>
</trkpt>
<trkpt lat="34.772649" lon="137.919507">
<ele>19.29</ele>
</trkpt>
<trkpt lat="34.772973" lon="137.919593">
<ele>19.58</ele>
</trkpt>
<trkpt lat="34.773261" lon="137.919641">
<ele>19.64</ele>
</trkpt>
<trkpt lat="34.773385" lon="137.919689">
<ele>19.74</ele>
</trkpt>
<trkpt lat="34.773424" lon="137.919687">
<ele>19.81</ele>
</trkpt>
<trkpt lat="34.773598" lon="137.919676">
<ele>20.52</ele>
</trkpt>
<trkpt lat="34.773679" lon="137.919832">
<ele>20.29</ele>
</trkpt>
<trkpt lat="34.773768" lon="137.919941">
<ele>21.27</ele>
</trkpt>
<trkpt lat="34.773857" lon="137.919998">
<ele>22.46</ele>
</trkpt>
<trkpt lat="34.774213" lon="137.920261">
<ele>27.55</ele>
</trkpt>
<trkpt lat="34.774485" lon="137.920611">
<ele>28.47</ele>
</trkpt>
<trkpt lat="34.774663" lon="137.9208">
<ele>28.24</ele>
</trkpt>
<trkpt lat="34.774977" lon="137.921064">
<ele>28.89</ele>
</trkpt>
<trkpt lat="34.775054" lon="137.921149">
<ele>28.8</ele>
</trkpt>
<trkpt lat="34.775261" lon="137.921294">
<ele>29.31</ele>
</trkpt>
<trkpt lat="34.775425" lon="137.921386">
<ele>30.12</ele>
</trkpt>
<trkpt lat="34.775695" lon="137.921535">
<ele>35.62</ele>
</trkpt>
<trkpt lat="34.775934" lon="137.921573">
<ele>37.98</ele>
</trkpt>
<trkpt lat="34.776074" lon="137.921614">
<ele>38.18</ele>
</trkpt>
<trkpt lat="34.776208" lon="137.921671">
<ele>38.18</ele>
</trkpt>
<trkpt lat="34.776343" lon="137.921765">
<ele>39.08</ele>
</trkpt>
<trkpt lat="34.776472" lon="137.921827">
<ele>38.88</ele>
</trkpt>
<trkpt lat="34.776802" lon="137.922028">
<ele>39.59</ele>
</trkpt>
<trkpt lat="34.777005" lon="137.922126">
<ele>39.43</ele>
</trkpt>
<trkpt lat="34.777101" lon="137.922159">
<ele>39.18</ele>
</trkpt>
<trkpt lat="34.777237" lon="137.922238">
<ele>39.39</ele>
</trkpt>
<trkpt lat="34.777321" lon="137.922298">
<ele>42.09</ele>
</trkpt>
<trkpt lat="34.777517" lon="137.922413">
<ele>46.07</ele>
</trkpt>
<trkpt lat="34.7776" lon="137.922478">
<ele>48.01</ele>
</trkpt>
<trkpt lat="34.777641" lon="137.922531">
<ele>48.01</ele>
</trkpt>
<trkpt lat="34.777809" lon="137.922698">
<ele>47.22</ele>
</trkpt>
<trkpt lat="34.777817" lon="137.9227">
<ele>47.22</ele>
</trkpt>
<trkpt lat="34.777862" lon="137.922724">
<ele>45.93</ele>
</trkpt>
<trkpt lat="34.777994" lon="137.922796">
<ele>44.88</ele>
</trkpt>
<trkpt lat="34.778305" lon="137.92294">
<ele>41.66</ele>
</trkpt>
<trkpt lat="34.778648" lon="137.923158">
<ele>41.92</ele>
</trkpt>
<trkpt lat="34.779098" lon="137.923529">
<ele>41.67</ele>
</trkpt>
<trkpt lat="34.779327" lon="137.923626">
<ele>40.91</ele>
</trkpt>
<trkpt lat="34.779502" lon="137.923737">
<ele>42.12</ele>
</trkpt>
<trkpt lat="34.779937" lon="137.924172">
<ele>41.32</ele>
</trkpt>
<trkpt lat="34.78033" lon="137.924378">
<ele>41.36</ele>
</trkpt>
<trkpt lat="34.780547" lon="137.924465">
<ele>41.53</ele>
</trkpt>
<trkpt lat="34.78075" lon="137.924416">
<ele>41.17</ele>
</trkpt>
<trkpt lat="34.780787" lon="137.924404">
<ele>41.17</ele>
</trkpt>
<trkpt lat="34.780936" lon="137.924419">
<ele>41.08</ele>
</trkpt>
<trkpt lat="34.781166" lon="137.924474">
<ele>44.56</ele>
</trkpt>
<trkpt lat="34.78124" lon="137.924579">
<ele>46.09</ele>
</trkpt>
<trkpt lat="34.78125" lon="137.924709">
<ele>47.93</ele>
</trkpt>
<trkpt lat="34.781232" lon="137.92474">
<ele>46.83</ele>
</trkpt>
<trkpt lat="34.781178" lon="137.924759">
<ele>46.83</ele>
</trkpt>
<trkpt lat="34.781007" lon="137.924721">
<ele>43.31</ele>
</trkpt>
<trkpt lat="34.780802" lon="137.924777">
<ele>43</ele>
</trkpt>
<trkpt lat="34.780506" lon="137.924875">
<ele>43.25</ele>
</trkpt>
<trkpt lat="34.779395" lon="137.925277">
<ele>29.12</ele>
</trkpt>
<trkpt lat="34.779248" lon="137.925369">
<ele>28.43</ele>
</trkpt>
<trkpt lat="34.779171" lon="137.925439">
<ele>28.39</ele>
</trkpt>
<trkpt lat="34.779046" lon="137.925563">
<ele>27.93</ele>
</trkpt>
<trkpt lat="34.778726" lon="137.925813">
<ele>27.68</ele>
</trkpt>
<trkpt lat="34.778351" lon="137.926118">
<ele>26.51</ele>
</trkpt>
<trkpt lat="34.778089" lon="137.926369">
<ele>23.19</ele>
</trkpt>
<trkpt lat="34.77776" lon="137.926747">
<ele>20.07</ele>
</trkpt>
<trkpt lat="34.777499" lon="137.927109">
<ele>19.17</ele>
</trkpt>
<trkpt lat="34.777446" lon="137.927205">
<ele>19.26</ele>
</trkpt>
<trkpt lat="34.777253" lon="137.927537">
<ele>18.03</ele>
</trkpt>
<trkpt lat="34.777085" lon="137.927751">
<ele>17.59</ele>
</trkpt>
<trkpt lat="34.777121" lon="137.927838">
<ele>17.93</ele>
</trkpt>
<trkpt lat="34.777764" lon="137.928151">
<ele>21.14</ele>
</trkpt>
<trkpt lat="34.777786" lon="137.928164">
<ele>21.14</ele>
</trkpt>
<trkpt lat="34.778018" lon="137.928386">
<ele>28.5</ele>
</trkpt>
<trkpt lat="34.778132" lon="137.928559">
<ele>33.04</ele>
</trkpt>
<trkpt lat="34.778207" lon="137.928746">
<ele>37.53</ele>
</trkpt>
<trkpt lat="34.778266" lon="137.929152">
<ele>25.91</ele>
</trkpt>
<trkpt lat="34.778284" lon="137.929567">
<ele>25.01</ele>
</trkpt>
<trkpt lat="34.778313" lon="137.930018">
<ele>22.64</ele>
</trkpt>
<trkpt lat="34.778381" lon="137.930636">
<ele>19.9</ele>
</trkpt>
<trkpt lat="34.778396" lon="137.9307">
<ele>20.18</ele>
</trkpt>
<trkpt lat="34.778441" lon="137.93083">
<ele>21.63</ele>
</trkpt>
<trkpt lat="34.778491" lon="137.93093">
<ele>23.37</ele>
</trkpt>
<trkpt lat="34.778885" lon="137.931494">
<ele>22.98</ele>
</trkpt>
<trkpt lat="34.779112" lon="137.931839">
<ele>26.6</ele>
</trkpt>
<trkpt lat="34.779401" lon="137.932067">
<ele>27.19</ele>
</trkpt>
<trkpt lat="34.779625" lon="137.932305">
<ele>27.1</ele>
</trkpt>
<trkpt lat="34.779798" lon="137.932566">
<ele>27.49</ele>
</trkpt>
<trkpt lat="34.779894" lon="137.932965">
<ele>28.42</ele>
</trkpt>
<trkpt lat="34.779926" lon="137.933211">
<ele>28.46</ele>
</trkpt>
<trkpt lat="34.779962" lon="137.933554">
<ele>29.22</ele>
</trkpt>
<trkpt lat="34.779991" lon="137.933751">
<ele>29.75</ele>
</trkpt>
<trkpt lat="34.780024" lon="137.934027">
<ele>33.34</ele>
</trkpt>
<trkpt lat="34.780038" lon="137.934066">
<ele>34.81</ele>
</trkpt>
<trkpt lat="34.780048" lon="137.934067">
<ele>33.95</ele>
</trkpt>
<trkpt lat="34.78004" lon="137.934087">
<ele>34.81</ele>
</trkpt>
<trkpt lat="34.780013" lon="137.934101">
<ele>34.81</ele>
</trkpt>
<trkpt lat="34.779971" lon="137.934124">
<ele>37.34</ele>
</trkpt>
<trkpt lat="34.780049" lon="137.934169">
<ele>34.93</ele>
</trkpt>
<trkpt lat="34.780061" lon="137.934227">
<ele>36.09</ele>
</trkpt>
<trkpt lat="34.780115" lon="137.934392">
<ele>38.73</ele>
</trkpt>
<trkpt lat="34.78025" lon="137.934758">
<ele>47.14</ele>
</trkpt>
<trkpt lat="34.780298" lon="137.934903">
<ele>46.37</ele>
</trkpt>
<trkpt lat="34.780365" lon="137.935039">
<ele>43.95</ele>
</trkpt>
<trkpt lat="34.780478" lon="137.935268">
<ele>39.52</ele>
</trkpt>
<trkpt lat="34.780557" lon="137.935487">
<ele>38.84</ele>
</trkpt>
<trkpt lat="34.780634" lon="137.935654">
<ele>38.08</ele>
</trkpt>
<trkpt lat="34.780748" lon="137.935983">
<ele>36.59</ele>
</trkpt>
<trkpt lat="34.780793" lon="137.936226">
<ele>35.4</ele>
</trkpt>
<trkpt lat="34.78083" lon="137.936605">
<ele>33.06</ele>
</trkpt>
<trkpt lat="34.78084" lon="137.936752">
<ele>29.73</ele>
</trkpt>
<trkpt lat="34.780868" lon="137.936993">
<ele>29.33</ele>
</trkpt>
<trkpt lat="34.78092" lon="137.937208">
<ele>29.48</ele>
</trkpt>
<trkpt lat="34.781074" lon="137.937581">
<ele>29.24</ele>
</trkpt>
<trkpt lat="34.781216" lon="137.937891">
<ele>29.58</ele>
</trkpt>
<trkpt lat="34.781282" lon="137.938034">
<ele>29.86</ele>
</trkpt>
<trkpt lat="34.781409" lon="137.9381">
<ele>29.83</ele>
</trkpt>
<trkpt lat="34.78171" lon="137.937986">
<ele>33.28</ele>
</trkpt>
<trkpt lat="34.781853" lon="137.937945">
<ele>33.78</ele>
</trkpt>
<trkpt lat="34.78204" lon="137.937888">
<ele>33.5</ele>
</trkpt>
<trkpt lat="34.78227" lon="137.937834">
<ele>34.18</ele>
</trkpt>
<trkpt lat="34.782416" lon="137.93778">
<ele>34.59</ele>
</trkpt>
<trkpt lat="34.782488" lon="137.937719">
<ele>34.72</ele>
</trkpt>
<trkpt lat="34.782601" lon="137.9376">
<ele>35.22</ele>
</trkpt>
<trkpt lat="34.782769" lon="137.937313">
<ele>36.18</ele>
</trkpt>
<trkpt lat="34.782879" lon="137.937177">
<ele>36.52</ele>
</trkpt>
<trkpt lat="34.783204" lon="137.93687">
<ele>37.34</ele>
</trkpt>
<trkpt lat="34.783231" lon="137.936864">
<ele>37.32</ele>
</trkpt>
<trkpt lat="34.784248" lon="137.936338">
<ele>39.36</ele>
</trkpt>
<trkpt lat="34.784251" lon="137.93634">
<ele>39.36</ele>
</trkpt>
<trkpt lat="34.784462" lon="137.93639">
<ele>40.49</ele>
</trkpt>
<trkpt lat="34.784457" lon="137.936397">
<ele>40.49</ele>
</trkpt>
<trkpt lat="34.784322" lon="137.936332">
<ele>39.56</ele>
</trkpt>
<trkpt lat="34.784227" lon="137.936343">
<ele>39.36</ele>
</trkpt>
<trkpt lat="34.783954" lon="137.936506">
<ele>38.57</ele>
</trkpt>
<trkpt lat="34.783719" lon="137.936618">
<ele>38.23</ele>
</trkpt>
<trkpt lat="34.783418" lon="137.936793">
<ele>37.84</ele>
</trkpt>
<trkpt lat="34.78313" lon="137.936986">
<ele>37.32</ele>
</trkpt>
<trkpt lat="34.783023" lon="137.937077">
<ele>37.28</ele>
</trkpt>
<trkpt lat="34.782938" lon="137.937187">
<ele>37.03</ele>
</trkpt>
<trkpt lat="34.782816" lon="137.937323">
<ele>36.77</ele>
</trkpt>
<trkpt lat="34.782738" lon="137.937453">
<ele>36.23</ele>
</trkpt>
<trkpt lat="34.782656" lon="137.937603">
<ele>35.72</ele>
</trkpt>
<trkpt lat="34.782605" lon="137.937676">
<ele>35.37</ele>
</trkpt>
<trkpt lat="34.782511" lon="137.937781">
<ele>35.23</ele>
</trkpt>
<trkpt lat="34.782397" lon="137.937854">
<ele>34.84</ele>
</trkpt>
<trkpt lat="34.78231" lon="137.937885">
<ele>34.5</ele>
</trkpt>
<trkpt lat="34.781963" lon="137.937962">
<ele>34.08</ele>
</trkpt>
<trkpt lat="34.781495" lon="137.938145">
<ele>29.96</ele>
</trkpt>
<trkpt lat="34.780473" lon="137.938432">
<ele>28.05</ele>
</trkpt>
<trkpt lat="34.780141" lon="137.938565">
<ele>27.04</ele>
</trkpt>
<trkpt lat="34.77977" lon="137.938734">
<ele>25.84</ele>
</trkpt>
<trkpt lat="34.779457" lon="137.938876">
<ele>25.28</ele>
</trkpt>
<trkpt lat="34.779396" lon="137.938905">
<ele>25.02</ele>
</trkpt>
<trkpt lat="34.778839" lon="137.939149">
<ele>23.51</ele>
</trkpt>
<trkpt lat="34.77804" lon="137.939524">
<ele>21.52</ele>
</trkpt>
<trkpt lat="34.77792" lon="137.939587">
<ele>21.26</ele>
</trkpt>
<trkpt lat="34.777511" lon="137.939792">
<ele>20.44</ele>
</trkpt>
<trkpt lat="34.777018" lon="137.939952">
<ele>19.77</ele>
</trkpt>
<trkpt lat="34.776538" lon="137.94008">
<ele>19.29</ele>
</trkpt>
<trkpt lat="34.776465" lon="137.940088">
<ele>19.21</ele>
</trkpt>
<trkpt lat="34.776102" lon="137.940041">
<ele>19</ele>
</trkpt>
<trkpt lat="34.775682" lon="137.939897">
<ele>18.65</ele>
</trkpt>
<trkpt lat="34.774896" lon="137.939766">
<ele>17.66</ele>
</trkpt>
<trkpt lat="34.774543" lon="137.939686">
<ele>17.37</ele>
</trkpt>
<trkpt lat="34.77346" lon="137.939425">
<ele>15.42</ele>
</trkpt>
<trkpt lat="34.772951" lon="137.939475">
<ele>15.11</ele>
</trkpt>
<trkpt lat="34.771946" lon="137.939665">
<ele>14.96</ele>
</trkpt>
<trkpt lat="34.771218" lon="137.939557">
<ele>14.37</ele>
</trkpt>
<trkpt lat="34.770852" lon="137.939489">
<ele>14.2</ele>
</trkpt>
<trkpt lat="34.769382" lon="137.939148">
<ele>13.46</ele>
</trkpt>
<trkpt lat="34.769154" lon="137.93898">
<ele>13.32</ele>
</trkpt>
<trkpt lat="34.768951" lon="137.938553">
<ele>13.1</ele>
</trkpt>
<trkpt lat="34.768757" lon="137.938019">
<ele>12.78</ele>
</trkpt>
<trkpt lat="34.768803" lon="137.93779">
<ele>12.9</ele>
</trkpt>
<trkpt lat="34.768669" lon="137.937592">
<ele>12.86</ele>
</trkpt>
<trkpt lat="34.76836" lon="137.937469">
<ele>12.68</ele>
</trkpt>
<trkpt lat="34.768246" lon="137.937393">
<ele>12.63</ele>
</trkpt>
<trkpt lat="34.768166" lon="137.937302">
<ele>12.61</ele>
</trkpt>
<trkpt lat="34.767929" lon="137.93721">
<ele>12.78</ele>
</trkpt>
<trkpt lat="34.767719" lon="137.937164">
<ele>12.69</ele>
</trkpt>
<trkpt lat="34.76754" lon="137.937149">
<ele>12.42</ele>
</trkpt>
<trkpt lat="34.767223" lon="137.937042">
<ele>12.18</ele>
</trkpt>
<trkpt lat="34.76696" lon="137.936935">
<ele>12.17</ele>
</trkpt>
<trkpt lat="34.766369" lon="137.93689">
<ele>11.86</ele>
</trkpt>
<trkpt lat="34.765648" lon="137.936768">
<ele>11.48</ele>
</trkpt>
<trkpt lat="34.765171" lon="137.936646">
<ele>11.17</ele>
</trkpt>
<trkpt lat="34.764626" lon="137.936462">
<ele>10.86</ele>
</trkpt>
<trkpt lat="34.763885" lon="137.93631">
<ele>10.2</ele>
</trkpt>
<trkpt lat="34.763134" lon="137.936142">
<ele>9.81</ele>
</trkpt>
<trkpt lat="34.762165" lon="137.935867">
<ele>9.85</ele>
</trkpt>
<trkpt lat="34.761566" lon="137.935684">
<ele>9.81</ele>
</trkpt>
<trkpt lat="34.76125" lon="137.935593">
<ele>9.79</ele>
</trkpt>
<trkpt lat="34.761028" lon="137.935547">
<ele>9.12</ele>
</trkpt>
<trkpt lat="34.760887" lon="137.935516">
<ele>9.88</ele>
</trkpt>
<trkpt lat="34.760712" lon="137.935562">
<ele>9.47</ele>
</trkpt>
<trkpt lat="34.760551" lon="137.935654">
<ele>9.17</ele>
</trkpt>
<trkpt lat="34.759865" lon="137.936081">
<ele>9.95</ele>
</trkpt>
<trkpt lat="34.758984" lon="137.93663">
<ele>10.1</ele>
</trkpt>
<trkpt lat="34.758129" lon="137.937164">
<ele>10.39</ele>
</trkpt>
<trkpt lat="34.757954" lon="137.937304">
<ele>10.41</ele>
</trkpt>
<trkpt lat="34.757467" lon="137.937536">
<ele>10.55</ele>
</trkpt>
<trkpt lat="34.756979" lon="137.937795">
<ele>10.7</ele>
</trkpt>
<trkpt lat="34.75666" lon="137.937948">
<ele>10.8</ele>
</trkpt>
<trkpt lat="34.756197" lon="137.938178">
<ele>10.99</ele>
</trkpt>
<trkpt lat="34.754899" lon="137.938853">
<ele>11.2</ele>
</trkpt>
<trkpt lat="34.753417" lon="137.939604">
<ele>11.4</ele>
</trkpt>
<trkpt lat="34.752647" lon="137.940016">
<ele>11.67</ele>
</trkpt>
<trkpt lat="34.752227" lon="137.940222">
<ele>11.79</ele>
</trkpt>
<trkpt lat="34.751493" lon="137.940612">
<ele>11.9</ele>
</trkpt>
<trkpt lat="34.750722" lon="137.940978">
<ele>11.42</ele>
</trkpt>
<trkpt lat="34.749917" lon="137.941368">
<ele>10.81</ele>
</trkpt>
<trkpt lat="34.749297" lon="137.941589">
<ele>10.38</ele>
</trkpt>
<trkpt lat="34.748809" lon="137.941739">
<ele>10.09</ele>
</trkpt>
<trkpt lat="34.74857" lon="137.941813">
<ele>9.85</ele>
</trkpt>
<trkpt lat="34.748544" lon="137.941826">
<ele>9.85</ele>
</trkpt>
<trkpt lat="34.748526" lon="137.94185">
<ele>9.85</ele>
</trkpt>
<trkpt lat="34.747962" lon="137.942008">
<ele>6.71</ele>
</trkpt>
<trkpt lat="34.747927" lon="137.942018">
<ele>7.78</ele>
</trkpt>
<trkpt lat="34.747486" lon="137.942159">
<ele>9.66</ele>
</trkpt>
<trkpt lat="34.747229" lon="137.94224">
<ele>9.64</ele>
</trkpt>
<trkpt lat="34.746764" lon="137.942394">
<ele>9.78</ele>
</trkpt>
<trkpt lat="34.744852" lon="137.943025">
<ele>21.66</ele>
</trkpt>
<trkpt lat="34.744567" lon="137.943104">
<ele>23.43</ele>
</trkpt>
<trkpt lat="34.744288" lon="137.943136">
<ele>25.39</ele>
</trkpt>
<trkpt lat="34.74402" lon="137.943119">
<ele>25.79</ele>
</trkpt>
<trkpt lat="34.743922" lon="137.943098">
<ele>26.61</ele>
</trkpt>
<trkpt lat="34.74373" lon="137.943043">
<ele>26.29</ele>
</trkpt>
<trkpt lat="34.743541" lon="137.942964">
<ele>26.6</ele>
</trkpt>
<trkpt lat="34.743517" lon="137.942969">
<ele>26.6</ele>
</trkpt>
<trkpt lat="34.743192" lon="137.943466">
<ele>30.44</ele>
</trkpt>
<trkpt lat="34.743097" lon="137.943514">
<ele>30.99</ele>
</trkpt>
<trkpt lat="34.74304" lon="137.943525">
<ele>30.99</ele>
</trkpt>
<trkpt lat="34.742785" lon="137.943581">
<ele>31.27</ele>
</trkpt>
<trkpt lat="34.741197" lon="137.943805">
<ele>30.68</ele>
</trkpt>
<trkpt lat="34.740978" lon="137.943822">
<ele>31.58</ele>
</trkpt>
<trkpt lat="34.740806" lon="137.943738">
<ele>28.33</ele>
</trkpt>
<trkpt lat="34.740788" lon="137.943723">
<ele>27.92</ele>
</trkpt>
<trkpt lat="34.740746" lon="137.943553">
<ele>26.03</ele>
</trkpt>
<trkpt lat="34.740718" lon="137.943217">
<ele>24.48</ele>
</trkpt>
<trkpt lat="34.740684" lon="137.942935">
<ele>23.3</ele>
</trkpt>
<trkpt lat="34.740662" lon="137.942313">
<ele>22.47</ele>
</trkpt>
<trkpt lat="34.74064" lon="137.942119">
<ele>22.74</ele>
</trkpt>
<trkpt lat="34.740639" lon="137.942098">
<ele>22.83</ele>
</trkpt>
<trkpt lat="34.740633" lon="137.942083">
<ele>22.83</ele>
</trkpt>
<trkpt lat="34.740604" lon="137.942049">
<ele>21.13</ele>
</trkpt>
<trkpt lat="34.740559" lon="137.94204">
<ele>21.13</ele>
</trkpt>
<trkpt lat="34.740452" lon="137.942055">
<ele>18.27</ele>
</trkpt>
<trkpt lat="34.74045" lon="137.942061">
<ele>18.27</ele>
</trkpt>
<trkpt lat="34.740444" lon="137.942219">
<ele>18.49</ele>
</trkpt>
<trkpt lat="34.74042" lon="137.942485">
<ele>18.91</ele>
</trkpt>
<trkpt lat="34.740326" lon="137.942791">
<ele>18.12</ele>
</trkpt>
<trkpt lat="34.740102" lon="137.943178">
<ele>18.24</ele>
</trkpt>
<trkpt lat="34.739989" lon="137.943545">
<ele>18.52</ele>
</trkpt>
<trkpt lat="34.739936" lon="137.943819">
<ele>18.74</ele>
</trkpt>
<trkpt lat="34.739928" lon="137.943869">
<ele>18.82</ele>
</trkpt>
<trkpt lat="34.739889" lon="137.944339">
<ele>19.09</ele>
</trkpt>
<trkpt lat="34.739898" lon="137.945168">
<ele>19.62</ele>
</trkpt>
<trkpt lat="34.739895" lon="137.945183">
<ele>19.62</ele>
</trkpt>
<trkpt lat="34.739888" lon="137.945246">
<ele>19.67</ele>
</trkpt>
<trkpt lat="34.739727" lon="137.946043">
<ele>19.9</ele>
</trkpt>
<trkpt lat="34.739643" lon="137.946224">
<ele>20.27</ele>
</trkpt>
<trkpt lat="34.739454" lon="137.946597">
<ele>20.72</ele>
</trkpt>
<trkpt lat="34.739202" lon="137.946928">
<ele>21.13</ele>
</trkpt>
<trkpt lat="34.739043" lon="137.947078">
<ele>21.29</ele>
</trkpt>
<trkpt lat="34.738525" lon="137.947553">
<ele>22.08</ele>
</trkpt>
<trkpt lat="34.738368" lon="137.947715">
<ele>22.42</ele>
</trkpt>
<trkpt lat="34.738145" lon="137.947968">
<ele>22.95</ele>
</trkpt>
<trkpt lat="34.737838" lon="137.948271">
<ele>23.66</ele>
</trkpt>
<trkpt lat="34.737799" lon="137.948306">
<ele>24.12</ele>
</trkpt>
<trkpt lat="34.737789" lon="137.948311">
<ele>24.12</ele>
</trkpt>
<trkpt lat="34.737741" lon="137.948343">
<ele>24.12</ele>
</trkpt>
<trkpt lat="34.73766" lon="137.948488">
<ele>24.34</ele>
</trkpt>
<trkpt lat="34.737637" lon="137.948702">
<ele>25.3</ele>
</trkpt>
<trkpt lat="34.737546" lon="137.948991">
<ele>28.07</ele>
</trkpt>
<trkpt lat="34.737248" lon="137.949621">
<ele>27.37</ele>
</trkpt>
<trkpt lat="34.737081" lon="137.949971">
<ele>26.69</ele>
</trkpt>
<trkpt lat="34.73682" lon="137.950598">
<ele>27.14</ele>
</trkpt>
<trkpt lat="34.736793" lon="137.950878">
<ele>27.46</ele>
</trkpt>
<trkpt lat="34.736856" lon="137.951132">
<ele>27.76</ele>
</trkpt>
<trkpt lat="34.737091" lon="137.951472">
<ele>28.34</ele>
</trkpt>
<trkpt lat="34.737254" lon="137.951725">
<ele>28.79</ele>
</trkpt>
<trkpt lat="34.737487" lon="137.952244">
<ele>29.58</ele>
</trkpt>
<trkpt lat="34.737607" lon="137.952546">
<ele>30.08</ele>
</trkpt>
<trkpt lat="34.737741" lon="137.952947">
<ele>30.32</ele>
</trkpt>
<trkpt lat="34.737796" lon="137.953253">
<ele>30.4</ele>
</trkpt>
<trkpt lat="34.737864" lon="137.953961">
<ele>33.23</ele>
</trkpt>
<trkpt lat="34.737862" lon="137.954007">
<ele>33.23</ele>
</trkpt>
<trkpt lat="34.73782" lon="137.954279">
<ele>33.54</ele>
</trkpt>
<trkpt lat="34.737652" lon="137.954768">
<ele>33.81</ele>
</trkpt>
<trkpt lat="34.737435" lon="137.955371">
<ele>34.23</ele>
</trkpt>
<trkpt lat="34.737356" lon="137.955544">
<ele>34.41</ele>
</trkpt>
<trkpt lat="34.73716" lon="137.955977">
<ele>34.46</ele>
</trkpt>
<trkpt lat="34.737043" lon="137.956263">
<ele>34.88</ele>
</trkpt>
<trkpt lat="34.736917" lon="137.956668">
<ele>36.59</ele>
</trkpt>
<trkpt lat="34.736872" lon="137.956809">
<ele>36.41</ele>
</trkpt>
<trkpt lat="34.736794" lon="137.957011">
<ele>36.34</ele>
</trkpt>
<trkpt lat="34.736808" lon="137.957017">
<ele>36.34</ele>
</trkpt>
<trkpt lat="34.736795" lon="137.95705">
<ele>36.61</ele>
</trkpt>
<trkpt lat="34.736765" lon="137.957069">
<ele>36.61</ele>
</trkpt>
<trkpt lat="34.736652" lon="137.957072">
<ele>36.09</ele>
</trkpt>
<trkpt lat="34.736509" lon="137.957045">
<ele>35.63</ele>
</trkpt>
<trkpt lat="34.736363" lon="137.957107">
<ele>35.7</ele>
</trkpt>
<trkpt lat="34.736078" lon="137.957314">
<ele>36.72</ele>
</trkpt>
<trkpt lat="34.73594" lon="137.957457">
<ele>37.18</ele>
</trkpt>
<trkpt lat="34.735915" lon="137.95753">
<ele>37.34</ele>
</trkpt>
<trkpt lat="34.735817" lon="137.957846">
<ele>38.16</ele>
</trkpt>
<trkpt lat="34.735768" lon="137.958033">
<ele>38.4</ele>
</trkpt>
<trkpt lat="34.735691" lon="137.958236">
<ele>38.96</ele>
</trkpt>
<trkpt lat="34.73558" lon="137.958554">
<ele>39.52</ele>
</trkpt>
<trkpt lat="34.735416" lon="137.958901">
<ele>40.5</ele>
</trkpt>
<trkpt lat="34.73522" lon="137.959304">
<ele>43.62</ele>
</trkpt>
<trkpt lat="34.735054" lon="137.959832">
<ele>46.5</ele>
</trkpt>
<trkpt lat="34.734906" lon="137.960369">
<ele>47.45</ele>
</trkpt>
<trkpt lat="34.734823" lon="137.960816">
<ele>47.66</ele>
</trkpt>
<trkpt lat="34.734616" lon="137.962291">
<ele>49.49</ele>
</trkpt>
<trkpt lat="34.734583" lon="137.963036">
<ele>54.75</ele>
</trkpt>
<trkpt lat="34.734584" lon="137.96319">
<ele>54.21</ele>
</trkpt>
<trkpt lat="34.734616" lon="137.963406">
<ele>51.28</ele>
</trkpt>
<trkpt lat="34.734645" lon="137.963519">
<ele>51.77</ele>
</trkpt>
<trkpt lat="34.734749" lon="137.964179">
<ele>58.42</ele>
</trkpt>
<trkpt lat="34.734821" lon="137.964836">
<ele>58.64</ele>
</trkpt>
<trkpt lat="34.73487" lon="137.965063">
<ele>58.57</ele>
</trkpt>
<trkpt lat="34.735003" lon="137.965736">
<ele>54.31</ele>
</trkpt>
<trkpt lat="34.735088" lon="137.966552">
<ele>56.81</ele>
</trkpt>
<trkpt lat="34.735092" lon="137.966599">
<ele>57.02</ele>
</trkpt>
<trkpt lat="34.735146" lon="137.967502">
<ele>57.86</ele>
</trkpt>
<trkpt lat="34.735121" lon="137.96782">
<ele>58.58</ele>
</trkpt>
<trkpt lat="34.735081" lon="137.968133">
<ele>59.09</ele>
</trkpt>
<trkpt lat="34.735082" lon="137.968451">
<ele>60.04</ele>
</trkpt>
<trkpt lat="34.73513" lon="137.968687">
<ele>60.52</ele>
</trkpt>
<trkpt lat="34.735206" lon="137.968975">
<ele>62.62</ele>
</trkpt>
<trkpt lat="34.735256" lon="137.969109">
<ele>63.2</ele>
</trkpt>
<trkpt lat="34.73539" lon="137.96958">
<ele>65.62</ele>
</trkpt>
<trkpt lat="34.73545" lon="137.969792">
<ele>66.24</ele>
</trkpt>
<trkpt lat="34.735582" lon="137.970261">
<ele>66.87</ele>
</trkpt>
<trkpt lat="34.735625" lon="137.97057">
<ele>66.3</ele>
</trkpt>
<trkpt lat="34.73562" lon="137.970661">
<ele>66.37</ele>
</trkpt>
<trkpt lat="34.735546" lon="137.970932">
<ele>67.33</ele>
</trkpt>
<trkpt lat="34.73552" lon="137.970958">
<ele>67.69</ele>
</trkpt>
<trkpt lat="34.735327" lon="137.971">
<ele>67.9</ele>
</trkpt>
<trkpt lat="34.735272" lon="137.971019">
<ele>67.9</ele>
</trkpt>
<trkpt lat="34.735052" lon="137.97103">
<ele>68.68</ele>
</trkpt>
<trkpt lat="34.734973" lon="137.97109">
<ele>68.75</ele>
</trkpt>
<trkpt lat="34.734875" lon="137.971229">
<ele>69.29</ele>
</trkpt>
<trkpt lat="34.734707" lon="137.971453">
<ele>69.8</ele>
</trkpt>
<trkpt lat="34.734598" lon="137.97172">
<ele>72.08</ele>
</trkpt>
<trkpt lat="34.73456" lon="137.971837">
<ele>74.26</ele>
</trkpt>
<trkpt lat="34.734546" lon="137.971959">
<ele>74.85</ele>
</trkpt>
<trkpt lat="34.734561" lon="137.972141">
<ele>76.49</ele>
</trkpt>
<trkpt lat="34.734514" lon="137.972623">
<ele>76.55</ele>
</trkpt>
<trkpt lat="34.73452" lon="137.972676">
<ele>76.62</ele>
</trkpt>
<trkpt lat="34.734497" lon="137.972666">
<ele>76.62</ele>
</trkpt>
<trkpt lat="34.734498" lon="137.972653">
<ele>76.55</ele>
</trkpt>
<trkpt lat="34.734488" lon="137.972649">
<ele>75.81</ele>
</trkpt>
<trkpt lat="34.734461" lon="137.972697">
<ele>75.91</ele>
</trkpt>
<trkpt lat="34.734485" lon="137.972718">
<ele>75.91</ele>
</trkpt>
<trkpt lat="34.734561" lon="137.972584">
<ele>77.31</ele>
</trkpt>
<trkpt lat="34.73456" lon="137.972089">
<ele>76.49</ele>
</trkpt>
<trkpt lat="34.734549" lon="137.971942">
<ele>74.85</ele>
</trkpt>
<trkpt lat="34.734572" lon="137.971863">
<ele>74.26</ele>
</trkpt>
<trkpt lat="34.734636" lon="137.971826">
<ele>75.08</ele>
</trkpt>
<trkpt lat="34.734621" lon="137.971834">
<ele>74.26</ele>
</trkpt>
<trkpt lat="34.73458" lon="137.971825">
<ele>74.26</ele>
</trkpt>
<trkpt lat="34.734581" lon="137.971793">
<ele>72.08</ele>
</trkpt>
<trkpt lat="34.734601" lon="137.971735">
<ele>72.08</ele>
</trkpt>
<trkpt lat="34.734654" lon="137.971534">
<ele>70.06</ele>
</trkpt>
<trkpt lat="34.734918" lon="137.971168">
<ele>68.98</ele>
</trkpt>
<trkpt lat="34.734989" lon="137.971053">
<ele>68.68</ele>
</trkpt>
<trkpt lat="34.735093" lon="137.970996">
<ele>68.35</ele>
</trkpt>
<trkpt lat="34.735161" lon="137.970998">
<ele>68.19</ele>
</trkpt>
<trkpt lat="34.735352" lon="137.970976">
<ele>67.81</ele>
</trkpt>
<trkpt lat="34.735328" lon="137.97094">
<ele>67.57</ele>
</trkpt>
<trkpt lat="34.735316" lon="137.970736">
<ele>68.12</ele>
</trkpt>
<trkpt lat="34.735327" lon="137.970491">
<ele>68.89</ele>
</trkpt>
<trkpt lat="34.735306" lon="137.97022">
<ele>69</ele>
</trkpt>
<trkpt lat="34.735222" lon="137.969961">
<ele>68.44</ele>
</trkpt>
<trkpt lat="34.735204" lon="137.969947">
<ele>68.44</ele>
</trkpt>
<trkpt lat="34.73515" lon="137.96995">
<ele>68.8</ele>
</trkpt>
<trkpt lat="34.735118" lon="137.969982">
<ele>69.06</ele>
</trkpt>
<trkpt lat="34.735094" lon="137.970099">
<ele>70.33</ele>
</trkpt>
<trkpt lat="34.735039" lon="137.970274">
<ele>72.56</ele>
</trkpt>
<trkpt lat="34.735025" lon="137.970327">
<ele>72.56</ele>
</trkpt>
<trkpt lat="34.734935" lon="137.970532">
<ele>73.56</ele>
</trkpt>
<trkpt lat="34.734833" lon="137.970686">
<ele>75.48</ele>
</trkpt>
<trkpt lat="34.734758" lon="137.970781">
<ele>73.82</ele>
</trkpt>
<trkpt lat="34.734469" lon="137.971081">
<ele>75.58</ele>
</trkpt>
<trkpt lat="34.734352" lon="137.97124">
<ele>74.71</ele>
</trkpt>
<trkpt lat="34.734285" lon="137.97142">
<ele>74.17</ele>
</trkpt>
<trkpt lat="34.734254" lon="137.971544">
<ele>75.53</ele>
</trkpt>
<trkpt lat="34.73418" lon="137.971914">
<ele>80.75</ele>
</trkpt>
<trkpt lat="34.734086" lon="137.972379">
<ele>81.39</ele>
</trkpt>
<trkpt lat="34.734032" lon="137.97255">
<ele>82.86</ele>
</trkpt>
<trkpt lat="34.733927" lon="137.972721">
<ele>84.74</ele>
</trkpt>
<trkpt lat="34.733809" lon="137.972859">
<ele>87.82</ele>
</trkpt>
<trkpt lat="34.733588" lon="137.973039">
<ele>89</ele>
</trkpt>
<trkpt lat="34.733466" lon="137.973217">
<ele>87.47</ele>
</trkpt>
<trkpt lat="34.733357" lon="137.973487">
<ele>87.42</ele>
</trkpt>
<trkpt lat="34.733288" lon="137.97375">
<ele>87.45</ele>
</trkpt>
<trkpt lat="34.733199" lon="137.974302">
<ele>87.18</ele>
</trkpt>
<trkpt lat="34.733061" lon="137.975009">
<ele>86</ele>
</trkpt>
<trkpt lat="34.733026" lon="137.975119">
<ele>86.37</ele>
</trkpt>
<trkpt lat="34.732926" lon="137.975323">
<ele>81.22</ele>
</trkpt>
<trkpt lat="34.732812" lon="137.97547">
<ele>78.94</ele>
</trkpt>
<trkpt lat="34.7327" lon="137.975585">
<ele>76.44</ele>
</trkpt>
<trkpt lat="34.732648" lon="137.975631">
<ele>75.76</ele>
</trkpt>
<trkpt lat="34.732564" lon="137.975691">
<ele>74.94</ele>
</trkpt>
<trkpt lat="34.732283" lon="137.975779">
<ele>71.64</ele>
</trkpt>
<trkpt lat="34.731857" lon="137.975903">
<ele>69.07</ele>
</trkpt>
<trkpt lat="34.731715" lon="137.97593">
<ele>68.26</ele>
</trkpt>
<trkpt lat="34.731652" lon="137.975774">
<ele>68.11</ele>
</trkpt>
<trkpt lat="34.731636" lon="137.975573">
<ele>67.69</ele>
</trkpt>
<trkpt lat="34.731602" lon="137.97537">
<ele>67.37</ele>
</trkpt>
<trkpt lat="34.731564" lon="137.975268">
<ele>67.28</ele>
</trkpt>
<trkpt lat="34.731538" lon="137.975222">
<ele>67.07</ele>
</trkpt>
<trkpt lat="34.731483" lon="137.975136">
<ele>66.9</ele>
</trkpt>
<trkpt lat="34.730838" lon="137.974395">
<ele>66.75</ele>
</trkpt>
<trkpt lat="34.730537" lon="137.97394">
<ele>65.01</ele>
</trkpt>
<trkpt lat="34.730445" lon="137.973854">
<ele>64.58</ele>
</trkpt>
<trkpt lat="34.730398" lon="137.973818">
<ele>64.58</ele>
</trkpt>
<trkpt lat="34.73026" lon="137.973737">
<ele>64.31</ele>
</trkpt>
<trkpt lat="34.729832" lon="137.97355">
<ele>66.26</ele>
</trkpt>
<trkpt lat="34.729774" lon="137.973519">
<ele>66.26</ele>
</trkpt>
<trkpt lat="34.729717" lon="137.973508">
<ele>65.58</ele>
</trkpt>
<trkpt lat="34.729461" lon="137.973413">
<ele>67.04</ele>
</trkpt>
<trkpt lat="34.729411" lon="137.973383">
<ele>67.04</ele>
</trkpt>
<trkpt lat="34.729115" lon="137.973179">
<ele>67.87</ele>
</trkpt>
<trkpt lat="34.728887" lon="137.972826">
<ele>67.58</ele>
</trkpt>
<trkpt lat="34.728611" lon="137.97199">
<ele>64</ele>
</trkpt>
<trkpt lat="34.728505" lon="137.971748">
<ele>62.61</ele>
</trkpt>
<trkpt lat="34.728368" lon="137.971468">
<ele>63.79</ele>
</trkpt>
<trkpt lat="34.728246" lon="137.971284">
<ele>64.98</ele>
</trkpt>
<trkpt lat="34.728143" lon="137.971162">
<ele>66.05</ele>
</trkpt>
<trkpt lat="34.728068" lon="137.971033">
<ele>68.33</ele>
</trkpt>
<trkpt lat="34.728037" lon="137.970916">
<ele>66.22</ele>
</trkpt>
<trkpt lat="34.728039" lon="137.970771">
<ele>64.83</ele>
</trkpt>
<trkpt lat="34.728104" lon="137.970407">
<ele>61.93</ele>
</trkpt>
<trkpt lat="34.728127" lon="137.970329">
<ele>61.79</ele>
</trkpt>
<trkpt lat="34.72822" lon="137.970093">
<ele>60.03</ele>
</trkpt>
<trkpt lat="34.72832" lon="137.969858">
<ele>59.06</ele>
</trkpt>
<trkpt lat="34.728338" lon="137.969772">
<ele>58.94</ele>
</trkpt>
<trkpt lat="34.728338" lon="137.969685">
<ele>58.78</ele>
</trkpt>
<trkpt lat="34.72832" lon="137.969599">
<ele>58.63</ele>
</trkpt>
<trkpt lat="34.728112" lon="137.969031">
<ele>58.17</ele>
</trkpt>
<trkpt lat="34.727985" lon="137.968736">
<ele>57.56</ele>
</trkpt>
<trkpt lat="34.727816" lon="137.968783">
<ele>58.57</ele>
</trkpt>
<trkpt lat="34.727708" lon="137.968774">
<ele>60.06</ele>
</trkpt>
<trkpt lat="34.727616" lon="137.968738">
<ele>61.24</ele>
</trkpt>
<trkpt lat="34.727397" lon="137.968675">
<ele>65.01</ele>
</trkpt>
<trkpt lat="34.727359" lon="137.968653">
<ele>67.08</ele>
</trkpt>
<trkpt lat="34.727123" lon="137.968576">
<ele>71.8</ele>
</trkpt>
<trkpt lat="34.726946" lon="137.968534">
<ele>72.61</ele>
</trkpt>
<trkpt lat="34.726849" lon="137.968529">
<ele>74.15</ele>
</trkpt>
<trkpt lat="34.726751" lon="137.968529">
<ele>75.08</ele>
</trkpt>
<trkpt lat="34.726707" lon="137.96847">
<ele>76.12</ele>
</trkpt>
<trkpt lat="34.726643" lon="137.968375">
<ele>75.94</ele>
</trkpt>
<trkpt lat="34.726521" lon="137.968202">
<ele>73.75</ele>
</trkpt>
<trkpt lat="34.726498" lon="137.968181">
<ele>73.07</ele>
</trkpt>
<trkpt lat="34.726438" lon="137.968172">
<ele>73.79</ele>
</trkpt>
<trkpt lat="34.726386" lon="137.968188">
<ele>73.79</ele>
</trkpt>
<trkpt lat="34.726275" lon="137.968202">
<ele>75.94</ele>
</trkpt>
<trkpt lat="34.726025" lon="137.968014">
<ele>77.51</ele>
</trkpt>
<trkpt lat="34.725879" lon="137.967972">
<ele>80.8</ele>
</trkpt>
<trkpt lat="34.725797" lon="137.968">
<ele>81.87</ele>
</trkpt>
<trkpt lat="34.725761" lon="137.968017">
<ele>81.87</ele>
</trkpt>
<trkpt lat="34.725613" lon="137.968091">
<ele>83.59</ele>
</trkpt>
<trkpt lat="34.725466" lon="137.968073">
<ele>84.63</ele>
</trkpt>
<trkpt lat="34.725212" lon="137.967987">
<ele>87.97</ele>
</trkpt>
<trkpt lat="34.725085" lon="137.967969">
<ele>88.97</ele>
</trkpt>
<trkpt lat="34.72495" lon="137.968013">
<ele>91.05</ele>
</trkpt>
<trkpt lat="34.724931" lon="137.96802">
<ele>91.05</ele>
</trkpt>
<trkpt lat="34.72485" lon="137.96806">
<ele>91.05</ele>
</trkpt>
<trkpt lat="34.724746" lon="137.96809">
<ele>97.14</ele>
</trkpt>
<trkpt lat="34.724704" lon="137.968093">
<ele>97.14</ele>
</trkpt>
<trkpt lat="34.724641" lon="137.96811">
<ele>100.25</ele>
</trkpt>
<trkpt lat="34.724515" lon="137.968129">
<ele>105.03</ele>
</trkpt>
<trkpt lat="34.72346" lon="137.968508">
<ele>98.72</ele>
</trkpt>
<trkpt lat="34.723188" lon="137.968587">
<ele>90.95</ele>
</trkpt>
<trkpt lat="34.723117" lon="137.96859">
<ele>89.89</ele>
</trkpt>
<trkpt lat="34.723043" lon="137.968588">
<ele>89.06</ele>
</trkpt>
<trkpt lat="34.722792" lon="137.968586">
<ele>86.55</ele>
</trkpt>
<trkpt lat="34.722717" lon="137.968584">
<ele>85.69</ele>
</trkpt>
<trkpt lat="34.722649" lon="137.968564">
<ele>84.98</ele>
</trkpt>
<trkpt lat="34.722516" lon="137.968472">
<ele>85.39</ele>
</trkpt>
<trkpt lat="34.722376" lon="137.96827">
<ele>86.95</ele>
</trkpt>
<trkpt lat="34.722293" lon="137.968171">
<ele>85.41</ele>
</trkpt>
<trkpt lat="34.722214" lon="137.968027">
<ele>82.19</ele>
</trkpt>
<trkpt lat="34.722176" lon="137.967974">
<ele>81.58</ele>
</trkpt>
<trkpt lat="34.722088" lon="137.96786">
<ele>80.35</ele>
</trkpt>
<trkpt lat="34.721825" lon="137.967566">
<ele>78.48</ele>
</trkpt>
<trkpt lat="34.721733" lon="137.967412">
<ele>79.08</ele>
</trkpt>
<trkpt lat="34.721666" lon="137.967231">
<ele>77.43</ele>
</trkpt>
<trkpt lat="34.721528" lon="137.966699">
<ele>75.9</ele>
</trkpt>
<trkpt lat="34.72145" lon="137.966483">
<ele>72.94</ele>
</trkpt>
<trkpt lat="34.721344" lon="137.96628">
<ele>69.51</ele>
</trkpt>
<trkpt lat="34.721032" lon="137.965838">
<ele>69.19</ele>
</trkpt>
<trkpt lat="34.7209" lon="137.965674">
<ele>68.96</ele>
</trkpt>
<trkpt lat="34.720827" lon="137.965605">
<ele>68.98</ele>
</trkpt>
<trkpt lat="34.720266" lon="137.965109">
<ele>66.67</ele>
</trkpt>
<trkpt lat="34.720041" lon="137.965023">
<ele>65.89</ele>
</trkpt>
<trkpt lat="34.719793" lon="137.964969">
<ele>64.11</ele>
</trkpt>
<trkpt lat="34.719652" lon="137.964873">
<ele>63.29</ele>
</trkpt>
<trkpt lat="34.719518" lon="137.964753">
<ele>60.35</ele>
</trkpt>
<trkpt lat="34.719442" lon="137.964707">
<ele>59.91</ele>
</trkpt>
<trkpt lat="34.718985" lon="137.964527">
<ele>59.25</ele>
</trkpt>
<trkpt lat="34.718194" lon="137.964356">
<ele>57.19</ele>
</trkpt>
<trkpt lat="34.718068" lon="137.964298">
<ele>56.81</ele>
</trkpt>
<trkpt lat="34.717954" lon="137.964219">
<ele>56.33</ele>
</trkpt>
<trkpt lat="34.717604" lon="137.963979">
<ele>55.39</ele>
</trkpt>
<trkpt lat="34.717051" lon="137.963603">
<ele>50.53</ele>
</trkpt>
<trkpt lat="34.716695" lon="137.963325">
<ele>49.52</ele>
</trkpt>
<trkpt lat="34.716392" lon="137.963181">
<ele>49.01</ele>
</trkpt>
<trkpt lat="34.716063" lon="137.963048">
<ele>49.42</ele>
</trkpt>
<trkpt lat="34.716005" lon="137.963005">
<ele>49.36</ele>
</trkpt>
<trkpt lat="34.715777" lon="137.962687">
<ele>48.53</ele>
</trkpt>
<trkpt lat="34.715392" lon="137.962165">
<ele>47.46</ele>
</trkpt>
<trkpt lat="34.715201" lon="137.962024">
<ele>47.5</ele>
</trkpt>
<trkpt lat="34.714555" lon="137.961818">
<ele>47.62</ele>
</trkpt>
<trkpt lat="34.714438" lon="137.961722">
<ele>47.73</ele>
</trkpt>
<trkpt lat="34.714153" lon="137.961381">
<ele>45.11</ele>
</trkpt>
<trkpt lat="34.713928" lon="137.961168">
<ele>43.97</ele>
</trkpt>
<trkpt lat="34.71386" lon="137.961124">
<ele>43.67</ele>
</trkpt>
<trkpt lat="34.713559" lon="137.960993">
<ele>39.81</ele>
</trkpt>
<trkpt lat="34.713502" lon="137.960962">
<ele>39.54</ele>
</trkpt>
<trkpt lat="34.71293" lon="137.960657">
<ele>39.09</ele>
</trkpt>
<trkpt lat="34.712854" lon="137.960636">
<ele>38.59</ele>
</trkpt>
<trkpt lat="34.712758" lon="137.960631">
<ele>38</ele>
</trkpt>
<trkpt lat="34.712366" lon="137.960685">
<ele>36.36</ele>
</trkpt>
<trkpt lat="34.711834" lon="137.96072">
<ele>35.31</ele>
</trkpt>
<trkpt lat="34.711708" lon="137.960773">
<ele>34.95</ele>
</trkpt>
<trkpt lat="34.711099" lon="137.961051">
<ele>33.41</ele>
</trkpt>
<trkpt lat="34.71059" lon="137.961257">
<ele>31</ele>
</trkpt>
<trkpt lat="34.710215" lon="137.961328">
<ele>29.4</ele>
</trkpt>
<trkpt lat="34.709505" lon="137.961438">
<ele>28.18</ele>
</trkpt>
<trkpt lat="34.709308" lon="137.96145">
<ele>27.87</ele>
</trkpt>
<trkpt lat="34.708636" lon="137.961501">
<ele>27.42</ele>
</trkpt>
<trkpt lat="34.708409" lon="137.961469">
<ele>27.45</ele>
</trkpt>
<trkpt lat="34.7083" lon="137.961422">
<ele>27.7</ele>
</trkpt>
<trkpt lat="34.707948" lon="137.961243">
<ele>26.26</ele>
</trkpt>
<trkpt lat="34.707588" lon="137.961147">
<ele>26.52</ele>
</trkpt>
<trkpt lat="34.707207" lon="137.96108">
<ele>27.23</ele>
</trkpt>
<trkpt lat="34.706928" lon="137.960888">
<ele>27.16</ele>
</trkpt>
<trkpt lat="34.706773" lon="137.960841">
<ele>27.46</ele>
</trkpt>
<trkpt lat="34.706614" lon="137.960852">
<ele>28.01</ele>
</trkpt>
<trkpt lat="34.706515" lon="137.96089">
<ele>28.2</ele>
</trkpt>
<trkpt lat="34.70639" lon="137.960946">
<ele>28.73</ele>
</trkpt>
<trkpt lat="34.706345" lon="137.960937">
<ele>28.73</ele>
</trkpt>
<trkpt lat="34.706301" lon="137.96091">
<ele>28.92</ele>
</trkpt>
<trkpt lat="34.706185" lon="137.960792">
<ele>28.67</ele>
</trkpt>
<trkpt lat="34.705345" lon="137.960159">
<ele>24.09</ele>
</trkpt>
<trkpt lat="34.704976" lon="137.959812">
<ele>22.88</ele>
</trkpt>
<trkpt lat="34.704932" lon="137.959792">
<ele>22.88</ele>
</trkpt>
<trkpt lat="34.704858" lon="137.959772">
<ele>22.46</ele>
</trkpt>
<trkpt lat="34.704819" lon="137.959777">
<ele>22.46</ele>
</trkpt>
<trkpt lat="34.704597" lon="137.959726">
<ele>21.78</ele>
</trkpt>
<trkpt lat="34.704405" lon="137.9597">
<ele>21.08</ele>
</trkpt>
<trkpt lat="34.704083" lon="137.959676">
<ele>20.23</ele>
</trkpt>
<trkpt lat="34.703853" lon="137.959646">
<ele>19.54</ele>
</trkpt>
<trkpt lat="34.703843" lon="137.959613">
<ele>19.57</ele>
</trkpt>
<trkpt lat="34.703766" lon="137.959588">
<ele>19.53</ele>
</trkpt>
<trkpt lat="34.70373" lon="137.95957">
<ele>19.53</ele>
</trkpt>
<trkpt lat="34.703541" lon="137.959509">
<ele>19.17</ele>
</trkpt>
<trkpt lat="34.703261" lon="137.959446">
<ele>19.28</ele>
</trkpt>
<trkpt lat="34.703052" lon="137.959478">
<ele>19.45</ele>
</trkpt>
<trkpt lat="34.702931" lon="137.959511">
<ele>19.41</ele>
</trkpt>
<trkpt lat="34.702807" lon="137.959555">
<ele>19.34</ele>
</trkpt>
<trkpt lat="34.702517" lon="137.959707">
<ele>19.36</ele>
</trkpt>
<trkpt lat="34.701885" lon="137.96019">
<ele>19.34</ele>
</trkpt>
<trkpt lat="34.701594" lon="137.960344">
<ele>19.21</ele>
</trkpt>
<trkpt lat="34.700896" lon="137.960555">
<ele>12.26</ele>
</trkpt>
<trkpt lat="34.700503" lon="137.960644">
<ele>13.04</ele>
</trkpt>
<trkpt lat="34.699877" lon="137.960722">
<ele>9.72</ele>
</trkpt>
<trkpt lat="34.699801" lon="137.960743">
<ele>9.82</ele>
</trkpt>
<trkpt lat="34.699496" lon="137.960857">
<ele>9.46</ele>
</trkpt>
<trkpt lat="34.699425" lon="137.960902">
<ele>9.12</ele>
</trkpt>
<trkpt lat="34.699292" lon="137.960998">
<ele>9.04</ele>
</trkpt>
<trkpt lat="34.699023" lon="137.961262">
<ele>9</ele>
</trkpt>
<trkpt lat="34.69887" lon="137.961371">
<ele>8.95</ele>
</trkpt>
<trkpt lat="34.698762" lon="137.961425">
<ele>8.92</ele>
</trkpt>
<trkpt lat="34.698589" lon="137.961465">
<ele>8.81</ele>
</trkpt>
<trkpt lat="34.698104" lon="137.961576">
<ele>8.54</ele>
</trkpt>
<trkpt lat="34.697738" lon="137.961733">
<ele>8.68</ele>
</trkpt>
<trkpt lat="34.696626" lon="137.962301">
<ele>9.22</ele>
</trkpt>
<trkpt lat="34.696359" lon="137.962489">
<ele>9.45</ele>
</trkpt>
<trkpt lat="34.696327" lon="137.962518">
<ele>9.45</ele>
</trkpt>
<trkpt lat="34.696096" lon="137.962774">
<ele>9.55</ele>
</trkpt>
<trkpt lat="34.6959" lon="137.962996">
<ele>9.58</ele>
</trkpt>
<trkpt lat="34.695645" lon="137.963341">
<ele>8.47</ele>
</trkpt>
<trkpt lat="34.695446" lon="137.963722">
<ele>9.37</ele>
</trkpt>
<trkpt lat="34.695366" lon="137.963937">
<ele>9.6</ele>
</trkpt>
<trkpt lat="34.69532" lon="137.96409">
<ele>9.37</ele>
</trkpt>
<trkpt lat="34.69527" lon="137.964332">
<ele>9.82</ele>
</trkpt>
<trkpt lat="34.69523" lon="137.964801">
<ele>8.39</ele>
</trkpt>
<trkpt lat="34.695138" lon="137.965156">
<ele>6.68</ele>
</trkpt>
<trkpt lat="34.694961" lon="137.965603">
<ele>5.2</ele>
</trkpt>
<trkpt lat="34.694852" lon="137.965977">
<ele>5.27</ele>
</trkpt>
<trkpt lat="34.694769" lon="137.966177">
<ele>5.19</ele>
</trkpt>
<trkpt lat="34.694693" lon="137.966283">
<ele>5</ele>
</trkpt>
<trkpt lat="34.69459" lon="137.966341">
<ele>4.9</ele>
</trkpt>
<trkpt lat="34.694257" lon="137.966354">
<ele>4.9</ele>
</trkpt>
<trkpt lat="34.694152" lon="137.966387">
<ele>4.9</ele>
</trkpt>
<trkpt lat="34.693965" lon="137.966506">
<ele>4.9</ele>
</trkpt>
<trkpt lat="34.691682" lon="137.968311">
<ele>6.7</ele>
</trkpt>
<trkpt lat="34.691367" lon="137.968599">
<ele>4.9</ele>
</trkpt>
<trkpt lat="34.690976" lon="137.968987">
<ele>5.01</ele>
</trkpt>
<trkpt lat="34.690499" lon="137.969483">
<ele>4.91</ele>
</trkpt>
<trkpt lat="34.690422" lon="137.969552">
<ele>5.13</ele>
</trkpt>
<trkpt lat="34.690297" lon="137.969596">
<ele>6.64</ele>
</trkpt>
<trkpt lat="34.69024" lon="137.969554">
<ele>7.31</ele>
</trkpt>
<trkpt lat="34.690228" lon="137.969537">
<ele>7.31</ele>
</trkpt>
<trkpt lat="34.690156" lon="137.969471">
<ele>8.85</ele>
</trkpt>
<trkpt lat="34.690108" lon="137.969423">
<ele>10.68</ele>
</trkpt>
<trkpt lat="34.690028" lon="137.969353">
<ele>12.47</ele>
</trkpt>
<trkpt lat="34.68977" lon="137.969111">
<ele>15.32</ele>
</trkpt>
<trkpt lat="34.68945" lon="137.968834">
<ele>18.79</ele>
</trkpt>
<trkpt lat="34.689379" lon="137.96881">
<ele>19.53</ele>
</trkpt>
<trkpt lat="34.689223" lon="137.968815">
<ele>21.91</ele>
</trkpt>
<trkpt lat="34.689157" lon="137.968806">
<ele>23.41</ele>
</trkpt>
<trkpt lat="34.689129" lon="137.968831">
<ele>23.41</ele>
</trkpt>
<trkpt lat="34.689066" lon="137.968972">
<ele>27.2</ele>
</trkpt>
<trkpt lat="34.68901" lon="137.969032">
<ele>27.54</ele>
</trkpt>
<trkpt lat="34.6889" lon="137.969054">
<ele>25.03</ele>
</trkpt>
<trkpt lat="34.68878" lon="137.969155">
<ele>23.65</ele>
</trkpt>
<trkpt lat="34.688768" lon="137.969156">
<ele>21.35</ele>
</trkpt>
<trkpt lat="34.688707" lon="137.96916">
<ele>21.35</ele>
</trkpt>
<trkpt lat="34.688613" lon="137.969212">
<ele>17.79</ele>
</trkpt>
<trkpt lat="34.688528" lon="137.969245">
<ele>16.18</ele>
</trkpt>
<trkpt lat="34.688384" lon="137.969279">
<ele>12.73</ele>
</trkpt>
<trkpt lat="34.688295" lon="137.969297">
<ele>12.66</ele>
</trkpt>
<trkpt lat="34.688128" lon="137.969386">
<ele>9.68</ele>
</trkpt>
<trkpt lat="34.688014" lon="137.969367">
<ele>9.39</ele>
</trkpt>
<trkpt lat="34.687897" lon="137.969287">
<ele>8.97</ele>
</trkpt>
<trkpt lat="34.687853" lon="137.969214">
<ele>9.38</ele>
</trkpt>
<trkpt lat="34.687786" lon="137.969088">
<ele>9.43</ele>
</trkpt>
<trkpt lat="34.68765" lon="137.968928">
<ele>9.79</ele>
</trkpt>
<trkpt lat="34.687604" lon="137.968892">
<ele>9.31</ele>
</trkpt>
<trkpt lat="34.687469" lon="137.968844">
<ele>9.22</ele>
</trkpt>
<trkpt lat="34.687415" lon="137.968878">
<ele>8.75</ele>
</trkpt>
<trkpt lat="34.687377" lon="137.96896">
<ele>8.08</ele>
</trkpt>
<trkpt lat="34.687298" lon="137.969157">
<ele>6.03</ele>
</trkpt>
<trkpt lat="34.687164" lon="137.969472">
<ele>5.84</ele>
</trkpt>
<trkpt lat="34.686597" lon="137.969547">
<ele>4.9</ele>
</trkpt>
<trkpt lat="34.686355" lon="137.969609">
<ele>4.9</ele>
</trkpt>
<trkpt lat="34.686098" lon="137.969665">
<ele>5.3</ele>
</trkpt>
<trkpt lat="34.686072" lon="137.969693">
<ele>5.75</ele>
</trkpt>
<trkpt lat="34.686039" lon="137.969772">
<ele>5.61</ele>
</trkpt>
<trkpt lat="34.685995" lon="137.969984">
<ele>5.65</ele>
</trkpt>
<trkpt lat="34.685946" lon="137.970101">
<ele>5.54</ele>
</trkpt>
<trkpt lat="34.685818" lon="137.97016">
<ele>6.93</ele>
</trkpt>
<trkpt lat="34.685772" lon="137.9701">
<ele>7.69</ele>
</trkpt>
<trkpt lat="34.68577" lon="137.970097">
<ele>7.69</ele>
</trkpt>
<trkpt lat="34.685619" lon="137.970167">
<ele>9.21</ele>
</trkpt>
<trkpt lat="34.685581" lon="137.970232">
<ele>9.78</ele>
</trkpt>
<trkpt lat="34.685507" lon="137.970236">
<ele>9.96</ele>
</trkpt>
<trkpt lat="34.685507" lon="137.970214">
<ele>9.96</ele>
</trkpt>
<trkpt lat="34.685511" lon="137.970154">
<ele>9.79</ele>
</trkpt>
<trkpt lat="34.685503" lon="137.970129">
<ele>9.79</ele>
</trkpt>
<trkpt lat="34.685457" lon="137.970112">
<ele>9.79</ele>
</trkpt>
<trkpt lat="34.68533" lon="137.970078">
<ele>9.25</ele>
</trkpt>
<trkpt lat="34.685295" lon="137.97007">
<ele>9.04</ele>
</trkpt>
<trkpt lat="34.685125" lon="137.970087">
<ele>8.66</ele>
</trkpt>
<trkpt lat="34.684989" lon="137.97062">
<ele>8.91</ele>
</trkpt>
<trkpt lat="34.684922" lon="137.971008">
<ele>8.85</ele>
</trkpt>
<trkpt lat="34.684979" lon="137.971087">
<ele>9.56</ele>
</trkpt>
<trkpt lat="34.685056" lon="137.971137">
<ele>10.03</ele>
</trkpt>
<trkpt lat="34.685071" lon="137.971216">
<ele>9.97</ele>
</trkpt>
<trkpt lat="34.685058" lon="137.971159">
<ele>10.03</ele>
</trkpt>
<trkpt lat="34.684957" lon="137.971096">
<ele>8.82</ele>
</trkpt>
<trkpt lat="34.684919" lon="137.97108">
<ele>8.82</ele>
</trkpt>
<trkpt lat="34.684891" lon="137.971112">
<ele>8.82</ele>
</trkpt>
<trkpt lat="34.684843" lon="137.971395">
<ele>8.16</ele>
</trkpt>
<trkpt lat="34.684764" lon="137.971672">
<ele>8.13</ele>
</trkpt>
<trkpt lat="34.684681" lon="137.971962">
<ele>7.51</ele>
</trkpt>
<trkpt lat="34.684639" lon="137.972087">
<ele>6.7</ele>
</trkpt>
<trkpt lat="34.68454" lon="137.972294">
<ele>5.79</ele>
</trkpt>
<trkpt lat="34.684402" lon="137.972487">
<ele>5.3</ele>
</trkpt>
<trkpt lat="34.684013" lon="137.972473">
<ele>4.67</ele>
</trkpt>
<trkpt lat="34.683846" lon="137.973041">
<ele>4.71</ele>
</trkpt>
<trkpt lat="34.6838" lon="137.97313">
<ele>4.67</ele>
</trkpt>
<trkpt lat="34.683556" lon="137.973443">
<ele>4.57</ele>
</trkpt>
<trkpt lat="34.68352" lon="137.973535">
<ele>4.51</ele>
</trkpt>
<trkpt lat="34.683463" lon="137.973964">
<ele>4.54</ele>
</trkpt>
<trkpt lat="34.683284" lon="137.974987">
<ele>5.41</ele>
</trkpt>
<trkpt lat="34.683086" lon="137.976171">
<ele>5.92</ele>
</trkpt>
<trkpt lat="34.683014" lon="137.976641">
<ele>6.3</ele>
</trkpt>
<trkpt lat="34.682922" lon="137.977114">
<ele>6.63</ele>
</trkpt>
<trkpt lat="34.682871" lon="137.97746">
<ele>6.87</ele>
</trkpt>
<trkpt lat="34.68283" lon="137.977653">
<ele>7.04</ele>
</trkpt>
<trkpt lat="34.682738" lon="137.978204">
<ele>7.43</ele>
</trkpt>
<trkpt lat="34.682663" lon="137.978461">
<ele>7.6</ele>
</trkpt>
<trkpt lat="34.682648" lon="137.978535">
<ele>7.7</ele>
</trkpt>
<trkpt lat="34.682592" lon="137.978773">
<ele>7.95</ele>
</trkpt>
<trkpt lat="34.682561" lon="137.979025">
<ele>8.27</ele>
</trkpt>
<trkpt lat="34.682552" lon="137.979054">
<ele>8.22</ele>
</trkpt>
<trkpt lat="34.682461" lon="137.979456">
<ele>8.82</ele>
</trkpt>
<trkpt lat="34.682365" lon="137.979905">
<ele>9.27</ele>
</trkpt>
<trkpt lat="34.682353" lon="137.98002">
<ele>9.41</ele>
</trkpt>
<trkpt lat="34.682342" lon="137.980061">
<ele>9.53</ele>
</trkpt>
<trkpt lat="34.682245" lon="137.980685">
<ele>10.51</ele>
</trkpt>
<trkpt lat="34.682086" lon="137.981451">
<ele>12.58</ele>
</trkpt>
<trkpt lat="34.682097" lon="137.981501">
<ele>12.66</ele>
</trkpt>
<trkpt lat="34.682086" lon="137.981519">
<ele>12.66</ele>
</trkpt>
<trkpt lat="34.682076" lon="137.981543">
<ele>12.66</ele>
</trkpt>
<trkpt lat="34.681837" lon="137.982526">
<ele>12.38</ele>
</trkpt>
<trkpt lat="34.681827" lon="137.982562">
<ele>12.44</ele>
</trkpt>
<trkpt lat="34.681773" lon="137.982742">
<ele>12.35</ele>
</trkpt>
<trkpt lat="34.681677" lon="137.983257">
<ele>12.48</ele>
</trkpt>
<trkpt lat="34.681713" lon="137.983306">
<ele>12.63</ele>
</trkpt>
<trkpt lat="34.68173" lon="137.983311">
<ele>12.63</ele>
</trkpt>
<trkpt lat="34.681697" lon="137.98328">
<ele>12.48</ele>
</trkpt>
<trkpt lat="34.681621" lon="137.983612">
<ele>12.98</ele>
</trkpt>
<trkpt lat="34.681467" lon="137.984468">
<ele>14.07</ele>
</trkpt>
<trkpt lat="34.681375" lon="137.985078">
<ele>14.62</ele>
</trkpt>
<trkpt lat="34.681386" lon="137.985138">
<ele>14.69</ele>
</trkpt>
<trkpt lat="34.681391" lon="137.985144">
<ele>14.69</ele>
</trkpt>
<trkpt lat="34.681397" lon="137.985182">
<ele>14.69</ele>
</trkpt>
<trkpt lat="34.681825" lon="137.98532">
<ele>15.54</ele>
</trkpt>
<trkpt lat="34.682671" lon="137.985655">
<ele>18.21</ele>
</trkpt>
<trkpt lat="34.683292" lon="137.985927">
<ele>19.14</ele>
</trkpt>
<trkpt lat="34.683441" lon="137.985976">
<ele>19.19</ele>
</trkpt>
<trkpt lat="34.68494" lon="137.986563">
<ele>21.87</ele>
</trkpt>
<trkpt lat="34.685166" lon="137.986588">
<ele>23.29</ele>
</trkpt>
<trkpt lat="34.685333" lon="137.986603">
<ele>24.28</ele>
</trkpt>
<trkpt lat="34.685376" lon="137.986606">
<ele>24.28</ele>
</trkpt>
<trkpt lat="34.685684" lon="137.986595">
<ele>26.28</ele>
</trkpt>
<trkpt lat="34.686698" lon="137.986577">
<ele>28.48</ele>
</trkpt>
<trkpt lat="34.687163" lon="137.986484">
<ele>28.67</ele>
</trkpt>
<trkpt lat="34.687345" lon="137.986453">
<ele>29.19</ele>
</trkpt>
<trkpt lat="34.68748" lon="137.986423">
<ele>29.51</ele>
</trkpt>
<trkpt lat="34.687635" lon="137.986391">
<ele>30.39</ele>
</trkpt>
<trkpt lat="34.687966" lon="137.986316">
<ele>33.41</ele>
</trkpt>
<trkpt lat="34.688203" lon="137.986281">
<ele>34.73</ele>
</trkpt>
<trkpt lat="34.688839" lon="137.986302">
<ele>35.57</ele>
</trkpt>
<trkpt lat="34.689145" lon="137.986333">
<ele>35.59</ele>
</trkpt>
<trkpt lat="34.689286" lon="137.986348">
<ele>36.33</ele>
</trkpt>
<trkpt lat="34.689487" lon="137.98634">
<ele>37.75</ele>
</trkpt>
<trkpt lat="34.689757" lon="137.986303">
<ele>38.03</ele>
</trkpt>
<trkpt lat="34.690199" lon="137.986228">
<ele>37.39</ele>
</trkpt>
<trkpt lat="34.690885" lon="137.986058">
<ele>37.84</ele>
</trkpt>
<trkpt lat="34.69111" lon="137.986026">
<ele>38.16</ele>
</trkpt>
<trkpt lat="34.691607" lon="137.985984">
<ele>39.03</ele>
</trkpt>
<trkpt lat="34.691995" lon="137.986057">
<ele>39.25</ele>
</trkpt>
<trkpt lat="34.692268" lon="137.985906">
<ele>43.53</ele>
</trkpt>
<trkpt lat="34.692271" lon="137.9859">
<ele>43.53</ele>
</trkpt>
<trkpt lat="34.692254" lon="137.985925">
<ele>43.53</ele>
</trkpt>
<trkpt lat="34.692209" lon="137.986042">
<ele>41.03</ele>
</trkpt>
<trkpt lat="34.692223" lon="137.986103">
<ele>39.82</ele>
</trkpt>
<trkpt lat="34.692245" lon="137.986125">
<ele>40.05</ele>
</trkpt>
<trkpt lat="34.692809" lon="137.986274">
<ele>42.94</ele>
</trkpt>
<trkpt lat="34.693338" lon="137.986478">
<ele>42.91</ele>
</trkpt>
<trkpt lat="34.693981" lon="137.986571">
<ele>42.53</ele>
</trkpt>
<trkpt lat="34.694123" lon="137.986601">
<ele>42.91</ele>
</trkpt>
<trkpt lat="34.69434" lon="137.986661">
<ele>43.17</ele>
</trkpt>
<trkpt lat="34.694754" lon="137.986779">
<ele>44.16</ele>
</trkpt>
<trkpt lat="34.695647" lon="137.986902">
<ele>42.89</ele>
</trkpt>
<trkpt lat="34.696061" lon="137.986951">
<ele>43.07</ele>
</trkpt>
<trkpt lat="34.697246" lon="137.987096">
<ele>46.56</ele>
</trkpt>
<trkpt lat="34.697511" lon="137.987116">
<ele>46.66</ele>
</trkpt>
<trkpt lat="34.697638" lon="137.987117">
<ele>46.61</ele>
</trkpt>
<trkpt lat="34.697928" lon="137.987082">
<ele>46.52</ele>
</trkpt>
<trkpt lat="34.698557" lon="137.986977">
<ele>48.24</ele>
</trkpt>
<trkpt lat="34.698932" lon="137.986961">
<ele>49.36</ele>
</trkpt>
<trkpt lat="34.699221" lon="137.986975">
<ele>50.08</ele>
</trkpt>
<trkpt lat="34.699408" lon="137.986982">
<ele>50.29</ele>
</trkpt>
<trkpt lat="34.700421" lon="137.987035">
<ele>53.56</ele>
</trkpt>
<trkpt lat="34.700645" lon="137.987045">
<ele>54.31</ele>
</trkpt>
<trkpt lat="34.701883" lon="137.987188">
<ele>56.73</ele>
</trkpt>
<trkpt lat="34.702596" lon="137.987296">
<ele>58.55</ele>
</trkpt>
<trkpt lat="34.702663" lon="137.987303">
<ele>58.82</ele>
</trkpt>
<trkpt lat="34.702952" lon="137.987346">
<ele>59.1</ele>
</trkpt>
<trkpt lat="34.703554" lon="137.987434">
<ele>63.96</ele>
</trkpt>
<trkpt lat="34.703723" lon="137.987498">
<ele>65.33</ele>
</trkpt>
<trkpt lat="34.70439" lon="137.987755">
<ele>67.01</ele>
</trkpt>
<trkpt lat="34.704696" lon="137.987861">
<ele>66.91</ele>
</trkpt>
<trkpt lat="34.705181" lon="137.988033">
<ele>67.55</ele>
</trkpt>
<trkpt lat="34.705304" lon="137.988083">
<ele>67.68</ele>
</trkpt>
<trkpt lat="34.70554" lon="137.988171">
<ele>68.37</ele>
</trkpt>
<trkpt lat="34.7059" lon="137.988302">
<ele>69.55</ele>
</trkpt>
<trkpt lat="34.706197" lon="137.988427">
<ele>69.93</ele>
</trkpt>
<trkpt lat="34.706803" lon="137.989062">
<ele>75.79</ele>
</trkpt>
<trkpt lat="34.706933" lon="137.989306">
<ele>75.24</ele>
</trkpt>
<trkpt lat="34.707119" lon="137.989335">
<ele>75.31</ele>
</trkpt>
<trkpt lat="34.70735" lon="137.989428">
<ele>75.92</ele>
</trkpt>
<trkpt lat="34.707515" lon="137.989525">
<ele>76.57</ele>
</trkpt>
<trkpt lat="34.708353" lon="137.99009">
<ele>85.4</ele>
</trkpt>
<trkpt lat="34.708496" lon="137.990173">
<ele>86.87</ele>
</trkpt>
<trkpt lat="34.708723" lon="137.990329">
<ele>88.14</ele>
</trkpt>
<trkpt lat="34.709006" lon="137.990514">
<ele>86.49</ele>
</trkpt>
<trkpt lat="34.709367" lon="137.990757">
<ele>89.42</ele>
</trkpt>
<trkpt lat="34.709927" lon="137.991122">
<ele>96.11</ele>
</trkpt>
<trkpt lat="34.710148" lon="137.991291">
<ele>95.7</ele>
</trkpt>
<trkpt lat="34.71023" lon="137.991376">
<ele>96.75</ele>
</trkpt>
<trkpt lat="34.710282" lon="137.99144">
<ele>96.75</ele>
</trkpt>
<trkpt lat="34.710154" lon="137.991615">
<ele>93.44</ele>
</trkpt>
<trkpt lat="34.710106" lon="137.991764">
<ele>89.64</ele>
</trkpt>
<trkpt lat="34.710129" lon="137.992052">
<ele>86.85</ele>
</trkpt>
<trkpt lat="34.710116" lon="137.992253">
<ele>80.53</ele>
</trkpt>
<trkpt lat="34.710065" lon="137.992637">
<ele>80.49</ele>
</trkpt>
<trkpt lat="34.710072" lon="137.992766">
<ele>80.49</ele>
</trkpt>
<trkpt lat="34.710103" lon="137.992804">
<ele>80.61</ele>
</trkpt>
<trkpt lat="34.710083" lon="137.992737">
<ele>80.61</ele>
</trkpt>
<trkpt lat="34.710082" lon="137.992552">
<ele>80.57</ele>
</trkpt>
<trkpt lat="34.710128" lon="137.992134">
<ele>84.28</ele>
</trkpt>
<trkpt lat="34.710109" lon="137.99175">
<ele>89.64</ele>
</trkpt>
<trkpt lat="34.71012" lon="137.991705">
<ele>90.69</ele>
</trkpt>
<trkpt lat="34.710153" lon="137.991581">
<ele>93.44</ele>
</trkpt>
<trkpt lat="34.710224" lon="137.99147">
<ele>96.01</ele>
</trkpt>
<trkpt lat="34.710339" lon="137.99146">
<ele>98.03</ele>
</trkpt>
<trkpt lat="34.710493" lon="137.991564">
<ele>103.91</ele>
</trkpt>
<trkpt lat="34.710553" lon="137.991643">
<ele>103.75</ele>
</trkpt>
<trkpt lat="34.710659" lon="137.991752">
<ele>100.56</ele>
</trkpt>
<trkpt lat="34.711067" lon="137.992126">
<ele>96.69</ele>
</trkpt>
<trkpt lat="34.711581" lon="137.992743">
<ele>99.03</ele>
</trkpt>
<trkpt lat="34.711905" lon="137.99313">
<ele>101.39</ele>
</trkpt>
<trkpt lat="34.712284" lon="137.993584">
<ele>94.8</ele>
</trkpt>
<trkpt lat="34.712532" lon="137.993905">
<ele>93.48</ele>
</trkpt>
<trkpt lat="34.713009" lon="137.994626">
<ele>92.95</ele>
</trkpt>
<trkpt lat="34.713333" lon="137.995095">
<ele>88.22</ele>
</trkpt>
<trkpt lat="34.713605" lon="137.995324">
<ele>90.15</ele>
</trkpt>
<trkpt lat="34.714249" lon="137.995599">
<ele>94.75</ele>
</trkpt>
<trkpt lat="34.714483" lon="137.995727">
<ele>97.64</ele>
</trkpt>
<trkpt lat="34.714734" lon="137.995909">
<ele>98.56</ele>
</trkpt>
<trkpt lat="34.714832" lon="137.996">
<ele>100.74</ele>
</trkpt>
<trkpt lat="34.715055" lon="137.996257">
<ele>103.13</ele>
</trkpt>
<trkpt lat="34.715306" lon="137.996616">
<ele>99.92</ele>
</trkpt>
<trkpt lat="34.715324" lon="137.996647">
<ele>99.92</ele>
</trkpt>
<trkpt lat="34.715583" lon="137.997057">
<ele>99.32</ele>
</trkpt>
<trkpt lat="34.715859" lon="137.997466">
<ele>101.3</ele>
</trkpt>
<trkpt lat="34.716627" lon="137.99861">
<ele>113.38</ele>
</trkpt>
<trkpt lat="34.71683" lon="137.998861">
<ele>114.93</ele>
</trkpt>
<trkpt lat="34.71697" lon="137.999019">
<ele>116.74</ele>
</trkpt>
<trkpt lat="34.717283" lon="137.999348">
<ele>117.27</ele>
</trkpt>
<trkpt lat="34.717378" lon="137.999435">
<ele>117.32</ele>
</trkpt>
<trkpt lat="34.718071" lon="138.000046">
<ele>121.38</ele>
</trkpt>
<trkpt lat="34.718463" lon="138.000326">
<ele>122.15</ele>
</trkpt>
<trkpt lat="34.718609" lon="138.000431">
<ele>122.64</ele>
</trkpt>
<trkpt lat="34.718881" lon="138.000651">
<ele>124.17</ele>
</trkpt>
<trkpt lat="34.719114" lon="138.000865">
<ele>126.37</ele>
</trkpt>
<trkpt lat="34.719456" lon="138.001233">
<ele>127.07</ele>
</trkpt>
<trkpt lat="34.719623" lon="138.001431">
<ele>128.87</ele>
</trkpt>
<trkpt lat="34.720295" lon="138.002231">
<ele>133.35</ele>
</trkpt>
<trkpt lat="34.720487" lon="138.002421">
<ele>135.73</ele>
</trkpt>
<trkpt lat="34.720755" lon="138.002582">
<ele>135.78</ele>
</trkpt>
<trkpt lat="34.721042" lon="138.002715">
<ele>135.88</ele>
</trkpt>
<trkpt lat="34.721224" lon="138.002807">
<ele>137.5</ele>
</trkpt>
<trkpt lat="34.721288" lon="138.002853">
<ele>138.61</ele>
</trkpt>
<trkpt lat="34.721403" lon="138.002985">
<ele>139.59</ele>
</trkpt>
<trkpt lat="34.721539" lon="138.003216">
<ele>139.84</ele>
</trkpt>
<trkpt lat="34.721655" lon="138.003565">
<ele>146.1</ele>
</trkpt>
<trkpt lat="34.72179" lon="138.004053">
<ele>147.12</ele>
</trkpt>
<trkpt lat="34.721893" lon="138.004261">
<ele>147.22</ele>
</trkpt>
<trkpt lat="34.721949" lon="138.004344">
<ele>147.82</ele>
</trkpt>
<trkpt lat="34.722046" lon="138.00446">
<ele>147.82</ele>
</trkpt>
<trkpt lat="34.722111" lon="138.004518">
<ele>147.89</ele>
</trkpt>
<trkpt lat="34.722487" lon="138.004842">
<ele>148.84</ele>
</trkpt>
<trkpt lat="34.72262" lon="138.005013">
<ele>149.06</ele>
</trkpt>
<trkpt lat="34.722764" lon="138.005235">
<ele>149.06</ele>
</trkpt>
<trkpt lat="34.723033" lon="138.005664">
<ele>149.56</ele>
</trkpt>
<trkpt lat="34.723342" lon="138.006124">
<ele>152.66</ele>
</trkpt>
<trkpt lat="34.723374" lon="138.006167">
<ele>152.48</ele>
</trkpt>
<trkpt lat="34.72373" lon="138.006596">
<ele>157.89</ele>
</trkpt>
<trkpt lat="34.723773" lon="138.006649">
<ele>158.27</ele>
</trkpt>
<trkpt lat="34.723959" lon="138.006913">
<ele>159.14</ele>
</trkpt>
<trkpt lat="34.724064" lon="138.007217">
<ele>160.46</ele>
</trkpt>
<trkpt lat="34.724125" lon="138.007584">
<ele>160.36</ele>
</trkpt>
<trkpt lat="34.724319" lon="138.008026">
<ele>163</ele>
</trkpt>
<trkpt lat="34.724369" lon="138.00827">
<ele>166</ele>
</trkpt>
<trkpt lat="34.724476" lon="138.008484">
<ele>167.34</ele>
</trkpt>
<trkpt lat="34.724537" lon="138.008789">
<ele>168.74</ele>
</trkpt>
<trkpt lat="34.72459" lon="138.008987">
<ele>170.67</ele>
</trkpt>
<trkpt lat="34.724468" lon="138.009308">
<ele>173.98</ele>
</trkpt>
<trkpt lat="34.724396" lon="138.00946">
<ele>175.22</ele>
</trkpt>
<trkpt lat="34.724361" lon="138.009644">
<ele>177.33</ele>
</trkpt>
<trkpt lat="34.724361" lon="138.009888">
<ele>189.1</ele>
</trkpt>
<trkpt lat="34.724415" lon="138.010361">
<ele>208.8</ele>
</trkpt>
<trkpt lat="34.72451" lon="138.010727">
<ele>192.94</ele>
</trkpt>
<trkpt lat="34.724564" lon="138.011276">
<ele>178.03</ele>
</trkpt>
<trkpt lat="34.724746" lon="138.011724">
<ele>164.8</ele>
</trkpt>
<trkpt lat="34.724785" lon="138.012193">
<ele>144.69</ele>
</trkpt>
<trkpt lat="34.724789" lon="138.012203">
<ele>144.69</ele>
</trkpt>
<trkpt lat="34.724814" lon="138.012248">
<ele>140.7</ele>
</trkpt>
<trkpt lat="34.724907" lon="138.01226">
<ele>145.91</ele>
</trkpt>
<trkpt lat="34.725211" lon="138.012158">
<ele>161.16</ele>
</trkpt>
<trkpt lat="34.7253" lon="138.012115">
<ele>161.67</ele>
</trkpt>
<trkpt lat="34.725444" lon="138.012076">
<ele>158.07</ele>
</trkpt>
<trkpt lat="34.725491" lon="138.012088">
<ele>160.25</ele>
</trkpt>
<trkpt lat="34.725583" lon="138.012197">
<ele>159.49</ele>
</trkpt>
<trkpt lat="34.725692" lon="138.012408">
<ele>149.35</ele>
</trkpt>
<trkpt lat="34.72577" lon="138.012449">
<ele>148</ele>
</trkpt>
<trkpt lat="34.725838" lon="138.012421">
<ele>145.41</ele>
</trkpt>
<trkpt lat="34.725881" lon="138.012322">
<ele>148.53</ele>
</trkpt>
<trkpt lat="34.725875" lon="138.01198">
<ele>148.53</ele>
</trkpt>
<trkpt lat="34.725833" lon="138.011804">
<ele>147.42</ele>
</trkpt>
<trkpt lat="34.725831" lon="138.011702">
<ele>147.59</ele>
</trkpt>
<trkpt lat="34.725858" lon="138.011617">
<ele>151.55</ele>
</trkpt>
<trkpt lat="34.725887" lon="138.011584">
<ele>151.38</ele>
</trkpt>
<trkpt lat="34.725965" lon="138.011572">
<ele>149.8</ele>
</trkpt>
<trkpt lat="34.725996" lon="138.011586">
<ele>149.8</ele>
</trkpt>
<trkpt lat="34.726018" lon="138.01162">
<ele>149.8</ele>
</trkpt>
<trkpt lat="34.726056" lon="138.011713">
<ele>146.39</ele>
</trkpt>
<trkpt lat="34.726085" lon="138.012026">
<ele>142.94</ele>
</trkpt>
<trkpt lat="34.726097" lon="138.012036">
<ele>145.12</ele>
</trkpt>
<trkpt lat="34.726091" lon="138.012265">
<ele>139.17</ele>
</trkpt>
<trkpt lat="34.726082" lon="138.012502">
<ele>135.07</ele>
</trkpt>
<trkpt lat="34.72607" lon="138.012567">
<ele>135.07</ele>
</trkpt>
<trkpt lat="34.726008" lon="138.012683">
<ele>132.8</ele>
</trkpt>
<trkpt lat="34.725872" lon="138.012859">
<ele>127.37</ele>
</trkpt>
<trkpt lat="34.725814" lon="138.013052">
<ele>125.88</ele>
</trkpt>
<trkpt lat="34.725797" lon="138.013223">
<ele>123.27</ele>
</trkpt>
<trkpt lat="34.72584" lon="138.013393">
<ele>124.04</ele>
</trkpt>
<trkpt lat="34.725928" lon="138.013644">
<ele>122.94</ele>
</trkpt>
<trkpt lat="34.726155" lon="138.014196">
<ele>124.98</ele>
</trkpt>
<trkpt lat="34.726173" lon="138.014524">
<ele>126.89</ele>
</trkpt>
<trkpt lat="34.726154" lon="138.0147">
<ele>123.22</ele>
</trkpt>
<trkpt lat="34.726028" lon="138.015093">
<ele>118.11</ele>
</trkpt>
<trkpt lat="34.725953" lon="138.015418">
<ele>107.47</ele>
</trkpt>
<trkpt lat="34.72596" lon="138.015508">
<ele>109.24</ele>
</trkpt>
<trkpt lat="34.726024" lon="138.015793">
<ele>110.88</ele>
</trkpt>
<trkpt lat="34.726045" lon="138.015895">
<ele>110</ele>
</trkpt>
<trkpt lat="34.726157" lon="138.016252">
<ele>105.07</ele>
</trkpt>
<trkpt lat="34.726239" lon="138.016405">
<ele>103.31</ele>
</trkpt>
<trkpt lat="34.726397" lon="138.016613">
<ele>97.51</ele>
</trkpt>
<trkpt lat="34.726521" lon="138.016753">
<ele>101</ele>
</trkpt>
<trkpt lat="34.726591" lon="138.016812">
<ele>99.45</ele>
</trkpt>
<trkpt lat="34.726803" lon="138.016986">
<ele>92.95</ele>
</trkpt>
<trkpt lat="34.726868" lon="138.01705">
<ele>90.95</ele>
</trkpt>
<trkpt lat="34.726928" lon="138.01712">
<ele>93.32</ele>
</trkpt>
<trkpt lat="34.726981" lon="138.017193">
<ele>94.3</ele>
</trkpt>
<trkpt lat="34.727143" lon="138.017411">
<ele>90.59</ele>
</trkpt>
<trkpt lat="34.727269" lon="138.01755">
<ele>88.86</ele>
</trkpt>
<trkpt lat="34.72762" lon="138.017883">
<ele>83.05</ele>
</trkpt>
<trkpt lat="34.72783" lon="138.018095">
<ele>83.27</ele>
</trkpt>
<trkpt lat="34.727936" lon="138.018262">
<ele>87.19</ele>
</trkpt>
<trkpt lat="34.728005" lon="138.018444">
<ele>87.53</ele>
</trkpt>
<trkpt lat="34.728111" lon="138.0191">
<ele>86.39</ele>
</trkpt>
<trkpt lat="34.728172" lon="138.019831">
<ele>79.41</ele>
</trkpt>
<trkpt lat="34.728231" lon="138.0207">
<ele>72.51</ele>
</trkpt>
<trkpt lat="34.728247" lon="138.020802">
<ele>71.98</ele>
</trkpt>
<trkpt lat="34.728271" lon="138.020901">
<ele>71.28</ele>
</trkpt>
<trkpt lat="34.728307" lon="138.020997">
<ele>71.33</ele>
</trkpt>
<trkpt lat="34.728586" lon="138.021623">
<ele>71.72</ele>
</trkpt>
<trkpt lat="34.728758" lon="138.022095">
<ele>71.79</ele>
</trkpt>
<trkpt lat="34.728768" lon="138.022168">
<ele>71.91</ele>
</trkpt>
<trkpt lat="34.728755" lon="138.02231">
<ele>72.82</ele>
</trkpt>
<trkpt lat="34.728639" lon="138.022519">
<ele>73.19</ele>
</trkpt>
<trkpt lat="34.72862" lon="138.022604">
<ele>73.26</ele>
</trkpt>
<trkpt lat="34.728657" lon="138.022644">
<ele>74.18</ele>
</trkpt>
<trkpt lat="34.728683" lon="138.022653">
<ele>74.18</ele>
</trkpt>
<trkpt lat="34.728817" lon="138.022619">
<ele>75.89</ele>
</trkpt>
<trkpt lat="34.728955" lon="138.022602">
<ele>76.26</ele>
</trkpt>
<trkpt lat="34.729081" lon="138.022593">
<ele>77.25</ele>
</trkpt>
<trkpt lat="34.72958" lon="138.022686">
<ele>84.56</ele>
</trkpt>
<trkpt lat="34.729703" lon="138.022716">
<ele>85.83</ele>
</trkpt>
<trkpt lat="34.72991" lon="138.02277">
<ele>82.41</ele>
</trkpt>
<trkpt lat="34.730406" lon="138.02286">
<ele>87.01</ele>
</trkpt>
<trkpt lat="34.730517" lon="138.022892">
<ele>89.94</ele>
</trkpt>
<trkpt lat="34.730651" lon="138.022923">
<ele>93.38</ele>
</trkpt>
<trkpt lat="34.730925" lon="138.023008">
<ele>96.15</ele>
</trkpt>
<trkpt lat="34.731374" lon="138.023148">
<ele>86.13</ele>
</trkpt>
<trkpt lat="34.731451" lon="138.023172">
<ele>84.69</ele>
</trkpt>
<trkpt lat="34.731605" lon="138.023294">
<ele>86.9</ele>
</trkpt>
<trkpt lat="34.731773" lon="138.023441">
<ele>88.86</ele>
</trkpt>
<trkpt lat="34.732001" lon="138.023657">
<ele>96.13</ele>
</trkpt>
<trkpt lat="34.732438" lon="138.024113">
<ele>104.41</ele>
</trkpt>
<trkpt lat="34.732529" lon="138.024189">
<ele>106.09</ele>
</trkpt>
<trkpt lat="34.732693" lon="138.024294">
<ele>107.29</ele>
</trkpt>
<trkpt lat="34.732948" lon="138.024405">
<ele>107.11</ele>
</trkpt>
<trkpt lat="34.732973" lon="138.024416">
<ele>108.2</ele>
</trkpt>
<trkpt lat="34.733134" lon="138.024472">
<ele>107.66</ele>
</trkpt>
<trkpt lat="34.733387" lon="138.024523">
<ele>107.86</ele>
</trkpt>
<trkpt lat="34.733557" lon="138.024536">
<ele>107.15</ele>
</trkpt>
<trkpt lat="34.734048" lon="138.024594">
<ele>101.98</ele>
</trkpt>
<trkpt lat="34.734305" lon="138.024669">
<ele>97.97</ele>
</trkpt>
<trkpt lat="34.73444" lon="138.024727">
<ele>97.13</ele>
</trkpt>
<trkpt lat="34.734724" lon="138.024909">
<ele>95.25</ele>
</trkpt>
<trkpt lat="34.734957" lon="138.025129">
<ele>94.37</ele>
</trkpt>
<trkpt lat="34.735328" lon="138.025559">
<ele>89.05</ele>
</trkpt>
<trkpt lat="34.735489" lon="138.025738">
<ele>86.09</ele>
</trkpt>
<trkpt lat="34.736038" lon="138.026357">
<ele>77.67</ele>
</trkpt>
<trkpt lat="34.73617" lon="138.026527">
<ele>77.87</ele>
</trkpt>
<trkpt lat="34.736296" lon="138.026733">
<ele>78.03</ele>
</trkpt>
<trkpt lat="34.736386" lon="138.026911">
<ele>75.41</ele>
</trkpt>
<trkpt lat="34.736473" lon="138.027111">
<ele>77.14</ele>
</trkpt>
<trkpt lat="34.736568" lon="138.027425">
<ele>77.82</ele>
</trkpt>
<trkpt lat="34.736699" lon="138.028082">
<ele>78.12</ele>
</trkpt>
<trkpt lat="34.736735" lon="138.028291">
<ele>76.12</ele>
</trkpt>
<trkpt lat="34.736794" lon="138.028779">
<ele>68.76</ele>
</trkpt>
<trkpt lat="34.736809" lon="138.02883">
<ele>68.19</ele>
</trkpt>
<trkpt lat="34.736806" lon="138.028848">
<ele>68.19</ele>
</trkpt>
<trkpt lat="34.736754" lon="138.02941">
<ele>66.12</ele>
</trkpt>
<trkpt lat="34.736713" lon="138.029746">
<ele>67.67</ele>
</trkpt>
<trkpt lat="34.736639" lon="138.030304">
<ele>66.26</ele>
</trkpt>
<trkpt lat="34.736578" lon="138.031008">
<ele>65.68</ele>
</trkpt>
<trkpt lat="34.736596" lon="138.031269">
<ele>64.25</ele>
</trkpt>
<trkpt lat="34.736608" lon="138.031356">
<ele>65.44</ele>
</trkpt>
<trkpt lat="34.736643" lon="138.031514">
<ele>64.28</ele>
</trkpt>
<trkpt lat="34.736751" lon="138.03181">
<ele>62.34</ele>
</trkpt>
<trkpt lat="34.736785" lon="138.031876">
<ele>62.34</ele>
</trkpt>
<trkpt lat="34.736954" lon="138.032123">
<ele>59.9</ele>
</trkpt>
<trkpt lat="34.737321" lon="138.032557">
<ele>59.79</ele>
</trkpt>
<trkpt lat="34.737366" lon="138.032609">
<ele>59.75</ele>
</trkpt>
<trkpt lat="34.7377" lon="138.032964">
<ele>59.55</ele>
</trkpt>
<trkpt lat="34.738156" lon="138.033254">
<ele>59.17</ele>
</trkpt>
<trkpt lat="34.738688" lon="138.033528">
<ele>58.46</ele>
</trkpt>
<trkpt lat="34.739112" lon="138.033731">
<ele>57.21</ele>
</trkpt>
<trkpt lat="34.739561" lon="138.033883">
<ele>55.42</ele>
</trkpt>
<trkpt lat="34.739679" lon="138.03394">
<ele>55.54</ele>
</trkpt>
<trkpt lat="34.73983" lon="138.034052">
<ele>55.83</ele>
</trkpt>
<trkpt lat="34.739876" lon="138.034101">
<ele>56.28</ele>
</trkpt>
<trkpt lat="34.739957" lon="138.034217">
<ele>56.34</ele>
</trkpt>
<trkpt lat="34.740013" lon="138.034352">
<ele>56.64</ele>
</trkpt>
<trkpt lat="34.740062" lon="138.034572">
<ele>55.72</ele>
</trkpt>
<trkpt lat="34.740074" lon="138.034649">
<ele>55.26</ele>
</trkpt>
<trkpt lat="34.740178" lon="138.035315">
<ele>55.52</ele>
</trkpt>
<trkpt lat="34.740513" lon="138.037501">
<ele>54.65</ele>
</trkpt>
<trkpt lat="34.740541" lon="138.037823">
<ele>53.67</ele>
</trkpt>
<trkpt lat="34.740553" lon="138.038491">
<ele>49.08</ele>
</trkpt>
<trkpt lat="34.74053" lon="138.038951">
<ele>48.9</ele>
</trkpt>
<trkpt lat="34.740521" lon="138.039186">
<ele>48.41</ele>
</trkpt>
<trkpt lat="34.740505" lon="138.039484">
<ele>47.96</ele>
</trkpt>
<trkpt lat="34.740495" lon="138.040022">
<ele>46.74</ele>
</trkpt>
<trkpt lat="34.740508" lon="138.04026">
<ele>45.86</ele>
</trkpt>
<trkpt lat="34.740535" lon="138.040376">
<ele>45.55</ele>
</trkpt>
<trkpt lat="34.740557" lon="138.040418">
<ele>45.36</ele>
</trkpt>
<trkpt lat="34.740655" lon="138.040448">
<ele>45.52</ele>
</trkpt>
<trkpt lat="34.741232" lon="138.040222">
<ele>47.68</ele>
</trkpt>
<trkpt lat="34.741524" lon="138.040137">
<ele>48.29</ele>
</trkpt>
<trkpt lat="34.742171" lon="138.039943">
<ele>48.63</ele>
</trkpt>
<trkpt lat="34.743238" lon="138.039708">
<ele>54.62</ele>
</trkpt>
<trkpt lat="34.743264" lon="138.039697">
<ele>54.62</ele>
</trkpt>
<trkpt lat="34.743305" lon="138.039699">
<ele>54.62</ele>
</trkpt>
<trkpt lat="34.743653" lon="138.039651">
<ele>59.56</ele>
</trkpt>
<trkpt lat="34.743729" lon="138.039649">
<ele>58.47</ele>
</trkpt>
<trkpt lat="34.744083" lon="138.039732">
<ele>54.12</ele>
</trkpt>
<trkpt lat="34.744186" lon="138.039789">
<ele>52.32</ele>
</trkpt>
<trkpt lat="34.744517" lon="138.040023">
<ele>44.41</ele>
</trkpt>
<trkpt lat="34.744811" lon="138.040249">
<ele>42.64</ele>
</trkpt>
<trkpt lat="34.744938" lon="138.040305">
<ele>42.95</ele>
</trkpt>
<trkpt lat="34.745061" lon="138.04033">
<ele>42.64</ele>
</trkpt>
<trkpt lat="34.745429" lon="138.040392">
<ele>40.88</ele>
</trkpt>
<trkpt lat="34.745643" lon="138.040355">
<ele>39.18</ele>
</trkpt>
<trkpt lat="34.745784" lon="138.040314">
<ele>37.05</ele>
</trkpt>
<trkpt lat="34.745981" lon="138.040225">
<ele>37.38</ele>
</trkpt>
<trkpt lat="34.746521" lon="138.039926">
<ele>38.34</ele>
</trkpt>
<trkpt lat="34.746858" lon="138.039679">
<ele>37.79</ele>
</trkpt>
<trkpt lat="34.7471" lon="138.039444">
<ele>37.34</ele>
</trkpt>
<trkpt lat="34.747429" lon="138.039048">
<ele>36.59</ele>
</trkpt>
<trkpt lat="34.747709" lon="138.038681">
<ele>36.74</ele>
</trkpt>
<trkpt lat="34.74888" lon="138.037096">
<ele>38.36</ele>
</trkpt>
<trkpt lat="34.749101" lon="138.036833">
<ele>38.16</ele>
</trkpt>
<trkpt lat="34.750645" lon="138.035032">
<ele>43.68</ele>
</trkpt>
<trkpt lat="34.750891" lon="138.034733">
<ele>45.6</ele>
</trkpt>
<trkpt lat="34.751119" lon="138.034406">
<ele>46.29</ele>
</trkpt>
<trkpt lat="34.751452" lon="138.033892">
<ele>47.11</ele>
</trkpt>
<trkpt lat="34.752272" lon="138.03263">
<ele>47.16</ele>
</trkpt>
<trkpt lat="34.752486" lon="138.032205">
<ele>47.74</ele>
</trkpt>
<trkpt lat="34.752724" lon="138.031638">
<ele>48.31</ele>
</trkpt>
<trkpt lat="34.753115" lon="138.030705">
<ele>47.09</ele>
</trkpt>
<trkpt lat="34.753319" lon="138.030346">
<ele>46.6</ele>
</trkpt>
<trkpt lat="34.753562" lon="138.030042">
<ele>46.77</ele>
</trkpt>
<trkpt lat="34.75399" lon="138.029584">
<ele>46.32</ele>
</trkpt>
<trkpt lat="34.754121" lon="138.029434">
<ele>46.71</ele>
</trkpt>
<trkpt lat="34.754376" lon="138.029043">
<ele>47.87</ele>
</trkpt>
<trkpt lat="34.754514" lon="138.028701">
<ele>48.65</ele>
</trkpt>
<trkpt lat="34.75469" lon="138.028184">
<ele>49.43</ele>
</trkpt>
<trkpt lat="34.754726" lon="138.028082">
<ele>49.45</ele>
</trkpt>
<trkpt lat="34.754905" lon="138.027694">
<ele>49.76</ele>
</trkpt>
<trkpt lat="34.755063" lon="138.027462">
<ele>49.7</ele>
</trkpt>
<trkpt lat="34.75564" lon="138.026811">
<ele>56.48</ele>
</trkpt>
<trkpt lat="34.755881" lon="138.026552">
<ele>59.21</ele>
</trkpt>
<trkpt lat="34.756141" lon="138.026268">
<ele>61.79</ele>
</trkpt>
<trkpt lat="34.756315" lon="138.026049">
<ele>61.3</ele>
</trkpt>
<trkpt lat="34.756443" lon="138.025857">
<ele>62.17</ele>
</trkpt>
<trkpt lat="34.756757" lon="138.025319">
<ele>68.31</ele>
</trkpt>
<trkpt lat="34.756875" lon="138.025146">
<ele>70.81</ele>
</trkpt>
<trkpt lat="34.756937" lon="138.02506">
<ele>71.92</ele>
</trkpt>
<trkpt lat="34.757067" lon="138.024898">
<ele>74.21</ele>
</trkpt>
<trkpt lat="34.757253" lon="138.024706">
<ele>75.33</ele>
</trkpt>
<trkpt lat="34.757688" lon="138.024333">
<ele>79.56</ele>
</trkpt>
<trkpt lat="34.758747" lon="138.023435">
<ele>56.75</ele>
</trkpt>
<trkpt lat="34.759018" lon="138.023243">
<ele>56.06</ele>
</trkpt>
<trkpt lat="34.759254" lon="138.02308">
<ele>55.2</ele>
</trkpt>
<trkpt lat="34.7595" lon="138.022925">
<ele>53.61</ele>
</trkpt>
<trkpt lat="34.75967" lon="138.022828">
<ele>52.16</ele>
</trkpt>
<trkpt lat="34.760057" lon="138.02262">
<ele>49.42</ele>
</trkpt>
<trkpt lat="34.760195" lon="138.02256">
<ele>46.63</ele>
</trkpt>
<trkpt lat="34.76057" lon="138.022379">
<ele>44.03</ele>
</trkpt>
<trkpt lat="34.760722" lon="138.022308">
<ele>43.36</ele>
</trkpt>
<trkpt lat="34.761129" lon="138.022136">
<ele>42.48</ele>
</trkpt>
<trkpt lat="34.761322" lon="138.022044">
<ele>42.17</ele>
</trkpt>
<trkpt lat="34.76168" lon="138.021918">
<ele>40.07</ele>
</trkpt>
<trkpt lat="34.762859" lon="138.021508">
<ele>38.46</ele>
</trkpt>
<trkpt lat="34.763681" lon="138.021206">
<ele>37.33</ele>
</trkpt>
<trkpt lat="34.764793" lon="138.020802">
<ele>37.53</ele>
</trkpt>
<trkpt lat="34.764958" lon="138.020653">
<ele>38.59</ele>
</trkpt>
<trkpt lat="34.765227" lon="138.020605">
<ele>39.4</ele>
</trkpt>
<trkpt lat="34.76535" lon="138.020574">
<ele>39.46</ele>
</trkpt>
<trkpt lat="34.76603" lon="138.020313">
<ele>38.16</ele>
</trkpt>
<trkpt lat="34.767564" lon="138.019629">
<ele>30.04</ele>
</trkpt>
<trkpt lat="34.767876" lon="138.019473">
<ele>29.66</ele>
</trkpt>
<trkpt lat="34.768743" lon="138.019132">
<ele>28.89</ele>
</trkpt>
<trkpt lat="34.768899" lon="138.01905">
<ele>28.77</ele>
</trkpt>
<trkpt lat="34.769142" lon="138.018954">
<ele>28.61</ele>
</trkpt>
<trkpt lat="34.769438" lon="138.018812">
<ele>28.46</ele>
</trkpt>
<trkpt lat="34.769502" lon="138.01876">
<ele>28.4</ele>
</trkpt>
<trkpt lat="34.769536" lon="138.018662">
<ele>28.4</ele>
</trkpt>
<trkpt lat="34.769511" lon="138.018393">
<ele>28.4</ele>
</trkpt>
<trkpt lat="34.7695" lon="138.018341">
<ele>28.4</ele>
</trkpt>
<trkpt lat="34.769469" lon="138.01818">
<ele>28.4</ele>
</trkpt>
<trkpt lat="34.769277" lon="138.017283">
<ele>28.4</ele>
</trkpt>
<trkpt lat="34.769162" lon="138.016664">
<ele>28.41</ele>
</trkpt>
<trkpt lat="34.769097" lon="138.01627">
<ele>28.4</ele>
</trkpt>
<trkpt lat="34.769021" lon="138.015574">
<ele>28.34</ele>
</trkpt>
<trkpt lat="34.768977" lon="138.015314">
<ele>28.3</ele>
</trkpt>
<trkpt lat="34.768994" lon="138.015214">
<ele>28.3</ele>
</trkpt>
    </trkseg>
  </trk>
</gpx>