<?xml version="1.0" encoding="UTF-8"?>
<gpx version="1.1"
     creator="KMLtoGPX"
     xmlns="http://www.topografix.com/GPX/1/1">
  <metadata>
    <name>Mt. Sangane Course</name>
    <desc>三ヶ根山コース</desc>
    <bounds minlat="34.793978055555556" minlon="137.12541" maxlat="34.804955" maxlon="137.15242111111112"/>
  </metadata>
  <trk>
    <name>Mt. Sangane Course</name>
    <trkseg>
<trkpt lat="34.79619111111111" lon="137.1254538888889">
<ele>25</ele>
</trkpt>
<trkpt lat="34.79618888888889" lon="137.12544694444443">
<ele>25</ele>
</trkpt>
<trkpt lat="34.796605" lon="137.125435">
<ele>24</ele>
</trkpt>
<trkpt lat="34.79732194444444" lon="137.12541">
<ele>25</ele>
</trkpt>
<trkpt lat="34.797455" lon="137.12542194444444">
<ele>25</ele>
</trkpt>
<trkpt lat="34.79766388888889" lon="137.12551">
<ele>25</ele>
</trkpt>
<trkpt lat="34.79793" lon="137.12569694444446">
<ele>26</ele>
</trkpt>
<trkpt lat="34.79808805555555" lon="137.12579694444443">
<ele>27</ele>
</trkpt>
<trkpt lat="34.79828805555555" lon="137.1258838888889">
<ele>27</ele>
</trkpt>
<trkpt lat="34.798546944444446" lon="137.12594694444445">
<ele>27</ele>
</trkpt>
<trkpt lat="34.79864694444444" lon="137.12594694444445">
<ele>28</ele>
</trkpt>
<trkpt lat="34.79879694444445" lon="137.12589694444443">
<ele>29</ele>
</trkpt>
<trkpt lat="34.799038055555556" lon="137.1257838888889">
<ele>30</ele>
</trkpt>
<trkpt lat="34.799105" lon="137.1257588888889">
<ele>30</ele>
</trkpt>
<trkpt lat="34.79918" lon="137.12574694444444">
<ele>31</ele>
</trkpt>
<trkpt lat="34.79929694444444" lon="137.1257588888889">
<ele>32</ele>
</trkpt>
<trkpt lat="34.79938" lon="137.12577194444444">
<ele>33</ele>
</trkpt>
<trkpt lat="34.79943" lon="137.12579694444443">
<ele>34</ele>
</trkpt>
<trkpt lat="34.79963" lon="137.12593388888888">
<ele>36</ele>
</trkpt>
<trkpt lat="34.799705" lon="137.1259838888889">
<ele>36</ele>
</trkpt>
<trkpt lat="34.80008" lon="137.1263588888889">
<ele>43</ele>
</trkpt>
<trkpt lat="34.800105" lon="137.1264338888889">
<ele>43</ele>
</trkpt>
<trkpt lat="34.800105" lon="137.12648388888888">
<ele>45</ele>
</trkpt>
<trkpt lat="34.800088055555555" lon="137.12654694444444">
<ele>45</ele>
</trkpt>
<trkpt lat="34.800038055555554" lon="137.1265838888889">
<ele>47</ele>
</trkpt>
<trkpt lat="34.79998" lon="137.12659694444446">
<ele>47</ele>
</trkpt>
<trkpt lat="34.79972194444444" lon="137.12663388888888">
<ele>45</ele>
</trkpt>
<trkpt lat="34.79963" lon="137.1266588888889">
<ele>45</ele>
</trkpt>
<trkpt lat="34.799413055555554" lon="137.12679694444444">
<ele>45</ele>
</trkpt>
<trkpt lat="34.799355" lon="137.12687194444445">
<ele>45</ele>
</trkpt>
<trkpt lat="34.79931305555556" lon="137.12697194444445">
<ele>43</ele>
</trkpt>
<trkpt lat="34.799263055555556" lon="137.12730888888888">
<ele>45</ele>
</trkpt>
<trkpt lat="34.799255" lon="137.12739694444446">
<ele>46</ele>
</trkpt>
<trkpt lat="34.799213055555555" lon="137.1274588888889">
<ele>47</ele>
</trkpt>
<trkpt lat="34.799155" lon="137.1274838888889">
<ele>47</ele>
</trkpt>
<trkpt lat="34.79909694444444" lon="137.1274838888889">
<ele>47</ele>
</trkpt>
<trkpt lat="34.799005" lon="137.1274588888889">
<ele>47</ele>
</trkpt>
<trkpt lat="34.79886305555556" lon="137.12747194444444">
<ele>53</ele>
</trkpt>
<trkpt lat="34.798746944444446" lon="137.12754694444445">
<ele>52</ele>
</trkpt>
<trkpt lat="34.79866305555556" lon="137.12762194444446">
<ele>52</ele>
</trkpt>
<trkpt lat="34.79863" lon="137.1276838888889">
<ele>54</ele>
</trkpt>
<trkpt lat="34.798588055555555" lon="137.1279338888889">
<ele>57</ele>
</trkpt>
<trkpt lat="34.798563055555555" lon="137.1280088888889">
<ele>59</ele>
</trkpt>
<trkpt lat="34.79851305555555" lon="137.12808388888888">
<ele>61</ele>
</trkpt>
<trkpt lat="34.79838888888889" lon="137.1281338888889">
<ele>66</ele>
</trkpt>
<trkpt lat="34.79819694444444" lon="137.12808388888888">
<ele>64</ele>
</trkpt>
<trkpt lat="34.79813" lon="137.12808388888888">
<ele>64</ele>
</trkpt>
<trkpt lat="34.79808" lon="137.1281088888889">
<ele>62</ele>
</trkpt>
<trkpt lat="34.79801388888889" lon="137.12820888888888">
<ele>63</ele>
</trkpt>
<trkpt lat="34.79798888888889" lon="137.1282838888889">
<ele>61</ele>
</trkpt>
<trkpt lat="34.79798" lon="137.12837194444444">
<ele>62</ele>
</trkpt>
<trkpt lat="34.79798888888889" lon="137.1286838888889">
<ele>64</ele>
</trkpt>
<trkpt lat="34.79798" lon="137.12882194444444">
<ele>65</ele>
</trkpt>
<trkpt lat="34.797896944444446" lon="137.12904694444444">
<ele>67</ele>
</trkpt>
<trkpt lat="34.79781388888889" lon="137.12917194444444">
<ele>66</ele>
</trkpt>
<trkpt lat="34.79777194444444" lon="137.12924694444445">
<ele>65</ele>
</trkpt>
<trkpt lat="34.79768888888889" lon="137.1294838888889">
<ele>70</ele>
</trkpt>
<trkpt lat="34.79768888888889" lon="137.12955888888888">
<ele>73</ele>
</trkpt>
<trkpt lat="34.797713888888886" lon="137.1296338888889">
<ele>73</ele>
</trkpt>
<trkpt lat="34.79831388888889" lon="137.13034694444445">
<ele>82</ele>
</trkpt>
<trkpt lat="34.79843" lon="137.13044694444446">
<ele>84</ele>
</trkpt>
<trkpt lat="34.79848" lon="137.13052194444444">
<ele>86</ele>
</trkpt>
<trkpt lat="34.798496944444445" lon="137.1306088888889">
<ele>85</ele>
</trkpt>
<trkpt lat="34.79848888888889" lon="137.13070888888888">
<ele>86</ele>
</trkpt>
<trkpt lat="34.798455" lon="137.13078388888889">
<ele>88</ele>
</trkpt>
<trkpt lat="34.79838" lon="137.13082194444445">
<ele>85</ele>
</trkpt>
<trkpt lat="34.79816388888889" lon="137.13090888888888">
<ele>88</ele>
</trkpt>
<trkpt lat="34.798046944444444" lon="137.1309588888889">
<ele>90</ele>
</trkpt>
<trkpt lat="34.79773" lon="137.13114694444445">
<ele>96</ele>
</trkpt>
<trkpt lat="34.79766388888889" lon="137.13117194444445">
<ele>96</ele>
</trkpt>
<trkpt lat="34.79757194444444" lon="137.13117194444445">
<ele>96</ele>
</trkpt>
<trkpt lat="34.79748" lon="137.13115888888888">
<ele>96</ele>
</trkpt>
<trkpt lat="34.797421944444444" lon="137.1311838888889">
<ele>94</ele>
</trkpt>
<trkpt lat="34.79736388888889" lon="137.1312338888889">
<ele>96</ele>
</trkpt>
<trkpt lat="34.797221944444445" lon="137.13149694444445">
<ele>97</ele>
</trkpt>
<trkpt lat="34.79717194444444" lon="137.1315588888889">
<ele>99</ele>
</trkpt>
<trkpt lat="34.796931111111114" lon="137.13170888888888">
<ele>103</ele>
</trkpt>
<trkpt lat="34.79687194444445" lon="137.13179694444443">
<ele>103</ele>
</trkpt>
<trkpt lat="34.79684694444445" lon="137.1319088888889">
<ele>102</ele>
</trkpt>
<trkpt lat="34.79688111111111" lon="137.1320088888889">
<ele>102</ele>
</trkpt>
<trkpt lat="34.79694694444444" lon="137.1320838888889">
<ele>104</ele>
</trkpt>
<trkpt lat="34.79703888888889" lon="137.13212194444444">
<ele>104</ele>
</trkpt>
<trkpt lat="34.79766388888889" lon="137.13218388888887">
<ele>114</ele>
</trkpt>
<trkpt lat="34.79776388888889" lon="137.13225888888888">
<ele>114</ele>
</trkpt>
<trkpt lat="34.797823055555554" lon="137.13232805555555">
<ele>113</ele>
</trkpt>
<trkpt lat="34.797823055555554" lon="137.13232805555555">
<ele>113</ele>
</trkpt>
<trkpt lat="34.79783888888889" lon="137.13234694444444">
<ele>113</ele>
</trkpt>
<trkpt lat="34.79798" lon="137.1326588888889">
<ele>118</ele>
</trkpt>
<trkpt lat="34.79818" lon="137.1328961111111">
<ele>124</ele>
</trkpt>
<trkpt lat="34.79819694444444" lon="137.13293388888889">
<ele>124</ele>
</trkpt>
<trkpt lat="34.79819694444444" lon="137.1330088888889">
<ele>124</ele>
</trkpt>
<trkpt lat="34.79818888888889" lon="137.13305888888888">
<ele>124</ele>
</trkpt>
<trkpt lat="34.79811388888889" lon="137.1332211111111">
<ele>124</ele>
</trkpt>
<trkpt lat="34.798105" lon="137.13329611111112">
<ele>122</ele>
</trkpt>
<trkpt lat="34.798121944444446" lon="137.1333711111111">
<ele>124</ele>
</trkpt>
<trkpt lat="34.79818888888889" lon="137.13352111111112">
<ele>123</ele>
</trkpt>
<trkpt lat="34.798296944444445" lon="137.13364611111112">
<ele>124</ele>
</trkpt>
<trkpt lat="34.798655" lon="137.1339088888889">
<ele>128</ele>
</trkpt>
<trkpt lat="34.79881388888889" lon="137.13410888888887">
<ele>135</ele>
</trkpt>
<trkpt lat="34.79883" lon="137.13418388888888">
<ele>135</ele>
</trkpt>
<trkpt lat="34.79881388888889" lon="137.1342588888889">
<ele>136</ele>
</trkpt>
<trkpt lat="34.79877194444445" lon="137.13430888888888">
<ele>134</ele>
</trkpt>
<trkpt lat="34.79868888888889" lon="137.1343461111111">
<ele>137</ele>
</trkpt>
<trkpt lat="34.79848" lon="137.1343711111111">
<ele>135</ele>
</trkpt>
<trkpt lat="34.798405" lon="137.13443388888888">
<ele>133</ele>
</trkpt>
<trkpt lat="34.79834694444445" lon="137.13454611111112">
<ele>135</ele>
</trkpt>
<trkpt lat="34.798338888888885" lon="137.13463388888889">
<ele>137</ele>
</trkpt>
<trkpt lat="34.798355" lon="137.13475888888888">
<ele>139</ele>
</trkpt>
<trkpt lat="34.798496944444445" lon="137.13499611111112">
<ele>142</ele>
</trkpt>
<trkpt lat="34.79857194444445" lon="137.1351588888889">
<ele>146</ele>
</trkpt>
<trkpt lat="34.79857194444445" lon="137.1352588888889">
<ele>147</ele>
</trkpt>
<trkpt lat="34.798496944444445" lon="137.1357338888889">
<ele>146</ele>
</trkpt>
<trkpt lat="34.798455" lon="137.1358461111111">
<ele>147</ele>
</trkpt>
<trkpt lat="34.798305" lon="137.13614611111112">
<ele>152</ele>
</trkpt>
<trkpt lat="34.798296944444445" lon="137.1362211111111">
<ele>152</ele>
</trkpt>
<trkpt lat="34.79826388888889" lon="137.1366461111111">
<ele>154</ele>
</trkpt>
<trkpt lat="34.798271944444444" lon="137.1367338888889">
<ele>152</ele>
</trkpt>
<trkpt lat="34.79831388888889" lon="137.13679611111112">
<ele>151</ele>
</trkpt>
<trkpt lat="34.79838" lon="137.1368338888889">
<ele>152</ele>
</trkpt>
<trkpt lat="34.79844694444444" lon="137.1368338888889">
<ele>153</ele>
</trkpt>
<trkpt lat="34.79867194444444" lon="137.1367461111111">
<ele>157</ele>
</trkpt>
<trkpt lat="34.79882194444444" lon="137.13679611111112">
<ele>156</ele>
</trkpt>
<trkpt lat="34.798921944444444" lon="137.13690888888888">
<ele>156</ele>
</trkpt>
<trkpt lat="34.798988888888886" lon="137.1369961111111">
<ele>156</ele>
</trkpt>
<trkpt lat="34.79904694444444" lon="137.1371211111111">
<ele>157</ele>
</trkpt>
<trkpt lat="34.799171944444446" lon="137.13748388888888">
<ele>167</ele>
</trkpt>
<trkpt lat="34.79923" lon="137.1375711111111">
<ele>167</ele>
</trkpt>
<trkpt lat="34.79932194444444" lon="137.1376588888889">
<ele>167</ele>
</trkpt>
<trkpt lat="34.799413888888886" lon="137.1377461111111">
<ele>166</ele>
</trkpt>
<trkpt lat="34.79948" lon="137.1377588888889">
<ele>168</ele>
</trkpt>
<trkpt lat="34.799638888888886" lon="137.1377461111111">
<ele>172</ele>
</trkpt>
<trkpt lat="34.79978" lon="137.1377588888889">
<ele>178</ele>
</trkpt>
<trkpt lat="34.79983" lon="137.1377588888889">
<ele>178</ele>
</trkpt>
<trkpt lat="34.79987194444445" lon="137.1377461111111">
<ele>178</ele>
</trkpt>
<trkpt lat="34.79988888888889" lon="137.1376711111111">
<ele>178</ele>
</trkpt>
<trkpt lat="34.799863888888886" lon="137.13762111111112">
<ele>181</ele>
</trkpt>
<trkpt lat="34.799805" lon="137.13759611111112">
<ele>181</ele>
</trkpt>
<trkpt lat="34.79968888888889" lon="137.13760888888888">
<ele>180</ele>
</trkpt>
<trkpt lat="34.79949694444444" lon="137.13760888888888">
<ele>174</ele>
</trkpt>
<trkpt lat="34.799438888888886" lon="137.1375711111111">
<ele>169</ele>
</trkpt>
<trkpt lat="34.79938" lon="137.1375088888889">
<ele>179</ele>
</trkpt>
<trkpt lat="34.79933" lon="137.13738388888888">
<ele>176</ele>
</trkpt>
<trkpt lat="34.79913" lon="137.13658388888888">
<ele>184</ele>
</trkpt>
<trkpt lat="34.799105" lon="137.13647111111112">
<ele>186</ele>
</trkpt>
<trkpt lat="34.799105" lon="137.13614611111112">
<ele>192</ele>
</trkpt>
<trkpt lat="34.799205" lon="137.1356211111111">
<ele>193</ele>
</trkpt>
<trkpt lat="34.79923888888889" lon="137.1355461111111">
<ele>194</ele>
</trkpt>
<trkpt lat="34.79928" lon="137.1355211111111">
<ele>194</ele>
</trkpt>
<trkpt lat="34.79951388888889" lon="137.13544611111112">
<ele>197</ele>
</trkpt>
<trkpt lat="34.79956388888889" lon="137.1353838888889">
<ele>197</ele>
</trkpt>
<trkpt lat="34.79958" lon="137.13532111111112">
<ele>197</ele>
</trkpt>
<trkpt lat="34.79958" lon="137.13523388888888">
<ele>197</ele>
</trkpt>
<trkpt lat="34.79953888888889" lon="137.1350338888889">
<ele>194</ele>
</trkpt>
<trkpt lat="34.799546944444444" lon="137.1349588888889">
<ele>194</ele>
</trkpt>
<trkpt lat="34.799605" lon="137.13485888888889">
<ele>196</ele>
</trkpt>
<trkpt lat="34.79966388888889" lon="137.1348211111111">
<ele>196</ele>
</trkpt>
<trkpt lat="34.80013805555556" lon="137.13464611111112">
<ele>207</ele>
</trkpt>
<trkpt lat="34.800196944444444" lon="137.1345838888889">
<ele>207</ele>
</trkpt>
<trkpt lat="34.80021305555555" lon="137.1345088888889">
<ele>205</ele>
</trkpt>
<trkpt lat="34.800196944444444" lon="137.13443388888888">
<ele>204</ele>
</trkpt>
<trkpt lat="34.79993805555556" lon="137.13385888888888">
<ele>204</ele>
</trkpt>
<trkpt lat="34.79991305555556" lon="137.1337838888889">
<ele>204</ele>
</trkpt>
<trkpt lat="34.799905" lon="137.1336711111111">
<ele>205</ele>
</trkpt>
<trkpt lat="34.79998805555555" lon="137.1334461111111">
<ele>204</ele>
</trkpt>
<trkpt lat="34.800055" lon="137.1333711111111">
<ele>205</ele>
</trkpt>
<trkpt lat="34.80012194444444" lon="137.1333338888889">
<ele>208</ele>
</trkpt>
<trkpt lat="34.800205" lon="137.1333588888889">
<ele>208</ele>
</trkpt>
<trkpt lat="34.80028" lon="137.13340888888888">
<ele>205</ele>
</trkpt>
<trkpt lat="34.80037194444444" lon="137.13354611111112">
<ele>204</ele>
</trkpt>
<trkpt lat="34.800421944444444" lon="137.1336838888889">
<ele>207</ele>
</trkpt>
<trkpt lat="34.800446944444445" lon="137.1339088888889">
<ele>206</ele>
</trkpt>
<trkpt lat="34.800455" lon="137.13420888888888">
<ele>212</ele>
</trkpt>
<trkpt lat="34.80043" lon="137.1345961111111">
<ele>210</ele>
</trkpt>
<trkpt lat="34.80038805555556" lon="137.1347088888889">
<ele>211</ele>
</trkpt>
<trkpt lat="34.80033" lon="137.13479611111111">
<ele>213</ele>
</trkpt>
<trkpt lat="34.800255" lon="137.13485888888889">
<ele>213</ele>
</trkpt>
<trkpt lat="34.79996388888889" lon="137.1349461111111">
<ele>210</ele>
</trkpt>
<trkpt lat="34.79989694444444" lon="137.13500888888888">
<ele>211</ele>
</trkpt>
<trkpt lat="34.799855" lon="137.13509611111112">
<ele>206</ele>
</trkpt>
<trkpt lat="34.799855" lon="137.1351961111111">
<ele>207</ele>
</trkpt>
<trkpt lat="34.79989694444444" lon="137.13547111111112">
<ele>213</ele>
</trkpt>
<trkpt lat="34.79988888888889" lon="137.13555888888888">
<ele>212</ele>
</trkpt>
<trkpt lat="34.79984694444445" lon="137.13565888888888">
<ele>212</ele>
</trkpt>
<trkpt lat="34.79978" lon="137.1357211111111">
<ele>214</ele>
</trkpt>
<trkpt lat="34.799546944444444" lon="137.13588388888888">
<ele>210</ele>
</trkpt>
<trkpt lat="34.799505" lon="137.1359588888889">
<ele>211</ele>
</trkpt>
<trkpt lat="34.79949694444444" lon="137.13603388888887">
<ele>211</ele>
</trkpt>
<trkpt lat="34.799505" lon="137.13612111111112">
<ele>211</ele>
</trkpt>
<trkpt lat="34.79953888888889" lon="137.1361961111111">
<ele>211</ele>
</trkpt>
<trkpt lat="34.799655" lon="137.13634611111112">
<ele>221</ele>
</trkpt>
<trkpt lat="34.79968888888889" lon="137.1364211111111">
<ele>224</ele>
</trkpt>
<trkpt lat="34.799705" lon="137.13648388888888">
<ele>223</ele>
</trkpt>
<trkpt lat="34.79971388888889" lon="137.1366711111111">
<ele>222</ele>
</trkpt>
<trkpt lat="34.79973" lon="137.13678388888889">
<ele>221</ele>
</trkpt>
<trkpt lat="34.79978" lon="137.1368588888889">
<ele>223</ele>
</trkpt>
<trkpt lat="34.799855" lon="137.1368961111111">
<ele>220</ele>
</trkpt>
<trkpt lat="34.80037194444444" lon="137.1368961111111">
<ele>224</ele>
</trkpt>
<trkpt lat="34.80049694444445" lon="137.1368588888889">
<ele>225</ele>
</trkpt>
<trkpt lat="34.80097194444444" lon="137.1365461111111">
<ele>235</ele>
</trkpt>
<trkpt lat="34.801071944444445" lon="137.1364338888889">
<ele>235</ele>
</trkpt>
<trkpt lat="34.80113" lon="137.1362961111111">
<ele>234</ele>
</trkpt>
<trkpt lat="34.801188055555556" lon="137.1361961111111">
<ele>235</ele>
</trkpt>
<trkpt lat="34.801296944444445" lon="137.1360711111111">
<ele>235</ele>
</trkpt>
<trkpt lat="34.801405" lon="137.13602111111112">
<ele>234</ele>
</trkpt>
<trkpt lat="34.801496944444445" lon="137.13602111111112">
<ele>233</ele>
</trkpt>
<trkpt lat="34.80166305555556" lon="137.1360961111111">
<ele>234</ele>
</trkpt>
<trkpt lat="34.80177194444445" lon="137.1361588888889">
<ele>233</ele>
</trkpt>
<trkpt lat="34.801855" lon="137.13624611111112">
<ele>234</ele>
</trkpt>
<trkpt lat="34.801955" lon="137.1364338888889">
<ele>235</ele>
</trkpt>
<trkpt lat="34.80227194444444" lon="137.13679611111112">
<ele>235</ele>
</trkpt>
<trkpt lat="34.80238" lon="137.1369961111111">
<ele>236</ele>
</trkpt>
<trkpt lat="34.80277111111111" lon="137.13795805555554">
<ele>232</ele>
</trkpt>
<trkpt lat="34.80282111111111" lon="137.13805805555555">
<ele>233</ele>
</trkpt>
<trkpt lat="34.80289611111111" lon="137.13813305555556">
<ele>233</ele>
</trkpt>
<trkpt lat="34.80297111111111" lon="137.13818305555554">
<ele>233</ele>
</trkpt>
<trkpt lat="34.80333" lon="137.1383711111111">
<ele>233</ele>
</trkpt>
<trkpt lat="34.803405" lon="137.13845805555556">
<ele>238</ele>
</trkpt>
<trkpt lat="34.803605" lon="137.13883305555555">
<ele>243</ele>
</trkpt>
<trkpt lat="34.803671111111115" lon="137.1389211111111">
<ele>244</ele>
</trkpt>
<trkpt lat="34.80381305555556" lon="137.13900805555556">
<ele>244</ele>
</trkpt>
<trkpt lat="34.803888055555554" lon="137.13909611111112">
<ele>244</ele>
</trkpt>
<trkpt lat="34.80394611111111" lon="137.13920805555554">
<ele>245</ele>
</trkpt>
<trkpt lat="34.80398805555556" lon="137.13933305555557">
<ele>244</ele>
</trkpt>
<trkpt lat="34.804005" lon="137.1394711111111">
<ele>242</ele>
</trkpt>
<trkpt lat="34.80399611111111" lon="137.1396211111111">
<ele>241</ele>
</trkpt>
<trkpt lat="34.803963055555556" lon="137.13977111111112">
<ele>243</ele>
</trkpt>
<trkpt lat="34.803913055555554" lon="137.13988305555554">
<ele>244</ele>
</trkpt>
<trkpt lat="34.80383805555556" lon="137.13999611111112">
<ele>245</ele>
</trkpt>
<trkpt lat="34.80374611111111" lon="137.14008305555555">
<ele>245</ele>
</trkpt>
<trkpt lat="34.80354611111111" lon="137.14020805555555">
<ele>243</ele>
</trkpt>
<trkpt lat="34.803488055555555" lon="137.1402961111111">
<ele>245</ele>
</trkpt>
<trkpt lat="34.80334611111111" lon="137.14077111111112">
<ele>246</ele>
</trkpt>
<trkpt lat="34.80333" lon="137.14087111111112">
<ele>244</ele>
</trkpt>
<trkpt lat="34.80334611111111" lon="137.1409711111111">
<ele>245</ele>
</trkpt>
<trkpt lat="34.80348" lon="137.1411961111111">
<ele>248</ele>
</trkpt>
<trkpt lat="34.80382111111111" lon="137.14125805555557">
<ele>252</ele>
</trkpt>
<trkpt lat="34.80398" lon="137.14130805555556">
<ele>252</ele>
</trkpt>
<trkpt lat="34.80418" lon="137.14140805555556">
<ele>253</ele>
</trkpt>
<trkpt lat="34.804555" lon="137.1415211111111">
<ele>254</ele>
</trkpt>
<trkpt lat="34.804605" lon="137.14155805555555">
<ele>252</ele>
</trkpt>
<trkpt lat="34.80464611111111" lon="137.14165805555555">
<ele>252</ele>
</trkpt>
<trkpt lat="34.80471305555555" lon="137.14183305555557">
<ele>251</ele>
</trkpt>
<trkpt lat="34.804805" lon="137.14215805555557">
<ele>253</ele>
</trkpt>
<trkpt lat="34.804813055555556" lon="137.14220805555556">
<ele>253</ele>
</trkpt>
<trkpt lat="34.804813055555556" lon="137.14228305555557">
<ele>254</ele>
</trkpt>
<trkpt lat="34.804805" lon="137.14265805555556">
<ele>257</ele>
</trkpt>
<trkpt lat="34.804805" lon="137.14277">
<ele>257</ele>
</trkpt>
<trkpt lat="34.80482111111111" lon="137.14288305555556">
<ele>257</ele>
</trkpt>
<trkpt lat="34.804955" lon="137.14330805555556">
<ele>265</ele>
</trkpt>
<trkpt lat="34.804946111111114" lon="137.14343305555556">
<ele>265</ele>
</trkpt>
<trkpt lat="34.80492111111111" lon="137.14355805555556">
<ele>266</ele>
</trkpt>
<trkpt lat="34.80461694444445" lon="137.144295">
<ele>271</ele>
</trkpt>
<trkpt lat="34.80461694444445" lon="137.144295">
<ele>271</ele>
</trkpt>
<trkpt lat="34.804555" lon="137.144445">
<ele>272</ele>
</trkpt>
<trkpt lat="34.80453" lon="137.144545">
<ele>272</ele>
</trkpt>
<trkpt lat="34.804555" lon="137.144995">
<ele>274</ele>
</trkpt>
<trkpt lat="34.80454611111111" lon="137.14510805555557">
<ele>274</ele>
</trkpt>
<trkpt lat="34.804505" lon="137.145195">
<ele>275</ele>
</trkpt>
<trkpt lat="34.80443805555556" lon="137.14528305555555">
<ele>274</ele>
</trkpt>
<trkpt lat="34.80433" lon="137.14537">
<ele>275</ele>
</trkpt>
<trkpt lat="34.804155" lon="137.14533305555557">
<ele>272</ele>
</trkpt>
<trkpt lat="34.804096111111114" lon="137.145345">
<ele>274</ele>
</trkpt>
<trkpt lat="34.80403805555556" lon="137.145395">
<ele>274</ele>
</trkpt>
<trkpt lat="34.803963055555556" lon="137.14563305555555">
<ele>276</ele>
</trkpt>
<trkpt lat="34.803871111111114" lon="137.14600805555557">
<ele>269</ele>
</trkpt>
<trkpt lat="34.80379694444444" lon="137.14637">
<ele>274</ele>
</trkpt>
<trkpt lat="34.803805" lon="137.146495">
<ele>273</ele>
</trkpt>
<trkpt lat="34.80384611111111" lon="137.146595">
<ele>270</ele>
</trkpt>
<trkpt lat="34.803938055555555" lon="137.14668305555554">
<ele>269</ele>
</trkpt>
<trkpt lat="34.80418805555556" lon="137.14682">
<ele>269</ele>
</trkpt>
<trkpt lat="34.80431305555555" lon="137.14690805555554">
<ele>268</ele>
</trkpt>
<trkpt lat="34.804355" lon="137.14695805555556">
<ele>270</ele>
</trkpt>
<trkpt lat="34.804363055555555" lon="137.14703305555557">
<ele>269</ele>
</trkpt>
<trkpt lat="34.804355" lon="137.14713305555554">
<ele>268</ele>
</trkpt>
<trkpt lat="34.80428" lon="137.14742">
<ele>269</ele>
</trkpt>
<trkpt lat="34.80426305555556" lon="137.14753305555556">
<ele>270</ele>
</trkpt>
<trkpt lat="34.80427111111111" lon="137.14767">
<ele>269</ele>
</trkpt>
<trkpt lat="34.80432111111111" lon="137.14797">
<ele>267</ele>
</trkpt>
<trkpt lat="34.804305" lon="137.14807">
<ele>267</ele>
</trkpt>
<trkpt lat="34.80424611111111" lon="137.14817">
<ele>267</ele>
</trkpt>
<trkpt lat="34.80414611111111" lon="137.14820805555556">
<ele>264</ele>
</trkpt>
<trkpt lat="34.80389611111111" lon="137.14825805555554">
<ele>263</ele>
</trkpt>
<trkpt lat="34.80383805555556" lon="137.14830805555556">
<ele>261</ele>
</trkpt>
<trkpt lat="34.80381305555556" lon="137.148395">
<ele>263</ele>
</trkpt>
<trkpt lat="34.803805" lon="137.14872">
<ele>266</ele>
</trkpt>
<trkpt lat="34.80378805555556" lon="137.14887">
<ele>267</ele>
</trkpt>
<trkpt lat="34.803738055555556" lon="137.14897">
<ele>260</ele>
</trkpt>
<trkpt lat="34.80363805555555" lon="137.14903305555555">
<ele>257</ele>
</trkpt>
<trkpt lat="34.80327194444445" lon="137.14913305555555">
<ele>255</ele>
</trkpt>
<trkpt lat="34.803063055555555" lon="137.14920805555556">
<ele>252</ele>
</trkpt>
<trkpt lat="34.802996944444445" lon="137.14925805555555">
<ele>250</ele>
</trkpt>
<trkpt lat="34.802971944444444" lon="137.1493461111111">
<ele>250</ele>
</trkpt>
<trkpt lat="34.80298805555555" lon="137.14943305555556">
<ele>250</ele>
</trkpt>
<trkpt lat="34.80316305555556" lon="137.14963305555557">
<ele>252</ele>
</trkpt>
<trkpt lat="34.80329694444445" lon="137.14978305555556">
<ele>254</ele>
</trkpt>
<trkpt lat="34.80333" lon="137.1498711111111">
<ele>254</ele>
</trkpt>
<trkpt lat="34.80332194444444" lon="137.1499711111111">
<ele>255</ele>
</trkpt>
<trkpt lat="34.803263055555554" lon="137.15005805555555">
<ele>256</ele>
</trkpt>
<trkpt lat="34.80317194444444" lon="137.1501211111111">
<ele>258</ele>
</trkpt>
<trkpt lat="34.80273" lon="137.15023305555556">
<ele>249</ele>
</trkpt>
<trkpt lat="34.80224694444444" lon="137.15043305555557">
<ele>236</ele>
</trkpt>
<trkpt lat="34.80216305555555" lon="137.15045805555556">
<ele>234</ele>
</trkpt>
<trkpt lat="34.80187194444444" lon="137.1504461111111">
<ele>230</ele>
</trkpt>
<trkpt lat="34.801805" lon="137.1504461111111">
<ele>230</ele>
</trkpt>
<trkpt lat="34.801696944444444" lon="137.1504461111111">
<ele>229</ele>
</trkpt>
<trkpt lat="34.801555" lon="137.1504711111111">
<ele>226</ele>
</trkpt>
<trkpt lat="34.80108" lon="137.15072111111112">
<ele>221</ele>
</trkpt>
<trkpt lat="34.800713888888886" lon="137.1509211111111">
<ele>218</ele>
</trkpt>
<trkpt lat="34.80063" lon="137.15098305555554">
<ele>219</ele>
</trkpt>
<trkpt lat="34.80058" lon="137.15107111111112">
<ele>218</ele>
</trkpt>
<trkpt lat="34.80043888888889" lon="137.15145805555557">
<ele>216</ele>
</trkpt>
<trkpt lat="34.80036388888889" lon="137.15153305555555">
<ele>216</ele>
</trkpt>
<trkpt lat="34.80027194444445" lon="137.15158305555556">
<ele>213</ele>
</trkpt>
<trkpt lat="34.80008888888889" lon="137.1515961111111">
<ele>215</ele>
</trkpt>
<trkpt lat="34.799996944444445" lon="137.15154611111112">
<ele>213</ele>
</trkpt>
<trkpt lat="34.799971944444444" lon="137.15145805555557">
<ele>213</ele>
</trkpt>
<trkpt lat="34.80007194444445" lon="137.15093305555556">
<ele>207</ele>
</trkpt>
<trkpt lat="34.80013" lon="137.1508211111111">
<ele>205</ele>
</trkpt>
<trkpt lat="34.800196944444444" lon="137.15072111111112">
<ele>204</ele>
</trkpt>
<trkpt lat="34.800308888888885" lon="137.15061194444445">
<ele>206</ele>
</trkpt>
<trkpt lat="34.800308888888885" lon="137.15061111111112">
<ele>206</ele>
</trkpt>
<trkpt lat="34.80036388888889" lon="137.15055805555556">
<ele>207</ele>
</trkpt>
<trkpt lat="34.80043888888889" lon="137.1504711111111">
<ele>205</ele>
</trkpt>
<trkpt lat="34.80053" lon="137.15029611111112">
<ele>199</ele>
</trkpt>
<trkpt lat="34.800871944444445" lon="137.14958305555555">
<ele>194</ele>
</trkpt>
<trkpt lat="34.80094694444445" lon="137.1494461111111">
<ele>187</ele>
</trkpt>
<trkpt lat="34.801046944444444" lon="137.14933305555556">
<ele>179</ele>
</trkpt>
<trkpt lat="34.80113" lon="137.1492961111111">
<ele>179</ele>
</trkpt>
<trkpt lat="34.80148" lon="137.14928305555554">
<ele>181</ele>
</trkpt>
<trkpt lat="34.80166388888889" lon="137.14927111111112">
<ele>181</ele>
</trkpt>
<trkpt lat="34.80173888888889" lon="137.14923305555556">
<ele>183</ele>
</trkpt>
<trkpt lat="34.801763888888885" lon="137.14917111111112">
<ele>180</ele>
</trkpt>
<trkpt lat="34.801746944444446" lon="137.14908305555556">
<ele>179</ele>
</trkpt>
<trkpt lat="34.801696944444444" lon="137.14903305555555">
<ele>179</ele>
</trkpt>
<trkpt lat="34.80162194444444" lon="137.14902111111113">
<ele>178</ele>
</trkpt>
<trkpt lat="34.80144694444444" lon="137.14905805555554">
<ele>178</ele>
</trkpt>
<trkpt lat="34.80098888888889" lon="137.14905805555554">
<ele>173</ele>
</trkpt>
<trkpt lat="34.800896944444446" lon="137.1490711111111">
<ele>173</ele>
</trkpt>
<trkpt lat="34.80063" lon="137.14914611111112">
<ele>169</ele>
</trkpt>
<trkpt lat="34.800405" lon="137.14917111111112">
<ele>165</ele>
</trkpt>
<trkpt lat="34.800396944444444" lon="137.1492961111111">
<ele>166</ele>
</trkpt>
<trkpt lat="34.80033888888889" lon="137.14940805555557">
<ele>167</ele>
</trkpt>
<trkpt lat="34.80014694444444" lon="137.1496961111111">
<ele>166</ele>
</trkpt>
<trkpt lat="34.799955" lon="137.14993305555555">
<ele>164</ele>
</trkpt>
<trkpt lat="34.799821944444446" lon="137.15000805555556">
<ele>165</ele>
</trkpt>
<trkpt lat="34.79964694444445" lon="137.15003305555555">
<ele>162</ele>
</trkpt>
<trkpt lat="34.79938888888889" lon="137.15003305555555">
<ele>158</ele>
</trkpt>
<trkpt lat="34.798896944444444" lon="137.15000805555556">
<ele>154</ele>
</trkpt>
<trkpt lat="34.798563888888886" lon="137.15015805555555">
<ele>146</ele>
</trkpt>
<trkpt lat="34.79845611111111" lon="137.15018305555554">
<ele>145</ele>
</trkpt>
<trkpt lat="34.79819694444444" lon="137.15017111111112">
<ele>142</ele>
</trkpt>
<trkpt lat="34.797848055555555" lon="137.1502211111111">
<ele>141</ele>
</trkpt>
<trkpt lat="34.79776388888889" lon="137.15018305555554">
<ele>141</ele>
</trkpt>
<trkpt lat="34.79773888888889" lon="137.15008305555557">
<ele>137</ele>
</trkpt>
<trkpt lat="34.79776388888889" lon="137.14998305555557">
<ele>134</ele>
</trkpt>
<trkpt lat="34.79783888888889" lon="137.14993305555555">
<ele>135</ele>
</trkpt>
<trkpt lat="34.79803888888889" lon="137.1499711111111">
<ele>136</ele>
</trkpt>
<trkpt lat="34.798321944444446" lon="137.1499711111111">
<ele>136</ele>
</trkpt>
<trkpt lat="34.79848888888889" lon="137.1498961111111">
<ele>140</ele>
</trkpt>
<trkpt lat="34.798656111111114" lon="137.1497711111111">
<ele>134</ele>
</trkpt>
<trkpt lat="34.79873888888889" lon="137.1497461111111">
<ele>136</ele>
</trkpt>
<trkpt lat="34.798971944444446" lon="137.14970805555555">
<ele>139</ele>
</trkpt>
<trkpt lat="34.79903111111111" lon="137.1496461111111">
<ele>134</ele>
</trkpt>
<trkpt lat="34.79902194444445" lon="137.14948305555555">
<ele>128</ele>
</trkpt>
<trkpt lat="34.79893888888889" lon="137.14943305555556">
<ele>124</ele>
</trkpt>
<trkpt lat="34.79873888888889" lon="137.1494711111111">
<ele>128</ele>
</trkpt>
<trkpt lat="34.79843888888889" lon="137.14958305555555">
<ele>126</ele>
</trkpt>
<trkpt lat="34.798321944444446" lon="137.14960805555555">
<ele>119</ele>
</trkpt>
<trkpt lat="34.798138888888886" lon="137.14953305555557">
<ele>116</ele>
</trkpt>
<trkpt lat="34.797896944444446" lon="137.14938305555555">
<ele>114</ele>
</trkpt>
<trkpt lat="34.79766388888889" lon="137.1493461111111">
<ele>108</ele>
</trkpt>
<trkpt lat="34.797488888888886" lon="137.14937111111112">
<ele>106</ele>
</trkpt>
<trkpt lat="34.79738888888889" lon="137.1494211111111">
<ele>105</ele>
</trkpt>
<trkpt lat="34.79726388888889" lon="137.14960805555555">
<ele>106</ele>
</trkpt>
<trkpt lat="34.79714805555555" lon="137.1498711111111">
<ele>106</ele>
</trkpt>
<trkpt lat="34.79708111111111" lon="137.15018305555554">
<ele>106</ele>
</trkpt>
<trkpt lat="34.79701388888889" lon="137.1503211111111">
<ele>107</ele>
</trkpt>
<trkpt lat="34.79693888888889" lon="137.15038305555555">
<ele>106</ele>
</trkpt>
<trkpt lat="34.796731111111114" lon="137.15053305555554">
<ele>103</ele>
</trkpt>
<trkpt lat="34.79666388888889" lon="137.15060805555555">
<ele>98</ele>
</trkpt>
<trkpt lat="34.79661388888889" lon="137.1507711111111">
<ele>96</ele>
</trkpt>
<trkpt lat="34.79660611111111" lon="137.15093305555556">
<ele>94</ele>
</trkpt>
<trkpt lat="34.79664694444445" lon="137.15125805555556">
<ele>94</ele>
</trkpt>
<trkpt lat="34.796621944444446" lon="137.15145805555557">
<ele>95</ele>
</trkpt>
<trkpt lat="34.79635611111111" lon="137.15215805555556">
<ele>96</ele>
</trkpt>
<trkpt lat="34.796281111111114" lon="137.15222111111112">
<ele>90</ele>
</trkpt>
<trkpt lat="34.79618111111111" lon="137.15219611111112">
<ele>83</ele>
</trkpt>
<trkpt lat="34.79613888888889" lon="137.15212111111111">
<ele>83</ele>
</trkpt>
<trkpt lat="34.796146944444445" lon="137.15200805555557">
<ele>84</ele>
</trkpt>
<trkpt lat="34.796348055555555" lon="137.15163305555555">
<ele>90</ele>
</trkpt>
<trkpt lat="34.79638111111111" lon="137.15148305555556">
<ele>89</ele>
</trkpt>
<trkpt lat="34.79638888888889" lon="137.15133305555557">
<ele>86</ele>
</trkpt>
<trkpt lat="34.79623111111111" lon="137.1510211111111">
<ele>78</ele>
</trkpt>
<trkpt lat="34.79618111111111" lon="137.1505461111111">
<ele>76</ele>
</trkpt>
<trkpt lat="34.79613111111111" lon="137.15038305555555">
<ele>76</ele>
</trkpt>
<trkpt lat="34.79587305555555" lon="137.14990805555556">
<ele>62</ele>
</trkpt>
<trkpt lat="34.79582305555556" lon="137.14978305555556">
<ele>62</ele>
</trkpt>
<trkpt lat="34.79582305555556" lon="137.1496961111111">
<ele>62</ele>
</trkpt>
<trkpt lat="34.795856111111114" lon="137.14960805555555">
<ele>62</ele>
</trkpt>
<trkpt lat="34.79593111111111" lon="137.1495461111111">
<ele>62</ele>
</trkpt>
<trkpt lat="34.79628888888889" lon="137.14938305555555">
<ele>63</ele>
</trkpt>
<trkpt lat="34.796413888888885" lon="137.14928305555554">
<ele>62</ele>
</trkpt>
<trkpt lat="34.79649805555555" lon="137.1491961111111">
<ele>62</ele>
</trkpt>
<trkpt lat="34.796573055555555" lon="137.14908305555556">
<ele>58</ele>
</trkpt>
<trkpt lat="34.79676388888889" lon="137.1486711111111">
<ele>51</ele>
</trkpt>
<trkpt lat="34.796823055555556" lon="137.1485211111111">
<ele>48</ele>
</trkpt>
<trkpt lat="34.79688888888889" lon="137.1481961111111">
<ele>45</ele>
</trkpt>
<trkpt lat="34.79691388888889" lon="137.14802111111112">
<ele>44</ele>
</trkpt>
<trkpt lat="34.79690611111111" lon="137.14793305555557">
<ele>43</ele>
</trkpt>
<trkpt lat="34.79688111111111" lon="137.1478711111111">
<ele>40</ele>
</trkpt>
<trkpt lat="34.79683888888889" lon="137.14783305555557">
<ele>40</ele>
</trkpt>
<trkpt lat="34.79678888888889" lon="137.14780805555554">
<ele>40</ele>
</trkpt>
<trkpt lat="34.796621944444446" lon="137.1478211111111">
<ele>37</ele>
</trkpt>
<trkpt lat="34.79613111111111" lon="137.14793305555557">
<ele>32</ele>
</trkpt>
<trkpt lat="34.79551388888889" lon="137.1480711111111">
<ele>28</ele>
</trkpt>
<trkpt lat="34.794913888888885" lon="137.14820805555556">
<ele>25</ele>
</trkpt>
<trkpt lat="34.794913888888885" lon="137.14883305555554">
<ele>24</ele>
</trkpt>
<trkpt lat="34.794913888888885" lon="137.15017111111112">
<ele>22</ele>
</trkpt>
<trkpt lat="34.794913888888885" lon="137.15039611111112">
<ele>22</ele>
</trkpt>
<trkpt lat="34.794913888888885" lon="137.1508211111111">
<ele>23</ele>
</trkpt>
<trkpt lat="34.794913888888885" lon="137.15095805555555">
<ele>23</ele>
</trkpt>
<trkpt lat="34.79489805555556" lon="137.15140805555555">
<ele>27</ele>
</trkpt>
<trkpt lat="34.794848055555555" lon="137.1515961111111">
<ele>28</ele>
</trkpt>
<trkpt lat="34.79477305555555" lon="137.15178305555557">
<ele>27</ele>
</trkpt>
<trkpt lat="34.794673055555556" lon="137.15193305555556">
<ele>25</ele>
</trkpt>
<trkpt lat="34.79453111111111" lon="137.15205805555556">
<ele>21</ele>
</trkpt>
<trkpt lat="34.79428111111111" lon="137.1522461111111">
<ele>18</ele>
</trkpt>
<trkpt lat="34.793998055555555" lon="137.15242111111112">
<ele>17</ele>
</trkpt>
<trkpt lat="34.793978055555556" lon="137.15237194444444">
<ele>17</ele>
</trkpt>
    </trkseg>
  </trk>
</gpx>