<?xml version="1.0" encoding="UTF-8"?>
<gpx version="1.1"
     creator="KMLtoGPX"
     xmlns="http://www.topografix.com/GPX/1/1">
  <metadata>
    <name>Noborin Hill Park (South exit of Mount Zao)</name>
    <desc>のぼリンヒルクラ（蔵王山南口）</desc>
    <bounds minlat="34.67670361111111" minlon="137.2534388888889" maxlat="34.685125" maxlon="137.262435"/>
  </metadata>
  <trk>
    <name>Noborin Hill Park (South exit of Mount Zao)</name>
    <trkseg>
<trkpt lat="34.67670361111111" lon="137.25722944444445">
<ele>33</ele>
</trkpt>
<trkpt lat="34.676744444444445" lon="137.25720638888887">
<ele>34</ele>
</trkpt>
<trkpt lat="34.676785" lon="137.25718305555554">
<ele>35</ele>
</trkpt>
<trkpt lat="34.67682583333333" lon="137.25716">
<ele>35</ele>
</trkpt>
<trkpt lat="34.67686638888889" lon="137.25713694444445">
<ele>35</ele>
</trkpt>
<trkpt lat="34.67690722222222" lon="137.25711388888888">
<ele>36</ele>
</trkpt>
<trkpt lat="34.67694777777778" lon="137.25709083333334">
<ele>36</ele>
</trkpt>
<trkpt lat="34.676968333333335" lon="137.25707916666667">
<ele>36</ele>
</trkpt>
<trkpt lat="34.676968333333335" lon="137.25707916666667">
<ele>36</ele>
</trkpt>
<trkpt lat="34.6770075" lon="137.2571061111111">
<ele>37</ele>
</trkpt>
<trkpt lat="34.67704666666667" lon="137.25713277777777">
<ele>37</ele>
</trkpt>
<trkpt lat="34.67708555555556" lon="137.2571597222222">
<ele>37</ele>
</trkpt>
<trkpt lat="34.677124722222224" lon="137.25718666666666">
<ele>38</ele>
</trkpt>
<trkpt lat="34.67716388888889" lon="137.2572136111111">
<ele>38</ele>
</trkpt>
<trkpt lat="34.67717138888889" lon="137.2572186111111">
<ele>38</ele>
</trkpt>
<trkpt lat="34.67717138888889" lon="137.2572186111111">
<ele>38</ele>
</trkpt>
<trkpt lat="34.67718611111111" lon="137.25727027777776">
<ele>39</ele>
</trkpt>
<trkpt lat="34.67720083333333" lon="137.25732166666666">
<ele>39</ele>
</trkpt>
<trkpt lat="34.677215833333335" lon="137.25737333333333">
<ele>40</ele>
</trkpt>
<trkpt lat="34.67723055555555" lon="137.257425">
<ele>42</ele>
</trkpt>
<trkpt lat="34.67724527777778" lon="137.25747638888888">
<ele>43</ele>
</trkpt>
<trkpt lat="34.677260277777776" lon="137.25752805555555">
<ele>43</ele>
</trkpt>
<trkpt lat="34.677275" lon="137.25757944444445">
<ele>43</ele>
</trkpt>
<trkpt lat="34.67728972222222" lon="137.25763111111112">
<ele>43</ele>
</trkpt>
<trkpt lat="34.677304722222225" lon="137.25768277777777">
<ele>43</ele>
</trkpt>
<trkpt lat="34.67731944444444" lon="137.25773416666667">
<ele>43</ele>
</trkpt>
<trkpt lat="34.67733416666667" lon="137.25778583333334">
<ele>45</ele>
</trkpt>
<trkpt lat="34.677349166666666" lon="137.25783722222224">
<ele>45</ele>
</trkpt>
<trkpt lat="34.67736388888889" lon="137.25788888888889">
<ele>44</ele>
</trkpt>
<trkpt lat="34.67737861111111" lon="137.25794055555556">
<ele>44</ele>
</trkpt>
<trkpt lat="34.677393611111114" lon="137.25799194444446">
<ele>44</ele>
</trkpt>
<trkpt lat="34.67740833333333" lon="137.2580436111111">
<ele>43</ele>
</trkpt>
<trkpt lat="34.67742305555556" lon="137.25809527777778">
<ele>43</ele>
</trkpt>
<trkpt lat="34.67742722222222" lon="137.25810916666666">
<ele>43</ele>
</trkpt>
<trkpt lat="34.67742722222222" lon="137.25810916666666">
<ele>43</ele>
</trkpt>
<trkpt lat="34.67745722222222" lon="137.25815416666666">
<ele>45</ele>
</trkpt>
<trkpt lat="34.6774875" lon="137.25819944444444">
<ele>45</ele>
</trkpt>
<trkpt lat="34.67751777777778" lon="137.25824472222223">
<ele>45</ele>
</trkpt>
<trkpt lat="34.677547777777775" lon="137.25828972222223">
<ele>45</ele>
</trkpt>
<trkpt lat="34.67757805555556" lon="137.258335">
<ele>46</ele>
</trkpt>
<trkpt lat="34.67760833333333" lon="137.25838027777777">
<ele>46</ele>
</trkpt>
<trkpt lat="34.677638333333334" lon="137.25842527777777">
<ele>46</ele>
</trkpt>
<trkpt lat="34.67766861111111" lon="137.25847055555556">
<ele>47</ele>
</trkpt>
<trkpt lat="34.67769888888889" lon="137.25851555555556">
<ele>47</ele>
</trkpt>
<trkpt lat="34.677728888888886" lon="137.25856083333332">
<ele>46</ele>
</trkpt>
<trkpt lat="34.67775916666667" lon="137.2586061111111">
<ele>46</ele>
</trkpt>
<trkpt lat="34.67778944444444" lon="137.2586511111111">
<ele>48</ele>
</trkpt>
<trkpt lat="34.677819444444445" lon="137.2586963888889">
<ele>47</ele>
</trkpt>
<trkpt lat="34.67784972222222" lon="137.25874166666668">
<ele>47</ele>
</trkpt>
<trkpt lat="34.67788" lon="137.25878666666668">
<ele>46</ele>
</trkpt>
<trkpt lat="34.67791" lon="137.25883194444444">
<ele>47</ele>
</trkpt>
<trkpt lat="34.67794027777778" lon="137.25887694444444">
<ele>47</ele>
</trkpt>
<trkpt lat="34.677970555555554" lon="137.25892222222222">
<ele>46</ele>
</trkpt>
<trkpt lat="34.678000555555556" lon="137.2589675">
<ele>46</ele>
</trkpt>
<trkpt lat="34.678000555555556" lon="137.2589675">
<ele>46</ele>
</trkpt>
<trkpt lat="34.678000555555556" lon="137.2589675">
<ele>46</ele>
</trkpt>
<trkpt lat="34.6780375" lon="137.2589986111111">
<ele>46</ele>
</trkpt>
<trkpt lat="34.67807444444445" lon="137.2590297222222">
<ele>45</ele>
</trkpt>
<trkpt lat="34.67811138888889" lon="137.25906111111112">
<ele>45</ele>
</trkpt>
<trkpt lat="34.67814805555555" lon="137.25909222222222">
<ele>45</ele>
</trkpt>
<trkpt lat="34.678185" lon="137.25912333333332">
<ele>45</ele>
</trkpt>
<trkpt lat="34.678221944444445" lon="137.25915444444445">
<ele>45</ele>
</trkpt>
<trkpt lat="34.67825861111111" lon="137.25918583333333">
<ele>46</ele>
</trkpt>
<trkpt lat="34.67829555555556" lon="137.25921694444443">
<ele>46</ele>
</trkpt>
<trkpt lat="34.6783325" lon="137.25924805555556">
<ele>45</ele>
</trkpt>
<trkpt lat="34.67836944444444" lon="137.25927944444445">
<ele>46</ele>
</trkpt>
<trkpt lat="34.67840611111111" lon="137.25931055555554">
<ele>46</ele>
</trkpt>
<trkpt lat="34.67840638888889" lon="137.25931083333333">
<ele>46</ele>
</trkpt>
<trkpt lat="34.67840638888889" lon="137.25931083333333">
<ele>46</ele>
</trkpt>
<trkpt lat="34.67843722222222" lon="137.25935055555556">
<ele>46</ele>
</trkpt>
<trkpt lat="34.678468055555555" lon="137.25939055555557">
<ele>46</ele>
</trkpt>
<trkpt lat="34.67849861111111" lon="137.25943027777777">
<ele>46</ele>
</trkpt>
<trkpt lat="34.67852944444444" lon="137.25947">
<ele>45</ele>
</trkpt>
<trkpt lat="34.67856" lon="137.25951">
<ele>46</ele>
</trkpt>
<trkpt lat="34.67859083333333" lon="137.25954972222223">
<ele>46</ele>
</trkpt>
<trkpt lat="34.678621666666665" lon="137.25958972222222">
<ele>45</ele>
</trkpt>
<trkpt lat="34.67865222222222" lon="137.25962944444444">
<ele>46</ele>
</trkpt>
<trkpt lat="34.678671111111115" lon="137.25965416666668">
<ele>46</ele>
</trkpt>
<trkpt lat="34.678671111111115" lon="137.25965416666668">
<ele>46</ele>
</trkpt>
<trkpt lat="34.678714166666666" lon="137.2596702777778">
<ele>45</ele>
</trkpt>
<trkpt lat="34.678756944444444" lon="137.25968666666665">
<ele>45</ele>
</trkpt>
<trkpt lat="34.67879972222222" lon="137.25970305555555">
<ele>46</ele>
</trkpt>
<trkpt lat="34.678803611111114" lon="137.25970444444445">
<ele>46</ele>
</trkpt>
<trkpt lat="34.678803611111114" lon="137.25970444444445">
<ele>46</ele>
</trkpt>
<trkpt lat="34.67883472222222" lon="137.259665">
<ele>47</ele>
</trkpt>
<trkpt lat="34.67886583333333" lon="137.25962583333333">
<ele>47</ele>
</trkpt>
<trkpt lat="34.678896944444446" lon="137.2595863888889">
<ele>48</ele>
</trkpt>
<trkpt lat="34.678913888888886" lon="137.259565">
<ele>48</ele>
</trkpt>
<trkpt lat="34.678913888888886" lon="137.259565">
<ele>48</ele>
</trkpt>
<trkpt lat="34.67888305555555" lon="137.25952527777778">
<ele>48</ele>
</trkpt>
<trkpt lat="34.678851944444446" lon="137.25948555555556">
<ele>48</ele>
</trkpt>
<trkpt lat="34.67882111111111" lon="137.25944611111112">
<ele>48</ele>
</trkpt>
<trkpt lat="34.67879027777778" lon="137.2594063888889">
<ele>48</ele>
</trkpt>
<trkpt lat="34.678759444444445" lon="137.25936666666666">
<ele>47</ele>
</trkpt>
<trkpt lat="34.678755" lon="137.2593611111111">
<ele>47</ele>
</trkpt>
<trkpt lat="34.678755" lon="137.2593611111111">
<ele>47</ele>
</trkpt>
<trkpt lat="34.67872138888889" lon="137.25932472222223">
<ele>48</ele>
</trkpt>
<trkpt lat="34.678687777777775" lon="137.25928861111112">
<ele>48</ele>
</trkpt>
<trkpt lat="34.67865444444445" lon="137.25925222222222">
<ele>47</ele>
</trkpt>
<trkpt lat="34.67862083333333" lon="137.25921583333334">
<ele>48</ele>
</trkpt>
<trkpt lat="34.67858722222222" lon="137.25917944444444">
<ele>48</ele>
</trkpt>
<trkpt lat="34.67855361111111" lon="137.25914333333333">
<ele>47</ele>
</trkpt>
<trkpt lat="34.67852027777778" lon="137.25910694444445">
<ele>48</ele>
</trkpt>
<trkpt lat="34.678486666666664" lon="137.25907055555555">
<ele>48</ele>
</trkpt>
<trkpt lat="34.67845305555556" lon="137.25903416666668">
<ele>48</ele>
</trkpt>
<trkpt lat="34.678419444444444" lon="137.25899805555557">
<ele>48</ele>
</trkpt>
<trkpt lat="34.67839333333333" lon="137.25896944444443">
<ele>48</ele>
</trkpt>
<trkpt lat="34.67839333333333" lon="137.25896944444443">
<ele>48</ele>
</trkpt>
<trkpt lat="34.67836611111111" lon="137.25892583333334">
<ele>48</ele>
</trkpt>
<trkpt lat="34.67833916666667" lon="137.2588822222222">
<ele>48</ele>
</trkpt>
<trkpt lat="34.678311944444445" lon="137.2588388888889">
<ele>47</ele>
</trkpt>
<trkpt lat="34.678285" lon="137.25879527777778">
<ele>47</ele>
</trkpt>
<trkpt lat="34.67825805555555" lon="137.25875166666665">
<ele>48</ele>
</trkpt>
<trkpt lat="34.67823083333333" lon="137.25870805555556">
<ele>48</ele>
</trkpt>
<trkpt lat="34.67823" lon="137.25870666666665">
<ele>48</ele>
</trkpt>
<trkpt lat="34.67823" lon="137.25870666666665">
<ele>48</ele>
</trkpt>
<trkpt lat="34.67820861111111" lon="137.25865861111112">
<ele>48</ele>
</trkpt>
<trkpt lat="34.67818694444444" lon="137.25861083333334">
<ele>48</ele>
</trkpt>
<trkpt lat="34.67816527777778" lon="137.25856277777777">
<ele>48</ele>
</trkpt>
<trkpt lat="34.67814388888889" lon="137.258515">
<ele>49</ele>
</trkpt>
<trkpt lat="34.67812222222222" lon="137.25846694444445">
<ele>49</ele>
</trkpt>
<trkpt lat="34.67810083333333" lon="137.25841916666667">
<ele>54</ele>
</trkpt>
<trkpt lat="34.67807916666667" lon="137.2583711111111">
<ele>54</ele>
</trkpt>
<trkpt lat="34.67807555555556" lon="137.25836333333334">
<ele>55</ele>
</trkpt>
<trkpt lat="34.67807555555556" lon="137.25836333333334">
<ele>55</ele>
</trkpt>
<trkpt lat="34.678063055555555" lon="137.25831083333333">
<ele>57</ele>
</trkpt>
<trkpt lat="34.67805055555556" lon="137.25825833333334">
<ele>57</ele>
</trkpt>
<trkpt lat="34.678038055555554" lon="137.25820611111112">
<ele>59</ele>
</trkpt>
<trkpt lat="34.67802555555556" lon="137.2581536111111">
<ele>59</ele>
</trkpt>
<trkpt lat="34.67801305555555" lon="137.2581011111111">
<ele>63</ele>
</trkpt>
<trkpt lat="34.678000555555556" lon="137.25804861111112">
<ele>63</ele>
</trkpt>
<trkpt lat="34.67798805555555" lon="137.2579961111111">
<ele>63</ele>
</trkpt>
<trkpt lat="34.677975555555555" lon="137.2579436111111">
<ele>65</ele>
</trkpt>
<trkpt lat="34.67796305555556" lon="137.25789138888888">
<ele>65</ele>
</trkpt>
<trkpt lat="34.67795666666667" lon="137.25786444444444">
<ele>65</ele>
</trkpt>
<trkpt lat="34.67795666666667" lon="137.25786444444444">
<ele>65</ele>
</trkpt>
<trkpt lat="34.67795666666667" lon="137.25780972222222">
<ele>65</ele>
</trkpt>
<trkpt lat="34.67795666666667" lon="137.2577552777778">
<ele>66</ele>
</trkpt>
<trkpt lat="34.67795666666667" lon="137.25770055555554">
<ele>66</ele>
</trkpt>
<trkpt lat="34.67795666666667" lon="137.25764611111111">
<ele>67</ele>
</trkpt>
<trkpt lat="34.67795666666667" lon="137.25763916666668">
<ele>67</ele>
</trkpt>
<trkpt lat="34.67795666666667" lon="137.25763916666668">
<ele>67</ele>
</trkpt>
<trkpt lat="34.67795944444445" lon="137.25758472222222">
<ele>67</ele>
</trkpt>
<trkpt lat="34.67796222222222" lon="137.25753">
<ele>69</ele>
</trkpt>
<trkpt lat="34.677965" lon="137.25747555555554">
<ele>69</ele>
</trkpt>
<trkpt lat="34.67796777777778" lon="137.2574211111111">
<ele>72</ele>
</trkpt>
<trkpt lat="34.67796972222222" lon="137.25738166666667">
<ele>72</ele>
</trkpt>
<trkpt lat="34.67796972222222" lon="137.25738166666667">
<ele>72</ele>
</trkpt>
<trkpt lat="34.677997222222224" lon="137.25733833333334">
<ele>72</ele>
</trkpt>
<trkpt lat="34.678024444444446" lon="137.257295">
<ele>75</ele>
</trkpt>
<trkpt lat="34.67805166666667" lon="137.25725166666666">
<ele>75</ele>
</trkpt>
<trkpt lat="34.67807111111111" lon="137.25722083333332">
<ele>74</ele>
</trkpt>
<trkpt lat="34.67807111111111" lon="137.25722083333332">
<ele>74</ele>
</trkpt>
<trkpt lat="34.678107777777775" lon="137.2571888888889">
<ele>76</ele>
</trkpt>
<trkpt lat="34.67814416666667" lon="137.25715694444443">
<ele>76</ele>
</trkpt>
<trkpt lat="34.67818055555556" lon="137.2571252777778">
<ele>75</ele>
</trkpt>
<trkpt lat="34.67821722222222" lon="137.25709333333333">
<ele>77</ele>
</trkpt>
<trkpt lat="34.678243333333334" lon="137.25707055555554">
<ele>77</ele>
</trkpt>
<trkpt lat="34.678243333333334" lon="137.25707055555554">
<ele>77</ele>
</trkpt>
<trkpt lat="34.678255" lon="137.25701777777778">
<ele>77</ele>
</trkpt>
<trkpt lat="34.678266666666666" lon="137.256965">
<ele>77</ele>
</trkpt>
<trkpt lat="34.67827416666667" lon="137.2569311111111">
<ele>77</ele>
</trkpt>
<trkpt lat="34.67827416666667" lon="137.2569311111111">
<ele>77</ele>
</trkpt>
<trkpt lat="34.67829361111111" lon="137.25688194444444">
<ele>79</ele>
</trkpt>
<trkpt lat="34.678313055555556" lon="137.2568325">
<ele>79</ele>
</trkpt>
<trkpt lat="34.678331388888886" lon="137.2567861111111">
<ele>79</ele>
</trkpt>
<trkpt lat="34.678331388888886" lon="137.2567861111111">
<ele>79</ele>
</trkpt>
<trkpt lat="34.67837388888889" lon="137.25676833333333">
<ele>85</ele>
</trkpt>
<trkpt lat="34.67841638888889" lon="137.25675055555556">
<ele>89</ele>
</trkpt>
<trkpt lat="34.67845888888889" lon="137.25673277777778">
<ele>86</ele>
</trkpt>
<trkpt lat="34.67850138888889" lon="137.256715">
<ele>89</ele>
</trkpt>
<trkpt lat="34.67854388888889" lon="137.25669722222221">
<ele>89</ele>
</trkpt>
<trkpt lat="34.67858638888889" lon="137.25667944444444">
<ele>89</ele>
</trkpt>
<trkpt lat="34.67862861111111" lon="137.25666166666667">
<ele>89</ele>
</trkpt>
<trkpt lat="34.678671111111115" lon="137.2566438888889">
<ele>89</ele>
</trkpt>
<trkpt lat="34.678713611111114" lon="137.25662583333335">
<ele>89</ele>
</trkpt>
<trkpt lat="34.678715277777776" lon="137.25662527777777">
<ele>89</ele>
</trkpt>
<trkpt lat="34.678715277777776" lon="137.25662527777777">
<ele>89</ele>
</trkpt>
<trkpt lat="34.678759722222225" lon="137.2566163888889">
<ele>89</ele>
</trkpt>
<trkpt lat="34.678803888888886" lon="137.2566075">
<ele>90</ele>
</trkpt>
<trkpt lat="34.678848333333335" lon="137.25659861111112">
<ele>90</ele>
</trkpt>
<trkpt lat="34.6788925" lon="137.25658944444444">
<ele>92</ele>
</trkpt>
<trkpt lat="34.678936944444445" lon="137.25658055555556">
<ele>92</ele>
</trkpt>
<trkpt lat="34.67898111111111" lon="137.25657166666667">
<ele>92</ele>
</trkpt>
<trkpt lat="34.679025555555555" lon="137.2565627777778">
<ele>93</ele>
</trkpt>
<trkpt lat="34.67906972222222" lon="137.2565538888889">
<ele>91</ele>
</trkpt>
<trkpt lat="34.679114166666665" lon="137.256545">
<ele>92</ele>
</trkpt>
<trkpt lat="34.67915833333333" lon="137.2565361111111">
<ele>92</ele>
</trkpt>
<trkpt lat="34.679202777777775" lon="137.25652722222222">
<ele>92</ele>
</trkpt>
<trkpt lat="34.679246944444444" lon="137.25651833333333">
<ele>93</ele>
</trkpt>
<trkpt lat="34.67929138888889" lon="137.25650916666666">
<ele>93</ele>
</trkpt>
<trkpt lat="34.679335555555554" lon="137.25650027777777">
<ele>94</ele>
</trkpt>
<trkpt lat="34.67938" lon="137.2564913888889">
<ele>94</ele>
</trkpt>
<trkpt lat="34.67938138888889" lon="137.2564911111111">
<ele>92</ele>
</trkpt>
<trkpt lat="34.67938138888889" lon="137.2564911111111">
<ele>92</ele>
</trkpt>
<trkpt lat="34.67940111111111" lon="137.25644194444445">
<ele>92</ele>
</trkpt>
<trkpt lat="34.67942055555555" lon="137.2563927777778">
<ele>93</ele>
</trkpt>
<trkpt lat="34.67944027777778" lon="137.2563436111111">
<ele>91</ele>
</trkpt>
<trkpt lat="34.679451944444445" lon="137.25631416666667">
<ele>92</ele>
</trkpt>
<trkpt lat="34.679451944444445" lon="137.25631416666667">
<ele>98</ele>
</trkpt>
<trkpt lat="34.679425555555554" lon="137.25627">
<ele>96</ele>
</trkpt>
<trkpt lat="34.67939916666667" lon="137.25622583333333">
<ele>96</ele>
</trkpt>
<trkpt lat="34.67937277777778" lon="137.25618138888888">
<ele>97</ele>
</trkpt>
<trkpt lat="34.67934666666667" lon="137.25613722222224">
<ele>97</ele>
</trkpt>
<trkpt lat="34.67932027777778" lon="137.25609305555557">
<ele>95</ele>
</trkpt>
<trkpt lat="34.679293888888886" lon="137.2560488888889">
<ele>95</ele>
</trkpt>
<trkpt lat="34.6792675" lon="137.25600472222223">
<ele>95</ele>
</trkpt>
<trkpt lat="34.67924111111111" lon="137.25596027777777">
<ele>96</ele>
</trkpt>
<trkpt lat="34.67921472222222" lon="137.2559161111111">
<ele>93</ele>
</trkpt>
<trkpt lat="34.679188333333336" lon="137.25587194444444">
<ele>94</ele>
</trkpt>
<trkpt lat="34.679161944444445" lon="137.25582777777777">
<ele>94</ele>
</trkpt>
<trkpt lat="34.679160833333334" lon="137.25582583333335">
<ele>94</ele>
</trkpt>
<trkpt lat="34.679160833333334" lon="137.25582583333335">
<ele>94</ele>
</trkpt>
<trkpt lat="34.67913388888889" lon="137.2557825">
<ele>94</ele>
</trkpt>
<trkpt lat="34.67910666666667" lon="137.25573888888889">
<ele>93</ele>
</trkpt>
<trkpt lat="34.67907972222222" lon="137.2556952777778">
<ele>93</ele>
</trkpt>
<trkpt lat="34.67905277777778" lon="137.25565166666667">
<ele>93</ele>
</trkpt>
<trkpt lat="34.679025555555555" lon="137.25560805555557">
<ele>93</ele>
</trkpt>
<trkpt lat="34.67899861111111" lon="137.25556444444445">
<ele>91</ele>
</trkpt>
<trkpt lat="34.67897138888889" lon="137.25552083333332">
<ele>92</ele>
</trkpt>
<trkpt lat="34.67897111111111" lon="137.25552027777778">
<ele>92</ele>
</trkpt>
<trkpt lat="34.67897111111111" lon="137.25552027777778">
<ele>92</ele>
</trkpt>
<trkpt lat="34.67895583333333" lon="137.25546888888888">
<ele>92</ele>
</trkpt>
<trkpt lat="34.678940555555556" lon="137.2554175">
<ele>92</ele>
</trkpt>
<trkpt lat="34.67892527777778" lon="137.2553661111111">
<ele>93</ele>
</trkpt>
<trkpt lat="34.67891" lon="137.2553147222222">
<ele>93</ele>
</trkpt>
<trkpt lat="34.678894722222225" lon="137.25526333333335">
<ele>94</ele>
</trkpt>
<trkpt lat="34.67887944444445" lon="137.25521194444445">
<ele>94</ele>
</trkpt>
<trkpt lat="34.67887861111111" lon="137.25520916666667">
<ele>92</ele>
</trkpt>
<trkpt lat="34.67887861111111" lon="137.25520916666667">
<ele>92</ele>
</trkpt>
<trkpt lat="34.678913333333334" lon="137.25517444444444">
<ele>94</ele>
</trkpt>
<trkpt lat="34.67894805555556" lon="137.25514">
<ele>94</ele>
</trkpt>
<trkpt lat="34.678983055555555" lon="137.25510555555556">
<ele>93</ele>
</trkpt>
<trkpt lat="34.6789975" lon="137.2550911111111">
<ele>92</ele>
</trkpt>
<trkpt lat="34.6789975" lon="137.2550911111111">
<ele>92</ele>
</trkpt>
<trkpt lat="34.67903916666667" lon="137.2551122222222">
<ele>93</ele>
</trkpt>
<trkpt lat="34.67908055555556" lon="137.25513333333333">
<ele>93</ele>
</trkpt>
<trkpt lat="34.67912194444445" lon="137.25515444444446">
<ele>93</ele>
</trkpt>
<trkpt lat="34.679163333333335" lon="137.25517555555555">
<ele>93</ele>
</trkpt>
<trkpt lat="34.679204722222224" lon="137.25519666666668">
<ele>93</ele>
</trkpt>
<trkpt lat="34.67924611111111" lon="137.25521777777777">
<ele>93</ele>
</trkpt>
<trkpt lat="34.67927111111111" lon="137.25523055555556">
<ele>95</ele>
</trkpt>
<trkpt lat="34.67927111111111" lon="137.25523055555556">
<ele>95</ele>
</trkpt>
<trkpt lat="34.67931611111111" lon="137.2552313888889">
<ele>95</ele>
</trkpt>
<trkpt lat="34.679360833333334" lon="137.2552325">
<ele>96</ele>
</trkpt>
<trkpt lat="34.679405833333334" lon="137.25523333333334">
<ele>96</ele>
</trkpt>
<trkpt lat="34.679450833333334" lon="137.25523444444445">
<ele>97</ele>
</trkpt>
<trkpt lat="34.679495555555555" lon="137.25523527777779">
<ele>97</ele>
</trkpt>
<trkpt lat="34.679540555555555" lon="137.25523638888887">
<ele>97</ele>
</trkpt>
<trkpt lat="34.679585555555555" lon="137.25523722222223">
<ele>97</ele>
</trkpt>
<trkpt lat="34.679630277777775" lon="137.25523833333332">
<ele>97</ele>
</trkpt>
<trkpt lat="34.679675277777775" lon="137.25523916666666">
<ele>97</ele>
</trkpt>
<trkpt lat="34.679720277777776" lon="137.25524027777777">
<ele>97</ele>
</trkpt>
<trkpt lat="34.679765277777776" lon="137.2552411111111">
<ele>97</ele>
</trkpt>
<trkpt lat="34.679765277777776" lon="137.2552411111111">
<ele>97</ele>
</trkpt>
<trkpt lat="34.679765277777776" lon="137.2552411111111">
<ele>97</ele>
</trkpt>
<trkpt lat="34.67980222222222" lon="137.2552102777778">
<ele>96</ele>
</trkpt>
<trkpt lat="34.67983944444445" lon="137.25517944444445">
<ele>96</ele>
</trkpt>
<trkpt lat="34.679876388888886" lon="137.2551486111111">
<ele>96</ele>
</trkpt>
<trkpt lat="34.67991333333333" lon="137.25511777777777">
<ele>97</ele>
</trkpt>
<trkpt lat="34.67991972222222" lon="137.2551125">
<ele>97</ele>
</trkpt>
<trkpt lat="34.67991972222222" lon="137.2551125">
<ele>97</ele>
</trkpt>
<trkpt lat="34.679944166666665" lon="137.25506694444445">
<ele>96</ele>
</trkpt>
<trkpt lat="34.67996888888889" lon="137.25502111111112">
<ele>96</ele>
</trkpt>
<trkpt lat="34.67999361111111" lon="137.25497555555555">
<ele>95</ele>
</trkpt>
<trkpt lat="34.68001833333334" lon="137.25493">
<ele>97</ele>
</trkpt>
<trkpt lat="34.68002111111111" lon="137.25492472222223">
<ele>97</ele>
</trkpt>
<trkpt lat="34.68002111111111" lon="137.25492472222223">
<ele>97</ele>
</trkpt>
<trkpt lat="34.68004805555555" lon="137.2548811111111">
<ele>97</ele>
</trkpt>
<trkpt lat="34.680075" lon="137.25483722222222">
<ele>96</ele>
</trkpt>
<trkpt lat="34.680101944444445" lon="137.2547936111111">
<ele>96</ele>
</trkpt>
<trkpt lat="34.68012888888889" lon="137.25475">
<ele>96</ele>
</trkpt>
<trkpt lat="34.68015583333333" lon="137.25470638888888">
<ele>97</ele>
</trkpt>
<trkpt lat="34.68018277777778" lon="137.2546625">
<ele>97</ele>
</trkpt>
<trkpt lat="34.68020972222222" lon="137.2546188888889">
<ele>97</ele>
</trkpt>
<trkpt lat="34.680232777777775" lon="137.25458138888888">
<ele>97</ele>
</trkpt>
<trkpt lat="34.680232777777775" lon="137.25458138888888">
<ele>99</ele>
</trkpt>
<trkpt lat="34.68022472222222" lon="137.25452777777778">
<ele>99</ele>
</trkpt>
<trkpt lat="34.68021666666667" lon="137.2544738888889">
<ele>96</ele>
</trkpt>
<trkpt lat="34.68020861111111" lon="137.25442027777777">
<ele>96</ele>
</trkpt>
<trkpt lat="34.68020055555556" lon="137.25436638888888">
<ele>96</ele>
</trkpt>
<trkpt lat="34.680192777777776" lon="137.25431277777778">
<ele>96</ele>
</trkpt>
<trkpt lat="34.68018472222222" lon="137.2542588888889">
<ele>96</ele>
</trkpt>
<trkpt lat="34.68018" lon="137.2542275">
<ele>96</ele>
</trkpt>
<trkpt lat="34.68018" lon="137.2542275">
<ele>96</ele>
</trkpt>
<trkpt lat="34.68018555555555" lon="137.25417333333334">
<ele>96</ele>
</trkpt>
<trkpt lat="34.680191388888886" lon="137.25411916666667">
<ele>96</ele>
</trkpt>
<trkpt lat="34.68019722222222" lon="137.254065">
<ele>96</ele>
</trkpt>
<trkpt lat="34.68020305555556" lon="137.25401083333333">
<ele>95</ele>
</trkpt>
<trkpt lat="34.68020888888889" lon="137.25395666666665">
<ele>95</ele>
</trkpt>
<trkpt lat="34.680214722222225" lon="137.2539025">
<ele>95</ele>
</trkpt>
<trkpt lat="34.68022027777778" lon="137.25384833333334">
<ele>97</ele>
</trkpt>
<trkpt lat="34.68022388888889" lon="137.25381444444446">
<ele>97</ele>
</trkpt>
<trkpt lat="34.68022388888889" lon="137.25381444444446">
<ele>97</ele>
</trkpt>
<trkpt lat="34.68024611111111" lon="137.25376666666668">
<ele>96</ele>
</trkpt>
<trkpt lat="34.68026805555556" lon="137.25371916666666">
<ele>96</ele>
</trkpt>
<trkpt lat="34.68029" lon="137.25367138888888">
<ele>96</ele>
</trkpt>
<trkpt lat="34.680303333333335" lon="137.25364277777777">
<ele>95</ele>
</trkpt>
<trkpt lat="34.680303333333335" lon="137.25364277777777">
<ele>95</ele>
</trkpt>
<trkpt lat="34.68034083333333" lon="137.2536125">
<ele>92</ele>
</trkpt>
<trkpt lat="34.68037833333333" lon="137.2535825">
<ele>94</ele>
</trkpt>
<trkpt lat="34.680415833333335" lon="137.2535525">
<ele>94</ele>
</trkpt>
<trkpt lat="34.68045333333333" lon="137.2535225">
<ele>94</ele>
</trkpt>
<trkpt lat="34.68049083333333" lon="137.25349222222223">
<ele>94</ele>
</trkpt>
<trkpt lat="34.6804975" lon="137.25348694444443">
<ele>94</ele>
</trkpt>
<trkpt lat="34.6804975" lon="137.25348694444443">
<ele>94</ele>
</trkpt>
<trkpt lat="34.6805425" lon="137.2534863888889">
<ele>94</ele>
</trkpt>
<trkpt lat="34.68058722222222" lon="137.25348555555556">
<ele>94</ele>
</trkpt>
<trkpt lat="34.68063222222222" lon="137.253485">
<ele>94</ele>
</trkpt>
<trkpt lat="34.68067722222222" lon="137.25348416666668">
<ele>95</ele>
</trkpt>
<trkpt lat="34.68072194444444" lon="137.2534836111111">
<ele>95</ele>
</trkpt>
<trkpt lat="34.68076694444444" lon="137.25348277777778">
<ele>95</ele>
</trkpt>
<trkpt lat="34.68081194444444" lon="137.25348222222223">
<ele>95</ele>
</trkpt>
<trkpt lat="34.680841666666666" lon="137.25348166666666">
<ele>95</ele>
</trkpt>
<trkpt lat="34.680841666666666" lon="137.25348166666666">
<ele>95</ele>
</trkpt>
<trkpt lat="34.680886111111114" lon="137.253475">
<ele>95</ele>
</trkpt>
<trkpt lat="34.680930833333335" lon="137.25346833333333">
<ele>95</ele>
</trkpt>
<trkpt lat="34.680975277777776" lon="137.25346166666668">
<ele>96</ele>
</trkpt>
<trkpt lat="34.68102" lon="137.253455">
<ele>96</ele>
</trkpt>
<trkpt lat="34.681064444444445" lon="137.25344833333332">
<ele>95</ele>
</trkpt>
<trkpt lat="34.681109166666666" lon="137.25344166666667">
<ele>95</ele>
</trkpt>
<trkpt lat="34.681128333333334" lon="137.2534388888889">
<ele>92</ele>
</trkpt>
<trkpt lat="34.681128333333334" lon="137.2534388888889">
<ele>92</ele>
</trkpt>
<trkpt lat="34.68116805555555" lon="137.25346444444443">
<ele>95</ele>
</trkpt>
<trkpt lat="34.6812075" lon="137.2534902777778">
<ele>95</ele>
</trkpt>
<trkpt lat="34.681247222222225" lon="137.25351583333332">
<ele>94</ele>
</trkpt>
<trkpt lat="34.681286944444444" lon="137.25354166666668">
<ele>94</ele>
</trkpt>
<trkpt lat="34.68132638888889" lon="137.25356722222222">
<ele>96</ele>
</trkpt>
<trkpt lat="34.68136611111111" lon="137.25359305555557">
<ele>95</ele>
</trkpt>
<trkpt lat="34.681405833333336" lon="137.2536186111111">
<ele>95</ele>
</trkpt>
<trkpt lat="34.681445277777776" lon="137.25364444444443">
<ele>94</ele>
</trkpt>
<trkpt lat="34.68145916666667" lon="137.25365333333335">
<ele>94</ele>
</trkpt>
<trkpt lat="34.68145916666667" lon="137.25365333333335">
<ele>94</ele>
</trkpt>
<trkpt lat="34.68150222222222" lon="137.25366888888888">
<ele>94</ele>
</trkpt>
<trkpt lat="34.68154527777778" lon="137.25368444444445">
<ele>94</ele>
</trkpt>
<trkpt lat="34.68158833333333" lon="137.2537">
<ele>96</ele>
</trkpt>
<trkpt lat="34.68163138888889" lon="137.25371555555554">
<ele>96</ele>
</trkpt>
<trkpt lat="34.68167444444445" lon="137.2537311111111">
<ele>94</ele>
</trkpt>
<trkpt lat="34.6817175" lon="137.25374666666667">
<ele>94</ele>
</trkpt>
<trkpt lat="34.68174138888889" lon="137.25375527777777">
<ele>93</ele>
</trkpt>
<trkpt lat="34.68174138888889" lon="137.25375527777777">
<ele>93</ele>
</trkpt>
<trkpt lat="34.681713611111114" lon="137.25379805555556">
<ele>95</ele>
</trkpt>
<trkpt lat="34.68168583333333" lon="137.25384111111111">
<ele>95</ele>
</trkpt>
<trkpt lat="34.68167527777778" lon="137.25385722222222">
<ele>95</ele>
</trkpt>
<trkpt lat="34.68167527777778" lon="137.25385722222222">
<ele>95</ele>
</trkpt>
<trkpt lat="34.68163055555556" lon="137.25385138888888">
<ele>95</ele>
</trkpt>
<trkpt lat="34.68158611111111" lon="137.25384527777777">
<ele>95</ele>
</trkpt>
<trkpt lat="34.68154138888889" lon="137.25383944444445">
<ele>97</ele>
</trkpt>
<trkpt lat="34.68149666666667" lon="137.2538336111111">
<ele>97</ele>
</trkpt>
<trkpt lat="34.68145222222222" lon="137.2538275">
<ele>97</ele>
</trkpt>
<trkpt lat="34.6814075" lon="137.25382166666665">
<ele>99</ele>
</trkpt>
<trkpt lat="34.68136277777778" lon="137.25381583333333">
<ele>99</ele>
</trkpt>
<trkpt lat="34.68131805555556" lon="137.25380972222223">
<ele>102</ele>
</trkpt>
<trkpt lat="34.68127361111111" lon="137.25380388888888">
<ele>102</ele>
</trkpt>
<trkpt lat="34.68122888888889" lon="137.25379777777778">
<ele>102</ele>
</trkpt>
<trkpt lat="34.68118416666667" lon="137.25379194444446">
<ele>103</ele>
</trkpt>
<trkpt lat="34.681150277777775" lon="137.2537875">
<ele>103</ele>
</trkpt>
<trkpt lat="34.681150277777775" lon="137.2537875">
<ele>103</ele>
</trkpt>
<trkpt lat="34.681105555555554" lon="137.2537927777778">
<ele>104</ele>
</trkpt>
<trkpt lat="34.68106083333333" lon="137.25379777777778">
<ele>104</ele>
</trkpt>
<trkpt lat="34.68101638888889" lon="137.25380305555555">
<ele>104</ele>
</trkpt>
<trkpt lat="34.680971666666665" lon="137.25380833333332">
<ele>104</ele>
</trkpt>
<trkpt lat="34.680926944444444" lon="137.2538136111111">
<ele>104</ele>
</trkpt>
<trkpt lat="34.68088222222222" lon="137.25381861111111">
<ele>103</ele>
</trkpt>
<trkpt lat="34.6808375" lon="137.2538238888889">
<ele>103</ele>
</trkpt>
<trkpt lat="34.680792777777775" lon="137.25382916666666">
<ele>103</ele>
</trkpt>
<trkpt lat="34.680748055555554" lon="137.25383444444444">
<ele>103</ele>
</trkpt>
<trkpt lat="34.68073583333334" lon="137.25383583333334">
<ele>103</ele>
</trkpt>
<trkpt lat="34.68073583333334" lon="137.25383583333334">
<ele>103</ele>
</trkpt>
<trkpt lat="34.68069305555556" lon="137.2538525">
<ele>103</ele>
</trkpt>
<trkpt lat="34.68065027777778" lon="137.25386944444443">
<ele>103</ele>
</trkpt>
<trkpt lat="34.6806075" lon="137.2538863888889">
<ele>103</ele>
</trkpt>
<trkpt lat="34.6805725" lon="137.25390027777777">
<ele>106</ele>
</trkpt>
<trkpt lat="34.6805725" lon="137.25390027777777">
<ele>106</ele>
</trkpt>
<trkpt lat="34.680574166666666" lon="137.25395472222223">
<ele>106</ele>
</trkpt>
<trkpt lat="34.680575833333336" lon="137.25400944444445">
<ele>109</ele>
</trkpt>
<trkpt lat="34.68057694444445" lon="137.254045">
<ele>109</ele>
</trkpt>
<trkpt lat="34.68057694444445" lon="137.254045">
<ele>109</ele>
</trkpt>
<trkpt lat="34.680619722222225" lon="137.25406166666667">
<ele>109</ele>
</trkpt>
<trkpt lat="34.6806625" lon="137.2540786111111">
<ele>109</ele>
</trkpt>
<trkpt lat="34.680705277777776" lon="137.25409527777776">
<ele>111</ele>
</trkpt>
<trkpt lat="34.68071361111111" lon="137.25409861111112">
<ele>113</ele>
</trkpt>
<trkpt lat="34.68071361111111" lon="137.25409861111112">
<ele>113</ele>
</trkpt>
<trkpt lat="34.68075833333333" lon="137.2540925">
<ele>114</ele>
</trkpt>
<trkpt lat="34.68080305555556" lon="137.25408666666667">
<ele>114</ele>
</trkpt>
<trkpt lat="34.6808475" lon="137.25408055555556">
<ele>114</ele>
</trkpt>
<trkpt lat="34.68089222222222" lon="137.25407444444446">
<ele>114</ele>
</trkpt>
<trkpt lat="34.68093694444445" lon="137.25406833333332">
<ele>114</ele>
</trkpt>
<trkpt lat="34.68098138888889" lon="137.2540625">
<ele>114</ele>
</trkpt>
<trkpt lat="34.680991666666664" lon="137.2540611111111">
<ele>114</ele>
</trkpt>
<trkpt lat="34.680991666666664" lon="137.2540611111111">
<ele>114</ele>
</trkpt>
<trkpt lat="34.6810325" lon="137.25408388888889">
<ele>114</ele>
</trkpt>
<trkpt lat="34.68107333333333" lon="137.25410638888889">
<ele>114</ele>
</trkpt>
<trkpt lat="34.68111416666667" lon="137.25412916666667">
<ele>113</ele>
</trkpt>
<trkpt lat="34.681155" lon="137.25415194444443">
<ele>113</ele>
</trkpt>
<trkpt lat="34.681195833333334" lon="137.25417472222222">
<ele>121</ele>
</trkpt>
<trkpt lat="34.68123666666666" lon="137.25419722222222">
<ele>121</ele>
</trkpt>
<trkpt lat="34.6812775" lon="137.25422">
<ele>121</ele>
</trkpt>
<trkpt lat="34.68130027777778" lon="137.2542327777778">
<ele>122</ele>
</trkpt>
<trkpt lat="34.68130027777778" lon="137.2542327777778">
<ele>122</ele>
</trkpt>
<trkpt lat="34.6813375" lon="137.2542636111111">
<ele>120</ele>
</trkpt>
<trkpt lat="34.681374444444444" lon="137.25429472222223">
<ele>120</ele>
</trkpt>
<trkpt lat="34.68141138888889" lon="137.25432583333333">
<ele>120</ele>
</trkpt>
<trkpt lat="34.681448333333336" lon="137.25435666666667">
<ele>120</ele>
</trkpt>
<trkpt lat="34.681485277777774" lon="137.25438777777777">
<ele>120</ele>
</trkpt>
<trkpt lat="34.68149888888889" lon="137.25439916666667">
<ele>120</ele>
</trkpt>
<trkpt lat="34.68149888888889" lon="137.25439916666667">
<ele>120</ele>
</trkpt>
<trkpt lat="34.68151777777778" lon="137.25444861111112">
<ele>120</ele>
</trkpt>
<trkpt lat="34.681536666666666" lon="137.25449833333334">
<ele>124</ele>
</trkpt>
<trkpt lat="34.681555277777775" lon="137.2545477777778">
<ele>124</ele>
</trkpt>
<trkpt lat="34.681574166666664" lon="137.2545975">
<ele>124</ele>
</trkpt>
<trkpt lat="34.681578333333334" lon="137.25460833333332">
<ele>130</ele>
</trkpt>
<trkpt lat="34.681578333333334" lon="137.25460833333332">
<ele>130</ele>
</trkpt>
<trkpt lat="34.68161833333333" lon="137.25463305555556">
<ele>130</ele>
</trkpt>
<trkpt lat="34.68165833333333" lon="137.25465777777777">
<ele>130</ele>
</trkpt>
<trkpt lat="34.68169833333334" lon="137.2546827777778">
<ele>131</ele>
</trkpt>
<trkpt lat="34.681738333333335" lon="137.2547075">
<ele>131</ele>
</trkpt>
<trkpt lat="34.681778333333334" lon="137.25473222222223">
<ele>129</ele>
</trkpt>
<trkpt lat="34.68181833333333" lon="137.25475722222222">
<ele>129</ele>
</trkpt>
<trkpt lat="34.68185833333333" lon="137.25478194444443">
<ele>132</ele>
</trkpt>
<trkpt lat="34.681898333333336" lon="137.25480666666667">
<ele>130</ele>
</trkpt>
<trkpt lat="34.681938333333335" lon="137.2548313888889">
<ele>130</ele>
</trkpt>
<trkpt lat="34.68197833333333" lon="137.2548563888889">
<ele>130</ele>
</trkpt>
<trkpt lat="34.68201833333333" lon="137.2548811111111">
<ele>128</ele>
</trkpt>
<trkpt lat="34.68205861111111" lon="137.25490583333334">
<ele>132</ele>
</trkpt>
<trkpt lat="34.68209861111111" lon="137.25493083333333">
<ele>132</ele>
</trkpt>
<trkpt lat="34.682138611111114" lon="137.25495555555557">
<ele>132</ele>
</trkpt>
<trkpt lat="34.68217861111111" lon="137.25498027777778">
<ele>132</ele>
</trkpt>
<trkpt lat="34.68221861111111" lon="137.25500527777777">
<ele>134</ele>
</trkpt>
<trkpt lat="34.682253333333335" lon="137.25502666666668">
<ele>135</ele>
</trkpt>
<trkpt lat="34.682253333333335" lon="137.25502666666668">
<ele>135</ele>
</trkpt>
<trkpt lat="34.682296944444445" lon="137.2550138888889">
<ele>135</ele>
</trkpt>
<trkpt lat="34.682340555555555" lon="137.2550011111111">
<ele>137</ele>
</trkpt>
<trkpt lat="34.68238111111111" lon="137.25498916666666">
<ele>135</ele>
</trkpt>
<trkpt lat="34.68238111111111" lon="137.25498916666666">
<ele>135</ele>
</trkpt>
<trkpt lat="34.68239972222222" lon="137.25493944444443">
<ele>135</ele>
</trkpt>
<trkpt lat="34.68241861111111" lon="137.25488972222223">
<ele>135</ele>
</trkpt>
<trkpt lat="34.682429722222224" lon="137.25486027777777">
<ele>134</ele>
</trkpt>
<trkpt lat="34.682429722222224" lon="137.25486027777777">
<ele>134</ele>
</trkpt>
<trkpt lat="34.68244638888889" lon="137.25480972222223">
<ele>136</ele>
</trkpt>
<trkpt lat="34.68246305555556" lon="137.2547588888889">
<ele>136</ele>
</trkpt>
<trkpt lat="34.68247972222222" lon="137.25470833333333">
<ele>136</ele>
</trkpt>
<trkpt lat="34.6824825" lon="137.25469944444444">
<ele>136</ele>
</trkpt>
<trkpt lat="34.6824825" lon="137.25469944444444">
<ele>136</ele>
</trkpt>
<trkpt lat="34.68252722222222" lon="137.25469305555555">
<ele>136</ele>
</trkpt>
<trkpt lat="34.68257194444445" lon="137.25468694444444">
<ele>140</ele>
</trkpt>
<trkpt lat="34.68261638888889" lon="137.25468055555555">
<ele>140</ele>
</trkpt>
<trkpt lat="34.68266111111111" lon="137.25467444444445">
<ele>140</ele>
</trkpt>
<trkpt lat="34.68270583333333" lon="137.25466805555556">
<ele>144</ele>
</trkpt>
<trkpt lat="34.68275027777778" lon="137.25466194444445">
<ele>142</ele>
</trkpt>
<trkpt lat="34.682795" lon="137.25465555555556">
<ele>146</ele>
</trkpt>
<trkpt lat="34.682826666666664" lon="137.25465111111112">
<ele>146</ele>
</trkpt>
<trkpt lat="34.682826666666664" lon="137.25465111111112">
<ele>146</ele>
</trkpt>
<trkpt lat="34.68284305555556" lon="137.25460027777777">
<ele>146</ele>
</trkpt>
<trkpt lat="34.682859444444446" lon="137.25454944444445">
<ele>145</ele>
</trkpt>
<trkpt lat="34.682875833333334" lon="137.2544986111111">
<ele>145</ele>
</trkpt>
<trkpt lat="34.68289222222222" lon="137.25444777777778">
<ele>148</ele>
</trkpt>
<trkpt lat="34.68290861111111" lon="137.25439694444444">
<ele>147</ele>
</trkpt>
<trkpt lat="34.682915" lon="137.2543775">
<ele>147</ele>
</trkpt>
<trkpt lat="34.682915" lon="137.2543775">
<ele>147</ele>
</trkpt>
<trkpt lat="34.682940555555554" lon="137.2543327777778">
<ele>147</ele>
</trkpt>
<trkpt lat="34.682966111111114" lon="137.2542877777778">
<ele>147</ele>
</trkpt>
<trkpt lat="34.682991666666666" lon="137.25424305555555">
<ele>147</ele>
</trkpt>
<trkpt lat="34.6830175" lon="137.25419805555555">
<ele>149</ele>
</trkpt>
<trkpt lat="34.68304305555556" lon="137.25415333333333">
<ele>149</ele>
</trkpt>
<trkpt lat="34.68306861111111" lon="137.25410833333333">
<ele>149</ele>
</trkpt>
<trkpt lat="34.68309444444444" lon="137.25406361111112">
<ele>149</ele>
</trkpt>
<trkpt lat="34.68309583333333" lon="137.2540611111111">
<ele>149</ele>
</trkpt>
<trkpt lat="34.68309583333333" lon="137.2540611111111">
<ele>149</ele>
</trkpt>
<trkpt lat="34.683100833333334" lon="137.25400666666667">
<ele>149</ele>
</trkpt>
<trkpt lat="34.68310555555556" lon="137.2539525">
<ele>148</ele>
</trkpt>
<trkpt lat="34.68311055555556" lon="137.25389833333332">
<ele>148</ele>
</trkpt>
<trkpt lat="34.68311555555555" lon="137.2538438888889">
<ele>150</ele>
</trkpt>
<trkpt lat="34.683120555555554" lon="137.25378972222222">
<ele>150</ele>
</trkpt>
<trkpt lat="34.683125555555556" lon="137.25373527777776">
<ele>150</ele>
</trkpt>
<trkpt lat="34.68313055555556" lon="137.25368111111112">
<ele>150</ele>
</trkpt>
<trkpt lat="34.68313555555556" lon="137.25362666666666">
<ele>146</ele>
</trkpt>
<trkpt lat="34.68314027777778" lon="137.2535725">
<ele>146</ele>
</trkpt>
<trkpt lat="34.683144166666665" lon="137.25353">
<ele>142</ele>
</trkpt>
<trkpt lat="34.683144166666665" lon="137.25353">
<ele>142</ele>
</trkpt>
<trkpt lat="34.68318583333333" lon="137.25350916666667">
<ele>142</ele>
</trkpt>
<trkpt lat="34.68322722222222" lon="137.25348833333334">
<ele>144</ele>
</trkpt>
<trkpt lat="34.68326888888889" lon="137.2534675">
<ele>144</ele>
</trkpt>
<trkpt lat="34.68329416666667" lon="137.253455">
<ele>144</ele>
</trkpt>
<trkpt lat="34.68329416666667" lon="137.253455">
<ele>144</ele>
</trkpt>
<trkpt lat="34.68328972222222" lon="137.25350916666667">
<ele>144</ele>
</trkpt>
<trkpt lat="34.683285" lon="137.2535636111111">
<ele>150</ele>
</trkpt>
<trkpt lat="34.683280555555555" lon="137.25361777777778">
<ele>150</ele>
</trkpt>
<trkpt lat="34.68327583333333" lon="137.25367222222224">
<ele>151</ele>
</trkpt>
<trkpt lat="34.68327111111111" lon="137.25372666666667">
<ele>151</ele>
</trkpt>
<trkpt lat="34.68326666666667" lon="137.25378083333334">
<ele>151</ele>
</trkpt>
<trkpt lat="34.683261944444446" lon="137.25383527777777">
<ele>151</ele>
</trkpt>
<trkpt lat="34.6832575" lon="137.25388944444444">
<ele>152</ele>
</trkpt>
<trkpt lat="34.68325277777778" lon="137.2539438888889">
<ele>152</ele>
</trkpt>
<trkpt lat="34.68324805555555" lon="137.25399833333333">
<ele>152</ele>
</trkpt>
<trkpt lat="34.68324361111111" lon="137.2540525">
<ele>153</ele>
</trkpt>
<trkpt lat="34.68323888888889" lon="137.25410694444443">
<ele>153</ele>
</trkpt>
<trkpt lat="34.683236944444445" lon="137.25413083333333">
<ele>154</ele>
</trkpt>
<trkpt lat="34.683236944444445" lon="137.25413083333333">
<ele>154</ele>
</trkpt>
<trkpt lat="34.68322277777778" lon="137.2541825">
<ele>154</ele>
</trkpt>
<trkpt lat="34.68320861111111" lon="137.25423444444445">
<ele>153</ele>
</trkpt>
<trkpt lat="34.683194444444446" lon="137.2542863888889">
<ele>153</ele>
</trkpt>
<trkpt lat="34.68318" lon="137.25433805555556">
<ele>153</ele>
</trkpt>
<trkpt lat="34.683165833333334" lon="137.25439">
<ele>153</ele>
</trkpt>
<trkpt lat="34.68315166666667" lon="137.25444166666668">
<ele>153</ele>
</trkpt>
<trkpt lat="34.6831375" lon="137.25449361111112">
<ele>154</ele>
</trkpt>
<trkpt lat="34.68313111111111" lon="137.25451694444445">
<ele>154</ele>
</trkpt>
<trkpt lat="34.68313111111111" lon="137.25451694444445">
<ele>154</ele>
</trkpt>
<trkpt lat="34.6831275" lon="137.25457138888888">
<ele>154</ele>
</trkpt>
<trkpt lat="34.683124166666666" lon="137.25462583333334">
<ele>155</ele>
</trkpt>
<trkpt lat="34.683120833333334" lon="137.25468055555555">
<ele>155</ele>
</trkpt>
<trkpt lat="34.68311722222222" lon="137.254735">
<ele>156</ele>
</trkpt>
<trkpt lat="34.68311388888889" lon="137.25478944444444">
<ele>153</ele>
</trkpt>
<trkpt lat="34.68311027777778" lon="137.2548438888889">
<ele>154</ele>
</trkpt>
<trkpt lat="34.68310694444445" lon="137.25489833333333">
<ele>154</ele>
</trkpt>
<trkpt lat="34.683103611111115" lon="137.2549527777778">
<ele>154</ele>
</trkpt>
<trkpt lat="34.683100277777775" lon="137.25500527777777">
<ele>154</ele>
</trkpt>
<trkpt lat="34.683100277777775" lon="137.25500527777777">
<ele>154</ele>
</trkpt>
<trkpt lat="34.68306277777778" lon="137.25503555555557">
<ele>154</ele>
</trkpt>
<trkpt lat="34.68302555555555" lon="137.25506583333333">
<ele>154</ele>
</trkpt>
<trkpt lat="34.682988055555555" lon="137.2550961111111">
<ele>153</ele>
</trkpt>
<trkpt lat="34.68295055555556" lon="137.2551263888889">
<ele>155</ele>
</trkpt>
<trkpt lat="34.68291333333333" lon="137.25515666666666">
<ele>155</ele>
</trkpt>
<trkpt lat="34.682875833333334" lon="137.25518694444443">
<ele>154</ele>
</trkpt>
<trkpt lat="34.68283861111111" lon="137.25521722222223">
<ele>154</ele>
</trkpt>
<trkpt lat="34.68280111111111" lon="137.2552475">
<ele>156</ele>
</trkpt>
<trkpt lat="34.682769444444446" lon="137.25527333333332">
<ele>154</ele>
</trkpt>
<trkpt lat="34.682769444444446" lon="137.25527333333332">
<ele>154</ele>
</trkpt>
<trkpt lat="34.68275333333333" lon="137.25532444444445">
<ele>154</ele>
</trkpt>
<trkpt lat="34.6827375" lon="137.25537555555556">
<ele>155</ele>
</trkpt>
<trkpt lat="34.682721666666666" lon="137.25542666666666">
<ele>155</ele>
</trkpt>
<trkpt lat="34.68270555555556" lon="137.25547777777777">
<ele>156</ele>
</trkpt>
<trkpt lat="34.68268972222222" lon="137.25552888888888">
<ele>156</ele>
</trkpt>
<trkpt lat="34.682673888888885" lon="137.25558">
<ele>157</ele>
</trkpt>
<trkpt lat="34.68265916666667" lon="137.2556275">
<ele>155</ele>
</trkpt>
<trkpt lat="34.68265916666667" lon="137.2556275">
<ele>155</ele>
</trkpt>
<trkpt lat="34.68261777777778" lon="137.25564916666667">
<ele>155</ele>
</trkpt>
<trkpt lat="34.68257666666667" lon="137.2556711111111">
<ele>156</ele>
</trkpt>
<trkpt lat="34.68253555555555" lon="137.25569277777777">
<ele>159</ele>
</trkpt>
<trkpt lat="34.682494166666665" lon="137.25571472222222">
<ele>159</ele>
</trkpt>
<trkpt lat="34.68245611111111" lon="137.25573472222223">
<ele>159</ele>
</trkpt>
<trkpt lat="34.68245611111111" lon="137.25573472222223">
<ele>159</ele>
</trkpt>
<trkpt lat="34.682412222222226" lon="137.25572333333332">
<ele>162</ele>
</trkpt>
<trkpt lat="34.682368333333336" lon="137.25571194444444">
<ele>162</ele>
</trkpt>
<trkpt lat="34.68232444444445" lon="137.25570083333332">
<ele>162</ele>
</trkpt>
<trkpt lat="34.68228027777778" lon="137.25568944444444">
<ele>162</ele>
</trkpt>
<trkpt lat="34.68223638888889" lon="137.25567805555556">
<ele>162</ele>
</trkpt>
<trkpt lat="34.6821925" lon="137.25566666666666">
<ele>160</ele>
</trkpt>
<trkpt lat="34.68214861111111" lon="137.25565527777778">
<ele>160</ele>
</trkpt>
<trkpt lat="34.68210472222222" lon="137.2556438888889">
<ele>161</ele>
</trkpt>
<trkpt lat="34.68210333333333" lon="137.2556436111111">
<ele>161</ele>
</trkpt>
<trkpt lat="34.68210333333333" lon="137.2556436111111">
<ele>161</ele>
</trkpt>
<trkpt lat="34.68205833333333" lon="137.2556461111111">
<ele>161</ele>
</trkpt>
<trkpt lat="34.68201361111111" lon="137.25564888888889">
<ele>161</ele>
</trkpt>
<trkpt lat="34.68196861111111" lon="137.25565138888888">
<ele>161</ele>
</trkpt>
<trkpt lat="34.68192388888889" lon="137.25565416666666">
<ele>161</ele>
</trkpt>
<trkpt lat="34.68187888888889" lon="137.25565666666665">
<ele>161</ele>
</trkpt>
<trkpt lat="34.68183416666667" lon="137.25565944444443">
<ele>161</ele>
</trkpt>
<trkpt lat="34.681829722222226" lon="137.25565972222222">
<ele>161</ele>
</trkpt>
<trkpt lat="34.681829722222226" lon="137.25565972222222">
<ele>161</ele>
</trkpt>
<trkpt lat="34.681785" lon="137.25565333333333">
<ele>161</ele>
</trkpt>
<trkpt lat="34.68174055555556" lon="137.25564694444444">
<ele>161</ele>
</trkpt>
<trkpt lat="34.681695833333336" lon="137.25564055555554">
<ele>161</ele>
</trkpt>
<trkpt lat="34.68165138888889" lon="137.25563444444444">
<ele>161</ele>
</trkpt>
<trkpt lat="34.68160666666667" lon="137.25562805555555">
<ele>162</ele>
</trkpt>
<trkpt lat="34.681565" lon="137.25562222222223">
<ele>162</ele>
</trkpt>
<trkpt lat="34.681565" lon="137.25562222222223">
<ele>162</ele>
</trkpt>
<trkpt lat="34.68152305555556" lon="137.25564111111112">
<ele>161</ele>
</trkpt>
<trkpt lat="34.68148083333333" lon="137.25566027777776">
<ele>162</ele>
</trkpt>
<trkpt lat="34.68143888888889" lon="137.25567944444444">
<ele>162</ele>
</trkpt>
<trkpt lat="34.681396666666664" lon="137.25569833333333">
<ele>162</ele>
</trkpt>
<trkpt lat="34.681354722222224" lon="137.2557175">
<ele>162</ele>
</trkpt>
<trkpt lat="34.6813125" lon="137.25573666666668">
<ele>162</ele>
</trkpt>
<trkpt lat="34.68130472222222" lon="137.25574">
<ele>163</ele>
</trkpt>
<trkpt lat="34.68130472222222" lon="137.25574">
<ele>163</ele>
</trkpt>
<trkpt lat="34.681269444444446" lon="137.25577388888888">
<ele>163</ele>
</trkpt>
<trkpt lat="34.68123444444444" lon="137.2558077777778">
<ele>166</ele>
</trkpt>
<trkpt lat="34.681199166666666" lon="137.25584166666667">
<ele>165</ele>
</trkpt>
<trkpt lat="34.68116388888889" lon="137.25587555555555">
<ele>165</ele>
</trkpt>
<trkpt lat="34.68112861111111" lon="137.25590944444446">
<ele>167</ele>
</trkpt>
<trkpt lat="34.681115" lon="137.2559225">
<ele>167</ele>
</trkpt>
<trkpt lat="34.681115" lon="137.2559225">
<ele>167</ele>
</trkpt>
<trkpt lat="34.68109888888889" lon="137.2559736111111">
<ele>165</ele>
</trkpt>
<trkpt lat="34.681082777777775" lon="137.25602444444445">
<ele>166</ele>
</trkpt>
<trkpt lat="34.681066666666666" lon="137.25607527777777">
<ele>166</ele>
</trkpt>
<trkpt lat="34.68105027777778" lon="137.2561263888889">
<ele>167</ele>
</trkpt>
<trkpt lat="34.68103416666667" lon="137.25617722222222">
<ele>167</ele>
</trkpt>
<trkpt lat="34.681018055555555" lon="137.25622833333333">
<ele>168</ele>
</trkpt>
<trkpt lat="34.681018055555555" lon="137.25622833333333">
<ele>168</ele>
</trkpt>
<trkpt lat="34.681018055555555" lon="137.25622833333333">
<ele>168</ele>
</trkpt>
<trkpt lat="34.68101138888889" lon="137.2562822222222">
<ele>168</ele>
</trkpt>
<trkpt lat="34.681005" lon="137.25633638888888">
<ele>169</ele>
</trkpt>
<trkpt lat="34.680998333333335" lon="137.25639027777777">
<ele>165</ele>
</trkpt>
<trkpt lat="34.68099194444444" lon="137.25644444444444">
<ele>166</ele>
</trkpt>
<trkpt lat="34.68098527777778" lon="137.2564986111111">
<ele>166</ele>
</trkpt>
<trkpt lat="34.68097888888889" lon="137.2565525">
<ele>166</ele>
</trkpt>
<trkpt lat="34.68097222222222" lon="137.25660666666667">
<ele>166</ele>
</trkpt>
<trkpt lat="34.68096583333333" lon="137.25666055555556">
<ele>166</ele>
</trkpt>
<trkpt lat="34.68095916666667" lon="137.25671472222223">
<ele>166</ele>
</trkpt>
<trkpt lat="34.680952777777776" lon="137.2567686111111">
<ele>166</ele>
</trkpt>
<trkpt lat="34.680951944444445" lon="137.25677555555555">
<ele>166</ele>
</trkpt>
<trkpt lat="34.680951944444445" lon="137.25677555555555">
<ele>166</ele>
</trkpt>
<trkpt lat="34.68096805555555" lon="137.2568263888889">
<ele>166</ele>
</trkpt>
<trkpt lat="34.68098444444445" lon="137.25687722222222">
<ele>166</ele>
</trkpt>
<trkpt lat="34.681000833333336" lon="137.25692805555556">
<ele>167</ele>
</trkpt>
<trkpt lat="34.68101361111111" lon="137.25696861111112">
<ele>167</ele>
</trkpt>
<trkpt lat="34.68101361111111" lon="137.25696861111112">
<ele>167</ele>
</trkpt>
<trkpt lat="34.68105861111111" lon="137.2569661111111">
<ele>167</ele>
</trkpt>
<trkpt lat="34.68110333333333" lon="137.2569638888889">
<ele>167</ele>
</trkpt>
<trkpt lat="34.68114833333333" lon="137.25696166666665">
<ele>168</ele>
</trkpt>
<trkpt lat="34.68119305555555" lon="137.25695916666666">
<ele>168</ele>
</trkpt>
<trkpt lat="34.68123805555555" lon="137.25695694444445">
<ele>168</ele>
</trkpt>
<trkpt lat="34.68128277777778" lon="137.25695444444443">
<ele>168</ele>
</trkpt>
<trkpt lat="34.68132777777778" lon="137.25695222222222">
<ele>168</ele>
</trkpt>
<trkpt lat="34.6813725" lon="137.25694972222223">
<ele>169</ele>
</trkpt>
<trkpt lat="34.6814175" lon="137.2569475">
<ele>169</ele>
</trkpt>
<trkpt lat="34.68142388888889" lon="137.2569472222222">
<ele>169</ele>
</trkpt>
<trkpt lat="34.68142388888889" lon="137.2569472222222">
<ele>169</ele>
</trkpt>
<trkpt lat="34.681466944444445" lon="137.25696305555556">
<ele>169</ele>
</trkpt>
<trkpt lat="34.68150972222222" lon="137.25697916666667">
<ele>174</ele>
</trkpt>
<trkpt lat="34.681552777777775" lon="137.25699527777778">
<ele>174</ele>
</trkpt>
<trkpt lat="34.68159555555555" lon="137.25701138888888">
<ele>174</ele>
</trkpt>
<trkpt lat="34.68163861111111" lon="137.2570275">
<ele>175</ele>
</trkpt>
<trkpt lat="34.68168138888889" lon="137.2570436111111">
<ele>175</ele>
</trkpt>
<trkpt lat="34.68172444444444" lon="137.25705944444445">
<ele>177</ele>
</trkpt>
<trkpt lat="34.68176722222222" lon="137.25707555555556">
<ele>177</ele>
</trkpt>
<trkpt lat="34.68176805555556" lon="137.25707583333335">
<ele>177</ele>
</trkpt>
<trkpt lat="34.68176805555556" lon="137.25707583333335">
<ele>177</ele>
</trkpt>
<trkpt lat="34.68179861111111" lon="137.25711583333333">
<ele>177</ele>
</trkpt>
<trkpt lat="34.68182916666667" lon="137.25715583333334">
<ele>177</ele>
</trkpt>
<trkpt lat="34.68185972222222" lon="137.25719583333333">
<ele>177</ele>
</trkpt>
<trkpt lat="34.681890277777775" lon="137.25723583333334">
<ele>177</ele>
</trkpt>
<trkpt lat="34.681920833333336" lon="137.25727583333332">
<ele>177</ele>
</trkpt>
<trkpt lat="34.68195138888889" lon="137.25731583333334">
<ele>177</ele>
</trkpt>
<trkpt lat="34.681981944444445" lon="137.25735583333332">
<ele>176</ele>
</trkpt>
<trkpt lat="34.682001666666665" lon="137.25738166666667">
<ele>176</ele>
</trkpt>
<trkpt lat="34.682001666666665" lon="137.25738166666667">
<ele>176</ele>
</trkpt>
<trkpt lat="34.682029444444446" lon="137.25742472222223">
<ele>178</ele>
</trkpt>
<trkpt lat="34.68205694444445" lon="137.25746777777778">
<ele>178</ele>
</trkpt>
<trkpt lat="34.68208444444444" lon="137.2575111111111">
<ele>178</ele>
</trkpt>
<trkpt lat="34.68211194444444" lon="137.25755416666667">
<ele>177</ele>
</trkpt>
<trkpt lat="34.682139722222225" lon="137.25759722222222">
<ele>177</ele>
</trkpt>
<trkpt lat="34.68215611111111" lon="137.25762305555557">
<ele>179</ele>
</trkpt>
<trkpt lat="34.68215611111111" lon="137.25762305555557">
<ele>177</ele>
</trkpt>
<trkpt lat="34.68220083333333" lon="137.25762805555556">
<ele>177</ele>
</trkpt>
<trkpt lat="34.68224555555555" lon="137.25763305555554">
<ele>178</ele>
</trkpt>
<trkpt lat="34.68229027777778" lon="137.25763777777777">
<ele>178</ele>
</trkpt>
<trkpt lat="34.682335" lon="137.2576427777778">
<ele>178</ele>
</trkpt>
<trkpt lat="34.68237972222222" lon="137.25764777777778">
<ele>178</ele>
</trkpt>
<trkpt lat="34.68239888888889" lon="137.25765">
<ele>178</ele>
</trkpt>
<trkpt lat="34.68239888888889" lon="137.25765">
<ele>178</ele>
</trkpt>
<trkpt lat="34.68244138888889" lon="137.2576322222222">
<ele>178</ele>
</trkpt>
<trkpt lat="34.68248388888889" lon="137.25761444444444">
<ele>183</ele>
</trkpt>
<trkpt lat="34.68252611111111" lon="137.25759666666667">
<ele>183</ele>
</trkpt>
<trkpt lat="34.68256861111111" lon="137.2575788888889">
<ele>186</ele>
</trkpt>
<trkpt lat="34.682611111111115" lon="137.2575611111111">
<ele>186</ele>
</trkpt>
<trkpt lat="34.682653611111114" lon="137.25754333333333">
<ele>189</ele>
</trkpt>
<trkpt lat="34.682694444444444" lon="137.2575263888889">
<ele>186</ele>
</trkpt>
<trkpt lat="34.682694444444444" lon="137.2575263888889">
<ele>186</ele>
</trkpt>
<trkpt lat="34.682739166666664" lon="137.25753111111112">
<ele>189</ele>
</trkpt>
<trkpt lat="34.68278388888889" lon="137.25753583333332">
<ele>188</ele>
</trkpt>
<trkpt lat="34.68282861111111" lon="137.25754055555555">
<ele>188</ele>
</trkpt>
<trkpt lat="34.68284861111111" lon="137.2575425">
<ele>189</ele>
</trkpt>
<trkpt lat="34.68284861111111" lon="137.2575425">
<ele>189</ele>
</trkpt>
<trkpt lat="34.68289305555555" lon="137.25755166666667">
<ele>191</ele>
</trkpt>
<trkpt lat="34.68293722222222" lon="137.2575611111111">
<ele>190</ele>
</trkpt>
<trkpt lat="34.68298166666667" lon="137.25757027777777">
<ele>190</ele>
</trkpt>
<trkpt lat="34.68302583333333" lon="137.25757944444445">
<ele>193</ele>
</trkpt>
<trkpt lat="34.68307" lon="137.25758861111112">
<ele>193</ele>
</trkpt>
<trkpt lat="34.68311444444444" lon="137.2575977777778">
<ele>197</ele>
</trkpt>
<trkpt lat="34.68315861111111" lon="137.25760694444443">
<ele>197</ele>
</trkpt>
<trkpt lat="34.68318388888889" lon="137.25761222222224">
<ele>197</ele>
</trkpt>
<trkpt lat="34.68318388888889" lon="137.25761222222224">
<ele>197</ele>
</trkpt>
<trkpt lat="34.68322138888889" lon="137.2576427777778">
<ele>197</ele>
</trkpt>
<trkpt lat="34.683258611111114" lon="137.25767333333334">
<ele>197</ele>
</trkpt>
<trkpt lat="34.68329583333333" lon="137.2577038888889">
<ele>194</ele>
</trkpt>
<trkpt lat="34.68333305555556" lon="137.25773416666667">
<ele>194</ele>
</trkpt>
<trkpt lat="34.683370277777776" lon="137.25776472222222">
<ele>194</ele>
</trkpt>
<trkpt lat="34.6834075" lon="137.25779527777777">
<ele>195</ele>
</trkpt>
<trkpt lat="34.683439722222225" lon="137.25782166666667">
<ele>198</ele>
</trkpt>
<trkpt lat="34.683439722222225" lon="137.25782166666667">
<ele>198</ele>
</trkpt>
<trkpt lat="34.68347416666667" lon="137.25785694444446">
<ele>199</ele>
</trkpt>
<trkpt lat="34.683508333333336" lon="137.2578922222222">
<ele>200</ele>
</trkpt>
<trkpt lat="34.6835425" lon="137.2579275">
<ele>200</ele>
</trkpt>
<trkpt lat="34.68357666666667" lon="137.25796305555556">
<ele>200</ele>
</trkpt>
<trkpt lat="34.68361111111111" lon="137.25799833333335">
<ele>200</ele>
</trkpt>
<trkpt lat="34.68364527777778" lon="137.2580336111111">
<ele>201</ele>
</trkpt>
<trkpt lat="34.68367361111111" lon="137.25806305555557">
<ele>204</ele>
</trkpt>
<trkpt lat="34.68367361111111" lon="137.25806305555557">
<ele>204</ele>
</trkpt>
<trkpt lat="34.68368916666667" lon="137.25811416666667">
<ele>203</ele>
</trkpt>
<trkpt lat="34.683704444444444" lon="137.25816555555556">
<ele>204</ele>
</trkpt>
<trkpt lat="34.68372" lon="137.25821694444446">
<ele>204</ele>
</trkpt>
<trkpt lat="34.68373527777778" lon="137.25826805555556">
<ele>205</ele>
</trkpt>
<trkpt lat="34.683750833333335" lon="137.25831944444445">
<ele>205</ele>
</trkpt>
<trkpt lat="34.68376611111111" lon="137.25837083333334">
<ele>206</ele>
</trkpt>
<trkpt lat="34.68378166666667" lon="137.25842194444445">
<ele>206</ele>
</trkpt>
<trkpt lat="34.683797222222225" lon="137.25847333333334">
<ele>206</ele>
</trkpt>
<trkpt lat="34.6838125" lon="137.25852472222223">
<ele>206</ele>
</trkpt>
<trkpt lat="34.68382805555556" lon="137.25857583333334">
<ele>206</ele>
</trkpt>
<trkpt lat="34.683843333333336" lon="137.25862722222223">
<ele>206</ele>
</trkpt>
<trkpt lat="34.68385888888889" lon="137.25867861111112">
<ele>206</ele>
</trkpt>
<trkpt lat="34.68387222222222" lon="137.2587227777778">
<ele>206</ele>
</trkpt>
<trkpt lat="34.68387222222222" lon="137.2587227777778">
<ele>206</ele>
</trkpt>
<trkpt lat="34.683905555555555" lon="137.25875916666666">
<ele>205</ele>
</trkpt>
<trkpt lat="34.68393888888889" lon="137.25879555555557">
<ele>206</ele>
</trkpt>
<trkpt lat="34.6839725" lon="137.25883222222222">
<ele>206</ele>
</trkpt>
<trkpt lat="34.68400583333333" lon="137.2588686111111">
<ele>205</ele>
</trkpt>
<trkpt lat="34.684039444444444" lon="137.258905">
<ele>206</ele>
</trkpt>
<trkpt lat="34.68407277777778" lon="137.25894166666666">
<ele>206</ele>
</trkpt>
<trkpt lat="34.68410611111111" lon="137.25897805555556">
<ele>206</ele>
</trkpt>
<trkpt lat="34.684128055555554" lon="137.25900166666668">
<ele>214</ele>
</trkpt>
<trkpt lat="34.684128055555554" lon="137.25900166666668">
<ele>214</ele>
</trkpt>
<trkpt lat="34.68416666666667" lon="137.25902916666666">
<ele>214</ele>
</trkpt>
<trkpt lat="34.68420555555556" lon="137.25905666666668">
<ele>214</ele>
</trkpt>
<trkpt lat="34.684244444444445" lon="137.25908416666667">
<ele>216</ele>
</trkpt>
<trkpt lat="34.68428333333333" lon="137.25911166666666">
<ele>216</ele>
</trkpt>
<trkpt lat="34.68432194444444" lon="137.25913916666667">
<ele>216</ele>
</trkpt>
<trkpt lat="34.684360833333336" lon="137.25916666666666">
<ele>214</ele>
</trkpt>
<trkpt lat="34.684399722222224" lon="137.25919416666667">
<ele>216</ele>
</trkpt>
<trkpt lat="34.68443833333333" lon="137.25922166666666">
<ele>216</ele>
</trkpt>
<trkpt lat="34.68447722222222" lon="137.25924916666668">
<ele>216</ele>
</trkpt>
<trkpt lat="34.68451611111111" lon="137.25927666666666">
<ele>216</ele>
</trkpt>
<trkpt lat="34.684555" lon="137.25930416666668">
<ele>216</ele>
</trkpt>
<trkpt lat="34.68459361111111" lon="137.25933166666667">
<ele>216</ele>
</trkpt>
<trkpt lat="34.6846325" lon="137.25935916666666">
<ele>216</ele>
</trkpt>
<trkpt lat="34.68463527777778" lon="137.2593611111111">
<ele>216</ele>
</trkpt>
<trkpt lat="34.68463527777778" lon="137.2593611111111">
<ele>216</ele>
</trkpt>
<trkpt lat="34.68466361111111" lon="137.25940333333332">
<ele>205</ele>
</trkpt>
<trkpt lat="34.684692222222225" lon="137.25944555555554">
<ele>205</ele>
</trkpt>
<trkpt lat="34.68472055555556" lon="137.25948805555555">
<ele>210</ele>
</trkpt>
<trkpt lat="34.68474916666667" lon="137.25953027777777">
<ele>210</ele>
</trkpt>
<trkpt lat="34.684754444444444" lon="137.25953805555557">
<ele>215</ele>
</trkpt>
<trkpt lat="34.684754444444444" lon="137.25953805555557">
<ele>215</ele>
</trkpt>
<trkpt lat="34.684735" lon="137.2595875">
<ele>216</ele>
</trkpt>
<trkpt lat="34.68471527777778" lon="137.25963666666667">
<ele>216</ele>
</trkpt>
<trkpt lat="34.68469694444445" lon="137.25968305555554">
<ele>215</ele>
</trkpt>
<trkpt lat="34.68469694444445" lon="137.25968305555554">
<ele>215</ele>
</trkpt>
<trkpt lat="34.68465555555556" lon="137.25970388888888">
<ele>217</ele>
</trkpt>
<trkpt lat="34.68461416666667" lon="137.259725">
<ele>217</ele>
</trkpt>
<trkpt lat="34.68457277777778" lon="137.2597461111111">
<ele>217</ele>
</trkpt>
<trkpt lat="34.684538333333336" lon="137.25976333333332">
<ele>218</ele>
</trkpt>
<trkpt lat="34.684538333333336" lon="137.25976333333332">
<ele>218</ele>
</trkpt>
<trkpt lat="34.68449361111111" lon="137.25977">
<ele>218</ele>
</trkpt>
<trkpt lat="34.68444888888889" lon="137.2597763888889">
<ele>218</ele>
</trkpt>
<trkpt lat="34.684404444444446" lon="137.2597827777778">
<ele>218</ele>
</trkpt>
<trkpt lat="34.684359722222226" lon="137.25978916666668">
<ele>218</ele>
</trkpt>
<trkpt lat="34.684353055555555" lon="137.25979027777777">
<ele>218</ele>
</trkpt>
<trkpt lat="34.684353055555555" lon="137.25979027777777">
<ele>218</ele>
</trkpt>
<trkpt lat="34.68431416666667" lon="137.25981777777778">
<ele>219</ele>
</trkpt>
<trkpt lat="34.68427527777778" lon="137.259845">
<ele>219</ele>
</trkpt>
<trkpt lat="34.68426916666667" lon="137.25984916666667">
<ele>219</ele>
</trkpt>
<trkpt lat="34.68426916666667" lon="137.25984916666667">
<ele>219</ele>
</trkpt>
<trkpt lat="34.68425083333333" lon="137.25989916666666">
<ele>219</ele>
</trkpt>
<trkpt lat="34.68423388888889" lon="137.25994583333335">
<ele>217</ele>
</trkpt>
<trkpt lat="34.68423388888889" lon="137.25994583333335">
<ele>217</ele>
</trkpt>
<trkpt lat="34.684245555555556" lon="137.25999861111111">
<ele>217</ele>
</trkpt>
<trkpt lat="34.68425722222222" lon="137.26005138888888">
<ele>218</ele>
</trkpt>
<trkpt lat="34.68426888888889" lon="137.26010416666668">
<ele>218</ele>
</trkpt>
<trkpt lat="34.68428055555555" lon="137.26015694444445">
<ele>220</ele>
</trkpt>
<trkpt lat="34.684292222222226" lon="137.26020944444446">
<ele>220</ele>
</trkpt>
<trkpt lat="34.68429555555556" lon="137.26022472222223">
<ele>220</ele>
</trkpt>
<trkpt lat="34.68429555555556" lon="137.26022472222223">
<ele>220</ele>
</trkpt>
<trkpt lat="34.6843125" lon="137.26027527777777">
<ele>222</ele>
</trkpt>
<trkpt lat="34.684329444444444" lon="137.2603261111111">
<ele>222</ele>
</trkpt>
<trkpt lat="34.68434638888889" lon="137.26037666666667">
<ele>222</ele>
</trkpt>
<trkpt lat="34.684353055555555" lon="137.2603963888889">
<ele>223</ele>
</trkpt>
<trkpt lat="34.684353055555555" lon="137.2603963888889">
<ele>223</ele>
</trkpt>
<trkpt lat="34.68432027777778" lon="137.26043388888888">
<ele>223</ele>
</trkpt>
<trkpt lat="34.6842875" lon="137.26047111111112">
<ele>225</ele>
</trkpt>
<trkpt lat="34.68425472222222" lon="137.2605086111111">
<ele>225</ele>
</trkpt>
<trkpt lat="34.684221944444445" lon="137.26054583333334">
<ele>223</ele>
</trkpt>
<trkpt lat="34.68418916666667" lon="137.26058333333333">
<ele>225</ele>
</trkpt>
<trkpt lat="34.68415638888889" lon="137.26062055555556">
<ele>225</ele>
</trkpt>
<trkpt lat="34.68414111111111" lon="137.2606377777778">
<ele>225</ele>
</trkpt>
<trkpt lat="34.68414111111111" lon="137.2606377777778">
<ele>225</ele>
</trkpt>
<trkpt lat="34.68411611111111" lon="137.26068305555555">
<ele>227</ele>
</trkpt>
<trkpt lat="34.684090833333336" lon="137.26072833333333">
<ele>224</ele>
</trkpt>
<trkpt lat="34.684065555555556" lon="137.26077333333333">
<ele>224</ele>
</trkpt>
<trkpt lat="34.684040277777775" lon="137.26081861111112">
<ele>226</ele>
</trkpt>
<trkpt lat="34.684015" lon="137.26086388888888">
<ele>226</ele>
</trkpt>
<trkpt lat="34.68399" lon="137.26090916666666">
<ele>224</ele>
</trkpt>
<trkpt lat="34.683973611111114" lon="137.26093833333334">
<ele>224</ele>
</trkpt>
<trkpt lat="34.683973611111114" lon="137.26093833333334">
<ele>224</ele>
</trkpt>
<trkpt lat="34.683978333333336" lon="137.2609925">
<ele>224</ele>
</trkpt>
<trkpt lat="34.68398305555556" lon="137.26104694444444">
<ele>225</ele>
</trkpt>
<trkpt lat="34.68398777777778" lon="137.26110111111112">
<ele>225</ele>
</trkpt>
<trkpt lat="34.6839925" lon="137.26115555555555">
<ele>225</ele>
</trkpt>
<trkpt lat="34.683997222222224" lon="137.26120972222222">
<ele>225</ele>
</trkpt>
<trkpt lat="34.68400194444445" lon="137.26126416666668">
<ele>228</ele>
</trkpt>
<trkpt lat="34.68400444444445" lon="137.2612922222222">
<ele>228</ele>
</trkpt>
<trkpt lat="34.68400444444445" lon="137.2612922222222">
<ele>228</ele>
</trkpt>
<trkpt lat="34.684016944444444" lon="137.26134472222222">
<ele>227</ele>
</trkpt>
<trkpt lat="34.68402916666667" lon="137.26139722222223">
<ele>227</ele>
</trkpt>
<trkpt lat="34.684041388888886" lon="137.26145">
<ele>227</ele>
</trkpt>
<trkpt lat="34.68405388888889" lon="137.2615025">
<ele>227</ele>
</trkpt>
<trkpt lat="34.684066111111115" lon="137.261555">
<ele>227</ele>
</trkpt>
<trkpt lat="34.68407861111111" lon="137.2616075">
<ele>227</ele>
</trkpt>
<trkpt lat="34.684090833333336" lon="137.26166">
<ele>227</ele>
</trkpt>
<trkpt lat="34.68410305555555" lon="137.2617125">
<ele>226</ele>
</trkpt>
<trkpt lat="34.68411555555556" lon="137.261765">
<ele>229</ele>
</trkpt>
<trkpt lat="34.68411916666667" lon="137.26178055555556">
<ele>229</ele>
</trkpt>
<trkpt lat="34.68411916666667" lon="137.26178055555556">
<ele>229</ele>
</trkpt>
<trkpt lat="34.68412472222222" lon="137.26183472222223">
<ele>229</ele>
</trkpt>
<trkpt lat="34.684130277777776" lon="137.26188888888888">
<ele>229</ele>
</trkpt>
<trkpt lat="34.684135833333336" lon="137.26194305555555">
<ele>229</ele>
</trkpt>
<trkpt lat="34.68414138888889" lon="137.26199722222222">
<ele>228</ele>
</trkpt>
<trkpt lat="34.68414694444444" lon="137.2620513888889">
<ele>228</ele>
</trkpt>
<trkpt lat="34.6841525" lon="137.26210555555556">
<ele>228</ele>
</trkpt>
<trkpt lat="34.68415805555556" lon="137.26216">
<ele>228</ele>
</trkpt>
<trkpt lat="34.68416361111111" lon="137.26221416666667">
<ele>228</ele>
</trkpt>
<trkpt lat="34.68416777777778" lon="137.2622525">
<ele>231</ele>
</trkpt>
<trkpt lat="34.68416777777778" lon="137.2622525">
<ele>231</ele>
</trkpt>
<trkpt lat="34.6842075" lon="137.26227805555556">
<ele>231</ele>
</trkpt>
<trkpt lat="34.684247222222226" lon="137.26230361111112">
<ele>238</ele>
</trkpt>
<trkpt lat="34.684286944444445" lon="137.26232916666666">
<ele>238</ele>
</trkpt>
<trkpt lat="34.684326666666664" lon="137.26235472222223">
<ele>236</ele>
</trkpt>
<trkpt lat="34.68436638888889" lon="137.26238">
<ele>237</ele>
</trkpt>
<trkpt lat="34.68440138888889" lon="137.26240277777777">
<ele>237</ele>
</trkpt>
<trkpt lat="34.68440138888889" lon="137.26240277777777">
<ele>237</ele>
</trkpt>
<trkpt lat="34.684446111111114" lon="137.26240833333333">
<ele>239</ele>
</trkpt>
<trkpt lat="34.684490833333335" lon="137.26241416666667">
<ele>239</ele>
</trkpt>
<trkpt lat="34.684535555555556" lon="137.26242">
<ele>239</ele>
</trkpt>
<trkpt lat="34.684580277777776" lon="137.26242555555555">
<ele>244</ele>
</trkpt>
<trkpt lat="34.684624722222225" lon="137.2624313888889">
<ele>244</ele>
</trkpt>
<trkpt lat="34.68465277777778" lon="137.262435">
<ele>244</ele>
</trkpt>
<trkpt lat="34.68465277777778" lon="137.262435">
<ele>244</ele>
</trkpt>
<trkpt lat="34.68469611111111" lon="137.26242">
<ele>248</ele>
</trkpt>
<trkpt lat="34.684739444444446" lon="137.262405">
<ele>248</ele>
</trkpt>
<trkpt lat="34.6847825" lon="137.26239027777777">
<ele>248</ele>
</trkpt>
<trkpt lat="34.684825833333335" lon="137.26237527777778">
<ele>248</ele>
</trkpt>
<trkpt lat="34.684868888888886" lon="137.2623602777778">
<ele>248</ele>
</trkpt>
<trkpt lat="34.68491222222222" lon="137.26234555555556">
<ele>247</ele>
</trkpt>
<trkpt lat="34.684955277777775" lon="137.26233055555556">
<ele>250</ele>
</trkpt>
<trkpt lat="34.684979444444444" lon="137.26232222222222">
<ele>250</ele>
</trkpt>
<trkpt lat="34.684979444444444" lon="137.26232222222222">
<ele>250</ele>
</trkpt>
<trkpt lat="34.68501388888889" lon="137.26228722222223">
<ele>247</ele>
</trkpt>
<trkpt lat="34.685048333333334" lon="137.26225222222223">
<ele>247</ele>
</trkpt>
<trkpt lat="34.68508277777778" lon="137.2622175">
<ele>250</ele>
</trkpt>
<trkpt lat="34.68508527777778" lon="137.262215">
<ele>250</ele>
</trkpt>
<trkpt lat="34.68508527777778" lon="137.262215">
<ele>250</ele>
</trkpt>
<trkpt lat="34.68510277777778" lon="137.26216472222222">
<ele>250</ele>
</trkpt>
<trkpt lat="34.68512055555556" lon="137.26211444444445">
<ele>250</ele>
</trkpt>
<trkpt lat="34.685125" lon="137.2621022222222">
<ele>247</ele>
</trkpt>
<trkpt lat="34.685125" lon="137.2621022222222">
<ele>247</ele>
</trkpt>
<trkpt lat="34.68510472222222" lon="137.2620536111111">
<ele>250</ele>
</trkpt>
<trkpt lat="34.68508527777778" lon="137.26200583333335">
<ele>249</ele>
</trkpt>
<trkpt lat="34.68508527777778" lon="137.26200583333335">
<ele>249</ele>
</trkpt>
<trkpt lat="34.685049166666666" lon="137.26197333333334">
<ele>250</ele>
</trkpt>
<trkpt lat="34.68501305555556" lon="137.26194055555555">
<ele>250</ele>
</trkpt>
<trkpt lat="34.68497694444444" lon="137.26190805555555">
<ele>250</ele>
</trkpt>
<trkpt lat="34.68494833333333" lon="137.2618825">
<ele>250</ele>
</trkpt>
<trkpt lat="34.68494833333333" lon="137.2618825">
<ele>250</ele>
</trkpt>
<trkpt lat="34.68492333333333" lon="137.26183694444444">
<ele>250</ele>
</trkpt>
<trkpt lat="34.68489833333334" lon="137.26179166666665">
<ele>250</ele>
</trkpt>
<trkpt lat="34.684873333333336" lon="137.2617463888889">
<ele>250</ele>
</trkpt>
<trkpt lat="34.684848055555555" lon="137.2617011111111">
<ele>250</ele>
</trkpt>
<trkpt lat="34.684823055555555" lon="137.26165583333332">
<ele>250</ele>
</trkpt>
<trkpt lat="34.684798055555554" lon="137.26161055555556">
<ele>250</ele>
</trkpt>
<trkpt lat="34.68479416666667" lon="137.26160333333334">
<ele>250</ele>
</trkpt>
    </trkseg>
  </trk>
</gpx>