<?xml version="1.0" encoding="UTF-8"?>
<gpx version="1.1"
     creator="KMLtoGPX"
     xmlns="http://www.topografix.com/GPX/1/1">
  <metadata>
    <name>Noborin Hill Club (Zao Mountain East Exit)</name>
    <desc>のぼリンヒルクラ（蔵王山東口）</desc>
    <bounds minlat="34.67417666666667" minlon="137.26037083333333" maxlat="34.68634333333333" maxlon="137.2761775"/>
  </metadata>
  <trk>
    <name>Noborin Hill Club (Zao Mountain East Exit)</name>
    <trkseg>
<trkpt lat="34.67417666666667" lon="137.2711886111111">
<ele>3</ele>
</trkpt>
<trkpt lat="34.67427277777778" lon="137.27123805555556">
<ele>3</ele>
</trkpt>
<trkpt lat="34.674368888888885" lon="137.2712875">
<ele>3</ele>
</trkpt>
<trkpt lat="34.674465" lon="137.27133694444444">
<ele>3</ele>
</trkpt>
<trkpt lat="34.67456111111111" lon="137.27138638888889">
<ele>4</ele>
</trkpt>
<trkpt lat="34.67465722222222" lon="137.27143583333333">
<ele>4</ele>
</trkpt>
<trkpt lat="34.674753611111115" lon="137.27148527777777">
<ele>3</ele>
</trkpt>
<trkpt lat="34.67484972222222" lon="137.27153444444446">
<ele>3</ele>
</trkpt>
<trkpt lat="34.67494583333333" lon="137.2715838888889">
<ele>3</ele>
</trkpt>
<trkpt lat="34.675041944444445" lon="137.27163333333334">
<ele>3</ele>
</trkpt>
<trkpt lat="34.67513805555556" lon="137.27168277777778">
<ele>3</ele>
</trkpt>
<trkpt lat="34.67523416666667" lon="137.27173222222223">
<ele>3</ele>
</trkpt>
<trkpt lat="34.675330277777775" lon="137.27178166666667">
<ele>3</ele>
</trkpt>
<trkpt lat="34.67542638888889" lon="137.2718311111111">
<ele>3</ele>
</trkpt>
<trkpt lat="34.6755225" lon="137.27188055555555">
<ele>3</ele>
</trkpt>
<trkpt lat="34.67561861111111" lon="137.2719297222222">
<ele>3</ele>
</trkpt>
<trkpt lat="34.675714722222224" lon="137.27197916666665">
<ele>3</ele>
</trkpt>
<trkpt lat="34.67581083333334" lon="137.27202861111112">
<ele>3</ele>
</trkpt>
<trkpt lat="34.67590694444444" lon="137.27207805555557">
<ele>3</ele>
</trkpt>
<trkpt lat="34.676003055555555" lon="137.2721275">
<ele>3</ele>
</trkpt>
<trkpt lat="34.67609916666667" lon="137.27217694444445">
<ele>3</ele>
</trkpt>
<trkpt lat="34.67619527777778" lon="137.2722263888889">
<ele>3</ele>
</trkpt>
<trkpt lat="34.67629138888889" lon="137.27227583333334">
<ele>3</ele>
</trkpt>
<trkpt lat="34.6763875" lon="137.272325">
<ele>3</ele>
</trkpt>
<trkpt lat="34.67648388888889" lon="137.27237444444444">
<ele>3</ele>
</trkpt>
<trkpt lat="34.67658" lon="137.27242388888888">
<ele>3</ele>
</trkpt>
<trkpt lat="34.676676111111114" lon="137.27247333333332">
<ele>3</ele>
</trkpt>
<trkpt lat="34.67677222222222" lon="137.27252277777777">
<ele>3</ele>
</trkpt>
<trkpt lat="34.67686833333333" lon="137.2725722222222">
<ele>3</ele>
</trkpt>
<trkpt lat="34.676964444444444" lon="137.27262166666668">
<ele>3</ele>
</trkpt>
<trkpt lat="34.677060555555556" lon="137.27267083333334">
<ele>3</ele>
</trkpt>
<trkpt lat="34.67715666666667" lon="137.27272027777778">
<ele>3</ele>
</trkpt>
<trkpt lat="34.67725277777778" lon="137.27276972222222">
<ele>3</ele>
</trkpt>
<trkpt lat="34.677348888888886" lon="137.27281916666666">
<ele>3</ele>
</trkpt>
<trkpt lat="34.677445" lon="137.2728686111111">
<ele>3</ele>
</trkpt>
<trkpt lat="34.67754111111111" lon="137.27291805555555">
<ele>3</ele>
</trkpt>
<trkpt lat="34.677637222222224" lon="137.2729675">
<ele>4</ele>
</trkpt>
<trkpt lat="34.677733333333336" lon="137.27301694444444">
<ele>4</ele>
</trkpt>
<trkpt lat="34.67782944444444" lon="137.27306611111112">
<ele>4</ele>
</trkpt>
<trkpt lat="34.67782944444444" lon="137.27306611111112">
<ele>4</ele>
</trkpt>
<trkpt lat="34.67782944444444" lon="137.27306611111112">
<ele>4</ele>
</trkpt>
<trkpt lat="34.67786888888889" lon="137.2730925">
<ele>4</ele>
</trkpt>
<trkpt lat="34.677908333333335" lon="137.2731188888889">
<ele>4</ele>
</trkpt>
<trkpt lat="34.6779475" lon="137.2731452777778">
<ele>4</ele>
</trkpt>
<trkpt lat="34.67798694444444" lon="137.27317166666666">
<ele>4</ele>
</trkpt>
<trkpt lat="34.67802638888889" lon="137.27319805555555">
<ele>5</ele>
</trkpt>
<trkpt lat="34.678065555555555" lon="137.27322416666667">
<ele>5</ele>
</trkpt>
<trkpt lat="34.678105" lon="137.27325055555556">
<ele>5</ele>
</trkpt>
<trkpt lat="34.67814444444444" lon="137.27327694444443">
<ele>5</ele>
</trkpt>
<trkpt lat="34.67818361111111" lon="137.27330333333333">
<ele>5</ele>
</trkpt>
<trkpt lat="34.678223055555556" lon="137.27332972222223">
<ele>5</ele>
</trkpt>
<trkpt lat="34.6782625" lon="137.27335583333334">
<ele>5</ele>
</trkpt>
<trkpt lat="34.67830166666667" lon="137.2733822222222">
<ele>5</ele>
</trkpt>
<trkpt lat="34.67834111111111" lon="137.2734086111111">
<ele>5</ele>
</trkpt>
<trkpt lat="34.678380555555556" lon="137.273435">
<ele>5</ele>
</trkpt>
<trkpt lat="34.67841972222222" lon="137.27346138888888">
<ele>5</ele>
</trkpt>
<trkpt lat="34.67845916666667" lon="137.2734875">
<ele>5</ele>
</trkpt>
<trkpt lat="34.67849833333333" lon="137.27351388888889">
<ele>5</ele>
</trkpt>
<trkpt lat="34.67853777777778" lon="137.27354027777778">
<ele>5</ele>
</trkpt>
<trkpt lat="34.67857722222222" lon="137.27356666666665">
<ele>6</ele>
</trkpt>
<trkpt lat="34.67861638888889" lon="137.27359305555555">
<ele>6</ele>
</trkpt>
<trkpt lat="34.67865583333333" lon="137.27361916666666">
<ele>6</ele>
</trkpt>
<trkpt lat="34.67869527777778" lon="137.27364555555556">
<ele>7</ele>
</trkpt>
<trkpt lat="34.678734444444444" lon="137.27367194444443">
<ele>7</ele>
</trkpt>
<trkpt lat="34.67877388888889" lon="137.27369833333333">
<ele>7</ele>
</trkpt>
<trkpt lat="34.67881333333333" lon="137.27372472222223">
<ele>8</ele>
</trkpt>
<trkpt lat="34.678844166666664" lon="137.27374527777778">
<ele>8</ele>
</trkpt>
<trkpt lat="34.678844166666664" lon="137.27374527777778">
<ele>8</ele>
</trkpt>
<trkpt lat="34.67888361111111" lon="137.27371916666667">
<ele>8</ele>
</trkpt>
<trkpt lat="34.67892305555556" lon="137.27369305555555">
<ele>9</ele>
</trkpt>
<trkpt lat="34.6789625" lon="137.27366694444444">
<ele>9</ele>
</trkpt>
<trkpt lat="34.679001944444444" lon="137.27364055555555">
<ele>10</ele>
</trkpt>
<trkpt lat="34.67904138888889" lon="137.27361444444443">
<ele>10</ele>
</trkpt>
<trkpt lat="34.67905583333334" lon="137.27360472222222">
<ele>10</ele>
</trkpt>
<trkpt lat="34.67905583333334" lon="137.27360472222222">
<ele>10</ele>
</trkpt>
<trkpt lat="34.679164166666666" lon="137.2736538888889">
<ele>10</ele>
</trkpt>
<trkpt lat="34.679272222222224" lon="137.27370277777777">
<ele>11</ele>
</trkpt>
<trkpt lat="34.679380555555554" lon="137.27375194444446">
<ele>12</ele>
</trkpt>
<trkpt lat="34.67948861111111" lon="137.27380083333333">
<ele>13</ele>
</trkpt>
<trkpt lat="34.67959694444444" lon="137.27385">
<ele>14</ele>
</trkpt>
<trkpt lat="34.679705" lon="137.27389888888888">
<ele>15</ele>
</trkpt>
<trkpt lat="34.679813333333335" lon="137.27394777777778">
<ele>15</ele>
</trkpt>
<trkpt lat="34.679921388888886" lon="137.27399694444443">
<ele>16</ele>
</trkpt>
<trkpt lat="34.68002972222222" lon="137.27404583333333">
<ele>17</ele>
</trkpt>
<trkpt lat="34.68013777777778" lon="137.274095">
<ele>17</ele>
</trkpt>
<trkpt lat="34.68024611111111" lon="137.2741438888889">
<ele>17</ele>
</trkpt>
<trkpt lat="34.68035416666667" lon="137.27419305555554">
<ele>18</ele>
</trkpt>
<trkpt lat="34.6804625" lon="137.27424194444444">
<ele>17</ele>
</trkpt>
<trkpt lat="34.680570555555555" lon="137.2742911111111">
<ele>18</ele>
</trkpt>
<trkpt lat="34.68067888888889" lon="137.27434">
<ele>18</ele>
</trkpt>
<trkpt lat="34.68078694444444" lon="137.27438916666668">
<ele>20</ele>
</trkpt>
<trkpt lat="34.68089527777778" lon="137.27443805555555">
<ele>20</ele>
</trkpt>
<trkpt lat="34.68100333333334" lon="137.27448694444445">
<ele>21</ele>
</trkpt>
<trkpt lat="34.681111666666666" lon="137.2745361111111">
<ele>22</ele>
</trkpt>
<trkpt lat="34.681111666666666" lon="137.2745361111111">
<ele>22</ele>
</trkpt>
<trkpt lat="34.681111666666666" lon="137.2745361111111">
<ele>22</ele>
</trkpt>
<trkpt lat="34.68118166666667" lon="137.2745936111111">
<ele>22</ele>
</trkpt>
<trkpt lat="34.68125194444445" lon="137.27465138888888">
<ele>23</ele>
</trkpt>
<trkpt lat="34.68132194444444" lon="137.27470888888888">
<ele>23</ele>
</trkpt>
<trkpt lat="34.68139222222222" lon="137.27476638888888">
<ele>24</ele>
</trkpt>
<trkpt lat="34.68146222222222" lon="137.27482416666666">
<ele>24</ele>
</trkpt>
<trkpt lat="34.68153222222222" lon="137.27488166666666">
<ele>24</ele>
</trkpt>
<trkpt lat="34.6816025" lon="137.27493916666666">
<ele>24</ele>
</trkpt>
<trkpt lat="34.6816725" lon="137.27499694444444">
<ele>25</ele>
</trkpt>
<trkpt lat="34.68174277777778" lon="137.27505444444444">
<ele>25</ele>
</trkpt>
<trkpt lat="34.68181277777778" lon="137.27511194444443">
<ele>24</ele>
</trkpt>
<trkpt lat="34.68188277777778" lon="137.27516972222222">
<ele>24</ele>
</trkpt>
<trkpt lat="34.68195305555555" lon="137.2752272222222">
<ele>25</ele>
</trkpt>
<trkpt lat="34.682023055555554" lon="137.2752847222222">
<ele>27</ele>
</trkpt>
<trkpt lat="34.682093333333334" lon="137.2753425">
<ele>27</ele>
</trkpt>
<trkpt lat="34.682163333333335" lon="137.2754">
<ele>28</ele>
</trkpt>
<trkpt lat="34.68223361111111" lon="137.27545777777777">
<ele>28</ele>
</trkpt>
<trkpt lat="34.68230361111111" lon="137.27551527777777">
<ele>28</ele>
</trkpt>
<trkpt lat="34.68237361111111" lon="137.27557277777777">
<ele>28</ele>
</trkpt>
<trkpt lat="34.68244388888889" lon="137.27563055555555">
<ele>28</ele>
</trkpt>
<trkpt lat="34.68244388888889" lon="137.27563055555555">
<ele>28</ele>
</trkpt>
<trkpt lat="34.68248805555555" lon="137.2756475">
<ele>28</ele>
</trkpt>
<trkpt lat="34.68253194444444" lon="137.27566444444443">
<ele>28</ele>
</trkpt>
<trkpt lat="34.68257611111111" lon="137.2756813888889">
<ele>28</ele>
</trkpt>
<trkpt lat="34.68262027777778" lon="137.27569833333334">
<ele>28</ele>
</trkpt>
<trkpt lat="34.68266444444444" lon="137.275715">
<ele>28</ele>
</trkpt>
<trkpt lat="34.68270861111111" lon="137.27573194444443">
<ele>29</ele>
</trkpt>
<trkpt lat="34.6827525" lon="137.2757488888889">
<ele>29</ele>
</trkpt>
<trkpt lat="34.68279666666667" lon="137.27576583333334">
<ele>29</ele>
</trkpt>
<trkpt lat="34.68284083333333" lon="137.27578277777778">
<ele>28</ele>
</trkpt>
<trkpt lat="34.682885" lon="137.27579972222222">
<ele>28</ele>
</trkpt>
<trkpt lat="34.68292916666667" lon="137.27581666666666">
<ele>29</ele>
</trkpt>
<trkpt lat="34.68297305555556" lon="137.27583361111112">
<ele>29</ele>
</trkpt>
<trkpt lat="34.68301722222222" lon="137.27585055555556">
<ele>29</ele>
</trkpt>
<trkpt lat="34.68306138888889" lon="137.2758675">
<ele>29</ele>
</trkpt>
<trkpt lat="34.68310555555556" lon="137.27588444444444">
<ele>29</ele>
</trkpt>
<trkpt lat="34.683149722222225" lon="137.27590138888888">
<ele>30</ele>
</trkpt>
<trkpt lat="34.68319361111111" lon="137.27591833333332">
<ele>30</ele>
</trkpt>
<trkpt lat="34.68323777777778" lon="137.2759352777778">
<ele>34</ele>
</trkpt>
<trkpt lat="34.683281944444445" lon="137.27595222222223">
<ele>34</ele>
</trkpt>
<trkpt lat="34.683281944444445" lon="137.27595222222223">
<ele>34</ele>
</trkpt>
<trkpt lat="34.683326111111114" lon="137.27596277777778">
<ele>34</ele>
</trkpt>
<trkpt lat="34.683370277777776" lon="137.27597333333333">
<ele>35</ele>
</trkpt>
<trkpt lat="34.683414166666665" lon="137.2759838888889">
<ele>35</ele>
</trkpt>
<trkpt lat="34.683458333333334" lon="137.27599444444445">
<ele>35</ele>
</trkpt>
<trkpt lat="34.6835025" lon="137.2760047222222">
<ele>33</ele>
</trkpt>
<trkpt lat="34.683546666666665" lon="137.2760152777778">
<ele>33</ele>
</trkpt>
<trkpt lat="34.683590833333334" lon="137.27602583333334">
<ele>34</ele>
</trkpt>
<trkpt lat="34.683635" lon="137.27603638888888">
<ele>34</ele>
</trkpt>
<trkpt lat="34.68367888888889" lon="137.27604694444443">
<ele>34</ele>
</trkpt>
<trkpt lat="34.683723055555554" lon="137.2760575">
<ele>34</ele>
</trkpt>
<trkpt lat="34.68376722222222" lon="137.27606777777777">
<ele>34</ele>
</trkpt>
<trkpt lat="34.68381138888889" lon="137.27607833333334">
<ele>34</ele>
</trkpt>
<trkpt lat="34.68385555555555" lon="137.2760888888889">
<ele>34</ele>
</trkpt>
<trkpt lat="34.68389944444444" lon="137.27609944444444">
<ele>35</ele>
</trkpt>
<trkpt lat="34.68394361111111" lon="137.27611">
<ele>35</ele>
</trkpt>
<trkpt lat="34.68398777777778" lon="137.27612055555556">
<ele>34</ele>
</trkpt>
<trkpt lat="34.68403194444444" lon="137.27613083333333">
<ele>35</ele>
</trkpt>
<trkpt lat="34.68407611111111" lon="137.2761413888889">
<ele>35</ele>
</trkpt>
<trkpt lat="34.68412" lon="137.27615194444445">
<ele>35</ele>
</trkpt>
<trkpt lat="34.68412" lon="137.27615194444445">
<ele>35</ele>
</trkpt>
<trkpt lat="34.684176388888886" lon="137.27615333333333">
<ele>35</ele>
</trkpt>
<trkpt lat="34.6842325" lon="137.27615472222223">
<ele>34</ele>
</trkpt>
<trkpt lat="34.684288611111114" lon="137.2761561111111">
<ele>34</ele>
</trkpt>
<trkpt lat="34.68434472222222" lon="137.27615722222222">
<ele>35</ele>
</trkpt>
<trkpt lat="34.684401111111114" lon="137.2761586111111">
<ele>35</ele>
</trkpt>
<trkpt lat="34.68445722222222" lon="137.27616">
<ele>36</ele>
</trkpt>
<trkpt lat="34.684513333333335" lon="137.27616138888888">
<ele>36</ele>
</trkpt>
<trkpt lat="34.68456944444444" lon="137.27616277777778">
<ele>37</ele>
</trkpt>
<trkpt lat="34.684625833333335" lon="137.27616416666666">
<ele>37</ele>
</trkpt>
<trkpt lat="34.68468194444444" lon="137.27616555555556">
<ele>38</ele>
</trkpt>
<trkpt lat="34.684738055555556" lon="137.27616666666665">
<ele>38</ele>
</trkpt>
<trkpt lat="34.68479416666667" lon="137.27616805555556">
<ele>38</ele>
</trkpt>
<trkpt lat="34.684850555555556" lon="137.27616944444443">
<ele>38</ele>
</trkpt>
<trkpt lat="34.68490666666667" lon="137.27617083333334">
<ele>38</ele>
</trkpt>
<trkpt lat="34.68496277777778" lon="137.27617222222221">
<ele>38</ele>
</trkpt>
<trkpt lat="34.68501916666666" lon="137.27617361111112">
<ele>38</ele>
</trkpt>
<trkpt lat="34.68507527777778" lon="137.276175">
<ele>38</ele>
</trkpt>
<trkpt lat="34.68513138888889" lon="137.2761763888889">
<ele>37</ele>
</trkpt>
<trkpt lat="34.6851875" lon="137.2761775">
<ele>37</ele>
</trkpt>
<trkpt lat="34.6851875" lon="137.2761775">
<ele>37</ele>
</trkpt>
<trkpt lat="34.6851875" lon="137.2761775">
<ele>37</ele>
</trkpt>
<trkpt lat="34.685225" lon="137.2761475">
<ele>36</ele>
</trkpt>
<trkpt lat="34.6852625" lon="137.2761175">
<ele>36</ele>
</trkpt>
<trkpt lat="34.6853" lon="137.27608722222223">
<ele>38</ele>
</trkpt>
<trkpt lat="34.6853375" lon="137.27605722222222">
<ele>37</ele>
</trkpt>
<trkpt lat="34.685375" lon="137.2760272222222">
<ele>37</ele>
</trkpt>
<trkpt lat="34.6854125" lon="137.27599694444444">
<ele>38</ele>
</trkpt>
<trkpt lat="34.68545" lon="137.27596694444443">
<ele>37</ele>
</trkpt>
<trkpt lat="34.6854875" lon="137.27593694444445">
<ele>37</ele>
</trkpt>
<trkpt lat="34.685525" lon="137.27590694444444">
<ele>37</ele>
</trkpt>
<trkpt lat="34.6855625" lon="137.27587666666668">
<ele>36</ele>
</trkpt>
<trkpt lat="34.6856" lon="137.27584666666667">
<ele>36</ele>
</trkpt>
<trkpt lat="34.68562861111111" lon="137.27582361111112">
<ele>37</ele>
</trkpt>
<trkpt lat="34.68562861111111" lon="137.27582361111112">
<ele>37</ele>
</trkpt>
<trkpt lat="34.68564194444444" lon="137.2757713888889">
<ele>37</ele>
</trkpt>
<trkpt lat="34.685655" lon="137.27571916666668">
<ele>35</ele>
</trkpt>
<trkpt lat="34.68566805555555" lon="137.27566694444445">
<ele>36</ele>
</trkpt>
<trkpt lat="34.68568138888889" lon="137.27561472222223">
<ele>36</ele>
</trkpt>
<trkpt lat="34.685694444444444" lon="137.2755625">
<ele>36</ele>
</trkpt>
<trkpt lat="34.68570777777778" lon="137.27551027777778">
<ele>36</ele>
</trkpt>
<trkpt lat="34.685720833333335" lon="137.27545805555556">
<ele>36</ele>
</trkpt>
<trkpt lat="34.68573388888889" lon="137.27540583333334">
<ele>36</ele>
</trkpt>
<trkpt lat="34.685747222222226" lon="137.27535361111111">
<ele>37</ele>
</trkpt>
<trkpt lat="34.685760277777774" lon="137.2753013888889">
<ele>37</ele>
</trkpt>
<trkpt lat="34.68577333333333" lon="137.27524916666667">
<ele>34</ele>
</trkpt>
<trkpt lat="34.685786666666665" lon="137.27519694444445">
<ele>34</ele>
</trkpt>
<trkpt lat="34.68579638888889" lon="137.27515833333334">
<ele>34</ele>
</trkpt>
<trkpt lat="34.68579638888889" lon="137.27515833333334">
<ele>34</ele>
</trkpt>
<trkpt lat="34.685768333333336" lon="137.27511555555554">
<ele>37</ele>
</trkpt>
<trkpt lat="34.685740555555554" lon="137.27507277777778">
<ele>37</ele>
</trkpt>
<trkpt lat="34.68573444444444" lon="137.2750638888889">
<ele>38</ele>
</trkpt>
<trkpt lat="34.68573444444444" lon="137.2750638888889">
<ele>38</ele>
</trkpt>
<trkpt lat="34.68573833333333" lon="137.27500944444444">
<ele>38</ele>
</trkpt>
<trkpt lat="34.685742222222224" lon="137.274955">
<ele>38</ele>
</trkpt>
<trkpt lat="34.685745833333335" lon="137.27490055555555">
<ele>38</ele>
</trkpt>
<trkpt lat="34.68574972222222" lon="137.27484611111112">
<ele>38</ele>
</trkpt>
<trkpt lat="34.68575333333333" lon="137.27479166666666">
<ele>38</ele>
</trkpt>
<trkpt lat="34.68575722222222" lon="137.27473722222223">
<ele>38</ele>
</trkpt>
<trkpt lat="34.68576083333333" lon="137.27468277777777">
<ele>38</ele>
</trkpt>
<trkpt lat="34.685764722222224" lon="137.27462833333334">
<ele>38</ele>
</trkpt>
<trkpt lat="34.685768333333336" lon="137.27457388888888">
<ele>38</ele>
</trkpt>
<trkpt lat="34.68577222222222" lon="137.2745197222222">
<ele>38</ele>
</trkpt>
<trkpt lat="34.68577416666667" lon="137.27449">
<ele>38</ele>
</trkpt>
<trkpt lat="34.68577416666667" lon="137.27449">
<ele>38</ele>
</trkpt>
<trkpt lat="34.685768055555556" lon="137.27443583333334">
<ele>38</ele>
</trkpt>
<trkpt lat="34.685761944444444" lon="137.27438166666667">
<ele>38</ele>
</trkpt>
<trkpt lat="34.68575583333333" lon="137.2743275">
<ele>38</ele>
</trkpt>
<trkpt lat="34.68574972222222" lon="137.27427333333333">
<ele>39</ele>
</trkpt>
<trkpt lat="34.685743611111114" lon="137.27421944444444">
<ele>39</ele>
</trkpt>
<trkpt lat="34.6857375" lon="137.27416527777777">
<ele>39</ele>
</trkpt>
<trkpt lat="34.68573138888889" lon="137.27411111111113">
<ele>39</ele>
</trkpt>
<trkpt lat="34.685725833333336" lon="137.27406083333332">
<ele>38</ele>
</trkpt>
<trkpt lat="34.685725833333336" lon="137.27406083333332">
<ele>38</ele>
</trkpt>
<trkpt lat="34.68569166666666" lon="137.274025">
<ele>38</ele>
</trkpt>
<trkpt lat="34.6856575" lon="137.27398944444445">
<ele>43</ele>
</trkpt>
<trkpt lat="34.68562361111111" lon="137.27395388888888">
<ele>43</ele>
</trkpt>
<trkpt lat="34.685589444444446" lon="137.27391833333334">
<ele>43</ele>
</trkpt>
<trkpt lat="34.68555555555555" lon="137.27388277777777">
<ele>48</ele>
</trkpt>
<trkpt lat="34.68552138888889" lon="137.27384694444444">
<ele>48</ele>
</trkpt>
<trkpt lat="34.68550527777778" lon="137.27383">
<ele>48</ele>
</trkpt>
<trkpt lat="34.68550527777778" lon="137.27383">
<ele>48</ele>
</trkpt>
<trkpt lat="34.68546555555555" lon="137.27380472222222">
<ele>48</ele>
</trkpt>
<trkpt lat="34.685425555555554" lon="137.27377916666666">
<ele>52</ele>
</trkpt>
<trkpt lat="34.685385833333335" lon="137.27375388888888">
<ele>51</ele>
</trkpt>
<trkpt lat="34.68534611111111" lon="137.27372861111112">
<ele>51</ele>
</trkpt>
<trkpt lat="34.68532861111111" lon="137.2737175">
<ele>54</ele>
</trkpt>
<trkpt lat="34.68532861111111" lon="137.2737175">
<ele>54</ele>
</trkpt>
<trkpt lat="34.68528694444444" lon="137.27373777777777">
<ele>54</ele>
</trkpt>
<trkpt lat="34.68524527777778" lon="137.27375805555556">
<ele>54</ele>
</trkpt>
<trkpt lat="34.68520361111111" lon="137.27377833333333">
<ele>54</ele>
</trkpt>
<trkpt lat="34.68519638888889" lon="137.27378166666668">
<ele>56</ele>
</trkpt>
<trkpt lat="34.68519638888889" lon="137.27378166666668">
<ele>56</ele>
</trkpt>
<trkpt lat="34.68521361111111" lon="137.2738322222222">
<ele>56</ele>
</trkpt>
<trkpt lat="34.685230833333335" lon="137.27388277777777">
<ele>54</ele>
</trkpt>
<trkpt lat="34.685247777777775" lon="137.27393333333333">
<ele>53</ele>
</trkpt>
<trkpt lat="34.685265" lon="137.2739836111111">
<ele>53</ele>
</trkpt>
<trkpt lat="34.68528027777778" lon="137.2740286111111">
<ele>52</ele>
</trkpt>
<trkpt lat="34.68528027777778" lon="137.2740286111111">
<ele>52</ele>
</trkpt>
<trkpt lat="34.685318055555555" lon="137.27405805555554">
<ele>52</ele>
</trkpt>
<trkpt lat="34.68535583333333" lon="137.27408777777777">
<ele>50</ele>
</trkpt>
<trkpt lat="34.68539361111111" lon="137.27411722222223">
<ele>49</ele>
</trkpt>
<trkpt lat="34.68543138888889" lon="137.27414694444445">
<ele>49</ele>
</trkpt>
<trkpt lat="34.685469166666664" lon="137.2741763888889">
<ele>46</ele>
</trkpt>
<trkpt lat="34.68550666666667" lon="137.2742061111111">
<ele>46</ele>
</trkpt>
<trkpt lat="34.685540555555555" lon="137.2742325">
<ele>46</ele>
</trkpt>
<trkpt lat="34.685540555555555" lon="137.2742325">
<ele>46</ele>
</trkpt>
<trkpt lat="34.685543055555556" lon="137.27428694444444">
<ele>47</ele>
</trkpt>
<trkpt lat="34.685545833333336" lon="137.2743413888889">
<ele>47</ele>
</trkpt>
<trkpt lat="34.68554861111111" lon="137.27439611111112">
<ele>43</ele>
</trkpt>
<trkpt lat="34.68555138888889" lon="137.27445055555555">
<ele>43</ele>
</trkpt>
<trkpt lat="34.68555416666667" lon="137.274505">
<ele>43</ele>
</trkpt>
<trkpt lat="34.68555666666666" lon="137.27455944444444">
<ele>43</ele>
</trkpt>
<trkpt lat="34.68555944444444" lon="137.27461416666668">
<ele>43</ele>
</trkpt>
<trkpt lat="34.685562222222224" lon="137.2746686111111">
<ele>43</ele>
</trkpt>
<trkpt lat="34.685565" lon="137.27472305555557">
<ele>43</ele>
</trkpt>
<trkpt lat="34.685566944444446" lon="137.2747636111111">
<ele>43</ele>
</trkpt>
<trkpt lat="34.685566944444446" lon="137.2747636111111">
<ele>43</ele>
</trkpt>
<trkpt lat="34.68555944444444" lon="137.27481722222223">
<ele>43</ele>
</trkpt>
<trkpt lat="34.68555166666667" lon="137.2748711111111">
<ele>49</ele>
</trkpt>
<trkpt lat="34.685544166666666" lon="137.274925">
<ele>49</ele>
</trkpt>
<trkpt lat="34.685536666666664" lon="137.27497888888888">
<ele>49</ele>
</trkpt>
<trkpt lat="34.68552888888889" lon="137.27503277777777">
<ele>50</ele>
</trkpt>
<trkpt lat="34.68552138888889" lon="137.2750863888889">
<ele>50</ele>
</trkpt>
<trkpt lat="34.68551388888889" lon="137.27513888888888">
<ele>50</ele>
</trkpt>
<trkpt lat="34.68551388888889" lon="137.27513888888888">
<ele>50</ele>
</trkpt>
<trkpt lat="34.685498611111115" lon="137.27519027777777">
<ele>50</ele>
</trkpt>
<trkpt lat="34.68548305555556" lon="137.27524166666666">
<ele>50</ele>
</trkpt>
<trkpt lat="34.68546777777778" lon="137.27529277777776">
<ele>50</ele>
</trkpt>
<trkpt lat="34.685452222222224" lon="137.27534416666666">
<ele>50</ele>
</trkpt>
<trkpt lat="34.68543666666667" lon="137.27539555555555">
<ele>53</ele>
</trkpt>
<trkpt lat="34.68542138888889" lon="137.27544666666665">
<ele>52</ele>
</trkpt>
<trkpt lat="34.685405833333334" lon="137.27549805555554">
<ele>52</ele>
</trkpt>
<trkpt lat="34.68539944444444" lon="137.27552">
<ele>52</ele>
</trkpt>
<trkpt lat="34.68539944444444" lon="137.27552">
<ele>52</ele>
</trkpt>
<trkpt lat="34.68535888888889" lon="137.27554388888888">
<ele>52</ele>
</trkpt>
<trkpt lat="34.685318611111114" lon="137.27556777777778">
<ele>52</ele>
</trkpt>
<trkpt lat="34.685278333333336" lon="137.27559194444444">
<ele>52</ele>
</trkpt>
<trkpt lat="34.68523777777778" lon="137.27561583333335">
<ele>52</ele>
</trkpt>
<trkpt lat="34.68520083333333" lon="137.27563777777777">
<ele>53</ele>
</trkpt>
<trkpt lat="34.68520083333333" lon="137.27563777777777">
<ele>56</ele>
</trkpt>
<trkpt lat="34.68515861111111" lon="137.27561916666667">
<ele>56</ele>
</trkpt>
<trkpt lat="34.685116388888886" lon="137.27560027777778">
<ele>56</ele>
</trkpt>
<trkpt lat="34.685074444444446" lon="137.2755813888889">
<ele>57</ele>
</trkpt>
<trkpt lat="34.68503222222222" lon="137.2755625">
<ele>57</ele>
</trkpt>
<trkpt lat="34.68499" lon="137.27554361111112">
<ele>59</ele>
</trkpt>
<trkpt lat="34.684984722222225" lon="137.27554138888888">
<ele>59</ele>
</trkpt>
<trkpt lat="34.684984722222225" lon="137.27554138888888">
<ele>59</ele>
</trkpt>
<trkpt lat="34.68495166666667" lon="137.27550444444444">
<ele>59</ele>
</trkpt>
<trkpt lat="34.684918333333336" lon="137.2754675">
<ele>59</ele>
</trkpt>
<trkpt lat="34.68488527777778" lon="137.27543083333333">
<ele>59</ele>
</trkpt>
<trkpt lat="34.684851944444446" lon="137.27539388888889">
<ele>59</ele>
</trkpt>
<trkpt lat="34.68481888888889" lon="137.27535694444444">
<ele>59</ele>
</trkpt>
<trkpt lat="34.684785833333336" lon="137.27532027777778">
<ele>63</ele>
</trkpt>
<trkpt lat="34.6847525" lon="137.27528333333333">
<ele>58</ele>
</trkpt>
<trkpt lat="34.68471944444445" lon="137.2752463888889">
<ele>58</ele>
</trkpt>
<trkpt lat="34.68468638888889" lon="137.27520972222223">
<ele>62</ele>
</trkpt>
<trkpt lat="34.68467583333333" lon="137.27519805555556">
<ele>62</ele>
</trkpt>
<trkpt lat="34.68467583333333" lon="137.27519805555556">
<ele>62</ele>
</trkpt>
<trkpt lat="34.68464916666667" lon="137.27515416666665">
<ele>58</ele>
</trkpt>
<trkpt lat="34.6846225" lon="137.27511027777777">
<ele>59</ele>
</trkpt>
<trkpt lat="34.68459555555555" lon="137.2750663888889">
<ele>59</ele>
</trkpt>
<trkpt lat="34.68456888888889" lon="137.2750225">
<ele>59</ele>
</trkpt>
<trkpt lat="34.68454222222222" lon="137.27497861111112">
<ele>59</ele>
</trkpt>
<trkpt lat="34.68451527777778" lon="137.2749347222222">
<ele>59</ele>
</trkpt>
<trkpt lat="34.684488611111114" lon="137.27489083333333">
<ele>59</ele>
</trkpt>
<trkpt lat="34.68448611111111" lon="137.27488694444443">
<ele>70</ele>
</trkpt>
<trkpt lat="34.68448611111111" lon="137.27488694444443">
<ele>70</ele>
</trkpt>
<trkpt lat="34.68444638888889" lon="137.27486194444444">
<ele>70</ele>
</trkpt>
<trkpt lat="34.68440638888889" lon="137.27483666666666">
<ele>59</ele>
</trkpt>
<trkpt lat="34.68436638888889" lon="137.27481166666666">
<ele>59</ele>
</trkpt>
<trkpt lat="34.684326666666664" lon="137.27478666666667">
<ele>58</ele>
</trkpt>
<trkpt lat="34.684286666666665" lon="137.27476166666668">
<ele>67</ele>
</trkpt>
<trkpt lat="34.68424666666667" lon="137.27473666666666">
<ele>67</ele>
</trkpt>
<trkpt lat="34.68421277777778" lon="137.27471527777777">
<ele>67</ele>
</trkpt>
<trkpt lat="34.68421277777778" lon="137.27471527777777">
<ele>67</ele>
</trkpt>
<trkpt lat="34.68417138888889" lon="137.2747363888889">
<ele>61</ele>
</trkpt>
<trkpt lat="34.68413" lon="137.27475777777778">
<ele>61</ele>
</trkpt>
<trkpt lat="34.684088611111115" lon="137.27477888888887">
<ele>61</ele>
</trkpt>
<trkpt lat="34.68404722222222" lon="137.27480027777779">
<ele>61</ele>
</trkpt>
<trkpt lat="34.684014166666664" lon="137.27481722222223">
<ele>58</ele>
</trkpt>
<trkpt lat="34.684014166666664" lon="137.27481722222223">
<ele>58</ele>
</trkpt>
<trkpt lat="34.683975555555556" lon="137.2748447222222">
<ele>58</ele>
</trkpt>
<trkpt lat="34.68393666666667" lon="137.2748725">
<ele>58</ele>
</trkpt>
<trkpt lat="34.68389805555555" lon="137.2749002777778">
<ele>57</ele>
</trkpt>
<trkpt lat="34.683864166666666" lon="137.27492444444445">
<ele>57</ele>
</trkpt>
<trkpt lat="34.683864166666666" lon="137.27492444444445">
<ele>57</ele>
</trkpt>
<trkpt lat="34.68382" lon="137.27493444444445">
<ele>57</ele>
</trkpt>
<trkpt lat="34.683775833333335" lon="137.27494416666667">
<ele>58</ele>
</trkpt>
<trkpt lat="34.68373166666667" lon="137.27495416666667">
<ele>58</ele>
</trkpt>
<trkpt lat="34.68369666666667" lon="137.27496194444444">
<ele>58</ele>
</trkpt>
<trkpt lat="34.68369666666667" lon="137.27496194444444">
<ele>58</ele>
</trkpt>
<trkpt lat="34.683658055555554" lon="137.27493416666667">
<ele>58</ele>
</trkpt>
<trkpt lat="34.683619166666666" lon="137.2749063888889">
<ele>58</ele>
</trkpt>
<trkpt lat="34.68358055555556" lon="137.27487861111112">
<ele>60</ele>
</trkpt>
<trkpt lat="34.68354194444444" lon="137.27485083333335">
<ele>59</ele>
</trkpt>
<trkpt lat="34.683503333333334" lon="137.27482305555554">
<ele>59</ele>
</trkpt>
<trkpt lat="34.68346472222222" lon="137.274795">
<ele>59</ele>
</trkpt>
<trkpt lat="34.68342611111111" lon="137.2747672222222">
<ele>61</ele>
</trkpt>
<trkpt lat="34.68338722222222" lon="137.27473944444444">
<ele>61</ele>
</trkpt>
<trkpt lat="34.68338333333333" lon="137.27473666666666">
<ele>59</ele>
</trkpt>
<trkpt lat="34.68338333333333" lon="137.27473666666666">
<ele>59</ele>
</trkpt>
<trkpt lat="34.6833575" lon="137.27469194444444">
<ele>61</ele>
</trkpt>
<trkpt lat="34.68333166666667" lon="137.2746475">
<ele>61</ele>
</trkpt>
<trkpt lat="34.683305555555556" lon="137.27460277777777">
<ele>61</ele>
</trkpt>
<trkpt lat="34.683279722222224" lon="137.27455833333335">
<ele>61</ele>
</trkpt>
<trkpt lat="34.683255555555554" lon="137.27451666666667">
<ele>64</ele>
</trkpt>
<trkpt lat="34.683255555555554" lon="137.27451666666667">
<ele>64</ele>
</trkpt>
<trkpt lat="34.683259444444445" lon="137.2744622222222">
<ele>64</ele>
</trkpt>
<trkpt lat="34.68326305555556" lon="137.27440777777778">
<ele>68</ele>
</trkpt>
<trkpt lat="34.68326694444445" lon="137.27435333333332">
<ele>68</ele>
</trkpt>
<trkpt lat="34.68326861111111" lon="137.2743288888889">
<ele>71</ele>
</trkpt>
<trkpt lat="34.68326861111111" lon="137.2743288888889">
<ele>71</ele>
</trkpt>
<trkpt lat="34.68329055555556" lon="137.27428138888888">
<ele>71</ele>
</trkpt>
<trkpt lat="34.6833125" lon="137.2742336111111">
<ele>71</ele>
</trkpt>
<trkpt lat="34.68333444444445" lon="137.27418583333332">
<ele>80</ele>
</trkpt>
<trkpt lat="34.68335638888889" lon="137.27413833333333">
<ele>80</ele>
</trkpt>
<trkpt lat="34.68337833333333" lon="137.27409055555555">
<ele>79</ele>
</trkpt>
<trkpt lat="34.68340027777778" lon="137.27404305555555">
<ele>79</ele>
</trkpt>
<trkpt lat="34.683414166666665" lon="137.2740125">
<ele>79</ele>
</trkpt>
<trkpt lat="34.683414166666665" lon="137.2740125">
<ele>79</ele>
</trkpt>
<trkpt lat="34.683416666666666" lon="137.27395805555557">
<ele>78</ele>
</trkpt>
<trkpt lat="34.68341888888889" lon="137.27390333333332">
<ele>78</ele>
</trkpt>
<trkpt lat="34.68342138888889" lon="137.2738488888889">
<ele>79</ele>
</trkpt>
<trkpt lat="34.68342305555556" lon="137.27380861111112">
<ele>79</ele>
</trkpt>
<trkpt lat="34.68342305555556" lon="137.27380861111112">
<ele>79</ele>
</trkpt>
<trkpt lat="34.68338527777778" lon="137.27377916666666">
<ele>79</ele>
</trkpt>
<trkpt lat="34.683347222222224" lon="137.27375">
<ele>88</ele>
</trkpt>
<trkpt lat="34.68330944444445" lon="137.27372055555554">
<ele>84</ele>
</trkpt>
<trkpt lat="34.6832775" lon="137.27369611111112">
<ele>84</ele>
</trkpt>
<trkpt lat="34.6832775" lon="137.27369611111112">
<ele>84</ele>
</trkpt>
<trkpt lat="34.683234722222224" lon="137.27367916666665">
<ele>84</ele>
</trkpt>
<trkpt lat="34.683192222222225" lon="137.2736622222222">
<ele>87</ele>
</trkpt>
<trkpt lat="34.683149444444446" lon="137.27364527777777">
<ele>87</ele>
</trkpt>
<trkpt lat="34.68310666666667" lon="137.27362833333333">
<ele>86</ele>
</trkpt>
<trkpt lat="34.68308777777778" lon="137.27362083333333">
<ele>86</ele>
</trkpt>
<trkpt lat="34.68308777777778" lon="137.27362083333333">
<ele>86</ele>
</trkpt>
<trkpt lat="34.68305" lon="137.2735913888889">
<ele>86</ele>
</trkpt>
<trkpt lat="34.683012222222224" lon="137.27356194444445">
<ele>86</ele>
</trkpt>
<trkpt lat="34.6829775" lon="137.273535">
<ele>86</ele>
</trkpt>
<trkpt lat="34.6829775" lon="137.273535">
<ele>86</ele>
</trkpt>
<trkpt lat="34.682941944444444" lon="137.27350194444443">
<ele>86</ele>
</trkpt>
<trkpt lat="34.68290638888889" lon="137.2734686111111">
<ele>86</ele>
</trkpt>
<trkpt lat="34.68287055555555" lon="137.27343555555555">
<ele>87</ele>
</trkpt>
<trkpt lat="34.682835" lon="137.27340222222222">
<ele>87</ele>
</trkpt>
<trkpt lat="34.68279916666667" lon="137.27336916666667">
<ele>87</ele>
</trkpt>
<trkpt lat="34.68276361111111" lon="137.27333583333333">
<ele>85</ele>
</trkpt>
<trkpt lat="34.68272805555556" lon="137.2733027777778">
<ele>87</ele>
</trkpt>
<trkpt lat="34.68269222222222" lon="137.27326944444445">
<ele>87</ele>
</trkpt>
<trkpt lat="34.68265666666667" lon="137.27323611111112">
<ele>85</ele>
</trkpt>
<trkpt lat="34.68262083333333" lon="137.27320305555557">
<ele>87</ele>
</trkpt>
<trkpt lat="34.68262027777778" lon="137.2732025">
<ele>87</ele>
</trkpt>
<trkpt lat="34.68262027777778" lon="137.2732025">
<ele>87</ele>
</trkpt>
<trkpt lat="34.682605833333334" lon="137.27315055555556">
<ele>87</ele>
</trkpt>
<trkpt lat="34.68259166666667" lon="137.27309888888888">
<ele>88</ele>
</trkpt>
<trkpt lat="34.68257722222222" lon="137.27304722222223">
<ele>88</ele>
</trkpt>
<trkpt lat="34.682562777777775" lon="137.27299527777777">
<ele>91</ele>
</trkpt>
<trkpt lat="34.68254861111111" lon="137.27294361111112">
<ele>86</ele>
</trkpt>
<trkpt lat="34.68253416666667" lon="137.27289194444444">
<ele>86</ele>
</trkpt>
<trkpt lat="34.682519722222224" lon="137.27284">
<ele>88</ele>
</trkpt>
<trkpt lat="34.68250555555556" lon="137.27278833333332">
<ele>88</ele>
</trkpt>
<trkpt lat="34.68249111111111" lon="137.27273666666667">
<ele>92</ele>
</trkpt>
<trkpt lat="34.68248805555555" lon="137.272725">
<ele>92</ele>
</trkpt>
<trkpt lat="34.68248805555555" lon="137.272725">
<ele>92</ele>
</trkpt>
<trkpt lat="34.682495833333334" lon="137.27267111111112">
<ele>92</ele>
</trkpt>
<trkpt lat="34.68250333333334" lon="137.2726175">
<ele>97</ele>
</trkpt>
<trkpt lat="34.68251111111111" lon="137.2725636111111">
<ele>97</ele>
</trkpt>
<trkpt lat="34.682518888888886" lon="137.27250972222222">
<ele>96</ele>
</trkpt>
<trkpt lat="34.68252666666667" lon="137.2724561111111">
<ele>96</ele>
</trkpt>
<trkpt lat="34.68253444444444" lon="137.2724022222222">
<ele>96</ele>
</trkpt>
<trkpt lat="34.682542222222224" lon="137.27234833333333">
<ele>96</ele>
</trkpt>
<trkpt lat="34.68255" lon="137.27229472222223">
<ele>95</ele>
</trkpt>
<trkpt lat="34.68255777777778" lon="137.27224083333334">
<ele>99</ele>
</trkpt>
<trkpt lat="34.682563055555555" lon="137.27220472222223">
<ele>99</ele>
</trkpt>
<trkpt lat="34.682563055555555" lon="137.27220472222223">
<ele>99</ele>
</trkpt>
<trkpt lat="34.68255638888889" lon="137.27215055555556">
<ele>99</ele>
</trkpt>
<trkpt lat="34.68254972222222" lon="137.27209666666667">
<ele>96</ele>
</trkpt>
<trkpt lat="34.682543055555556" lon="137.2720425">
<ele>96</ele>
</trkpt>
<trkpt lat="34.68253638888889" lon="137.2719886111111">
<ele>97</ele>
</trkpt>
<trkpt lat="34.68252972222222" lon="137.27193444444444">
<ele>97</ele>
</trkpt>
<trkpt lat="34.682523055555556" lon="137.27188055555555">
<ele>97</ele>
</trkpt>
<trkpt lat="34.68251638888889" lon="137.27182666666667">
<ele>97</ele>
</trkpt>
<trkpt lat="34.68250972222222" lon="137.2717725">
<ele>97</ele>
</trkpt>
<trkpt lat="34.68250305555556" lon="137.2717186111111">
<ele>97</ele>
</trkpt>
<trkpt lat="34.682496666666665" lon="137.27166833333334">
<ele>97</ele>
</trkpt>
<trkpt lat="34.682496666666665" lon="137.27166833333334">
<ele>97</ele>
</trkpt>
<trkpt lat="34.682514166666664" lon="137.27161777777778">
<ele>97</ele>
</trkpt>
<trkpt lat="34.68253138888889" lon="137.2715675">
<ele>97</ele>
</trkpt>
<trkpt lat="34.68254888888889" lon="137.27151694444444">
<ele>99</ele>
</trkpt>
<trkpt lat="34.682566111111115" lon="137.27146666666667">
<ele>102</ele>
</trkpt>
<trkpt lat="34.68258333333333" lon="137.2714163888889">
<ele>105</ele>
</trkpt>
<trkpt lat="34.68259833333333" lon="137.27137305555556">
<ele>105</ele>
</trkpt>
<trkpt lat="34.68259833333333" lon="137.27137305555556">
<ele>105</ele>
</trkpt>
<trkpt lat="34.682635" lon="137.27134194444446">
<ele>105</ele>
</trkpt>
<trkpt lat="34.682671944444444" lon="137.27131055555554">
<ele>105</ele>
</trkpt>
<trkpt lat="34.68270861111111" lon="137.27127916666666">
<ele>105</ele>
</trkpt>
<trkpt lat="34.68274527777778" lon="137.27124777777777">
<ele>105</ele>
</trkpt>
<trkpt lat="34.68278222222222" lon="137.27121666666667">
<ele>105</ele>
</trkpt>
<trkpt lat="34.68281888888889" lon="137.2711852777778">
<ele>105</ele>
</trkpt>
<trkpt lat="34.682855833333335" lon="137.27115388888888">
<ele>105</ele>
</trkpt>
<trkpt lat="34.6828925" lon="137.2711225">
<ele>108</ele>
</trkpt>
<trkpt lat="34.68292944444445" lon="137.2710913888889">
<ele>107</ele>
</trkpt>
<trkpt lat="34.682966111111114" lon="137.27106">
<ele>107</ele>
</trkpt>
<trkpt lat="34.68299527777778" lon="137.27103527777777">
<ele>107</ele>
</trkpt>
<trkpt lat="34.68299527777778" lon="137.27103527777777">
<ele>107</ele>
</trkpt>
<trkpt lat="34.68302555555555" lon="137.270995">
<ele>107</ele>
</trkpt>
<trkpt lat="34.683056111111114" lon="137.27095472222223">
<ele>107</ele>
</trkpt>
<trkpt lat="34.68308638888889" lon="137.27091472222222">
<ele>107</ele>
</trkpt>
<trkpt lat="34.68311694444444" lon="137.27087444444444">
<ele>107</ele>
</trkpt>
<trkpt lat="34.683147222222225" lon="137.27083416666667">
<ele>107</ele>
</trkpt>
<trkpt lat="34.68317777777778" lon="137.27079388888887">
<ele>107</ele>
</trkpt>
<trkpt lat="34.68320805555555" lon="137.2707538888889">
<ele>105</ele>
</trkpt>
<trkpt lat="34.683238333333335" lon="137.27071361111112">
<ele>105</ele>
</trkpt>
<trkpt lat="34.68326888888889" lon="137.27067333333332">
<ele>106</ele>
</trkpt>
<trkpt lat="34.683299166666664" lon="137.27063305555555">
<ele>106</ele>
</trkpt>
<trkpt lat="34.683329722222226" lon="137.27059305555557">
<ele>105</ele>
</trkpt>
<trkpt lat="34.683348055555555" lon="137.27056861111112">
<ele>105</ele>
</trkpt>
<trkpt lat="34.683348055555555" lon="137.27056861111112">
<ele>105</ele>
</trkpt>
<trkpt lat="34.683370833333335" lon="137.27052138888888">
<ele>108</ele>
</trkpt>
<trkpt lat="34.683393333333335" lon="137.27047416666667">
<ele>108</ele>
</trkpt>
<trkpt lat="34.683416111111114" lon="137.27042694444444">
<ele>111</ele>
</trkpt>
<trkpt lat="34.683438611111114" lon="137.27037972222223">
<ele>111</ele>
</trkpt>
<trkpt lat="34.68346138888889" lon="137.2703325">
<ele>113</ele>
</trkpt>
<trkpt lat="34.68348388888889" lon="137.27028555555555">
<ele>113</ele>
</trkpt>
<trkpt lat="34.683506666666666" lon="137.27023833333334">
<ele>113</ele>
</trkpt>
<trkpt lat="34.683529166666666" lon="137.2701911111111">
<ele>114</ele>
</trkpt>
<trkpt lat="34.683551944444446" lon="137.2701438888889">
<ele>114</ele>
</trkpt>
<trkpt lat="34.68356416666666" lon="137.27011777777778">
<ele>111</ele>
</trkpt>
<trkpt lat="34.68356416666666" lon="137.27011777777778">
<ele>111</ele>
</trkpt>
<trkpt lat="34.683573611111115" lon="137.27006444444444">
<ele>112</ele>
</trkpt>
<trkpt lat="34.68358277777778" lon="137.2700111111111">
<ele>112</ele>
</trkpt>
<trkpt lat="34.683591944444444" lon="137.2699575">
<ele>113</ele>
</trkpt>
<trkpt lat="34.68360138888889" lon="137.26990416666666">
<ele>113</ele>
</trkpt>
<trkpt lat="34.68361055555555" lon="137.26985055555556">
<ele>114</ele>
</trkpt>
<trkpt lat="34.683619722222225" lon="137.26979722222222">
<ele>114</ele>
</trkpt>
<trkpt lat="34.68362916666667" lon="137.26974388888888">
<ele>115</ele>
</trkpt>
<trkpt lat="34.683638333333334" lon="137.26969027777778">
<ele>115</ele>
</trkpt>
<trkpt lat="34.6836475" lon="137.26963694444444">
<ele>119</ele>
</trkpt>
<trkpt lat="34.683656944444444" lon="137.26958333333334">
<ele>119</ele>
</trkpt>
<trkpt lat="34.68366611111111" lon="137.26953">
<ele>123</ele>
</trkpt>
<trkpt lat="34.68367027777778" lon="137.26950638888889">
<ele>115</ele>
</trkpt>
<trkpt lat="34.68367027777778" lon="137.26950638888889">
<ele>115</ele>
</trkpt>
<trkpt lat="34.68369194444445" lon="137.2694586111111">
<ele>119</ele>
</trkpt>
<trkpt lat="34.68371388888889" lon="137.2694111111111">
<ele>119</ele>
</trkpt>
<trkpt lat="34.68373583333333" lon="137.26936333333333">
<ele>123</ele>
</trkpt>
<trkpt lat="34.68375777777778" lon="137.26931555555555">
<ele>121</ele>
</trkpt>
<trkpt lat="34.68377972222222" lon="137.26926805555556">
<ele>121</ele>
</trkpt>
<trkpt lat="34.68380166666667" lon="137.26922027777778">
<ele>121</ele>
</trkpt>
<trkpt lat="34.683815833333334" lon="137.26919">
<ele>123</ele>
</trkpt>
<trkpt lat="34.683815833333334" lon="137.26919">
<ele>127</ele>
</trkpt>
<trkpt lat="34.683855" lon="137.26916333333332">
<ele>127</ele>
</trkpt>
<trkpt lat="34.68389444444445" lon="137.26913694444445">
<ele>126</ele>
</trkpt>
<trkpt lat="34.68393361111111" lon="137.26911055555556">
<ele>129</ele>
</trkpt>
<trkpt lat="34.683973055555555" lon="137.26908416666666">
<ele>129</ele>
</trkpt>
<trkpt lat="34.68398333333333" lon="137.26907722222222">
<ele>129</ele>
</trkpt>
<trkpt lat="34.68398333333333" lon="137.26907722222222">
<ele>129</ele>
</trkpt>
<trkpt lat="34.68402805555556" lon="137.26908305555557">
<ele>129</ele>
</trkpt>
<trkpt lat="34.68407277777778" lon="137.2690888888889">
<ele>129</ele>
</trkpt>
<trkpt lat="34.68411722222222" lon="137.26909472222223">
<ele>128</ele>
</trkpt>
<trkpt lat="34.68416194444445" lon="137.26910055555555">
<ele>128</ele>
</trkpt>
<trkpt lat="34.68420666666667" lon="137.2691063888889">
<ele>128</ele>
</trkpt>
<trkpt lat="34.68425138888889" lon="137.26911222222222">
<ele>125</ele>
</trkpt>
<trkpt lat="34.68429583333333" lon="137.26911805555557">
<ele>125</ele>
</trkpt>
<trkpt lat="34.68434055555556" lon="137.26912388888888">
<ele>124</ele>
</trkpt>
<trkpt lat="34.68438527777778" lon="137.26912972222223">
<ele>124</ele>
</trkpt>
<trkpt lat="34.68439361111111" lon="137.26913083333332">
<ele>124</ele>
</trkpt>
<trkpt lat="34.68439361111111" lon="137.26913083333332">
<ele>124</ele>
</trkpt>
<trkpt lat="34.68443222222222" lon="137.26910305555555">
<ele>127</ele>
</trkpt>
<trkpt lat="34.684470833333336" lon="137.26907527777777">
<ele>126</ele>
</trkpt>
<trkpt lat="34.684509444444444" lon="137.2690472222222">
<ele>126</ele>
</trkpt>
<trkpt lat="34.68454805555555" lon="137.26901944444444">
<ele>126</ele>
</trkpt>
<trkpt lat="34.68458666666667" lon="137.26899166666666">
<ele>127</ele>
</trkpt>
<trkpt lat="34.684625555555556" lon="137.2689638888889">
<ele>127</ele>
</trkpt>
<trkpt lat="34.684664166666664" lon="137.26893583333333">
<ele>127</ele>
</trkpt>
<trkpt lat="34.68470277777778" lon="137.26890805555556">
<ele>125</ele>
</trkpt>
<trkpt lat="34.68474138888889" lon="137.26888027777778">
<ele>130</ele>
</trkpt>
<trkpt lat="34.68475083333333" lon="137.26887333333335">
<ele>130</ele>
</trkpt>
<trkpt lat="34.68475083333333" lon="137.26887333333335">
<ele>130</ele>
</trkpt>
<trkpt lat="34.68478638888889" lon="137.26883972222222">
<ele>133</ele>
</trkpt>
<trkpt lat="34.684821666666664" lon="137.2688061111111">
<ele>133</ele>
</trkpt>
<trkpt lat="34.68485694444445" lon="137.2687725">
<ele>135</ele>
</trkpt>
<trkpt lat="34.6848925" lon="137.2687386111111">
<ele>132</ele>
</trkpt>
<trkpt lat="34.68492777777778" lon="137.268705">
<ele>132</ele>
</trkpt>
<trkpt lat="34.684963055555556" lon="137.2686713888889">
<ele>132</ele>
</trkpt>
<trkpt lat="34.68499861111111" lon="137.26863777777777">
<ele>134</ele>
</trkpt>
<trkpt lat="34.68503388888889" lon="137.26860416666668">
<ele>131</ele>
</trkpt>
<trkpt lat="34.68505527777778" lon="137.2685836111111">
<ele>131</ele>
</trkpt>
<trkpt lat="34.68505527777778" lon="137.2685836111111">
<ele>131</ele>
</trkpt>
<trkpt lat="34.68507916666667" lon="137.2685375">
<ele>133</ele>
</trkpt>
<trkpt lat="34.68510333333333" lon="137.2684913888889">
<ele>133</ele>
</trkpt>
<trkpt lat="34.68512722222222" lon="137.268445">
<ele>131</ele>
</trkpt>
<trkpt lat="34.68515111111111" lon="137.2683988888889">
<ele>132</ele>
</trkpt>
<trkpt lat="34.685161111111114" lon="137.26837972222222">
<ele>132</ele>
</trkpt>
<trkpt lat="34.685161111111114" lon="137.26837972222222">
<ele>132</ele>
</trkpt>
<trkpt lat="34.685135" lon="137.26833527777777">
<ele>132</ele>
</trkpt>
<trkpt lat="34.68510888888889" lon="137.26829083333334">
<ele>133</ele>
</trkpt>
<trkpt lat="34.68508277777778" lon="137.26824638888888">
<ele>133</ele>
</trkpt>
<trkpt lat="34.68505694444445" lon="137.26820194444446">
<ele>133</ele>
</trkpt>
<trkpt lat="34.685030833333336" lon="137.2681575">
<ele>133</ele>
</trkpt>
<trkpt lat="34.685004722222224" lon="137.26811305555555">
<ele>133</ele>
</trkpt>
<trkpt lat="34.68497861111111" lon="137.26806861111112">
<ele>134</ele>
</trkpt>
<trkpt lat="34.6849525" lon="137.26802388888888">
<ele>134</ele>
</trkpt>
<trkpt lat="34.68492638888889" lon="137.26797944444445">
<ele>136</ele>
</trkpt>
<trkpt lat="34.68490055555556" lon="137.267935">
<ele>136</ele>
</trkpt>
<trkpt lat="34.684874444444446" lon="137.26789055555557">
<ele>138</ele>
</trkpt>
<trkpt lat="34.684865555555554" lon="137.26787555555555">
<ele>140</ele>
</trkpt>
<trkpt lat="34.684865555555554" lon="137.26787555555555">
<ele>140</ele>
</trkpt>
<trkpt lat="34.68484027777778" lon="137.26783055555555">
<ele>140</ele>
</trkpt>
<trkpt lat="34.684815" lon="137.2677852777778">
<ele>140</ele>
</trkpt>
<trkpt lat="34.68478972222222" lon="137.2677402777778">
<ele>142</ele>
</trkpt>
<trkpt lat="34.68476444444445" lon="137.267695">
<ele>144</ele>
</trkpt>
<trkpt lat="34.68473916666667" lon="137.26765">
<ele>142</ele>
</trkpt>
<trkpt lat="34.684713888888886" lon="137.26760472222222">
<ele>142</ele>
</trkpt>
<trkpt lat="34.684688333333334" lon="137.26755972222222">
<ele>142</ele>
</trkpt>
<trkpt lat="34.68466305555555" lon="137.26751444444446">
<ele>143</ele>
</trkpt>
<trkpt lat="34.68463777777778" lon="137.26746944444446">
<ele>143</ele>
</trkpt>
<trkpt lat="34.6846125" lon="137.26742416666667">
<ele>142</ele>
</trkpt>
<trkpt lat="34.684600833333334" lon="137.26740361111112">
<ele>142</ele>
</trkpt>
<trkpt lat="34.684600833333334" lon="137.26740361111112">
<ele>142</ele>
</trkpt>
<trkpt lat="34.68459527777778" lon="137.26734944444445">
<ele>142</ele>
</trkpt>
<trkpt lat="34.68458944444444" lon="137.26729527777778">
<ele>142</ele>
</trkpt>
<trkpt lat="34.68458388888889" lon="137.26724083333335">
<ele>142</ele>
</trkpt>
<trkpt lat="34.684578055555555" lon="137.26718666666667">
<ele>142</ele>
</trkpt>
<trkpt lat="34.68457444444444" lon="137.2671513888889">
<ele>142</ele>
</trkpt>
<trkpt lat="34.68457444444444" lon="137.2671513888889">
<ele>142</ele>
</trkpt>
<trkpt lat="34.68458611111111" lon="137.26709861111112">
<ele>147</ele>
</trkpt>
<trkpt lat="34.684597777777775" lon="137.26704583333333">
<ele>147</ele>
</trkpt>
<trkpt lat="34.68460944444445" lon="137.26699305555556">
<ele>151</ele>
</trkpt>
<trkpt lat="34.684620833333334" lon="137.2669402777778">
<ele>151</ele>
</trkpt>
<trkpt lat="34.6846325" lon="137.2668875">
<ele>151</ele>
</trkpt>
<trkpt lat="34.68464055555555" lon="137.26685111111112">
<ele>152</ele>
</trkpt>
<trkpt lat="34.68464055555555" lon="137.26685111111112">
<ele>152</ele>
</trkpt>
<trkpt lat="34.68463333333333" lon="137.2667972222222">
<ele>151</ele>
</trkpt>
<trkpt lat="34.68462611111111" lon="137.26674305555557">
<ele>151</ele>
</trkpt>
<trkpt lat="34.68461861111111" lon="137.26668916666668">
<ele>151</ele>
</trkpt>
<trkpt lat="34.68461138888889" lon="137.26663527777777">
<ele>151</ele>
</trkpt>
<trkpt lat="34.68460388888889" lon="137.26658138888888">
<ele>153</ele>
</trkpt>
<trkpt lat="34.684596666666664" lon="137.2665275">
<ele>153</ele>
</trkpt>
<trkpt lat="34.68458944444444" lon="137.2664736111111">
<ele>153</ele>
</trkpt>
<trkpt lat="34.684581944444446" lon="137.26641972222222">
<ele>153</ele>
</trkpt>
<trkpt lat="34.68457472222222" lon="137.26636583333334">
<ele>153</ele>
</trkpt>
<trkpt lat="34.6845675" lon="137.26631194444445">
<ele>153</ele>
</trkpt>
<trkpt lat="34.68456111111111" lon="137.26626638888888">
<ele>153</ele>
</trkpt>
<trkpt lat="34.68456111111111" lon="137.26626638888888">
<ele>153</ele>
</trkpt>
<trkpt lat="34.68454027777778" lon="137.26621805555556">
<ele>160</ele>
</trkpt>
<trkpt lat="34.68451944444445" lon="137.26616972222223">
<ele>160</ele>
</trkpt>
<trkpt lat="34.68449833333333" lon="137.26612138888888">
<ele>160</ele>
</trkpt>
<trkpt lat="34.6844775" lon="137.26607305555555">
<ele>160</ele>
</trkpt>
<trkpt lat="34.68445638888889" lon="137.26602472222223">
<ele>160</ele>
</trkpt>
<trkpt lat="34.68443555555555" lon="137.2659763888889">
<ele>163</ele>
</trkpt>
<trkpt lat="34.68443333333333" lon="137.2659711111111">
<ele>163</ele>
</trkpt>
<trkpt lat="34.68443333333333" lon="137.2659711111111">
<ele>163</ele>
</trkpt>
<trkpt lat="34.684425555555556" lon="137.2659175">
<ele>163</ele>
</trkpt>
<trkpt lat="34.684417777777774" lon="137.26586361111112">
<ele>162</ele>
</trkpt>
<trkpt lat="34.68441027777778" lon="137.26580972222223">
<ele>162</ele>
</trkpt>
<trkpt lat="34.6844025" lon="137.26575583333334">
<ele>163</ele>
</trkpt>
<trkpt lat="34.68439472222222" lon="137.26570222222222">
<ele>163</ele>
</trkpt>
<trkpt lat="34.68438722222222" lon="137.26564833333333">
<ele>164</ele>
</trkpt>
<trkpt lat="34.68438027777778" lon="137.26560111111112">
<ele>164</ele>
</trkpt>
<trkpt lat="34.68438027777778" lon="137.26560111111112">
<ele>164</ele>
</trkpt>
<trkpt lat="34.6843975" lon="137.26555055555556">
<ele>164</ele>
</trkpt>
<trkpt lat="34.684415" lon="137.2655002777778">
<ele>165</ele>
</trkpt>
<trkpt lat="34.68443222222222" lon="137.26544972222223">
<ele>165</ele>
</trkpt>
<trkpt lat="34.684449444444446" lon="137.26539944444445">
<ele>165</ele>
</trkpt>
<trkpt lat="34.684466666666665" lon="137.2653488888889">
<ele>166</ele>
</trkpt>
<trkpt lat="34.684468611111114" lon="137.26534361111112">
<ele>166</ele>
</trkpt>
<trkpt lat="34.684468611111114" lon="137.26534361111112">
<ele>166</ele>
</trkpt>
<trkpt lat="34.684513055555556" lon="137.26533583333332">
<ele>166</ele>
</trkpt>
<trkpt lat="34.6845575" lon="137.26532805555556">
<ele>167</ele>
</trkpt>
<trkpt lat="34.684601944444445" lon="137.2653202777778">
<ele>167</ele>
</trkpt>
<trkpt lat="34.684646388888886" lon="137.2653125">
<ele>167</ele>
</trkpt>
<trkpt lat="34.684690833333335" lon="137.26530472222223">
<ele>166</ele>
</trkpt>
<trkpt lat="34.684735277777776" lon="137.26529694444446">
<ele>166</ele>
</trkpt>
<trkpt lat="34.684779722222224" lon="137.26528916666666">
<ele>167</ele>
</trkpt>
<trkpt lat="34.684824166666665" lon="137.2652813888889">
<ele>167</ele>
</trkpt>
<trkpt lat="34.68486861111111" lon="137.2652736111111">
<ele>167</ele>
</trkpt>
<trkpt lat="34.684913055555555" lon="137.26526583333333">
<ele>170</ele>
</trkpt>
<trkpt lat="34.6849575" lon="137.26525805555556">
<ele>170</ele>
</trkpt>
<trkpt lat="34.685001944444444" lon="137.26525027777777">
<ele>171</ele>
</trkpt>
<trkpt lat="34.685046388888885" lon="137.2652425">
<ele>171</ele>
</trkpt>
<trkpt lat="34.685050833333335" lon="137.26524166666667">
<ele>171</ele>
</trkpt>
<trkpt lat="34.685050833333335" lon="137.26524166666667">
<ele>171</ele>
</trkpt>
<trkpt lat="34.685094722222225" lon="137.2652302777778">
<ele>171</ele>
</trkpt>
<trkpt lat="34.685138611111114" lon="137.26521888888888">
<ele>174</ele>
</trkpt>
<trkpt lat="34.685182777777776" lon="137.2652075">
<ele>174</ele>
</trkpt>
<trkpt lat="34.685226666666665" lon="137.26519611111112">
<ele>172</ele>
</trkpt>
<trkpt lat="34.68525805555556" lon="137.26518805555557">
<ele>172</ele>
</trkpt>
<trkpt lat="34.68525805555556" lon="137.26518805555557">
<ele>172</ele>
</trkpt>
<trkpt lat="34.685272222222224" lon="137.2651361111111">
<ele>172</ele>
</trkpt>
<trkpt lat="34.68528611111111" lon="137.26508416666667">
<ele>173</ele>
</trkpt>
<trkpt lat="34.68530027777778" lon="137.26503222222223">
<ele>173</ele>
</trkpt>
<trkpt lat="34.685314166666664" lon="137.26498055555555">
<ele>174</ele>
</trkpt>
<trkpt lat="34.68532833333333" lon="137.26492861111112">
<ele>174</ele>
</trkpt>
<trkpt lat="34.685342222222225" lon="137.26487666666668">
<ele>171</ele>
</trkpt>
<trkpt lat="34.68535527777778" lon="137.2648286111111">
<ele>171</ele>
</trkpt>
<trkpt lat="34.68535527777778" lon="137.2648286111111">
<ele>171</ele>
</trkpt>
<trkpt lat="34.68536527777778" lon="137.26477527777777">
<ele>176</ele>
</trkpt>
<trkpt lat="34.68537527777778" lon="137.26472222222222">
<ele>176</ele>
</trkpt>
<trkpt lat="34.685385555555555" lon="137.26466888888888">
<ele>176</ele>
</trkpt>
<trkpt lat="34.68539555555556" lon="137.26461583333332">
<ele>180</ele>
</trkpt>
<trkpt lat="34.685405833333334" lon="137.2645625">
<ele>180</ele>
</trkpt>
<trkpt lat="34.68541583333333" lon="137.26450916666667">
<ele>181</ele>
</trkpt>
<trkpt lat="34.68542138888889" lon="137.26448">
<ele>181</ele>
</trkpt>
<trkpt lat="34.68542138888889" lon="137.26448">
<ele>181</ele>
</trkpt>
<trkpt lat="34.68541916666667" lon="137.26442527777778">
<ele>176</ele>
</trkpt>
<trkpt lat="34.68541666666667" lon="137.26437083333334">
<ele>180</ele>
</trkpt>
<trkpt lat="34.68541444444445" lon="137.2643161111111">
<ele>180</ele>
</trkpt>
<trkpt lat="34.68541222222222" lon="137.26426166666667">
<ele>181</ele>
</trkpt>
<trkpt lat="34.68541" lon="137.2642072222222">
<ele>181</ele>
</trkpt>
<trkpt lat="34.6854075" lon="137.2641525">
<ele>181</ele>
</trkpt>
<trkpt lat="34.685405277777775" lon="137.26409805555556">
<ele>181</ele>
</trkpt>
<trkpt lat="34.68540361111111" lon="137.26406138888888">
<ele>181</ele>
</trkpt>
<trkpt lat="34.68540361111111" lon="137.26406138888888">
<ele>181</ele>
</trkpt>
<trkpt lat="34.685388333333336" lon="137.26401027777777">
<ele>181</ele>
</trkpt>
<trkpt lat="34.68537277777778" lon="137.26395888888888">
<ele>181</ele>
</trkpt>
<trkpt lat="34.68535722222222" lon="137.26390777777777">
<ele>181</ele>
</trkpt>
<trkpt lat="34.685341666666666" lon="137.26385638888888">
<ele>181</ele>
</trkpt>
<trkpt lat="34.68532611111111" lon="137.26380527777778">
<ele>184</ele>
</trkpt>
<trkpt lat="34.68531055555555" lon="137.26375388888889">
<ele>184</ele>
</trkpt>
<trkpt lat="34.685295" lon="137.26370277777778">
<ele>184</ele>
</trkpt>
<trkpt lat="34.68528027777778" lon="137.26365388888888">
<ele>184</ele>
</trkpt>
<trkpt lat="34.68528027777778" lon="137.26365388888888">
<ele>184</ele>
</trkpt>
<trkpt lat="34.68528694444444" lon="137.2635997222222">
<ele>184</ele>
</trkpt>
<trkpt lat="34.685293888888886" lon="137.26354583333332">
<ele>186</ele>
</trkpt>
<trkpt lat="34.68530055555556" lon="137.26349166666665">
<ele>186</ele>
</trkpt>
<trkpt lat="34.68530722222222" lon="137.26343777777777">
<ele>189</ele>
</trkpt>
<trkpt lat="34.685314166666664" lon="137.26338388888888">
<ele>189</ele>
</trkpt>
<trkpt lat="34.685320833333336" lon="137.2633297222222">
<ele>192</ele>
</trkpt>
<trkpt lat="34.68532777777778" lon="137.26327583333332">
<ele>192</ele>
</trkpt>
<trkpt lat="34.68532861111111" lon="137.2632675">
<ele>192</ele>
</trkpt>
<trkpt lat="34.68532861111111" lon="137.2632675">
<ele>192</ele>
</trkpt>
<trkpt lat="34.68535555555555" lon="137.2632238888889">
<ele>193</ele>
</trkpt>
<trkpt lat="34.685382777777775" lon="137.26318027777776">
<ele>194</ele>
</trkpt>
<trkpt lat="34.685409722222225" lon="137.26313638888888">
<ele>194</ele>
</trkpt>
<trkpt lat="34.68543666666667" lon="137.26309277777779">
<ele>196</ele>
</trkpt>
<trkpt lat="34.68546111111111" lon="137.26305305555556">
<ele>194</ele>
</trkpt>
<trkpt lat="34.68546111111111" lon="137.26305305555556">
<ele>194</ele>
</trkpt>
<trkpt lat="34.685498333333335" lon="137.2630227777778">
<ele>194</ele>
</trkpt>
<trkpt lat="34.68553583333333" lon="137.2629925">
<ele>196</ele>
</trkpt>
<trkpt lat="34.68557333333333" lon="137.26296194444444">
<ele>193</ele>
</trkpt>
<trkpt lat="34.685610555555556" lon="137.26293166666667">
<ele>193</ele>
</trkpt>
<trkpt lat="34.68564805555555" lon="137.26290138888888">
<ele>193</ele>
</trkpt>
<trkpt lat="34.68568527777778" lon="137.2628711111111">
<ele>193</ele>
</trkpt>
<trkpt lat="34.68568611111111" lon="137.26287055555557">
<ele>193</ele>
</trkpt>
<trkpt lat="34.68568611111111" lon="137.26287055555557">
<ele>193</ele>
</trkpt>
<trkpt lat="34.685716944444444" lon="137.26283083333334">
<ele>193</ele>
</trkpt>
<trkpt lat="34.68574777777778" lon="137.2627913888889">
<ele>192</ele>
</trkpt>
<trkpt lat="34.68577888888889" lon="137.26275166666667">
<ele>192</ele>
</trkpt>
<trkpt lat="34.685809722222224" lon="137.26271222222223">
<ele>192</ele>
</trkpt>
<trkpt lat="34.68584055555556" lon="137.2626725">
<ele>194</ele>
</trkpt>
<trkpt lat="34.685871666666664" lon="137.26263277777778">
<ele>192</ele>
</trkpt>
<trkpt lat="34.6859025" lon="137.26259333333334">
<ele>194</ele>
</trkpt>
<trkpt lat="34.68593305555556" lon="137.26255416666666">
<ele>194</ele>
</trkpt>
<trkpt lat="34.68593305555556" lon="137.26255416666666">
<ele>194</ele>
</trkpt>
<trkpt lat="34.68595388888889" lon="137.26250583333334">
<ele>194</ele>
</trkpt>
<trkpt lat="34.685975" lon="137.2624575">
<ele>194</ele>
</trkpt>
<trkpt lat="34.68599583333334" lon="137.26240916666666">
<ele>196</ele>
</trkpt>
<trkpt lat="34.68601694444445" lon="137.26236083333333">
<ele>193</ele>
</trkpt>
<trkpt lat="34.68603777777778" lon="137.2623125">
<ele>194</ele>
</trkpt>
<trkpt lat="34.68605888888889" lon="137.26226416666665">
<ele>194</ele>
</trkpt>
<trkpt lat="34.68606111111111" lon="137.26225916666667">
<ele>194</ele>
</trkpt>
<trkpt lat="34.68606111111111" lon="137.26225916666667">
<ele>194</ele>
</trkpt>
<trkpt lat="34.68607111111111" lon="137.26220583333333">
<ele>195</ele>
</trkpt>
<trkpt lat="34.68608138888889" lon="137.2621525">
<ele>195</ele>
</trkpt>
<trkpt lat="34.68609166666667" lon="137.26209944444443">
<ele>196</ele>
</trkpt>
<trkpt lat="34.686101666666666" lon="137.26204611111112">
<ele>196</ele>
</trkpt>
<trkpt lat="34.68611194444444" lon="137.26199305555556">
<ele>193</ele>
</trkpt>
<trkpt lat="34.686122222222224" lon="137.26193972222222">
<ele>193</ele>
</trkpt>
<trkpt lat="34.68613222222222" lon="137.26188666666667">
<ele>194</ele>
</trkpt>
<trkpt lat="34.68613611111111" lon="137.2618675">
<ele>195</ele>
</trkpt>
<trkpt lat="34.68613611111111" lon="137.2618675">
<ele>195</ele>
</trkpt>
<trkpt lat="34.68615666666667" lon="137.26181888888888">
<ele>195</ele>
</trkpt>
<trkpt lat="34.68617722222222" lon="137.26177027777777">
<ele>194</ele>
</trkpt>
<trkpt lat="34.68619777777778" lon="137.26172194444445">
<ele>194</ele>
</trkpt>
<trkpt lat="34.686218333333336" lon="137.26167333333333">
<ele>196</ele>
</trkpt>
<trkpt lat="34.68623916666667" lon="137.26162472222222">
<ele>196</ele>
</trkpt>
<trkpt lat="34.686259722222225" lon="137.2615761111111">
<ele>200</ele>
</trkpt>
<trkpt lat="34.686280277777776" lon="137.2615277777778">
<ele>200</ele>
</trkpt>
<trkpt lat="34.686300833333334" lon="137.26147916666667">
<ele>200</ele>
</trkpt>
<trkpt lat="34.68632138888889" lon="137.26143055555556">
<ele>200</ele>
</trkpt>
<trkpt lat="34.68634222222222" lon="137.2613822222222">
<ele>200</ele>
</trkpt>
<trkpt lat="34.68634333333333" lon="137.26137916666667">
<ele>200</ele>
</trkpt>
<trkpt lat="34.68634333333333" lon="137.26137916666667">
<ele>200</ele>
</trkpt>
<trkpt lat="34.68630944444445" lon="137.2613436111111">
<ele>200</ele>
</trkpt>
<trkpt lat="34.686275277777774" lon="137.26130777777777">
<ele>202</ele>
</trkpt>
<trkpt lat="34.68624138888889" lon="137.26127222222223">
<ele>202</ele>
</trkpt>
<trkpt lat="34.6862075" lon="137.26123638888888">
<ele>202</ele>
</trkpt>
<trkpt lat="34.686173333333336" lon="137.26120055555555">
<ele>204</ele>
</trkpt>
<trkpt lat="34.68613944444444" lon="137.261165">
<ele>204</ele>
</trkpt>
<trkpt lat="34.68610555555556" lon="137.26112916666668">
<ele>207</ele>
</trkpt>
<trkpt lat="34.68608305555556" lon="137.26110555555556">
<ele>205</ele>
</trkpt>
<trkpt lat="34.68608305555556" lon="137.26110555555556">
<ele>205</ele>
</trkpt>
<trkpt lat="34.68603888888889" lon="137.26109583333334">
<ele>205</ele>
</trkpt>
<trkpt lat="34.68599472222222" lon="137.2610861111111">
<ele>204</ele>
</trkpt>
<trkpt lat="34.68595055555556" lon="137.26107638888888">
<ele>204</ele>
</trkpt>
<trkpt lat="34.6859375" lon="137.2610736111111">
<ele>204</ele>
</trkpt>
<trkpt lat="34.6859375" lon="137.2610736111111">
<ele>204</ele>
</trkpt>
<trkpt lat="34.685895277777774" lon="137.2610925">
<ele>204</ele>
</trkpt>
<trkpt lat="34.685853333333334" lon="137.26111166666666">
<ele>206</ele>
</trkpt>
<trkpt lat="34.685811111111114" lon="137.26113055555555">
<ele>206</ele>
</trkpt>
<trkpt lat="34.68576916666667" lon="137.26114972222223">
<ele>206</ele>
</trkpt>
<trkpt lat="34.68572694444445" lon="137.26116888888888">
<ele>206</ele>
</trkpt>
<trkpt lat="34.685685" lon="137.26118777777776">
<ele>206</ele>
</trkpt>
<trkpt lat="34.68564277777778" lon="137.26120694444444">
<ele>205</ele>
</trkpt>
<trkpt lat="34.68560083333333" lon="137.2612261111111">
<ele>207</ele>
</trkpt>
<trkpt lat="34.68555861111111" lon="137.261245">
<ele>207</ele>
</trkpt>
<trkpt lat="34.68552277777778" lon="137.2612613888889">
<ele>206</ele>
</trkpt>
<trkpt lat="34.68552277777778" lon="137.2612613888889">
<ele>206</ele>
</trkpt>
<trkpt lat="34.68547972222222" lon="137.26124638888888">
<ele>206</ele>
</trkpt>
<trkpt lat="34.68543638888889" lon="137.26123166666667">
<ele>206</ele>
</trkpt>
<trkpt lat="34.68539305555556" lon="137.26121694444444">
<ele>208</ele>
</trkpt>
<trkpt lat="34.68534972222222" lon="137.2612022222222">
<ele>209</ele>
</trkpt>
<trkpt lat="34.68530666666667" lon="137.2611875">
<ele>209</ele>
</trkpt>
<trkpt lat="34.68526333333333" lon="137.26117277777777">
<ele>213</ele>
</trkpt>
<trkpt lat="34.68522" lon="137.26115805555557">
<ele>213</ele>
</trkpt>
<trkpt lat="34.68517694444444" lon="137.26114333333334">
<ele>215</ele>
</trkpt>
<trkpt lat="34.685161111111114" lon="137.26113777777778">
<ele>215</ele>
</trkpt>
<trkpt lat="34.685161111111114" lon="137.26113777777778">
<ele>215</ele>
</trkpt>
<trkpt lat="34.68512388888889" lon="137.26110722222222">
<ele>215</ele>
</trkpt>
<trkpt lat="34.68508694444444" lon="137.26107638888888">
<ele>213</ele>
</trkpt>
<trkpt lat="34.685049722222224" lon="137.26104555555557">
<ele>215</ele>
</trkpt>
<trkpt lat="34.6850125" lon="137.261015">
<ele>215</ele>
</trkpt>
<trkpt lat="34.68497555555555" lon="137.26098416666667">
<ele>215</ele>
</trkpt>
<trkpt lat="34.684938333333335" lon="137.26095361111112">
<ele>216</ele>
</trkpt>
<trkpt lat="34.68490111111111" lon="137.26092277777778">
<ele>216</ele>
</trkpt>
<trkpt lat="34.684864166666664" lon="137.26089194444444">
<ele>216</ele>
</trkpt>
<trkpt lat="34.68484361111111" lon="137.260875">
<ele>218</ele>
</trkpt>
<trkpt lat="34.68484361111111" lon="137.260875">
<ele>217</ele>
</trkpt>
<trkpt lat="34.684829722222226" lon="137.26082305555556">
<ele>217</ele>
</trkpt>
<trkpt lat="34.68481611111111" lon="137.26077083333334">
<ele>216</ele>
</trkpt>
<trkpt lat="34.6848025" lon="137.2607188888889">
<ele>216</ele>
</trkpt>
<trkpt lat="34.68478888888889" lon="137.26066694444444">
<ele>216</ele>
</trkpt>
<trkpt lat="34.684775" lon="137.260615">
<ele>221</ele>
</trkpt>
<trkpt lat="34.68476138888889" lon="137.26056277777778">
<ele>221</ele>
</trkpt>
<trkpt lat="34.68474777777778" lon="137.26051083333334">
<ele>222</ele>
</trkpt>
<trkpt lat="34.68473777777778" lon="137.26047277777778">
<ele>222</ele>
</trkpt>
<trkpt lat="34.68473777777778" lon="137.26047277777778">
<ele>222</ele>
</trkpt>
<trkpt lat="34.68469972222222" lon="137.26044333333334">
<ele>222</ele>
</trkpt>
<trkpt lat="34.68466166666666" lon="137.26041416666666">
<ele>223</ele>
</trkpt>
<trkpt lat="34.684623888888886" lon="137.260385">
<ele>223</ele>
</trkpt>
<trkpt lat="34.68460527777778" lon="137.26037083333333">
<ele>223</ele>
</trkpt>
<trkpt lat="34.68460527777778" lon="137.26037083333333">
<ele>223</ele>
</trkpt>
<trkpt lat="34.68456055555556" lon="137.2603738888889">
<ele>223</ele>
</trkpt>
<trkpt lat="34.684515555555556" lon="137.26037694444443">
<ele>223</ele>
</trkpt>
<trkpt lat="34.684470833333336" lon="137.26038">
<ele>223</ele>
</trkpt>
<trkpt lat="34.684425833333336" lon="137.26038305555556">
<ele>223</ele>
</trkpt>
<trkpt lat="34.68438111111111" lon="137.2603861111111">
<ele>223</ele>
</trkpt>
<trkpt lat="34.684371666666664" lon="137.26038694444443">
<ele>223</ele>
</trkpt>
<trkpt lat="34.684371666666664" lon="137.26038694444443">
<ele>223</ele>
</trkpt>
<trkpt lat="34.684337222222226" lon="137.26042222222222">
<ele>223</ele>
</trkpt>
<trkpt lat="34.68430305555555" lon="137.2604575">
<ele>225</ele>
</trkpt>
<trkpt lat="34.68426888888889" lon="137.26049277777778">
<ele>225</ele>
</trkpt>
<trkpt lat="34.68423444444444" lon="137.26052833333333">
<ele>225</ele>
</trkpt>
<trkpt lat="34.68420027777778" lon="137.2605636111111">
<ele>225</ele>
</trkpt>
<trkpt lat="34.68416611111111" lon="137.2605988888889">
<ele>225</ele>
</trkpt>
<trkpt lat="34.68413777777778" lon="137.26062833333333">
<ele>225</ele>
</trkpt>
<trkpt lat="34.68413777777778" lon="137.26062833333333">
<ele>225</ele>
</trkpt>
<trkpt lat="34.68411361111111" lon="137.26067416666666">
<ele>227</ele>
</trkpt>
<trkpt lat="34.684089166666666" lon="137.26072027777778">
<ele>224</ele>
</trkpt>
<trkpt lat="34.684065" lon="137.2607661111111">
<ele>224</ele>
</trkpt>
<trkpt lat="34.684040833333334" lon="137.26081222222223">
<ele>226</ele>
</trkpt>
<trkpt lat="34.68401638888889" lon="137.26085805555556">
<ele>226</ele>
</trkpt>
<trkpt lat="34.68399222222222" lon="137.26090416666668">
<ele>224</ele>
</trkpt>
<trkpt lat="34.68398777777778" lon="137.2609125">
<ele>224</ele>
</trkpt>
<trkpt lat="34.68398777777778" lon="137.2609125">
<ele>224</ele>
</trkpt>
<trkpt lat="34.68399111111111" lon="137.26096694444445">
<ele>224</ele>
</trkpt>
<trkpt lat="34.683994166666665" lon="137.26102138888888">
<ele>225</ele>
</trkpt>
<trkpt lat="34.6839975" lon="137.26107611111112">
<ele>225</ele>
</trkpt>
<trkpt lat="34.684000833333336" lon="137.26113055555555">
<ele>229</ele>
</trkpt>
<trkpt lat="34.68400388888889" lon="137.261185">
<ele>229</ele>
</trkpt>
<trkpt lat="34.68400722222222" lon="137.26123944444444">
<ele>228</ele>
</trkpt>
<trkpt lat="34.68401055555555" lon="137.2612938888889">
<ele>228</ele>
</trkpt>
<trkpt lat="34.68401361111111" lon="137.26134833333333">
<ele>227</ele>
</trkpt>
<trkpt lat="34.684014166666664" lon="137.2613577777778">
<ele>227</ele>
</trkpt>
<trkpt lat="34.684014166666664" lon="137.2613577777778">
<ele>227</ele>
</trkpt>
<trkpt lat="34.68402666666667" lon="137.26141027777777">
<ele>227</ele>
</trkpt>
<trkpt lat="34.68403888888889" lon="137.26146277777778">
<ele>227</ele>
</trkpt>
<trkpt lat="34.68405138888889" lon="137.2615152777778">
<ele>227</ele>
</trkpt>
<trkpt lat="34.684063888888886" lon="137.26156777777777">
<ele>227</ele>
</trkpt>
<trkpt lat="34.68407611111111" lon="137.26162027777778">
<ele>227</ele>
</trkpt>
<trkpt lat="34.684088611111115" lon="137.2616727777778">
<ele>226</ele>
</trkpt>
<trkpt lat="34.68410111111111" lon="137.26172527777777">
<ele>226</ele>
</trkpt>
<trkpt lat="34.684113333333336" lon="137.26177777777778">
<ele>229</ele>
</trkpt>
<trkpt lat="34.68412583333333" lon="137.2618302777778">
<ele>229</ele>
</trkpt>
<trkpt lat="34.68413805555556" lon="137.26188277777777">
<ele>229</ele>
</trkpt>
<trkpt lat="34.68414222222222" lon="137.2618997222222">
<ele>229</ele>
</trkpt>
<trkpt lat="34.68414222222222" lon="137.2618997222222">
<ele>229</ele>
</trkpt>
<trkpt lat="34.68414583333333" lon="137.26195416666667">
<ele>229</ele>
</trkpt>
<trkpt lat="34.684149444444444" lon="137.2620086111111">
<ele>228</ele>
</trkpt>
<trkpt lat="34.684153055555555" lon="137.26206305555556">
<ele>228</ele>
</trkpt>
<trkpt lat="34.684156944444446" lon="137.2621175">
<ele>228</ele>
</trkpt>
<trkpt lat="34.68416055555556" lon="137.26217194444445">
<ele>228</ele>
</trkpt>
<trkpt lat="34.68416416666667" lon="137.26222611111112">
<ele>228</ele>
</trkpt>
<trkpt lat="34.68416777777778" lon="137.26228055555555">
<ele>228</ele>
</trkpt>
<trkpt lat="34.68416861111111" lon="137.26229111111113">
<ele>231</ele>
</trkpt>
<trkpt lat="34.68416861111111" lon="137.26229111111113">
<ele>231</ele>
</trkpt>
<trkpt lat="34.68421166666667" lon="137.2623063888889">
<ele>231</ele>
</trkpt>
<trkpt lat="34.684255" lon="137.26232166666668">
<ele>238</ele>
</trkpt>
<trkpt lat="34.68429805555556" lon="137.26233694444446">
<ele>236</ele>
</trkpt>
<trkpt lat="34.68434111111111" lon="137.26235194444445">
<ele>237</ele>
</trkpt>
<trkpt lat="34.68438444444445" lon="137.26236722222222">
<ele>237</ele>
</trkpt>
<trkpt lat="34.6844275" lon="137.2623825">
<ele>237</ele>
</trkpt>
<trkpt lat="34.684470555555556" lon="137.26239777777778">
<ele>239</ele>
</trkpt>
<trkpt lat="34.68447305555556" lon="137.2623986111111">
<ele>239</ele>
</trkpt>
<trkpt lat="34.68447305555556" lon="137.2623986111111">
<ele>239</ele>
</trkpt>
<trkpt lat="34.68451722222222" lon="137.2624072222222">
<ele>239</ele>
</trkpt>
<trkpt lat="34.68456166666667" lon="137.26241611111112">
<ele>244</ele>
</trkpt>
<trkpt lat="34.68460611111111" lon="137.26242472222222">
<ele>244</ele>
</trkpt>
<trkpt lat="34.68463611111111" lon="137.26243083333333">
<ele>244</ele>
</trkpt>
<trkpt lat="34.68463611111111" lon="137.26243083333333">
<ele>244</ele>
</trkpt>
<trkpt lat="34.68468083333333" lon="137.26242527777777">
<ele>244</ele>
</trkpt>
<trkpt lat="34.68472555555555" lon="137.26241972222223">
<ele>248</ele>
</trkpt>
<trkpt lat="34.68476861111111" lon="137.26241472222222">
<ele>248</ele>
</trkpt>
<trkpt lat="34.68476861111111" lon="137.26241472222222">
<ele>248</ele>
</trkpt>
<trkpt lat="34.68481111111111" lon="137.26239722222223">
<ele>248</ele>
</trkpt>
<trkpt lat="34.68485388888889" lon="137.26238">
<ele>248</ele>
</trkpt>
<trkpt lat="34.68489638888889" lon="137.26236277777778">
<ele>247</ele>
</trkpt>
<trkpt lat="34.68493888888889" lon="137.26234555555556">
<ele>247</ele>
</trkpt>
<trkpt lat="34.68495388888889" lon="137.26233944444445">
<ele>247</ele>
</trkpt>
<trkpt lat="34.68495388888889" lon="137.26233944444445">
<ele>247</ele>
</trkpt>
<trkpt lat="34.68499027777778" lon="137.26230777777778">
<ele>250</ele>
</trkpt>
<trkpt lat="34.685026666666666" lon="137.26227583333332">
<ele>247</ele>
</trkpt>
<trkpt lat="34.68506333333333" lon="137.2622438888889">
<ele>247</ele>
</trkpt>
<trkpt lat="34.68509972222222" lon="137.26221194444443">
<ele>250</ele>
</trkpt>
<trkpt lat="34.68512583333333" lon="137.26218916666667">
<ele>245</ele>
</trkpt>
<trkpt lat="34.68512583333333" lon="137.26218916666667">
<ele>245</ele>
</trkpt>
<trkpt lat="34.68512222222222" lon="137.2621347222222">
<ele>245</ele>
</trkpt>
<trkpt lat="34.68511861111111" lon="137.26208027777778">
<ele>247</ele>
</trkpt>
<trkpt lat="34.685116944444445" lon="137.2620552777778">
<ele>250</ele>
</trkpt>
<trkpt lat="34.685116944444445" lon="137.2620552777778">
<ele>250</ele>
</trkpt>
<trkpt lat="34.6850825" lon="137.26202027777776">
<ele>249</ele>
</trkpt>
<trkpt lat="34.685048055555555" lon="137.26198527777777">
<ele>249</ele>
</trkpt>
<trkpt lat="34.68501361111111" lon="137.26195027777777">
<ele>250</ele>
</trkpt>
<trkpt lat="34.684984722222225" lon="137.26192111111112">
<ele>250</ele>
</trkpt>
<trkpt lat="34.684984722222225" lon="137.26192111111112">
<ele>250</ele>
</trkpt>
<trkpt lat="34.684956944444444" lon="137.26187833333333">
<ele>250</ele>
</trkpt>
<trkpt lat="34.68492888888889" lon="137.26183527777778">
<ele>250</ele>
</trkpt>
<trkpt lat="34.68490111111111" lon="137.2617925">
<ele>250</ele>
</trkpt>
<trkpt lat="34.684873333333336" lon="137.26174972222222">
<ele>250</ele>
</trkpt>
<trkpt lat="34.684845277777775" lon="137.26170694444446">
<ele>250</ele>
</trkpt>
<trkpt lat="34.6848175" lon="137.26166388888888">
<ele>250</ele>
</trkpt>
<trkpt lat="34.68478972222222" lon="137.2616211111111">
<ele>250</ele>
</trkpt>
<trkpt lat="34.684761944444446" lon="137.26157833333335">
<ele>250</ele>
</trkpt>
<trkpt lat="34.684733888888886" lon="137.26153527777777">
<ele>250</ele>
</trkpt>
<trkpt lat="34.684713333333335" lon="137.26150361111112">
<ele>250</ele>
</trkpt>
    </trkseg>
  </trk>
</gpx>