<?xml version="1.0" encoding="UTF-8"?>
<gpx version="1.1"
     creator="KMLtoGPX"
     xmlns="http://www.topografix.com/GPX/1/1">
  <metadata>
    <name>Ryogaike Course</name>
    <desc>両ヶ池コース</desc>
    <bounds minlat="35.09182111111111" minlon="136.48783805555556" maxlat="35.11061888888889" maxlon="136.54536555555555"/>
  </metadata>
  <trk>
    <name>Ryogaike Course</name>
    <trkseg>
<trkpt lat="35.09200888888889" lon="136.54536555555555">
<ele>55</ele>
</trkpt>
<trkpt lat="35.09200555555555" lon="136.54531083333333">
<ele>56</ele>
</trkpt>
<trkpt lat="35.09200194444445" lon="136.54525611111112">
<ele>56</ele>
</trkpt>
<trkpt lat="35.09199861111111" lon="136.5452013888889">
<ele>56</ele>
</trkpt>
<trkpt lat="35.091995" lon="136.54514666666665">
<ele>56</ele>
</trkpt>
<trkpt lat="35.091991666666665" lon="136.54509194444444">
<ele>56</ele>
</trkpt>
<trkpt lat="35.09198833333333" lon="136.54503722222222">
<ele>56</ele>
</trkpt>
<trkpt lat="35.09198472222222" lon="136.5449825">
<ele>56</ele>
</trkpt>
<trkpt lat="35.09198138888889" lon="136.5449277777778">
<ele>56</ele>
</trkpt>
<trkpt lat="35.09197777777778" lon="136.54487305555554">
<ele>56</ele>
</trkpt>
<trkpt lat="35.091974444444446" lon="136.54481833333332">
<ele>56</ele>
</trkpt>
<trkpt lat="35.091971111111114" lon="136.5447636111111">
<ele>57</ele>
</trkpt>
<trkpt lat="35.091968055555554" lon="136.5447147222222">
<ele>57</ele>
</trkpt>
<trkpt lat="35.091968055555554" lon="136.5447147222222">
<ele>57</ele>
</trkpt>
<trkpt lat="35.092012777777775" lon="136.54471222222222">
<ele>57</ele>
</trkpt>
<trkpt lat="35.092057777777775" lon="136.54471">
<ele>57</ele>
</trkpt>
<trkpt lat="35.0921025" lon="136.54470777777777">
<ele>57</ele>
</trkpt>
<trkpt lat="35.0921475" lon="136.54470527777778">
<ele>57</ele>
</trkpt>
<trkpt lat="35.092192222222224" lon="136.54470305555554">
<ele>57</ele>
</trkpt>
<trkpt lat="35.092237222222224" lon="136.54470055555555">
<ele>57</ele>
</trkpt>
<trkpt lat="35.092281944444444" lon="136.54469833333334">
<ele>57</ele>
</trkpt>
<trkpt lat="35.092326944444444" lon="136.5446961111111">
<ele>57</ele>
</trkpt>
<trkpt lat="35.092371944444444" lon="136.54469361111111">
<ele>57</ele>
</trkpt>
<trkpt lat="35.092416666666665" lon="136.54469138888888">
<ele>57</ele>
</trkpt>
<trkpt lat="35.092461666666665" lon="136.54468888888889">
<ele>57</ele>
</trkpt>
<trkpt lat="35.092506388888886" lon="136.54468666666668">
<ele>57</ele>
</trkpt>
<trkpt lat="35.092551388888886" lon="136.54468444444444">
<ele>57</ele>
</trkpt>
<trkpt lat="35.09259611111111" lon="136.54468194444445">
<ele>57</ele>
</trkpt>
<trkpt lat="35.09260972222222" lon="136.54468138888888">
<ele>57</ele>
</trkpt>
<trkpt lat="35.09260972222222" lon="136.54468138888888">
<ele>57</ele>
</trkpt>
<trkpt lat="35.092620833333335" lon="136.54462805555556">
<ele>57</ele>
</trkpt>
<trkpt lat="35.09263166666667" lon="136.54457472222222">
<ele>57</ele>
</trkpt>
<trkpt lat="35.0926425" lon="136.54452138888888">
<ele>57</ele>
</trkpt>
<trkpt lat="35.09265333333333" lon="136.54446833333333">
<ele>57</ele>
</trkpt>
<trkpt lat="35.092664444444445" lon="136.544415">
<ele>57</ele>
</trkpt>
<trkpt lat="35.09267527777778" lon="136.54436166666667">
<ele>57</ele>
</trkpt>
<trkpt lat="35.092686111111114" lon="136.54430861111112">
<ele>58</ele>
</trkpt>
<trkpt lat="35.09269694444444" lon="136.54425527777778">
<ele>58</ele>
</trkpt>
<trkpt lat="35.092707777777775" lon="136.54420194444444">
<ele>58</ele>
</trkpt>
<trkpt lat="35.09271888888889" lon="136.5441486111111">
<ele>58</ele>
</trkpt>
<trkpt lat="35.092729722222224" lon="136.54409555555554">
<ele>58</ele>
</trkpt>
<trkpt lat="35.09274055555556" lon="136.54404222222223">
<ele>58</ele>
</trkpt>
<trkpt lat="35.092751388888885" lon="136.5439888888889">
<ele>58</ele>
</trkpt>
<trkpt lat="35.09276222222222" lon="136.54393583333334">
<ele>58</ele>
</trkpt>
<trkpt lat="35.092773333333334" lon="136.5438825">
<ele>59</ele>
</trkpt>
<trkpt lat="35.09278416666667" lon="136.54382916666665">
<ele>59</ele>
</trkpt>
<trkpt lat="35.0927875" lon="136.54381333333333">
<ele>59</ele>
</trkpt>
<trkpt lat="35.0927875" lon="136.54381333333333">
<ele>59</ele>
</trkpt>
<trkpt lat="35.0928125" lon="136.5437677777778">
<ele>59</ele>
</trkpt>
<trkpt lat="35.09283777777778" lon="136.54372222222221">
<ele>59</ele>
</trkpt>
<trkpt lat="35.092862777777775" lon="136.54367666666667">
<ele>59</ele>
</trkpt>
<trkpt lat="35.092887777777776" lon="136.54363138888888">
<ele>59</ele>
</trkpt>
<trkpt lat="35.092913055555556" lon="136.54358583333334">
<ele>59</ele>
</trkpt>
<trkpt lat="35.09293805555556" lon="136.54354027777777">
<ele>59</ele>
</trkpt>
<trkpt lat="35.09296333333333" lon="136.54349472222222">
<ele>59</ele>
</trkpt>
<trkpt lat="35.09298833333333" lon="136.54344916666668">
<ele>59</ele>
</trkpt>
<trkpt lat="35.09301361111111" lon="136.5434038888889">
<ele>59</ele>
</trkpt>
<trkpt lat="35.09303861111111" lon="136.54335833333334">
<ele>59</ele>
</trkpt>
<trkpt lat="35.09306388888889" lon="136.54331277777777">
<ele>62</ele>
</trkpt>
<trkpt lat="35.093088888888886" lon="136.54326722222223">
<ele>62</ele>
</trkpt>
<trkpt lat="35.093114166666666" lon="136.54322166666665">
<ele>63</ele>
</trkpt>
<trkpt lat="35.09313916666667" lon="136.5431763888889">
<ele>63</ele>
</trkpt>
<trkpt lat="35.093156111111114" lon="136.54314555555555">
<ele>63</ele>
</trkpt>
<trkpt lat="35.093156111111114" lon="136.54314555555555">
<ele>63</ele>
</trkpt>
<trkpt lat="35.09319833333333" lon="136.54312638888888">
<ele>63</ele>
</trkpt>
<trkpt lat="35.09324027777778" lon="136.5431075">
<ele>64</ele>
</trkpt>
<trkpt lat="35.0932825" lon="136.54308833333334">
<ele>64</ele>
</trkpt>
<trkpt lat="35.09332444444444" lon="136.54306916666667">
<ele>64</ele>
</trkpt>
<trkpt lat="35.09336666666667" lon="136.54305">
<ele>63</ele>
</trkpt>
<trkpt lat="35.09340888888889" lon="136.54303083333335">
<ele>63</ele>
</trkpt>
<trkpt lat="35.093450833333335" lon="136.54301194444446">
<ele>61</ele>
</trkpt>
<trkpt lat="35.093493055555555" lon="136.54299277777778">
<ele>62</ele>
</trkpt>
<trkpt lat="35.093535" lon="136.5429736111111">
<ele>62</ele>
</trkpt>
<trkpt lat="35.09357722222222" lon="136.54295444444443">
<ele>60</ele>
</trkpt>
<trkpt lat="35.09361944444444" lon="136.5429352777778">
<ele>60</ele>
</trkpt>
<trkpt lat="35.09363416666667" lon="136.5429286111111">
<ele>60</ele>
</trkpt>
<trkpt lat="35.09363111111111" lon="136.54292194444446">
<ele>60</ele>
</trkpt>
<trkpt lat="35.09357111111111" lon="136.54295888888888">
<ele>60</ele>
</trkpt>
<trkpt lat="35.09337111111111" lon="136.54235888888888">
<ele>62</ele>
</trkpt>
<trkpt lat="35.093338055555556" lon="136.54213388888888">
<ele>65</ele>
</trkpt>
<trkpt lat="35.09323805555555" lon="136.54182111111112">
<ele>68</ele>
</trkpt>
<trkpt lat="35.092888055555555" lon="136.54078388888888">
<ele>75</ele>
</trkpt>
<trkpt lat="35.09274611111111" lon="136.5404211111111">
<ele>78</ele>
</trkpt>
<trkpt lat="35.09259611111111" lon="136.5401588888889">
<ele>78</ele>
</trkpt>
<trkpt lat="35.092413055555554" lon="136.5399211111111">
<ele>77</ele>
</trkpt>
<trkpt lat="35.092213055555554" lon="136.53965888888888">
<ele>77</ele>
</trkpt>
<trkpt lat="35.09218388888889" lon="136.5396088888889">
<ele>77</ele>
</trkpt>
<trkpt lat="35.09218388888889" lon="136.5396088888889">
<ele>77</ele>
</trkpt>
<trkpt lat="35.09211305555556" lon="136.5394838888889">
<ele>78</ele>
</trkpt>
<trkpt lat="35.09204611111111" lon="136.53934611111112">
<ele>78</ele>
</trkpt>
<trkpt lat="35.092013055555555" lon="136.5392461111111">
<ele>79</ele>
</trkpt>
<trkpt lat="35.091988055555554" lon="136.53909611111112">
<ele>80</ele>
</trkpt>
<trkpt lat="35.091971111111114" lon="136.5388211111111">
<ele>80</ele>
</trkpt>
<trkpt lat="35.091971111111114" lon="136.5386711111111">
<ele>81</ele>
</trkpt>
<trkpt lat="35.09202888888889" lon="136.5378838888889">
<ele>81</ele>
</trkpt>
<trkpt lat="35.092063055555556" lon="136.53734694444444">
<ele>81</ele>
</trkpt>
<trkpt lat="35.092103888888886" lon="136.53669694444446">
<ele>81</ele>
</trkpt>
<trkpt lat="35.09215388888889" lon="136.53614694444445">
<ele>81</ele>
</trkpt>
<trkpt lat="35.092286944444446" lon="136.53507194444444">
<ele>83</ele>
</trkpt>
<trkpt lat="35.09237888888889" lon="136.53435805555554">
<ele>83</ele>
</trkpt>
<trkpt lat="35.09237888888889" lon="136.53435694444445">
<ele>83</ele>
</trkpt>
<trkpt lat="35.092438055555554" lon="136.53389694444445">
<ele>83</ele>
</trkpt>
<trkpt lat="35.09250388888889" lon="136.53322194444445">
<ele>84</ele>
</trkpt>
<trkpt lat="35.092528888888886" lon="136.53287194444445">
<ele>84</ele>
</trkpt>
<trkpt lat="35.09253694444445" lon="136.53246">
<ele>84</ele>
</trkpt>
<trkpt lat="35.09256194444445" lon="136.53137194444443">
<ele>85</ele>
</trkpt>
<trkpt lat="35.09260388888889" lon="136.52996">
<ele>89</ele>
</trkpt>
<trkpt lat="35.092661944444444" lon="136.52946">
<ele>88</ele>
</trkpt>
<trkpt lat="35.09270388888889" lon="136.52882305555556">
<ele>88</ele>
</trkpt>
<trkpt lat="35.09272888888889" lon="136.52834694444445">
<ele>89</ele>
</trkpt>
<trkpt lat="35.09277111111111" lon="136.52791">
<ele>89</ele>
</trkpt>
<trkpt lat="35.092798055555555" lon="136.5276838888889">
<ele>89</ele>
</trkpt>
<trkpt lat="35.092798055555555" lon="136.5276838888889">
<ele>89</ele>
</trkpt>
<trkpt lat="35.092821111111114" lon="136.52749805555555">
<ele>89</ele>
</trkpt>
<trkpt lat="35.09287111111111" lon="136.52717194444443">
<ele>90</ele>
</trkpt>
<trkpt lat="35.09297888888889" lon="136.526585">
<ele>90</ele>
</trkpt>
<trkpt lat="35.09307111111111" lon="136.52612305555556">
<ele>90</ele>
</trkpt>
<trkpt lat="35.09339611111111" lon="136.524835">
<ele>92</ele>
</trkpt>
<trkpt lat="35.09348694444444" lon="136.52447305555555">
<ele>92</ele>
</trkpt>
<trkpt lat="35.09359611111111" lon="136.52402305555555">
<ele>92</ele>
</trkpt>
<trkpt lat="35.09361194444445" lon="136.52394805555556">
<ele>92</ele>
</trkpt>
<trkpt lat="35.09375388888889" lon="136.52339805555556">
<ele>92</ele>
</trkpt>
<trkpt lat="35.09377111111111" lon="136.5232611111111">
<ele>92</ele>
</trkpt>
<trkpt lat="35.09377888888889" lon="136.52314805555557">
<ele>92</ele>
</trkpt>
<trkpt lat="35.09377388888889" lon="136.5230488888889">
<ele>92</ele>
</trkpt>
<trkpt lat="35.09377388888889" lon="136.5230488888889">
<ele>92</ele>
</trkpt>
<trkpt lat="35.09377111111111" lon="136.52297305555555">
<ele>93</ele>
</trkpt>
<trkpt lat="35.09368694444444" lon="136.52237305555556">
<ele>93</ele>
</trkpt>
<trkpt lat="35.09361194444445" lon="136.52187305555555">
<ele>94</ele>
</trkpt>
<trkpt lat="35.09357888888889" lon="136.52142305555554">
<ele>94</ele>
</trkpt>
<trkpt lat="35.093561944444446" lon="136.52112305555556">
<ele>95</ele>
</trkpt>
<trkpt lat="35.09354611111111" lon="136.52026111111113">
<ele>95</ele>
</trkpt>
<trkpt lat="35.09355388888889" lon="136.5194361111111">
<ele>96</ele>
</trkpt>
<trkpt lat="35.09355388888889" lon="136.5193361111111">
<ele>96</ele>
</trkpt>
<trkpt lat="35.093575" lon="136.5191438888889">
<ele>96</ele>
</trkpt>
<trkpt lat="35.093575" lon="136.5191438888889">
<ele>96</ele>
</trkpt>
<trkpt lat="35.093603888888886" lon="136.5188861111111">
<ele>97</ele>
</trkpt>
<trkpt lat="35.09363694444444" lon="136.51849805555557">
<ele>97</ele>
</trkpt>
<trkpt lat="35.09364611111111" lon="136.51839805555556">
<ele>97</ele>
</trkpt>
<trkpt lat="35.093695" lon="136.51797305555556">
<ele>98</ele>
</trkpt>
<trkpt lat="35.09370388888889" lon="136.51792305555554">
<ele>98</ele>
</trkpt>
<trkpt lat="35.093761944444445" lon="136.51736111111111">
<ele>98</ele>
</trkpt>
<trkpt lat="35.09381194444445" lon="136.51676111111112">
<ele>99</ele>
</trkpt>
<trkpt lat="35.09387" lon="136.5157988888889">
<ele>101</ele>
</trkpt>
<trkpt lat="35.09392888888889" lon="136.5152488888889">
<ele>101</ele>
</trkpt>
<trkpt lat="35.094045" lon="136.51449888888888">
<ele>102</ele>
</trkpt>
<trkpt lat="35.09411194444444" lon="136.51426111111113">
<ele>102</ele>
</trkpt>
<trkpt lat="35.094163888888886" lon="136.51406111111112">
<ele>102</ele>
</trkpt>
<trkpt lat="35.094163888888886" lon="136.51406111111112">
<ele>102</ele>
</trkpt>
<trkpt lat="35.094186944444445" lon="136.5139738888889">
<ele>103</ele>
</trkpt>
<trkpt lat="35.09452" lon="136.51303611111112">
<ele>104</ele>
</trkpt>
<trkpt lat="35.094745" lon="136.5124238888889">
<ele>105</ele>
</trkpt>
<trkpt lat="35.09492" lon="136.51188611111112">
<ele>106</ele>
</trkpt>
<trkpt lat="35.09558694444444" lon="136.50917388888888">
<ele>108</ele>
</trkpt>
<trkpt lat="35.09574888888889" lon="136.50846388888888">
<ele>111</ele>
</trkpt>
<trkpt lat="35.09574888888889" lon="136.50846388888888">
<ele>111</ele>
</trkpt>
<trkpt lat="35.095795" lon="136.50826194444446">
<ele>112</ele>
</trkpt>
<trkpt lat="35.095845" lon="136.50803694444446">
<ele>113</ele>
</trkpt>
<trkpt lat="35.096195" lon="136.50657388888888">
<ele>114</ele>
</trkpt>
<trkpt lat="35.09623611111111" lon="136.50638694444444">
<ele>114</ele>
</trkpt>
<trkpt lat="35.096428055555556" lon="136.50556194444445">
<ele>115</ele>
</trkpt>
<trkpt lat="35.09645305555556" lon="136.50541194444443">
<ele>116</ele>
</trkpt>
<trkpt lat="35.09650305555556" lon="136.50465">
<ele>117</ele>
</trkpt>
<trkpt lat="35.096556944444444" lon="136.50467194444445">
<ele>116</ele>
</trkpt>
<trkpt lat="35.096556944444444" lon="136.50467194444445">
<ele>116</ele>
</trkpt>
<trkpt lat="35.09701111111111" lon="136.50486194444446">
<ele>116</ele>
</trkpt>
<trkpt lat="35.09748611111111" lon="136.50505">
<ele>113</ele>
</trkpt>
<trkpt lat="35.09797" lon="136.5052488888889">
<ele>110</ele>
</trkpt>
<trkpt lat="35.09882805555556" lon="136.50561194444444">
<ele>105</ele>
</trkpt>
<trkpt lat="35.099403055555555" lon="136.5058488888889">
<ele>105</ele>
</trkpt>
<trkpt lat="35.09993" lon="136.50605611111112">
<ele>106</ele>
</trkpt>
<trkpt lat="35.09993" lon="136.50605611111112">
<ele>106</ele>
</trkpt>
<trkpt lat="35.09997805555555" lon="136.5060738888889">
<ele>107</ele>
</trkpt>
<trkpt lat="35.100028055555555" lon="136.50578694444445">
<ele>109</ele>
</trkpt>
<trkpt lat="35.10016111111111" lon="136.50471194444444">
<ele>111</ele>
</trkpt>
<trkpt lat="35.10026888888889" lon="136.50423694444444">
<ele>111</ele>
</trkpt>
<trkpt lat="35.10046111111111" lon="136.50366194444445">
<ele>115</ele>
</trkpt>
<trkpt lat="35.10076888888889" lon="136.5028">
<ele>115</ele>
</trkpt>
<trkpt lat="35.10091888888889" lon="136.502275">
<ele>116</ele>
</trkpt>
<trkpt lat="35.10101111111111" lon="136.50186194444444">
<ele>114</ele>
</trkpt>
<trkpt lat="35.10105194444444" lon="136.5016">
<ele>114</ele>
</trkpt>
<trkpt lat="35.10108611111111" lon="136.50128694444444">
<ele>114</ele>
</trkpt>
<trkpt lat="35.10113888888889" lon="136.50044805555555">
<ele>115</ele>
</trkpt>
<trkpt lat="35.10113888888889" lon="136.50044805555555">
<ele>115</ele>
</trkpt>
<trkpt lat="35.10118611111111" lon="136.4997">
<ele>117</ele>
</trkpt>
<trkpt lat="35.10121888888889" lon="136.499225">
<ele>117</ele>
</trkpt>
<trkpt lat="35.10128611111111" lon="136.49826305555555">
<ele>119</ele>
</trkpt>
<trkpt lat="35.10133611111111" lon="136.49781305555555">
<ele>125</ele>
</trkpt>
<trkpt lat="35.10144388888889" lon="136.497425">
<ele>128</ele>
</trkpt>
<trkpt lat="35.10158611111111" lon="136.49708805555557">
<ele>135</ele>
</trkpt>
<trkpt lat="35.10171888888889" lon="136.49676305555556">
<ele>140</ele>
</trkpt>
<trkpt lat="35.10201888888889" lon="136.49613805555555">
<ele>142</ele>
</trkpt>
<trkpt lat="35.10219388888889" lon="136.49566305555555">
<ele>144</ele>
</trkpt>
<trkpt lat="35.10238611111111" lon="136.49515">
<ele>145</ele>
</trkpt>
<trkpt lat="35.10251111111111" lon="136.49468805555554">
<ele>148</ele>
</trkpt>
<trkpt lat="35.10256888888889" lon="136.494375">
<ele>149</ele>
</trkpt>
<trkpt lat="35.10258611111111" lon="136.49420805555556">
<ele>149</ele>
</trkpt>
<trkpt lat="35.10258611111111" lon="136.49420805555556">
<ele>149</ele>
</trkpt>
<trkpt lat="35.10261888888889" lon="136.49387611111112">
<ele>151</ele>
</trkpt>
<trkpt lat="35.10266111111111" lon="136.4930011111111">
<ele>152</ele>
</trkpt>
<trkpt lat="35.10267694444445" lon="136.4925511111111">
<ele>156</ele>
</trkpt>
<trkpt lat="35.102693888888886" lon="136.49213111111112">
<ele>158</ele>
</trkpt>
<trkpt lat="35.102693888888886" lon="136.49213111111112">
<ele>158</ele>
</trkpt>
<trkpt lat="35.10271888888889" lon="136.49150111111112">
<ele>161</ele>
</trkpt>
<trkpt lat="35.10271111111111" lon="136.49127611111112">
<ele>162</ele>
</trkpt>
<trkpt lat="35.102693888888886" lon="136.49103805555555">
<ele>163</ele>
</trkpt>
<trkpt lat="35.102668888888886" lon="136.49093805555555">
<ele>164</ele>
</trkpt>
<trkpt lat="35.10261888888889" lon="136.49066305555556">
<ele>165</ele>
</trkpt>
<trkpt lat="35.10241111111111" lon="136.48954694444444">
<ele>169</ele>
</trkpt>
<trkpt lat="35.10241111111111" lon="136.48954694444444">
<ele>169</ele>
</trkpt>
<trkpt lat="35.10234388888889" lon="136.48918805555556">
<ele>171</ele>
</trkpt>
<trkpt lat="35.10229388888889" lon="136.48888805555555">
<ele>171</ele>
</trkpt>
<trkpt lat="35.10231111111111" lon="136.48866305555555">
<ele>172</ele>
</trkpt>
<trkpt lat="35.10238611111111" lon="136.48843805555555">
<ele>174</ele>
</trkpt>
<trkpt lat="35.10255111111111" lon="136.48813305555555">
<ele>175</ele>
</trkpt>
<trkpt lat="35.10255111111111" lon="136.48813305555555">
<ele>175</ele>
</trkpt>
<trkpt lat="35.10271111111111" lon="136.48783805555556">
<ele>177</ele>
</trkpt>
<trkpt lat="35.102715" lon="136.48784194444445">
<ele>177</ele>
</trkpt>
<trkpt lat="35.102715" lon="136.48784194444445">
<ele>177</ele>
</trkpt>
<trkpt lat="35.10276888888889" lon="136.48788805555554">
<ele>177</ele>
</trkpt>
<trkpt lat="35.10332694444445" lon="136.48831305555555">
<ele>173</ele>
</trkpt>
<trkpt lat="35.10336888888889" lon="136.48835111111111">
<ele>173</ele>
</trkpt>
<trkpt lat="35.10358611111111" lon="136.4884761111111">
<ele>173</ele>
</trkpt>
<trkpt lat="35.10381" lon="136.4886011111111">
<ele>173</ele>
</trkpt>
<trkpt lat="35.10404388888889" lon="136.48867611111112">
<ele>173</ele>
</trkpt>
<trkpt lat="35.10465194444444" lon="136.48883805555556">
<ele>173</ele>
</trkpt>
<trkpt lat="35.10531888888889" lon="136.48903805555557">
<ele>172</ele>
</trkpt>
<trkpt lat="35.10541888888889" lon="136.48906305555556">
<ele>172</ele>
</trkpt>
<trkpt lat="35.10604305555555" lon="136.48923888888888">
<ele>172</ele>
</trkpt>
<trkpt lat="35.10604305555555" lon="136.48923888888888">
<ele>172</ele>
</trkpt>
<trkpt lat="35.10612694444445" lon="136.48926305555557">
<ele>172</ele>
</trkpt>
<trkpt lat="35.10641888888889" lon="136.48935111111112">
<ele>172</ele>
</trkpt>
<trkpt lat="35.106726944444446" lon="136.4895261111111">
<ele>170</ele>
</trkpt>
<trkpt lat="35.106926944444446" lon="136.48968805555555">
<ele>168</ele>
</trkpt>
<trkpt lat="35.107135" lon="136.48992611111112">
<ele>167</ele>
</trkpt>
<trkpt lat="35.107285" lon="136.49012611111112">
<ele>166</ele>
</trkpt>
<trkpt lat="35.10741" lon="136.49037611111112">
<ele>165</ele>
</trkpt>
<trkpt lat="35.10742694444444" lon="136.49041305555556">
<ele>165</ele>
</trkpt>
<trkpt lat="35.10765194444444" lon="136.49103805555555">
<ele>161</ele>
</trkpt>
<trkpt lat="35.10802694444445" lon="136.49211305555556">
<ele>156</ele>
</trkpt>
<trkpt lat="35.10846" lon="136.493375">
<ele>150</ele>
</trkpt>
<trkpt lat="35.10872694444444" lon="136.494275">
<ele>143</ele>
</trkpt>
<trkpt lat="35.108868055555554" lon="136.49475">
<ele>143</ele>
</trkpt>
<trkpt lat="35.10892694444444" lon="136.49493694444445">
<ele>142</ele>
</trkpt>
<trkpt lat="35.109118055555555" lon="136.49558694444445">
<ele>138</ele>
</trkpt>
<trkpt lat="35.10920388888889" lon="136.49590111111112">
<ele>137</ele>
</trkpt>
<trkpt lat="35.10920388888889" lon="136.49590111111112">
<ele>137</ele>
</trkpt>
<trkpt lat="35.10932694444445" lon="136.49635">
<ele>135</ele>
</trkpt>
<trkpt lat="35.10940194444444" lon="136.49668805555555">
<ele>134</ele>
</trkpt>
<trkpt lat="35.109493055555554" lon="136.49708694444445">
<ele>133</ele>
</trkpt>
<trkpt lat="35.109568055555556" lon="136.497575">
<ele>131</ele>
</trkpt>
<trkpt lat="35.10971" lon="136.49855">
<ele>128</ele>
</trkpt>
<trkpt lat="35.10979388888889" lon="136.49943694444445">
<ele>126</ele>
</trkpt>
<trkpt lat="35.109835" lon="136.50031194444443">
<ele>124</ele>
</trkpt>
<trkpt lat="35.10991" lon="136.50088694444443">
<ele>122</ele>
</trkpt>
<trkpt lat="35.11001" lon="136.50137388888888">
<ele>122</ele>
</trkpt>
<trkpt lat="35.11016" lon="136.50188694444444">
<ele>121</ele>
</trkpt>
<trkpt lat="35.11031" lon="136.50241194444445">
<ele>120</ele>
</trkpt>
<trkpt lat="35.11036" lon="136.50258694444443">
<ele>120</ele>
</trkpt>
<trkpt lat="35.11046888888889" lon="136.50296194444445">
<ele>119</ele>
</trkpt>
<trkpt lat="35.110535" lon="136.50326194444443">
<ele>118</ele>
</trkpt>
<trkpt lat="35.11058111111111" lon="136.50362805555557">
<ele>116</ele>
</trkpt>
<trkpt lat="35.11058111111111" lon="136.50362805555557">
<ele>116</ele>
</trkpt>
<trkpt lat="35.110585" lon="136.50366194444445">
<ele>116</ele>
</trkpt>
<trkpt lat="35.11061888888889" lon="136.50416194444443">
<ele>114</ele>
</trkpt>
<trkpt lat="35.110576944444446" lon="136.50531194444446">
<ele>113</ele>
</trkpt>
<trkpt lat="35.110551944444445" lon="136.50653694444443">
<ele>111</ele>
</trkpt>
<trkpt lat="35.110535" lon="136.50696194444444">
<ele>110</ele>
</trkpt>
<trkpt lat="35.11049388888889" lon="136.5076488888889">
<ele>109</ele>
</trkpt>
<trkpt lat="35.11046888888889" lon="136.5084488888889">
<ele>108</ele>
</trkpt>
<trkpt lat="35.11041888888889" lon="136.5094611111111">
<ele>107</ele>
</trkpt>
<trkpt lat="35.110393888888886" lon="136.51007388888888">
<ele>106</ele>
</trkpt>
<trkpt lat="35.110346944444444" lon="136.51131194444446">
<ele>104</ele>
</trkpt>
<trkpt lat="35.110346944444444" lon="136.51131194444446">
<ele>104</ele>
</trkpt>
<trkpt lat="35.110326944444445" lon="136.5118238888889">
<ele>103</ele>
</trkpt>
<trkpt lat="35.11026888888889" lon="136.51293611111112">
<ele>102</ele>
</trkpt>
<trkpt lat="35.11022694444444" lon="136.5133238888889">
<ele>102</ele>
</trkpt>
<trkpt lat="35.110151944444446" lon="136.5138611111111">
<ele>101</ele>
</trkpt>
<trkpt lat="35.11002694444444" lon="136.51451111111112">
<ele>101</ele>
</trkpt>
<trkpt lat="35.10986111111111" lon="136.51518611111112">
<ele>100</ele>
</trkpt>
<trkpt lat="35.10973611111111" lon="136.51562305555555">
<ele>100</ele>
</trkpt>
<trkpt lat="35.10949388888889" lon="136.51632305555555">
<ele>100</ele>
</trkpt>
<trkpt lat="35.10921111111111" lon="136.517125">
<ele>100</ele>
</trkpt>
<trkpt lat="35.10921111111111" lon="136.517125">
<ele>100</ele>
</trkpt>
<trkpt lat="35.108961111111114" lon="136.5178361111111">
<ele>100</ele>
</trkpt>
<trkpt lat="35.108851944444446" lon="136.51822305555555">
<ele>99</ele>
</trkpt>
<trkpt lat="35.10879388888889" lon="136.5185611111111">
<ele>99</ele>
</trkpt>
<trkpt lat="35.108761111111114" lon="136.51882305555554">
<ele>99</ele>
</trkpt>
<trkpt lat="35.10874388888889" lon="136.51934805555555">
<ele>98</ele>
</trkpt>
<trkpt lat="35.108761111111114" lon="136.5196611111111">
<ele>98</ele>
</trkpt>
<trkpt lat="35.109028055555555" lon="136.52188611111112">
<ele>96</ele>
</trkpt>
<trkpt lat="35.10903611111111" lon="136.5220611111111">
<ele>96</ele>
</trkpt>
<trkpt lat="35.10904388888889" lon="136.522585">
<ele>95</ele>
</trkpt>
<trkpt lat="35.10901111111111" lon="136.522935">
<ele>96</ele>
</trkpt>
<trkpt lat="35.10895305555555" lon="136.5233538888889">
<ele>95</ele>
</trkpt>
<trkpt lat="35.10895305555555" lon="136.5233538888889">
<ele>95</ele>
</trkpt>
<trkpt lat="35.10888611111111" lon="136.523835">
<ele>95</ele>
</trkpt>
<trkpt lat="35.10872805555555" lon="136.52496">
<ele>95</ele>
</trkpt>
<trkpt lat="35.10863611111111" lon="136.52561">
<ele>95</ele>
</trkpt>
<trkpt lat="35.108578055555554" lon="136.526035">
<ele>95</ele>
</trkpt>
<trkpt lat="35.10848611111111" lon="136.52669805555556">
<ele>95</ele>
</trkpt>
<trkpt lat="35.108378055555555" lon="136.52751">
<ele>95</ele>
</trkpt>
<trkpt lat="35.10827805555556" lon="136.528035">
<ele>94</ele>
</trkpt>
<trkpt lat="35.108111111111114" lon="136.52882305555556">
<ele>92</ele>
</trkpt>
<trkpt lat="35.107995" lon="136.52927194444445">
<ele>92</ele>
</trkpt>
<trkpt lat="35.107928055555554" lon="136.52956">
<ele>92</ele>
</trkpt>
<trkpt lat="35.107895" lon="136.529735">
<ele>92</ele>
</trkpt>
<trkpt lat="35.10782805555556" lon="136.529985">
<ele>92</ele>
</trkpt>
<trkpt lat="35.107711944444446" lon="136.53046">
<ele>90</ele>
</trkpt>
<trkpt lat="35.10769388888889" lon="136.53053805555555">
<ele>90</ele>
</trkpt>
<trkpt lat="35.10769388888889" lon="136.53053805555555">
<ele>90</ele>
</trkpt>
<trkpt lat="35.107645" lon="136.53076">
<ele>90</ele>
</trkpt>
<trkpt lat="35.10762" lon="136.53099694444444">
<ele>89</ele>
</trkpt>
<trkpt lat="35.10761194444444" lon="136.53117194444445">
<ele>88</ele>
</trkpt>
<trkpt lat="35.10760305555556" lon="136.53132194444444">
<ele>88</ele>
</trkpt>
<trkpt lat="35.10760305555556" lon="136.53154694444444">
<ele>88</ele>
</trkpt>
<trkpt lat="35.10767" lon="136.53351">
<ele>74</ele>
</trkpt>
<trkpt lat="35.107703055555554" lon="136.5339588888889">
<ele>73</ele>
</trkpt>
<trkpt lat="35.10773694444445" lon="136.53423388888888">
<ele>71</ele>
</trkpt>
<trkpt lat="35.10780305555556" lon="136.5345338888889">
<ele>70</ele>
</trkpt>
<trkpt lat="35.107911944444446" lon="136.5349338888889">
<ele>70</ele>
</trkpt>
<trkpt lat="35.107978055555556" lon="136.53509694444443">
<ele>70</ele>
</trkpt>
<trkpt lat="35.10810305555555" lon="136.53535888888888">
<ele>70</ele>
</trkpt>
<trkpt lat="35.10823694444444" lon="136.53559694444445">
<ele>70</ele>
</trkpt>
<trkpt lat="35.108336944444446" lon="136.53574694444444">
<ele>70</ele>
</trkpt>
<trkpt lat="35.10857388888889" lon="136.53605305555556">
<ele>70</ele>
</trkpt>
<trkpt lat="35.10857388888889" lon="136.53605305555556">
<ele>70</ele>
</trkpt>
<trkpt lat="35.108578055555554" lon="136.5360588888889">
<ele>70</ele>
</trkpt>
<trkpt lat="35.10937" lon="136.53683388888888">
<ele>70</ele>
</trkpt>
<trkpt lat="35.109478055555556" lon="136.53693388888888">
<ele>70</ele>
</trkpt>
<trkpt lat="35.109811944444445" lon="136.53724694444443">
<ele>70</ele>
</trkpt>
<trkpt lat="35.10996194444444" lon="136.5374338888889">
<ele>70</ele>
</trkpt>
<trkpt lat="35.11000305555555" lon="136.53750888888888">
<ele>70</ele>
</trkpt>
<trkpt lat="35.110061944444446" lon="136.53759694444443">
<ele>70</ele>
</trkpt>
<trkpt lat="35.110211944444444" lon="136.53799694444444">
<ele>69</ele>
</trkpt>
<trkpt lat="35.11027" lon="136.53828388888888">
<ele>67</ele>
</trkpt>
<trkpt lat="35.110326111111114" lon="136.53873805555557">
<ele>65</ele>
</trkpt>
<trkpt lat="35.110326111111114" lon="136.53873805555557">
<ele>65</ele>
</trkpt>
<trkpt lat="35.11033694444444" lon="136.53882194444444">
<ele>64</ele>
</trkpt>
<trkpt lat="35.110061944444446" lon="136.53877194444445">
<ele>66</ele>
</trkpt>
<trkpt lat="35.109811944444445" lon="136.53877194444445">
<ele>68</ele>
</trkpt>
<trkpt lat="35.10902" lon="136.53874694444445">
<ele>70</ele>
</trkpt>
<trkpt lat="35.10872805555555" lon="136.53873388888888">
<ele>69</ele>
</trkpt>
<trkpt lat="35.10858694444445" lon="136.53873">
<ele>69</ele>
</trkpt>
<trkpt lat="35.10858694444445" lon="136.53873">
<ele>69</ele>
</trkpt>
<trkpt lat="35.10827" lon="136.53872194444443">
<ele>68</ele>
</trkpt>
<trkpt lat="35.107545" lon="136.53869694444444">
<ele>68</ele>
</trkpt>
<trkpt lat="35.10740388888889" lon="136.53872194444443">
<ele>68</ele>
</trkpt>
<trkpt lat="35.10727" lon="136.53879694444444">
<ele>68</ele>
</trkpt>
<trkpt lat="35.107235" lon="136.538835">
<ele>68</ele>
</trkpt>
<trkpt lat="35.107235" lon="136.538835">
<ele>68</ele>
</trkpt>
<trkpt lat="35.10717888888889" lon="136.53889694444445">
<ele>68</ele>
</trkpt>
<trkpt lat="35.107045" lon="136.5388338888889">
<ele>69</ele>
</trkpt>
<trkpt lat="35.10677" lon="136.53873388888888">
<ele>70</ele>
</trkpt>
<trkpt lat="35.10666194444445" lon="136.53869694444444">
<ele>70</ele>
</trkpt>
<trkpt lat="35.10606194444444" lon="136.53844694444444">
<ele>70</ele>
</trkpt>
<trkpt lat="35.10586194444444" lon="136.53837194444444">
<ele>70</ele>
</trkpt>
<trkpt lat="35.10565888888889" lon="136.53834305555554">
<ele>70</ele>
</trkpt>
<trkpt lat="35.10565888888889" lon="136.53834305555554">
<ele>70</ele>
</trkpt>
<trkpt lat="35.105595" lon="136.5383338888889">
<ele>70</ele>
</trkpt>
<trkpt lat="35.10497888888889" lon="136.53818388888888">
<ele>70</ele>
</trkpt>
<trkpt lat="35.10481194444444" lon="136.53819694444445">
<ele>70</ele>
</trkpt>
<trkpt lat="35.10440388888889" lon="136.53830888888888">
<ele>70</ele>
</trkpt>
<trkpt lat="35.104095" lon="136.53840888888888">
<ele>70</ele>
</trkpt>
<trkpt lat="35.103975" lon="136.538445">
<ele>69</ele>
</trkpt>
<trkpt lat="35.103975" lon="136.538445">
<ele>69</ele>
</trkpt>
<trkpt lat="35.10388694444445" lon="136.53847194444444">
<ele>69</ele>
</trkpt>
<trkpt lat="35.10377888888889" lon="136.53853388888888">
<ele>69</ele>
</trkpt>
<trkpt lat="35.103645" lon="136.53864694444445">
<ele>69</ele>
</trkpt>
<trkpt lat="35.10357888888889" lon="136.53877194444445">
<ele>69</ele>
</trkpt>
<trkpt lat="35.10353694444444" lon="136.5389088888889">
<ele>68</ele>
</trkpt>
<trkpt lat="35.10348694444444" lon="136.53920888888888">
<ele>67</ele>
</trkpt>
<trkpt lat="35.10346194444445" lon="136.53930888888888">
<ele>67</ele>
</trkpt>
<trkpt lat="35.103386944444445" lon="136.5394711111111">
<ele>66</ele>
</trkpt>
<trkpt lat="35.10320388888889" lon="136.53964611111113">
<ele>66</ele>
</trkpt>
<trkpt lat="35.10297111111111" lon="136.5397338888889">
<ele>65</ele>
</trkpt>
<trkpt lat="35.102786944444446" lon="136.5399711111111">
<ele>64</ele>
</trkpt>
<trkpt lat="35.10269611111111" lon="136.5400588888889">
<ele>64</ele>
</trkpt>
<trkpt lat="35.10258694444445" lon="136.54010888888888">
<ele>64</ele>
</trkpt>
<trkpt lat="35.10207888888889" lon="136.5401838888889">
<ele>65</ele>
</trkpt>
<trkpt lat="35.10193888888889" lon="136.54021194444445">
<ele>65</ele>
</trkpt>
<trkpt lat="35.10193888888889" lon="136.54021194444445">
<ele>65</ele>
</trkpt>
<trkpt lat="35.10145388888889" lon="136.5403088888889">
<ele>66</ele>
</trkpt>
<trkpt lat="35.10134611111111" lon="136.54035888888887">
<ele>66</ele>
</trkpt>
<trkpt lat="35.10125388888889" lon="136.54043388888888">
<ele>66</ele>
</trkpt>
<trkpt lat="35.10102111111111" lon="136.5408711111111">
<ele>66</ele>
</trkpt>
<trkpt lat="35.10087111111111" lon="136.5410588888889">
<ele>66</ele>
</trkpt>
<trkpt lat="35.10068694444445" lon="136.5409838888889">
<ele>67</ele>
</trkpt>
<trkpt lat="35.10047111111111" lon="136.5409338888889">
<ele>67</ele>
</trkpt>
<trkpt lat="35.09990388888889" lon="136.54092111111112">
<ele>66</ele>
</trkpt>
<trkpt lat="35.09981194444445" lon="136.54092111111112">
<ele>66</ele>
</trkpt>
<trkpt lat="35.09974611111111" lon="136.54092111111112">
<ele>65</ele>
</trkpt>
<trkpt lat="35.09963611111111" lon="136.54091888888888">
<ele>66</ele>
</trkpt>
<trkpt lat="35.09963611111111" lon="136.54091888888888">
<ele>66</ele>
</trkpt>
<trkpt lat="35.098753888888886" lon="136.54089611111112">
<ele>68</ele>
</trkpt>
<trkpt lat="35.098238055555555" lon="136.54088388888889">
<ele>68</ele>
</trkpt>
<trkpt lat="35.09817888888889" lon="136.5408711111111">
<ele>68</ele>
</trkpt>
<trkpt lat="35.09771305555556" lon="136.5408711111111">
<ele>65</ele>
</trkpt>
<trkpt lat="35.09757888888889" lon="136.5408711111111">
<ele>64</ele>
</trkpt>
<trkpt lat="35.09746194444445" lon="136.54090888888888">
<ele>63</ele>
</trkpt>
<trkpt lat="35.097408055555555" lon="136.540935">
<ele>63</ele>
</trkpt>
<trkpt lat="35.097408055555555" lon="136.540935">
<ele>63</ele>
</trkpt>
<trkpt lat="35.09677111111111" lon="136.54124611111112">
<ele>60</ele>
</trkpt>
<trkpt lat="35.095863055555554" lon="136.54172111111112">
<ele>59</ele>
</trkpt>
<trkpt lat="35.09532111111111" lon="136.5420088888889">
<ele>57</ele>
</trkpt>
<trkpt lat="35.095196111111115" lon="136.5420711111111">
<ele>57</ele>
</trkpt>
<trkpt lat="35.09449611111111" lon="136.5424461111111">
<ele>58</ele>
</trkpt>
<trkpt lat="35.094436944444446" lon="136.54248388888888">
<ele>58</ele>
</trkpt>
<trkpt lat="35.09417111111111" lon="136.54262111111112">
<ele>58</ele>
</trkpt>
<trkpt lat="35.094121111111114" lon="136.5426461111111">
<ele>58</ele>
</trkpt>
<trkpt lat="35.09381611111111" lon="136.54281194444445">
<ele>59</ele>
</trkpt>
<trkpt lat="35.09381611111111" lon="136.54281194444445">
<ele>59</ele>
</trkpt>
<trkpt lat="35.09375388888889" lon="136.54284611111112">
<ele>59</ele>
</trkpt>
<trkpt lat="35.09357111111111" lon="136.54295888888888">
<ele>60</ele>
</trkpt>
<trkpt lat="35.09348111111111" lon="136.54301">
<ele>61</ele>
</trkpt>
<trkpt lat="35.09348111111111" lon="136.54301">
<ele>61</ele>
</trkpt>
<trkpt lat="35.09335388888889" lon="136.5430838888889">
<ele>63</ele>
</trkpt>
<trkpt lat="35.09314611111111" lon="136.5431461111111">
<ele>63</ele>
</trkpt>
<trkpt lat="35.09309611111111" lon="136.54329611111112">
<ele>62</ele>
</trkpt>
<trkpt lat="35.09303611111111" lon="136.5433988888889">
<ele>61</ele>
</trkpt>
<trkpt lat="35.09303611111111" lon="136.5433988888889">
<ele>61</ele>
</trkpt>
<trkpt lat="35.09287111111111" lon="136.5436838888889">
<ele>59</ele>
</trkpt>
<trkpt lat="35.092753888888886" lon="136.54395888888888">
<ele>58</ele>
</trkpt>
<trkpt lat="35.092641111111114" lon="136.54431805555555">
<ele>58</ele>
</trkpt>
<trkpt lat="35.092641111111114" lon="136.54431805555555">
<ele>58</ele>
</trkpt>
<trkpt lat="35.09253805555556" lon="136.54464611111112">
<ele>57</ele>
</trkpt>
<trkpt lat="35.09193805555555" lon="136.54470805555556">
<ele>57</ele>
</trkpt>
<trkpt lat="35.09182111111111" lon="136.54472194444443">
<ele>56</ele>
</trkpt>
    </trkseg>
  </trk>
</gpx>