<?xml version="1.0" encoding="UTF-8"?>
<gpx version="1.1"
     creator="KMLtoGPX"
     xmlns="http://www.topografix.com/GPX/1/1">
  <metadata>
    <name>51 Route that runs through hilly terrain and the beginning of the Kanto Plain</name>
    <desc>51 丘陵地と関東平野の始まりを走るルート</desc>
    <time>2025-05-02T08:11:59.371898Z</time>
    <bounds minlat="35.97016388888889" minlon="139.33204694444444" maxlat="36.00276111111111" maxlon="139.36654805555557"/>
  </metadata>
  <trk>
    <name>51 Route that runs through hilly terrain and the beginning of the Kanto Plain</name>
    <trkseg>
<trkpt lat="35.989736111111114" lon="139.3399388888889">
<ele>58</ele>
</trkpt>
<trkpt lat="35.988686944444446" lon="139.33854694444443">
<ele>60</ele>
</trkpt>
<trkpt lat="35.98812" lon="139.337785">
<ele>54</ele>
</trkpt>
<trkpt lat="35.987995" lon="139.33762194444444">
<ele>54</ele>
</trkpt>
<trkpt lat="35.98746194444445" lon="139.33691">
<ele>48</ele>
</trkpt>
<trkpt lat="35.98647" lon="139.335585">
<ele>39</ele>
</trkpt>
<trkpt lat="35.986336944444446" lon="139.33541">
<ele>39</ele>
</trkpt>
<trkpt lat="35.98625388888889" lon="139.33527194444446">
<ele>43</ele>
</trkpt>
<trkpt lat="35.986061944444444" lon="139.33497194444445">
<ele>44</ele>
</trkpt>
<trkpt lat="35.985911944444446" lon="139.33459805555555">
<ele>45</ele>
</trkpt>
<trkpt lat="35.98583694444444" lon="139.334285">
<ele>44</ele>
</trkpt>
<trkpt lat="35.98580388888889" lon="139.333985">
<ele>43</ele>
</trkpt>
<trkpt lat="35.985795" lon="139.33372194444445">
<ele>43</ele>
</trkpt>
<trkpt lat="35.98581194444444" lon="139.33349694444445">
<ele>43</ele>
</trkpt>
<trkpt lat="35.985845" lon="139.33324694444445">
<ele>43</ele>
</trkpt>
<trkpt lat="35.98605305555556" lon="139.33226">
<ele>45</ele>
</trkpt>
<trkpt lat="35.986" lon="139.33224611111112">
<ele>45</ele>
</trkpt>
<trkpt lat="35.986" lon="139.33224611111112">
<ele>45</ele>
</trkpt>
<trkpt lat="35.985861944444444" lon="139.33221">
<ele>44</ele>
</trkpt>
<trkpt lat="35.98536194444444" lon="139.33211">
<ele>43</ele>
</trkpt>
<trkpt lat="35.98500388888889" lon="139.33204694444444">
<ele>42</ele>
</trkpt>
<trkpt lat="35.984745" lon="139.33206">
<ele>41</ele>
</trkpt>
<trkpt lat="35.98472" lon="139.33206">
<ele>41</ele>
</trkpt>
<trkpt lat="35.98466194444445" lon="139.332085">
<ele>41</ele>
</trkpt>
<trkpt lat="35.98453694444444" lon="139.33217194444444">
<ele>41</ele>
</trkpt>
<trkpt lat="35.98442" lon="139.33232305555555">
<ele>42</ele>
</trkpt>
<trkpt lat="35.984145" lon="139.33269805555557">
<ele>42</ele>
</trkpt>
<trkpt lat="35.983595" lon="139.33336">
<ele>45</ele>
</trkpt>
<trkpt lat="35.98307111111111" lon="139.33399805555555">
<ele>46</ele>
</trkpt>
<trkpt lat="35.98294611111111" lon="139.334085">
<ele>46</ele>
</trkpt>
<trkpt lat="35.982821111111114" lon="139.334135">
<ele>46</ele>
</trkpt>
<trkpt lat="35.98260388888889" lon="139.33419805555556">
<ele>47</ele>
</trkpt>
<trkpt lat="35.982286944444446" lon="139.33422305555555">
<ele>47</ele>
</trkpt>
<trkpt lat="35.98209611111111" lon="139.33424805555555">
<ele>48</ele>
</trkpt>
<trkpt lat="35.98171194444444" lon="139.33429694444445">
<ele>47</ele>
</trkpt>
<trkpt lat="35.98107111111111" lon="139.33437305555555">
<ele>46</ele>
</trkpt>
<trkpt lat="35.98045388888889" lon="139.33446">
<ele>47</ele>
</trkpt>
<trkpt lat="35.979911944444446" lon="139.33451">
<ele>48</ele>
</trkpt>
<trkpt lat="35.97967111111111" lon="139.334585">
<ele>48</ele>
</trkpt>
<trkpt lat="35.97944611111111" lon="139.33466">
<ele>48</ele>
</trkpt>
<trkpt lat="35.97869611111111" lon="139.334985">
<ele>47</ele>
</trkpt>
<trkpt lat="35.977896111111114" lon="139.335335">
<ele>49</ele>
</trkpt>
<trkpt lat="35.97784611111111" lon="139.33536">
<ele>50</ele>
</trkpt>
<trkpt lat="35.97772888888889" lon="139.33542194444445">
<ele>50</ele>
</trkpt>
<trkpt lat="35.977671111111114" lon="139.33544805555556">
<ele>50</ele>
</trkpt>
<trkpt lat="35.97749611111111" lon="139.33554694444445">
<ele>50</ele>
</trkpt>
<trkpt lat="35.97727111111111" lon="139.33572305555555">
<ele>50</ele>
</trkpt>
<trkpt lat="35.97707888888889" lon="139.33591">
<ele>50</ele>
</trkpt>
<trkpt lat="35.97672111111111" lon="139.336285">
<ele>50</ele>
</trkpt>
<trkpt lat="35.97573" lon="139.33731">
<ele>51</ele>
</trkpt>
<trkpt lat="35.975705" lon="139.337335">
<ele>52</ele>
</trkpt>
<trkpt lat="35.97553805555555" lon="139.33751">
<ele>52</ele>
</trkpt>
<trkpt lat="35.97529611111111" lon="139.33774805555555">
<ele>51</ele>
</trkpt>
<trkpt lat="35.975155" lon="139.33791">
<ele>52</ele>
</trkpt>
<trkpt lat="35.97499611111111" lon="139.338085">
<ele>51</ele>
</trkpt>
<trkpt lat="35.974605" lon="139.33847194444445">
<ele>52</ele>
</trkpt>
<trkpt lat="35.97434611111111" lon="139.33867194444446">
<ele>52</ele>
</trkpt>
<trkpt lat="35.973955" lon="139.33884805555556">
<ele>52</ele>
</trkpt>
<trkpt lat="35.973688055555556" lon="139.33896">
<ele>52</ele>
</trkpt>
<trkpt lat="35.973213055555554" lon="139.33917194444444">
<ele>52</ele>
</trkpt>
<trkpt lat="35.972296944444444" lon="139.33957305555555">
<ele>47</ele>
</trkpt>
<trkpt lat="35.97211305555555" lon="139.33964694444444">
<ele>47</ele>
</trkpt>
<trkpt lat="35.971496944444446" lon="139.33991">
<ele>47</ele>
</trkpt>
<trkpt lat="35.97114694444444" lon="139.34007305555556">
<ele>45</ele>
</trkpt>
<trkpt lat="35.971071944444446" lon="139.34012305555555">
<ele>45</ele>
</trkpt>
<trkpt lat="35.97089694444445" lon="139.34026">
<ele>45</ele>
</trkpt>
<trkpt lat="35.97081388888889" lon="139.34034805555555">
<ele>45</ele>
</trkpt>
<trkpt lat="35.97071388888889" lon="139.34049694444445">
<ele>45</ele>
</trkpt>
<trkpt lat="35.97063" lon="139.34062194444445">
<ele>43</ele>
</trkpt>
<trkpt lat="35.97058" lon="139.34074694444445">
<ele>41</ele>
</trkpt>
<trkpt lat="35.970555" lon="139.34082305555555">
<ele>41</ele>
</trkpt>
<trkpt lat="35.97049694444444" lon="139.34102194444444">
<ele>40</ele>
</trkpt>
<trkpt lat="35.970396944444445" lon="139.34152194444445">
<ele>38</ele>
</trkpt>
<trkpt lat="35.97033888888889" lon="139.34169805555555">
<ele>38</ele>
</trkpt>
<trkpt lat="35.97028" lon="139.341835">
<ele>38</ele>
</trkpt>
<trkpt lat="35.970238888888886" lon="139.34189694444444">
<ele>38</ele>
</trkpt>
<trkpt lat="35.970196944444446" lon="139.34194805555555">
<ele>38</ele>
</trkpt>
<trkpt lat="35.970171944444445" lon="139.341985">
<ele>38</ele>
</trkpt>
<trkpt lat="35.970171944444445" lon="139.341985">
<ele>38</ele>
</trkpt>
<trkpt lat="35.97016388888889" lon="139.34199694444445">
<ele>38</ele>
</trkpt>
<trkpt lat="35.97018888888889" lon="139.34204694444443">
<ele>38</ele>
</trkpt>
<trkpt lat="35.97028888888889" lon="139.34222194444445">
<ele>38</ele>
</trkpt>
<trkpt lat="35.97064694444445" lon="139.342885">
<ele>38</ele>
</trkpt>
<trkpt lat="35.970855" lon="139.34326">
<ele>40</ele>
</trkpt>
<trkpt lat="35.97089694444445" lon="139.343335">
<ele>41</ele>
</trkpt>
<trkpt lat="35.97126388888889" lon="139.34399694444446">
<ele>41</ele>
</trkpt>
<trkpt lat="35.97172194444445" lon="139.34479694444445">
<ele>40</ele>
</trkpt>
<trkpt lat="35.971846944444444" lon="139.34502194444445">
<ele>40</ele>
</trkpt>
<trkpt lat="35.97241388888889" lon="139.34602194444443">
<ele>38</ele>
</trkpt>
<trkpt lat="35.97256388888889" lon="139.346385">
<ele>37</ele>
</trkpt>
<trkpt lat="35.97271388888889" lon="139.3468588888889">
<ele>36</ele>
</trkpt>
<trkpt lat="35.972755" lon="139.3470088888889">
<ele>35</ele>
</trkpt>
<trkpt lat="35.97282194444445" lon="139.34737194444443">
<ele>33</ele>
</trkpt>
<trkpt lat="35.97288" lon="139.34829694444446">
<ele>32</ele>
</trkpt>
<trkpt lat="35.972905" lon="139.34853388888888">
<ele>32</ele>
</trkpt>
<trkpt lat="35.972921944444444" lon="139.34872194444443">
<ele>32</ele>
</trkpt>
<trkpt lat="35.972946944444445" lon="139.3489588888889">
<ele>32</ele>
</trkpt>
<trkpt lat="35.972971944444446" lon="139.34912194444445">
<ele>31</ele>
</trkpt>
<trkpt lat="35.97302194444445" lon="139.34959694444444">
<ele>31</ele>
</trkpt>
<trkpt lat="35.97311388888889" lon="139.3502088888889">
<ele>30</ele>
</trkpt>
<trkpt lat="35.97312194444444" lon="139.35047194444445">
<ele>30</ele>
</trkpt>
<trkpt lat="35.97309694444444" lon="139.35064694444443">
<ele>30</ele>
</trkpt>
<trkpt lat="35.97289694444444" lon="139.35127194444445">
<ele>30</ele>
</trkpt>
<trkpt lat="35.97287194444444" lon="139.35137194444445">
<ele>30</ele>
</trkpt>
<trkpt lat="35.97286388888889" lon="139.35144694444443">
<ele>30</ele>
</trkpt>
<trkpt lat="35.97285611111111" lon="139.35167194444443">
<ele>30</ele>
</trkpt>
<trkpt lat="35.97287194444444" lon="139.35179694444443">
<ele>30</ele>
</trkpt>
<trkpt lat="35.97293111111111" lon="139.35194694444445">
<ele>30</ele>
</trkpt>
<trkpt lat="35.97296388888889" lon="139.35203388888888">
<ele>30</ele>
</trkpt>
<trkpt lat="35.97304694444444" lon="139.35219694444444">
<ele>30</ele>
</trkpt>
<trkpt lat="35.973171944444445" lon="139.35229694444445">
<ele>30</ele>
</trkpt>
<trkpt lat="35.97332194444444" lon="139.35238388888888">
<ele>30</ele>
</trkpt>
<trkpt lat="35.97347194444445" lon="139.35244694444444">
<ele>30</ele>
</trkpt>
<trkpt lat="35.97353888888889" lon="139.35248388888888">
<ele>30</ele>
</trkpt>
<trkpt lat="35.97371388888889" lon="139.3525588888889">
<ele>31</ele>
</trkpt>
<trkpt lat="35.97413111111111" lon="139.35273388888888">
<ele>34</ele>
</trkpt>
<trkpt lat="35.974381111111114" lon="139.3528088888889">
<ele>34</ele>
</trkpt>
<trkpt lat="35.97466388888889" lon="139.35285888888887">
<ele>36</ele>
</trkpt>
<trkpt lat="35.97521388888889" lon="139.35295888888888">
<ele>36</ele>
</trkpt>
<trkpt lat="35.97583" lon="139.3530088888889">
<ele>37</ele>
</trkpt>
<trkpt lat="35.97602194444445" lon="139.3530338888889">
<ele>39</ele>
</trkpt>
<trkpt lat="35.97618888888889" lon="139.3530461111111">
<ele>37</ele>
</trkpt>
<trkpt lat="35.976571944444444" lon="139.35308388888888">
<ele>38</ele>
</trkpt>
<trkpt lat="35.97678888888889" lon="139.3531461111111">
<ele>35</ele>
</trkpt>
<trkpt lat="35.97697194444444" lon="139.3532588888889">
<ele>34</ele>
</trkpt>
<trkpt lat="35.97711388888889" lon="139.35338388888889">
<ele>34</ele>
</trkpt>
<trkpt lat="35.977205" lon="139.3534961111111">
<ele>33</ele>
</trkpt>
<trkpt lat="35.97736388888889" lon="139.35374611111112">
<ele>33</ele>
</trkpt>
<trkpt lat="35.97758888888889" lon="139.35432111111112">
<ele>32</ele>
</trkpt>
<trkpt lat="35.977671944444445" lon="139.3545838888889">
<ele>33</ele>
</trkpt>
<trkpt lat="35.977713888888886" lon="139.35477111111112">
<ele>33</ele>
</trkpt>
<trkpt lat="35.97774694444445" lon="139.3550338888889">
<ele>32</ele>
</trkpt>
<trkpt lat="35.97777194444444" lon="139.35534611111112">
<ele>32</ele>
</trkpt>
<trkpt lat="35.97779694444444" lon="139.3556088888889">
<ele>33</ele>
</trkpt>
<trkpt lat="35.977846944444444" lon="139.3560838888889">
<ele>33</ele>
</trkpt>
<trkpt lat="35.97792194444445" lon="139.35678388888888">
<ele>34</ele>
</trkpt>
<trkpt lat="35.97803888888889" lon="139.3579838888889">
<ele>35</ele>
</trkpt>
<trkpt lat="35.97808888888889" lon="139.35843305555557">
<ele>33</ele>
</trkpt>
<trkpt lat="35.97828888888889" lon="139.35975805555555">
<ele>36</ele>
</trkpt>
<trkpt lat="35.97847194444444" lon="139.36085805555555">
<ele>36</ele>
</trkpt>
<trkpt lat="35.978563888888885" lon="139.36124611111111">
<ele>32</ele>
</trkpt>
<trkpt lat="35.978721944444445" lon="139.36180805555554">
<ele>30</ele>
</trkpt>
<trkpt lat="35.979005" lon="139.36279611111112">
<ele>38</ele>
</trkpt>
<trkpt lat="35.97904694444444" lon="139.36292111111112">
<ele>37</ele>
</trkpt>
<trkpt lat="35.97908" lon="139.36313305555555">
<ele>36</ele>
</trkpt>
<trkpt lat="35.97908" lon="139.36340805555557">
<ele>35</ele>
</trkpt>
<trkpt lat="35.97903" lon="139.3638961111111">
<ele>29</ele>
</trkpt>
<trkpt lat="35.978971944444446" lon="139.3644461111111">
<ele>29</ele>
</trkpt>
<trkpt lat="35.97889694444444" lon="139.36537">
<ele>29</ele>
</trkpt>
<trkpt lat="35.97887194444444" lon="139.36643305555555">
<ele>29</ele>
</trkpt>
<trkpt lat="35.97887305555555" lon="139.36654805555557">
<ele>28</ele>
</trkpt>
<trkpt lat="35.97887305555555" lon="139.36654805555557">
<ele>28</ele>
</trkpt>
<trkpt lat="35.97887194444444" lon="139.36643305555555">
<ele>29</ele>
</trkpt>
<trkpt lat="35.97956388888889" lon="139.36642">
<ele>38</ele>
</trkpt>
<trkpt lat="35.97967194444445" lon="139.36642">
<ele>38</ele>
</trkpt>
<trkpt lat="35.980305" lon="139.36642">
<ele>34</ele>
</trkpt>
<trkpt lat="35.98103" lon="139.36642">
<ele>30</ele>
</trkpt>
<trkpt lat="35.981163055555555" lon="139.36642">
<ele>31</ele>
</trkpt>
<trkpt lat="35.98118" lon="139.36642">
<ele>31</ele>
</trkpt>
<trkpt lat="35.98126305555556" lon="139.36642">
<ele>33</ele>
</trkpt>
<trkpt lat="35.98141611111111" lon="139.3664261111111">
<ele>33</ele>
</trkpt>
<trkpt lat="35.98141611111111" lon="139.3664261111111">
<ele>33</ele>
</trkpt>
<trkpt lat="35.98126305555556" lon="139.36642">
<ele>33</ele>
</trkpt>
<trkpt lat="35.98133" lon="139.36628305555556">
<ele>32</ele>
</trkpt>
<trkpt lat="35.98144694444444" lon="139.36610805555554">
<ele>32</ele>
</trkpt>
<trkpt lat="35.98163805555556" lon="139.36592">
<ele>32</ele>
</trkpt>
<trkpt lat="35.982038055555556" lon="139.36567">
<ele>35</ele>
</trkpt>
<trkpt lat="35.982413055555554" lon="139.36542">
<ele>35</ele>
</trkpt>
<trkpt lat="35.98253805555556" lon="139.36525805555556">
<ele>36</ele>
</trkpt>
<trkpt lat="35.98264611111111" lon="139.36495805555555">
<ele>37</ele>
</trkpt>
<trkpt lat="35.982688055555556" lon="139.36475805555557">
<ele>38</ele>
</trkpt>
<trkpt lat="35.982705" lon="139.364595">
<ele>37</ele>
</trkpt>
<trkpt lat="35.98268" lon="139.36447">
<ele>37</ele>
</trkpt>
<trkpt lat="35.982855" lon="139.36437">
<ele>38</ele>
</trkpt>
<trkpt lat="35.98322111111111" lon="139.36393305555555">
<ele>37</ele>
</trkpt>
<trkpt lat="35.98338805555556" lon="139.363795">
<ele>36</ele>
</trkpt>
<trkpt lat="35.983671111111114" lon="139.36368305555555">
<ele>39</ele>
</trkpt>
<trkpt lat="35.98408805555555" lon="139.36353305555556">
<ele>40</ele>
</trkpt>
<trkpt lat="35.984163055555555" lon="139.363495">
<ele>41</ele>
</trkpt>
<trkpt lat="35.984705" lon="139.363295">
<ele>41</ele>
</trkpt>
<trkpt lat="35.98557111111111" lon="139.36297">
<ele>43</ele>
</trkpt>
<trkpt lat="35.98562111111111" lon="139.36295805555557">
<ele>43</ele>
</trkpt>
<trkpt lat="35.98629611111111" lon="139.36275805555556">
<ele>46</ele>
</trkpt>
<trkpt lat="35.98661305555556" lon="139.36267">
<ele>48</ele>
</trkpt>
<trkpt lat="35.98678805555556" lon="139.362595">
<ele>49</ele>
</trkpt>
<trkpt lat="35.98689611111111" lon="139.36253305555556">
<ele>48</ele>
</trkpt>
<trkpt lat="35.98701194444445" lon="139.36243305555556">
<ele>48</ele>
</trkpt>
<trkpt lat="35.987636944444446" lon="139.36154611111112">
<ele>48</ele>
</trkpt>
<trkpt lat="35.987853888888885" lon="139.36130805555555">
<ele>48</ele>
</trkpt>
<trkpt lat="35.98800388888889" lon="139.3611711111111">
<ele>48</ele>
</trkpt>
<trkpt lat="35.988213055555555" lon="139.36103305555557">
<ele>47</ele>
</trkpt>
<trkpt lat="35.98845388888889" lon="139.36090805555557">
<ele>48</ele>
</trkpt>
<trkpt lat="35.988613055555554" lon="139.36085805555555">
<ele>48</ele>
</trkpt>
<trkpt lat="35.988911944444446" lon="139.36080805555557">
<ele>51</ele>
</trkpt>
<trkpt lat="35.98949611111111" lon="139.3607461111111">
<ele>53</ele>
</trkpt>
<trkpt lat="35.989671111111114" lon="139.36070805555556">
<ele>56</ele>
</trkpt>
<trkpt lat="35.98986194444444" lon="139.36063305555555">
<ele>55</ele>
</trkpt>
<trkpt lat="35.99002888888889" lon="139.36058305555557">
<ele>55</ele>
</trkpt>
<trkpt lat="35.99024611111111" lon="139.36045805555557">
<ele>53</ele>
</trkpt>
<trkpt lat="35.990386944444445" lon="139.36033305555554">
<ele>54</ele>
</trkpt>
<trkpt lat="35.99072888888889" lon="139.3600211111111">
<ele>58</ele>
</trkpt>
<trkpt lat="35.990811944444445" lon="139.3599461111111">
<ele>58</ele>
</trkpt>
<trkpt lat="35.99097111111111" lon="139.3597961111111">
<ele>59</ele>
</trkpt>
<trkpt lat="35.991061944444446" lon="139.35970805555556">
<ele>61</ele>
</trkpt>
<trkpt lat="35.991371111111114" lon="139.35940805555555">
<ele>62</ele>
</trkpt>
<trkpt lat="35.991686944444446" lon="139.35910805555557">
<ele>62</ele>
</trkpt>
<trkpt lat="35.99177888888889" lon="139.3590211111111">
<ele>63</ele>
</trkpt>
<trkpt lat="35.99192" lon="139.35893305555555">
<ele>63</ele>
</trkpt>
<trkpt lat="35.992111944444446" lon="139.3588711111111">
<ele>62</ele>
</trkpt>
<trkpt lat="35.992336944444446" lon="139.35884611111112">
<ele>61</ele>
</trkpt>
<trkpt lat="35.99262" lon="139.35883305555555">
<ele>62</ele>
</trkpt>
<trkpt lat="35.99285388888889" lon="139.35874611111112">
<ele>64</ele>
</trkpt>
<trkpt lat="35.992961944444446" lon="139.35868305555556">
<ele>67</ele>
</trkpt>
<trkpt lat="35.99305388888889" lon="139.35860805555555">
<ele>68</ele>
</trkpt>
<trkpt lat="35.993145" lon="139.35850805555555">
<ele>68</ele>
</trkpt>
<trkpt lat="35.99340388888889" lon="139.35817111111112">
<ele>63</ele>
</trkpt>
<trkpt lat="35.99370388888889" lon="139.35778305555556">
<ele>63</ele>
</trkpt>
<trkpt lat="35.99422" lon="139.35710805555556">
<ele>64</ele>
</trkpt>
<trkpt lat="35.99436194444444" lon="139.3569461111111">
<ele>66</ele>
</trkpt>
<trkpt lat="35.99457805555556" lon="139.35679611111112">
<ele>67</ele>
</trkpt>
<trkpt lat="35.99471194444445" lon="139.35673305555557">
<ele>67</ele>
</trkpt>
<trkpt lat="35.994836944444444" lon="139.35669611111112">
<ele>69</ele>
</trkpt>
<trkpt lat="35.99493694444445" lon="139.3566711111111">
<ele>71</ele>
</trkpt>
<trkpt lat="35.99512" lon="139.3566211111111">
<ele>75</ele>
</trkpt>
<trkpt lat="35.99517" lon="139.35659611111112">
<ele>75</ele>
</trkpt>
<trkpt lat="35.99522" lon="139.3565461111111">
<ele>74</ele>
</trkpt>
<trkpt lat="35.995295" lon="139.3564211111111">
<ele>72</ele>
</trkpt>
<trkpt lat="35.99523611111111" lon="139.35637888888888">
<ele>72</ele>
</trkpt>
<trkpt lat="35.99523611111111" lon="139.35637888888888">
<ele>72</ele>
</trkpt>
<trkpt lat="35.994395" lon="139.35579611111112">
<ele>72</ele>
</trkpt>
<trkpt lat="35.994195" lon="139.3557211111111">
<ele>76</ele>
</trkpt>
<trkpt lat="35.993995" lon="139.35567111111112">
<ele>76</ele>
</trkpt>
<trkpt lat="35.99357" lon="139.35567111111112">
<ele>78</ele>
</trkpt>
<trkpt lat="35.993445" lon="139.3556461111111">
<ele>81</ele>
</trkpt>
<trkpt lat="35.99332" lon="139.3556211111111">
<ele>82</ele>
</trkpt>
<trkpt lat="35.99317" lon="139.35554611111112">
<ele>83</ele>
</trkpt>
<trkpt lat="35.99268694444444" lon="139.3551961111111">
<ele>86</ele>
</trkpt>
<trkpt lat="35.992311944444445" lon="139.35490805555557">
<ele>87</ele>
</trkpt>
<trkpt lat="35.99190388888889" lon="139.35458305555557">
<ele>87</ele>
</trkpt>
<trkpt lat="35.991486944444446" lon="139.35433305555554">
<ele>85</ele>
</trkpt>
<trkpt lat="35.99145111111111" lon="139.35432194444445">
<ele>85</ele>
</trkpt>
<trkpt lat="35.99145111111111" lon="139.35432194444445">
<ele>85</ele>
</trkpt>
<trkpt lat="35.991486944444446" lon="139.35433305555554">
<ele>85</ele>
</trkpt>
<trkpt lat="35.99167" lon="139.35374611111112">
<ele>87</ele>
</trkpt>
<trkpt lat="35.99187" lon="139.35307111111112">
<ele>89</ele>
</trkpt>
<trkpt lat="35.991945" lon="139.3528211111111">
<ele>89</ele>
</trkpt>
<trkpt lat="35.99195388888889" lon="139.35278305555556">
<ele>89</ele>
</trkpt>
<trkpt lat="35.992145" lon="139.3521338888889">
<ele>89</ele>
</trkpt>
<trkpt lat="35.992311944444445" lon="139.3515711111111">
<ele>87</ele>
</trkpt>
<trkpt lat="35.99265305555556" lon="139.3503961111111">
<ele>72</ele>
</trkpt>
<trkpt lat="35.99270305555556" lon="139.35023388888888">
<ele>70</ele>
</trkpt>
<trkpt lat="35.992795" lon="139.34989611111112">
<ele>69</ele>
</trkpt>
<trkpt lat="35.992845" lon="139.3496338888889">
<ele>69</ele>
</trkpt>
<trkpt lat="35.99285305555556" lon="139.34934611111112">
<ele>69</ele>
</trkpt>
<trkpt lat="35.99283694444444" lon="139.34899611111112">
<ele>69</ele>
</trkpt>
<trkpt lat="35.992745" lon="139.3485088888889">
<ele>69</ele>
</trkpt>
<trkpt lat="35.992578055555555" lon="139.34783388888889">
<ele>70</ele>
</trkpt>
<trkpt lat="35.99246111111111" lon="139.3473561111111">
<ele>68</ele>
</trkpt>
<trkpt lat="35.99246111111111" lon="139.3473561111111">
<ele>68</ele>
</trkpt>
<trkpt lat="35.99243694444444" lon="139.3472588888889">
<ele>68</ele>
</trkpt>
<trkpt lat="35.992545" lon="139.3472461111111">
<ele>69</ele>
</trkpt>
<trkpt lat="35.992595" lon="139.3472711111111">
<ele>75</ele>
</trkpt>
<trkpt lat="35.992745" lon="139.3476711111111">
<ele>74</ele>
</trkpt>
<trkpt lat="35.99287" lon="139.34797111111112">
<ele>76</ele>
</trkpt>
<trkpt lat="35.993053055555556" lon="139.3482461111111">
<ele>78</ele>
</trkpt>
<trkpt lat="35.993673888888885" lon="139.34907805555557">
<ele>85</ele>
</trkpt>
<trkpt lat="35.993673888888885" lon="139.34907805555557">
<ele>85</ele>
</trkpt>
<trkpt lat="35.993678055555556" lon="139.34908388888888">
<ele>85</ele>
</trkpt>
<trkpt lat="35.99392805555556" lon="139.3494211111111">
<ele>85</ele>
</trkpt>
<trkpt lat="35.99440305555556" lon="139.3500588888889">
<ele>93</ele>
</trkpt>
<trkpt lat="35.99496111111111" lon="139.35080888888888">
<ele>104</ele>
</trkpt>
<trkpt lat="35.99510305555555" lon="139.35090888888888">
<ele>106</ele>
</trkpt>
<trkpt lat="35.99525305555556" lon="139.3509461111111">
<ele>107</ele>
</trkpt>
<trkpt lat="35.99590305555556" lon="139.35082111111112">
<ele>111</ele>
</trkpt>
<trkpt lat="35.99741888888889" lon="139.3505461111111">
<ele>115</ele>
</trkpt>
<trkpt lat="35.99754388888889" lon="139.35053305555556">
<ele>116</ele>
</trkpt>
<trkpt lat="35.997703055555554" lon="139.3505211111111">
<ele>117</ele>
</trkpt>
<trkpt lat="35.99785305555555" lon="139.35059611111112">
<ele>117</ele>
</trkpt>
<trkpt lat="35.99820305555556" lon="139.35100805555555">
<ele>117</ele>
</trkpt>
<trkpt lat="35.99831888888889" lon="139.3510711111111">
<ele>116</ele>
</trkpt>
<trkpt lat="35.99856111111111" lon="139.35115805555554">
<ele>114</ele>
</trkpt>
<trkpt lat="35.99918611111111" lon="139.35137111111112">
<ele>108</ele>
</trkpt>
<trkpt lat="35.99935305555555" lon="139.35138305555554">
<ele>106</ele>
</trkpt>
<trkpt lat="35.99956111111111" lon="139.35135805555555">
<ele>107</ele>
</trkpt>
<trkpt lat="35.999718888888886" lon="139.3512961111111">
<ele>109</ele>
</trkpt>
<trkpt lat="36.00011111111111" lon="139.35098305555556">
<ele>112</ele>
</trkpt>
<trkpt lat="36.00021111111111" lon="139.35095805555557">
<ele>112</ele>
</trkpt>
<trkpt lat="36.00039388888889" lon="139.35098305555556">
<ele>113</ele>
</trkpt>
<trkpt lat="36.000861111111114" lon="139.35110805555556">
<ele>112</ele>
</trkpt>
<trkpt lat="36.000993888888885" lon="139.3511211111111">
<ele>111</ele>
</trkpt>
<trkpt lat="36.001176944444445" lon="139.35113305555555">
<ele>111</ele>
</trkpt>
<trkpt lat="36.00136888888889" lon="139.3511711111111">
<ele>110</ele>
</trkpt>
<trkpt lat="36.00166111111111" lon="139.35124611111112">
<ele>104</ele>
</trkpt>
<trkpt lat="36.00212805555555" lon="139.35148305555555">
<ele>107</ele>
</trkpt>
<trkpt lat="36.00248611111111" lon="139.35159611111112">
<ele>107</ele>
</trkpt>
<trkpt lat="36.00276111111111" lon="139.35159611111112">
<ele>106</ele>
</trkpt>
<trkpt lat="36.00276111111111" lon="139.35159611111112">
<ele>106</ele>
</trkpt>
<trkpt lat="36.00248611111111" lon="139.35159611111112">
<ele>107</ele>
</trkpt>
<trkpt lat="36.00212805555555" lon="139.35148305555555">
<ele>107</ele>
</trkpt>
<trkpt lat="36.00166111111111" lon="139.35124611111112">
<ele>104</ele>
</trkpt>
<trkpt lat="36.00136888888889" lon="139.3511711111111">
<ele>110</ele>
</trkpt>
<trkpt lat="36.001176944444445" lon="139.35113305555555">
<ele>111</ele>
</trkpt>
<trkpt lat="36.000993888888885" lon="139.3511211111111">
<ele>111</ele>
</trkpt>
<trkpt lat="36.000861111111114" lon="139.35110805555556">
<ele>112</ele>
</trkpt>
<trkpt lat="36.00039388888889" lon="139.35098305555556">
<ele>113</ele>
</trkpt>
<trkpt lat="36.00021111111111" lon="139.35095805555557">
<ele>112</ele>
</trkpt>
<trkpt lat="36.00011111111111" lon="139.35098305555556">
<ele>112</ele>
</trkpt>
<trkpt lat="35.999718888888886" lon="139.3512961111111">
<ele>109</ele>
</trkpt>
<trkpt lat="35.99956111111111" lon="139.35135805555555">
<ele>107</ele>
</trkpt>
<trkpt lat="35.99935305555555" lon="139.35138305555554">
<ele>106</ele>
</trkpt>
<trkpt lat="35.99918611111111" lon="139.35137111111112">
<ele>108</ele>
</trkpt>
<trkpt lat="35.99856111111111" lon="139.35115805555554">
<ele>114</ele>
</trkpt>
<trkpt lat="35.99831888888889" lon="139.3510711111111">
<ele>116</ele>
</trkpt>
<trkpt lat="35.99820305555556" lon="139.35100805555555">
<ele>117</ele>
</trkpt>
<trkpt lat="35.99785305555555" lon="139.35059611111112">
<ele>117</ele>
</trkpt>
<trkpt lat="35.997703055555554" lon="139.3505211111111">
<ele>117</ele>
</trkpt>
<trkpt lat="35.99754388888889" lon="139.35053305555556">
<ele>116</ele>
</trkpt>
<trkpt lat="35.99741888888889" lon="139.3505461111111">
<ele>115</ele>
</trkpt>
<trkpt lat="35.99590305555556" lon="139.35082111111112">
<ele>111</ele>
</trkpt>
<trkpt lat="35.99525305555556" lon="139.3509461111111">
<ele>107</ele>
</trkpt>
<trkpt lat="35.99510305555555" lon="139.35090888888888">
<ele>106</ele>
</trkpt>
<trkpt lat="35.99496111111111" lon="139.35080888888888">
<ele>104</ele>
</trkpt>
<trkpt lat="35.99440305555556" lon="139.3500588888889">
<ele>93</ele>
</trkpt>
<trkpt lat="35.99392805555556" lon="139.3494211111111">
<ele>85</ele>
</trkpt>
<trkpt lat="35.993678055555556" lon="139.34908388888888">
<ele>85</ele>
</trkpt>
<trkpt lat="35.993053055555556" lon="139.3482461111111">
<ele>78</ele>
</trkpt>
<trkpt lat="35.99287" lon="139.34797111111112">
<ele>76</ele>
</trkpt>
<trkpt lat="35.992745" lon="139.3476711111111">
<ele>74</ele>
</trkpt>
<trkpt lat="35.992595" lon="139.3472711111111">
<ele>75</ele>
</trkpt>
<trkpt lat="35.992545" lon="139.3472461111111">
<ele>69</ele>
</trkpt>
<trkpt lat="35.99243694444444" lon="139.3472588888889">
<ele>68</ele>
</trkpt>
<trkpt lat="35.99237194444444" lon="139.34700805555556">
<ele>68</ele>
</trkpt>
<trkpt lat="35.99237194444444" lon="139.34700805555556">
<ele>68</ele>
</trkpt>
<trkpt lat="35.99216194444445" lon="139.3461838888889">
<ele>67</ele>
</trkpt>
<trkpt lat="35.99185305555555" lon="139.34497194444444">
<ele>61</ele>
</trkpt>
<trkpt lat="35.99178694444444" lon="139.34469694444445">
<ele>59</ele>
</trkpt>
<trkpt lat="35.991595" lon="139.34397194444443">
<ele>58</ele>
</trkpt>
<trkpt lat="35.991478055555554" lon="139.3435088888889">
<ele>55</ele>
</trkpt>
<trkpt lat="35.99142" lon="139.34327194444444">
<ele>53</ele>
</trkpt>
<trkpt lat="35.99137805555556" lon="139.34310888888888">
<ele>53</ele>
</trkpt>
<trkpt lat="35.991261944444446" lon="139.34263388888888">
<ele>51</ele>
</trkpt>
<trkpt lat="35.99112" lon="139.3421338888889">
<ele>49</ele>
</trkpt>
<trkpt lat="35.990995" lon="139.34179694444444">
<ele>49</ele>
</trkpt>
<trkpt lat="35.990845" lon="139.34149694444446">
<ele>55</ele>
</trkpt>
<trkpt lat="35.99076194444444" lon="139.34134694444444">
<ele>55</ele>
</trkpt>
<trkpt lat="35.99067" lon="139.34119694444445">
<ele>58</ele>
</trkpt>
<trkpt lat="35.990428055555554" lon="139.3408588888889">
<ele>57</ele>
</trkpt>
<trkpt lat="35.98977" lon="139.3399838888889">
<ele>58</ele>
</trkpt>
<trkpt lat="35.98975111111111" lon="139.3399588888889">
<ele>58</ele>
</trkpt>
    </trkseg>
  </trk>
</gpx>