<?xml version="1.0" encoding="UTF-8"?>
<gpx version="1.1"
     creator="KMLtoGPX"
     xmlns="http://www.topografix.com/GPX/1/1">
  <metadata>
    <name>55 routes where you can feel the history of Mitomi</name>
    <desc>55 三富の歴史を感じるルート</desc>
    <bounds minlat="35.794775" minlon="139.46695694444443" maxlat="35.84986" maxlon="139.52692305555556"/>
  </metadata>
  <trk>
    <name>55 routes where you can feel the history of Mitomi</name>
    <trkseg>
<trkpt lat="35.80014888888889" lon="139.49974694444444">
<ele>60</ele>
</trkpt>
<trkpt lat="35.80021694444444" lon="139.49969694444445">
<ele>60</ele>
</trkpt>
<trkpt lat="35.800125" lon="139.49941">
<ele>60</ele>
</trkpt>
<trkpt lat="35.79969194444445" lon="139.49782305555556">
<ele>60</ele>
</trkpt>
<trkpt lat="35.79945" lon="139.49699805555557">
<ele>60</ele>
</trkpt>
<trkpt lat="35.799391944444444" lon="139.496785">
<ele>60</ele>
</trkpt>
<trkpt lat="35.79934194444444" lon="139.49657305555556">
<ele>60</ele>
</trkpt>
<trkpt lat="35.7992" lon="139.49599805555556">
<ele>60</ele>
</trkpt>
<trkpt lat="35.7991" lon="139.4955611111111">
<ele>60</ele>
</trkpt>
<trkpt lat="35.79898305555555" lon="139.49499805555556">
<ele>60</ele>
</trkpt>
<trkpt lat="35.79886694444444" lon="139.4943111111111">
<ele>61</ele>
</trkpt>
<trkpt lat="35.798833055555555" lon="139.49412305555555">
<ele>61</ele>
</trkpt>
<trkpt lat="35.79873305555556" lon="139.4933861111111">
<ele>63</ele>
</trkpt>
<trkpt lat="35.798658055555556" lon="139.49288611111112">
<ele>65</ele>
</trkpt>
<trkpt lat="35.798633055555555" lon="139.49267305555554">
<ele>65</ele>
</trkpt>
<trkpt lat="35.798658055555556" lon="139.49247305555556">
<ele>65</ele>
</trkpt>
<trkpt lat="35.79850805555556" lon="139.49087305555557">
<ele>65</ele>
</trkpt>
<trkpt lat="35.79845805555556" lon="139.4903611111111">
<ele>65</ele>
</trkpt>
<trkpt lat="35.798408055555555" lon="139.48989805555556">
<ele>65</ele>
</trkpt>
<trkpt lat="35.798325" lon="139.48912388888888">
<ele>65</ele>
</trkpt>
<trkpt lat="35.79830805555556" lon="139.4889738888889">
<ele>65</ele>
</trkpt>
<trkpt lat="35.79813305555555" lon="139.48779888888888">
<ele>65</ele>
</trkpt>
<trkpt lat="35.79806694444444" lon="139.4873611111111">
<ele>65</ele>
</trkpt>
<trkpt lat="35.79805" lon="139.4872611111111">
<ele>65</ele>
</trkpt>
<trkpt lat="35.79796694444445" lon="139.4868111111111">
<ele>65</ele>
</trkpt>
<trkpt lat="35.79784194444444" lon="139.4862738888889">
<ele>65</ele>
</trkpt>
<trkpt lat="35.797691944444445" lon="139.48562388888888">
<ele>66</ele>
</trkpt>
<trkpt lat="35.79764194444444" lon="139.4854361111111">
<ele>66</ele>
</trkpt>
<trkpt lat="35.79745805555556" lon="139.48472388888888">
<ele>65</ele>
</trkpt>
<trkpt lat="35.79721694444444" lon="139.4837861111111">
<ele>64</ele>
</trkpt>
<trkpt lat="35.79719194444444" lon="139.48369888888888">
<ele>64</ele>
</trkpt>
<trkpt lat="35.797158055555556" lon="139.48358694444445">
<ele>63</ele>
</trkpt>
<trkpt lat="35.79680805555556" lon="139.48226194444445">
<ele>63</ele>
</trkpt>
<trkpt lat="35.79654194444444" lon="139.48123694444445">
<ele>63</ele>
</trkpt>
<trkpt lat="35.79646694444445" lon="139.48098694444445">
<ele>63</ele>
</trkpt>
<trkpt lat="35.796416944444445" lon="139.48076194444445">
<ele>63</ele>
</trkpt>
<trkpt lat="35.796225" lon="139.48007388888888">
<ele>64</ele>
</trkpt>
<trkpt lat="35.796075" lon="139.4794738888889">
<ele>64</ele>
</trkpt>
<trkpt lat="35.796016944444446" lon="139.4792488888889">
<ele>64</ele>
</trkpt>
<trkpt lat="35.795966944444444" lon="139.4790238888889">
<ele>64</ele>
</trkpt>
<trkpt lat="35.7959" lon="139.47872388888888">
<ele>64</ele>
</trkpt>
<trkpt lat="35.795825" lon="139.4782238888889">
<ele>64</ele>
</trkpt>
<trkpt lat="35.795808055555554" lon="139.47803694444445">
<ele>64</ele>
</trkpt>
<trkpt lat="35.795791944444446" lon="139.47769888888888">
<ele>64</ele>
</trkpt>
<trkpt lat="35.79578305555555" lon="139.4774488888889">
<ele>64</ele>
</trkpt>
<trkpt lat="35.795741944444444" lon="139.4764">
<ele>64</ele>
</trkpt>
<trkpt lat="35.795725" lon="139.47616194444444">
<ele>64</ele>
</trkpt>
<trkpt lat="35.79561694444445" lon="139.475525">
<ele>65</ele>
</trkpt>
<trkpt lat="35.795608055555554" lon="139.47545">
<ele>65</ele>
</trkpt>
<trkpt lat="35.79550805555556" lon="139.47491194444444">
<ele>65</ele>
</trkpt>
<trkpt lat="35.795383055555554" lon="139.47423694444444">
<ele>67</ele>
</trkpt>
<trkpt lat="35.79521694444445" lon="139.47336194444443">
<ele>66</ele>
</trkpt>
<trkpt lat="35.795008055555556" lon="139.47233694444444">
<ele>66</ele>
</trkpt>
<trkpt lat="35.794775" lon="139.47133805555555">
<ele>66</ele>
</trkpt>
<trkpt lat="35.79488305555556" lon="139.47125">
<ele>66</ele>
</trkpt>
<trkpt lat="35.795383055555554" lon="139.47108694444444">
<ele>67</ele>
</trkpt>
<trkpt lat="35.79553305555556" lon="139.471025">
<ele>67</ele>
</trkpt>
<trkpt lat="35.795775" lon="139.47088805555555">
<ele>67</ele>
</trkpt>
<trkpt lat="35.79615805555556" lon="139.47055">
<ele>68</ele>
</trkpt>
<trkpt lat="35.79749888888889" lon="139.46903805555556">
<ele>70</ele>
</trkpt>
<trkpt lat="35.79761611111111" lon="139.468925">
<ele>70</ele>
</trkpt>
<trkpt lat="35.798341111111114" lon="139.4681">
<ele>72</ele>
</trkpt>
<trkpt lat="35.79914888888889" lon="139.46718805555557">
<ele>72</ele>
</trkpt>
<trkpt lat="35.79926611111111" lon="139.467025">
<ele>71</ele>
</trkpt>
<trkpt lat="35.799326111111114" lon="139.46695694444443">
<ele>71</ele>
</trkpt>
<trkpt lat="35.799326111111114" lon="139.46695694444443">
<ele>71</ele>
</trkpt>
<trkpt lat="35.79926611111111" lon="139.467025">
<ele>71</ele>
</trkpt>
<trkpt lat="35.79929888888889" lon="139.46715">
<ele>71</ele>
</trkpt>
<trkpt lat="35.79961611111111" lon="139.46756305555556">
<ele>71</ele>
</trkpt>
<trkpt lat="35.79992388888889" lon="139.4681">
<ele>71</ele>
</trkpt>
<trkpt lat="35.80002388888889" lon="139.468325">
<ele>71</ele>
</trkpt>
<trkpt lat="35.80012388888889" lon="139.46856194444445">
<ele>70</ele>
</trkpt>
<trkpt lat="35.80022388888889" lon="139.46885">
<ele>70</ele>
</trkpt>
<trkpt lat="35.80036611111111" lon="139.46935">
<ele>70</ele>
</trkpt>
<trkpt lat="35.800716111111115" lon="139.471325">
<ele>71</ele>
</trkpt>
<trkpt lat="35.80084111111111" lon="139.4721">
<ele>71</ele>
</trkpt>
<trkpt lat="35.80099888888889" lon="139.47295">
<ele>72</ele>
</trkpt>
<trkpt lat="35.801158055555554" lon="139.47387388888887">
<ele>72</ele>
</trkpt>
<trkpt lat="35.80155805555555" lon="139.47612388888888">
<ele>72</ele>
</trkpt>
<trkpt lat="35.802123888888886" lon="139.4794238888889">
<ele>71</ele>
</trkpt>
<trkpt lat="35.80219611111111" lon="139.4798811111111">
<ele>70</ele>
</trkpt>
<trkpt lat="35.80219611111111" lon="139.4798811111111">
<ele>70</ele>
</trkpt>
<trkpt lat="35.80219888888889" lon="139.4798988888889">
<ele>70</ele>
</trkpt>
<trkpt lat="35.80227388888889" lon="139.48001194444444">
<ele>70</ele>
</trkpt>
<trkpt lat="35.80259111111111" lon="139.48001194444444">
<ele>70</ele>
</trkpt>
<trkpt lat="35.80302388888889" lon="139.4800238888889">
<ele>70</ele>
</trkpt>
<trkpt lat="35.80332388888889" lon="139.4800361111111">
<ele>70</ele>
</trkpt>
<trkpt lat="35.80364888888889" lon="139.4800488888889">
<ele>70</ele>
</trkpt>
<trkpt lat="35.80490694444445" lon="139.4800361111111">
<ele>67</ele>
</trkpt>
<trkpt lat="35.80563194444444" lon="139.4800238888889">
<ele>65</ele>
</trkpt>
<trkpt lat="35.80580694444444" lon="139.4800238888889">
<ele>65</ele>
</trkpt>
<trkpt lat="35.80782305555555" lon="139.4800238888889">
<ele>65</ele>
</trkpt>
<trkpt lat="35.80827305555555" lon="139.4800111111111">
<ele>65</ele>
</trkpt>
<trkpt lat="35.80864805555556" lon="139.4800361111111">
<ele>65</ele>
</trkpt>
<trkpt lat="35.80923194444444" lon="139.4800488888889">
<ele>64</ele>
</trkpt>
<trkpt lat="35.80967305555556" lon="139.4800611111111">
<ele>64</ele>
</trkpt>
<trkpt lat="35.810073055555556" lon="139.4800611111111">
<ele>64</ele>
</trkpt>
<trkpt lat="35.81119805555556" lon="139.48007388888888">
<ele>64</ele>
</trkpt>
<trkpt lat="35.81153111111111" lon="139.4801361111111">
<ele>63</ele>
</trkpt>
<trkpt lat="35.81177" lon="139.48022">
<ele>63</ele>
</trkpt>
<trkpt lat="35.81177" lon="139.48022">
<ele>63</ele>
</trkpt>
<trkpt lat="35.81181388888889" lon="139.4802361111111">
<ele>63</ele>
</trkpt>
<trkpt lat="35.81180611111111" lon="139.48029888888888">
<ele>63</ele>
</trkpt>
<trkpt lat="35.81166388888889" lon="139.4808361111111">
<ele>63</ele>
</trkpt>
<trkpt lat="35.811465" lon="139.48167305555555">
<ele>62</ele>
</trkpt>
<trkpt lat="35.81142305555556" lon="139.4818361111111">
<ele>62</ele>
</trkpt>
<trkpt lat="35.81134" lon="139.4821611111111">
<ele>62</ele>
</trkpt>
<trkpt lat="35.811323055555555" lon="139.4822111111111">
<ele>62</ele>
</trkpt>
<trkpt lat="35.81124805555555" lon="139.48252305555556">
<ele>62</ele>
</trkpt>
<trkpt lat="35.81117305555556" lon="139.4828361111111">
<ele>62</ele>
</trkpt>
<trkpt lat="35.81110611111111" lon="139.48304805555554">
<ele>62</ele>
</trkpt>
<trkpt lat="35.811101111111114" lon="139.48306305555556">
<ele>62</ele>
</trkpt>
<trkpt lat="35.811101111111114" lon="139.48306305555556">
<ele>62</ele>
</trkpt>
<trkpt lat="35.81110611111111" lon="139.48304805555554">
<ele>62</ele>
</trkpt>
<trkpt lat="35.811798055555556" lon="139.48326">
<ele>61</ele>
</trkpt>
<trkpt lat="35.811798055555556" lon="139.48326">
<ele>61</ele>
</trkpt>
<trkpt lat="35.81110611111111" lon="139.48304805555554">
<ele>62</ele>
</trkpt>
<trkpt lat="35.81117305555556" lon="139.4828361111111">
<ele>62</ele>
</trkpt>
<trkpt lat="35.81124805555555" lon="139.48252305555556">
<ele>62</ele>
</trkpt>
<trkpt lat="35.811323055555555" lon="139.4822111111111">
<ele>62</ele>
</trkpt>
<trkpt lat="35.81134" lon="139.4821611111111">
<ele>62</ele>
</trkpt>
<trkpt lat="35.81142305555556" lon="139.4818361111111">
<ele>62</ele>
</trkpt>
<trkpt lat="35.811465" lon="139.48167305555555">
<ele>62</ele>
</trkpt>
<trkpt lat="35.81166388888889" lon="139.4808361111111">
<ele>63</ele>
</trkpt>
<trkpt lat="35.81180611111111" lon="139.48029888888888">
<ele>63</ele>
</trkpt>
<trkpt lat="35.81180888888889" lon="139.48028">
<ele>63</ele>
</trkpt>
<trkpt lat="35.81180888888889" lon="139.48028">
<ele>63</ele>
</trkpt>
<trkpt lat="35.81181388888889" lon="139.4802361111111">
<ele>63</ele>
</trkpt>
<trkpt lat="35.81208111111111" lon="139.48033611111111">
<ele>63</ele>
</trkpt>
<trkpt lat="35.81247305555556" lon="139.48053611111112">
<ele>63</ele>
</trkpt>
<trkpt lat="35.81260611111111" lon="139.48062388888889">
<ele>63</ele>
</trkpt>
<trkpt lat="35.81276388888889" lon="139.48074888888888">
<ele>63</ele>
</trkpt>
<trkpt lat="35.81294805555556" lon="139.48089805555554">
<ele>63</ele>
</trkpt>
<trkpt lat="35.81298888888889" lon="139.4809361111111">
<ele>63</ele>
</trkpt>
<trkpt lat="35.81428888888889" lon="139.4821861111111">
<ele>61</ele>
</trkpt>
<trkpt lat="35.81435611111111" lon="139.48224805555554">
<ele>61</ele>
</trkpt>
<trkpt lat="35.81443111111111" lon="139.48233611111112">
<ele>61</ele>
</trkpt>
<trkpt lat="35.81464694444445" lon="139.4825361111111">
<ele>61</ele>
</trkpt>
<trkpt lat="35.814723055555554" lon="139.4826361111111">
<ele>61</ele>
</trkpt>
<trkpt lat="35.81482305555556" lon="139.4827361111111">
<ele>61</ele>
</trkpt>
<trkpt lat="35.81510611111111" lon="139.48297305555556">
<ele>61</ele>
</trkpt>
<trkpt lat="35.81523111111111" lon="139.48307305555556">
<ele>60</ele>
</trkpt>
<trkpt lat="35.81541388888889" lon="139.4831861111111">
<ele>60</ele>
</trkpt>
<trkpt lat="35.81570611111111" lon="139.48334805555555">
<ele>60</ele>
</trkpt>
<trkpt lat="35.81585611111111" lon="139.48342305555556">
<ele>60</ele>
</trkpt>
<trkpt lat="35.81613888888889" lon="139.4835611111111">
<ele>59</ele>
</trkpt>
<trkpt lat="35.81621388888889" lon="139.48359805555555">
<ele>59</ele>
</trkpt>
<trkpt lat="35.81625611111111" lon="139.48364805555556">
<ele>59</ele>
</trkpt>
<trkpt lat="35.816538888888886" lon="139.48424805555555">
<ele>59</ele>
</trkpt>
<trkpt lat="35.816563888888886" lon="139.48428611111112">
<ele>59</ele>
</trkpt>
<trkpt lat="35.81668111111111" lon="139.48452305555554">
<ele>59</ele>
</trkpt>
<trkpt lat="35.81684694444444" lon="139.48484805555555">
<ele>59</ele>
</trkpt>
<trkpt lat="35.81710611111111" lon="139.48537305555556">
<ele>58</ele>
</trkpt>
<trkpt lat="35.817146944444445" lon="139.48547305555556">
<ele>58</ele>
</trkpt>
<trkpt lat="35.81718611111111" lon="139.48543305555555">
<ele>58</ele>
</trkpt>
<trkpt lat="35.81718611111111" lon="139.48543194444446">
<ele>58</ele>
</trkpt>
<trkpt lat="35.817146944444445" lon="139.48547305555556">
<ele>58</ele>
</trkpt>
<trkpt lat="35.81574805555555" lon="139.48702305555557">
<ele>58</ele>
</trkpt>
<trkpt lat="35.81486388888889" lon="139.48797305555556">
<ele>58</ele>
</trkpt>
<trkpt lat="35.814056111111114" lon="139.48886">
<ele>58</ele>
</trkpt>
<trkpt lat="35.81346388888889" lon="139.48947305555555">
<ele>57</ele>
</trkpt>
<trkpt lat="35.812848055555556" lon="139.49006">
<ele>57</ele>
</trkpt>
<trkpt lat="35.811965" lon="139.49077305555556">
<ele>57</ele>
</trkpt>
<trkpt lat="35.811065" lon="139.49147305555556">
<ele>57</ele>
</trkpt>
<trkpt lat="35.81100388888889" lon="139.49152">
<ele>57</ele>
</trkpt>
<trkpt lat="35.81100388888889" lon="139.49152">
<ele>57</ele>
</trkpt>
<trkpt lat="35.811065" lon="139.49147305555556">
<ele>57</ele>
</trkpt>
<trkpt lat="35.811281944444445" lon="139.49189805555557">
<ele>57</ele>
</trkpt>
<trkpt lat="35.81195611111111" lon="139.49317305555556">
<ele>56</ele>
</trkpt>
<trkpt lat="35.81208111111111" lon="139.49339694444444">
<ele>56</ele>
</trkpt>
<trkpt lat="35.81225611111111" lon="139.49376">
<ele>55</ele>
</trkpt>
<trkpt lat="35.81289805555556" lon="139.494985">
<ele>55</ele>
</trkpt>
<trkpt lat="35.81315611111111" lon="139.49547305555555">
<ele>54</ele>
</trkpt>
<trkpt lat="35.813273055555555" lon="139.495685">
<ele>54</ele>
</trkpt>
<trkpt lat="35.81355611111111" lon="139.49622305555556">
<ele>54</ele>
</trkpt>
<trkpt lat="35.81352611111111" lon="139.4962461111111">
<ele>54</ele>
</trkpt>
<trkpt lat="35.81352611111111" lon="139.4962461111111">
<ele>54</ele>
</trkpt>
<trkpt lat="35.812848055555556" lon="139.496785">
<ele>54</ele>
</trkpt>
<trkpt lat="35.81265694444444" lon="139.496935">
<ele>54</ele>
</trkpt>
<trkpt lat="35.81204805555556" lon="139.49742194444445">
<ele>55</ele>
</trkpt>
<trkpt lat="35.81169" lon="139.49769694444444">
<ele>55</ele>
</trkpt>
<trkpt lat="35.811661111111114" lon="139.4977738888889">
<ele>55</ele>
</trkpt>
<trkpt lat="35.811661111111114" lon="139.4977738888889">
<ele>55</ele>
</trkpt>
<trkpt lat="35.81169" lon="139.49769694444444">
<ele>55</ele>
</trkpt>
<trkpt lat="35.811906944444445" lon="139.49797194444446">
<ele>55</ele>
</trkpt>
<trkpt lat="35.812081944444444" lon="139.498185">
<ele>55</ele>
</trkpt>
<trkpt lat="35.812423055555556" lon="139.49859694444444">
<ele>55</ele>
</trkpt>
<trkpt lat="35.81263194444445" lon="139.49882194444444">
<ele>55</ele>
</trkpt>
<trkpt lat="35.81267305555556" lon="139.498885">
<ele>55</ele>
</trkpt>
<trkpt lat="35.812981944444445" lon="139.49926">
<ele>55</ele>
</trkpt>
<trkpt lat="35.813206111111114" lon="139.49957194444445">
<ele>55</ele>
</trkpt>
<trkpt lat="35.81345611111111" lon="139.499985">
<ele>55</ele>
</trkpt>
<trkpt lat="35.81350611111111" lon="139.500085">
<ele>55</ele>
</trkpt>
<trkpt lat="35.813665" lon="139.50042194444444">
<ele>55</ele>
</trkpt>
<trkpt lat="35.813765" lon="139.50070888888888">
<ele>55</ele>
</trkpt>
<trkpt lat="35.81379" lon="139.50079694444443">
<ele>55</ele>
</trkpt>
<trkpt lat="35.81393111111111" lon="139.50149694444445">
<ele>55</ele>
</trkpt>
<trkpt lat="35.81399805555556" lon="139.50193388888889">
<ele>55</ele>
</trkpt>
<trkpt lat="35.81403111111111" lon="139.50215888888889">
<ele>55</ele>
</trkpt>
<trkpt lat="35.814065" lon="139.50240888888888">
<ele>55</ele>
</trkpt>
<trkpt lat="35.81417305555556" lon="139.50327194444444">
<ele>55</ele>
</trkpt>
<trkpt lat="35.81419805555556" lon="139.50347194444444">
<ele>55</ele>
</trkpt>
<trkpt lat="35.81427305555555" lon="139.50389694444445">
<ele>55</ele>
</trkpt>
<trkpt lat="35.814481111111114" lon="139.5048088888889">
<ele>55</ele>
</trkpt>
<trkpt lat="35.814515" lon="139.50507194444444">
<ele>55</ele>
</trkpt>
<trkpt lat="35.81468111111111" lon="139.5063088888889">
<ele>53</ele>
</trkpt>
<trkpt lat="35.814931111111115" lon="139.50762194444445">
<ele>53</ele>
</trkpt>
<trkpt lat="35.81499" lon="139.50785888888888">
<ele>52</ele>
</trkpt>
<trkpt lat="35.815065" lon="139.5081088888889">
<ele>52</ele>
</trkpt>
<trkpt lat="35.815415" lon="139.50908388888888">
<ele>51</ele>
</trkpt>
<trkpt lat="35.81544805555556" lon="139.50918388888888">
<ele>50</ele>
</trkpt>
<trkpt lat="35.81568111111111" lon="139.5100461111111">
<ele>50</ele>
</trkpt>
<trkpt lat="35.815781111111114" lon="139.5103711111111">
<ele>50</ele>
</trkpt>
<trkpt lat="35.816048055555555" lon="139.5110961111111">
<ele>50</ele>
</trkpt>
<trkpt lat="35.81610611111111" lon="139.51125888888888">
<ele>49</ele>
</trkpt>
<trkpt lat="35.81625611111111" lon="139.5120088888889">
<ele>49</ele>
</trkpt>
<trkpt lat="35.816365" lon="139.5124338888889">
<ele>48</ele>
</trkpt>
<trkpt lat="35.816465" lon="139.51272111111112">
<ele>48</ele>
</trkpt>
<trkpt lat="35.81665611111111" lon="139.51318388888888">
<ele>47</ele>
</trkpt>
<trkpt lat="35.817123055555555" lon="139.51417111111112">
<ele>46</ele>
</trkpt>
<trkpt lat="35.81737305555556" lon="139.51477111111112">
<ele>46</ele>
</trkpt>
<trkpt lat="35.817548055555555" lon="139.51505805555556">
<ele>45</ele>
</trkpt>
<trkpt lat="35.81779" lon="139.5153711111111">
<ele>45</ele>
</trkpt>
<trkpt lat="35.817865" lon="139.51544611111112">
<ele>45</ele>
</trkpt>
<trkpt lat="35.817886944444446" lon="139.51546694444446">
<ele>45</ele>
</trkpt>
<trkpt lat="35.817886944444446" lon="139.51546694444446">
<ele>45</ele>
</trkpt>
<trkpt lat="35.81808111111111" lon="139.51565805555555">
<ele>45</ele>
</trkpt>
<trkpt lat="35.81861388888889" lon="139.51609611111112">
<ele>45</ele>
</trkpt>
<trkpt lat="35.81859111111111" lon="139.51614194444446">
<ele>45</ele>
</trkpt>
<trkpt lat="35.81859111111111" lon="139.51614194444446">
<ele>45</ele>
</trkpt>
<trkpt lat="35.81795611111111" lon="139.51738305555557">
<ele>45</ele>
</trkpt>
<trkpt lat="35.817815" lon="139.51772111111111">
<ele>45</ele>
</trkpt>
<trkpt lat="35.81765611111111" lon="139.51820805555556">
<ele>45</ele>
</trkpt>
<trkpt lat="35.817573055555556" lon="139.51839611111112">
<ele>44</ele>
</trkpt>
<trkpt lat="35.81749" lon="139.51853305555557">
<ele>44</ele>
</trkpt>
<trkpt lat="35.81738111111111" lon="139.5186961111111">
<ele>44</ele>
</trkpt>
<trkpt lat="35.81714" lon="139.51900805555556">
<ele>44</ele>
</trkpt>
<trkpt lat="35.816898055555555" lon="139.5192211111111">
<ele>44</ele>
</trkpt>
<trkpt lat="35.816615" lon="139.51938305555555">
<ele>45</ele>
</trkpt>
<trkpt lat="35.81655111111111" lon="139.51941805555555">
<ele>45</ele>
</trkpt>
<trkpt lat="35.81655111111111" lon="139.51941805555555">
<ele>45</ele>
</trkpt>
<trkpt lat="35.815215" lon="139.52015805555556">
<ele>48</ele>
</trkpt>
<trkpt lat="35.814565" lon="139.52045805555557">
<ele>48</ele>
</trkpt>
<trkpt lat="35.81422388888889" lon="139.52060805555556">
<ele>49</ele>
</trkpt>
<trkpt lat="35.81364" lon="139.5207961111111">
<ele>49</ele>
</trkpt>
<trkpt lat="35.81265694444444" lon="139.5210461111111">
<ele>49</ele>
</trkpt>
<trkpt lat="35.81232388888889" lon="139.52110805555554">
<ele>49</ele>
</trkpt>
<trkpt lat="35.81136611111111" lon="139.52122111111112">
<ele>49</ele>
</trkpt>
<trkpt lat="35.810881944444446" lon="139.5212711111111">
<ele>49</ele>
</trkpt>
<trkpt lat="35.80924111111111" lon="139.52143305555555">
<ele>50</ele>
</trkpt>
<trkpt lat="35.809245" lon="139.52146888888888">
<ele>50</ele>
</trkpt>
<trkpt lat="35.809245" lon="139.52146805555554">
<ele>50</ele>
</trkpt>
<trkpt lat="35.80924111111111" lon="139.52143305555555">
<ele>50</ele>
</trkpt>
<trkpt lat="35.80918305555556" lon="139.52098305555555">
<ele>50</ele>
</trkpt>
<trkpt lat="35.80914888888889" lon="139.5206711111111">
<ele>50</ele>
</trkpt>
<trkpt lat="35.80911611111111" lon="139.5203711111111">
<ele>50</ele>
</trkpt>
<trkpt lat="35.80909888888889" lon="139.52015805555556">
<ele>50</ele>
</trkpt>
<trkpt lat="35.809066111111115" lon="139.51988305555557">
<ele>50</ele>
</trkpt>
<trkpt lat="35.80901611111111" lon="139.51940805555554">
<ele>50</ele>
</trkpt>
<trkpt lat="35.808956944444446" lon="139.5188711111111">
<ele>50</ele>
</trkpt>
<trkpt lat="35.80889111111111" lon="139.51830805555556">
<ele>50</ele>
</trkpt>
<trkpt lat="35.80882388888889" lon="139.5177338888889">
<ele>50</ele>
</trkpt>
<trkpt lat="35.808683055555555" lon="139.5164961111111">
<ele>50</ele>
</trkpt>
<trkpt lat="35.80863305555555" lon="139.5160338888889">
<ele>50</ele>
</trkpt>
<trkpt lat="35.80859888888889" lon="139.51575888888888">
<ele>50</ele>
</trkpt>
<trkpt lat="35.808506944444446" lon="139.5152338888889">
<ele>50</ele>
</trkpt>
<trkpt lat="35.808433055555554" lon="139.51488388888887">
<ele>50</ele>
</trkpt>
<trkpt lat="35.80836611111111" lon="139.51464611111112">
<ele>50</ele>
</trkpt>
<trkpt lat="35.80831611111111" lon="139.5144461111111">
<ele>50</ele>
</trkpt>
<trkpt lat="35.80819888888889" lon="139.51408388888888">
<ele>50</ele>
</trkpt>
<trkpt lat="35.808098888888885" lon="139.5138211111111">
<ele>50</ele>
</trkpt>
<trkpt lat="35.80794888888889" lon="139.5134711111111">
<ele>50</ele>
</trkpt>
<trkpt lat="35.80791611111111" lon="139.51340888888888">
<ele>50</ele>
</trkpt>
<trkpt lat="35.80775805555555" lon="139.5130961111111">
<ele>47</ele>
</trkpt>
<trkpt lat="35.807698888888886" lon="139.5129961111111">
<ele>47</ele>
</trkpt>
<trkpt lat="35.80751611111111" lon="139.5126838888889">
<ele>48</ele>
</trkpt>
<trkpt lat="35.80737388888889" lon="139.51248388888888">
<ele>48</ele>
</trkpt>
<trkpt lat="35.80719888888889" lon="139.5122338888889">
<ele>49</ele>
</trkpt>
<trkpt lat="35.806823888888886" lon="139.5117711111111">
<ele>49</ele>
</trkpt>
<trkpt lat="35.80672388888889" lon="139.5116588888889">
<ele>48</ele>
</trkpt>
<trkpt lat="35.806133055555556" lon="139.51094694444444">
<ele>48</ele>
</trkpt>
<trkpt lat="35.80546611111111" lon="139.51012194444445">
<ele>47</ele>
</trkpt>
<trkpt lat="35.80522388888889" lon="139.50979694444445">
<ele>46</ele>
</trkpt>
<trkpt lat="35.80499888888889" lon="139.50944694444445">
<ele>47</ele>
</trkpt>
<trkpt lat="35.80484111111111" lon="139.50919694444445">
<ele>48</ele>
</trkpt>
<trkpt lat="35.80457388888889" lon="139.50872194444443">
<ele>50</ele>
</trkpt>
<trkpt lat="35.804341111111114" lon="139.50828388888888">
<ele>52</ele>
</trkpt>
<trkpt lat="35.80389111111111" lon="139.50739694444445">
<ele>55</ele>
</trkpt>
<trkpt lat="35.80344111111111" lon="139.50652194444444">
<ele>55</ele>
</trkpt>
<trkpt lat="35.80303305555555" lon="139.50569694444445">
<ele>55</ele>
</trkpt>
<trkpt lat="35.802175" lon="139.50399694444445">
<ele>57</ele>
</trkpt>
<trkpt lat="35.8021" lon="139.50384694444443">
<ele>58</ele>
</trkpt>
<trkpt lat="35.80186611111111" lon="139.503385">
<ele>59</ele>
</trkpt>
<trkpt lat="35.80154111111111" lon="139.50272194444443">
<ele>60</ele>
</trkpt>
<trkpt lat="35.80123305555556" lon="139.50207194444445">
<ele>60</ele>
</trkpt>
<trkpt lat="35.8011" lon="139.50176">
<ele>60</ele>
</trkpt>
<trkpt lat="35.80070805555555" lon="139.50074694444444">
<ele>61</ele>
</trkpt>
<trkpt lat="35.80060805555556" lon="139.500485">
<ele>61</ele>
</trkpt>
<trkpt lat="35.80038305555556" lon="139.49984805555556">
<ele>60</ele>
</trkpt>
<trkpt lat="35.800311944444445" lon="139.4999061111111">
<ele>60</ele>
</trkpt>
<trkpt lat="35.800311944444445" lon="139.4999061111111">
<ele>60</ele>
</trkpt>
<trkpt lat="35.80038305555556" lon="139.49984805555556">
<ele>60</ele>
</trkpt>
<trkpt lat="35.8003" lon="139.49962194444444">
<ele>60</ele>
</trkpt>
<trkpt lat="35.80048305555555" lon="139.49946">
<ele>60</ele>
</trkpt>
<trkpt lat="35.800775" lon="139.49924694444445">
<ele>60</ele>
</trkpt>
<trkpt lat="35.801583055555554" lon="139.49862305555556">
<ele>60</ele>
</trkpt>
<trkpt lat="35.80190805555556" lon="139.498385">
<ele>59</ele>
</trkpt>
<trkpt lat="35.8024" lon="139.49804805555556">
<ele>58</ele>
</trkpt>
<trkpt lat="35.802908055555555" lon="139.49766">
<ele>57</ele>
</trkpt>
<trkpt lat="35.80329111111111" lon="139.49737305555556">
<ele>56</ele>
</trkpt>
<trkpt lat="35.80389888888889" lon="139.49689805555556">
<ele>54</ele>
</trkpt>
<trkpt lat="35.804048888888886" lon="139.496785">
<ele>53</ele>
</trkpt>
<trkpt lat="35.80409111111111" lon="139.49674805555554">
<ele>54</ele>
</trkpt>
<trkpt lat="35.805641111111115" lon="139.49554805555556">
<ele>53</ele>
</trkpt>
<trkpt lat="35.807698888888886" lon="139.49394805555556">
<ele>57</ele>
</trkpt>
<trkpt lat="35.80884888888889" lon="139.49304805555556">
<ele>58</ele>
</trkpt>
<trkpt lat="35.809956944444444" lon="139.492185">
<ele>57</ele>
</trkpt>
<trkpt lat="35.811015" lon="139.49137305555556">
<ele>57</ele>
</trkpt>
<trkpt lat="35.81192305555555" lon="139.49066">
<ele>58</ele>
</trkpt>
<trkpt lat="35.81279" lon="139.48996">
<ele>57</ele>
</trkpt>
<trkpt lat="35.813406111111114" lon="139.48939805555557">
<ele>57</ele>
</trkpt>
<trkpt lat="35.81401388888889" lon="139.48877305555555">
<ele>58</ele>
</trkpt>
<trkpt lat="35.81482305555556" lon="139.487885">
<ele>58</ele>
</trkpt>
<trkpt lat="35.81571388888889" lon="139.48692305555556">
<ele>58</ele>
</trkpt>
<trkpt lat="35.81710611111111" lon="139.48537305555556">
<ele>58</ele>
</trkpt>
<trkpt lat="35.817146944444445" lon="139.48547305555556">
<ele>58</ele>
</trkpt>
<trkpt lat="35.81810611111111" lon="139.4844611111111">
<ele>59</ele>
</trkpt>
<trkpt lat="35.81968888888889" lon="139.4827361111111">
<ele>59</ele>
</trkpt>
<trkpt lat="35.82048" lon="139.48188611111112">
<ele>60</ele>
</trkpt>
<trkpt lat="35.82132194444444" lon="139.4809611111111">
<ele>60</ele>
</trkpt>
<trkpt lat="35.823346111111114" lon="139.4787611111111">
<ele>59</ele>
</trkpt>
<trkpt lat="35.82424611111111" lon="139.47776305555556">
<ele>59</ele>
</trkpt>
<trkpt lat="35.82424611111111" lon="139.47776305555556">
<ele>59</ele>
</trkpt>
<trkpt lat="35.82430388888889" lon="139.47769805555555">
<ele>59</ele>
</trkpt>
<trkpt lat="35.82477111111111" lon="139.47838611111112">
<ele>57</ele>
</trkpt>
<trkpt lat="35.82529611111111" lon="139.47916111111113">
<ele>56</ele>
</trkpt>
<trkpt lat="35.82580388888889" lon="139.4799111111111">
<ele>56</ele>
</trkpt>
<trkpt lat="35.82604611111111" lon="139.48027305555556">
<ele>55</ele>
</trkpt>
<trkpt lat="35.82645388888889" lon="139.4809111111111">
<ele>55</ele>
</trkpt>
<trkpt lat="35.82652888888889" lon="139.48104805555556">
<ele>55</ele>
</trkpt>
<trkpt lat="35.827238055555554" lon="139.48234805555555">
<ele>55</ele>
</trkpt>
<trkpt lat="35.82772888888889" lon="139.483185">
<ele>52</ele>
</trkpt>
<trkpt lat="35.82801194444444" lon="139.48367305555556">
<ele>51</ele>
</trkpt>
<trkpt lat="35.82852111111111" lon="139.48471">
<ele>50</ele>
</trkpt>
<trkpt lat="35.828921111111114" lon="139.48554694444445">
<ele>50</ele>
</trkpt>
<trkpt lat="35.828938055555554" lon="139.485585">
<ele>50</ele>
</trkpt>
<trkpt lat="35.82976194444444" lon="139.487435">
<ele>50</ele>
</trkpt>
<trkpt lat="35.829836944444445" lon="139.48759694444445">
<ele>50</ele>
</trkpt>
<trkpt lat="35.82998694444444" lon="139.487935">
<ele>51</ele>
</trkpt>
<trkpt lat="35.83012111111111" lon="139.48822305555555">
<ele>50</ele>
</trkpt>
<trkpt lat="35.830236944444444" lon="139.488485">
<ele>50</ele>
</trkpt>
<trkpt lat="35.830396111111114" lon="139.48884694444445">
<ele>50</ele>
</trkpt>
<trkpt lat="35.83065388888889" lon="139.4894611111111">
<ele>50</ele>
</trkpt>
<trkpt lat="35.83065388888889" lon="139.4894611111111">
<ele>50</ele>
</trkpt>
<trkpt lat="35.83077888888889" lon="139.48976">
<ele>50</ele>
</trkpt>
<trkpt lat="35.83087111111111" lon="139.490035">
<ele>50</ele>
</trkpt>
<trkpt lat="35.83098694444445" lon="139.49031">
<ele>50</ele>
</trkpt>
<trkpt lat="35.831496111111115" lon="139.49157194444444">
<ele>49</ele>
</trkpt>
<trkpt lat="35.83157111111111" lon="139.4917338888889">
<ele>49</ele>
</trkpt>
<trkpt lat="35.83207888888889" lon="139.49274694444443">
<ele>48</ele>
</trkpt>
<trkpt lat="35.83239611111111" lon="139.4933088888889">
<ele>48</ele>
</trkpt>
<trkpt lat="35.83269611111111" lon="139.49380888888888">
<ele>47</ele>
</trkpt>
<trkpt lat="35.83291194444445" lon="139.4941838888889">
<ele>47</ele>
</trkpt>
<trkpt lat="35.83327" lon="139.49479694444443">
<ele>47</ele>
</trkpt>
<trkpt lat="35.83336194444444" lon="139.49492194444446">
<ele>47</ele>
</trkpt>
<trkpt lat="35.833645" lon="139.4953088888889">
<ele>46</ele>
</trkpt>
<trkpt lat="35.83396194444445" lon="139.49573388888888">
<ele>46</ele>
</trkpt>
<trkpt lat="35.83402888888889" lon="139.49582194444446">
<ele>46</ele>
</trkpt>
<trkpt lat="35.83407888888889" lon="139.4958838888889">
<ele>46</ele>
</trkpt>
<trkpt lat="35.83437888888889" lon="139.4962588888889">
<ele>45</ele>
</trkpt>
<trkpt lat="35.83450388888889" lon="139.49642194444445">
<ele>45</ele>
</trkpt>
<trkpt lat="35.83477888888889" lon="139.4967838888889">
<ele>45</ele>
</trkpt>
<trkpt lat="35.834986944444445" lon="139.4970588888889">
<ele>45</ele>
</trkpt>
<trkpt lat="35.83507888888889" lon="139.4971588888889">
<ele>45</ele>
</trkpt>
<trkpt lat="35.836198055555556" lon="139.49864888888888">
<ele>43</ele>
</trkpt>
<trkpt lat="35.836198055555556" lon="139.49864888888888">
<ele>43</ele>
</trkpt>
<trkpt lat="35.836261944444445" lon="139.4987338888889">
<ele>43</ele>
</trkpt>
<trkpt lat="35.836545" lon="139.4985338888889">
<ele>43</ele>
</trkpt>
<trkpt lat="35.836595" lon="139.4984961111111">
<ele>43</ele>
</trkpt>
<trkpt lat="35.83687" lon="139.4983088888889">
<ele>42</ele>
</trkpt>
<trkpt lat="35.83706194444444" lon="139.4981961111111">
<ele>42</ele>
</trkpt>
<trkpt lat="35.83717" lon="139.49812111111112">
<ele>42</ele>
</trkpt>
<trkpt lat="35.83747805555556" lon="139.4979461111111">
<ele>42</ele>
</trkpt>
<trkpt lat="35.83767805555556" lon="139.4978338888889">
<ele>41</ele>
</trkpt>
<trkpt lat="35.83795305555556" lon="139.4976838888889">
<ele>41</ele>
</trkpt>
<trkpt lat="35.83813611111111" lon="139.4975838888889">
<ele>41</ele>
</trkpt>
<trkpt lat="35.83826111111111" lon="139.49754611111112">
<ele>41</ele>
</trkpt>
<trkpt lat="35.83842" lon="139.4975088888889">
<ele>41</ele>
</trkpt>
<trkpt lat="35.83893611111111" lon="139.49744611111112">
<ele>40</ele>
</trkpt>
<trkpt lat="35.839128055555555" lon="139.49743388888888">
<ele>40</ele>
</trkpt>
<trkpt lat="35.84090305555556" lon="139.4972838888889">
<ele>36</ele>
</trkpt>
<trkpt lat="35.84126111111111" lon="139.4972461111111">
<ele>36</ele>
</trkpt>
<trkpt lat="35.84180305555556" lon="139.4972338888889">
<ele>37</ele>
</trkpt>
<trkpt lat="35.84188611111111" lon="139.4972461111111">
<ele>37</ele>
</trkpt>
<trkpt lat="35.843268888888886" lon="139.49720888888888">
<ele>38</ele>
</trkpt>
<trkpt lat="35.844101944444446" lon="139.4971711111111">
<ele>39</ele>
</trkpt>
<trkpt lat="35.84451111111111" lon="139.4971711111111">
<ele>38</ele>
</trkpt>
<trkpt lat="35.84565194444444" lon="139.4971588888889">
<ele>37</ele>
</trkpt>
<trkpt lat="35.84599388888889" lon="139.4971588888889">
<ele>36</ele>
</trkpt>
<trkpt lat="35.84692694444445" lon="139.4971338888889">
<ele>35</ele>
</trkpt>
<trkpt lat="35.84756888888889" lon="139.49710805555554">
<ele>35</ele>
</trkpt>
<trkpt lat="35.84817694444445" lon="139.4970711111111">
<ele>34</ele>
</trkpt>
<trkpt lat="35.848776944444445" lon="139.49705805555556">
<ele>35</ele>
</trkpt>
<trkpt lat="35.848976944444445" lon="139.4970461111111">
<ele>34</ele>
</trkpt>
<trkpt lat="35.84975194444444" lon="139.4970211111111">
<ele>34</ele>
</trkpt>
<trkpt lat="35.84986" lon="139.49701611111112">
<ele>34</ele>
</trkpt>
<trkpt lat="35.84986" lon="139.49701611111112">
<ele>34</ele>
</trkpt>
<trkpt lat="35.84975194444444" lon="139.4970211111111">
<ele>34</ele>
</trkpt>
<trkpt lat="35.849735" lon="139.49733305555554">
<ele>34</ele>
</trkpt>
<trkpt lat="35.84957694444444" lon="139.49893305555557">
<ele>33</ele>
</trkpt>
<trkpt lat="35.84950194444444" lon="139.4996711111111">
<ele>33</ele>
</trkpt>
<trkpt lat="35.849451944444446" lon="139.50024611111112">
<ele>32</ele>
</trkpt>
<trkpt lat="35.84935194444444" lon="139.50078305555556">
<ele>32</ele>
</trkpt>
<trkpt lat="35.84931888888889" lon="139.50093305555555">
<ele>32</ele>
</trkpt>
<trkpt lat="35.849176944444444" lon="139.50150805555555">
<ele>32</ele>
</trkpt>
<trkpt lat="35.849043888888886" lon="139.5019961111111">
<ele>32</ele>
</trkpt>
<trkpt lat="35.848885" lon="139.50245805555556">
<ele>32</ele>
</trkpt>
<trkpt lat="35.84882694444445" lon="139.50262111111113">
<ele>32</ele>
</trkpt>
<trkpt lat="35.84866888888889" lon="139.50309611111112">
<ele>31</ele>
</trkpt>
<trkpt lat="35.848618888888886" lon="139.50330805555555">
<ele>31</ele>
</trkpt>
<trkpt lat="35.848576944444446" lon="139.50360805555556">
<ele>30</ele>
</trkpt>
<trkpt lat="35.848638888888885" lon="139.50378388888888">
<ele>30</ele>
</trkpt>
<trkpt lat="35.848638888888885" lon="139.50378305555554">
<ele>30</ele>
</trkpt>
<trkpt lat="35.84871888888889" lon="139.50400805555554">
<ele>29</ele>
</trkpt>
<trkpt lat="35.848935" lon="139.50458305555554">
<ele>29</ele>
</trkpt>
<trkpt lat="35.84934388888889" lon="139.505745">
<ele>28</ele>
</trkpt>
<trkpt lat="35.84949388888889" lon="139.50612">
<ele>28</ele>
</trkpt>
<trkpt lat="35.84961888888889" lon="139.50640694444445">
<ele>28</ele>
</trkpt>
<trkpt lat="35.84961888888889" lon="139.50640694444445">
<ele>28</ele>
</trkpt>
<trkpt lat="35.849651944444446" lon="139.50648305555555">
<ele>28</ele>
</trkpt>
<trkpt lat="35.84853611111111" lon="139.50723305555556">
<ele>26</ele>
</trkpt>
<trkpt lat="35.84799388888889" lon="139.507595">
<ele>25</ele>
</trkpt>
<trkpt lat="35.847451944444444" lon="139.50795805555555">
<ele>25</ele>
</trkpt>
<trkpt lat="35.84699388888889" lon="139.50825805555556">
<ele>25</ele>
</trkpt>
<trkpt lat="35.84641888888889" lon="139.50858194444444">
<ele>25</ele>
</trkpt>
<trkpt lat="35.84629388888889" lon="139.508645">
<ele>25</ele>
</trkpt>
<trkpt lat="35.84556111111111" lon="139.50903194444444">
<ele>25</ele>
</trkpt>
<trkpt lat="35.845486944444445" lon="139.50907805555556">
<ele>25</ele>
</trkpt>
<trkpt lat="35.845486944444445" lon="139.50907805555556">
<ele>25</ele>
</trkpt>
<trkpt lat="35.84556111111111" lon="139.50903194444444">
<ele>25</ele>
</trkpt>
<trkpt lat="35.845576944444446" lon="139.50845805555556">
<ele>25</ele>
</trkpt>
<trkpt lat="35.84554388888889" lon="139.50803305555556">
<ele>30</ele>
</trkpt>
<trkpt lat="35.84554388888889" lon="139.507795">
<ele>30</ele>
</trkpt>
<trkpt lat="35.84566111111111" lon="139.50697">
<ele>30</ele>
</trkpt>
<trkpt lat="35.84596111111111" lon="139.50532">
<ele>28</ele>
</trkpt>
<trkpt lat="35.84596111111111" lon="139.50485805555556">
<ele>29</ele>
</trkpt>
<trkpt lat="35.84593611111111" lon="139.50457111111112">
<ele>28</ele>
</trkpt>
<trkpt lat="35.845928055555554" lon="139.50451694444445">
<ele>28</ele>
</trkpt>
<trkpt lat="35.845928055555554" lon="139.50451694444445">
<ele>28</ele>
</trkpt>
<trkpt lat="35.84590194444444" lon="139.50434611111112">
<ele>29</ele>
</trkpt>
<trkpt lat="35.845711111111115" lon="139.5044211111111">
<ele>30</ele>
</trkpt>
<trkpt lat="35.84534388888889" lon="139.5045211111111">
<ele>30</ele>
</trkpt>
<trkpt lat="35.84471888888889" lon="139.50468305555555">
<ele>31</ele>
</trkpt>
<trkpt lat="35.84437805555555" lon="139.50479611111112">
<ele>31</ele>
</trkpt>
<trkpt lat="35.84364388888889" lon="139.5050461111111">
<ele>32</ele>
</trkpt>
<trkpt lat="35.84341111111111" lon="139.50515805555557">
<ele>32</ele>
</trkpt>
<trkpt lat="35.84318611111111" lon="139.5052961111111">
<ele>32</ele>
</trkpt>
<trkpt lat="35.84281111111111" lon="139.50555805555555">
<ele>33</ele>
</trkpt>
<trkpt lat="35.842528055555555" lon="139.5057711111111">
<ele>33</ele>
</trkpt>
<trkpt lat="35.84222805555556" lon="139.50598305555556">
<ele>33</ele>
</trkpt>
<trkpt lat="35.841903055555555" lon="139.50620805555556">
<ele>34</ele>
</trkpt>
<trkpt lat="35.841653055555554" lon="139.50635805555555">
<ele>34</ele>
</trkpt>
<trkpt lat="35.84164888888889" lon="139.50634805555555">
<ele>34</ele>
</trkpt>
<trkpt lat="35.84164888888889" lon="139.50634805555555">
<ele>34</ele>
</trkpt>
<trkpt lat="35.84157" lon="139.50617111111112">
<ele>34</ele>
</trkpt>
<trkpt lat="35.84011111111111" lon="139.50395805555556">
<ele>38</ele>
</trkpt>
<trkpt lat="35.839645" lon="139.50328305555556">
<ele>39</ele>
</trkpt>
<trkpt lat="35.83958194444445" lon="139.50319305555556">
<ele>39</ele>
</trkpt>
<trkpt lat="35.83958194444445" lon="139.50319305555556">
<ele>39</ele>
</trkpt>
<trkpt lat="35.839645" lon="139.50328305555556">
<ele>39</ele>
</trkpt>
<trkpt lat="35.83941111111111" lon="139.50338305555556">
<ele>40</ele>
</trkpt>
<trkpt lat="35.83917805555556" lon="139.5034711111111">
<ele>40</ele>
</trkpt>
<trkpt lat="35.83902" lon="139.50354611111112">
<ele>40</ele>
</trkpt>
<trkpt lat="35.83846194444445" lon="139.50375805555555">
<ele>40</ele>
</trkpt>
<trkpt lat="35.837095" lon="139.50433305555555">
<ele>41</ele>
</trkpt>
<trkpt lat="35.836545" lon="139.50455805555555">
<ele>42</ele>
</trkpt>
<trkpt lat="35.83633694444445" lon="139.5046461111111">
<ele>42</ele>
</trkpt>
<trkpt lat="35.83571194444445" lon="139.5049461111111">
<ele>41</ele>
</trkpt>
<trkpt lat="35.83491194444444" lon="139.50537111111112">
<ele>40</ele>
</trkpt>
<trkpt lat="35.83424611111111" lon="139.5057711111111">
<ele>39</ele>
</trkpt>
<trkpt lat="35.83394611111111" lon="139.50594611111111">
<ele>39</ele>
</trkpt>
<trkpt lat="35.833213055555554" lon="139.50643305555556">
<ele>40</ele>
</trkpt>
<trkpt lat="35.83255388888889" lon="139.50684611111112">
<ele>40</ele>
</trkpt>
<trkpt lat="35.83217888888889" lon="139.50710805555556">
<ele>41</ele>
</trkpt>
<trkpt lat="35.83154611111111" lon="139.50760805555555">
<ele>42</ele>
</trkpt>
<trkpt lat="35.830938055555556" lon="139.5081211111111">
<ele>43</ele>
</trkpt>
<trkpt lat="35.83017888888889" lon="139.50880805555556">
<ele>43</ele>
</trkpt>
<trkpt lat="35.82998805555555" lon="139.50898305555555">
<ele>43</ele>
</trkpt>
<trkpt lat="35.82985611111111" lon="139.5088011111111">
<ele>43</ele>
</trkpt>
<trkpt lat="35.82985611111111" lon="139.5088011111111">
<ele>43</ele>
</trkpt>
<trkpt lat="35.82829611111111" lon="139.5066461111111">
<ele>45</ele>
</trkpt>
<trkpt lat="35.82757111111111" lon="139.50570888888888">
<ele>46</ele>
</trkpt>
<trkpt lat="35.827466111111114" lon="139.50552694444445">
<ele>46</ele>
</trkpt>
<trkpt lat="35.827466111111114" lon="139.50552694444445">
<ele>46</ele>
</trkpt>
<trkpt lat="35.82757111111111" lon="139.50570888888888">
<ele>46</ele>
</trkpt>
<trkpt lat="35.82885388888889" lon="139.50443388888888">
<ele>45</ele>
</trkpt>
<trkpt lat="35.82952888888889" lon="139.50377111111112">
<ele>45</ele>
</trkpt>
<trkpt lat="35.83017111111111" lon="139.5031711111111">
<ele>45</ele>
</trkpt>
<trkpt lat="35.83061305555555" lon="139.5027838888889">
<ele>45</ele>
</trkpt>
<trkpt lat="35.83070388888889" lon="139.5026961111111">
<ele>45</ele>
</trkpt>
<trkpt lat="35.83077888888889" lon="139.50264611111112">
<ele>45</ele>
</trkpt>
<trkpt lat="35.83100388888889" lon="139.5024461111111">
<ele>45</ele>
</trkpt>
<trkpt lat="35.831363055555556" lon="139.50215888888889">
<ele>45</ele>
</trkpt>
<trkpt lat="35.83164611111111" lon="139.50195888888888">
<ele>45</ele>
</trkpt>
<trkpt lat="35.831738055555554" lon="139.5019088888889">
<ele>45</ele>
</trkpt>
<trkpt lat="35.83215388888889" lon="139.50160888888888">
<ele>45</ele>
</trkpt>
<trkpt lat="35.83363694444444" lon="139.5005588888889">
<ele>46</ele>
</trkpt>
<trkpt lat="35.83562" lon="139.4991961111111">
<ele>44</ele>
</trkpt>
<trkpt lat="35.836261944444445" lon="139.4987338888889">
<ele>43</ele>
</trkpt>
<trkpt lat="35.836131944444446" lon="139.49856111111112">
<ele>43</ele>
</trkpt>
<trkpt lat="35.836131944444446" lon="139.49856111111112">
<ele>43</ele>
</trkpt>
<trkpt lat="35.836261944444445" lon="139.4987338888889">
<ele>43</ele>
</trkpt>
<trkpt lat="35.83562" lon="139.4991961111111">
<ele>44</ele>
</trkpt>
<trkpt lat="35.83363694444444" lon="139.5005588888889">
<ele>46</ele>
</trkpt>
<trkpt lat="35.83215388888889" lon="139.50160888888888">
<ele>45</ele>
</trkpt>
<trkpt lat="35.831738055555554" lon="139.5019088888889">
<ele>45</ele>
</trkpt>
<trkpt lat="35.83164611111111" lon="139.50195888888888">
<ele>45</ele>
</trkpt>
<trkpt lat="35.831363055555556" lon="139.50215888888889">
<ele>45</ele>
</trkpt>
<trkpt lat="35.83100388888889" lon="139.5024461111111">
<ele>45</ele>
</trkpt>
<trkpt lat="35.83077888888889" lon="139.50264611111112">
<ele>45</ele>
</trkpt>
<trkpt lat="35.83070388888889" lon="139.5026961111111">
<ele>45</ele>
</trkpt>
<trkpt lat="35.83061305555555" lon="139.5027838888889">
<ele>45</ele>
</trkpt>
<trkpt lat="35.83017111111111" lon="139.5031711111111">
<ele>45</ele>
</trkpt>
<trkpt lat="35.82952888888889" lon="139.50377111111112">
<ele>45</ele>
</trkpt>
<trkpt lat="35.82885388888889" lon="139.50443388888888">
<ele>45</ele>
</trkpt>
<trkpt lat="35.82757111111111" lon="139.50570888888888">
<ele>46</ele>
</trkpt>
<trkpt lat="35.82664694444444" lon="139.5066461111111">
<ele>46</ele>
</trkpt>
<trkpt lat="35.825496944444446" lon="139.5077961111111">
<ele>46</ele>
</trkpt>
<trkpt lat="35.82456194444445" lon="139.5087111111111">
<ele>46</ele>
</trkpt>
<trkpt lat="35.82456194444445" lon="139.5087111111111">
<ele>46</ele>
</trkpt>
<trkpt lat="35.82453888888889" lon="139.50873388888888">
<ele>46</ele>
</trkpt>
<trkpt lat="35.82709694444444" lon="139.51205805555554">
<ele>43</ele>
</trkpt>
<trkpt lat="35.827438055555554" lon="139.51250805555554">
<ele>42</ele>
</trkpt>
<trkpt lat="35.82772194444444" lon="139.5128711111111">
<ele>42</ele>
</trkpt>
<trkpt lat="35.828921111111114" lon="139.51442111111112">
<ele>40</ele>
</trkpt>
<trkpt lat="35.82902111111111" lon="139.5145961111111">
<ele>40</ele>
</trkpt>
<trkpt lat="35.82911305555555" lon="139.51480805555556">
<ele>39</ele>
</trkpt>
<trkpt lat="35.82953" lon="139.51597">
<ele>39</ele>
</trkpt>
<trkpt lat="35.830013055555554" lon="139.51732">
<ele>38</ele>
</trkpt>
<trkpt lat="35.830396111111114" lon="139.51823305555556">
<ele>37</ele>
</trkpt>
<trkpt lat="35.83072111111111" lon="139.518945">
<ele>36</ele>
</trkpt>
<trkpt lat="35.83183" lon="139.52142">
<ele>34</ele>
</trkpt>
<trkpt lat="35.832055" lon="139.52192">
<ele>34</ele>
</trkpt>
<trkpt lat="35.83217111111111" lon="139.52212">
<ele>34</ele>
</trkpt>
<trkpt lat="35.832413055555556" lon="139.52247">
<ele>34</ele>
</trkpt>
<trkpt lat="35.832755" lon="139.52288194444444">
<ele>34</ele>
</trkpt>
<trkpt lat="35.83283111111111" lon="139.52297388888888">
<ele>33</ele>
</trkpt>
<trkpt lat="35.83283111111111" lon="139.52297388888888">
<ele>33</ele>
</trkpt>
<trkpt lat="35.832755" lon="139.52288194444444">
<ele>34</ele>
</trkpt>
<trkpt lat="35.831496111111115" lon="139.52353194444444">
<ele>34</ele>
</trkpt>
<trkpt lat="35.83002194444445" lon="139.52427">
<ele>33</ele>
</trkpt>
<trkpt lat="35.82968805555556" lon="139.52443194444444">
<ele>33</ele>
</trkpt>
<trkpt lat="35.82903805555556" lon="139.52475694444445">
<ele>33</ele>
</trkpt>
<trkpt lat="35.828805" lon="139.52488194444445">
<ele>33</ele>
</trkpt>
<trkpt lat="35.82808888888889" lon="139.52537">
<ele>33</ele>
</trkpt>
<trkpt lat="35.827446944444446" lon="139.5258438888889">
<ele>33</ele>
</trkpt>
<trkpt lat="35.82738" lon="139.5258938888889">
<ele>33</ele>
</trkpt>
<trkpt lat="35.82727611111111" lon="139.525995">
<ele>33</ele>
</trkpt>
<trkpt lat="35.82727611111111" lon="139.525995">
<ele>33</ele>
</trkpt>
<trkpt lat="35.82738" lon="139.5258938888889">
<ele>33</ele>
</trkpt>
<trkpt lat="35.827446944444446" lon="139.5258438888889">
<ele>33</ele>
</trkpt>
<trkpt lat="35.82773" lon="139.52640694444443">
<ele>32</ele>
</trkpt>
<trkpt lat="35.82797305555555" lon="139.52692305555556">
<ele>32</ele>
</trkpt>
    </trkseg>
  </trk>
</gpx>