<?xml version="1.0" encoding="UTF-8"?>
<gpx version="1.1"
     creator="KMLtoGPX"
     xmlns="http://www.topografix.com/GPX/1/1">
  <metadata>
    <name>A castle town with a sense of history and famous gourmet food</name>
    <desc>歴史感じる城下町と名物グルメ</desc>
    <bounds minlat="36.43481" minlon="139.01178" maxlat="36.54084" maxlon="139.0604"/>
  </metadata>
  <trk>
    <name>A castle town with a sense of history and famous gourmet food</name>
    <trkseg>
<trkpt lat="36.4402" lon="139.05291">
<ele>128.7</ele>
</trkpt>
<trkpt lat="36.44046" lon="139.05323">
<ele>129.8</ele>
</trkpt>
<trkpt lat="36.44047" lon="139.05321">
<ele>129.7</ele>
</trkpt>
<trkpt lat="36.44077" lon="139.05274">
<ele>129.2</ele>
</trkpt>
<trkpt lat="36.44114" lon="139.05218">
<ele>130.8</ele>
</trkpt>
<trkpt lat="36.44114" lon="139.05218">
<ele>130.8</ele>
</trkpt>
<trkpt lat="36.44134" lon="139.05236">
<ele>131.0</ele>
</trkpt>
<trkpt lat="36.44153" lon="139.05254">
<ele>131.8</ele>
</trkpt>
<trkpt lat="36.44154" lon="139.05253">
<ele>131.7</ele>
</trkpt>
<trkpt lat="36.44173" lon="139.05223">
<ele>132.5</ele>
</trkpt>
<trkpt lat="36.44198" lon="139.05183">
<ele>134.3</ele>
</trkpt>
<trkpt lat="36.44204" lon="139.05173">
<ele>134.7</ele>
</trkpt>
<trkpt lat="36.44228" lon="139.05148">
<ele>135.9</ele>
</trkpt>
<trkpt lat="36.44242" lon="139.05138">
<ele>136.2</ele>
</trkpt>
<trkpt lat="36.44256" lon="139.05134">
<ele>136.9</ele>
</trkpt>
<trkpt lat="36.44258" lon="139.05133">
<ele>137.0</ele>
</trkpt>
<trkpt lat="36.44257" lon="139.05122">
<ele>136.4</ele>
</trkpt>
<trkpt lat="36.44256" lon="139.0512">
<ele>136.2</ele>
</trkpt>
<trkpt lat="36.44277" lon="139.05115">
<ele>137.9</ele>
</trkpt>
<trkpt lat="36.44287" lon="139.05113">
<ele>138.8</ele>
</trkpt>
<trkpt lat="36.44348" lon="139.05095">
<ele>144.0</ele>
</trkpt>
<trkpt lat="36.44386" lon="139.0508">
<ele>148.1</ele>
</trkpt>
<trkpt lat="36.444" lon="139.05077">
<ele>149.5</ele>
</trkpt>
<trkpt lat="36.44416" lon="139.05075">
<ele>151.2</ele>
</trkpt>
<trkpt lat="36.44432" lon="139.05076">
<ele>151.9</ele>
</trkpt>
<trkpt lat="36.44469" lon="139.05083">
<ele>153.9</ele>
</trkpt>
<trkpt lat="36.44494" lon="139.05089">
<ele>155.2</ele>
</trkpt>
<trkpt lat="36.44508" lon="139.05101">
<ele>155.9</ele>
</trkpt>
<trkpt lat="36.44513" lon="139.05114">
<ele>156.5</ele>
</trkpt>
<trkpt lat="36.44526" lon="139.0513">
<ele>156.9</ele>
</trkpt>
<trkpt lat="36.44557" lon="139.05148">
<ele>156.4</ele>
</trkpt>
<trkpt lat="36.4457" lon="139.05163">
<ele>156.6</ele>
</trkpt>
<trkpt lat="36.4464" lon="139.05227">
<ele>156.3</ele>
</trkpt>
<trkpt lat="36.44646" lon="139.05229">
<ele>156.4</ele>
</trkpt>
<trkpt lat="36.44647" lon="139.05233">
<ele>156.5</ele>
</trkpt>
<trkpt lat="36.44672" lon="139.0533">
<ele>158.0</ele>
</trkpt>
<trkpt lat="36.44684" lon="139.05352">
<ele>158.5</ele>
</trkpt>
<trkpt lat="36.44744" lon="139.05428">
<ele>161.0</ele>
</trkpt>
<trkpt lat="36.4475" lon="139.05436">
<ele>161.2</ele>
</trkpt>
<trkpt lat="36.44811" lon="139.05478">
<ele>163.0</ele>
</trkpt>
<trkpt lat="36.44842" lon="139.05482">
<ele>164.1</ele>
</trkpt>
<trkpt lat="36.44868" lon="139.05481">
<ele>165.7</ele>
</trkpt>
<trkpt lat="36.44945" lon="139.05473">
<ele>168.8</ele>
</trkpt>
<trkpt lat="36.44989" lon="139.05476">
<ele>170.1</ele>
</trkpt>
<trkpt lat="36.45007" lon="139.05477">
<ele>170.9</ele>
</trkpt>
<trkpt lat="36.45084" lon="139.05494">
<ele>175.1</ele>
</trkpt>
<trkpt lat="36.45145" lon="139.05529">
<ele>177.3</ele>
</trkpt>
<trkpt lat="36.45175" lon="139.05547">
<ele>178.6</ele>
</trkpt>
<trkpt lat="36.45216" lon="139.05574">
<ele>179.4</ele>
</trkpt>
<trkpt lat="36.45236" lon="139.05592">
<ele>179.7</ele>
</trkpt>
<trkpt lat="36.4526" lon="139.05619">
<ele>179.5</ele>
</trkpt>
<trkpt lat="36.45285" lon="139.05634">
<ele>179.9</ele>
</trkpt>
<trkpt lat="36.45345" lon="139.05679">
<ele>185.0</ele>
</trkpt>
<trkpt lat="36.45372" lon="139.05697">
<ele>185.2</ele>
</trkpt>
<trkpt lat="36.45372" lon="139.05697">
<ele>185.2</ele>
</trkpt>
<trkpt lat="36.45417" lon="139.05727">
<ele>186.2</ele>
</trkpt>
<trkpt lat="36.45499" lon="139.0577">
<ele>190.4</ele>
</trkpt>
<trkpt lat="36.45561" lon="139.05796">
<ele>192.8</ele>
</trkpt>
<trkpt lat="36.45636" lon="139.05823">
<ele>197.4</ele>
</trkpt>
<trkpt lat="36.45654" lon="139.05832">
<ele>198.9</ele>
</trkpt>
<trkpt lat="36.45654" lon="139.05832">
<ele>198.9</ele>
</trkpt>
<trkpt lat="36.45696" lon="139.05853">
<ele>200.8</ele>
</trkpt>
<trkpt lat="36.45761" lon="139.05879">
<ele>205.7</ele>
</trkpt>
<trkpt lat="36.45825" lon="139.05905">
<ele>213.7</ele>
</trkpt>
<trkpt lat="36.4589" lon="139.05931">
<ele>217.3</ele>
</trkpt>
<trkpt lat="36.45955" lon="139.05957">
<ele>220.1</ele>
</trkpt>
<trkpt lat="36.46027" lon="139.05984">
<ele>223.1</ele>
</trkpt>
<trkpt lat="36.461" lon="139.0601">
<ele>224.0</ele>
</trkpt>
<trkpt lat="36.46173" lon="139.06037">
<ele>224.4</ele>
</trkpt>
<trkpt lat="36.46173" lon="139.06037">
<ele>224.4</ele>
</trkpt>
<trkpt lat="36.46182" lon="139.0604">
<ele>224.4</ele>
</trkpt>
<trkpt lat="36.46201" lon="139.05985">
<ele>225.9</ele>
</trkpt>
<trkpt lat="36.4621" lon="139.0597">
<ele>225.6</ele>
</trkpt>
<trkpt lat="36.46244" lon="139.0592">
<ele>224.2</ele>
</trkpt>
<trkpt lat="36.46261" lon="139.05902">
<ele>222.4</ele>
</trkpt>
<trkpt lat="36.46267" lon="139.05898">
<ele>221.8</ele>
</trkpt>
<trkpt lat="36.46267" lon="139.05898">
<ele>221.8</ele>
</trkpt>
<trkpt lat="36.46267" lon="139.05898">
<ele>221.8</ele>
</trkpt>
<trkpt lat="36.46284" lon="139.05889">
<ele>220.7</ele>
</trkpt>
<trkpt lat="36.46354" lon="139.05873">
<ele>217.7</ele>
</trkpt>
<trkpt lat="36.46373" lon="139.05865">
<ele>216.8</ele>
</trkpt>
<trkpt lat="36.46385" lon="139.05857">
<ele>216.1</ele>
</trkpt>
<trkpt lat="36.46397" lon="139.05847">
<ele>215.5</ele>
</trkpt>
<trkpt lat="36.46412" lon="139.0583">
<ele>214.9</ele>
</trkpt>
<trkpt lat="36.4643" lon="139.05805">
<ele>215.0</ele>
</trkpt>
<trkpt lat="36.4643" lon="139.05805">
<ele>215.0</ele>
</trkpt>
<trkpt lat="36.46457" lon="139.05769">
<ele>216.0</ele>
</trkpt>
<trkpt lat="36.46492" lon="139.05725">
<ele>217.8</ele>
</trkpt>
<trkpt lat="36.46527" lon="139.05682">
<ele>218.4</ele>
</trkpt>
<trkpt lat="36.46553" lon="139.0564">
<ele>218.1</ele>
</trkpt>
<trkpt lat="36.46566" lon="139.05613">
<ele>217.3</ele>
</trkpt>
<trkpt lat="36.46585" lon="139.05563">
<ele>215.6</ele>
</trkpt>
<trkpt lat="36.46585" lon="139.05563">
<ele>215.6</ele>
</trkpt>
<trkpt lat="36.46597" lon="139.05527">
<ele>215.5</ele>
</trkpt>
<trkpt lat="36.46604" lon="139.05469">
<ele>214.1</ele>
</trkpt>
<trkpt lat="36.46611" lon="139.0543">
<ele>212.9</ele>
</trkpt>
<trkpt lat="36.46616" lon="139.05413">
<ele>212.4</ele>
</trkpt>
<trkpt lat="36.46624" lon="139.05398">
<ele>211.4</ele>
</trkpt>
<trkpt lat="36.46639" lon="139.05387">
<ele>211.1</ele>
</trkpt>
<trkpt lat="36.46654" lon="139.05381">
<ele>211.2</ele>
</trkpt>
<trkpt lat="36.46738" lon="139.05359">
<ele>213.3</ele>
</trkpt>
<trkpt lat="36.46738" lon="139.05358">
<ele>213.2</ele>
</trkpt>
<trkpt lat="36.46753" lon="139.05355">
<ele>213.7</ele>
</trkpt>
<trkpt lat="36.46771" lon="139.05345">
<ele>213.2</ele>
</trkpt>
<trkpt lat="36.46802" lon="139.05325">
<ele>212.9</ele>
</trkpt>
<trkpt lat="36.46813" lon="139.05314">
<ele>212.8</ele>
</trkpt>
<trkpt lat="36.46823" lon="139.05305">
<ele>212.8</ele>
</trkpt>
<trkpt lat="36.46833" lon="139.05291">
<ele>212.7</ele>
</trkpt>
<trkpt lat="36.46842" lon="139.05272">
<ele>212.6</ele>
</trkpt>
<trkpt lat="36.46852" lon="139.05246">
<ele>213.6</ele>
</trkpt>
<trkpt lat="36.46869" lon="139.05164">
<ele>224.1</ele>
</trkpt>
<trkpt lat="36.46872" lon="139.05157">
<ele>224.3</ele>
</trkpt>
<trkpt lat="36.46872" lon="139.05157">
<ele>224.3</ele>
</trkpt>
<trkpt lat="36.46876" lon="139.05147">
<ele>224.7</ele>
</trkpt>
<trkpt lat="36.46925" lon="139.05066">
<ele>226.9</ele>
</trkpt>
<trkpt lat="36.46985" lon="139.04996">
<ele>228.2</ele>
</trkpt>
<trkpt lat="36.47046" lon="139.04926">
<ele>230.0</ele>
</trkpt>
<trkpt lat="36.47046" lon="139.04926">
<ele>230.0</ele>
</trkpt>
<trkpt lat="36.47104" lon="139.04859">
<ele>232.2</ele>
</trkpt>
<trkpt lat="36.47163" lon="139.04793">
<ele>233.4</ele>
</trkpt>
<trkpt lat="36.47239" lon="139.04738">
<ele>232.6</ele>
</trkpt>
<trkpt lat="36.47297" lon="139.04701">
<ele>233.8</ele>
</trkpt>
<trkpt lat="36.47354" lon="139.04663">
<ele>233.1</ele>
</trkpt>
<trkpt lat="36.47375" lon="139.04656">
<ele>234.1</ele>
</trkpt>
<trkpt lat="36.47385" lon="139.04654">
<ele>234.6</ele>
</trkpt>
<trkpt lat="36.47401" lon="139.04656">
<ele>235.7</ele>
</trkpt>
<trkpt lat="36.47433" lon="139.04666">
<ele>237.0</ele>
</trkpt>
<trkpt lat="36.47488" lon="139.04702">
<ele>238.4</ele>
</trkpt>
<trkpt lat="36.47508" lon="139.04717">
<ele>239.1</ele>
</trkpt>
<trkpt lat="36.4752" lon="139.04722">
<ele>239.6</ele>
</trkpt>
<trkpt lat="36.47524" lon="139.04723">
<ele>239.8</ele>
</trkpt>
<trkpt lat="36.47538" lon="139.04719">
<ele>239.8</ele>
</trkpt>
<trkpt lat="36.47542" lon="139.04715">
<ele>239.8</ele>
</trkpt>
<trkpt lat="36.47554" lon="139.04701">
<ele>239.8</ele>
</trkpt>
<trkpt lat="36.47556" lon="139.04692">
<ele>239.8</ele>
</trkpt>
<trkpt lat="36.47557" lon="139.04676">
<ele>239.8</ele>
</trkpt>
<trkpt lat="36.47551" lon="139.04656">
<ele>239.8</ele>
</trkpt>
<trkpt lat="36.47544" lon="139.04634">
<ele>240.1</ele>
</trkpt>
<trkpt lat="36.47541" lon="139.04615">
<ele>240.5</ele>
</trkpt>
<trkpt lat="36.47542" lon="139.04592">
<ele>241.3</ele>
</trkpt>
<trkpt lat="36.47548" lon="139.04575">
<ele>241.7</ele>
</trkpt>
<trkpt lat="36.47553" lon="139.04565">
<ele>241.8</ele>
</trkpt>
<trkpt lat="36.47586" lon="139.04515">
<ele>242.4</ele>
</trkpt>
<trkpt lat="36.47599" lon="139.04508">
<ele>242.4</ele>
</trkpt>
<trkpt lat="36.47599" lon="139.04508">
<ele>242.4</ele>
</trkpt>
<trkpt lat="36.47629" lon="139.04493">
<ele>242.1</ele>
</trkpt>
<trkpt lat="36.47643" lon="139.04485">
<ele>241.8</ele>
</trkpt>
<trkpt lat="36.4769" lon="139.04468">
<ele>241.9</ele>
</trkpt>
<trkpt lat="36.4769" lon="139.04468">
<ele>241.9</ele>
</trkpt>
<trkpt lat="36.47742" lon="139.04445">
<ele>242.7</ele>
</trkpt>
<trkpt lat="36.47794" lon="139.04422">
<ele>243.2</ele>
</trkpt>
<trkpt lat="36.47794" lon="139.04422">
<ele>243.2</ele>
</trkpt>
<trkpt lat="36.47844" lon="139.04397">
<ele>244.0</ele>
</trkpt>
<trkpt lat="36.47899" lon="139.04358">
<ele>245.7</ele>
</trkpt>
<trkpt lat="36.47954" lon="139.04301">
<ele>245.2</ele>
</trkpt>
<trkpt lat="36.48009" lon="139.04244">
<ele>244.0</ele>
</trkpt>
<trkpt lat="36.4804" lon="139.0419">
<ele>241.3</ele>
</trkpt>
<trkpt lat="36.4807" lon="139.04136">
<ele>238.5</ele>
</trkpt>
<trkpt lat="36.48075" lon="139.04128">
<ele>238.1</ele>
</trkpt>
<trkpt lat="36.48139" lon="139.04061">
<ele>233.0</ele>
</trkpt>
<trkpt lat="36.48151" lon="139.04044">
<ele>231.6</ele>
</trkpt>
<trkpt lat="36.48161" lon="139.04014">
<ele>229.1</ele>
</trkpt>
<trkpt lat="36.48173" lon="139.03942">
<ele>229.2</ele>
</trkpt>
<trkpt lat="36.48172" lon="139.03935">
<ele>229.2</ele>
</trkpt>
<trkpt lat="36.4817" lon="139.03923">
<ele>229.2</ele>
</trkpt>
<trkpt lat="36.48166" lon="139.03914">
<ele>228.9</ele>
</trkpt>
<trkpt lat="36.48142" lon="139.03887">
<ele>226.4</ele>
</trkpt>
<trkpt lat="36.48123" lon="139.03868">
<ele>224.6</ele>
</trkpt>
<trkpt lat="36.48068" lon="139.03814">
<ele>221.6</ele>
</trkpt>
<trkpt lat="36.4806" lon="139.03805">
<ele>221.7</ele>
</trkpt>
<trkpt lat="36.48055" lon="139.03797">
<ele>221.7</ele>
</trkpt>
<trkpt lat="36.48052" lon="139.0379">
<ele>221.7</ele>
</trkpt>
<trkpt lat="36.48043" lon="139.03761">
<ele>221.5</ele>
</trkpt>
<trkpt lat="36.48022" lon="139.03671">
<ele>218.2</ele>
</trkpt>
<trkpt lat="36.48004" lon="139.03589">
<ele>217.2</ele>
</trkpt>
<trkpt lat="36.48003" lon="139.03575">
<ele>217.1</ele>
</trkpt>
<trkpt lat="36.48004" lon="139.03562">
<ele>217.0</ele>
</trkpt>
<trkpt lat="36.48014" lon="139.0352">
<ele>216.1</ele>
</trkpt>
<trkpt lat="36.48019" lon="139.03493">
<ele>215.6</ele>
</trkpt>
<trkpt lat="36.4802" lon="139.03477">
<ele>215.4</ele>
</trkpt>
<trkpt lat="36.48017" lon="139.03461">
<ele>214.8</ele>
</trkpt>
<trkpt lat="36.48012" lon="139.03446">
<ele>214.2</ele>
</trkpt>
<trkpt lat="36.47986" lon="139.03392">
<ele>211.4</ele>
</trkpt>
<trkpt lat="36.47953" lon="139.03321">
<ele>210.1</ele>
</trkpt>
<trkpt lat="36.4795" lon="139.0331">
<ele>209.8</ele>
</trkpt>
<trkpt lat="36.47948" lon="139.03295">
<ele>209.6</ele>
</trkpt>
<trkpt lat="36.4795" lon="139.03284">
<ele>209.4</ele>
</trkpt>
<trkpt lat="36.47955" lon="139.03267">
<ele>209.0</ele>
</trkpt>
<trkpt lat="36.47962" lon="139.03253">
<ele>208.4</ele>
</trkpt>
<trkpt lat="36.47968" lon="139.03246">
<ele>207.6</ele>
</trkpt>
<trkpt lat="36.47977" lon="139.03239">
<ele>206.1</ele>
</trkpt>
<trkpt lat="36.47998" lon="139.03233">
<ele>204.2</ele>
</trkpt>
<trkpt lat="36.48024" lon="139.03234">
<ele>203.5</ele>
</trkpt>
<trkpt lat="36.48045" lon="139.03233">
<ele>202.5</ele>
</trkpt>
<trkpt lat="36.48058" lon="139.03229">
<ele>201.4</ele>
</trkpt>
<trkpt lat="36.48072" lon="139.03222">
<ele>199.7</ele>
</trkpt>
<trkpt lat="36.48086" lon="139.03206">
<ele>197.0</ele>
</trkpt>
<trkpt lat="36.48093" lon="139.03196">
<ele>196.5</ele>
</trkpt>
<trkpt lat="36.48114" lon="139.03149">
<ele>193.8</ele>
</trkpt>
<trkpt lat="36.48118" lon="139.0314">
<ele>193.7</ele>
</trkpt>
<trkpt lat="36.48128" lon="139.03131">
<ele>194.6</ele>
</trkpt>
<trkpt lat="36.48138" lon="139.03126">
<ele>195.9</ele>
</trkpt>
<trkpt lat="36.48147" lon="139.03127">
<ele>197.7</ele>
</trkpt>
<trkpt lat="36.48157" lon="139.0313">
<ele>199.7</ele>
</trkpt>
<trkpt lat="36.48187" lon="139.03149">
<ele>202.8</ele>
</trkpt>
<trkpt lat="36.48195" lon="139.03151">
<ele>202.7</ele>
</trkpt>
<trkpt lat="36.4821" lon="139.03152">
<ele>202.2</ele>
</trkpt>
<trkpt lat="36.48216" lon="139.03148">
<ele>202.5</ele>
</trkpt>
<trkpt lat="36.48224" lon="139.03138">
<ele>203.2</ele>
</trkpt>
<trkpt lat="36.48227" lon="139.03123">
<ele>203.9</ele>
</trkpt>
<trkpt lat="36.48227" lon="139.03111">
<ele>204.5</ele>
</trkpt>
<trkpt lat="36.48225" lon="139.03101">
<ele>205.0</ele>
</trkpt>
<trkpt lat="36.48217" lon="139.03092">
<ele>204.5</ele>
</trkpt>
<trkpt lat="36.48195" lon="139.03081">
<ele>201.4</ele>
</trkpt>
<trkpt lat="36.4814" lon="139.0306">
<ele>191.8</ele>
</trkpt>
<trkpt lat="36.48121" lon="139.03052">
<ele>188.2</ele>
</trkpt>
<trkpt lat="36.48109" lon="139.03042">
<ele>185.8</ele>
</trkpt>
<trkpt lat="36.48103" lon="139.0303">
<ele>184.4</ele>
</trkpt>
<trkpt lat="36.48101" lon="139.0302">
<ele>183.8</ele>
</trkpt>
<trkpt lat="36.48101" lon="139.0301">
<ele>183.6</ele>
</trkpt>
<trkpt lat="36.48106" lon="139.02993">
<ele>183.6</ele>
</trkpt>
<trkpt lat="36.48113" lon="139.02986">
<ele>184.0</ele>
</trkpt>
<trkpt lat="36.48158" lon="139.02955">
<ele>186.2</ele>
</trkpt>
<trkpt lat="36.48223" lon="139.02914">
<ele>187.8</ele>
</trkpt>
<trkpt lat="36.48289" lon="139.02873">
<ele>190.8</ele>
</trkpt>
<trkpt lat="36.48354" lon="139.02833">
<ele>188.0</ele>
</trkpt>
<trkpt lat="36.48409" lon="139.02798">
<ele>188.7</ele>
</trkpt>
<trkpt lat="36.48464" lon="139.02762">
<ele>185.6</ele>
</trkpt>
<trkpt lat="36.48519" lon="139.02727">
<ele>182.6</ele>
</trkpt>
<trkpt lat="36.48546" lon="139.02713">
<ele>183.2</ele>
</trkpt>
<trkpt lat="36.48578" lon="139.02702">
<ele>184.4</ele>
</trkpt>
<trkpt lat="36.48595" lon="139.02696">
<ele>184.6</ele>
</trkpt>
<trkpt lat="36.48634" lon="139.0269">
<ele>184.5</ele>
</trkpt>
<trkpt lat="36.48686" lon="139.02683">
<ele>184.9</ele>
</trkpt>
<trkpt lat="36.48739" lon="139.02676">
<ele>186.6</ele>
</trkpt>
<trkpt lat="36.4879" lon="139.02672">
<ele>188.9</ele>
</trkpt>
<trkpt lat="36.48798" lon="139.02672">
<ele>189.3</ele>
</trkpt>
<trkpt lat="36.48827" lon="139.02669">
<ele>190.6</ele>
</trkpt>
<trkpt lat="36.48866" lon="139.02663">
<ele>192.5</ele>
</trkpt>
<trkpt lat="36.48881" lon="139.02659">
<ele>193.8</ele>
</trkpt>
<trkpt lat="36.48911" lon="139.02645">
<ele>196.4</ele>
</trkpt>
<trkpt lat="36.48924" lon="139.02632">
<ele>197.8</ele>
</trkpt>
<trkpt lat="36.48937" lon="139.02615">
<ele>199.4</ele>
</trkpt>
<trkpt lat="36.48942" lon="139.02604">
<ele>200.2</ele>
</trkpt>
<trkpt lat="36.48979" lon="139.0252">
<ele>202.5</ele>
</trkpt>
<trkpt lat="36.49016" lon="139.02436">
<ele>206.3</ele>
</trkpt>
<trkpt lat="36.49053" lon="139.02352">
<ele>207.8</ele>
</trkpt>
<trkpt lat="36.49082" lon="139.02291">
<ele>208.4</ele>
</trkpt>
<trkpt lat="36.49112" lon="139.0223">
<ele>208.5</ele>
</trkpt>
<trkpt lat="36.49138" lon="139.02182">
<ele>208.6</ele>
</trkpt>
<trkpt lat="36.49165" lon="139.02133">
<ele>208.3</ele>
</trkpt>
<trkpt lat="36.49198" lon="139.02076">
<ele>205.3</ele>
</trkpt>
<trkpt lat="36.49229" lon="139.02021">
<ele>202.6</ele>
</trkpt>
<trkpt lat="36.4926" lon="139.01967">
<ele>200.5</ele>
</trkpt>
<trkpt lat="36.49279" lon="139.01946">
<ele>199.9</ele>
</trkpt>
<trkpt lat="36.49346" lon="139.01901">
<ele>197.4</ele>
</trkpt>
<trkpt lat="36.49412" lon="139.01855">
<ele>190.3</ele>
</trkpt>
<trkpt lat="36.49433" lon="139.01847">
<ele>188.4</ele>
</trkpt>
<trkpt lat="36.49455" lon="139.01844">
<ele>187.0</ele>
</trkpt>
<trkpt lat="36.49516" lon="139.01843">
<ele>184.3</ele>
</trkpt>
<trkpt lat="36.4955" lon="139.01845">
<ele>183.7</ele>
</trkpt>
<trkpt lat="36.49585" lon="139.01856">
<ele>185.1</ele>
</trkpt>
<trkpt lat="36.4963" lon="139.01862">
<ele>184.4</ele>
</trkpt>
<trkpt lat="36.49689" lon="139.01864">
<ele>182.5</ele>
</trkpt>
<trkpt lat="36.49688" lon="139.01855">
<ele>181.7</ele>
</trkpt>
<trkpt lat="36.4969" lon="139.01921">
<ele>187.0</ele>
</trkpt>
<trkpt lat="36.49691" lon="139.01966">
<ele>191.3</ele>
</trkpt>
<trkpt lat="36.49694" lon="139.01986">
<ele>192.8</ele>
</trkpt>
<trkpt lat="36.49699" lon="139.02001">
<ele>193.4</ele>
</trkpt>
<trkpt lat="36.49706" lon="139.02015">
<ele>193.8</ele>
</trkpt>
<trkpt lat="36.49733" lon="139.02054">
<ele>193.6</ele>
</trkpt>
<trkpt lat="36.49763" lon="139.02096">
<ele>195.2</ele>
</trkpt>
<trkpt lat="36.49793" lon="139.02138">
<ele>198.4</ele>
</trkpt>
<trkpt lat="36.49816" lon="139.02162">
<ele>198.2</ele>
</trkpt>
<trkpt lat="36.49869" lon="139.02207">
<ele>201.1</ele>
</trkpt>
<trkpt lat="36.49897" lon="139.0223">
<ele>202.2</ele>
</trkpt>
<trkpt lat="36.49919" lon="139.02242">
<ele>201.7</ele>
</trkpt>
<trkpt lat="36.49994" lon="139.02271">
<ele>197.9</ele>
</trkpt>
<trkpt lat="36.50057" lon="139.02299">
<ele>199.1</ele>
</trkpt>
<trkpt lat="36.50071" lon="139.02306">
<ele>199.4</ele>
</trkpt>
<trkpt lat="36.50083" lon="139.02312">
<ele>199.7</ele>
</trkpt>
<trkpt lat="36.50119" lon="139.02331">
<ele>200.0</ele>
</trkpt>
<trkpt lat="36.50121" lon="139.02339">
<ele>200.6</ele>
</trkpt>
<trkpt lat="36.50132" lon="139.02346">
<ele>201.0</ele>
</trkpt>
<trkpt lat="36.50135" lon="139.02352">
<ele>201.4</ele>
</trkpt>
<trkpt lat="36.50138" lon="139.02351">
<ele>201.2</ele>
</trkpt>
<trkpt lat="36.50148" lon="139.02356">
<ele>201.4</ele>
</trkpt>
<trkpt lat="36.50151" lon="139.02347">
<ele>200.6</ele>
</trkpt>
<trkpt lat="36.50204" lon="139.02374">
<ele>203.9</ele>
</trkpt>
<trkpt lat="36.50223" lon="139.02383">
<ele>206.0</ele>
</trkpt>
<trkpt lat="36.50256" lon="139.02392">
<ele>209.4</ele>
</trkpt>
<trkpt lat="36.50287" lon="139.02394">
<ele>212.9</ele>
</trkpt>
<trkpt lat="36.5032" lon="139.02389">
<ele>214.8</ele>
</trkpt>
<trkpt lat="36.50335" lon="139.02384">
<ele>214.8</ele>
</trkpt>
<trkpt lat="36.50353" lon="139.02376">
<ele>214.2</ele>
</trkpt>
<trkpt lat="36.50388" lon="139.02351">
<ele>211.4</ele>
</trkpt>
<trkpt lat="36.50455" lon="139.0231">
<ele>206.4</ele>
</trkpt>
<trkpt lat="36.50464" lon="139.02305">
<ele>205.7</ele>
</trkpt>
<trkpt lat="36.5049" lon="139.02298">
<ele>203.9</ele>
</trkpt>
<trkpt lat="36.50515" lon="139.02298">
<ele>202.2</ele>
</trkpt>
<trkpt lat="36.50528" lon="139.023">
<ele>201.4</ele>
</trkpt>
<trkpt lat="36.50557" lon="139.02308">
<ele>199.4</ele>
</trkpt>
<trkpt lat="36.50595" lon="139.02324">
<ele>196.6</ele>
</trkpt>
<trkpt lat="36.50609" lon="139.0233">
<ele>195.7</ele>
</trkpt>
<trkpt lat="36.50633" lon="139.02338">
<ele>196.9</ele>
</trkpt>
<trkpt lat="36.50653" lon="139.02344">
<ele>198.0</ele>
</trkpt>
<trkpt lat="36.50692" lon="139.02347">
<ele>198.7</ele>
</trkpt>
<trkpt lat="36.50754" lon="139.02339">
<ele>196.1</ele>
</trkpt>
<trkpt lat="36.50816" lon="139.0233">
<ele>192.6</ele>
</trkpt>
<trkpt lat="36.50861" lon="139.02327">
<ele>193.5</ele>
</trkpt>
<trkpt lat="36.50919" lon="139.0233">
<ele>197.3</ele>
</trkpt>
<trkpt lat="36.50967" lon="139.02337">
<ele>198.0</ele>
</trkpt>
<trkpt lat="36.5099" lon="139.02346">
<ele>201.2</ele>
</trkpt>
<trkpt lat="36.51026" lon="139.02367">
<ele>205.4</ele>
</trkpt>
<trkpt lat="36.51053" lon="139.02386">
<ele>204.8</ele>
</trkpt>
<trkpt lat="36.5109" lon="139.02412">
<ele>199.0</ele>
</trkpt>
<trkpt lat="36.51126" lon="139.0245">
<ele>202.0</ele>
</trkpt>
<trkpt lat="36.51162" lon="139.02488">
<ele>200.1</ele>
</trkpt>
<trkpt lat="36.51189" lon="139.02514">
<ele>200.8</ele>
</trkpt>
<trkpt lat="36.51243" lon="139.0256">
<ele>199.0</ele>
</trkpt>
<trkpt lat="36.51313" lon="139.02618">
<ele>200.3</ele>
</trkpt>
<trkpt lat="36.51348" lon="139.02642">
<ele>201.0</ele>
</trkpt>
<trkpt lat="36.51404" lon="139.02677">
<ele>203.2</ele>
</trkpt>
<trkpt lat="36.51459" lon="139.02713">
<ele>207.6</ele>
</trkpt>
<trkpt lat="36.51481" lon="139.02727">
<ele>209.3</ele>
</trkpt>
<trkpt lat="36.51503" lon="139.02748">
<ele>211.3</ele>
</trkpt>
<trkpt lat="36.51516" lon="139.02764">
<ele>212.6</ele>
</trkpt>
<trkpt lat="36.5153" lon="139.02788">
<ele>214.3</ele>
</trkpt>
<trkpt lat="36.51548" lon="139.02838">
<ele>217.4</ele>
</trkpt>
<trkpt lat="36.51556" lon="139.02853">
<ele>218.5</ele>
</trkpt>
<trkpt lat="36.5157" lon="139.02878">
<ele>220.2</ele>
</trkpt>
<trkpt lat="36.51579" lon="139.02887">
<ele>221.0</ele>
</trkpt>
<trkpt lat="36.51601" lon="139.029">
<ele>222.8</ele>
</trkpt>
<trkpt lat="36.51612" lon="139.02905">
<ele>222.7</ele>
</trkpt>
<trkpt lat="36.51637" lon="139.02906">
<ele>219.9</ele>
</trkpt>
<trkpt lat="36.51675" lon="139.02902">
<ele>215.5</ele>
</trkpt>
<trkpt lat="36.51713" lon="139.02901">
<ele>214.4</ele>
</trkpt>
<trkpt lat="36.51722" lon="139.02902">
<ele>214.4</ele>
</trkpt>
<trkpt lat="36.51773" lon="139.02915">
<ele>214.6</ele>
</trkpt>
<trkpt lat="36.51825" lon="139.02928">
<ele>214.6</ele>
</trkpt>
<trkpt lat="36.51878" lon="139.02949">
<ele>214.3</ele>
</trkpt>
<trkpt lat="36.51899" lon="139.02964">
<ele>214.8</ele>
</trkpt>
<trkpt lat="36.51956" lon="139.03012">
<ele>216.7</ele>
</trkpt>
<trkpt lat="36.51966" lon="139.03018">
<ele>216.7</ele>
</trkpt>
<trkpt lat="36.51987" lon="139.03027">
<ele>215.6</ele>
</trkpt>
<trkpt lat="36.52035" lon="139.03042">
<ele>215.9</ele>
</trkpt>
<trkpt lat="36.52046" lon="139.03045">
<ele>216.0</ele>
</trkpt>
<trkpt lat="36.52065" lon="139.03051">
<ele>216.2</ele>
</trkpt>
<trkpt lat="36.52082" lon="139.03059">
<ele>216.7</ele>
</trkpt>
<trkpt lat="36.5213" lon="139.03085">
<ele>219.2</ele>
</trkpt>
<trkpt lat="36.5217" lon="139.03112">
<ele>221.3</ele>
</trkpt>
<trkpt lat="36.5224" lon="139.0317">
<ele>223.7</ele>
</trkpt>
<trkpt lat="36.52297" lon="139.03219">
<ele>224.5</ele>
</trkpt>
<trkpt lat="36.52317" lon="139.0323">
<ele>223.8</ele>
</trkpt>
<trkpt lat="36.52337" lon="139.03236">
<ele>223.0</ele>
</trkpt>
<trkpt lat="36.5237" lon="139.03243">
<ele>223.5</ele>
</trkpt>
<trkpt lat="36.52448" lon="139.03259">
<ele>224.4</ele>
</trkpt>
<trkpt lat="36.52527" lon="139.03275">
<ele>223.8</ele>
</trkpt>
<trkpt lat="36.52606" lon="139.03291">
<ele>222.8</ele>
</trkpt>
<trkpt lat="36.52685" lon="139.03308">
<ele>224.7</ele>
</trkpt>
<trkpt lat="36.52757" lon="139.03323">
<ele>230.3</ele>
</trkpt>
<trkpt lat="36.52829" lon="139.03338">
<ele>233.3</ele>
</trkpt>
<trkpt lat="36.52855" lon="139.03348">
<ele>233.2</ele>
</trkpt>
<trkpt lat="36.52876" lon="139.03365">
<ele>234.3</ele>
</trkpt>
<trkpt lat="36.5289" lon="139.03382">
<ele>236.1</ele>
</trkpt>
<trkpt lat="36.52925" lon="139.03436">
<ele>241.8</ele>
</trkpt>
<trkpt lat="36.52946" lon="139.03467">
<ele>243.3</ele>
</trkpt>
<trkpt lat="36.52975" lon="139.035">
<ele>246.5</ele>
</trkpt>
<trkpt lat="36.52996" lon="139.03517">
<ele>247.2</ele>
</trkpt>
<trkpt lat="36.53056" lon="139.03558">
<ele>246.6</ele>
</trkpt>
<trkpt lat="36.53092" lon="139.03577">
<ele>246.2</ele>
</trkpt>
<trkpt lat="36.53116" lon="139.03585">
<ele>246.0</ele>
</trkpt>
<trkpt lat="36.53125" lon="139.03587">
<ele>246.0</ele>
</trkpt>
<trkpt lat="36.53154" lon="139.03591">
<ele>244.9</ele>
</trkpt>
<trkpt lat="36.53193" lon="139.03589">
<ele>242.1</ele>
</trkpt>
<trkpt lat="36.53263" lon="139.03572">
<ele>236.5</ele>
</trkpt>
<trkpt lat="36.53281" lon="139.03566">
<ele>235.7</ele>
</trkpt>
<trkpt lat="36.53344" lon="139.03537">
<ele>235.0</ele>
</trkpt>
<trkpt lat="36.53407" lon="139.03509">
<ele>237.7</ele>
</trkpt>
<trkpt lat="36.53459" lon="139.03485">
<ele>236.0</ele>
</trkpt>
<trkpt lat="36.53511" lon="139.03462">
<ele>233.9</ele>
</trkpt>
<trkpt lat="36.53545" lon="139.03451">
<ele>234.1</ele>
</trkpt>
<trkpt lat="36.53573" lon="139.03444">
<ele>234.4</ele>
</trkpt>
<trkpt lat="36.53639" lon="139.03432">
<ele>235.0</ele>
</trkpt>
<trkpt lat="36.53667" lon="139.0343">
<ele>236.2</ele>
</trkpt>
<trkpt lat="36.53695" lon="139.03432">
<ele>235.8</ele>
</trkpt>
<trkpt lat="36.53742" lon="139.03435">
<ele>235.2</ele>
</trkpt>
<trkpt lat="36.53764" lon="139.03434">
<ele>235.2</ele>
</trkpt>
<trkpt lat="36.53836" lon="139.0342">
<ele>235.4</ele>
</trkpt>
<trkpt lat="36.53908" lon="139.03407">
<ele>237.7</ele>
</trkpt>
<trkpt lat="36.5398" lon="139.03394">
<ele>241.7</ele>
</trkpt>
<trkpt lat="36.53989" lon="139.03393">
<ele>242.3</ele>
</trkpt>
<trkpt lat="36.5401" lon="139.03393">
<ele>243.4</ele>
</trkpt>
<trkpt lat="36.54028" lon="139.03395">
<ele>244.1</ele>
</trkpt>
<trkpt lat="36.54031" lon="139.03396">
<ele>244.3</ele>
</trkpt>
<trkpt lat="36.5404" lon="139.03364">
<ele>240.6</ele>
</trkpt>
<trkpt lat="36.54044" lon="139.03336">
<ele>237.4</ele>
</trkpt>
<trkpt lat="36.5405" lon="139.0331">
<ele>234.7</ele>
</trkpt>
<trkpt lat="36.54056" lon="139.033">
<ele>233.7</ele>
</trkpt>
<trkpt lat="36.54082" lon="139.03276">
<ele>231.1</ele>
</trkpt>
<trkpt lat="36.54084" lon="139.03274">
<ele>230.9</ele>
</trkpt>
<trkpt lat="36.54079" lon="139.03187">
<ele>225.7</ele>
</trkpt>
<trkpt lat="36.54076" lon="139.03173">
<ele>225.2</ele>
</trkpt>
<trkpt lat="36.54071" lon="139.0316">
<ele>224.5</ele>
</trkpt>
<trkpt lat="36.54054" lon="139.03137">
<ele>223.2</ele>
</trkpt>
<trkpt lat="36.5404" lon="139.03116">
<ele>222.0</ele>
</trkpt>
<trkpt lat="36.54035" lon="139.031">
<ele>221.2</ele>
</trkpt>
<trkpt lat="36.54033" lon="139.03089">
<ele>220.7</ele>
</trkpt>
<trkpt lat="36.54033" lon="139.03003">
<ele>216.9</ele>
</trkpt>
<trkpt lat="36.54031" lon="139.02984">
<ele>216.1</ele>
</trkpt>
<trkpt lat="36.54028" lon="139.02972">
<ele>215.6</ele>
</trkpt>
<trkpt lat="36.54023" lon="139.02962">
<ele>215.1</ele>
</trkpt>
<trkpt lat="36.54015" lon="139.02953">
<ele>214.6</ele>
</trkpt>
<trkpt lat="36.54006" lon="139.02947">
<ele>214.2</ele>
</trkpt>
<trkpt lat="36.53994" lon="139.02946">
<ele>214.0</ele>
</trkpt>
<trkpt lat="36.53947" lon="139.0295">
<ele>213.7</ele>
</trkpt>
<trkpt lat="36.53899" lon="139.02954">
<ele>213.3</ele>
</trkpt>
<trkpt lat="36.53869" lon="139.02955">
<ele>212.9</ele>
</trkpt>
<trkpt lat="36.53851" lon="139.02951">
<ele>212.8</ele>
</trkpt>
<trkpt lat="36.53802" lon="139.02928">
<ele>212.5</ele>
</trkpt>
<trkpt lat="36.53791" lon="139.02925">
<ele>212.4</ele>
</trkpt>
<trkpt lat="36.53777" lon="139.02925">
<ele>212.3</ele>
</trkpt>
<trkpt lat="36.53761" lon="139.02928">
<ele>212.1</ele>
</trkpt>
<trkpt lat="36.53714" lon="139.02943">
<ele>211.0</ele>
</trkpt>
<trkpt lat="36.53668" lon="139.02958">
<ele>209.5</ele>
</trkpt>
<trkpt lat="36.53614" lon="139.02976">
<ele>207.1</ele>
</trkpt>
<trkpt lat="36.53559" lon="139.02994">
<ele>205.7</ele>
</trkpt>
<trkpt lat="36.53544" lon="139.03006">
<ele>206.1</ele>
</trkpt>
<trkpt lat="36.53533" lon="139.03016">
<ele>206.5</ele>
</trkpt>
<trkpt lat="36.53491" lon="139.03078">
<ele>208.1</ele>
</trkpt>
<trkpt lat="36.5345" lon="139.0314">
<ele>208.2</ele>
</trkpt>
<trkpt lat="36.53439" lon="139.03157">
<ele>208.2</ele>
</trkpt>
<trkpt lat="36.53437" lon="139.03159">
<ele>208.3</ele>
</trkpt>
<trkpt lat="36.53405" lon="139.03208">
<ele>208.6</ele>
</trkpt>
<trkpt lat="36.53372" lon="139.03256">
<ele>209.7</ele>
</trkpt>
<trkpt lat="36.53336" lon="139.03305">
<ele>210.7</ele>
</trkpt>
<trkpt lat="36.533" lon="139.03354">
<ele>212.5</ele>
</trkpt>
<trkpt lat="36.53274" lon="139.03386">
<ele>213.6</ele>
</trkpt>
<trkpt lat="36.53265" lon="139.03393">
<ele>213.9</ele>
</trkpt>
<trkpt lat="36.53245" lon="139.03404">
<ele>214.6</ele>
</trkpt>
<trkpt lat="36.53224" lon="139.0341">
<ele>213.7</ele>
</trkpt>
<trkpt lat="36.53188" lon="139.03411">
<ele>211.3</ele>
</trkpt>
<trkpt lat="36.53176" lon="139.03408">
<ele>210.3</ele>
</trkpt>
<trkpt lat="36.53118" lon="139.03395">
<ele>209.8</ele>
</trkpt>
<trkpt lat="36.53061" lon="139.03383">
<ele>212.2</ele>
</trkpt>
<trkpt lat="36.53014" lon="139.03362">
<ele>213.3</ele>
</trkpt>
<trkpt lat="36.52967" lon="139.03341">
<ele>217.4</ele>
</trkpt>
<trkpt lat="36.52944" lon="139.03324">
<ele>220.0</ele>
</trkpt>
<trkpt lat="36.52913" lon="139.03282">
<ele>218.0</ele>
</trkpt>
<trkpt lat="36.52897" lon="139.03247">
<ele>213.9</ele>
</trkpt>
<trkpt lat="36.52886" lon="139.03225">
<ele>213.8</ele>
</trkpt>
<trkpt lat="36.52868" lon="139.03213">
<ele>215.3</ele>
</trkpt>
<trkpt lat="36.52863" lon="139.03205">
<ele>215.3</ele>
</trkpt>
<trkpt lat="36.52807" lon="139.03191">
<ele>217.6</ele>
</trkpt>
<trkpt lat="36.52751" lon="139.03177">
<ele>216.1</ele>
</trkpt>
<trkpt lat="36.52751" lon="139.03177">
<ele>216.1</ele>
</trkpt>
<trkpt lat="36.52744" lon="139.03176">
<ele>216.0</ele>
</trkpt>
<trkpt lat="36.52726" lon="139.03166">
<ele>215.3</ele>
</trkpt>
<trkpt lat="36.52726" lon="139.03166">
<ele>215.3</ele>
</trkpt>
<trkpt lat="36.52695" lon="139.03145">
<ele>214.5</ele>
</trkpt>
<trkpt lat="36.52686" lon="139.03132">
<ele>214.0</ele>
</trkpt>
<trkpt lat="36.52667" lon="139.03091">
<ele>212.4</ele>
</trkpt>
<trkpt lat="36.52652" lon="139.03076">
<ele>212.4</ele>
</trkpt>
<trkpt lat="36.52593" lon="139.03057">
<ele>213.8</ele>
</trkpt>
<trkpt lat="36.52543" lon="139.03038">
<ele>213.1</ele>
</trkpt>
<trkpt lat="36.52492" lon="139.03019">
<ele>212.3</ele>
</trkpt>
<trkpt lat="36.52492" lon="139.03019">
<ele>212.3</ele>
</trkpt>
<trkpt lat="36.52475" lon="139.03013">
<ele>211.8</ele>
</trkpt>
<trkpt lat="36.52496" lon="139.02952">
<ele>210.8</ele>
</trkpt>
<trkpt lat="36.52516" lon="139.02891">
<ele>209.8</ele>
</trkpt>
<trkpt lat="36.52528" lon="139.02851">
<ele>209.3</ele>
</trkpt>
<trkpt lat="36.52548" lon="139.02777">
<ele>208.7</ele>
</trkpt>
<trkpt lat="36.52555" lon="139.0275">
<ele>208.7</ele>
</trkpt>
<trkpt lat="36.52576" lon="139.02682">
<ele>210.5</ele>
</trkpt>
<trkpt lat="36.52597" lon="139.02615">
<ele>209.2</ele>
</trkpt>
<trkpt lat="36.52627" lon="139.02543">
<ele>208.1</ele>
</trkpt>
<trkpt lat="36.52649" lon="139.02489">
<ele>208.3</ele>
</trkpt>
<trkpt lat="36.52672" lon="139.02436">
<ele>206.4</ele>
</trkpt>
<trkpt lat="36.52676" lon="139.02404">
<ele>204.8</ele>
</trkpt>
<trkpt lat="36.52687" lon="139.02302">
<ele>201.2</ele>
</trkpt>
<trkpt lat="36.52695" lon="139.02223">
<ele>200.6</ele>
</trkpt>
<trkpt lat="36.52696" lon="139.02193">
<ele>200.1</ele>
</trkpt>
<trkpt lat="36.5269" lon="139.02165">
<ele>199.5</ele>
</trkpt>
<trkpt lat="36.52684" lon="139.02153">
<ele>200.3</ele>
</trkpt>
<trkpt lat="36.52673" lon="139.02139">
<ele>201.5</ele>
</trkpt>
<trkpt lat="36.52628" lon="139.02099">
<ele>205.6</ele>
</trkpt>
<trkpt lat="36.52584" lon="139.0206">
<ele>209.7</ele>
</trkpt>
<trkpt lat="36.52559" lon="139.02038">
<ele>212.0</ele>
</trkpt>
<trkpt lat="36.5254" lon="139.02028">
<ele>213.6</ele>
</trkpt>
<trkpt lat="36.52517" lon="139.02028">
<ele>216.3</ele>
</trkpt>
<trkpt lat="36.52457" lon="139.0204">
<ele>216.9</ele>
</trkpt>
<trkpt lat="36.52397" lon="139.02053">
<ele>217.0</ele>
</trkpt>
<trkpt lat="36.52337" lon="139.02066">
<ele>219.0</ele>
</trkpt>
<trkpt lat="36.52318" lon="139.02064">
<ele>218.4</ele>
</trkpt>
<trkpt lat="36.52312" lon="139.0206">
<ele>218.6</ele>
</trkpt>
<trkpt lat="36.52298" lon="139.02044">
<ele>219.8</ele>
</trkpt>
<trkpt lat="36.52289" lon="139.02033">
<ele>220.4</ele>
</trkpt>
<trkpt lat="36.52284" lon="139.02024">
<ele>221.1</ele>
</trkpt>
<trkpt lat="36.5224" lon="139.01953">
<ele>225.0</ele>
</trkpt>
<trkpt lat="36.52199" lon="139.01884">
<ele>227.7</ele>
</trkpt>
<trkpt lat="36.52192" lon="139.01868">
<ele>228.4</ele>
</trkpt>
<trkpt lat="36.52188" lon="139.0182">
<ele>231.5</ele>
</trkpt>
<trkpt lat="36.52187" lon="139.01768">
<ele>233.1</ele>
</trkpt>
<trkpt lat="36.52181" lon="139.01767">
<ele>232.9</ele>
</trkpt>
<trkpt lat="36.52115" lon="139.01754">
<ele>228.9</ele>
</trkpt>
<trkpt lat="36.52092" lon="139.01753">
<ele>227.3</ele>
</trkpt>
<trkpt lat="36.52048" lon="139.01752">
<ele>222.9</ele>
</trkpt>
<trkpt lat="36.52012" lon="139.01745">
<ele>219.7</ele>
</trkpt>
<trkpt lat="36.51977" lon="139.01727">
<ele>217.6</ele>
</trkpt>
<trkpt lat="36.51946" lon="139.01714">
<ele>215.6</ele>
</trkpt>
<trkpt lat="36.51895" lon="139.01702">
<ele>212.2</ele>
</trkpt>
<trkpt lat="36.51825" lon="139.01691">
<ele>209.1</ele>
</trkpt>
<trkpt lat="36.51808" lon="139.01689">
<ele>208.3</ele>
</trkpt>
<trkpt lat="36.51749" lon="139.01683">
<ele>205.8</ele>
</trkpt>
<trkpt lat="36.51712" lon="139.01674">
<ele>205.0</ele>
</trkpt>
<trkpt lat="36.51629" lon="139.01643">
<ele>205.2</ele>
</trkpt>
<trkpt lat="36.51629" lon="139.01643">
<ele>205.2</ele>
</trkpt>
<trkpt lat="36.51568" lon="139.01618">
<ele>205.5</ele>
</trkpt>
<trkpt lat="36.51514" lon="139.01594">
<ele>204.4</ele>
</trkpt>
<trkpt lat="36.51514" lon="139.01594">
<ele>204.4</ele>
</trkpt>
<trkpt lat="36.51496" lon="139.01587">
<ele>203.8</ele>
</trkpt>
<trkpt lat="36.51476" lon="139.01583">
<ele>203.7</ele>
</trkpt>
<trkpt lat="36.51417" lon="139.01554">
<ele>204.1</ele>
</trkpt>
<trkpt lat="36.51359" lon="139.01525">
<ele>202.3</ele>
</trkpt>
<trkpt lat="36.51362" lon="139.01515">
<ele>202.5</ele>
</trkpt>
<trkpt lat="36.51374" lon="139.01521">
<ele>203.1</ele>
</trkpt>
<trkpt lat="36.51374" lon="139.01521">
<ele>203.1</ele>
</trkpt>
<trkpt lat="36.51427" lon="139.01548">
<ele>204.6</ele>
</trkpt>
<trkpt lat="36.5148" lon="139.01575">
<ele>204.4</ele>
</trkpt>
<trkpt lat="36.51496" lon="139.01587">
<ele>203.8</ele>
</trkpt>
<trkpt lat="36.51476" lon="139.01583">
<ele>203.7</ele>
</trkpt>
<trkpt lat="36.51417" lon="139.01554">
<ele>204.1</ele>
</trkpt>
<trkpt lat="36.51359" lon="139.01525">
<ele>202.3</ele>
</trkpt>
<trkpt lat="36.51304" lon="139.01494">
<ele>200.9</ele>
</trkpt>
<trkpt lat="36.51226" lon="139.01447">
<ele>199.2</ele>
</trkpt>
<trkpt lat="36.51173" lon="139.01422">
<ele>197.3</ele>
</trkpt>
<trkpt lat="36.51089" lon="139.01387">
<ele>197.1</ele>
</trkpt>
<trkpt lat="36.51028" lon="139.01362">
<ele>196.8</ele>
</trkpt>
<trkpt lat="36.50968" lon="139.01347">
<ele>195.9</ele>
</trkpt>
<trkpt lat="36.50891" lon="139.01343">
<ele>194.6</ele>
</trkpt>
<trkpt lat="36.50844" lon="139.01339">
<ele>193.4</ele>
</trkpt>
<trkpt lat="36.50835" lon="139.01336">
<ele>193.1</ele>
</trkpt>
<trkpt lat="36.50798" lon="139.01331">
<ele>192.2</ele>
</trkpt>
<trkpt lat="36.50858" lon="139.0133">
<ele>193.6</ele>
</trkpt>
<trkpt lat="36.50878" lon="139.01331">
<ele>193.5</ele>
</trkpt>
<trkpt lat="36.50878" lon="139.01334">
<ele>193.5</ele>
</trkpt>
<trkpt lat="36.50878" lon="139.01339">
<ele>193.5</ele>
</trkpt>
<trkpt lat="36.50878" lon="139.01342">
<ele>193.5</ele>
</trkpt>
<trkpt lat="36.50844" lon="139.01339">
<ele>193.4</ele>
</trkpt>
<trkpt lat="36.50835" lon="139.01336">
<ele>193.1</ele>
</trkpt>
<trkpt lat="36.50798" lon="139.01331">
<ele>192.2</ele>
</trkpt>
<trkpt lat="36.50721" lon="139.01332">
<ele>191.4</ele>
</trkpt>
<trkpt lat="36.50682" lon="139.01336">
<ele>191.8</ele>
</trkpt>
<trkpt lat="36.50664" lon="139.01329">
<ele>191.9</ele>
</trkpt>
<trkpt lat="36.50635" lon="139.01312">
<ele>191.7</ele>
</trkpt>
<trkpt lat="36.50634" lon="139.01315">
<ele>191.8</ele>
</trkpt>
<trkpt lat="36.50617" lon="139.01396">
<ele>189.6</ele>
</trkpt>
<trkpt lat="36.506" lon="139.01476">
<ele>190.1</ele>
</trkpt>
<trkpt lat="36.50592" lon="139.01474">
<ele>190.1</ele>
</trkpt>
<trkpt lat="36.50532" lon="139.0146">
<ele>190.2</ele>
</trkpt>
<trkpt lat="36.50499" lon="139.01452">
<ele>190.3</ele>
</trkpt>
<trkpt lat="36.50458" lon="139.0144">
<ele>189.6</ele>
</trkpt>
<trkpt lat="36.50403" lon="139.01423">
<ele>188.9</ele>
</trkpt>
<trkpt lat="36.50358" lon="139.01403">
<ele>188.0</ele>
</trkpt>
<trkpt lat="36.50349" lon="139.01399">
<ele>187.8</ele>
</trkpt>
<trkpt lat="36.50307" lon="139.01374">
<ele>185.2</ele>
</trkpt>
<trkpt lat="36.50272" lon="139.01347">
<ele>182.0</ele>
</trkpt>
<trkpt lat="36.50255" lon="139.01331">
<ele>181.5</ele>
</trkpt>
<trkpt lat="36.50243" lon="139.0132">
<ele>181.2</ele>
</trkpt>
<trkpt lat="36.50206" lon="139.01288">
<ele>180.3</ele>
</trkpt>
<trkpt lat="36.50169" lon="139.01256">
<ele>179.3</ele>
</trkpt>
<trkpt lat="36.50128" lon="139.01229">
<ele>178.4</ele>
</trkpt>
<trkpt lat="36.50111" lon="139.01218">
<ele>178.0</ele>
</trkpt>
<trkpt lat="36.5007" lon="139.01199">
<ele>177.1</ele>
</trkpt>
<trkpt lat="36.5005" lon="139.01192">
<ele>176.7</ele>
</trkpt>
<trkpt lat="36.50017" lon="139.01183">
<ele>178.6</ele>
</trkpt>
<trkpt lat="36.49971" lon="139.01178">
<ele>179.0</ele>
</trkpt>
<trkpt lat="36.49934" lon="139.01179">
<ele>178.2</ele>
</trkpt>
<trkpt lat="36.49894" lon="139.01185">
<ele>177.6</ele>
</trkpt>
<trkpt lat="36.49894" lon="139.01185">
<ele>177.6</ele>
</trkpt>
<trkpt lat="36.4984" lon="139.01203">
<ele>177.0</ele>
</trkpt>
<trkpt lat="36.49815" lon="139.01214">
<ele>177.3</ele>
</trkpt>
<trkpt lat="36.49815" lon="139.01214">
<ele>177.3</ele>
</trkpt>
<trkpt lat="36.49797" lon="139.01223">
<ele>177.6</ele>
</trkpt>
<trkpt lat="36.49716" lon="139.01267">
<ele>177.4</ele>
</trkpt>
<trkpt lat="36.49634" lon="139.01312">
<ele>175.2</ele>
</trkpt>
<trkpt lat="36.49634" lon="139.01312">
<ele>175.2</ele>
</trkpt>
<trkpt lat="36.49627" lon="139.01315">
<ele>175.1</ele>
</trkpt>
<trkpt lat="36.49661" lon="139.01366">
<ele>174.9</ele>
</trkpt>
<trkpt lat="36.49669" lon="139.01381">
<ele>175.0</ele>
</trkpt>
<trkpt lat="36.49673" lon="139.01393">
<ele>175.0</ele>
</trkpt>
<trkpt lat="36.49674" lon="139.01407">
<ele>175.0</ele>
</trkpt>
<trkpt lat="36.49674" lon="139.01448">
<ele>173.4</ele>
</trkpt>
<trkpt lat="36.49674" lon="139.01458">
<ele>173.0</ele>
</trkpt>
<trkpt lat="36.49605" lon="139.01453">
<ele>171.7</ele>
</trkpt>
<trkpt lat="36.49567" lon="139.0145">
<ele>171.5</ele>
</trkpt>
<trkpt lat="36.4954" lon="139.01449">
<ele>171.4</ele>
</trkpt>
<trkpt lat="36.49451" lon="139.01444">
<ele>171.1</ele>
</trkpt>
<trkpt lat="36.49392" lon="139.01444">
<ele>171.4</ele>
</trkpt>
<trkpt lat="36.49336" lon="139.01447">
<ele>170.7</ele>
</trkpt>
<trkpt lat="36.4928" lon="139.0145">
<ele>169.8</ele>
</trkpt>
<trkpt lat="36.49214" lon="139.01449">
<ele>168.9</ele>
</trkpt>
<trkpt lat="36.49183" lon="139.01451">
<ele>168.5</ele>
</trkpt>
<trkpt lat="36.49144" lon="139.01457">
<ele>168.7</ele>
</trkpt>
<trkpt lat="36.49083" lon="139.0148">
<ele>168.5</ele>
</trkpt>
<trkpt lat="36.49023" lon="139.01502">
<ele>169.4</ele>
</trkpt>
<trkpt lat="36.48943" lon="139.01544">
<ele>168.2</ele>
</trkpt>
<trkpt lat="36.48915" lon="139.01559">
<ele>167.5</ele>
</trkpt>
<trkpt lat="36.48902" lon="139.0156">
<ele>167.5</ele>
</trkpt>
<trkpt lat="36.48872" lon="139.01551">
<ele>168.1</ele>
</trkpt>
<trkpt lat="36.48839" lon="139.01562">
<ele>167.7</ele>
</trkpt>
<trkpt lat="36.48806" lon="139.01576">
<ele>167.9</ele>
</trkpt>
<trkpt lat="36.4875" lon="139.01605">
<ele>168.0</ele>
</trkpt>
<trkpt lat="36.48694" lon="139.01634">
<ele>165.6</ele>
</trkpt>
<trkpt lat="36.48656" lon="139.01652">
<ele>164.5</ele>
</trkpt>
<trkpt lat="36.48582" lon="139.01686">
<ele>164.5</ele>
</trkpt>
<trkpt lat="36.48526" lon="139.01715">
<ele>165.6</ele>
</trkpt>
<trkpt lat="36.48469" lon="139.01758">
<ele>166.0</ele>
</trkpt>
<trkpt lat="36.48413" lon="139.01801">
<ele>163.2</ele>
</trkpt>
<trkpt lat="36.48339" lon="139.01861">
<ele>164.4</ele>
</trkpt>
<trkpt lat="36.48322" lon="139.01878">
<ele>164.3</ele>
</trkpt>
<trkpt lat="36.48276" lon="139.01932">
<ele>163.2</ele>
</trkpt>
<trkpt lat="36.48242" lon="139.01975">
<ele>163.0</ele>
</trkpt>
<trkpt lat="36.48208" lon="139.02018">
<ele>162.7</ele>
</trkpt>
<trkpt lat="36.4818" lon="139.02049">
<ele>162.3</ele>
</trkpt>
<trkpt lat="36.48169" lon="139.02059">
<ele>162.3</ele>
</trkpt>
<trkpt lat="36.48124" lon="139.02088">
<ele>162.6</ele>
</trkpt>
<trkpt lat="36.48086" lon="139.02111">
<ele>164.5</ele>
</trkpt>
<trkpt lat="36.48053" lon="139.02136">
<ele>164.9</ele>
</trkpt>
<trkpt lat="36.48027" lon="139.02152">
<ele>163.9</ele>
</trkpt>
<trkpt lat="36.48032" lon="139.02154">
<ele>164.2</ele>
</trkpt>
<trkpt lat="36.48055" lon="139.02144">
<ele>165.2</ele>
</trkpt>
<trkpt lat="36.48087" lon="139.02128">
<ele>165.4</ele>
</trkpt>
<trkpt lat="36.4813" lon="139.02102">
<ele>162.6</ele>
</trkpt>
<trkpt lat="36.48087" lon="139.02128">
<ele>165.4</ele>
</trkpt>
<trkpt lat="36.48055" lon="139.02144">
<ele>165.2</ele>
</trkpt>
<trkpt lat="36.48032" lon="139.02154">
<ele>164.2</ele>
</trkpt>
<trkpt lat="36.48027" lon="139.02152">
<ele>163.9</ele>
</trkpt>
<trkpt lat="36.48022" lon="139.02154">
<ele>163.6</ele>
</trkpt>
<trkpt lat="36.48012" lon="139.02152">
<ele>163.0</ele>
</trkpt>
<trkpt lat="36.48007" lon="139.02147">
<ele>162.8</ele>
</trkpt>
<trkpt lat="36.47998" lon="139.02125">
<ele>162.9</ele>
</trkpt>
<trkpt lat="36.47993" lon="139.02121">
<ele>162.9</ele>
</trkpt>
<trkpt lat="36.47989" lon="139.02119">
<ele>162.8</ele>
</trkpt>
<trkpt lat="36.47983" lon="139.0212">
<ele>162.6</ele>
</trkpt>
<trkpt lat="36.47954" lon="139.02124">
<ele>161.6</ele>
</trkpt>
<trkpt lat="36.47945" lon="139.02132">
<ele>161.2</ele>
</trkpt>
<trkpt lat="36.47939" lon="139.02142">
<ele>160.9</ele>
</trkpt>
<trkpt lat="36.47934" lon="139.02156">
<ele>160.6</ele>
</trkpt>
<trkpt lat="36.47924" lon="139.02169">
<ele>160.1</ele>
</trkpt>
<trkpt lat="36.47908" lon="139.0218">
<ele>159.5</ele>
</trkpt>
<trkpt lat="36.47896" lon="139.02196">
<ele>159.1</ele>
</trkpt>
<trkpt lat="36.47857" lon="139.02239">
<ele>158.7</ele>
</trkpt>
<trkpt lat="36.47819" lon="139.02282">
<ele>158.3</ele>
</trkpt>
<trkpt lat="36.47749" lon="139.02347">
<ele>156.8</ele>
</trkpt>
<trkpt lat="36.4768" lon="139.02412">
<ele>157.6</ele>
</trkpt>
<trkpt lat="36.4761" lon="139.02477">
<ele>157.3</ele>
</trkpt>
<trkpt lat="36.47574" lon="139.02514">
<ele>157.7</ele>
</trkpt>
<trkpt lat="36.47538" lon="139.02551">
<ele>156.8</ele>
</trkpt>
<trkpt lat="36.47503" lon="139.02592">
<ele>155.5</ele>
</trkpt>
<trkpt lat="36.47468" lon="139.02633">
<ele>154.3</ele>
</trkpt>
<trkpt lat="36.47419" lon="139.02683">
<ele>155.3</ele>
</trkpt>
<trkpt lat="36.4737" lon="139.02734">
<ele>155.0</ele>
</trkpt>
<trkpt lat="36.4737" lon="139.02734">
<ele>155.0</ele>
</trkpt>
<trkpt lat="36.47325" lon="139.0278">
<ele>154.9</ele>
</trkpt>
<trkpt lat="36.47274" lon="139.02842">
<ele>155.1</ele>
</trkpt>
<trkpt lat="36.47248" lon="139.02867">
<ele>155.4</ele>
</trkpt>
<trkpt lat="36.47177" lon="139.02913">
<ele>154.8</ele>
</trkpt>
<trkpt lat="36.47105" lon="139.0296">
<ele>151.9</ele>
</trkpt>
<trkpt lat="36.47091" lon="139.02973">
<ele>151.6</ele>
</trkpt>
<trkpt lat="36.47091" lon="139.02973">
<ele>151.6</ele>
</trkpt>
<trkpt lat="36.47071" lon="139.0299">
<ele>151.5</ele>
</trkpt>
<trkpt lat="36.47036" lon="139.0301">
<ele>151.7</ele>
</trkpt>
<trkpt lat="36.46975" lon="139.03055">
<ele>150.7</ele>
</trkpt>
<trkpt lat="36.46929" lon="139.03095">
<ele>150.4</ele>
</trkpt>
<trkpt lat="36.46883" lon="139.03142">
<ele>149.9</ele>
</trkpt>
<trkpt lat="36.46883" lon="139.03142">
<ele>149.9</ele>
</trkpt>
<trkpt lat="36.46833" lon="139.03193">
<ele>149.4</ele>
</trkpt>
<trkpt lat="36.46783" lon="139.03244">
<ele>149.7</ele>
</trkpt>
<trkpt lat="36.46733" lon="139.03294">
<ele>149.1</ele>
</trkpt>
<trkpt lat="36.46691" lon="139.03329">
<ele>148.3</ele>
</trkpt>
<trkpt lat="36.46649" lon="139.03364">
<ele>147.8</ele>
</trkpt>
<trkpt lat="36.46636" lon="139.03375">
<ele>147.5</ele>
</trkpt>
<trkpt lat="36.46591" lon="139.03403">
<ele>147.7</ele>
</trkpt>
<trkpt lat="36.46546" lon="139.03431">
<ele>149.0</ele>
</trkpt>
<trkpt lat="36.46478" lon="139.03463">
<ele>149.6</ele>
</trkpt>
<trkpt lat="36.46461" lon="139.03468">
<ele>149.2</ele>
</trkpt>
<trkpt lat="36.4644" lon="139.03481">
<ele>148.3</ele>
</trkpt>
<trkpt lat="36.46422" lon="139.03486">
<ele>147.8</ele>
</trkpt>
<trkpt lat="36.46402" lon="139.03486">
<ele>147.3</ele>
</trkpt>
<trkpt lat="36.46371" lon="139.0348">
<ele>146.9</ele>
</trkpt>
<trkpt lat="36.46319" lon="139.03472">
<ele>146.1</ele>
</trkpt>
<trkpt lat="36.46283" lon="139.0346">
<ele>146.0</ele>
</trkpt>
<trkpt lat="36.4625" lon="139.03452">
<ele>145.7</ele>
</trkpt>
<trkpt lat="36.46243" lon="139.03447">
<ele>145.8</ele>
</trkpt>
<trkpt lat="36.46233" lon="139.03435">
<ele>146.1</ele>
</trkpt>
<trkpt lat="36.46213" lon="139.03392">
<ele>146.4</ele>
</trkpt>
<trkpt lat="36.46206" lon="139.03383">
<ele>146.3</ele>
</trkpt>
<trkpt lat="36.46189" lon="139.03361">
<ele>145.8</ele>
</trkpt>
<trkpt lat="36.46179" lon="139.03351">
<ele>145.5</ele>
</trkpt>
<trkpt lat="36.46165" lon="139.03345">
<ele>145.1</ele>
</trkpt>
<trkpt lat="36.46117" lon="139.0335">
<ele>145.1</ele>
</trkpt>
<trkpt lat="36.46103" lon="139.03347">
<ele>145.1</ele>
</trkpt>
<trkpt lat="36.46096" lon="139.03338">
<ele>145.2</ele>
</trkpt>
<trkpt lat="36.4606" lon="139.03296">
<ele>145.4</ele>
</trkpt>
<trkpt lat="36.46059" lon="139.03294">
<ele>145.4</ele>
</trkpt>
<trkpt lat="36.46055" lon="139.03291">
<ele>145.4</ele>
</trkpt>
<trkpt lat="36.46047" lon="139.03286">
<ele>145.4</ele>
</trkpt>
<trkpt lat="36.46018" lon="139.0328">
<ele>145.6</ele>
</trkpt>
<trkpt lat="36.46" lon="139.03271">
<ele>145.7</ele>
</trkpt>
<trkpt lat="36.45976" lon="139.03262">
<ele>145.9</ele>
</trkpt>
<trkpt lat="36.45941" lon="139.03261">
<ele>145.7</ele>
</trkpt>
<trkpt lat="36.45933" lon="139.03261">
<ele>145.6</ele>
</trkpt>
<trkpt lat="36.45872" lon="139.03254">
<ele>144.8</ele>
</trkpt>
<trkpt lat="36.4585" lon="139.03252">
<ele>144.5</ele>
</trkpt>
<trkpt lat="36.4584" lon="139.03251">
<ele>144.4</ele>
</trkpt>
<trkpt lat="36.4582" lon="139.0325">
<ele>143.7</ele>
</trkpt>
<trkpt lat="36.4581" lon="139.0325">
<ele>143.3</ele>
</trkpt>
<trkpt lat="36.45796" lon="139.03254">
<ele>142.8</ele>
</trkpt>
<trkpt lat="36.45749" lon="139.03302">
<ele>140.6</ele>
</trkpt>
<trkpt lat="36.45741" lon="139.03305">
<ele>140.8</ele>
</trkpt>
<trkpt lat="36.45729" lon="139.03306">
<ele>141.0</ele>
</trkpt>
<trkpt lat="36.45708" lon="139.0331">
<ele>141.4</ele>
</trkpt>
<trkpt lat="36.45658" lon="139.03337">
<ele>142.7</ele>
</trkpt>
<trkpt lat="36.45604" lon="139.03375">
<ele>141.2</ele>
</trkpt>
<trkpt lat="36.45548" lon="139.03414">
<ele>140.6</ele>
</trkpt>
<trkpt lat="36.45492" lon="139.03454">
<ele>138.3</ele>
</trkpt>
<trkpt lat="36.45451" lon="139.03481">
<ele>138.3</ele>
</trkpt>
<trkpt lat="36.4541" lon="139.03509">
<ele>138.6</ele>
</trkpt>
<trkpt lat="36.45375" lon="139.03523">
<ele>137.8</ele>
</trkpt>
<trkpt lat="36.45287" lon="139.03544">
<ele>136.4</ele>
</trkpt>
<trkpt lat="36.45199" lon="139.03565">
<ele>134.4</ele>
</trkpt>
<trkpt lat="36.45113" lon="139.03569">
<ele>133.8</ele>
</trkpt>
<trkpt lat="36.45095" lon="139.03564">
<ele>134.3</ele>
</trkpt>
<trkpt lat="36.45043" lon="139.03537">
<ele>135.3</ele>
</trkpt>
<trkpt lat="36.44991" lon="139.0351">
<ele>135.8</ele>
</trkpt>
<trkpt lat="36.44985" lon="139.03507">
<ele>136.1</ele>
</trkpt>
<trkpt lat="36.44976" lon="139.03497">
<ele>136.6</ele>
</trkpt>
<trkpt lat="36.44963" lon="139.03482">
<ele>136.7</ele>
</trkpt>
<trkpt lat="36.44948" lon="139.03473">
<ele>136.8</ele>
</trkpt>
<trkpt lat="36.44926" lon="139.03473">
<ele>137.2</ele>
</trkpt>
<trkpt lat="36.44899" lon="139.03492">
<ele>137.3</ele>
</trkpt>
<trkpt lat="36.44831" lon="139.03514">
<ele>137.6</ele>
</trkpt>
<trkpt lat="36.44825" lon="139.03514">
<ele>137.6</ele>
</trkpt>
<trkpt lat="36.44818" lon="139.03509">
<ele>137.6</ele>
</trkpt>
<trkpt lat="36.44811" lon="139.035">
<ele>137.7</ele>
</trkpt>
<trkpt lat="36.44807" lon="139.03498">
<ele>137.7</ele>
</trkpt>
<trkpt lat="36.448" lon="139.03496">
<ele>137.7</ele>
</trkpt>
<trkpt lat="36.44768" lon="139.03504">
<ele>137.9</ele>
</trkpt>
<trkpt lat="36.44715" lon="139.03523">
<ele>138.2</ele>
</trkpt>
<trkpt lat="36.44673" lon="139.03543">
<ele>137.3</ele>
</trkpt>
<trkpt lat="36.44632" lon="139.03565">
<ele>136.4</ele>
</trkpt>
<trkpt lat="36.44623" lon="139.03564">
<ele>136.7</ele>
</trkpt>
<trkpt lat="36.44606" lon="139.03558">
<ele>137.4</ele>
</trkpt>
<trkpt lat="36.44597" lon="139.03557">
<ele>137.7</ele>
</trkpt>
<trkpt lat="36.44535" lon="139.03574">
<ele>134.9</ele>
</trkpt>
<trkpt lat="36.44499" lon="139.03579">
<ele>133.1</ele>
</trkpt>
<trkpt lat="36.44478" lon="139.0358">
<ele>133.3</ele>
</trkpt>
<trkpt lat="36.44451" lon="139.03578">
<ele>133.7</ele>
</trkpt>
<trkpt lat="36.44378" lon="139.03564">
<ele>134.8</ele>
</trkpt>
<trkpt lat="36.44343" lon="139.03562">
<ele>135.3</ele>
</trkpt>
<trkpt lat="36.44304" lon="139.03562">
<ele>134.8</ele>
</trkpt>
<trkpt lat="36.44257" lon="139.03566">
<ele>133.6</ele>
</trkpt>
<trkpt lat="36.44209" lon="139.03571">
<ele>132.4</ele>
</trkpt>
<trkpt lat="36.44168" lon="139.03564">
<ele>131.7</ele>
</trkpt>
<trkpt lat="36.4417" lon="139.03565">
<ele>131.7</ele>
</trkpt>
<trkpt lat="36.44171" lon="139.03562">
<ele>131.9</ele>
</trkpt>
<trkpt lat="36.44177" lon="139.03543">
<ele>132.6</ele>
</trkpt>
<trkpt lat="36.44181" lon="139.03533">
<ele>133.1</ele>
</trkpt>
<trkpt lat="36.44186" lon="139.03525">
<ele>133.4</ele>
</trkpt>
<trkpt lat="36.44208" lon="139.03498">
<ele>134.5</ele>
</trkpt>
<trkpt lat="36.44212" lon="139.03492">
<ele>134.7</ele>
</trkpt>
<trkpt lat="36.44215" lon="139.03467">
<ele>135.2</ele>
</trkpt>
<trkpt lat="36.44215" lon="139.03459">
<ele>135.4</ele>
</trkpt>
<trkpt lat="36.44212" lon="139.03434">
<ele>135.8</ele>
</trkpt>
<trkpt lat="36.44212" lon="139.03425">
<ele>135.9</ele>
</trkpt>
<trkpt lat="36.44215" lon="139.03425">
<ele>136.0</ele>
</trkpt>
<trkpt lat="36.4429" lon="139.03416">
<ele>136.1</ele>
</trkpt>
<trkpt lat="36.44308" lon="139.03414">
<ele>135.7</ele>
</trkpt>
<trkpt lat="36.44313" lon="139.03421">
<ele>135.4</ele>
</trkpt>
<trkpt lat="36.44312" lon="139.03422">
<ele>135.4</ele>
</trkpt>
<trkpt lat="36.44302" lon="139.03429">
<ele>135.5</ele>
</trkpt>
<trkpt lat="36.44267" lon="139.03458">
<ele>135.7</ele>
</trkpt>
<trkpt lat="36.44227" lon="139.035">
<ele>134.7</ele>
</trkpt>
<trkpt lat="36.44217" lon="139.03515">
<ele>134.2</ele>
</trkpt>
<trkpt lat="36.44185" lon="139.03559">
<ele>134.0</ele>
</trkpt>
<trkpt lat="36.44171" lon="139.03581">
<ele>134.0</ele>
</trkpt>
<trkpt lat="36.44147" lon="139.03621">
<ele>133.8</ele>
</trkpt>
<trkpt lat="36.44127" lon="139.03662">
<ele>133.7</ele>
</trkpt>
<trkpt lat="36.4411" lon="139.037">
<ele>133.6</ele>
</trkpt>
<trkpt lat="36.44089" lon="139.03758">
<ele>133.5</ele>
</trkpt>
<trkpt lat="36.44084" lon="139.03774">
<ele>133.5</ele>
</trkpt>
<trkpt lat="36.44069" lon="139.03831">
<ele>133.3</ele>
</trkpt>
<trkpt lat="36.44058" lon="139.03897">
<ele>133.2</ele>
</trkpt>
<trkpt lat="36.44053" lon="139.03955">
<ele>133.0</ele>
</trkpt>
<trkpt lat="36.44052" lon="139.04042">
<ele>132.8</ele>
</trkpt>
<trkpt lat="36.44056" lon="139.04136">
<ele>132.6</ele>
</trkpt>
<trkpt lat="36.44057" lon="139.04147">
<ele>132.6</ele>
</trkpt>
<trkpt lat="36.44054" lon="139.04171">
<ele>132.6</ele>
</trkpt>
<trkpt lat="36.44048" lon="139.04232">
<ele>131.9</ele>
</trkpt>
<trkpt lat="36.44048" lon="139.04232">
<ele>131.9</ele>
</trkpt>
<trkpt lat="36.44048" lon="139.04238">
<ele>131.8</ele>
</trkpt>
<trkpt lat="36.4405" lon="139.04259">
<ele>131.6</ele>
</trkpt>
<trkpt lat="36.44043" lon="139.0426">
<ele>131.4</ele>
</trkpt>
<trkpt lat="36.44044" lon="139.04273">
<ele>131.3</ele>
</trkpt>
<trkpt lat="36.44047" lon="139.04299">
<ele>131.0</ele>
</trkpt>
<trkpt lat="36.44049" lon="139.04311">
<ele>130.8</ele>
</trkpt>
<trkpt lat="36.44048" lon="139.04382">
<ele>131.4</ele>
</trkpt>
<trkpt lat="36.44017" lon="139.0439">
<ele>131.2</ele>
</trkpt>
<trkpt lat="36.44009" lon="139.04391">
<ele>131.1</ele>
</trkpt>
<trkpt lat="36.44004" lon="139.04389">
<ele>131.0</ele>
</trkpt>
<trkpt lat="36.4399" lon="139.04394">
<ele>131.1</ele>
</trkpt>
<trkpt lat="36.43972" lon="139.044">
<ele>131.3</ele>
</trkpt>
<trkpt lat="36.43962" lon="139.04406">
<ele>131.5</ele>
</trkpt>
<trkpt lat="36.43912" lon="139.04456">
<ele>131.1</ele>
</trkpt>
<trkpt lat="36.43898" lon="139.0447">
<ele>130.7</ele>
</trkpt>
<trkpt lat="36.43885" lon="139.04476">
<ele>130.6</ele>
</trkpt>
<trkpt lat="36.43835" lon="139.04481">
<ele>130.5</ele>
</trkpt>
<trkpt lat="36.43747" lon="139.04492">
<ele>130.1</ele>
</trkpt>
<trkpt lat="36.43702" lon="139.0449">
<ele>130.6</ele>
</trkpt>
<trkpt lat="36.43687" lon="139.04494">
<ele>130.6</ele>
</trkpt>
<trkpt lat="36.43687" lon="139.04504">
<ele>130.7</ele>
</trkpt>
<trkpt lat="36.43688" lon="139.04521">
<ele>130.8</ele>
</trkpt>
<trkpt lat="36.43688" lon="139.04525">
<ele>130.8</ele>
</trkpt>
<trkpt lat="36.4367" lon="139.04554">
<ele>131.0</ele>
</trkpt>
<trkpt lat="36.43647" lon="139.04575">
<ele>130.8</ele>
</trkpt>
<trkpt lat="36.43614" lon="139.04607">
<ele>130.5</ele>
</trkpt>
<trkpt lat="36.43578" lon="139.04632">
<ele>129.9</ele>
</trkpt>
<trkpt lat="36.43549" lon="139.04655">
<ele>128.9</ele>
</trkpt>
<trkpt lat="36.43538" lon="139.04659">
<ele>128.5</ele>
</trkpt>
<trkpt lat="36.43485" lon="139.04675">
<ele>127.1</ele>
</trkpt>
<trkpt lat="36.43485" lon="139.04675">
<ele>127.1</ele>
</trkpt>
<trkpt lat="36.43481" lon="139.04676">
<ele>127.1</ele>
</trkpt>
<trkpt lat="36.43486" lon="139.04693">
<ele>127.3</ele>
</trkpt>
<trkpt lat="36.43491" lon="139.04729">
<ele>127.7</ele>
</trkpt>
<trkpt lat="36.43491" lon="139.04729">
<ele>127.7</ele>
</trkpt>
<trkpt lat="36.43505" lon="139.0481">
<ele>128.0</ele>
</trkpt>
<trkpt lat="36.43519" lon="139.04891">
<ele>128.0</ele>
</trkpt>
<trkpt lat="36.43519" lon="139.04891">
<ele>128.0</ele>
</trkpt>
<trkpt lat="36.43535" lon="139.04985">
<ele>128.3</ele>
</trkpt>
<trkpt lat="36.43551" lon="139.05079">
<ele>128.6</ele>
</trkpt>
<trkpt lat="36.43562" lon="139.05146">
<ele>128.6</ele>
</trkpt>
<trkpt lat="36.43573" lon="139.05187">
<ele>128.4</ele>
</trkpt>
<trkpt lat="36.4358" lon="139.0521">
<ele>128.3</ele>
</trkpt>
<trkpt lat="36.43591" lon="139.05237">
<ele>128.2</ele>
</trkpt>
<trkpt lat="36.43613" lon="139.05279">
<ele>128.4</ele>
</trkpt>
<trkpt lat="36.43638" lon="139.05314">
<ele>128.7</ele>
</trkpt>
<trkpt lat="36.43649" lon="139.05327">
<ele>128.8</ele>
</trkpt>
<trkpt lat="36.43662" lon="139.05342">
<ele>128.7</ele>
</trkpt>
<trkpt lat="36.43699" lon="139.05376">
<ele>128.6</ele>
</trkpt>
<trkpt lat="36.43735" lon="139.0541">
<ele>129.4</ele>
</trkpt>
<trkpt lat="36.4378" lon="139.05453">
<ele>130.6</ele>
</trkpt>
<trkpt lat="36.43791" lon="139.05462">
<ele>130.6</ele>
</trkpt>
<trkpt lat="36.43796" lon="139.05466">
<ele>130.5</ele>
</trkpt>
<trkpt lat="36.43805" lon="139.05472">
<ele>130.5</ele>
</trkpt>
<trkpt lat="36.43821" lon="139.05476">
<ele>130.2</ele>
</trkpt>
<trkpt lat="36.4385" lon="139.05479">
<ele>129.9</ele>
</trkpt>
<trkpt lat="36.43878" lon="139.05482">
<ele>129.7</ele>
</trkpt>
<trkpt lat="36.43899" lon="139.05489">
<ele>129.4</ele>
</trkpt>
<trkpt lat="36.43915" lon="139.05496">
<ele>129.1</ele>
</trkpt>
<trkpt lat="36.43919" lon="139.05498">
<ele>129.1</ele>
</trkpt>
<trkpt lat="36.43923" lon="139.05488">
<ele>129.4</ele>
</trkpt>
<trkpt lat="36.43983" lon="139.05406">
<ele>130.2</ele>
</trkpt>
<trkpt lat="36.44044" lon="139.05325">
<ele>129.8</ele>
</trkpt>
<trkpt lat="36.44032" lon="139.05346">
<ele>130.3</ele>
</trkpt>
<trkpt lat="36.44" lon="139.05399">
<ele>130.0</ele>
</trkpt>
<trkpt lat="36.43997" lon="139.054">
<ele>130.0</ele>
</trkpt>
<trkpt lat="36.43992" lon="139.05395">
<ele>130.0</ele>
</trkpt>
<trkpt lat="36.44044" lon="139.05325">
<ele>129.8</ele>
</trkpt>
<trkpt lat="36.44091" lon="139.05253">
<ele>129.3</ele>
</trkpt>
<trkpt lat="36.44056" lon="139.05234">
<ele>128.9</ele>
</trkpt>
<trkpt lat="36.43997" lon="139.05203">
<ele>128.7</ele>
</trkpt>
<trkpt lat="36.43993" lon="139.05204">
<ele>128.8</ele>
</trkpt>
<trkpt lat="36.43971" lon="139.05233">
<ele>128.2</ele>
</trkpt>
<trkpt lat="36.43973" lon="139.05235">
<ele>128.1</ele>
</trkpt>
<trkpt lat="36.44005" lon="139.05274">
<ele>128.0</ele>
</trkpt>
<trkpt lat="36.44017" lon="139.05288">
<ele>128.6</ele>
</trkpt>
    </trkseg>
  </trk>
</gpx>