<?xml version="1.0" encoding="UTF-8"?>
<gpx version="1.1"
     creator="KMLtoGPX"
     xmlns="http://www.topografix.com/GPX/1/1">
  <metadata>
    <name>Central Tour of Famous Places Course</name>
    <desc>名所めぐり中央コース</desc>
    <bounds minlat="35.67406" minlon="139.76577" maxlat="35.96338" maxlon="140.45724"/>
  </metadata>
  <trk>
    <name>Central Tour of Famous Places Course</name>
    <trkseg>
<trkpt lat="35.96338" lon="140.44747">
<ele>1</ele>
</trkpt>
<trkpt lat="35.963075003154" lon="140.448345003442">
<ele>1</ele>
</trkpt>
<trkpt lat="35.96277" lon="140.44922">
<ele>1</ele>
</trkpt>
<trkpt lat="35.9624950023036" lon="140.449965002591">
<ele>1</ele>
</trkpt>
<trkpt lat="35.96222" lon="140.45071">
<ele>1</ele>
</trkpt>
<trkpt lat="35.96181" lon="140.45163">
<ele>1</ele>
</trkpt>
<trkpt lat="35.9613350102552" lon="140.452537516362">
<ele>1</ele>
</trkpt>
<trkpt lat="35.9608600136781" lon="140.453445021806">
<ele>1</ele>
</trkpt>
<trkpt lat="35.960385010269" lon="140.454352516335">
<ele>0</ele>
</trkpt>
<trkpt lat="35.95991" lon="140.45526">
<ele>0</ele>
</trkpt>
<trkpt lat="35.9595933369357" lon="140.455920005316">
<ele>0</ele>
</trkpt>
<trkpt lat="35.9592766702578" lon="140.45658000534">
<ele>1</ele>
</trkpt>
<trkpt lat="35.95896" lon="140.45724">
<ele>2</ele>
</trkpt>
<trkpt lat="35.9583950004129" lon="140.456924997747">
<ele>2</ele>
</trkpt>
<trkpt lat="35.95783" lon="140.45661">
<ele>1</ele>
</trkpt>
<trkpt lat="35.9572700002649" lon="140.456329997985">
<ele>1</ele>
</trkpt>
<trkpt lat="35.95671" lon="140.45605">
<ele>1</ele>
</trkpt>
<trkpt lat="35.95608" lon="140.4557">
<ele>2</ele>
</trkpt>
<trkpt lat="35.9554866674257" lon="140.455393328715">
<ele>1</ele>
</trkpt>
<trkpt lat="35.9548933340713" lon="140.455086662038">
<ele>0</ele>
</trkpt>
<trkpt lat="35.9543" lon="140.45478">
<ele>0</ele>
</trkpt>
<trkpt lat="35.95429" lon="140.45478">
<ele>0</ele>
</trkpt>
<trkpt lat="35.9536300014724" lon="140.454437491422">
<ele>0</ele>
</trkpt>
<trkpt lat="35.9529700019717" lon="140.454094988567">
<ele>0</ele>
</trkpt>
<trkpt lat="35.952310001498" lon="140.453752491436">
<ele>0</ele>
</trkpt>
<trkpt lat="35.95165" lon="140.45341">
<ele>0</ele>
</trkpt>
<trkpt lat="35.95092" lon="140.45304">
<ele>0</ele>
</trkpt>
<trkpt lat="35.9501766679905" lon="140.452643325879">
<ele>0</ele>
</trkpt>
<trkpt lat="35.9494333346758" lon="140.452246659223">
<ele>0</ele>
</trkpt>
<trkpt lat="35.94869" lon="140.45185">
<ele>0</ele>
</trkpt>
<trkpt lat="35.94802500037" lon="140.45152999728">
<ele>0</ele>
</trkpt>
<trkpt lat="35.94736" lon="140.45121">
<ele>0</ele>
</trkpt>
<trkpt lat="35.9471" lon="140.4512">
<ele>0</ele>
</trkpt>
<trkpt lat="35.9464" lon="140.45133">
<ele>0</ele>
</trkpt>
<trkpt lat="35.94592" lon="140.45147">
<ele>0</ele>
</trkpt>
<trkpt lat="35.94577" lon="140.45153">
<ele>0</ele>
</trkpt>
<trkpt lat="35.94592" lon="140.45147">
<ele>0</ele>
</trkpt>
<trkpt lat="35.94574" lon="140.45155">
<ele>0</ele>
</trkpt>
<trkpt lat="35.94562" lon="140.45156">
<ele>0</ele>
</trkpt>
<trkpt lat="35.9455" lon="140.45152">
<ele>0</ele>
</trkpt>
<trkpt lat="35.94545" lon="140.45148">
<ele>0</ele>
</trkpt>
<trkpt lat="35.9454" lon="140.45135">
<ele>0</ele>
</trkpt>
<trkpt lat="35.9452450020813" lon="140.450639998565">
<ele>0</ele>
</trkpt>
<trkpt lat="35.94509" lon="140.44993">
<ele>0</ele>
</trkpt>
<trkpt lat="35.9449100048377" lon="140.448849997542">
<ele>2</ele>
</trkpt>
<trkpt lat="35.94473" lon="140.44777">
<ele>1</ele>
</trkpt>
<trkpt lat="35.94473" lon="140.44776">
<ele>1</ele>
</trkpt>
<trkpt lat="35.94463" lon="140.44715">
<ele>1</ele>
</trkpt>
<trkpt lat="35.9445050012652" lon="140.446604999283">
<ele>1</ele>
</trkpt>
<trkpt lat="35.94438" lon="140.44606">
<ele>1</ele>
</trkpt>
<trkpt lat="35.94423" lon="140.44528">
<ele>1</ele>
</trkpt>
<trkpt lat="35.94422" lon="140.44515">
<ele>2</ele>
</trkpt>
<trkpt lat="35.94423" lon="140.44505">
<ele>2</ele>
</trkpt>
<trkpt lat="35.94421" lon="140.44493">
<ele>2</ele>
</trkpt>
<trkpt lat="35.94437" lon="140.4444">
<ele>2</ele>
</trkpt>
<trkpt lat="35.9445" lon="140.44373">
<ele>2</ele>
</trkpt>
<trkpt lat="35.94453" lon="140.44312">
<ele>1</ele>
</trkpt>
<trkpt lat="35.94452" lon="140.44276">
<ele>1</ele>
</trkpt>
<trkpt lat="35.9444400016174" lon="140.442134999347">
<ele>1</ele>
</trkpt>
<trkpt lat="35.94444" lon="140.44213">
<ele>1</ele>
</trkpt>
<trkpt lat="35.94436" lon="140.44151">
<ele>2</ele>
</trkpt>
<trkpt lat="35.94418" lon="140.4404">
<ele>3</ele>
</trkpt>
<trkpt lat="35.94414" lon="140.4402">
<ele>3</ele>
</trkpt>
<trkpt lat="35.94459" lon="140.43983">
<ele>2</ele>
</trkpt>
<trkpt lat="35.94431" lon="140.43902">
<ele>2</ele>
</trkpt>
<trkpt lat="35.94383" lon="140.43731">
<ele>0</ele>
</trkpt>
<trkpt lat="35.94255" lon="140.43615">
<ele>2</ele>
</trkpt>
<trkpt lat="35.9418" lon="140.43529">
<ele>2</ele>
</trkpt>
<trkpt lat="35.9382" lon="140.42967">
<ele>1</ele>
</trkpt>
<trkpt lat="35.93726" lon="140.42747">
<ele>1</ele>
</trkpt>
<trkpt lat="35.93622" lon="140.42556">
<ele>1</ele>
</trkpt>
<trkpt lat="35.9359" lon="140.42514">
<ele>1</ele>
</trkpt>
<trkpt lat="35.93573" lon="140.42512">
<ele>2</ele>
</trkpt>
<trkpt lat="35.93564" lon="140.42497">
<ele>2</ele>
</trkpt>
<trkpt lat="35.93536" lon="140.42441">
<ele>2</ele>
</trkpt>
<trkpt lat="35.93621" lon="140.42367">
<ele>0</ele>
</trkpt>
<trkpt lat="35.93791" lon="140.41009">
<ele>1</ele>
</trkpt>
<trkpt lat="35.93674" lon="140.40989">
<ele>2</ele>
</trkpt>
<trkpt lat="35.93609" lon="140.40974">
<ele>2</ele>
</trkpt>
<trkpt lat="35.93595" lon="140.40968">
<ele>2</ele>
</trkpt>
<trkpt lat="35.93442" lon="140.40767">
<ele>0</ele>
</trkpt>
<trkpt lat="35.93309" lon="140.40588">
<ele>0</ele>
</trkpt>
<trkpt lat="35.93297" lon="140.40587">
<ele>0</ele>
</trkpt>
<trkpt lat="35.93005" lon="140.40605">
<ele>0</ele>
</trkpt>
<trkpt lat="35.92965" lon="140.406">
<ele>0</ele>
</trkpt>
<trkpt lat="35.92801" lon="140.40598">
<ele>2</ele>
</trkpt>
<trkpt lat="35.92685" lon="140.40587">
<ele>2</ele>
</trkpt>
<trkpt lat="35.92628" lon="140.40587">
<ele>2</ele>
</trkpt>
<trkpt lat="35.92498" lon="140.40578">
<ele>2</ele>
</trkpt>
<trkpt lat="35.92482" lon="140.40579">
<ele>2</ele>
</trkpt>
<trkpt lat="35.92361" lon="140.40598">
<ele>1</ele>
</trkpt>
<trkpt lat="35.92341" lon="140.40594">
<ele>2</ele>
</trkpt>
<trkpt lat="35.92333" lon="140.40587">
<ele>2</ele>
</trkpt>
<trkpt lat="35.9225" lon="140.40499">
<ele>2</ele>
</trkpt>
<trkpt lat="35.92241" lon="140.40491">
<ele>2</ele>
</trkpt>
<trkpt lat="35.92231" lon="140.40485">
<ele>2</ele>
</trkpt>
<trkpt lat="35.92215" lon="140.40482">
<ele>2</ele>
</trkpt>
<trkpt lat="35.91369" lon="140.40529">
<ele>2</ele>
</trkpt>
<trkpt lat="35.9133" lon="140.40535">
<ele>3</ele>
</trkpt>
<trkpt lat="35.91293" lon="140.40538">
<ele>3</ele>
</trkpt>
<trkpt lat="35.9124" lon="140.4056">
<ele>3</ele>
</trkpt>
<trkpt lat="35.91248" lon="140.40524">
<ele>4</ele>
</trkpt>
<trkpt lat="35.91254" lon="140.40472">
<ele>4</ele>
</trkpt>
<trkpt lat="35.91262" lon="140.40392">
<ele>5</ele>
</trkpt>
<trkpt lat="35.91268" lon="140.4036">
<ele>5</ele>
</trkpt>
<trkpt lat="35.91269" lon="140.40325">
<ele>5</ele>
</trkpt>
<trkpt lat="35.91265" lon="140.40325">
<ele>5</ele>
</trkpt>
<trkpt lat="35.91268" lon="140.40243">
<ele>5</ele>
</trkpt>
<trkpt lat="35.91265" lon="140.40146">
<ele>5</ele>
</trkpt>
<trkpt lat="35.91259" lon="140.40037">
<ele>4</ele>
</trkpt>
<trkpt lat="35.91252" lon="140.39987">
<ele>4</ele>
</trkpt>
<trkpt lat="35.91245" lon="140.3995">
<ele>4</ele>
</trkpt>
<trkpt lat="35.91241" lon="140.39938">
<ele>4</ele>
</trkpt>
<trkpt lat="35.91237" lon="140.39934">
<ele>4</ele>
</trkpt>
<trkpt lat="35.91215" lon="140.3979">
<ele>2</ele>
</trkpt>
<trkpt lat="35.91169" lon="140.39569">
<ele>3</ele>
</trkpt>
<trkpt lat="35.91162" lon="140.39562">
<ele>2</ele>
</trkpt>
<trkpt lat="35.91105" lon="140.39326">
<ele>3</ele>
</trkpt>
<trkpt lat="35.91024" lon="140.39045">
<ele>4</ele>
</trkpt>
<trkpt lat="35.90929" lon="140.38753">
<ele>2</ele>
</trkpt>
<trkpt lat="35.90856" lon="140.38546">
<ele>5</ele>
</trkpt>
<trkpt lat="35.90561" lon="140.37695">
<ele>2</ele>
</trkpt>
<trkpt lat="35.90525" lon="140.37596">
<ele>2</ele>
</trkpt>
<trkpt lat="35.90425" lon="140.37305">
<ele>3</ele>
</trkpt>
<trkpt lat="35.90416" lon="140.37292">
<ele>3</ele>
</trkpt>
<trkpt lat="35.90401" lon="140.37251">
<ele>3</ele>
</trkpt>
<trkpt lat="35.904" lon="140.37235">
<ele>2</ele>
</trkpt>
<trkpt lat="35.9029" lon="140.36916">
<ele>3</ele>
</trkpt>
<trkpt lat="35.90153" lon="140.36491">
<ele>3</ele>
</trkpt>
<trkpt lat="35.90111" lon="140.36359">
<ele>4</ele>
</trkpt>
<trkpt lat="35.90054" lon="140.36196">
<ele>4</ele>
</trkpt>
<trkpt lat="35.89967" lon="140.35969">
<ele>4</ele>
</trkpt>
<trkpt lat="35.89915" lon="140.35844">
<ele>3</ele>
</trkpt>
<trkpt lat="35.89861" lon="140.3573">
<ele>3</ele>
</trkpt>
<trkpt lat="35.89834" lon="140.35677">
<ele>3</ele>
</trkpt>
<trkpt lat="35.89805" lon="140.35627">
<ele>3</ele>
</trkpt>
<trkpt lat="35.89731" lon="140.35504">
<ele>3</ele>
</trkpt>
<trkpt lat="35.89671" lon="140.35411">
<ele>5</ele>
</trkpt>
<trkpt lat="35.89632" lon="140.3536">
<ele>5</ele>
</trkpt>
<trkpt lat="35.89537" lon="140.35256">
<ele>5</ele>
</trkpt>
<trkpt lat="35.89436" lon="140.35167">
<ele>3</ele>
</trkpt>
<trkpt lat="35.89331" lon="140.35097">
<ele>2</ele>
</trkpt>
<trkpt lat="35.89218" lon="140.35035">
<ele>3</ele>
</trkpt>
<trkpt lat="35.89072" lon="140.34973">
<ele>3</ele>
</trkpt>
<trkpt lat="35.88809" lon="140.34885">
<ele>6</ele>
</trkpt>
<trkpt lat="35.88707" lon="140.34843">
<ele>5</ele>
</trkpt>
<trkpt lat="35.88588" lon="140.34779">
<ele>3</ele>
</trkpt>
<trkpt lat="35.88514" lon="140.34732">
<ele>3</ele>
</trkpt>
<trkpt lat="35.88471" lon="140.34697">
<ele>4</ele>
</trkpt>
<trkpt lat="35.88453" lon="140.34674">
<ele>4</ele>
</trkpt>
<trkpt lat="35.88422" lon="140.34646">
<ele>5</ele>
</trkpt>
<trkpt lat="35.88407" lon="140.34631">
<ele>5</ele>
</trkpt>
<trkpt lat="35.88363" lon="140.34576">
<ele>5</ele>
</trkpt>
<trkpt lat="35.88339" lon="140.3455">
<ele>5</ele>
</trkpt>
<trkpt lat="35.88313" lon="140.34514">
<ele>5</ele>
</trkpt>
<trkpt lat="35.88244" lon="140.34409">
<ele>5</ele>
</trkpt>
<trkpt lat="35.88148" lon="140.34251">
<ele>4</ele>
</trkpt>
<trkpt lat="35.88085" lon="140.34141">
<ele>4</ele>
</trkpt>
<trkpt lat="35.88029" lon="140.34036">
<ele>4</ele>
</trkpt>
<trkpt lat="35.87945" lon="140.3389">
<ele>7</ele>
</trkpt>
<trkpt lat="35.87844" lon="140.33729">
<ele>6</ele>
</trkpt>
<trkpt lat="35.87802" lon="140.33666">
<ele>4</ele>
</trkpt>
<trkpt lat="35.87728" lon="140.3356">
<ele>4</ele>
</trkpt>
<trkpt lat="35.87551" lon="140.33333">
<ele>4</ele>
</trkpt>
<trkpt lat="35.87503" lon="140.33268">
<ele>3</ele>
</trkpt>
<trkpt lat="35.8727" lon="140.32969">
<ele>4</ele>
</trkpt>
<trkpt lat="35.872" lon="140.32864">
<ele>1</ele>
</trkpt>
<trkpt lat="35.87107" lon="140.32708">
<ele>1</ele>
</trkpt>
<trkpt lat="35.87046" lon="140.32588">
<ele>2</ele>
</trkpt>
<trkpt lat="35.8697" lon="140.32432">
<ele>3</ele>
</trkpt>
<trkpt lat="35.86896" lon="140.32265">
<ele>1</ele>
</trkpt>
<trkpt lat="35.86826" lon="140.32101">
<ele>3</ele>
</trkpt>
<trkpt lat="35.86766" lon="140.31936">
<ele>3</ele>
</trkpt>
<trkpt lat="35.86744" lon="140.3187">
<ele>3</ele>
</trkpt>
<trkpt lat="35.86716" lon="140.31766">
<ele>3</ele>
</trkpt>
<trkpt lat="35.86693" lon="140.3165">
<ele>2</ele>
</trkpt>
<trkpt lat="35.86683" lon="140.31587">
<ele>1</ele>
</trkpt>
<trkpt lat="35.8667" lon="140.31446">
<ele>3</ele>
</trkpt>
<trkpt lat="35.86665" lon="140.31275">
<ele>6</ele>
</trkpt>
<trkpt lat="35.86666" lon="140.31205">
<ele>6</ele>
</trkpt>
<trkpt lat="35.8667" lon="140.31127">
<ele>5</ele>
</trkpt>
<trkpt lat="35.86683" lon="140.30986">
<ele>5</ele>
</trkpt>
<trkpt lat="35.86714" lon="140.30752">
<ele>7</ele>
</trkpt>
<trkpt lat="35.86748" lon="140.30546">
<ele>4</ele>
</trkpt>
<trkpt lat="35.86797" lon="140.3029">
<ele>4</ele>
</trkpt>
<trkpt lat="35.86824" lon="140.30162">
<ele>3</ele>
</trkpt>
<trkpt lat="35.86851" lon="140.30045">
<ele>3</ele>
</trkpt>
<trkpt lat="35.86883" lon="140.29928">
<ele>3</ele>
</trkpt>
<trkpt lat="35.86915" lon="140.29821">
<ele>4</ele>
</trkpt>
<trkpt lat="35.86936" lon="140.29759">
<ele>3</ele>
</trkpt>
<trkpt lat="35.87005" lon="140.29579">
<ele>1</ele>
</trkpt>
<trkpt lat="35.87034" lon="140.29508">
<ele>1</ele>
</trkpt>
<trkpt lat="35.87094" lon="140.29376">
<ele>5</ele>
</trkpt>
<trkpt lat="35.8713" lon="140.293">
<ele>4</ele>
</trkpt>
<trkpt lat="35.87162" lon="140.29239">
<ele>4</ele>
</trkpt>
<trkpt lat="35.87211" lon="140.29143">
<ele>5</ele>
</trkpt>
<trkpt lat="35.87229" lon="140.29113">
<ele>5</ele>
</trkpt>
<trkpt lat="35.87238" lon="140.29108">
<ele>4</ele>
</trkpt>
<trkpt lat="35.87246" lon="140.29071">
<ele>3</ele>
</trkpt>
<trkpt lat="35.87264" lon="140.29026">
<ele>1</ele>
</trkpt>
<trkpt lat="35.87317" lon="140.28916">
<ele>2</ele>
</trkpt>
<trkpt lat="35.87408" lon="140.28697">
<ele>3</ele>
</trkpt>
<trkpt lat="35.87438" lon="140.28622">
<ele>3</ele>
</trkpt>
<trkpt lat="35.87505" lon="140.28437">
<ele>5</ele>
</trkpt>
<trkpt lat="35.87545" lon="140.28242">
<ele>3</ele>
</trkpt>
<trkpt lat="35.87567" lon="140.28091">
<ele>3</ele>
</trkpt>
<trkpt lat="35.87579" lon="140.27932">
<ele>3</ele>
</trkpt>
<trkpt lat="35.87571" lon="140.27865">
<ele>3</ele>
</trkpt>
<trkpt lat="35.87559" lon="140.2778">
<ele>3</ele>
</trkpt>
<trkpt lat="35.87543" lon="140.277">
<ele>4</ele>
</trkpt>
<trkpt lat="35.8752" lon="140.27607">
<ele>4</ele>
</trkpt>
<trkpt lat="35.87488" lon="140.27486">
<ele>5</ele>
</trkpt>
<trkpt lat="35.87448" lon="140.27351">
<ele>3</ele>
</trkpt>
<trkpt lat="35.87404" lon="140.27217">
<ele>3</ele>
</trkpt>
<trkpt lat="35.87317" lon="140.26977">
<ele>4</ele>
</trkpt>
<trkpt lat="35.87281" lon="140.26869">
<ele>5</ele>
</trkpt>
<trkpt lat="35.87252" lon="140.26774">
<ele>3</ele>
</trkpt>
<trkpt lat="35.87152" lon="140.26478">
<ele>4</ele>
</trkpt>
<trkpt lat="35.87088" lon="140.26313">
<ele>6</ele>
</trkpt>
<trkpt lat="35.87023" lon="140.26159">
<ele>6</ele>
</trkpt>
<trkpt lat="35.86996" lon="140.26103">
<ele>5</ele>
</trkpt>
<trkpt lat="35.86885" lon="140.25883">
<ele>4</ele>
</trkpt>
<trkpt lat="35.86852" lon="140.25826">
<ele>4</ele>
</trkpt>
<trkpt lat="35.86806" lon="140.25734">
<ele>6</ele>
</trkpt>
<trkpt lat="35.86761" lon="140.25638">
<ele>4</ele>
</trkpt>
<trkpt lat="35.86682" lon="140.25438">
<ele>2</ele>
</trkpt>
<trkpt lat="35.86627" lon="140.25265">
<ele>1</ele>
</trkpt>
<trkpt lat="35.8662" lon="140.25253">
<ele>1</ele>
</trkpt>
<trkpt lat="35.86619" lon="140.25245">
<ele>1</ele>
</trkpt>
<trkpt lat="35.86583" lon="140.25106">
<ele>3</ele>
</trkpt>
<trkpt lat="35.86568" lon="140.25028">
<ele>5</ele>
</trkpt>
<trkpt lat="35.86549" lon="140.24874">
<ele>6</ele>
</trkpt>
<trkpt lat="35.86523" lon="140.24608">
<ele>4</ele>
</trkpt>
<trkpt lat="35.86514" lon="140.24486">
<ele>2</ele>
</trkpt>
<trkpt lat="35.86504" lon="140.24431">
<ele>2</ele>
</trkpt>
<trkpt lat="35.86492" lon="140.24305">
<ele>4</ele>
</trkpt>
<trkpt lat="35.86466" lon="140.241">
<ele>4</ele>
</trkpt>
<trkpt lat="35.86454" lon="140.24031">
<ele>3</ele>
</trkpt>
<trkpt lat="35.86441" lon="140.23936">
<ele>4</ele>
</trkpt>
<trkpt lat="35.86384" lon="140.23571">
<ele>4</ele>
</trkpt>
<trkpt lat="35.86366" lon="140.23449">
<ele>5</ele>
</trkpt>
<trkpt lat="35.86356" lon="140.23363">
<ele>4</ele>
</trkpt>
<trkpt lat="35.86351" lon="140.23345">
<ele>4</ele>
</trkpt>
<trkpt lat="35.86328" lon="140.23189">
<ele>4</ele>
</trkpt>
<trkpt lat="35.86321" lon="140.23056">
<ele>5</ele>
</trkpt>
<trkpt lat="35.86315" lon="140.22907">
<ele>6</ele>
</trkpt>
<trkpt lat="35.8631" lon="140.22613">
<ele>5</ele>
</trkpt>
<trkpt lat="35.86309" lon="140.22319">
<ele>4</ele>
</trkpt>
<trkpt lat="35.86312" lon="140.22296">
<ele>3</ele>
</trkpt>
<trkpt lat="35.86314" lon="140.22245">
<ele>3</ele>
</trkpt>
<trkpt lat="35.86334" lon="140.2194">
<ele>5</ele>
</trkpt>
<trkpt lat="35.86356" lon="140.21664">
<ele>6</ele>
</trkpt>
<trkpt lat="35.86363" lon="140.21544">
<ele>4</ele>
</trkpt>
<trkpt lat="35.86363" lon="140.21498">
<ele>4</ele>
</trkpt>
<trkpt lat="35.86371" lon="140.21307">
<ele>2</ele>
</trkpt>
<trkpt lat="35.86371" lon="140.21207">
<ele>2</ele>
</trkpt>
<trkpt lat="35.86368" lon="140.2107">
<ele>2</ele>
</trkpt>
<trkpt lat="35.86351" lon="140.20873">
<ele>2</ele>
</trkpt>
<trkpt lat="35.86341" lon="140.20754">
<ele>2</ele>
</trkpt>
<trkpt lat="35.86265" lon="140.20765">
<ele>0</ele>
</trkpt>
<trkpt lat="35.85772" lon="140.20829">
<ele>3</ele>
</trkpt>
<trkpt lat="35.8577" lon="140.20792">
<ele>4</ele>
</trkpt>
<trkpt lat="35.85777" lon="140.20753">
<ele>4</ele>
</trkpt>
<trkpt lat="35.85782" lon="140.20691">
<ele>4</ele>
</trkpt>
<trkpt lat="35.85778" lon="140.20657">
<ele>4</ele>
</trkpt>
<trkpt lat="35.85768" lon="140.20575">
<ele>3</ele>
</trkpt>
<trkpt lat="35.85737" lon="140.2043">
<ele>2</ele>
</trkpt>
<trkpt lat="35.8572" lon="140.20364">
<ele>3</ele>
</trkpt>
<trkpt lat="35.85668" lon="140.2021">
<ele>4</ele>
</trkpt>
<trkpt lat="35.85554" lon="140.19912">
<ele>3</ele>
</trkpt>
<trkpt lat="35.85526" lon="140.19846">
<ele>3</ele>
</trkpt>
<trkpt lat="35.8549" lon="140.19773">
<ele>2</ele>
</trkpt>
<trkpt lat="35.85463" lon="140.19722">
<ele>2</ele>
</trkpt>
<trkpt lat="35.8543" lon="140.19668">
<ele>2</ele>
</trkpt>
<trkpt lat="35.8533" lon="140.19514">
<ele>3</ele>
</trkpt>
<trkpt lat="35.85285" lon="140.19447">
<ele>2</ele>
</trkpt>
<trkpt lat="35.85088" lon="140.19171">
<ele>2</ele>
</trkpt>
<trkpt lat="35.84996" lon="140.19032">
<ele>4</ele>
</trkpt>
<trkpt lat="35.84953" lon="140.18961">
<ele>4</ele>
</trkpt>
<trkpt lat="35.84914" lon="140.1889">
<ele>3</ele>
</trkpt>
<trkpt lat="35.8484" lon="140.18734">
<ele>1</ele>
</trkpt>
<trkpt lat="35.8481" lon="140.18657">
<ele>1</ele>
</trkpt>
<trkpt lat="35.84783" lon="140.18585">
<ele>1</ele>
</trkpt>
<trkpt lat="35.84754" lon="140.18499">
<ele>3</ele>
</trkpt>
<trkpt lat="35.84729" lon="140.18416">
<ele>3</ele>
</trkpt>
<trkpt lat="35.84675" lon="140.18211">
<ele>4</ele>
</trkpt>
<trkpt lat="35.84649" lon="140.1812">
<ele>4</ele>
</trkpt>
<trkpt lat="35.84617" lon="140.17996">
<ele>5</ele>
</trkpt>
<trkpt lat="35.84585" lon="140.17862">
<ele>6</ele>
</trkpt>
<trkpt lat="35.84484" lon="140.17414">
<ele>4</ele>
</trkpt>
<trkpt lat="35.84411" lon="140.17069">
<ele>6</ele>
</trkpt>
<trkpt lat="35.84395" lon="140.17">
<ele>5</ele>
</trkpt>
<trkpt lat="35.8436" lon="140.16803">
<ele>6</ele>
</trkpt>
<trkpt lat="35.8435" lon="140.16761">
<ele>5</ele>
</trkpt>
<trkpt lat="35.84305" lon="140.16495">
<ele>4</ele>
</trkpt>
<trkpt lat="35.84283" lon="140.16353">
<ele>4</ele>
</trkpt>
<trkpt lat="35.84256" lon="140.16201">
<ele>5</ele>
</trkpt>
<trkpt lat="35.84239" lon="140.16121">
<ele>8</ele>
</trkpt>
<trkpt lat="35.8422" lon="140.16049">
<ele>5</ele>
</trkpt>
<trkpt lat="35.84203" lon="140.15998">
<ele>4</ele>
</trkpt>
<trkpt lat="35.84173" lon="140.15918">
<ele>5</ele>
</trkpt>
<trkpt lat="35.84101" lon="140.15736">
<ele>3</ele>
</trkpt>
<trkpt lat="35.84096" lon="140.15713">
<ele>3</ele>
</trkpt>
<trkpt lat="35.84097" lon="140.15694">
<ele>3</ele>
</trkpt>
<trkpt lat="35.84101" lon="140.15669">
<ele>3</ele>
</trkpt>
<trkpt lat="35.84116" lon="140.15625">
<ele>4</ele>
</trkpt>
<trkpt lat="35.84117" lon="140.15604">
<ele>5</ele>
</trkpt>
<trkpt lat="35.84114" lon="140.15571">
<ele>5</ele>
</trkpt>
<trkpt lat="35.84109" lon="140.15573">
<ele>5</ele>
</trkpt>
<trkpt lat="35.84105" lon="140.15591">
<ele>5</ele>
</trkpt>
<trkpt lat="35.84104" lon="140.15613">
<ele>5</ele>
</trkpt>
<trkpt lat="35.84097" lon="140.15631">
<ele>5</ele>
</trkpt>
<trkpt lat="35.84085" lon="140.15638">
<ele>5</ele>
</trkpt>
<trkpt lat="35.84081" lon="140.15669">
<ele>6</ele>
</trkpt>
<trkpt lat="35.84065" lon="140.15663">
<ele>6</ele>
</trkpt>
<trkpt lat="35.84058" lon="140.15657">
<ele>6</ele>
</trkpt>
<trkpt lat="35.84051" lon="140.15643">
<ele>7</ele>
</trkpt>
<trkpt lat="35.84036" lon="140.15591">
<ele>8</ele>
</trkpt>
<trkpt lat="35.84037" lon="140.15553">
<ele>8</ele>
</trkpt>
<trkpt lat="35.84036" lon="140.15515">
<ele>8</ele>
</trkpt>
<trkpt lat="35.84031" lon="140.15465">
<ele>8</ele>
</trkpt>
<trkpt lat="35.8403" lon="140.15262">
<ele>7</ele>
</trkpt>
<trkpt lat="35.84024" lon="140.15223">
<ele>7</ele>
</trkpt>
<trkpt lat="35.84019" lon="140.1521">
<ele>7</ele>
</trkpt>
<trkpt lat="35.84011" lon="140.15198">
<ele>7</ele>
</trkpt>
<trkpt lat="35.83971" lon="140.15153">
<ele>7</ele>
</trkpt>
<trkpt lat="35.83978" lon="140.15142">
<ele>7</ele>
</trkpt>
<trkpt lat="35.83979" lon="140.15136">
<ele>7</ele>
</trkpt>
<trkpt lat="35.83975" lon="140.15027">
<ele>7</ele>
</trkpt>
<trkpt lat="35.84019" lon="140.14999">
<ele>6</ele>
</trkpt>
<trkpt lat="35.84042" lon="140.1499">
<ele>6</ele>
</trkpt>
<trkpt lat="35.84055" lon="140.14992">
<ele>5</ele>
</trkpt>
<trkpt lat="35.84073" lon="140.1499">
<ele>5</ele>
</trkpt>
<trkpt lat="35.84068" lon="140.14931">
<ele>5</ele>
</trkpt>
<trkpt lat="35.84068" lon="140.14913">
<ele>5</ele>
</trkpt>
<trkpt lat="35.8407" lon="140.14889">
<ele>5</ele>
</trkpt>
<trkpt lat="35.84079" lon="140.14865">
<ele>5</ele>
</trkpt>
<trkpt lat="35.84082" lon="140.14814">
<ele>5</ele>
</trkpt>
<trkpt lat="35.84072" lon="140.14786">
<ele>5</ele>
</trkpt>
<trkpt lat="35.84073" lon="140.14764">
<ele>5</ele>
</trkpt>
<trkpt lat="35.84066" lon="140.14734">
<ele>5</ele>
</trkpt>
<trkpt lat="35.84094" lon="140.14687">
<ele>5</ele>
</trkpt>
<trkpt lat="35.84082" lon="140.14666">
<ele>5</ele>
</trkpt>
<trkpt lat="35.84063" lon="140.14625">
<ele>6</ele>
</trkpt>
<trkpt lat="35.84056" lon="140.1459">
<ele>6</ele>
</trkpt>
<trkpt lat="35.84057" lon="140.14552">
<ele>6</ele>
</trkpt>
<trkpt lat="35.84062" lon="140.14499">
<ele>6</ele>
</trkpt>
<trkpt lat="35.84071" lon="140.14461">
<ele>6</ele>
</trkpt>
<trkpt lat="35.84089" lon="140.14403">
<ele>6</ele>
</trkpt>
<trkpt lat="35.84095" lon="140.14365">
<ele>6</ele>
</trkpt>
<trkpt lat="35.84097" lon="140.14344">
<ele>7</ele>
</trkpt>
<trkpt lat="35.84093" lon="140.14299">
<ele>7</ele>
</trkpt>
<trkpt lat="35.84093" lon="140.14287">
<ele>7</ele>
</trkpt>
<trkpt lat="35.84203" lon="140.14225">
<ele>8</ele>
</trkpt>
<trkpt lat="35.84244" lon="140.14205">
<ele>8</ele>
</trkpt>
<trkpt lat="35.84223" lon="140.14148">
<ele>8</ele>
</trkpt>
<trkpt lat="35.84184" lon="140.14014">
<ele>4</ele>
</trkpt>
<trkpt lat="35.84181" lon="140.13995">
<ele>3</ele>
</trkpt>
<trkpt lat="35.84182" lon="140.13966">
<ele>3</ele>
</trkpt>
<trkpt lat="35.84199" lon="140.13961">
<ele>2</ele>
</trkpt>
<trkpt lat="35.84183" lon="140.13907">
<ele>1</ele>
</trkpt>
<trkpt lat="35.84179" lon="140.13885">
<ele>1</ele>
</trkpt>
<trkpt lat="35.84177" lon="140.13688">
<ele>3</ele>
</trkpt>
<trkpt lat="35.84175" lon="140.13676">
<ele>3</ele>
</trkpt>
<trkpt lat="35.84172" lon="140.13663">
<ele>3</ele>
</trkpt>
<trkpt lat="35.8416" lon="140.13635">
<ele>3</ele>
</trkpt>
<trkpt lat="35.84152" lon="140.13623">
<ele>3</ele>
</trkpt>
<trkpt lat="35.84116" lon="140.13587">
<ele>1</ele>
</trkpt>
<trkpt lat="35.8411" lon="140.13577">
<ele>1</ele>
</trkpt>
<trkpt lat="35.84213" lon="140.13501">
<ele>1</ele>
</trkpt>
<trkpt lat="35.84192" lon="140.13458">
<ele>0</ele>
</trkpt>
<trkpt lat="35.84181" lon="140.13432">
<ele>0</ele>
</trkpt>
<trkpt lat="35.84171" lon="140.13392">
<ele>0</ele>
</trkpt>
<trkpt lat="35.8417" lon="140.13353">
<ele>0</ele>
</trkpt>
<trkpt lat="35.84171" lon="140.13327">
<ele>0</ele>
</trkpt>
<trkpt lat="35.84173" lon="140.13306">
<ele>0</ele>
</trkpt>
<trkpt lat="35.8419" lon="140.13247">
<ele>1</ele>
</trkpt>
<trkpt lat="35.84211" lon="140.13191">
<ele>2</ele>
</trkpt>
<trkpt lat="35.84235" lon="140.13146">
<ele>3</ele>
</trkpt>
<trkpt lat="35.84267" lon="140.13078">
<ele>2</ele>
</trkpt>
<trkpt lat="35.84277" lon="140.13049">
<ele>2</ele>
</trkpt>
<trkpt lat="35.84286" lon="140.12998">
<ele>1</ele>
</trkpt>
<trkpt lat="35.84286" lon="140.12977">
<ele>0</ele>
</trkpt>
<trkpt lat="35.8428" lon="140.12919">
<ele>0</ele>
</trkpt>
<trkpt lat="35.84266" lon="140.12877">
<ele>0</ele>
</trkpt>
<trkpt lat="35.84251" lon="140.12852">
<ele>0</ele>
</trkpt>
<trkpt lat="35.84245" lon="140.12823">
<ele>0</ele>
</trkpt>
<trkpt lat="35.84238" lon="140.1281">
<ele>0</ele>
</trkpt>
<trkpt lat="35.84225" lon="140.12796">
<ele>0</ele>
</trkpt>
<trkpt lat="35.84218" lon="140.12782">
<ele>0</ele>
</trkpt>
<trkpt lat="35.84217" lon="140.12765">
<ele>0</ele>
</trkpt>
<trkpt lat="35.84226" lon="140.12735">
<ele>0</ele>
</trkpt>
<trkpt lat="35.84231" lon="140.12709">
<ele>0</ele>
</trkpt>
<trkpt lat="35.84221" lon="140.12263">
<ele>5</ele>
</trkpt>
<trkpt lat="35.84225" lon="140.12204">
<ele>4</ele>
</trkpt>
<trkpt lat="35.8423" lon="140.12164">
<ele>4</ele>
</trkpt>
<trkpt lat="35.84364" lon="140.11434">
<ele>0</ele>
</trkpt>
<trkpt lat="35.84464" lon="140.1088">
<ele>4</ele>
</trkpt>
<trkpt lat="35.84481" lon="140.10819">
<ele>5</ele>
</trkpt>
<trkpt lat="35.84755" lon="140.10116">
<ele>0</ele>
</trkpt>
<trkpt lat="35.84859" lon="140.09856">
<ele>0</ele>
</trkpt>
<trkpt lat="35.84876" lon="140.09772">
<ele>0</ele>
</trkpt>
<trkpt lat="35.84878" lon="140.09748">
<ele>0</ele>
</trkpt>
<trkpt lat="35.84879" lon="140.09424">
<ele>0</ele>
</trkpt>
<trkpt lat="35.84917" lon="140.09135">
<ele>0</ele>
</trkpt>
<trkpt lat="35.8506" lon="140.0832">
<ele>0</ele>
</trkpt>
<trkpt lat="35.8514" lon="140.07833">
<ele>0</ele>
</trkpt>
<trkpt lat="35.8515" lon="140.07797">
<ele>0</ele>
</trkpt>
<trkpt lat="35.85152" lon="140.07785">
<ele>0</ele>
</trkpt>
<trkpt lat="35.85151" lon="140.07743">
<ele>0</ele>
</trkpt>
<trkpt lat="35.8516" lon="140.07661">
<ele>0</ele>
</trkpt>
<trkpt lat="35.85172" lon="140.07517">
<ele>0</ele>
</trkpt>
<trkpt lat="35.85191" lon="140.07229">
<ele>0</ele>
</trkpt>
<trkpt lat="35.8519" lon="140.06865">
<ele>1</ele>
</trkpt>
<trkpt lat="35.85189" lon="140.06819">
<ele>2</ele>
</trkpt>
<trkpt lat="35.85165" lon="140.06658">
<ele>2</ele>
</trkpt>
<trkpt lat="35.85147" lon="140.06562">
<ele>2</ele>
</trkpt>
<trkpt lat="35.85116" lon="140.06537">
<ele>1</ele>
</trkpt>
<trkpt lat="35.85006" lon="140.06567">
<ele>1</ele>
</trkpt>
<trkpt lat="35.85" lon="140.06528">
<ele>1</ele>
</trkpt>
<trkpt lat="35.84968" lon="140.06396">
<ele>1</ele>
</trkpt>
<trkpt lat="35.84963" lon="140.0638">
<ele>1</ele>
</trkpt>
<trkpt lat="35.84882" lon="140.06276">
<ele>1</ele>
</trkpt>
<trkpt lat="35.8487" lon="140.06264">
<ele>1</ele>
</trkpt>
<trkpt lat="35.84853" lon="140.06253">
<ele>1</ele>
</trkpt>
<trkpt lat="35.84843" lon="140.06236">
<ele>1</ele>
</trkpt>
<trkpt lat="35.8484" lon="140.06224">
<ele>1</ele>
</trkpt>
<trkpt lat="35.84842" lon="140.06194">
<ele>1</ele>
</trkpt>
<trkpt lat="35.84835" lon="140.06181">
<ele>1</ele>
</trkpt>
<trkpt lat="35.8483" lon="140.06166">
<ele>1</ele>
</trkpt>
<trkpt lat="35.84826" lon="140.06138">
<ele>0</ele>
</trkpt>
<trkpt lat="35.84818" lon="140.06117">
<ele>0</ele>
</trkpt>
<trkpt lat="35.84798" lon="140.06123">
<ele>0</ele>
</trkpt>
<trkpt lat="35.84607" lon="140.06159">
<ele>2</ele>
</trkpt>
<trkpt lat="35.84586" lon="140.06043">
<ele>4</ele>
</trkpt>
<trkpt lat="35.84572" lon="140.05992">
<ele>5</ele>
</trkpt>
<trkpt lat="35.8446" lon="140.0564">
<ele>4</ele>
</trkpt>
<trkpt lat="35.84439" lon="140.05521">
<ele>13</ele>
</trkpt>
<trkpt lat="35.84431" lon="140.05431">
<ele>15</ele>
</trkpt>
<trkpt lat="35.84393" lon="140.05298">
<ele>10</ele>
</trkpt>
<trkpt lat="35.84373" lon="140.05276">
<ele>10</ele>
</trkpt>
<trkpt lat="35.84354" lon="140.0524">
<ele>10</ele>
</trkpt>
<trkpt lat="35.84337" lon="140.05181">
<ele>10</ele>
</trkpt>
<trkpt lat="35.8433" lon="140.05164">
<ele>9</ele>
</trkpt>
<trkpt lat="35.84321" lon="140.05155">
<ele>9</ele>
</trkpt>
<trkpt lat="35.84309" lon="140.0515">
<ele>8</ele>
</trkpt>
<trkpt lat="35.84287" lon="140.05152">
<ele>7</ele>
</trkpt>
<trkpt lat="35.84267" lon="140.05042">
<ele>12</ele>
</trkpt>
<trkpt lat="35.84261" lon="140.05041">
<ele>12</ele>
</trkpt>
<trkpt lat="35.84252" lon="140.05045">
<ele>13</ele>
</trkpt>
<trkpt lat="35.84233" lon="140.05061">
<ele>14</ele>
</trkpt>
<trkpt lat="35.84225" lon="140.05064">
<ele>15</ele>
</trkpt>
<trkpt lat="35.84216" lon="140.05065">
<ele>15</ele>
</trkpt>
<trkpt lat="35.84202" lon="140.05062">
<ele>16</ele>
</trkpt>
<trkpt lat="35.84178" lon="140.0505">
<ele>18</ele>
</trkpt>
<trkpt lat="35.84142" lon="140.05037">
<ele>19</ele>
</trkpt>
<trkpt lat="35.84134" lon="140.05032">
<ele>19</ele>
</trkpt>
<trkpt lat="35.84126" lon="140.05022">
<ele>19</ele>
</trkpt>
<trkpt lat="35.84115" lon="140.05001">
<ele>19</ele>
</trkpt>
<trkpt lat="35.84115" lon="140.04994">
<ele>19</ele>
</trkpt>
<trkpt lat="35.84109" lon="140.04991">
<ele>19</ele>
</trkpt>
<trkpt lat="35.841" lon="140.04983">
<ele>20</ele>
</trkpt>
<trkpt lat="35.84088" lon="140.04977">
<ele>20</ele>
</trkpt>
<trkpt lat="35.84071" lon="140.0498">
<ele>20</ele>
</trkpt>
<trkpt lat="35.84058" lon="140.0498">
<ele>20</ele>
</trkpt>
<trkpt lat="35.84031" lon="140.04977">
<ele>20</ele>
</trkpt>
<trkpt lat="35.84002" lon="140.04978">
<ele>20</ele>
</trkpt>
<trkpt lat="35.83978" lon="140.0499">
<ele>20</ele>
</trkpt>
<trkpt lat="35.83953" lon="140.04997">
<ele>20</ele>
</trkpt>
<trkpt lat="35.83891" lon="140.05033">
<ele>21</ele>
</trkpt>
<trkpt lat="35.83882" lon="140.05034">
<ele>21</ele>
</trkpt>
<trkpt lat="35.83777" lon="140.04847">
<ele>22</ele>
</trkpt>
<trkpt lat="35.83775" lon="140.04842">
<ele>22</ele>
</trkpt>
<trkpt lat="35.83763" lon="140.04821">
<ele>22</ele>
</trkpt>
<trkpt lat="35.83748" lon="140.04823">
<ele>22</ele>
</trkpt>
<trkpt lat="35.8374" lon="140.04815">
<ele>22</ele>
</trkpt>
<trkpt lat="35.83732" lon="140.04802">
<ele>23</ele>
</trkpt>
<trkpt lat="35.83716" lon="140.04785">
<ele>24</ele>
</trkpt>
<trkpt lat="35.837" lon="140.04771">
<ele>25</ele>
</trkpt>
<trkpt lat="35.83682" lon="140.04745">
<ele>25</ele>
</trkpt>
<trkpt lat="35.83681" lon="140.04741">
<ele>25</ele>
</trkpt>
<trkpt lat="35.8368" lon="140.04713">
<ele>25</ele>
</trkpt>
<trkpt lat="35.83688" lon="140.04684">
<ele>25</ele>
</trkpt>
<trkpt lat="35.83693" lon="140.04656">
<ele>25</ele>
</trkpt>
<trkpt lat="35.83695" lon="140.04599">
<ele>24</ele>
</trkpt>
<trkpt lat="35.83659" lon="140.04548">
<ele>23</ele>
</trkpt>
<trkpt lat="35.83648" lon="140.04536">
<ele>23</ele>
</trkpt>
<trkpt lat="35.83613" lon="140.04515">
<ele>23</ele>
</trkpt>
<trkpt lat="35.8353" lon="140.04496">
<ele>23</ele>
</trkpt>
<trkpt lat="35.83429" lon="140.04468">
<ele>25</ele>
</trkpt>
<trkpt lat="35.83403" lon="140.04453">
<ele>25</ele>
</trkpt>
<trkpt lat="35.8338" lon="140.04431">
<ele>25</ele>
</trkpt>
<trkpt lat="35.83327" lon="140.0439">
<ele>25</ele>
</trkpt>
<trkpt lat="35.83306" lon="140.0437">
<ele>25</ele>
</trkpt>
<trkpt lat="35.8329" lon="140.0435">
<ele>25</ele>
</trkpt>
<trkpt lat="35.83267" lon="140.04307">
<ele>25</ele>
</trkpt>
<trkpt lat="35.83225" lon="140.04251">
<ele>25</ele>
</trkpt>
<trkpt lat="35.83183" lon="140.0419">
<ele>24</ele>
</trkpt>
<trkpt lat="35.83139" lon="140.04132">
<ele>24</ele>
</trkpt>
<trkpt lat="35.83105" lon="140.04092">
<ele>24</ele>
</trkpt>
<trkpt lat="35.83083" lon="140.0405">
<ele>25</ele>
</trkpt>
<trkpt lat="35.83049" lon="140.03911">
<ele>29</ele>
</trkpt>
<trkpt lat="35.83045" lon="140.03887">
<ele>30</ele>
</trkpt>
<trkpt lat="35.83043" lon="140.03861">
<ele>32</ele>
</trkpt>
<trkpt lat="35.83044" lon="140.03792">
<ele>32</ele>
</trkpt>
<trkpt lat="35.83049" lon="140.03616">
<ele>35</ele>
</trkpt>
<trkpt lat="35.83046" lon="140.03588">
<ele>34</ele>
</trkpt>
<trkpt lat="35.83042" lon="140.03566">
<ele>33</ele>
</trkpt>
<trkpt lat="35.8303" lon="140.03536">
<ele>32</ele>
</trkpt>
<trkpt lat="35.82928" lon="140.03325">
<ele>29</ele>
</trkpt>
<trkpt lat="35.82908" lon="140.03279">
<ele>29</ele>
</trkpt>
<trkpt lat="35.82904" lon="140.03268">
<ele>29</ele>
</trkpt>
<trkpt lat="35.82903" lon="140.03258">
<ele>29</ele>
</trkpt>
<trkpt lat="35.82904" lon="140.03244">
<ele>29</ele>
</trkpt>
<trkpt lat="35.82917" lon="140.03191">
<ele>29</ele>
</trkpt>
<trkpt lat="35.82919" lon="140.03173">
<ele>29</ele>
</trkpt>
<trkpt lat="35.8292" lon="140.0314">
<ele>29</ele>
</trkpt>
<trkpt lat="35.82909" lon="140.03094">
<ele>28</ele>
</trkpt>
<trkpt lat="35.8289" lon="140.03025">
<ele>27</ele>
</trkpt>
<trkpt lat="35.82877" lon="140.02967">
<ele>26</ele>
</trkpt>
<trkpt lat="35.82868" lon="140.02867">
<ele>26</ele>
</trkpt>
<trkpt lat="35.82861" lon="140.02834">
<ele>26</ele>
</trkpt>
<trkpt lat="35.82799" lon="140.0272">
<ele>33</ele>
</trkpt>
<trkpt lat="35.82721" lon="140.02496">
<ele>29</ele>
</trkpt>
<trkpt lat="35.82576" lon="140.02424">
<ele>29</ele>
</trkpt>
<trkpt lat="35.82559" lon="140.02406">
<ele>28</ele>
</trkpt>
<trkpt lat="35.82547" lon="140.0239">
<ele>28</ele>
</trkpt>
<trkpt lat="35.8252" lon="140.02349">
<ele>28</ele>
</trkpt>
<trkpt lat="35.82502" lon="140.02306">
<ele>27</ele>
</trkpt>
<trkpt lat="35.8248" lon="140.0223">
<ele>26</ele>
</trkpt>
<trkpt lat="35.82462" lon="140.02177">
<ele>24</ele>
</trkpt>
<trkpt lat="35.82401" lon="140.02061">
<ele>25</ele>
</trkpt>
<trkpt lat="35.82378" lon="140.02022">
<ele>26</ele>
</trkpt>
<trkpt lat="35.82377" lon="140.02015">
<ele>26</ele>
</trkpt>
<trkpt lat="35.82348" lon="140.0196">
<ele>27</ele>
</trkpt>
<trkpt lat="35.82317" lon="140.01891">
<ele>28</ele>
</trkpt>
<trkpt lat="35.82301" lon="140.01849">
<ele>28</ele>
</trkpt>
<trkpt lat="35.82287" lon="140.01803">
<ele>28</ele>
</trkpt>
<trkpt lat="35.82282" lon="140.01765">
<ele>28</ele>
</trkpt>
<trkpt lat="35.82279" lon="140.01711">
<ele>28</ele>
</trkpt>
<trkpt lat="35.82275" lon="140.0169">
<ele>29</ele>
</trkpt>
<trkpt lat="35.82268" lon="140.01668">
<ele>29</ele>
</trkpt>
<trkpt lat="35.82253" lon="140.01636">
<ele>29</ele>
</trkpt>
<trkpt lat="35.82196" lon="140.01543">
<ele>29</ele>
</trkpt>
<trkpt lat="35.82175" lon="140.01506">
<ele>30</ele>
</trkpt>
<trkpt lat="35.8215" lon="140.01466">
<ele>30</ele>
</trkpt>
<trkpt lat="35.82118" lon="140.0143">
<ele>30</ele>
</trkpt>
<trkpt lat="35.82087" lon="140.01398">
<ele>29</ele>
</trkpt>
<trkpt lat="35.82065" lon="140.01371">
<ele>28</ele>
</trkpt>
<trkpt lat="35.8204" lon="140.01332">
<ele>28</ele>
</trkpt>
<trkpt lat="35.82013" lon="140.01279">
<ele>28</ele>
</trkpt>
<trkpt lat="35.81957" lon="140.0118">
<ele>27</ele>
</trkpt>
<trkpt lat="35.81941" lon="140.01157">
<ele>26</ele>
</trkpt>
<trkpt lat="35.81917" lon="140.0113">
<ele>26</ele>
</trkpt>
<trkpt lat="35.81899" lon="140.01113">
<ele>26</ele>
</trkpt>
<trkpt lat="35.81874" lon="140.01095">
<ele>27</ele>
</trkpt>
<trkpt lat="35.81856" lon="140.01084">
<ele>28</ele>
</trkpt>
<trkpt lat="35.81739" lon="140.01027">
<ele>27</ele>
</trkpt>
<trkpt lat="35.8172" lon="140.01014">
<ele>27</ele>
</trkpt>
<trkpt lat="35.81706" lon="140.01001">
<ele>27</ele>
</trkpt>
<trkpt lat="35.81694" lon="140.00987">
<ele>27</ele>
</trkpt>
<trkpt lat="35.8154" lon="140.00756">
<ele>29</ele>
</trkpt>
<trkpt lat="35.81516" lon="140.00714">
<ele>28</ele>
</trkpt>
<trkpt lat="35.81511" lon="140.007">
<ele>28</ele>
</trkpt>
<trkpt lat="35.81502" lon="140.00668">
<ele>28</ele>
</trkpt>
<trkpt lat="35.81488" lon="140.00551">
<ele>26</ele>
</trkpt>
<trkpt lat="35.81484" lon="140.00526">
<ele>25</ele>
</trkpt>
<trkpt lat="35.81472" lon="140.00488">
<ele>23</ele>
</trkpt>
<trkpt lat="35.81468" lon="140.00479">
<ele>22</ele>
</trkpt>
<trkpt lat="35.81427" lon="140.00405">
<ele>14</ele>
</trkpt>
<trkpt lat="35.81333" lon="140.00243">
<ele>15</ele>
</trkpt>
<trkpt lat="35.81317" lon="140.00225">
<ele>16</ele>
</trkpt>
<trkpt lat="35.81279" lon="140.00191">
<ele>18</ele>
</trkpt>
<trkpt lat="35.81256" lon="140.00166">
<ele>19</ele>
</trkpt>
<trkpt lat="35.81231" lon="140.00124">
<ele>20</ele>
</trkpt>
<trkpt lat="35.81218" lon="140.00097">
<ele>20</ele>
</trkpt>
<trkpt lat="35.81211" lon="140.00078">
<ele>20</ele>
</trkpt>
<trkpt lat="35.81137" lon="139.99795">
<ele>20</ele>
</trkpt>
<trkpt lat="35.8113" lon="139.99771">
<ele>20</ele>
</trkpt>
<trkpt lat="35.8112" lon="139.99749">
<ele>20</ele>
</trkpt>
<trkpt lat="35.81027" lon="139.9957">
<ele>20</ele>
</trkpt>
<trkpt lat="35.80954" lon="139.99319">
<ele>19</ele>
</trkpt>
<trkpt lat="35.80937" lon="139.9927">
<ele>19</ele>
</trkpt>
<trkpt lat="35.80956" lon="139.99248">
<ele>20</ele>
</trkpt>
<trkpt lat="35.80913" lon="139.99187">
<ele>20</ele>
</trkpt>
<trkpt lat="35.80862" lon="139.9913">
<ele>20</ele>
</trkpt>
<trkpt lat="35.80843" lon="139.99104">
<ele>20</ele>
</trkpt>
<trkpt lat="35.80789" lon="139.9904">
<ele>19</ele>
</trkpt>
<trkpt lat="35.80778" lon="139.99024">
<ele>19</ele>
</trkpt>
<trkpt lat="35.80832" lon="139.98967">
<ele>21</ele>
</trkpt>
<trkpt lat="35.80778" lon="139.9888">
<ele>20</ele>
</trkpt>
<trkpt lat="35.80727" lon="139.98767">
<ele>23</ele>
</trkpt>
<trkpt lat="35.80759" lon="139.98744">
<ele>25</ele>
</trkpt>
<trkpt lat="35.80676" lon="139.9856">
<ele>28</ele>
</trkpt>
<trkpt lat="35.80648" lon="139.98502">
<ele>28</ele>
</trkpt>
<trkpt lat="35.80528" lon="139.98327">
<ele>29</ele>
</trkpt>
<trkpt lat="35.8051" lon="139.98307">
<ele>29</ele>
</trkpt>
<trkpt lat="35.80367" lon="139.98188">
<ele>28</ele>
</trkpt>
<trkpt lat="35.80346" lon="139.98169">
<ele>28</ele>
</trkpt>
<trkpt lat="35.80331" lon="139.98153">
<ele>28</ele>
</trkpt>
<trkpt lat="35.80197" lon="139.97978">
<ele>31</ele>
</trkpt>
<trkpt lat="35.80002" lon="139.97716">
<ele>31</ele>
</trkpt>
<trkpt lat="35.79985" lon="139.97697">
<ele>31</ele>
</trkpt>
<trkpt lat="35.7996" lon="139.97678">
<ele>31</ele>
</trkpt>
<trkpt lat="35.79917" lon="139.97652">
<ele>31</ele>
</trkpt>
<trkpt lat="35.79822" lon="139.97597">
<ele>31</ele>
</trkpt>
<trkpt lat="35.79791" lon="139.97581">
<ele>31</ele>
</trkpt>
<trkpt lat="35.79798" lon="139.97473">
<ele>31</ele>
</trkpt>
<trkpt lat="35.79797" lon="139.97459">
<ele>31</ele>
</trkpt>
<trkpt lat="35.7971" lon="139.97454">
<ele>31</ele>
</trkpt>
<trkpt lat="35.79651" lon="139.97441">
<ele>32</ele>
</trkpt>
<trkpt lat="35.79654" lon="139.97384">
<ele>33</ele>
</trkpt>
<trkpt lat="35.79601" lon="139.97372">
<ele>33</ele>
</trkpt>
<trkpt lat="35.79597" lon="139.97373">
<ele>32</ele>
</trkpt>
<trkpt lat="35.79558" lon="139.97366">
<ele>32</ele>
</trkpt>
<trkpt lat="35.79527" lon="139.97357">
<ele>32</ele>
</trkpt>
<trkpt lat="35.7952" lon="139.97362">
<ele>32</ele>
</trkpt>
<trkpt lat="35.79444" lon="139.97107">
<ele>31</ele>
</trkpt>
<trkpt lat="35.79432" lon="139.97111">
<ele>30</ele>
</trkpt>
<trkpt lat="35.79411" lon="139.97056">
<ele>30</ele>
</trkpt>
<trkpt lat="35.79431" lon="139.9704">
<ele>30</ele>
</trkpt>
<trkpt lat="35.79374" lon="139.96876">
<ele>29</ele>
</trkpt>
<trkpt lat="35.79331" lon="139.96823">
<ele>30</ele>
</trkpt>
<trkpt lat="35.79322" lon="139.96805">
<ele>30</ele>
</trkpt>
<trkpt lat="35.79287" lon="139.96669">
<ele>28</ele>
</trkpt>
<trkpt lat="35.7925" lon="139.9669">
<ele>28</ele>
</trkpt>
<trkpt lat="35.79191" lon="139.96702">
<ele>28</ele>
</trkpt>
<trkpt lat="35.79149" lon="139.96714">
<ele>28</ele>
</trkpt>
<trkpt lat="35.79138" lon="139.96707">
<ele>28</ele>
</trkpt>
<trkpt lat="35.79111" lon="139.96698">
<ele>28</ele>
</trkpt>
<trkpt lat="35.79081" lon="139.96683">
<ele>28</ele>
</trkpt>
<trkpt lat="35.79072" lon="139.96672">
<ele>28</ele>
</trkpt>
<trkpt lat="35.79051" lon="139.96638">
<ele>28</ele>
</trkpt>
<trkpt lat="35.79044" lon="139.96614">
<ele>28</ele>
</trkpt>
<trkpt lat="35.7903" lon="139.96584">
<ele>27</ele>
</trkpt>
<trkpt lat="35.79006" lon="139.96557">
<ele>27</ele>
</trkpt>
<trkpt lat="35.78984" lon="139.96542">
<ele>27</ele>
</trkpt>
<trkpt lat="35.78972" lon="139.96537">
<ele>27</ele>
</trkpt>
<trkpt lat="35.78962" lon="139.96537">
<ele>27</ele>
</trkpt>
<trkpt lat="35.78913" lon="139.96545">
<ele>26</ele>
</trkpt>
<trkpt lat="35.78845" lon="139.96555">
<ele>26</ele>
</trkpt>
<trkpt lat="35.78831" lon="139.96555">
<ele>26</ele>
</trkpt>
<trkpt lat="35.78807" lon="139.96541">
<ele>26</ele>
</trkpt>
<trkpt lat="35.7881" lon="139.96523">
<ele>26</ele>
</trkpt>
<trkpt lat="35.78814" lon="139.96471">
<ele>27</ele>
</trkpt>
<trkpt lat="35.78784" lon="139.96463">
<ele>28</ele>
</trkpt>
<trkpt lat="35.78783" lon="139.96456">
<ele>28</ele>
</trkpt>
<trkpt lat="35.78795" lon="139.96399">
<ele>28</ele>
</trkpt>
<trkpt lat="35.78838" lon="139.96221">
<ele>28</ele>
</trkpt>
<trkpt lat="35.78919" lon="139.95858">
<ele>28</ele>
</trkpt>
<trkpt lat="35.78928" lon="139.95825">
<ele>29</ele>
</trkpt>
<trkpt lat="35.7893" lon="139.95809">
<ele>29</ele>
</trkpt>
<trkpt lat="35.7893" lon="139.95793">
<ele>29</ele>
</trkpt>
<trkpt lat="35.78901" lon="139.95619">
<ele>26</ele>
</trkpt>
<trkpt lat="35.78837" lon="139.9519">
<ele>26</ele>
</trkpt>
<trkpt lat="35.78801" lon="139.94957">
<ele>23</ele>
</trkpt>
<trkpt lat="35.78777" lon="139.9481">
<ele>19</ele>
</trkpt>
<trkpt lat="35.78741" lon="139.9477">
<ele>17</ele>
</trkpt>
<trkpt lat="35.78712" lon="139.94754">
<ele>15</ele>
</trkpt>
<trkpt lat="35.78706" lon="139.94749">
<ele>14</ele>
</trkpt>
<trkpt lat="35.78651" lon="139.94684">
<ele>14</ele>
</trkpt>
<trkpt lat="35.78639" lon="139.94627">
<ele>14</ele>
</trkpt>
<trkpt lat="35.78628" lon="139.946">
<ele>15</ele>
</trkpt>
<trkpt lat="35.78615" lon="139.94584">
<ele>15</ele>
</trkpt>
<trkpt lat="35.78579" lon="139.94561">
<ele>16</ele>
</trkpt>
<trkpt lat="35.78578" lon="139.94552">
<ele>16</ele>
</trkpt>
<trkpt lat="35.78575" lon="139.94547">
<ele>16</ele>
</trkpt>
<trkpt lat="35.78571" lon="139.94541">
<ele>17</ele>
</trkpt>
<trkpt lat="35.78517" lon="139.94517">
<ele>18</ele>
</trkpt>
<trkpt lat="35.78523" lon="139.94469">
<ele>18</ele>
</trkpt>
<trkpt lat="35.78535" lon="139.94416">
<ele>18</ele>
</trkpt>
<trkpt lat="35.78551" lon="139.94387">
<ele>18</ele>
</trkpt>
<trkpt lat="35.78557" lon="139.94369">
<ele>18</ele>
</trkpt>
<trkpt lat="35.78566" lon="139.9432">
<ele>18</ele>
</trkpt>
<trkpt lat="35.78575" lon="139.94292">
<ele>18</ele>
</trkpt>
<trkpt lat="35.78569" lon="139.94274">
<ele>18</ele>
</trkpt>
<trkpt lat="35.78567" lon="139.94248">
<ele>19</ele>
</trkpt>
<trkpt lat="35.78557" lon="139.94226">
<ele>19</ele>
</trkpt>
<trkpt lat="35.78549" lon="139.94215">
<ele>20</ele>
</trkpt>
<trkpt lat="35.78532" lon="139.94207">
<ele>20</ele>
</trkpt>
<trkpt lat="35.78527" lon="139.94202">
<ele>20</ele>
</trkpt>
<trkpt lat="35.78465" lon="139.94126">
<ele>19</ele>
</trkpt>
<trkpt lat="35.78449" lon="139.94112">
<ele>18</ele>
</trkpt>
<trkpt lat="35.78429" lon="139.94072">
<ele>17</ele>
</trkpt>
<trkpt lat="35.78402" lon="139.94044">
<ele>16</ele>
</trkpt>
<trkpt lat="35.7836" lon="139.93993">
<ele>14</ele>
</trkpt>
<trkpt lat="35.78389" lon="139.93949">
<ele>14</ele>
</trkpt>
<trkpt lat="35.78339" lon="139.93907">
<ele>14</ele>
</trkpt>
<trkpt lat="35.78328" lon="139.93886">
<ele>14</ele>
</trkpt>
<trkpt lat="35.78306" lon="139.93854">
<ele>14</ele>
</trkpt>
<trkpt lat="35.78276" lon="139.93821">
<ele>14</ele>
</trkpt>
<trkpt lat="35.7826" lon="139.93807">
<ele>13</ele>
</trkpt>
<trkpt lat="35.78214" lon="139.93796">
<ele>12</ele>
</trkpt>
<trkpt lat="35.78279" lon="139.93654">
<ele>12</ele>
</trkpt>
<trkpt lat="35.78257" lon="139.93636">
<ele>12</ele>
</trkpt>
<trkpt lat="35.78225" lon="139.93617">
<ele>13</ele>
</trkpt>
<trkpt lat="35.78206" lon="139.93581">
<ele>13</ele>
</trkpt>
<trkpt lat="35.78163" lon="139.93523">
<ele>14</ele>
</trkpt>
<trkpt lat="35.78108" lon="139.93501">
<ele>14</ele>
</trkpt>
<trkpt lat="35.78104" lon="139.935">
<ele>14</ele>
</trkpt>
<trkpt lat="35.78092" lon="139.93477">
<ele>15</ele>
</trkpt>
<trkpt lat="35.78087" lon="139.9345">
<ele>16</ele>
</trkpt>
<trkpt lat="35.78087" lon="139.93402">
<ele>18</ele>
</trkpt>
<trkpt lat="35.78086" lon="139.93389">
<ele>19</ele>
</trkpt>
<trkpt lat="35.78083" lon="139.93379">
<ele>19</ele>
</trkpt>
<trkpt lat="35.78027" lon="139.93317">
<ele>21</ele>
</trkpt>
<trkpt lat="35.7802" lon="139.93316">
<ele>22</ele>
</trkpt>
<trkpt lat="35.7802" lon="139.93305">
<ele>22</ele>
</trkpt>
<trkpt lat="35.78015" lon="139.93304">
<ele>22</ele>
</trkpt>
<trkpt lat="35.78004" lon="139.93295">
<ele>22</ele>
</trkpt>
<trkpt lat="35.77985" lon="139.93255">
<ele>24</ele>
</trkpt>
<trkpt lat="35.7798" lon="139.93241">
<ele>24</ele>
</trkpt>
<trkpt lat="35.77976" lon="139.93223">
<ele>25</ele>
</trkpt>
<trkpt lat="35.77973" lon="139.9318">
<ele>25</ele>
</trkpt>
<trkpt lat="35.77971" lon="139.93171">
<ele>26</ele>
</trkpt>
<trkpt lat="35.77964" lon="139.93158">
<ele>26</ele>
</trkpt>
<trkpt lat="35.7794" lon="139.93129">
<ele>27</ele>
</trkpt>
<trkpt lat="35.77914" lon="139.93102">
<ele>27</ele>
</trkpt>
<trkpt lat="35.77907" lon="139.93091">
<ele>27</ele>
</trkpt>
<trkpt lat="35.77896" lon="139.93085">
<ele>27</ele>
</trkpt>
<trkpt lat="35.7776" lon="139.92985">
<ele>25</ele>
</trkpt>
<trkpt lat="35.77709" lon="139.92943">
<ele>23</ele>
</trkpt>
<trkpt lat="35.77634" lon="139.92863">
<ele>21</ele>
</trkpt>
<trkpt lat="35.77567" lon="139.92826">
<ele>20</ele>
</trkpt>
<trkpt lat="35.77556" lon="139.92817">
<ele>20</ele>
</trkpt>
<trkpt lat="35.7755" lon="139.92811">
<ele>20</ele>
</trkpt>
<trkpt lat="35.77512" lon="139.92726">
<ele>22</ele>
</trkpt>
<trkpt lat="35.77489" lon="139.92594">
<ele>21</ele>
</trkpt>
<trkpt lat="35.77486" lon="139.92545">
<ele>18</ele>
</trkpt>
<trkpt lat="35.7749" lon="139.92514">
<ele>16</ele>
</trkpt>
<trkpt lat="35.77503" lon="139.92471">
<ele>12</ele>
</trkpt>
<trkpt lat="35.7751" lon="139.92428">
<ele>8</ele>
</trkpt>
<trkpt lat="35.77511" lon="139.92413">
<ele>8</ele>
</trkpt>
<trkpt lat="35.77509" lon="139.9239">
<ele>8</ele>
</trkpt>
<trkpt lat="35.77504" lon="139.92374">
<ele>8</ele>
</trkpt>
<trkpt lat="35.77489" lon="139.92337">
<ele>9</ele>
</trkpt>
<trkpt lat="35.77485" lon="139.92331">
<ele>9</ele>
</trkpt>
<trkpt lat="35.77423" lon="139.92288">
<ele>12</ele>
</trkpt>
<trkpt lat="35.77406" lon="139.92269">
<ele>13</ele>
</trkpt>
<trkpt lat="35.77389" lon="139.9224">
<ele>16</ele>
</trkpt>
<trkpt lat="35.7738" lon="139.92214">
<ele>18</ele>
</trkpt>
<trkpt lat="35.77376" lon="139.92198">
<ele>19</ele>
</trkpt>
<trkpt lat="35.77376" lon="139.92181">
<ele>21</ele>
</trkpt>
<trkpt lat="35.77382" lon="139.92157">
<ele>23</ele>
</trkpt>
<trkpt lat="35.77482" lon="139.91957">
<ele>24</ele>
</trkpt>
<trkpt lat="35.7749" lon="139.91924">
<ele>24</ele>
</trkpt>
<trkpt lat="35.77454" lon="139.91922">
<ele>24</ele>
</trkpt>
<trkpt lat="35.77429" lon="139.91916">
<ele>23</ele>
</trkpt>
<trkpt lat="35.77409" lon="139.91903">
<ele>22</ele>
</trkpt>
<trkpt lat="35.77386" lon="139.91877">
<ele>20</ele>
</trkpt>
<trkpt lat="35.77373" lon="139.91855">
<ele>19</ele>
</trkpt>
<trkpt lat="35.77366" lon="139.91827">
<ele>19</ele>
</trkpt>
<trkpt lat="35.77358" lon="139.91782">
<ele>20</ele>
</trkpt>
<trkpt lat="35.77344" lon="139.9176">
<ele>20</ele>
</trkpt>
<trkpt lat="35.77339" lon="139.91754">
<ele>20</ele>
</trkpt>
<trkpt lat="35.77274" lon="139.91711">
<ele>21</ele>
</trkpt>
<trkpt lat="35.77259" lon="139.91696">
<ele>22</ele>
</trkpt>
<trkpt lat="35.77254" lon="139.91686">
<ele>22</ele>
</trkpt>
<trkpt lat="35.77228" lon="139.91617">
<ele>24</ele>
</trkpt>
<trkpt lat="35.77222" lon="139.91597">
<ele>25</ele>
</trkpt>
<trkpt lat="35.77194" lon="139.91521">
<ele>25</ele>
</trkpt>
<trkpt lat="35.76841" lon="139.90531">
<ele>24</ele>
</trkpt>
<trkpt lat="35.76791" lon="139.90389">
<ele>24</ele>
</trkpt>
<trkpt lat="35.76745" lon="139.9025">
<ele>25</ele>
</trkpt>
<trkpt lat="35.76697" lon="139.90118">
<ele>24</ele>
</trkpt>
<trkpt lat="35.76703" lon="139.90115">
<ele>24</ele>
</trkpt>
<trkpt lat="35.76717" lon="139.90121">
<ele>24</ele>
</trkpt>
<trkpt lat="35.76733" lon="139.90067">
<ele>24</ele>
</trkpt>
<trkpt lat="35.76735" lon="139.90041">
<ele>24</ele>
</trkpt>
<trkpt lat="35.76702" lon="139.8994">
<ele>25</ele>
</trkpt>
<trkpt lat="35.76744" lon="139.89925">
<ele>25</ele>
</trkpt>
<trkpt lat="35.76741" lon="139.89908">
<ele>25</ele>
</trkpt>
<trkpt lat="35.7674" lon="139.89888">
<ele>25</ele>
</trkpt>
<trkpt lat="35.76743" lon="139.89846">
<ele>25</ele>
</trkpt>
<trkpt lat="35.76743" lon="139.89814">
<ele>24</ele>
</trkpt>
<trkpt lat="35.76757" lon="139.89752">
<ele>20</ele>
</trkpt>
<trkpt lat="35.76756" lon="139.89708">
<ele>17</ele>
</trkpt>
<trkpt lat="35.76758" lon="139.89693">
<ele>16</ele>
</trkpt>
<trkpt lat="35.76757" lon="139.89672">
<ele>15</ele>
</trkpt>
<trkpt lat="35.76755" lon="139.89664">
<ele>14</ele>
</trkpt>
<trkpt lat="35.76756" lon="139.89647">
<ele>13</ele>
</trkpt>
<trkpt lat="35.76769" lon="139.89612">
<ele>10</ele>
</trkpt>
<trkpt lat="35.76808" lon="139.89578">
<ele>6</ele>
</trkpt>
<trkpt lat="35.76774" lon="139.8951">
<ele>3</ele>
</trkpt>
<trkpt lat="35.76756" lon="139.89505">
<ele>3</ele>
</trkpt>
<trkpt lat="35.7673" lon="139.89501">
<ele>3</ele>
</trkpt>
<trkpt lat="35.7669" lon="139.895">
<ele>3</ele>
</trkpt>
<trkpt lat="35.76699" lon="139.89114">
<ele>0</ele>
</trkpt>
<trkpt lat="35.7671" lon="139.88754">
<ele>1</ele>
</trkpt>
<trkpt lat="35.76713" lon="139.88739">
<ele>1</ele>
</trkpt>
<trkpt lat="35.7672" lon="139.88721">
<ele>1</ele>
</trkpt>
<trkpt lat="35.76731" lon="139.88724">
<ele>1</ele>
</trkpt>
<trkpt lat="35.76809" lon="139.88731">
<ele>0</ele>
</trkpt>
<trkpt lat="35.76822" lon="139.8873">
<ele>0</ele>
</trkpt>
<trkpt lat="35.76837" lon="139.88725">
<ele>1</ele>
</trkpt>
<trkpt lat="35.76805" lon="139.88497">
<ele>4</ele>
</trkpt>
<trkpt lat="35.76801" lon="139.88446">
<ele>4</ele>
</trkpt>
<trkpt lat="35.768" lon="139.88392">
<ele>5</ele>
</trkpt>
<trkpt lat="35.76836" lon="139.87808">
<ele>6</ele>
</trkpt>
<trkpt lat="35.76837" lon="139.87778">
<ele>6</ele>
</trkpt>
<trkpt lat="35.76835" lon="139.87765">
<ele>6</ele>
</trkpt>
<trkpt lat="35.76833" lon="139.87657">
<ele>6</ele>
</trkpt>
<trkpt lat="35.76843" lon="139.87491">
<ele>8</ele>
</trkpt>
<trkpt lat="35.76838" lon="139.87493">
<ele>8</ele>
</trkpt>
<trkpt lat="35.76812" lon="139.87495">
<ele>7</ele>
</trkpt>
<trkpt lat="35.76812" lon="139.87485">
<ele>7</ele>
</trkpt>
<trkpt lat="35.76804" lon="139.8748">
<ele>7</ele>
</trkpt>
<trkpt lat="35.76785" lon="139.87474">
<ele>6</ele>
</trkpt>
<trkpt lat="35.76783" lon="139.87456">
<ele>6</ele>
</trkpt>
<trkpt lat="35.76766" lon="139.87414">
<ele>4</ele>
</trkpt>
<trkpt lat="35.76767" lon="139.87413">
<ele>4</ele>
</trkpt>
<trkpt lat="35.76656" lon="139.87134">
<ele>6</ele>
</trkpt>
<trkpt lat="35.76726" lon="139.87092">
<ele>7</ele>
</trkpt>
<trkpt lat="35.7674" lon="139.87087">
<ele>7</ele>
</trkpt>
<trkpt lat="35.7681" lon="139.87068">
<ele>7</ele>
</trkpt>
<trkpt lat="35.76799" lon="139.87057">
<ele>7</ele>
</trkpt>
<trkpt lat="35.76719" lon="139.87019">
<ele>7</ele>
</trkpt>
<trkpt lat="35.76713" lon="139.87012">
<ele>7</ele>
</trkpt>
<trkpt lat="35.76701" lon="139.86989">
<ele>7</ele>
</trkpt>
<trkpt lat="35.76653" lon="139.86952">
<ele>7</ele>
</trkpt>
<trkpt lat="35.76642" lon="139.86945">
<ele>7</ele>
</trkpt>
<trkpt lat="35.76631" lon="139.86944">
<ele>6</ele>
</trkpt>
<trkpt lat="35.76626" lon="139.86925">
<ele>6</ele>
</trkpt>
<trkpt lat="35.76624" lon="139.86873">
<ele>5</ele>
</trkpt>
<trkpt lat="35.76618" lon="139.86844">
<ele>5</ele>
</trkpt>
<trkpt lat="35.76612" lon="139.86832">
<ele>4</ele>
</trkpt>
<trkpt lat="35.76603" lon="139.86818">
<ele>4</ele>
</trkpt>
<trkpt lat="35.76583" lon="139.86804">
<ele>4</ele>
</trkpt>
<trkpt lat="35.76572" lon="139.86799">
<ele>4</ele>
</trkpt>
<trkpt lat="35.76546" lon="139.86778">
<ele>4</ele>
</trkpt>
<trkpt lat="35.76523" lon="139.86751">
<ele>5</ele>
</trkpt>
<trkpt lat="35.76512" lon="139.86725">
<ele>5</ele>
</trkpt>
<trkpt lat="35.76479" lon="139.86634">
<ele>5</ele>
</trkpt>
<trkpt lat="35.76364" lon="139.86327">
<ele>2</ele>
</trkpt>
<trkpt lat="35.76362" lon="139.86328">
<ele>2</ele>
</trkpt>
<trkpt lat="35.76295" lon="139.86152">
<ele>3</ele>
</trkpt>
<trkpt lat="35.76275" lon="139.86102">
<ele>2</ele>
</trkpt>
<trkpt lat="35.76274" lon="139.86095">
<ele>2</ele>
</trkpt>
<trkpt lat="35.76251" lon="139.86033">
<ele>2</ele>
</trkpt>
<trkpt lat="35.76233" lon="139.86005">
<ele>2</ele>
</trkpt>
<trkpt lat="35.76232" lon="139.85997">
<ele>2</ele>
</trkpt>
<trkpt lat="35.76236" lon="139.85987">
<ele>2</ele>
</trkpt>
<trkpt lat="35.76221" lon="139.85974">
<ele>2</ele>
</trkpt>
<trkpt lat="35.76187" lon="139.85938">
<ele>2</ele>
</trkpt>
<trkpt lat="35.7618" lon="139.85933">
<ele>2</ele>
</trkpt>
<trkpt lat="35.76173" lon="139.8593">
<ele>2</ele>
</trkpt>
<trkpt lat="35.76155" lon="139.85929">
<ele>2</ele>
</trkpt>
<trkpt lat="35.76141" lon="139.85934">
<ele>2</ele>
</trkpt>
<trkpt lat="35.76119" lon="139.85945">
<ele>3</ele>
</trkpt>
<trkpt lat="35.76036" lon="139.8597">
<ele>3</ele>
</trkpt>
<trkpt lat="35.76007" lon="139.85918">
<ele>3</ele>
</trkpt>
<trkpt lat="35.75827" lon="139.85614">
<ele>3</ele>
</trkpt>
<trkpt lat="35.75773" lon="139.85516">
<ele>4</ele>
</trkpt>
<trkpt lat="35.75748" lon="139.85478">
<ele>4</ele>
</trkpt>
<trkpt lat="35.75739" lon="139.85466">
<ele>3</ele>
</trkpt>
<trkpt lat="35.75706" lon="139.85432">
<ele>2</ele>
</trkpt>
<trkpt lat="35.75621" lon="139.85358">
<ele>2</ele>
</trkpt>
<trkpt lat="35.75613" lon="139.85373">
<ele>2</ele>
</trkpt>
<trkpt lat="35.75616" lon="139.85391">
<ele>1</ele>
</trkpt>
<trkpt lat="35.75597" lon="139.85396">
<ele>1</ele>
</trkpt>
<trkpt lat="35.75527" lon="139.85399">
<ele>0</ele>
</trkpt>
<trkpt lat="35.75504" lon="139.85407">
<ele>0</ele>
</trkpt>
<trkpt lat="35.75507" lon="139.85393">
<ele>0</ele>
</trkpt>
<trkpt lat="35.75459" lon="139.85398">
<ele>0</ele>
</trkpt>
<trkpt lat="35.75458" lon="139.85386">
<ele>0</ele>
</trkpt>
<trkpt lat="35.75455" lon="139.85373">
<ele>0</ele>
</trkpt>
<trkpt lat="35.75452" lon="139.85366">
<ele>0</ele>
</trkpt>
<trkpt lat="35.75443" lon="139.85352">
<ele>1</ele>
</trkpt>
<trkpt lat="35.75342" lon="139.85263">
<ele>2</ele>
</trkpt>
<trkpt lat="35.75319" lon="139.85243">
<ele>2</ele>
</trkpt>
<trkpt lat="35.75302" lon="139.85244">
<ele>2</ele>
</trkpt>
<trkpt lat="35.75282" lon="139.85228">
<ele>2</ele>
</trkpt>
<trkpt lat="35.75278" lon="139.85223">
<ele>2</ele>
</trkpt>
<trkpt lat="35.75272" lon="139.85204">
<ele>2</ele>
</trkpt>
<trkpt lat="35.75263" lon="139.85193">
<ele>2</ele>
</trkpt>
<trkpt lat="35.75174" lon="139.85116">
<ele>3</ele>
</trkpt>
<trkpt lat="35.75161" lon="139.85091">
<ele>3</ele>
</trkpt>
<trkpt lat="35.75151" lon="139.85097">
<ele>3</ele>
</trkpt>
<trkpt lat="35.75076" lon="139.85117">
<ele>4</ele>
</trkpt>
<trkpt lat="35.74903" lon="139.84818">
<ele>6</ele>
</trkpt>
<trkpt lat="35.74895" lon="139.8481">
<ele>6</ele>
</trkpt>
<trkpt lat="35.74744" lon="139.84697">
<ele>5</ele>
</trkpt>
<trkpt lat="35.74737" lon="139.8465">
<ele>5</ele>
</trkpt>
<trkpt lat="35.74735" lon="139.84629">
<ele>5</ele>
</trkpt>
<trkpt lat="35.74726" lon="139.84622">
<ele>5</ele>
</trkpt>
<trkpt lat="35.7472" lon="139.84627">
<ele>5</ele>
</trkpt>
<trkpt lat="35.74646" lon="139.84661">
<ele>4</ele>
</trkpt>
<trkpt lat="35.74616" lon="139.84669">
<ele>4</ele>
</trkpt>
<trkpt lat="35.74626" lon="139.84618">
<ele>3</ele>
</trkpt>
<trkpt lat="35.74147" lon="139.84174">
<ele>1</ele>
</trkpt>
<trkpt lat="35.74141" lon="139.84118">
<ele>1</ele>
</trkpt>
<trkpt lat="35.74139" lon="139.84092">
<ele>1</ele>
</trkpt>
<trkpt lat="35.74065" lon="139.84013">
<ele>1</ele>
</trkpt>
<trkpt lat="35.74042" lon="139.84019">
<ele>1</ele>
</trkpt>
<trkpt lat="35.73983" lon="139.83971">
<ele>1</ele>
</trkpt>
<trkpt lat="35.73813" lon="139.83824">
<ele>5</ele>
</trkpt>
<trkpt lat="35.73811" lon="139.83825">
<ele>5</ele>
</trkpt>
<trkpt lat="35.73807" lon="139.83819">
<ele>5</ele>
</trkpt>
<trkpt lat="35.73785" lon="139.83779">
<ele>5</ele>
</trkpt>
<trkpt lat="35.73779" lon="139.83782">
<ele>5</ele>
</trkpt>
<trkpt lat="35.73777" lon="139.83774">
<ele>5</ele>
</trkpt>
<trkpt lat="35.73774" lon="139.83707">
<ele>5</ele>
</trkpt>
<trkpt lat="35.73763" lon="139.83693">
<ele>5</ele>
</trkpt>
<trkpt lat="35.73707" lon="139.83704">
<ele>4</ele>
</trkpt>
<trkpt lat="35.73696" lon="139.83671">
<ele>4</ele>
</trkpt>
<trkpt lat="35.73693" lon="139.83626">
<ele>3</ele>
</trkpt>
<trkpt lat="35.73694" lon="139.836">
<ele>3</ele>
</trkpt>
<trkpt lat="35.7366" lon="139.83549">
<ele>2</ele>
</trkpt>
<trkpt lat="35.7364" lon="139.83523">
<ele>2</ele>
</trkpt>
<trkpt lat="35.73632" lon="139.83529">
<ele>2</ele>
</trkpt>
<trkpt lat="35.73604" lon="139.83508">
<ele>2</ele>
</trkpt>
<trkpt lat="35.73585" lon="139.83488">
<ele>2</ele>
</trkpt>
<trkpt lat="35.7356" lon="139.83457">
<ele>2</ele>
</trkpt>
<trkpt lat="35.73518" lon="139.83397">
<ele>3</ele>
</trkpt>
<trkpt lat="35.73511" lon="139.83386">
<ele>3</ele>
</trkpt>
<trkpt lat="35.73511" lon="139.83351">
<ele>3</ele>
</trkpt>
<trkpt lat="35.73474" lon="139.83309">
<ele>2</ele>
</trkpt>
<trkpt lat="35.73378" lon="139.83212">
<ele>2</ele>
</trkpt>
<trkpt lat="35.73359" lon="139.83189">
<ele>2</ele>
</trkpt>
<trkpt lat="35.72827" lon="139.82651">
<ele>2</ele>
</trkpt>
<trkpt lat="35.72778" lon="139.82608">
<ele>3</ele>
</trkpt>
<trkpt lat="35.72699" lon="139.82543">
<ele>4</ele>
</trkpt>
<trkpt lat="35.72661" lon="139.82515">
<ele>4</ele>
</trkpt>
<trkpt lat="35.7259" lon="139.82472">
<ele>4</ele>
</trkpt>
<trkpt lat="35.72356" lon="139.82337">
<ele>4</ele>
</trkpt>
<trkpt lat="35.72227" lon="139.82259">
<ele>5</ele>
</trkpt>
<trkpt lat="35.72178" lon="139.82212">
<ele>5</ele>
</trkpt>
<trkpt lat="35.72117" lon="139.82147">
<ele>7</ele>
</trkpt>
<trkpt lat="35.72049" lon="139.8207">
<ele>7</ele>
</trkpt>
<trkpt lat="35.72024" lon="139.82039">
<ele>6</ele>
</trkpt>
<trkpt lat="35.71822" lon="139.81807">
<ele>6</ele>
</trkpt>
<trkpt lat="35.71786" lon="139.81763">
<ele>5</ele>
</trkpt>
<trkpt lat="35.7166" lon="139.81617">
<ele>5</ele>
</trkpt>
<trkpt lat="35.71545" lon="139.81486">
<ele>4</ele>
</trkpt>
<trkpt lat="35.71372" lon="139.81276">
<ele>8</ele>
</trkpt>
<trkpt lat="35.71264" lon="139.81148">
<ele>8</ele>
</trkpt>
<trkpt lat="35.71216" lon="139.81089">
<ele>7</ele>
</trkpt>
<trkpt lat="35.71194" lon="139.81057">
<ele>6</ele>
</trkpt>
<trkpt lat="35.71144" lon="139.80969">
<ele>9</ele>
</trkpt>
<trkpt lat="35.71087" lon="139.8086">
<ele>11</ele>
</trkpt>
<trkpt lat="35.71077" lon="139.80847">
<ele>11</ele>
</trkpt>
<trkpt lat="35.71069" lon="139.80851">
<ele>11</ele>
</trkpt>
<trkpt lat="35.70981" lon="139.80853">
<ele>10</ele>
</trkpt>
<trkpt lat="35.70974" lon="139.80848">
<ele>10</ele>
</trkpt>
<trkpt lat="35.70911" lon="139.80849">
<ele>5</ele>
</trkpt>
<trkpt lat="35.70814" lon="139.80864">
<ele>13</ele>
</trkpt>
<trkpt lat="35.70785" lon="139.8087">
<ele>15</ele>
</trkpt>
<trkpt lat="35.70674" lon="139.80901">
<ele>14</ele>
</trkpt>
<trkpt lat="35.70671" lon="139.80813">
<ele>10</ele>
</trkpt>
<trkpt lat="35.70652" lon="139.8049">
<ele>4</ele>
</trkpt>
<trkpt lat="35.70654" lon="139.79995">
<ele>6</ele>
</trkpt>
<trkpt lat="35.70649" lon="139.79972">
<ele>6</ele>
</trkpt>
<trkpt lat="35.70674" lon="139.79946">
<ele>7</ele>
</trkpt>
<trkpt lat="35.7048" lon="139.79865">
<ele>11</ele>
</trkpt>
<trkpt lat="35.7052" lon="139.79714">
<ele>13</ele>
</trkpt>
<trkpt lat="35.70481" lon="139.79695">
<ele>15</ele>
</trkpt>
<trkpt lat="35.70441" lon="139.7968">
<ele>15</ele>
</trkpt>
<trkpt lat="35.70439" lon="139.79685">
<ele>15</ele>
</trkpt>
<trkpt lat="35.70381" lon="139.79649">
<ele>12</ele>
</trkpt>
<trkpt lat="35.70374" lon="139.79642">
<ele>12</ele>
</trkpt>
<trkpt lat="35.70356" lon="139.79634">
<ele>12</ele>
</trkpt>
<trkpt lat="35.70266" lon="139.79626">
<ele>14</ele>
</trkpt>
<trkpt lat="35.70273" lon="139.79524">
<ele>7</ele>
</trkpt>
<trkpt lat="35.70237" lon="139.79508">
<ele>5</ele>
</trkpt>
<trkpt lat="35.70154" lon="139.79482">
<ele>5</ele>
</trkpt>
<trkpt lat="35.70136" lon="139.79474">
<ele>6</ele>
</trkpt>
<trkpt lat="35.70073" lon="139.79434">
<ele>5</ele>
</trkpt>
<trkpt lat="35.69988" lon="139.79385">
<ele>6</ele>
</trkpt>
<trkpt lat="35.69797" lon="139.79282">
<ele>8</ele>
</trkpt>
<trkpt lat="35.69782" lon="139.79275">
<ele>8</ele>
</trkpt>
<trkpt lat="35.69714" lon="139.79221">
<ele>6</ele>
</trkpt>
<trkpt lat="35.69681" lon="139.79201">
<ele>11</ele>
</trkpt>
<trkpt lat="35.69637" lon="139.79172">
<ele>19</ele>
</trkpt>
<trkpt lat="35.69605" lon="139.79155">
<ele>19</ele>
</trkpt>
<trkpt lat="35.69488" lon="139.79112">
<ele>13</ele>
</trkpt>
<trkpt lat="35.69464" lon="139.79106">
<ele>12</ele>
</trkpt>
<trkpt lat="35.69433" lon="139.79102">
<ele>12</ele>
</trkpt>
<trkpt lat="35.69417" lon="139.79104">
<ele>12</ele>
</trkpt>
<trkpt lat="35.69411" lon="139.78986">
<ele>5</ele>
</trkpt>
<trkpt lat="35.69442" lon="139.78791">
<ele>4</ele>
</trkpt>
<trkpt lat="35.69441" lon="139.78785">
<ele>4</ele>
</trkpt>
<trkpt lat="35.69434" lon="139.78775">
<ele>5</ele>
</trkpt>
<trkpt lat="35.69428" lon="139.78773">
<ele>5</ele>
</trkpt>
<trkpt lat="35.69287" lon="139.78773">
<ele>2</ele>
</trkpt>
<trkpt lat="35.6922" lon="139.78781">
<ele>2</ele>
</trkpt>
<trkpt lat="35.69148" lon="139.78801">
<ele>2</ele>
</trkpt>
<trkpt lat="35.69043" lon="139.78838">
<ele>5</ele>
</trkpt>
<trkpt lat="35.69035" lon="139.78838">
<ele>7</ele>
</trkpt>
<trkpt lat="35.6903" lon="139.78836">
<ele>8</ele>
</trkpt>
<trkpt lat="35.69017" lon="139.78823">
<ele>11</ele>
</trkpt>
<trkpt lat="35.68943" lon="139.78704">
<ele>18</ele>
</trkpt>
<trkpt lat="35.68864" lon="139.78589">
<ele>17</ele>
</trkpt>
<trkpt lat="35.68855" lon="139.78565">
<ele>16</ele>
</trkpt>
<trkpt lat="35.68641" lon="139.78243">
<ele>16</ele>
</trkpt>
<trkpt lat="35.68632" lon="139.78228">
<ele>16</ele>
</trkpt>
<trkpt lat="35.68573" lon="139.781">
<ele>19</ele>
</trkpt>
<trkpt lat="35.68526" lon="139.78142">
<ele>18</ele>
</trkpt>
<trkpt lat="35.68481" lon="139.78066">
<ele>17</ele>
</trkpt>
<trkpt lat="35.68472" lon="139.78054">
<ele>17</ele>
</trkpt>
<trkpt lat="35.68468" lon="139.78052">
<ele>17</ele>
</trkpt>
<trkpt lat="35.68414" lon="139.78064">
<ele>15</ele>
</trkpt>
<trkpt lat="35.68381" lon="139.78041">
<ele>15</ele>
</trkpt>
<trkpt lat="35.68372" lon="139.78036">
<ele>15</ele>
</trkpt>
<trkpt lat="35.6832" lon="139.78113">
<ele>17</ele>
</trkpt>
<trkpt lat="35.68268" lon="139.78154">
<ele>17</ele>
</trkpt>
<trkpt lat="35.68251" lon="139.7817">
<ele>17</ele>
</trkpt>
<trkpt lat="35.68235" lon="139.78053">
<ele>17</ele>
</trkpt>
<trkpt lat="35.68216" lon="139.77957">
<ele>18</ele>
</trkpt>
<trkpt lat="35.68208" lon="139.77938">
<ele>18</ele>
</trkpt>
<trkpt lat="35.68194" lon="139.77919">
<ele>18</ele>
</trkpt>
<trkpt lat="35.68159" lon="139.77887">
<ele>18</ele>
</trkpt>
<trkpt lat="35.68139" lon="139.7787">
<ele>18</ele>
</trkpt>
<trkpt lat="35.68107" lon="139.77848">
<ele>18</ele>
</trkpt>
<trkpt lat="35.67991" lon="139.77771">
<ele>17</ele>
</trkpt>
<trkpt lat="35.67608" lon="139.77527">
<ele>16</ele>
</trkpt>
<trkpt lat="35.67462" lon="139.77439">
<ele>24</ele>
</trkpt>
<trkpt lat="35.67467" lon="139.77344">
<ele>23</ele>
</trkpt>
<trkpt lat="35.67469" lon="139.77329">
<ele>23</ele>
</trkpt>
<trkpt lat="35.67558" lon="139.77109">
<ele>29</ele>
</trkpt>
<trkpt lat="35.67441" lon="139.77036">
<ele>20</ele>
</trkpt>
<trkpt lat="35.67406" lon="139.77009">
<ele>19</ele>
</trkpt>
<trkpt lat="35.67434" lon="139.76953">
<ele>22</ele>
</trkpt>
<trkpt lat="35.67472" lon="139.76895">
<ele>23</ele>
</trkpt>
<trkpt lat="35.67494" lon="139.76819">
<ele>19</ele>
</trkpt>
<trkpt lat="35.67559" lon="139.76605">
<ele>34</ele>
</trkpt>
<trkpt lat="35.67518" lon="139.76577">
<ele>32</ele>
</trkpt>
<trkpt lat="35.67515" lon="139.76588">
<ele>31</ele>
</trkpt>
<trkpt lat="35.67509" lon="139.76583">
<ele>31</ele>
</trkpt>
<trkpt lat="35.67509" lon="139.76588">
<ele>31</ele>
</trkpt>
<trkpt lat="35.67497" lon="139.76605">
<ele>29</ele>
</trkpt>
    </trkseg>
  </trk>
</gpx>