<?xml version="1.0" encoding="UTF-8"?>
<gpx version="1.1"
     creator="KMLtoGPX"
     xmlns="http://www.topografix.com/GPX/1/1">
  <metadata>
    <name>Course using the Asian Championships and All Japan Championships</name>
    <desc>アジア選手権・全日本選手権使用コース</desc>
    <time>2025-05-02T08:11:59.523513Z</time>
    <bounds minlat="34.75179111111111" minlon="139.3497661111111" maxlat="34.79287" maxlon="139.3781011111111"/>
  </metadata>
  <trk>
    <name>Course using the Asian Championships and All Japan Championships</name>
    <trkseg>
<trkpt lat="34.75691611111111" lon="139.3579538888889">
<ele>39</ele>
</trkpt>
<trkpt lat="34.75691611111111" lon="139.35789111111112">
<ele>38</ele>
</trkpt>
<trkpt lat="34.75719111111111" lon="139.35810305555555">
<ele>39</ele>
</trkpt>
<trkpt lat="34.757356944444446" lon="139.35817805555556">
<ele>40</ele>
</trkpt>
<trkpt lat="34.75774888888889" lon="139.35821611111112">
<ele>42</ele>
</trkpt>
<trkpt lat="34.75779111111111" lon="139.3584161111111">
<ele>44</ele>
</trkpt>
<trkpt lat="34.757933055555554" lon="139.35870305555557">
<ele>45</ele>
</trkpt>
<trkpt lat="34.758133055555554" lon="139.35914">
<ele>47</ele>
</trkpt>
<trkpt lat="34.75829111111111" lon="139.359615">
<ele>49</ele>
</trkpt>
<trkpt lat="34.75834888888889" lon="139.35995305555556">
<ele>50</ele>
</trkpt>
<trkpt lat="34.75835194444444" lon="139.35997305555554">
<ele>50</ele>
</trkpt>
<trkpt lat="34.75835194444444" lon="139.35997305555554">
<ele>50</ele>
</trkpt>
<trkpt lat="34.75837388888889" lon="139.360115">
<ele>51</ele>
</trkpt>
<trkpt lat="34.75842388888889" lon="139.36024">
<ele>52</ele>
</trkpt>
<trkpt lat="34.75869111111111" lon="139.36047805555555">
<ele>55</ele>
</trkpt>
<trkpt lat="34.75881611111111" lon="139.36077805555556">
<ele>57</ele>
</trkpt>
<trkpt lat="34.75882388888889" lon="139.361015">
<ele>60</ele>
</trkpt>
<trkpt lat="34.75856611111111" lon="139.36172805555555">
<ele>65</ele>
</trkpt>
<trkpt lat="34.758541111111114" lon="139.36200305555556">
<ele>68</ele>
</trkpt>
<trkpt lat="34.75853305555555" lon="139.36260305555555">
<ele>73</ele>
</trkpt>
<trkpt lat="34.75859111111111" lon="139.362665">
<ele>73</ele>
</trkpt>
<trkpt lat="34.75927388888889" lon="139.36307805555555">
<ele>79</ele>
</trkpt>
<trkpt lat="34.75984888888889" lon="139.36350305555555">
<ele>85</ele>
</trkpt>
<trkpt lat="34.76009111111111" lon="139.363615">
<ele>86</ele>
</trkpt>
<trkpt lat="34.76054888888889" lon="139.36389">
<ele>90</ele>
</trkpt>
<trkpt lat="34.76072388888889" lon="139.36404">
<ele>92</ele>
</trkpt>
<trkpt lat="34.76086611111111" lon="139.36422694444445">
<ele>94</ele>
</trkpt>
<trkpt lat="34.76099111111111" lon="139.364465">
<ele>95</ele>
</trkpt>
<trkpt lat="34.76119888888889" lon="139.36500194444446">
<ele>98</ele>
</trkpt>
<trkpt lat="34.76136611111111" lon="139.36552694444444">
<ele>101</ele>
</trkpt>
<trkpt lat="34.76145694444445" lon="139.36569">
<ele>103</ele>
</trkpt>
<trkpt lat="34.76159611111111" lon="139.3658738888889">
<ele>105</ele>
</trkpt>
<trkpt lat="34.76159611111111" lon="139.3658738888889">
<ele>105</ele>
</trkpt>
<trkpt lat="34.76159888888889" lon="139.36587694444444">
<ele>105</ele>
</trkpt>
<trkpt lat="34.76170694444444" lon="139.36605194444445">
<ele>107</ele>
</trkpt>
<trkpt lat="34.76195694444444" lon="139.36657694444443">
<ele>114</ele>
</trkpt>
<trkpt lat="34.76211611111111" lon="139.36687694444444">
<ele>118</ele>
</trkpt>
<trkpt lat="34.76224111111111" lon="139.36702694444443">
<ele>121</ele>
</trkpt>
<trkpt lat="34.762391111111114" lon="139.367115">
<ele>122</ele>
</trkpt>
<trkpt lat="34.76257388888889" lon="139.36714">
<ele>124</ele>
</trkpt>
<trkpt lat="34.762816111111114" lon="139.367215">
<ele>126</ele>
</trkpt>
<trkpt lat="34.76304888888889" lon="139.36735194444444">
<ele>129</ele>
</trkpt>
<trkpt lat="34.763241111111114" lon="139.36752694444445">
<ele>131</ele>
</trkpt>
<trkpt lat="34.76340694444445" lon="139.36774">
<ele>131</ele>
</trkpt>
<trkpt lat="34.76367388888889" lon="139.36825194444444">
<ele>138</ele>
</trkpt>
<trkpt lat="34.76389888888889" lon="139.36863888888888">
<ele>142</ele>
</trkpt>
<trkpt lat="34.764715" lon="139.36965194444446">
<ele>155</ele>
</trkpt>
<trkpt lat="34.76482388888889" lon="139.3698388888889">
<ele>157</ele>
</trkpt>
<trkpt lat="34.76497388888889" lon="139.37030194444444">
<ele>157</ele>
</trkpt>
<trkpt lat="34.765031944444445" lon="139.3705138888889">
<ele>157</ele>
</trkpt>
<trkpt lat="34.76514" lon="139.3707138888889">
<ele>157</ele>
</trkpt>
<trkpt lat="34.76533194444445" lon="139.3709888888889">
<ele>157</ele>
</trkpt>
<trkpt lat="34.76597388888889" lon="139.37170194444445">
<ele>156</ele>
</trkpt>
<trkpt lat="34.76609" lon="139.37182694444445">
<ele>157</ele>
</trkpt>
<trkpt lat="34.76614" lon="139.3718638888889">
<ele>155</ele>
</trkpt>
<trkpt lat="34.76623194444444" lon="139.37195194444445">
<ele>153</ele>
</trkpt>
<trkpt lat="34.766281944444444" lon="139.37217694444445">
<ele>154</ele>
</trkpt>
<trkpt lat="34.766356944444446" lon="139.37228888888887">
<ele>152</ele>
</trkpt>
<trkpt lat="34.76645694444444" lon="139.37236388888888">
<ele>154</ele>
</trkpt>
<trkpt lat="34.76723194444445" lon="139.3726638888889">
<ele>156</ele>
</trkpt>
<trkpt lat="34.767781944444444" lon="139.3729138888889">
<ele>169</ele>
</trkpt>
<trkpt lat="34.768165" lon="139.37316388888888">
<ele>168</ele>
</trkpt>
<trkpt lat="34.768315" lon="139.3732138888889">
<ele>168</ele>
</trkpt>
<trkpt lat="34.76889" lon="139.37340111111112">
<ele>163</ele>
</trkpt>
<trkpt lat="34.769165" lon="139.37352611111112">
<ele>160</ele>
</trkpt>
<trkpt lat="34.76938194444445" lon="139.3736638888889">
<ele>159</ele>
</trkpt>
<trkpt lat="34.76960694444445" lon="139.37386388888888">
<ele>157</ele>
</trkpt>
<trkpt lat="34.77048111111111" lon="139.37465111111112">
<ele>148</ele>
</trkpt>
<trkpt lat="34.77117305555556" lon="139.3755011111111">
<ele>149</ele>
</trkpt>
<trkpt lat="34.77119611111111" lon="139.37551694444446">
<ele>149</ele>
</trkpt>
<trkpt lat="34.77119611111111" lon="139.37551694444446">
<ele>149</ele>
</trkpt>
<trkpt lat="34.77128111111111" lon="139.37557611111112">
<ele>149</ele>
</trkpt>
<trkpt lat="34.77184805555556" lon="139.37588888888888">
<ele>147</ele>
</trkpt>
<trkpt lat="34.77195611111111" lon="139.3759638888889">
<ele>146</ele>
</trkpt>
<trkpt lat="34.772115" lon="139.3761761111111">
<ele>146</ele>
</trkpt>
<trkpt lat="34.77219" lon="139.3763261111111">
<ele>146</ele>
</trkpt>
<trkpt lat="34.77254805555555" lon="139.3770761111111">
<ele>147</ele>
</trkpt>
<trkpt lat="34.77290611111111" lon="139.37781388888888">
<ele>147</ele>
</trkpt>
<trkpt lat="34.773115" lon="139.3781011111111">
<ele>147</ele>
</trkpt>
<trkpt lat="34.77435611111111" lon="139.37656388888888">
<ele>135</ele>
</trkpt>
<trkpt lat="34.77478111111111" lon="139.3760638888889">
<ele>130</ele>
</trkpt>
<trkpt lat="34.77499805555556" lon="139.3759138888889">
<ele>128</ele>
</trkpt>
<trkpt lat="34.775238055555555" lon="139.375755">
<ele>127</ele>
</trkpt>
<trkpt lat="34.775238055555555" lon="139.375755">
<ele>127</ele>
</trkpt>
<trkpt lat="34.77547305555556" lon="139.3756011111111">
<ele>125</ele>
</trkpt>
<trkpt lat="34.77563888888889" lon="139.3753888888889">
<ele>124</ele>
</trkpt>
<trkpt lat="34.776088888888886" lon="139.37490111111111">
<ele>120</ele>
</trkpt>
<trkpt lat="34.77623888888889" lon="139.37476388888888">
<ele>118</ele>
</trkpt>
<trkpt lat="34.77678888888889" lon="139.3744638888889">
<ele>112</ele>
</trkpt>
<trkpt lat="34.77713111111111" lon="139.3742638888889">
<ele>108</ele>
</trkpt>
<trkpt lat="34.777456111111114" lon="139.37407611111112">
<ele>105</ele>
</trkpt>
<trkpt lat="34.77871388888889" lon="139.3734638888889">
<ele>93</ele>
</trkpt>
<trkpt lat="34.778956111111114" lon="139.37328888888888">
<ele>90</ele>
</trkpt>
<trkpt lat="34.78004694444444" lon="139.3723511111111">
<ele>79</ele>
</trkpt>
<trkpt lat="34.780363888888886" lon="139.3719761111111">
<ele>77</ele>
</trkpt>
<trkpt lat="34.78046388888889" lon="139.37182611111112">
<ele>76</ele>
</trkpt>
<trkpt lat="34.78079694444445" lon="139.3713261111111">
<ele>73</ele>
</trkpt>
<trkpt lat="34.78102194444445" lon="139.37090111111112">
<ele>71</ele>
</trkpt>
<trkpt lat="34.78141388888889" lon="139.37001388888888">
<ele>66</ele>
</trkpt>
<trkpt lat="34.78172194444444" lon="139.36922694444445">
<ele>63</ele>
</trkpt>
<trkpt lat="34.78211611111111" lon="139.36824388888888">
<ele>58</ele>
</trkpt>
<trkpt lat="34.78211611111111" lon="139.36824388888888">
<ele>58</ele>
</trkpt>
<trkpt lat="34.78223805555555" lon="139.3679388888889">
<ele>56</ele>
</trkpt>
<trkpt lat="34.78241305555556" lon="139.36741388888888">
<ele>54</ele>
</trkpt>
<trkpt lat="34.782605" lon="139.36670194444446">
<ele>53</ele>
</trkpt>
<trkpt lat="34.782846944444444" lon="139.36558888888888">
<ele>51</ele>
</trkpt>
<trkpt lat="34.78346305555556" lon="139.36377694444445">
<ele>46</ele>
</trkpt>
<trkpt lat="34.783546111111114" lon="139.36365194444446">
<ele>45</ele>
</trkpt>
<trkpt lat="34.783655" lon="139.36359">
<ele>45</ele>
</trkpt>
<trkpt lat="34.78382111111111" lon="139.363615">
<ele>43</ele>
</trkpt>
<trkpt lat="34.786988055555554" lon="139.3652138888889">
<ele>42</ele>
</trkpt>
<trkpt lat="34.78753805555556" lon="139.3654388888889">
<ele>41</ele>
</trkpt>
<trkpt lat="34.788088055555555" lon="139.36562694444444">
<ele>39</ele>
</trkpt>
<trkpt lat="34.78832111111111" lon="139.36565194444444">
<ele>38</ele>
</trkpt>
<trkpt lat="34.78846305555555" lon="139.36562694444444">
<ele>37</ele>
</trkpt>
<trkpt lat="34.788578888888885" lon="139.36558888888888">
<ele>37</ele>
</trkpt>
<trkpt lat="34.78867888888889" lon="139.36550194444445">
<ele>38</ele>
</trkpt>
<trkpt lat="34.78924611111111" lon="139.36475194444444">
<ele>41</ele>
</trkpt>
<trkpt lat="34.79051194444445" lon="139.3630638888889">
<ele>40</ele>
</trkpt>
<trkpt lat="34.79061194444444" lon="139.36292694444444">
<ele>38</ele>
</trkpt>
<trkpt lat="34.79114611111111" lon="139.36220194444445">
<ele>28</ele>
</trkpt>
<trkpt lat="34.79142888888889" lon="139.36174">
<ele>27</ele>
</trkpt>
<trkpt lat="34.79156611111111" lon="139.36146888888888">
<ele>26</ele>
</trkpt>
<trkpt lat="34.79156611111111" lon="139.36146888888888">
<ele>26</ele>
</trkpt>
<trkpt lat="34.792595" lon="139.35944">
<ele>21</ele>
</trkpt>
<trkpt lat="34.79287" lon="139.359015">
<ele>19</ele>
</trkpt>
<trkpt lat="34.79266194444445" lon="139.358815">
<ele>19</ele>
</trkpt>
<trkpt lat="34.792361944444444" lon="139.35827694444444">
<ele>17</ele>
</trkpt>
<trkpt lat="34.792145" lon="139.358015">
<ele>17</ele>
</trkpt>
<trkpt lat="34.79170388888889" lon="139.35759">
<ele>16</ele>
</trkpt>
<trkpt lat="34.79158694444445" lon="139.357415">
<ele>15</ele>
</trkpt>
<trkpt lat="34.79102" lon="139.356215">
<ele>7</ele>
</trkpt>
<trkpt lat="34.79058694444444" lon="139.35560305555555">
<ele>5</ele>
</trkpt>
<trkpt lat="34.79042" lon="139.35540305555554">
<ele>6</ele>
</trkpt>
<trkpt lat="34.790261944444445" lon="139.35527805555554">
<ele>7</ele>
</trkpt>
<trkpt lat="34.79015611111111" lon="139.35524305555555">
<ele>7</ele>
</trkpt>
<trkpt lat="34.79015611111111" lon="139.35524194444446">
<ele>7</ele>
</trkpt>
<trkpt lat="34.79011194444445" lon="139.35522805555556">
<ele>8</ele>
</trkpt>
<trkpt lat="34.78973694444444" lon="139.35524">
<ele>12</ele>
</trkpt>
<trkpt lat="34.78955388888889" lon="139.355215">
<ele>15</ele>
</trkpt>
<trkpt lat="34.78942111111111" lon="139.35515305555555">
<ele>16</ele>
</trkpt>
<trkpt lat="34.78924611111111" lon="139.35499">
<ele>15</ele>
</trkpt>
<trkpt lat="34.78901194444445" lon="139.35459">
<ele>15</ele>
</trkpt>
<trkpt lat="34.78888694444444" lon="139.35442805555556">
<ele>12</ele>
</trkpt>
<trkpt lat="34.78872888888889" lon="139.35435305555555">
<ele>12</ele>
</trkpt>
<trkpt lat="34.78779611111111" lon="139.35420305555556">
<ele>14</ele>
</trkpt>
<trkpt lat="34.784661944444444" lon="139.35310305555555">
<ele>12</ele>
</trkpt>
<trkpt lat="34.78447888888889" lon="139.35299111111112">
<ele>11</ele>
</trkpt>
<trkpt lat="34.784303888888886" lon="139.35280305555557">
<ele>12</ele>
</trkpt>
<trkpt lat="34.78413694444444" lon="139.35257805555557">
<ele>12</ele>
</trkpt>
<trkpt lat="34.78390388888889" lon="139.35202805555556">
<ele>8</ele>
</trkpt>
<trkpt lat="34.783788055555554" lon="139.3516161111111">
<ele>4</ele>
</trkpt>
<trkpt lat="34.783678888888886" lon="139.35140305555555">
<ele>5</ele>
</trkpt>
<trkpt lat="34.78349611111111" lon="139.3511411111111">
<ele>6</ele>
</trkpt>
<trkpt lat="34.78344611111111" lon="139.35109111111112">
<ele>6</ele>
</trkpt>
<trkpt lat="34.78331305555555" lon="139.35096611111112">
<ele>7</ele>
</trkpt>
<trkpt lat="34.78292888888889" lon="139.35072805555555">
<ele>7</ele>
</trkpt>
<trkpt lat="34.78257888888889" lon="139.35055305555557">
<ele>7</ele>
</trkpt>
<trkpt lat="34.78226305555555" lon="139.35045305555556">
<ele>9</ele>
</trkpt>
<trkpt lat="34.781688055555556" lon="139.35039111111112">
<ele>11</ele>
</trkpt>
<trkpt lat="34.78120388888889" lon="139.35039111111112">
<ele>12</ele>
</trkpt>
<trkpt lat="34.78018" lon="139.3504411111111">
<ele>9</ele>
</trkpt>
<trkpt lat="34.779896111111114" lon="139.35042805555557">
<ele>8</ele>
</trkpt>
<trkpt lat="34.779255" lon="139.35035305555556">
<ele>7</ele>
</trkpt>
<trkpt lat="34.77877111111111" lon="139.3502161111111">
<ele>7</ele>
</trkpt>
<trkpt lat="34.778105" lon="139.3501411111111">
<ele>12</ele>
</trkpt>
<trkpt lat="34.77793805555556" lon="139.3501411111111">
<ele>12</ele>
</trkpt>
<trkpt lat="34.77763" lon="139.35019111111112">
<ele>11</ele>
</trkpt>
<trkpt lat="34.77618" lon="139.35062805555555">
<ele>13</ele>
</trkpt>
<trkpt lat="34.77588" lon="139.35067805555556">
<ele>17</ele>
</trkpt>
<trkpt lat="34.77573" lon="139.3506911111111">
<ele>19</ele>
</trkpt>
<trkpt lat="34.77553" lon="139.35067805555556">
<ele>27</ele>
</trkpt>
<trkpt lat="34.77509694444444" lon="139.35060305555555">
<ele>26</ele>
</trkpt>
<trkpt lat="34.77490805555556" lon="139.35060305555555">
<ele>27</ele>
</trkpt>
<trkpt lat="34.77490805555556" lon="139.35060305555555">
<ele>27</ele>
</trkpt>
<trkpt lat="34.77478888888889" lon="139.35060305555555">
<ele>28</ele>
</trkpt>
<trkpt lat="34.77448888888889" lon="139.3506661111111">
<ele>23</ele>
</trkpt>
<trkpt lat="34.774105" lon="139.35080305555556">
<ele>19</ele>
</trkpt>
<trkpt lat="34.77294694444444" lon="139.35142805555554">
<ele>15</ele>
</trkpt>
<trkpt lat="34.77254694444444" lon="139.35164111111112">
<ele>12</ele>
</trkpt>
<trkpt lat="34.77221388888889" lon="139.3517911111111">
<ele>12</ele>
</trkpt>
<trkpt lat="34.77164694444444" lon="139.3519411111111">
<ele>11</ele>
</trkpt>
<trkpt lat="34.77108111111111" lon="139.3520661111111">
<ele>11</ele>
</trkpt>
<trkpt lat="34.77058888888889" lon="139.35215305555556">
<ele>11</ele>
</trkpt>
<trkpt lat="34.76938888888889" lon="139.35227805555556">
<ele>4</ele>
</trkpt>
<trkpt lat="34.76920611111111" lon="139.35227805555556">
<ele>3</ele>
</trkpt>
<trkpt lat="34.76891388888889" lon="139.35225305555556">
<ele>5</ele>
</trkpt>
<trkpt lat="34.76865611111111" lon="139.35217805555556">
<ele>7</ele>
</trkpt>
<trkpt lat="34.76841388888889" lon="139.35196611111112">
<ele>7</ele>
</trkpt>
<trkpt lat="34.76814805555556" lon="139.35180305555556">
<ele>7</ele>
</trkpt>
<trkpt lat="34.76788111111111" lon="139.3516911111111">
<ele>7</ele>
</trkpt>
<trkpt lat="34.76739805555555" lon="139.3516161111111">
<ele>7</ele>
</trkpt>
<trkpt lat="34.76703111111111" lon="139.35150305555555">
<ele>7</ele>
</trkpt>
<trkpt lat="34.76674805555555" lon="139.3513661111111">
<ele>3</ele>
</trkpt>
<trkpt lat="34.766556111111115" lon="139.35120305555554">
<ele>3</ele>
</trkpt>
<trkpt lat="34.76640611111111" lon="139.35097805555554">
<ele>4</ele>
</trkpt>
<trkpt lat="34.76608888888889" lon="139.35040305555555">
<ele>6</ele>
</trkpt>
<trkpt lat="34.76589805555555" lon="139.35020305555557">
<ele>6</ele>
</trkpt>
<trkpt lat="34.76560611111111" lon="139.35004111111112">
<ele>6</ele>
</trkpt>
<trkpt lat="34.76528111111111" lon="139.34997805555557">
<ele>5</ele>
</trkpt>
<trkpt lat="34.76419" lon="139.34994111111112">
<ele>7</ele>
</trkpt>
<trkpt lat="34.763198055555556" lon="139.3497661111111">
<ele>7</ele>
</trkpt>
<trkpt lat="34.76269805555555" lon="139.3498661111111">
<ele>7</ele>
</trkpt>
<trkpt lat="34.76254" lon="139.34987805555556">
<ele>7</ele>
</trkpt>
<trkpt lat="34.76188194444445" lon="139.34982805555555">
<ele>8</ele>
</trkpt>
<trkpt lat="34.76123194444445" lon="139.3498661111111">
<ele>8</ele>
</trkpt>
<trkpt lat="34.760565" lon="139.35002805555555">
<ele>9</ele>
</trkpt>
<trkpt lat="34.760331944444445" lon="139.35006611111112">
<ele>8</ele>
</trkpt>
<trkpt lat="34.75983194444444" lon="139.35005305555555">
<ele>8</ele>
</trkpt>
<trkpt lat="34.75934" lon="139.3501161111111">
<ele>8</ele>
</trkpt>
<trkpt lat="34.758831944444445" lon="139.3501411111111">
<ele>8</ele>
</trkpt>
<trkpt lat="34.75862388888889" lon="139.35019111111112">
<ele>8</ele>
</trkpt>
<trkpt lat="34.75677388888889" lon="139.3512411111111">
<ele>12</ele>
</trkpt>
<trkpt lat="34.75662388888889" lon="139.35131611111112">
<ele>12</ele>
</trkpt>
<trkpt lat="34.75646611111111" lon="139.3513411111111">
<ele>12</ele>
</trkpt>
<trkpt lat="34.75611611111111" lon="139.35131611111112">
<ele>11</ele>
</trkpt>
<trkpt lat="34.75594888888889" lon="139.35132805555557">
<ele>11</ele>
</trkpt>
<trkpt lat="34.75566611111111" lon="139.35145305555557">
<ele>11</ele>
</trkpt>
<trkpt lat="34.75543305555556" lon="139.35166611111111">
<ele>10</ele>
</trkpt>
<trkpt lat="34.754823888888886" lon="139.3526411111111">
<ele>15</ele>
</trkpt>
<trkpt lat="34.754731944444444" lon="139.3526161111111">
<ele>15</ele>
</trkpt>
<trkpt lat="34.754131944444445" lon="139.35231611111112">
<ele>12</ele>
</trkpt>
<trkpt lat="34.75395694444445" lon="139.35227805555556">
<ele>12</ele>
</trkpt>
<trkpt lat="34.753816111111114" lon="139.35227805555556">
<ele>11</ele>
</trkpt>
<trkpt lat="34.75338611111111" lon="139.3523911111111">
<ele>11</ele>
</trkpt>
<trkpt lat="34.75338611111111" lon="139.3523911111111">
<ele>11</ele>
</trkpt>
<trkpt lat="34.75334111111111" lon="139.35240305555556">
<ele>12</ele>
</trkpt>
<trkpt lat="34.75308305555556" lon="139.3525161111111">
<ele>11</ele>
</trkpt>
<trkpt lat="34.75294888888889" lon="139.3525911111111">
<ele>11</ele>
</trkpt>
<trkpt lat="34.752783055555554" lon="139.35270305555557">
<ele>12</ele>
</trkpt>
<trkpt lat="34.75257388888889" lon="139.35279111111112">
<ele>12</ele>
</trkpt>
<trkpt lat="34.75234888888889" lon="139.35287805555555">
<ele>13</ele>
</trkpt>
<trkpt lat="34.75209111111111" lon="139.35290305555554">
<ele>16</ele>
</trkpt>
<trkpt lat="34.75179111111111" lon="139.35305305555556">
<ele>18</ele>
</trkpt>
<trkpt lat="34.75189888888889" lon="139.35346611111112">
<ele>18</ele>
</trkpt>
<trkpt lat="34.75185805555556" lon="139.35395305555556">
<ele>18</ele>
</trkpt>
<trkpt lat="34.751871944444446" lon="139.35426611111112">
<ele>19</ele>
</trkpt>
<trkpt lat="34.751871944444446" lon="139.35426611111112">
<ele>19</ele>
</trkpt>
<trkpt lat="34.751891111111114" lon="139.35471611111112">
<ele>21</ele>
</trkpt>
<trkpt lat="34.752116111111114" lon="139.35502805555555">
<ele>24</ele>
</trkpt>
<trkpt lat="34.75264111111111" lon="139.35562805555554">
<ele>31</ele>
</trkpt>
<trkpt lat="34.75272388888889" lon="139.3557661111111">
<ele>32</ele>
</trkpt>
<trkpt lat="34.75279111111111" lon="139.35600305555556">
<ele>34</ele>
</trkpt>
<trkpt lat="34.75329111111111" lon="139.35606611111112">
<ele>34</ele>
</trkpt>
<trkpt lat="34.75334111111111" lon="139.35607805555554">
<ele>33</ele>
</trkpt>
<trkpt lat="34.753841111111115" lon="139.35617805555555">
<ele>34</ele>
</trkpt>
<trkpt lat="34.75414305555555" lon="139.3562411111111">
<ele>34</ele>
</trkpt>
<trkpt lat="34.75414305555555" lon="139.3562411111111">
<ele>34</ele>
</trkpt>
<trkpt lat="34.75438305555556" lon="139.35629111111112">
<ele>35</ele>
</trkpt>
<trkpt lat="34.75541611111111" lon="139.35680305555556">
<ele>34</ele>
</trkpt>
<trkpt lat="34.75554888888889" lon="139.3569161111111">
<ele>35</ele>
</trkpt>
<trkpt lat="34.75584111111111" lon="139.35751611111112">
<ele>36</ele>
</trkpt>
<trkpt lat="34.75599111111111" lon="139.35767805555557">
<ele>37</ele>
</trkpt>
<trkpt lat="34.756191111111114" lon="139.35777805555554">
<ele>37</ele>
</trkpt>
<trkpt lat="34.75664111111111" lon="139.35775305555555">
<ele>37</ele>
</trkpt>
<trkpt lat="34.756661111111114" lon="139.35776">
<ele>37</ele>
</trkpt>
    </trkseg>
  </trk>
</gpx>