<?xml version="1.0" encoding="UTF-8"?>
<gpx version="1.1"
     creator="KMLtoGPX"
     xmlns="http://www.topografix.com/GPX/1/1">
  <metadata>
    <name>Spring cherry blossom viewing course where you can feel history, sea breezes, and river breezes</name>
    <desc>歴史と潮風・川風感じる春の桜見コース</desc>
    <bounds minlat="35.82606" minlon="140.60986" maxlat="35.92665" maxlon="140.76163"/>
  </metadata>
  <trk>
    <name>Spring cherry blossom viewing course where you can feel history, sea breezes, and river breezes</name>
    <trkseg>
<trkpt lat="35.89604" lon="140.64827">
<ele>7</ele>
</trkpt>
<trkpt lat="35.895665009901" lon="140.649162512692">
<ele>5</ele>
</trkpt>
<trkpt lat="35.8952900131988" lon="140.650055016929">
<ele>4</ele>
</trkpt>
<trkpt lat="35.8949150098934" lon="140.65094751271">
<ele>4</ele>
</trkpt>
<trkpt lat="35.89454" lon="140.65184">
<ele>5</ele>
</trkpt>
<trkpt lat="35.8941400072447" lon="140.65277334271">
<ele>4</ele>
</trkpt>
<trkpt lat="35.8937400072681" lon="140.653706675988">
<ele>4</ele>
</trkpt>
<trkpt lat="35.89334" lon="140.65464">
<ele>5</ele>
</trkpt>
<trkpt lat="35.8930133385641" lon="140.655433339847">
<ele>5</ele>
</trkpt>
<trkpt lat="35.892686671911" lon="140.656226673147">
<ele>5</ele>
</trkpt>
<trkpt lat="35.89236" lon="140.65702">
<ele>5</ele>
</trkpt>
<trkpt lat="35.891994304534" lon="140.657890024118">
<ele>5</ele>
</trkpt>
<trkpt lat="35.8916286027934" lon="140.658760040199">
<ele>4</ele>
</trkpt>
<trkpt lat="35.8912628947786" lon="140.659630048243">
<ele>3</ele>
</trkpt>
<trkpt lat="35.8908971804896" lon="140.660500048251">
<ele>3</ele>
</trkpt>
<trkpt lat="35.8905314599265" lon="140.661370040221">
<ele>3</ele>
</trkpt>
<trkpt lat="35.8901657330896" lon="140.662240024154">
<ele>3</ele>
</trkpt>
<trkpt lat="35.8898" lon="140.66311">
<ele>4</ele>
</trkpt>
<trkpt lat="35.88954" lon="140.66377">
<ele>4</ele>
</trkpt>
<trkpt lat="35.889275001429" lon="140.664365002077">
<ele>4</ele>
</trkpt>
<trkpt lat="35.88901" lon="140.66496">
<ele>4</ele>
</trkpt>
<trkpt lat="35.8887266706751" lon="140.665656671688">
<ele>5</ele>
</trkpt>
<trkpt lat="35.8884433373271" lon="140.666353338391">
<ele>4</ele>
</trkpt>
<trkpt lat="35.88816" lon="140.66705">
<ele>2</ele>
</trkpt>
<trkpt lat="35.8878100028322" lon="140.667890003934">
<ele>3</ele>
</trkpt>
<trkpt lat="35.88746" lon="140.66873">
<ele>4</ele>
</trkpt>
<trkpt lat="35.88731" lon="140.66862">
<ele>4</ele>
</trkpt>
<trkpt lat="35.8876983513884" lon="140.667686689543">
<ele>4</ele>
</trkpt>
<trkpt lat="35.8880866955566" lon="140.666753369932">
<ele>3</ele>
</trkpt>
<trkpt lat="35.8884750325043" lon="140.665820041167">
<ele>5</ele>
</trkpt>
<trkpt lat="35.8888633622314" lon="140.664886703248">
<ele>5</ele>
</trkpt>
<trkpt lat="35.8892516847377" lon="140.663953356173">
<ele>4</ele>
</trkpt>
<trkpt lat="35.88964" lon="140.66302">
<ele>4</ele>
</trkpt>
<trkpt lat="35.8900071618622" lon="140.662145738616">
<ele>3</ele>
</trkpt>
<trkpt lat="35.8903743173887" lon="140.661271469125">
<ele>3</ele>
</trkpt>
<trkpt lat="35.8907414665794" lon="140.660397191525">
<ele>3</ele>
</trkpt>
<trkpt lat="35.891108609434" lon="140.659522905818">
<ele>3</ele>
</trkpt>
<trkpt lat="35.8914757459526" lon="140.658648612002">
<ele>4</ele>
</trkpt>
<trkpt lat="35.8918428761348" lon="140.657774310078">
<ele>5</ele>
</trkpt>
<trkpt lat="35.89221" lon="140.6569">
<ele>6</ele>
</trkpt>
<trkpt lat="35.892485001882" lon="140.656230002275">
<ele>5</ele>
</trkpt>
<trkpt lat="35.89276" lon="140.65556">
<ele>5</ele>
</trkpt>
<trkpt lat="35.8930600041899" lon="140.65485333857">
<ele>6</ele>
</trkpt>
<trkpt lat="35.8933600042403" lon="140.654146671785">
<ele>4</ele>
</trkpt>
<trkpt lat="35.89366" lon="140.65344">
<ele>3</ele>
</trkpt>
<trkpt lat="35.8940250028057" lon="140.652615003838">
<ele>4</ele>
</trkpt>
<trkpt lat="35.89439" lon="140.65179">
<ele>4</ele>
</trkpt>
<trkpt lat="35.89463" lon="140.65113">
<ele>5</ele>
</trkpt>
<trkpt lat="35.8949766722331" lon="140.650313340397">
<ele>4</ele>
</trkpt>
<trkpt lat="35.8953233389376" lon="140.649496673641">
<ele>4</ele>
</trkpt>
<trkpt lat="35.89567" lon="140.64868">
<ele>6</ele>
</trkpt>
<trkpt lat="35.89587" lon="140.64816">
<ele>6</ele>
</trkpt>
<trkpt lat="35.89603" lon="140.64826">
<ele>6</ele>
</trkpt>
<trkpt lat="35.89604" lon="140.64827">
<ele>6</ele>
</trkpt>
<trkpt lat="35.895665009901" lon="140.649162512692">
<ele>5</ele>
</trkpt>
<trkpt lat="35.8952900131988" lon="140.650055016929">
<ele>4</ele>
</trkpt>
<trkpt lat="35.8949150098934" lon="140.65094751271">
<ele>4</ele>
</trkpt>
<trkpt lat="35.89454" lon="140.65184">
<ele>4</ele>
</trkpt>
<trkpt lat="35.8941400072447" lon="140.65277334271">
<ele>4</ele>
</trkpt>
<trkpt lat="35.8937400072681" lon="140.653706675988">
<ele>4</ele>
</trkpt>
<trkpt lat="35.89334" lon="140.65464">
<ele>6</ele>
</trkpt>
<trkpt lat="35.8930133385641" lon="140.655433339847">
<ele>5</ele>
</trkpt>
<trkpt lat="35.892686671911" lon="140.656226673147">
<ele>5</ele>
</trkpt>
<trkpt lat="35.89236" lon="140.65702">
<ele>5</ele>
</trkpt>
<trkpt lat="35.891994304534" lon="140.657890024118">
<ele>5</ele>
</trkpt>
<trkpt lat="35.8916286027934" lon="140.658760040199">
<ele>4</ele>
</trkpt>
<trkpt lat="35.8912628947786" lon="140.659630048243">
<ele>3</ele>
</trkpt>
<trkpt lat="35.8908971804896" lon="140.660500048251">
<ele>3</ele>
</trkpt>
<trkpt lat="35.8905314599265" lon="140.661370040221">
<ele>3</ele>
</trkpt>
<trkpt lat="35.8901657330896" lon="140.662240024154">
<ele>3</ele>
</trkpt>
<trkpt lat="35.8898" lon="140.66311">
<ele>4</ele>
</trkpt>
<trkpt lat="35.88954" lon="140.66377">
<ele>4</ele>
</trkpt>
<trkpt lat="35.889275001429" lon="140.664365002077">
<ele>4</ele>
</trkpt>
<trkpt lat="35.88901" lon="140.66496">
<ele>4</ele>
</trkpt>
<trkpt lat="35.8886700029436" lon="140.665800003559">
<ele>5</ele>
</trkpt>
<trkpt lat="35.88833" lon="140.66664">
<ele>4</ele>
</trkpt>
<trkpt lat="35.8879820114277" lon="140.667470014573">
<ele>3</ele>
</trkpt>
<trkpt lat="35.8876340171451" lon="140.668300021851">
<ele>4</ele>
</trkpt>
<trkpt lat="35.8872860171521" lon="140.669130021834">
<ele>4</ele>
</trkpt>
<trkpt lat="35.886938011449" lon="140.669960014522">
<ele>6</ele>
</trkpt>
<trkpt lat="35.88659" lon="140.67079">
<ele>5</ele>
</trkpt>
<trkpt lat="35.88632" lon="140.6715">
<ele>6</ele>
</trkpt>
<trkpt lat="35.8859300072153" lon="140.672433342538">
<ele>4</ele>
</trkpt>
<trkpt lat="35.8855400072102" lon="140.673366675884">
<ele>2</ele>
</trkpt>
<trkpt lat="35.88515" lon="140.6743">
<ele>2</ele>
</trkpt>
<trkpt lat="35.8847850090373" lon="140.675152511783">
<ele>2</ele>
</trkpt>
<trkpt lat="35.8844200120506" lon="140.676005015709">
<ele>6</ele>
</trkpt>
<trkpt lat="35.8840550090402" lon="140.676857511776">
<ele>6</ele>
</trkpt>
<trkpt lat="35.88369" lon="140.67771">
<ele>5</ele>
</trkpt>
<trkpt lat="35.8833266724091" lon="140.678540007541">
<ele>4</ele>
</trkpt>
<trkpt lat="35.8829633391082" lon="140.679370007467">
<ele>4</ele>
</trkpt>
<trkpt lat="35.8826" lon="140.6802">
<ele>4</ele>
</trkpt>
<trkpt lat="35.8822650017915" lon="140.680845002598">
<ele>3</ele>
</trkpt>
<trkpt lat="35.88193" lon="140.68149">
<ele>3</ele>
</trkpt>
<trkpt lat="35.8814600022443" lon="140.682225004353">
<ele>3</ele>
</trkpt>
<trkpt lat="35.88099" lon="140.68296">
<ele>4</ele>
</trkpt>
<trkpt lat="35.8805000019746" lon="140.683655004338">
<ele>6</ele>
</trkpt>
<trkpt lat="35.88001" lon="140.68435">
<ele>6</ele>
</trkpt>
<trkpt lat="35.87974" lon="140.68468">
<ele>6</ele>
</trkpt>
<trkpt lat="35.87922" lon="140.68522">
<ele>6</ele>
</trkpt>
<trkpt lat="35.8787366685104" lon="140.685700005923">
<ele>7</ele>
</trkpt>
<trkpt lat="35.8782533351112" lon="140.686180005988">
<ele>7</ele>
</trkpt>
<trkpt lat="35.87777" lon="140.68666">
<ele>8</ele>
</trkpt>
<trkpt lat="35.8771250009981" lon="140.687170004215">
<ele>9</ele>
</trkpt>
<trkpt lat="35.87648" lon="140.68768">
<ele>8</ele>
</trkpt>
<trkpt lat="35.8757780044642" lon="140.688198018348">
<ele>5</ele>
</trkpt>
<trkpt lat="35.8750760067044" lon="140.688716027515">
<ele>5</ele>
</trkpt>
<trkpt lat="35.8743740067208" lon="140.689234027503">
<ele>5</ele>
</trkpt>
<trkpt lat="35.8736720045135" lon="140.689752018311">
<ele>7</ele>
</trkpt>
<trkpt lat="35.87297" lon="140.69027">
<ele>7</ele>
</trkpt>
<trkpt lat="35.87232" lon="140.69076">
<ele>7</ele>
</trkpt>
<trkpt lat="35.87232" lon="140.69075">
<ele>7</ele>
</trkpt>
<trkpt lat="35.8727473044208" lon="140.691624498293">
<ele>7</ele>
</trkpt>
<trkpt lat="35.8731746025037" lon="140.692499006018">
<ele>8</ele>
</trkpt>
<trkpt lat="35.8736018942485" lon="140.693373523176">
<ele>8</ele>
</trkpt>
<trkpt lat="35.8740291796551" lon="140.694248049767">
<ele>8</ele>
</trkpt>
<trkpt lat="35.8744564587234" lon="140.695122585792">
<ele>9</ele>
</trkpt>
<trkpt lat="35.874883731453" lon="140.695997131249">
<ele>10</ele>
</trkpt>
<trkpt lat="35.8753109978439" lon="140.696871686139">
<ele>11</ele>
</trkpt>
<trkpt lat="35.875738257896" lon="140.697746250463">
<ele>12</ele>
</trkpt>
<trkpt lat="35.8761655116089" lon="140.69862082422">
<ele>12</ele>
</trkpt>
<trkpt lat="35.8765927589826" lon="140.69949540741">
<ele>14</ele>
</trkpt>
<trkpt lat="35.87702" lon="140.70037">
<ele>14</ele>
</trkpt>
<trkpt lat="35.87739" lon="140.7012">
<ele>12</ele>
</trkpt>
<trkpt lat="35.8776400009484" lon="140.701684998418">
<ele>11</ele>
</trkpt>
<trkpt lat="35.87789" lon="140.70217">
<ele>11</ele>
</trkpt>
<trkpt lat="35.87828" lon="140.70301">
<ele>11</ele>
</trkpt>
<trkpt lat="35.87869" lon="140.70384">
<ele>13</ele>
</trkpt>
<trkpt lat="35.8790725080635" lon="140.704644988354">
<ele>14</ele>
</trkpt>
<trkpt lat="35.8794550107563" lon="140.705449984481">
<ele>14</ele>
</trkpt>
<trkpt lat="35.8798375080782" lon="140.706254988384">
<ele>10</ele>
</trkpt>
<trkpt lat="35.88022" lon="140.70706">
<ele>8</ele>
</trkpt>
<trkpt lat="35.8806543089723" lon="140.708027111041">
<ele>8</ele>
</trkpt>
<trkpt lat="35.8810886101925" lon="140.708994232688">
<ele>8</ele>
</trkpt>
<trkpt lat="35.8815229036605" lon="140.709961364941">
<ele>6</ele>
</trkpt>
<trkpt lat="35.8819571893759" lon="140.710928507799">
<ele>7</ele>
</trkpt>
<trkpt lat="35.8823914673386" lon="140.711895661264">
<ele>7</ele>
</trkpt>
<trkpt lat="35.8828257375483" lon="140.712862825334">
<ele>7</ele>
</trkpt>
<trkpt lat="35.88326" lon="140.71383">
<ele>6</ele>
</trkpt>
<trkpt lat="35.8835750018504" lon="140.714494997392">
<ele>5</ele>
</trkpt>
<trkpt lat="35.88389" lon="140.71516">
<ele>5</ele>
</trkpt>
<trkpt lat="35.8842160104966" lon="140.715955986877">
<ele>5</ele>
</trkpt>
<trkpt lat="35.8845420157416" lon="140.716751980306">
<ele>5</ele>
</trkpt>
<trkpt lat="35.8848680157348" lon="140.71754798029">
<ele>5</ele>
</trkpt>
<trkpt lat="35.8851940104761" lon="140.718343986826">
<ele>5</ele>
</trkpt>
<trkpt lat="35.88552" lon="140.71914">
<ele>4</ele>
</trkpt>
<trkpt lat="35.8859200113541" lon="140.720094985564">
<ele>4</ele>
</trkpt>
<trkpt lat="35.8863200151489" lon="140.721049980776">
<ele>4</ele>
</trkpt>
<trkpt lat="35.8867200113841" lon="140.722004985635">
<ele>5</ele>
</trkpt>
<trkpt lat="35.88712" lon="140.72296">
<ele>5</ele>
</trkpt>
<trkpt lat="35.8874050015103" lon="140.723549998016">
<ele>4</ele>
</trkpt>
<trkpt lat="35.88769" lon="140.72414">
<ele>2</ele>
</trkpt>
<trkpt lat="35.88768" lon="140.72414">
<ele>2</ele>
</trkpt>
<trkpt lat="35.88776" lon="140.7243">
<ele>2</ele>
</trkpt>
<trkpt lat="35.887090002003" lon="140.724786674873">
<ele>2</ele>
</trkpt>
<trkpt lat="35.8864200020429" lon="140.72527334151">
<ele>2</ele>
</trkpt>
<trkpt lat="35.88575" lon="140.72576">
<ele>2</ele>
</trkpt>
<trkpt lat="35.8861883501832" lon="140.726661641718">
<ele>2</ele>
</trkpt>
<trkpt lat="35.886626693628" lon="140.727563293418">
<ele>4</ele>
</trkpt>
<trkpt lat="35.8870650303341" lon="140.7284649551">
<ele>5</ele>
</trkpt>
<trkpt lat="35.8875033603013" lon="140.729366626764">
<ele>3</ele>
</trkpt>
<trkpt lat="35.8879416835295" lon="140.73026830841">
<ele>2</ele>
</trkpt>
<trkpt lat="35.88838" lon="140.73117">
<ele>2</ele>
</trkpt>
<trkpt lat="35.88856" lon="140.73104">
<ele>2</ele>
</trkpt>
<trkpt lat="35.88859" lon="140.73101">
<ele>2</ele>
</trkpt>
<trkpt lat="35.8878260116971" lon="140.731570048624">
<ele>8</ele>
</trkpt>
<trkpt lat="35.8870620207943" lon="140.732130086442">
<ele>6</ele>
</trkpt>
<trkpt lat="35.8862980272919" lon="140.732690113454">
<ele>5</ele>
</trkpt>
<trkpt lat="35.88553403119" lon="140.73325012966">
<ele>4</ele>
</trkpt>
<trkpt lat="35.8847700324885" lon="140.733810135061">
<ele>3</ele>
</trkpt>
<trkpt lat="35.8840060311878" lon="140.734370129657">
<ele>3</ele>
</trkpt>
<trkpt lat="35.8832420272879" lon="140.734930113449">
<ele>3</ele>
</trkpt>
<trkpt lat="35.882478020789" lon="140.735490086437">
<ele>4</ele>
</trkpt>
<trkpt lat="35.8817140116911" lon="140.736050048622">
<ele>4</ele>
</trkpt>
<trkpt lat="35.88095" lon="140.73661">
<ele>4</ele>
</trkpt>
<trkpt lat="35.88057" lon="140.73688">
<ele>4</ele>
</trkpt>
<trkpt lat="35.879980000886" lon="140.737325003265">
<ele>3</ele>
</trkpt>
<trkpt lat="35.87939" lon="140.73777">
<ele>3</ele>
</trkpt>
<trkpt lat="35.8787200009112" lon="140.738240003978">
<ele>4</ele>
</trkpt>
<trkpt lat="35.87805" lon="140.73871">
<ele>2</ele>
</trkpt>
<trkpt lat="35.8774066686605" lon="140.739196674548">
<ele>1</ele>
</trkpt>
<trkpt lat="35.876763335358" lon="140.739683341191">
<ele>2</ele>
</trkpt>
<trkpt lat="35.87612" lon="140.74017">
<ele>2</ele>
</trkpt>
<trkpt lat="35.87605" lon="140.74016">
<ele>2</ele>
</trkpt>
<trkpt lat="35.876" lon="140.74011">
<ele>2</ele>
</trkpt>
<trkpt lat="35.8755716825316" lon="140.739234976349">
<ele>5</ele>
</trkpt>
<trkpt lat="35.8751433587175" lon="140.73835996216">
<ele>7</ele>
</trkpt>
<trkpt lat="35.8747150285581" lon="140.737484957432">
<ele>7</ele>
</trkpt>
<trkpt lat="35.8742866920534" lon="140.736609962166">
<ele>4</ele>
</trkpt>
<trkpt lat="35.8738583492037" lon="140.735734976362">
<ele>4</ele>
</trkpt>
<trkpt lat="35.87343" lon="140.73486">
<ele>2</ele>
</trkpt>
<trkpt lat="35.8726650013883" lon="140.735415005278">
<ele>1</ele>
</trkpt>
<trkpt lat="35.8719" lon="140.73597">
<ele>2</ele>
</trkpt>
<trkpt lat="35.87159" lon="140.73619">
<ele>3</ele>
</trkpt>
<trkpt lat="35.87127" lon="140.73631">
<ele>3</ele>
</trkpt>
<trkpt lat="35.8707" lon="140.73632">
<ele>3</ele>
</trkpt>
<trkpt lat="35.87047" lon="140.73638">
<ele>3</ele>
</trkpt>
<trkpt lat="35.8703" lon="140.73646">
<ele>4</ele>
</trkpt>
<trkpt lat="35.8697733345891" lon="140.736846671794">
<ele>5</ele>
</trkpt>
<trkpt lat="35.8692466679391" lon="140.737233338449">
<ele>5</ele>
</trkpt>
<trkpt lat="35.86872" lon="140.73762">
<ele>6</ele>
</trkpt>
<trkpt lat="35.8680360044193" lon="140.73813601781">
<ele>4</ele>
</trkpt>
<trkpt lat="35.8673520066319" lon="140.738652026713">
<ele>3</ele>
</trkpt>
<trkpt lat="35.8666680066381" lon="140.739168026708">
<ele>4</ele>
</trkpt>
<trkpt lat="35.8659840044378" lon="140.739684017796">
<ele>4</ele>
</trkpt>
<trkpt lat="35.8653" lon="140.7402">
<ele>5</ele>
</trkpt>
<trkpt lat="35.8647033349046" lon="140.740636673248">
<ele>6</ele>
</trkpt>
<trkpt lat="35.8641066682291" lon="140.741073339921">
<ele>7</ele>
</trkpt>
<trkpt lat="35.86351" lon="140.74151">
<ele>6</ele>
</trkpt>
<trkpt lat="35.8627666736944" lon="140.742091693927">
<ele>5</ele>
</trkpt>
<trkpt lat="35.862023344585" lon="140.742673376944">
<ele>4</ele>
</trkpt>
<trkpt lat="35.8612800126719" lon="140.74325504905">
<ele>5</ele>
</trkpt>
<trkpt lat="35.8605366779552" lon="140.743836710247">
<ele>6</ele>
</trkpt>
<trkpt lat="35.859793340435" lon="140.744418360534">
<ele>5</ele>
</trkpt>
<trkpt lat="35.85905" lon="140.745">
<ele>5</ele>
</trkpt>
<trkpt lat="35.85877" lon="140.74516">
<ele>6</ele>
</trkpt>
<trkpt lat="35.85847" lon="140.74527">
<ele>6</ele>
</trkpt>
<trkpt lat="35.857844999998" lon="140.745460001544">
<ele>6</ele>
</trkpt>
<trkpt lat="35.85722" lon="140.74565">
<ele>6</ele>
</trkpt>
<trkpt lat="35.8567" lon="140.74597">
<ele>7</ele>
</trkpt>
<trkpt lat="35.85618" lon="140.74644">
<ele>8</ele>
</trkpt>
<trkpt lat="35.85551" lon="140.747">
<ele>8</ele>
</trkpt>
<trkpt lat="35.8549050007002" lon="140.747400003028">
<ele>8</ele>
</trkpt>
<trkpt lat="35.8543" lon="140.7478">
<ele>9</ele>
</trkpt>
<trkpt lat="35.85377" lon="140.74807">
<ele>10</ele>
</trkpt>
<trkpt lat="35.8533" lon="140.74821">
<ele>9</ele>
</trkpt>
<trkpt lat="35.85279" lon="140.74831">
<ele>7</ele>
</trkpt>
<trkpt lat="35.85269" lon="140.74833">
<ele>7</ele>
</trkpt>
<trkpt lat="35.8519800014041" lon="140.74892500538">
<ele>7</ele>
</trkpt>
<trkpt lat="35.85127" lon="140.74952">
<ele>7</ele>
</trkpt>
<trkpt lat="35.8507450003417" lon="140.749825002045">
<ele>7</ele>
</trkpt>
<trkpt lat="35.85022" lon="140.75013">
<ele>7</ele>
</trkpt>
<trkpt lat="35.84947" lon="140.75059">
<ele>6</ele>
</trkpt>
<trkpt lat="35.84911" lon="140.75079">
<ele>6</ele>
</trkpt>
<trkpt lat="35.8485100003044" lon="140.751095002349">
<ele>7</ele>
</trkpt>
<trkpt lat="35.84791" lon="140.7514">
<ele>9</ele>
</trkpt>
<trkpt lat="35.8472600005368" lon="140.751750002853">
<ele>9</ele>
</trkpt>
<trkpt lat="35.84661" lon="140.7521">
<ele>8</ele>
</trkpt>
<trkpt lat="35.84635" lon="140.75229">
<ele>7</ele>
</trkpt>
<trkpt lat="35.8458" lon="140.75283">
<ele>7</ele>
</trkpt>
<trkpt lat="35.8452500014683" lon="140.753425004124">
<ele>8</ele>
</trkpt>
<trkpt lat="35.8447" lon="140.75402">
<ele>8</ele>
</trkpt>
<trkpt lat="35.84451" lon="140.75425">
<ele>8</ele>
</trkpt>
<trkpt lat="35.84424" lon="140.75453">
<ele>7</ele>
</trkpt>
<trkpt lat="35.8439350008019" lon="140.754945001475">
<ele>7</ele>
</trkpt>
<trkpt lat="35.84363" lon="140.75536">
<ele>6</ele>
</trkpt>
<trkpt lat="35.8433200014862" lon="140.755955002288">
<ele>6</ele>
</trkpt>
<trkpt lat="35.84301" lon="140.75655">
<ele>5</ele>
</trkpt>
<trkpt lat="35.84284" lon="140.75683">
<ele>5</ele>
</trkpt>
<trkpt lat="35.84267" lon="140.75707">
<ele>5</ele>
</trkpt>
<trkpt lat="35.84244" lon="140.75732">
<ele>5</ele>
</trkpt>
<trkpt lat="35.8418566681422" lon="140.75773333937">
<ele>6</ele>
</trkpt>
<trkpt lat="35.841273334869" lon="140.758146672661">
<ele>6</ele>
</trkpt>
<trkpt lat="35.84069" lon="140.75856">
<ele>6</ele>
</trkpt>
<trkpt lat="35.840180000449" lon="140.758895002164">
<ele>7</ele>
</trkpt>
<trkpt lat="35.83967" lon="140.75923">
<ele>7</ele>
</trkpt>
<trkpt lat="35.8389220038249" lon="140.759710018099">
<ele>7</ele>
</trkpt>
<trkpt lat="35.8381740057409" lon="140.760190027145">
<ele>6</ele>
</trkpt>
<trkpt lat="35.8374260057483" lon="140.76067002714">
<ele>6</ele>
</trkpt>
<trkpt lat="35.836678003847" lon="140.761150018084">
<ele>7</ele>
</trkpt>
<trkpt lat="35.83593" lon="140.76163">
<ele>8</ele>
</trkpt>
<trkpt lat="35.8366780038098" lon="140.761150018108">
<ele>7</ele>
</trkpt>
<trkpt lat="35.8374260057111" lon="140.760670027164">
<ele>6</ele>
</trkpt>
<trkpt lat="35.8381740057037" lon="140.760190027169">
<ele>6</ele>
</trkpt>
<trkpt lat="35.8389220037877" lon="140.759710018123">
<ele>7</ele>
</trkpt>
<trkpt lat="35.83967" lon="140.75923">
<ele>7</ele>
</trkpt>
<trkpt lat="35.8401800004808" lon="140.758895002143">
<ele>7</ele>
</trkpt>
<trkpt lat="35.84069" lon="140.75856">
<ele>6</ele>
</trkpt>
<trkpt lat="35.8412733346885" lon="140.758146672789">
<ele>6</ele>
</trkpt>
<trkpt lat="35.8418566679617" lon="140.757733339498">
<ele>5</ele>
</trkpt>
<trkpt lat="35.84244" lon="140.75732">
<ele>5</ele>
</trkpt>
<trkpt lat="35.84267" lon="140.75707">
<ele>5</ele>
</trkpt>
<trkpt lat="35.84284" lon="140.75683">
<ele>5</ele>
</trkpt>
<trkpt lat="35.84301" lon="140.75655">
<ele>5</ele>
</trkpt>
<trkpt lat="35.8433200014468" lon="140.755955002363">
<ele>5</ele>
</trkpt>
<trkpt lat="35.84363" lon="140.75536">
<ele>7</ele>
</trkpt>
<trkpt lat="35.8439350006249" lon="140.754945001716">
<ele>7</ele>
</trkpt>
<trkpt lat="35.84424" lon="140.75453">
<ele>7</ele>
</trkpt>
<trkpt lat="35.84379" lon="140.75364">
<ele>4</ele>
</trkpt>
<trkpt lat="35.8434033389278" lon="140.752816658593">
<ele>4</ele>
</trkpt>
<trkpt lat="35.8430166722395" lon="140.751993325214">
<ele>4</ele>
</trkpt>
<trkpt lat="35.84263" lon="140.75117">
<ele>4</ele>
</trkpt>
<trkpt lat="35.84231" lon="140.75053">
<ele>4</ele>
</trkpt>
<trkpt lat="35.8419800021976" lon="140.749799996941">
<ele>6</ele>
</trkpt>
<trkpt lat="35.84165" lon="140.74907">
<ele>6</ele>
</trkpt>
<trkpt lat="35.84164" lon="140.74894">
<ele>6</ele>
</trkpt>
<trkpt lat="35.84161" lon="140.74878">
<ele>5</ele>
</trkpt>
<trkpt lat="35.8413700014732" lon="140.748189998292">
<ele>5</ele>
</trkpt>
<trkpt lat="35.84113" lon="140.7476">
<ele>5</ele>
</trkpt>
<trkpt lat="35.8409900014066" lon="140.747019999031">
<ele>5</ele>
</trkpt>
<trkpt lat="35.84085" lon="140.74644">
<ele>5</ele>
</trkpt>
<trkpt lat="35.8406600029585" lon="140.745599998146">
<ele>5</ele>
</trkpt>
<trkpt lat="35.84047" lon="140.74476">
<ele>6</ele>
</trkpt>
<trkpt lat="35.84036" lon="140.74451">
<ele>7</ele>
</trkpt>
<trkpt lat="35.84035" lon="140.74451">
<ele>7</ele>
</trkpt>
<trkpt lat="35.84022" lon="140.74421">
<ele>7</ele>
</trkpt>
<trkpt lat="35.84014" lon="140.74414">
<ele>7</ele>
</trkpt>
<trkpt lat="35.8397700025887" lon="140.743349996323">
<ele>8</ele>
</trkpt>
<trkpt lat="35.8394" lon="140.74256">
<ele>10</ele>
</trkpt>
<trkpt lat="35.8389875233567" lon="140.741662467335">
<ele>9</ele>
</trkpt>
<trkpt lat="35.8385750400399" lon="140.740764944003">
<ele>9</ele>
</trkpt>
<trkpt lat="35.8381625500499" lon="140.739867430005">
<ele>8</ele>
</trkpt>
<trkpt lat="35.8377500533868" lon="140.738969925341">
<ele>8</ele>
</trkpt>
<trkpt lat="35.8373375500508" lon="140.738072430009">
<ele>7</ele>
</trkpt>
<trkpt lat="35.836925040042" lon="140.737174944011">
<ele>9</ele>
</trkpt>
<trkpt lat="35.8365125233606" lon="140.736277467347">
<ele>9</ele>
</trkpt>
<trkpt lat="35.8361" lon="140.73538">
<ele>7</ele>
</trkpt>
<trkpt lat="35.8357100123677" lon="140.734515983011">
<ele>7</ele>
</trkpt>
<trkpt lat="35.8353200185513" lon="140.733651974517">
<ele>8</ele>
</trkpt>
<trkpt lat="35.834930018551" lon="140.732787974517">
<ele>8</ele>
</trkpt>
<trkpt lat="35.8345400123668" lon="140.73192398301">
<ele>7</ele>
</trkpt>
<trkpt lat="35.83415" lon="140.73106">
<ele>6</ele>
</trkpt>
<trkpt lat="35.8337085941942" lon="140.730102825191">
<ele>6</ele>
</trkpt>
<trkpt lat="35.8332671807991" lon="140.729145661031">
<ele>5</ele>
</trkpt>
<trkpt lat="35.8328257598148" lon="140.728188507522">
<ele>2</ele>
</trkpt>
<trkpt lat="35.8323843312417" lon="140.727231364662">
<ele>4</ele>
</trkpt>
<trkpt lat="35.8319428950798" lon="140.726274232452">
<ele>4</ele>
</trkpt>
<trkpt lat="35.8315014513293" lon="140.725317110891">
<ele>5</ele>
</trkpt>
<trkpt lat="35.83106" lon="140.72436">
<ele>3</ele>
</trkpt>
<trkpt lat="35.8306333401314" lon="140.723453323559">
<ele>3</ele>
</trkpt>
<trkpt lat="35.8302066734533" lon="140.722546656869">
<ele>3</ele>
</trkpt>
<trkpt lat="35.82978" lon="140.72164">
<ele>3</ele>
</trkpt>
<trkpt lat="35.8292950006205" lon="140.722000002138">
<ele>4</ele>
</trkpt>
<trkpt lat="35.82881" lon="140.72236">
<ele>3</ele>
</trkpt>
<trkpt lat="35.82873" lon="140.72244">
<ele>3</ele>
</trkpt>
<trkpt lat="35.8282300006666" lon="140.722795002134">
<ele>3</ele>
</trkpt>
<trkpt lat="35.82773" lon="140.72315">
<ele>3</ele>
</trkpt>
<trkpt lat="35.82717" lon="140.72362">
<ele>3</ele>
</trkpt>
<trkpt lat="35.826750000874" lon="140.724065002298">
<ele>3</ele>
</trkpt>
<trkpt lat="35.82633" lon="140.72451">
<ele>4</ele>
</trkpt>
<trkpt lat="35.82633" lon="140.72452">
<ele>4</ele>
</trkpt>
<trkpt lat="35.82609" lon="140.72479">
<ele>4</ele>
</trkpt>
<trkpt lat="35.82606" lon="140.72471">
<ele>4</ele>
</trkpt>
<trkpt lat="35.8266650018118" lon="140.72404000516">
<ele>4</ele>
</trkpt>
<trkpt lat="35.82727" lon="140.72337">
<ele>3</ele>
</trkpt>
<trkpt lat="35.8279080035584" lon="140.722906014927">
<ele>2</ele>
</trkpt>
<trkpt lat="35.8285460053335" lon="140.722442022394">
<ele>3</ele>
</trkpt>
<trkpt lat="35.8291840053253" lon="140.7219780224">
<ele>4</ele>
</trkpt>
<trkpt lat="35.8298220035336" lon="140.721514014946">
<ele>3</ele>
</trkpt>
<trkpt lat="35.83046" lon="140.72105">
<ele>3</ele>
</trkpt>
<trkpt lat="35.8311350007375" lon="140.720590004008">
<ele>3</ele>
</trkpt>
<trkpt lat="35.83181" lon="140.72013">
<ele>3</ele>
</trkpt>
<trkpt lat="35.8323733345991" lon="140.719733338992">
<ele>4</ele>
</trkpt>
<trkpt lat="35.8329366678949" lon="140.719336672352">
<ele>4</ele>
</trkpt>
<trkpt lat="35.8335" lon="140.71894">
<ele>5</ele>
</trkpt>
<trkpt lat="35.8339750006277" lon="140.71854500238">
<ele>5</ele>
</trkpt>
<trkpt lat="35.83445" lon="140.71815">
<ele>3</ele>
</trkpt>
<trkpt lat="35.8349500003789" lon="140.717830002046">
<ele>3</ele>
</trkpt>
<trkpt lat="35.83545" lon="140.71751">
<ele>2</ele>
</trkpt>
<trkpt lat="35.83585" lon="140.71722">
<ele>2</ele>
</trkpt>
<trkpt lat="35.8358" lon="140.71725">
<ele>2</ele>
</trkpt>
<trkpt lat="35.8364950009143" lon="140.716760004349">
<ele>2</ele>
</trkpt>
<trkpt lat="35.83719" lon="140.71627">
<ele>3</ele>
</trkpt>
<trkpt lat="35.8379" lon="140.71568">
<ele>4</ele>
</trkpt>
<trkpt lat="35.8386750010649" lon="140.715155005181">
<ele>5</ele>
</trkpt>
<trkpt lat="35.83945" lon="140.71463">
<ele>6</ele>
</trkpt>
<trkpt lat="35.8400866685635" lon="140.714150007714">
<ele>5</ele>
</trkpt>
<trkpt lat="35.8407233352183" lon="140.713670007723">
<ele>3</ele>
</trkpt>
<trkpt lat="35.84136" lon="140.71319">
<ele>3</ele>
</trkpt>
<trkpt lat="35.8420200009266" lon="140.712735003738">
<ele>3</ele>
</trkpt>
<trkpt lat="35.84268" lon="140.71228">
<ele>3</ele>
</trkpt>
<trkpt lat="35.8431750006543" lon="140.711905002286">
<ele>2</ele>
</trkpt>
<trkpt lat="35.84367" lon="140.71153">
<ele>2</ele>
</trkpt>
<trkpt lat="35.84373" lon="140.71165">
<ele>2</ele>
</trkpt>
<trkpt lat="35.84373" lon="140.71164">
<ele>2</ele>
</trkpt>
<trkpt lat="35.84334" lon="140.71078">
<ele>3</ele>
</trkpt>
<trkpt lat="35.84314" lon="140.71045">
<ele>3</ele>
</trkpt>
<trkpt lat="35.84287" lon="140.71006">
<ele>3</ele>
</trkpt>
<trkpt lat="35.8423950012554" lon="140.70951999682">
<ele>2</ele>
</trkpt>
<trkpt lat="35.84192" lon="140.70898">
<ele>1</ele>
</trkpt>
<trkpt lat="35.84191" lon="140.70898">
<ele>1</ele>
</trkpt>
<trkpt lat="35.84183" lon="140.70889">
<ele>1</ele>
</trkpt>
<trkpt lat="35.84207" lon="140.70854">
<ele>1</ele>
</trkpt>
<trkpt lat="35.84253" lon="140.70807">
<ele>0</ele>
</trkpt>
<trkpt lat="35.84296" lon="140.70752">
<ele>0</ele>
</trkpt>
<trkpt lat="35.84331" lon="140.70703">
<ele>0</ele>
</trkpt>
<trkpt lat="35.8436800005687" lon="140.706665001686">
<ele>0</ele>
</trkpt>
<trkpt lat="35.84405" lon="140.7063">
<ele>0</ele>
</trkpt>
<trkpt lat="35.84432" lon="140.70595">
<ele>0</ele>
</trkpt>
<trkpt lat="35.84472" lon="140.70562">
<ele>0</ele>
</trkpt>
<trkpt lat="35.8452133352055" lon="140.705143339273">
<ele>1</ele>
</trkpt>
<trkpt lat="35.8457066685285" lon="140.704666672617">
<ele>1</ele>
</trkpt>
<trkpt lat="35.8462" lon="140.70419">
<ele>0</ele>
</trkpt>
<trkpt lat="35.8466" lon="140.70379">
<ele>0</ele>
</trkpt>
<trkpt lat="35.84668" lon="140.7036">
<ele>0</ele>
</trkpt>
<trkpt lat="35.8468" lon="140.70347">
<ele>0</ele>
</trkpt>
<trkpt lat="35.84699" lon="140.7034">
<ele>0</ele>
</trkpt>
<trkpt lat="35.8474800010884" lon="140.702910002934">
<ele>0</ele>
</trkpt>
<trkpt lat="35.84797" lon="140.70242">
<ele>0</ele>
</trkpt>
<trkpt lat="35.84806" lon="140.70223">
<ele>0</ele>
</trkpt>
<trkpt lat="35.84822" lon="140.70208">
<ele>0</ele>
</trkpt>
<trkpt lat="35.84838" lon="140.702">
<ele>0</ele>
</trkpt>
<trkpt lat="35.84879" lon="140.70162">
<ele>0</ele>
</trkpt>
<trkpt lat="35.84888" lon="140.70141">
<ele>0</ele>
</trkpt>
<trkpt lat="35.84925" lon="140.70103">
<ele>0</ele>
</trkpt>
<trkpt lat="35.8495" lon="140.70089">
<ele>0</ele>
</trkpt>
<trkpt lat="35.84991" lon="140.70048">
<ele>0</ele>
</trkpt>
<trkpt lat="35.8504900015451" lon="140.699870004458">
<ele>0</ele>
</trkpt>
<trkpt lat="35.85107" lon="140.69926">
<ele>0</ele>
</trkpt>
<trkpt lat="35.85164" lon="140.69862">
<ele>0</ele>
</trkpt>
<trkpt lat="35.85228" lon="140.69787">
<ele>1</ele>
</trkpt>
<trkpt lat="35.8528166694719" lon="140.697286674579">
<ele>2</ele>
</trkpt>
<trkpt lat="35.8533533361244" lon="140.696703341261">
<ele>1</ele>
</trkpt>
<trkpt lat="35.85389" lon="140.69612">
<ele>0</ele>
</trkpt>
<trkpt lat="35.854" lon="140.69593">
<ele>0</ele>
</trkpt>
<trkpt lat="35.85446" lon="140.69541">
<ele>0</ele>
</trkpt>
<trkpt lat="35.85466" lon="140.69531">
<ele>0</ele>
</trkpt>
<trkpt lat="35.8553025057898" lon="140.694627516593">
<ele>1</ele>
</trkpt>
<trkpt lat="35.8559450077202" lon="140.693945022124">
<ele>1</ele>
</trkpt>
<trkpt lat="35.8565875057909" lon="140.693262516592">
<ele>1</ele>
</trkpt>
<trkpt lat="35.85723" lon="140.69258">
<ele>0</ele>
</trkpt>
<trkpt lat="35.8575900007963" lon="140.692145001961">
<ele>1</ele>
</trkpt>
<trkpt lat="35.85795" lon="140.69171">
<ele>2</ele>
</trkpt>
<trkpt lat="35.8582450009791" lon="140.691245001599">
<ele>2</ele>
</trkpt>
<trkpt lat="35.85854" lon="140.69078">
<ele>1</ele>
</trkpt>
<trkpt lat="35.8588200010928" lon="140.69026500183">
<ele>0</ele>
</trkpt>
<trkpt lat="35.8591" lon="140.68975">
<ele>1</ele>
</trkpt>
<trkpt lat="35.85919" lon="140.68942">
<ele>1</ele>
</trkpt>
<trkpt lat="35.85954" lon="140.68869">
<ele>3</ele>
</trkpt>
<trkpt lat="35.85972" lon="140.68855">
<ele>3</ele>
</trkpt>
<trkpt lat="35.859955001353" lon="140.688005001332">
<ele>2</ele>
</trkpt>
<trkpt lat="35.86019" lon="140.68746">
<ele>1</ele>
</trkpt>
<trkpt lat="35.8604100012229" lon="140.686915001532">
<ele>2</ele>
</trkpt>
<trkpt lat="35.86063" lon="140.68637">
<ele>4</ele>
</trkpt>
<trkpt lat="35.86095" lon="140.68547">
<ele>4</ele>
</trkpt>
<trkpt lat="35.8611960170446" lon="140.684456012569">
<ele>1</ele>
</trkpt>
<trkpt lat="35.8614420255693" lon="140.683442018844">
<ele>1</ele>
</trkpt>
<trkpt lat="35.861688025574" lon="140.682428018825">
<ele>1</ele>
</trkpt>
<trkpt lat="35.8619340170587" lon="140.681414012512">
<ele>1</ele>
</trkpt>
<trkpt lat="35.86218" lon="140.6804">
<ele>1</ele>
</trkpt>
<trkpt lat="35.86218" lon="140.6801">
<ele>1</ele>
</trkpt>
<trkpt lat="35.86226" lon="140.67972">
<ele>1</ele>
</trkpt>
<trkpt lat="35.86243" lon="140.67945">
<ele>1</ele>
</trkpt>
<trkpt lat="35.86242" lon="140.67939">
<ele>1</ele>
</trkpt>
<trkpt lat="35.8626250038263" lon="140.678430002446">
<ele>2</ele>
</trkpt>
<trkpt lat="35.86283" lon="140.67747">
<ele>1</ele>
</trkpt>
<trkpt lat="35.8629" lon="140.67683">
<ele>0</ele>
</trkpt>
<trkpt lat="35.86301" lon="140.67622">
<ele>0</ele>
</trkpt>
<trkpt lat="35.86306" lon="140.67537">
<ele>0</ele>
</trkpt>
<trkpt lat="35.86304" lon="140.67506">
<ele>0</ele>
</trkpt>
<trkpt lat="35.8631" lon="140.67479">
<ele>0</ele>
</trkpt>
<trkpt lat="35.86311" lon="140.67446">
<ele>0</ele>
</trkpt>
<trkpt lat="35.863125004144" lon="140.673460000142">
<ele>1</ele>
</trkpt>
<trkpt lat="35.86314" lon="140.67246">
<ele>2</ele>
</trkpt>
<trkpt lat="35.8631400024885" lon="140.671685000091">
<ele>2</ele>
</trkpt>
<trkpt lat="35.86314" lon="140.67091">
<ele>2</ele>
</trkpt>
<trkpt lat="35.86316" lon="140.67042">
<ele>3</ele>
</trkpt>
<trkpt lat="35.8631300017445" lon="140.669769999624">
<ele>5</ele>
</trkpt>
<trkpt lat="35.8631" lon="140.66912">
<ele>5</ele>
</trkpt>
<trkpt lat="35.8629600069065" lon="140.668206663401">
<ele>0</ele>
</trkpt>
<trkpt lat="35.8628200069005" lon="140.667293330029">
<ele>0</ele>
</trkpt>
<trkpt lat="35.86268" lon="140.66638">
<ele>2</ele>
</trkpt>
<trkpt lat="35.86254" lon="140.66604">
<ele>3</ele>
</trkpt>
<trkpt lat="35.86247" lon="140.6657">
<ele>3</ele>
</trkpt>
<trkpt lat="35.8625" lon="140.66523">
<ele>1</ele>
</trkpt>
<trkpt lat="35.86235" lon="140.66476">
<ele>1</ele>
</trkpt>
<trkpt lat="35.86236" lon="140.66447">
<ele>1</ele>
</trkpt>
<trkpt lat="35.86227" lon="140.66403">
<ele>1</ele>
</trkpt>
<trkpt lat="35.8621250095107" lon="140.663154995163">
<ele>1</ele>
</trkpt>
<trkpt lat="35.8619800126771" lon="140.662279993528">
<ele>1</ele>
</trkpt>
<trkpt lat="35.8618350094992" lon="140.661404995094">
<ele>1</ele>
</trkpt>
<trkpt lat="35.86169" lon="140.66053">
<ele>2</ele>
</trkpt>
<trkpt lat="35.86156" lon="140.65963">
<ele>2</ele>
</trkpt>
<trkpt lat="35.8614800018809" lon="140.658949999017">
<ele>1</ele>
</trkpt>
<trkpt lat="35.8614" lon="140.65827">
<ele>0</ele>
</trkpt>
<trkpt lat="35.86137" lon="140.65751">
<ele>0</ele>
</trkpt>
<trkpt lat="35.86125" lon="140.65709">
<ele>0</ele>
</trkpt>
<trkpt lat="35.86123" lon="140.6565">
<ele>0</ele>
</trkpt>
<trkpt lat="35.86128" lon="140.65614">
<ele>0</ele>
</trkpt>
<trkpt lat="35.8612500041057" lon="140.65514499975">
<ele>0</ele>
</trkpt>
<trkpt lat="35.86122" lon="140.65415">
<ele>0</ele>
</trkpt>
<trkpt lat="35.86125" lon="140.65361">
<ele>0</ele>
</trkpt>
<trkpt lat="35.86125" lon="140.65342">
<ele>0</ele>
</trkpt>
<trkpt lat="35.86135" lon="140.65303">
<ele>0</ele>
</trkpt>
<trkpt lat="35.86142" lon="140.65245">
<ele>0</ele>
</trkpt>
<trkpt lat="35.8616" lon="140.65158">
<ele>0</ele>
</trkpt>
<trkpt lat="35.86183" lon="140.65061">
<ele>0</ele>
</trkpt>
<trkpt lat="35.86182" lon="140.65022">
<ele>0</ele>
</trkpt>
<trkpt lat="35.86197" lon="140.64967">
<ele>0</ele>
</trkpt>
<trkpt lat="35.86215" lon="140.64935">
<ele>0</ele>
</trkpt>
<trkpt lat="35.8623350011856" lon="140.648810001326">
<ele>0</ele>
</trkpt>
<trkpt lat="35.86252" lon="140.64827">
<ele>0</ele>
</trkpt>
<trkpt lat="35.86282" lon="140.64745">
<ele>0</ele>
</trkpt>
<trkpt lat="35.8632650029038" lon="140.646620004568">
<ele>0</ele>
</trkpt>
<trkpt lat="35.86371" lon="140.64579">
<ele>0</ele>
</trkpt>
<trkpt lat="35.86417" lon="140.64503">
<ele>0</ele>
</trkpt>
<trkpt lat="35.8647200060477" lon="140.644332514521">
<ele>0</ele>
</trkpt>
<trkpt lat="35.8652700080641" lon="140.643635019361">
<ele>0</ele>
</trkpt>
<trkpt lat="35.8658200060488" lon="140.64293751452">
<ele>0</ele>
</trkpt>
<trkpt lat="35.86637" lon="140.64224">
<ele>0</ele>
</trkpt>
<trkpt lat="35.8667750011345" lon="140.641775002103">
<ele>0</ele>
</trkpt>
<trkpt lat="35.86718" lon="140.64131">
<ele>0</ele>
</trkpt>
<trkpt lat="35.86761" lon="140.6409">
<ele>0</ele>
</trkpt>
<trkpt lat="35.86786" lon="140.64056">
<ele>0</ele>
</trkpt>
<trkpt lat="35.86808" lon="140.64035">
<ele>0</ele>
</trkpt>
<trkpt lat="35.8683" lon="140.64027">
<ele>0</ele>
</trkpt>
<trkpt lat="35.86895" lon="140.6396">
<ele>0</ele>
</trkpt>
<trkpt lat="35.86919" lon="140.63929">
<ele>0</ele>
</trkpt>
<trkpt lat="35.86939" lon="140.63887">
<ele>0</ele>
</trkpt>
<trkpt lat="35.86943" lon="140.63885">
<ele>0</ele>
</trkpt>
<trkpt lat="35.8697550011127" lon="140.638370001735">
<ele>0</ele>
</trkpt>
<trkpt lat="35.87008" lon="140.63789">
<ele>0</ele>
</trkpt>
<trkpt lat="35.87013" lon="140.63784">
<ele>0</ele>
</trkpt>
<trkpt lat="35.8704000010186" lon="140.637350001627">
<ele>0</ele>
</trkpt>
<trkpt lat="35.87067" lon="140.63686">
<ele>0</ele>
</trkpt>
<trkpt lat="35.8710000023135" lon="140.636115003072">
<ele>0</ele>
</trkpt>
<trkpt lat="35.87133" lon="140.63537">
<ele>0</ele>
</trkpt>
<trkpt lat="35.8715150013692" lon="140.634795001345">
<ele>0</ele>
</trkpt>
<trkpt lat="35.8717" lon="140.63422">
<ele>0</ele>
</trkpt>
<trkpt lat="35.87193" lon="140.63323">
<ele>0</ele>
</trkpt>
<trkpt lat="35.8720675086665" lon="140.632395004352">
<ele>0</ele>
</trkpt>
<trkpt lat="35.8722050115547" lon="140.631560005806">
<ele>0</ele>
</trkpt>
<trkpt lat="35.8723425086648" lon="140.630725004362">
<ele>1</ele>
</trkpt>
<trkpt lat="35.87248" lon="140.62989">
<ele>1</ele>
</trkpt>
<trkpt lat="35.8725" lon="140.62969">
<ele>1</ele>
</trkpt>
<trkpt lat="35.87261" lon="140.62912">
<ele>1</ele>
</trkpt>
<trkpt lat="35.8727950017066" lon="140.62848500136">
<ele>0</ele>
</trkpt>
<trkpt lat="35.87298" lon="140.62785">
<ele>0</ele>
</trkpt>
<trkpt lat="35.87329" lon="140.6271">
<ele>0</ele>
</trkpt>
<trkpt lat="35.87351" lon="140.62661">
<ele>0</ele>
</trkpt>
<trkpt lat="35.87396" lon="140.6258">
<ele>1</ele>
</trkpt>
<trkpt lat="35.87439" lon="140.62532">
<ele>1</ele>
</trkpt>
<trkpt lat="35.87472" lon="140.62489">
<ele>1</ele>
</trkpt>
<trkpt lat="35.87526" lon="140.62444">
<ele>1</ele>
</trkpt>
<trkpt lat="35.87565" lon="140.62422">
<ele>0</ele>
</trkpt>
<trkpt lat="35.8762800003474" lon="140.62397500191">
<ele>0</ele>
</trkpt>
<trkpt lat="35.87691" lon="140.62373">
<ele>0</ele>
</trkpt>
<trkpt lat="35.8774150001649" lon="140.623560001069">
<ele>0</ele>
</trkpt>
<trkpt lat="35.87792" lon="140.62339">
<ele>0</ele>
</trkpt>
<trkpt lat="35.87827" lon="140.6233">
<ele>0</ele>
</trkpt>
<trkpt lat="35.87853" lon="140.62333">
<ele>0</ele>
</trkpt>
<trkpt lat="35.87896" lon="140.62321">
<ele>0</ele>
</trkpt>
<trkpt lat="35.87967" lon="140.62307">
<ele>0</ele>
</trkpt>
<trkpt lat="35.8803800001587" lon="140.622855001937">
<ele>0</ele>
</trkpt>
<trkpt lat="35.88109" lon="140.62264">
<ele>0</ele>
</trkpt>
<trkpt lat="35.88195" lon="140.62234">
<ele>0</ele>
</trkpt>
<trkpt lat="35.8824350002068" lon="140.622140001208">
<ele>1</ele>
</trkpt>
<trkpt lat="35.88292" lon="140.62194">
<ele>2</ele>
</trkpt>
<trkpt lat="35.8836800005673" lon="140.62160500317">
<ele>1</ele>
</trkpt>
<trkpt lat="35.88444" lon="140.62127">
<ele>1</ele>
</trkpt>
<trkpt lat="35.88475" lon="140.62219">
<ele>1</ele>
</trkpt>
<trkpt lat="35.88494" lon="140.62213">
<ele>1</ele>
</trkpt>
<trkpt lat="35.8855150003864" lon="140.621825002214">
<ele>0</ele>
</trkpt>
<trkpt lat="35.88609" lon="140.62152">
<ele>0</ele>
</trkpt>
<trkpt lat="35.88575" lon="140.62054">
<ele>0</ele>
</trkpt>
<trkpt lat="35.88642" lon="140.62016">
<ele>0</ele>
</trkpt>
<trkpt lat="35.88711" lon="140.61972">
<ele>0</ele>
</trkpt>
<trkpt lat="35.88785" lon="140.61923">
<ele>0</ele>
</trkpt>
<trkpt lat="35.8883700007382" lon="140.618865002266">
<ele>1</ele>
</trkpt>
<trkpt lat="35.88889" lon="140.6185">
<ele>1</ele>
</trkpt>
<trkpt lat="35.889482502067" lon="140.618095009073">
<ele>0</ele>
</trkpt>
<trkpt lat="35.8900750027745" lon="140.617690012085">
<ele>0</ele>
</trkpt>
<trkpt lat="35.8906675021223" lon="140.617285009035">
<ele>1</ele>
</trkpt>
<trkpt lat="35.89126" lon="140.61688">
<ele>1</ele>
</trkpt>
<trkpt lat="35.8919450008632" lon="140.616420003989">
<ele>1</ele>
</trkpt>
<trkpt lat="35.89263" lon="140.61596">
<ele>0</ele>
</trkpt>
<trkpt lat="35.8933166685919" lon="140.615476675059">
<ele>0</ele>
</trkpt>
<trkpt lat="35.8940033352473" lon="140.614993341734">
<ele>0</ele>
</trkpt>
<trkpt lat="35.89469" lon="140.61451">
<ele>0</ele>
</trkpt>
<trkpt lat="35.8952700020086" lon="140.614016673903">
<ele>0</ele>
</trkpt>
<trkpt lat="35.8958500019997" lon="140.613523340577">
<ele>0</ele>
</trkpt>
<trkpt lat="35.89643" lon="140.61303">
<ele>0</ele>
</trkpt>
<trkpt lat="35.8971850011905" lon="140.612490005163">
<ele>0</ele>
</trkpt>
<trkpt lat="35.89794" lon="140.61195">
<ele>0</ele>
</trkpt>
<trkpt lat="35.89819" lon="140.61175">
<ele>0</ele>
</trkpt>
<trkpt lat="35.8986150002416" lon="140.61146000163">
<ele>0</ele>
</trkpt>
<trkpt lat="35.89904" lon="140.61117">
<ele>0</ele>
</trkpt>
<trkpt lat="35.89922" lon="140.61104">
<ele>0</ele>
</trkpt>
<trkpt lat="35.89937" lon="140.61098">
<ele>0</ele>
</trkpt>
<trkpt lat="35.89956" lon="140.61082">
<ele>0</ele>
</trkpt>
<trkpt lat="35.89919" lon="140.61093">
<ele>0</ele>
</trkpt>
<trkpt lat="35.8997500005514" lon="140.610540002814">
<ele>1</ele>
</trkpt>
<trkpt lat="35.90031" lon="140.61015">
<ele>0</ele>
</trkpt>
<trkpt lat="35.90057" lon="140.61003">
<ele>0</ele>
</trkpt>
<trkpt lat="35.90098" lon="140.60992">
<ele>0</ele>
</trkpt>
<trkpt lat="35.90127" lon="140.60987">
<ele>0</ele>
</trkpt>
<trkpt lat="35.90173" lon="140.60986">
<ele>0</ele>
</trkpt>
<trkpt lat="35.9023333334311" lon="140.609963331759">
<ele>0</ele>
</trkpt>
<trkpt lat="35.9029366667737" lon="140.610066665094">
<ele>0</ele>
</trkpt>
<trkpt lat="35.90354" lon="140.61017">
<ele>0</ele>
</trkpt>
<trkpt lat="35.9040850000603" lon="140.610155000102">
<ele>0</ele>
</trkpt>
<trkpt lat="35.90463" lon="140.61014">
<ele>0</ele>
</trkpt>
<trkpt lat="35.90523" lon="140.61021">
<ele>0</ele>
</trkpt>
<trkpt lat="35.90548" lon="140.61033">
<ele>0</ele>
</trkpt>
<trkpt lat="35.90571" lon="140.61048">
<ele>0</ele>
</trkpt>
<trkpt lat="35.90591" lon="140.61064">
<ele>0</ele>
</trkpt>
<trkpt lat="35.9064850017566" lon="140.611299995148">
<ele>0</ele>
</trkpt>
<trkpt lat="35.90706" lon="140.61196">
<ele>0</ele>
</trkpt>
<trkpt lat="35.90729" lon="140.61214">
<ele>0</ele>
</trkpt>
<trkpt lat="35.9078400006982" lon="140.612436662526">
<ele>0</ele>
</trkpt>
<trkpt lat="35.9083900006668" lon="140.612733329175">
<ele>0</ele>
</trkpt>
<trkpt lat="35.90894" lon="140.61303">
<ele>0</ele>
</trkpt>
<trkpt lat="35.90906" lon="140.61315">
<ele>0</ele>
</trkpt>
<trkpt lat="35.90914" lon="140.61315">
<ele>0</ele>
</trkpt>
<trkpt lat="35.90945" lon="140.6133">
<ele>0</ele>
</trkpt>
<trkpt lat="35.90984" lon="140.61344">
<ele>0</ele>
</trkpt>
<trkpt lat="35.9104350000434" lon="140.613534999287">
<ele>0</ele>
</trkpt>
<trkpt lat="35.91103" lon="140.61363">
<ele>0</ele>
</trkpt>
<trkpt lat="35.91182" lon="140.61369">
<ele>0</ele>
</trkpt>
<trkpt lat="35.91246" lon="140.61366">
<ele>1</ele>
</trkpt>
<trkpt lat="35.9130849999891" lon="140.613590000557">
<ele>1</ele>
</trkpt>
<trkpt lat="35.91371" lon="140.61352">
<ele>0</ele>
</trkpt>
<trkpt lat="35.9142900000286" lon="140.613405000848">
<ele>0</ele>
</trkpt>
<trkpt lat="35.91487" lon="140.61329">
<ele>0</ele>
</trkpt>
<trkpt lat="35.91511" lon="140.61323">
<ele>0</ele>
</trkpt>
<trkpt lat="35.9157033335497" lon="140.613053335996">
<ele>0</ele>
</trkpt>
<trkpt lat="35.9162966668407" lon="140.612876669342">
<ele>0</ele>
</trkpt>
<trkpt lat="35.91689" lon="140.6127">
<ele>0</ele>
</trkpt>
<trkpt lat="35.9174933336197" lon="140.612510002903">
<ele>0</ele>
</trkpt>
<trkpt lat="35.91809666694" lon="140.612320002907">
<ele>0</ele>
</trkpt>
<trkpt lat="35.9187" lon="140.61213">
<ele>0</ele>
</trkpt>
<trkpt lat="35.91897" lon="140.61203">
<ele>0</ele>
</trkpt>
<trkpt lat="35.91965" lon="140.61186">
<ele>0</ele>
</trkpt>
<trkpt lat="35.91989" lon="140.61186">
<ele>1</ele>
</trkpt>
<trkpt lat="35.92034" lon="140.61189">
<ele>2</ele>
</trkpt>
<trkpt lat="35.92077" lon="140.61195">
<ele>1</ele>
</trkpt>
<trkpt lat="35.92105" lon="140.61203">
<ele>0</ele>
</trkpt>
<trkpt lat="35.92121" lon="140.6121">
<ele>0</ele>
</trkpt>
<trkpt lat="35.92147" lon="140.61225">
<ele>0</ele>
</trkpt>
<trkpt lat="35.92167" lon="140.61241">
<ele>0</ele>
</trkpt>
<trkpt lat="35.922" lon="140.61276">
<ele>0</ele>
</trkpt>
<trkpt lat="35.92223" lon="140.61314">
<ele>0</ele>
</trkpt>
<trkpt lat="35.9224" lon="140.6135">
<ele>0</ele>
</trkpt>
<trkpt lat="35.92255" lon="140.61387">
<ele>0</ele>
</trkpt>
<trkpt lat="35.92269" lon="140.61433">
<ele>0</ele>
</trkpt>
<trkpt lat="35.92268" lon="140.61432">
<ele>0</ele>
</trkpt>
<trkpt lat="35.9228400012227" lon="140.614864998867">
<ele>0</ele>
</trkpt>
<trkpt lat="35.923" lon="140.61541">
<ele>0</ele>
</trkpt>
<trkpt lat="35.923" lon="140.61573">
<ele>1</ele>
</trkpt>
<trkpt lat="35.92297" lon="140.61578">
<ele>1</ele>
</trkpt>
<trkpt lat="35.92293" lon="140.61578">
<ele>1</ele>
</trkpt>
<trkpt lat="35.92269" lon="140.61587">
<ele>1</ele>
</trkpt>
<trkpt lat="35.9227" lon="140.61586">
<ele>1</ele>
</trkpt>
<trkpt lat="35.9226350018752" lon="140.615189999593">
<ele>1</ele>
</trkpt>
<trkpt lat="35.92257" lon="140.61452">
<ele>0</ele>
</trkpt>
<trkpt lat="35.9225" lon="140.6143">
<ele>0</ele>
</trkpt>
<trkpt lat="35.921694999924" lon="140.614445001505">
<ele>0</ele>
</trkpt>
<trkpt lat="35.92089" lon="140.61459">
<ele>0</ele>
</trkpt>
<trkpt lat="35.92089" lon="140.6146">
<ele>0</ele>
</trkpt>
<trkpt lat="35.92089" lon="140.61458">
<ele>0</ele>
</trkpt>
<trkpt lat="35.9209766711264" lon="140.61531333173">
<ele>0</ele>
</trkpt>
<trkpt lat="35.9210633377935" lon="140.616046665067">
<ele>0</ele>
</trkpt>
<trkpt lat="35.92115" lon="140.61678">
<ele>0</ele>
</trkpt>
<trkpt lat="35.92115" lon="140.61679">
<ele>0</ele>
</trkpt>
<trkpt lat="35.92173" lon="140.61653">
<ele>1</ele>
</trkpt>
<trkpt lat="35.9220400087528" lon="140.61755665866">
<ele>0</ele>
</trkpt>
<trkpt lat="35.9223500087654" lon="140.618583325368">
<ele>0</ele>
</trkpt>
<trkpt lat="35.92266" lon="140.61961">
<ele>0</ele>
</trkpt>
<trkpt lat="35.9229575117067" lon="140.620579989064">
<ele>0</ele>
</trkpt>
<trkpt lat="35.9232550156114" lon="140.621549985427">
<ele>0</ele>
</trkpt>
<trkpt lat="35.9235525117138" lon="140.622519989087">
<ele>0</ele>
</trkpt>
<trkpt lat="35.92385" lon="140.62349">
<ele>1</ele>
</trkpt>
<trkpt lat="35.92385" lon="140.62348">
<ele>1</ele>
</trkpt>
<trkpt lat="35.9241512799017" lon="140.624494972938">
<ele>0</ele>
</trkpt>
<trkpt lat="35.9244525512607" lon="140.625509953609">
<ele>0</ele>
</trkpt>
<trkpt lat="35.924753814077" lon="140.626524942014">
<ele>0</ele>
</trkpt>
<trkpt lat="35.9250550683503" lon="140.627539938152">
<ele>0</ele>
</trkpt>
<trkpt lat="35.9253563140806" lon="140.628554942024">
<ele>1</ele>
</trkpt>
<trkpt lat="35.9256575512676" lon="140.629569953629">
<ele>1</ele>
</trkpt>
<trkpt lat="35.9259587799112" lon="140.630584972967">
<ele>1</ele>
</trkpt>
<trkpt lat="35.92626" lon="140.6316">
<ele>0</ele>
</trkpt>
<trkpt lat="35.92648" lon="140.63263">
<ele>0</ele>
</trkpt>
<trkpt lat="35.9266" lon="140.63371">
<ele>1</ele>
</trkpt>
<trkpt lat="35.92665" lon="140.63478">
<ele>0</ele>
</trkpt>
<trkpt lat="35.92662" lon="140.63543">
<ele>0</ele>
</trkpt>
<trkpt lat="35.9265650012998" lon="140.635990000394">
<ele>0</ele>
</trkpt>
<trkpt lat="35.92651" lon="140.63655">
<ele>0</ele>
</trkpt>
<trkpt lat="35.9264033397101" lon="140.637426669002">
<ele>0</ele>
</trkpt>
<trkpt lat="35.926296673047" lon="140.63830333564">
<ele>0</ele>
</trkpt>
<trkpt lat="35.92619" lon="140.63918">
<ele>0</ele>
</trkpt>
<trkpt lat="35.92619" lon="140.63917">
<ele>0</ele>
</trkpt>
<trkpt lat="35.92617" lon="140.63929">
<ele>0</ele>
</trkpt>
<trkpt lat="35.9262" lon="140.63952">
<ele>0</ele>
</trkpt>
<trkpt lat="35.9257400000655" lon="140.639434999512">
<ele>0</ele>
</trkpt>
<trkpt lat="35.92528" lon="140.63935">
<ele>0</ele>
</trkpt>
<trkpt lat="35.9245100002085" lon="140.639193330283">
<ele>1</ele>
</trkpt>
<trkpt lat="35.9237400002135" lon="140.639036663618">
<ele>2</ele>
</trkpt>
<trkpt lat="35.92297" lon="140.63888">
<ele>2</ele>
</trkpt>
<trkpt lat="35.9221211120237" lon="140.63871443023">
<ele>2</ele>
</trkpt>
<trkpt lat="35.92127222382" lon="140.638548864014">
<ele>2</ele>
</trkpt>
<trkpt lat="35.9204233353891" lon="140.638383301352">
<ele>0</ele>
</trkpt>
<trkpt lat="35.9195744467308" lon="140.638217742244">
<ele>0</ele>
</trkpt>
<trkpt lat="35.9187255578453" lon="140.638052186689">
<ele>0</ele>
</trkpt>
<trkpt lat="35.9178766687325" lon="140.637886634689">
<ele>2</ele>
</trkpt>
<trkpt lat="35.9170277793925" lon="140.637721086241">
<ele>2</ele>
</trkpt>
<trkpt lat="35.9161788898252" lon="140.637555541347">
<ele>1</ele>
</trkpt>
<trkpt lat="35.91533" lon="140.63739">
<ele>1</ele>
</trkpt>
<trkpt lat="35.9146533335843" lon="140.637249997623">
<ele>1</ele>
</trkpt>
<trkpt lat="35.913976667006" lon="140.637109997642">
<ele>1</ele>
</trkpt>
<trkpt lat="35.9133" lon="140.63697">
<ele>1</ele>
</trkpt>
<trkpt lat="35.9126266667355" lon="140.636843331165">
<ele>2</ele>
</trkpt>
<trkpt lat="35.9119533333381" lon="140.636716664486">
<ele>2</ele>
</trkpt>
<trkpt lat="35.91128" lon="140.63659">
<ele>5</ele>
</trkpt>
<trkpt lat="35.9108250001748" lon="140.636484999426">
<ele>5</ele>
</trkpt>
<trkpt lat="35.91037" lon="140.63638">
<ele>6</ele>
</trkpt>
<trkpt lat="35.9096360003304" lon="140.636235994654">
<ele>6</ele>
</trkpt>
<trkpt lat="35.9089020004888" lon="140.63609199198">
<ele>4</ele>
</trkpt>
<trkpt lat="35.9081680004753" lon="140.635947991977">
<ele>3</ele>
</trkpt>
<trkpt lat="35.9074340002899" lon="140.635803994646">
<ele>4</ele>
</trkpt>
<trkpt lat="35.9067" lon="140.63566">
<ele>5</ele>
</trkpt>
<trkpt lat="35.9061099998972" lon="140.635564999269">
<ele>5</ele>
</trkpt>
<trkpt lat="35.90552" lon="140.63547">
<ele>4</ele>
</trkpt>
<trkpt lat="35.90472" lon="140.63543">
<ele>3</ele>
</trkpt>
<trkpt lat="35.90447" lon="140.63544">
<ele>3</ele>
</trkpt>
<trkpt lat="35.90401" lon="140.63549">
<ele>3</ele>
</trkpt>
<trkpt lat="35.90327" lon="140.63566">
<ele>4</ele>
</trkpt>
<trkpt lat="35.90251" lon="140.63597">
<ele>5</ele>
</trkpt>
<trkpt lat="35.90188" lon="140.63634">
<ele>5</ele>
</trkpt>
<trkpt lat="35.90148" lon="140.63668">
<ele>5</ele>
</trkpt>
<trkpt lat="35.90126" lon="140.63689">
<ele>5</ele>
</trkpt>
<trkpt lat="35.90103" lon="140.63714">
<ele>5</ele>
</trkpt>
<trkpt lat="35.90069" lon="140.63755">
<ele>4</ele>
</trkpt>
<trkpt lat="35.90029" lon="140.63821">
<ele>4</ele>
</trkpt>
<trkpt lat="35.90009" lon="140.6386">
<ele>4</ele>
</trkpt>
<trkpt lat="35.89982" lon="140.63919">
<ele>5</ele>
</trkpt>
<trkpt lat="35.8995550016342" lon="140.639815002057">
<ele>5</ele>
</trkpt>
<trkpt lat="35.89929" lon="140.64044">
<ele>6</ele>
</trkpt>
<trkpt lat="35.89905" lon="140.64106">
<ele>5</ele>
</trkpt>
<trkpt lat="35.89905" lon="140.64105">
<ele>5</ele>
</trkpt>
<trkpt lat="35.89867000703" lon="140.641970008801">
<ele>5</ele>
</trkpt>
<trkpt lat="35.8982900070433" lon="140.642890008768">
<ele>5</ele>
</trkpt>
<trkpt lat="35.89791" lon="140.64381">
<ele>5</ele>
</trkpt>
<trkpt lat="35.8975966710792" lon="140.644536672338">
<ele>5</ele>
</trkpt>
<trkpt lat="35.897283337781" lon="140.645263338923">
<ele>6</ele>
</trkpt>
<trkpt lat="35.89697" lon="140.64599">
<ele>6</ele>
</trkpt>
<trkpt lat="35.89683" lon="140.64637">
<ele>5</ele>
</trkpt>
<trkpt lat="35.8965200022468" lon="140.647110002953">
<ele>4</ele>
</trkpt>
<trkpt lat="35.89621" lon="140.64785">
<ele>4</ele>
</trkpt>
    </trkseg>
  </trk>
</gpx>