<?xml version="1.0" encoding="UTF-8"?>
<gpx version="1.1"
     creator="KMLtoGPX"
     xmlns="http://www.topografix.com/GPX/1/1">
  <metadata>
    <name>21 routes to fully enjoy Showa by renting a bicycle</name>
    <desc>21 レンタサイクルで庄和を満喫するルート</desc>
    <bounds minlat="35.992351944444444" minlon="139.79300305555554" maxlat="36.032361944444446" maxlon="139.81503805555556"/>
  </metadata>
  <trk>
    <name>21 routes to fully enjoy Showa by renting a bicycle</name>
    <trkseg>
<trkpt lat="35.99801305555555" lon="139.79413694444443">
<ele>7</ele>
</trkpt>
<trkpt lat="35.99797111111111" lon="139.79484">
<ele>7</ele>
</trkpt>
<trkpt lat="35.997931111111114" lon="139.79581694444445">
<ele>7</ele>
</trkpt>
<trkpt lat="35.997931111111114" lon="139.79581694444445">
<ele>7</ele>
</trkpt>
<trkpt lat="35.99793" lon="139.79584">
<ele>7</ele>
</trkpt>
<trkpt lat="35.99753805555556" lon="139.795865">
<ele>7</ele>
</trkpt>
<trkpt lat="35.99664611111111" lon="139.79595194444445">
<ele>6</ele>
</trkpt>
<trkpt lat="35.99632611111111" lon="139.79597694444445">
<ele>6</ele>
</trkpt>
<trkpt lat="35.99632611111111" lon="139.79597694444445">
<ele>6</ele>
</trkpt>
<trkpt lat="35.99635194444444" lon="139.79602222222223">
<ele>6</ele>
</trkpt>
<trkpt lat="35.99637777777778" lon="139.79606777777778">
<ele>6</ele>
</trkpt>
<trkpt lat="35.99640361111111" lon="139.79611305555557">
<ele>6</ele>
</trkpt>
<trkpt lat="35.996429444444445" lon="139.7961586111111">
<ele>6</ele>
</trkpt>
<trkpt lat="35.996452222222224" lon="139.79619861111112">
<ele>6</ele>
</trkpt>
<trkpt lat="35.996452222222224" lon="139.79619861111112">
<ele>6</ele>
</trkpt>
<trkpt lat="35.99648138888889" lon="139.79624055555556">
<ele>6</ele>
</trkpt>
<trkpt lat="35.99651055555555" lon="139.79628277777778">
<ele>6</ele>
</trkpt>
<trkpt lat="35.99654" lon="139.796325">
<ele>6</ele>
</trkpt>
<trkpt lat="35.99656916666667" lon="139.79636722222222">
<ele>6</ele>
</trkpt>
<trkpt lat="35.99659833333333" lon="139.79640944444444">
<ele>6</ele>
</trkpt>
<trkpt lat="35.9966275" lon="139.79645166666666">
<ele>6</ele>
</trkpt>
<trkpt lat="35.99665666666667" lon="139.79649388888888">
<ele>6</ele>
</trkpt>
<trkpt lat="35.99668583333333" lon="139.79653611111112">
<ele>6</ele>
</trkpt>
<trkpt lat="35.996715" lon="139.79657805555556">
<ele>6</ele>
</trkpt>
<trkpt lat="35.996744166666666" lon="139.79662027777778">
<ele>6</ele>
</trkpt>
<trkpt lat="35.996760555555554" lon="139.7966436111111">
<ele>6</ele>
</trkpt>
<trkpt lat="35.996760555555554" lon="139.7966436111111">
<ele>6</ele>
</trkpt>
<trkpt lat="35.99679166666667" lon="139.79668361111112">
<ele>6</ele>
</trkpt>
<trkpt lat="35.99682277777778" lon="139.7967236111111">
<ele>6</ele>
</trkpt>
<trkpt lat="35.996854166666665" lon="139.79676361111112">
<ele>6</ele>
</trkpt>
<trkpt lat="35.99688527777778" lon="139.79680333333334">
<ele>6</ele>
</trkpt>
<trkpt lat="35.99691638888889" lon="139.79684333333333">
<ele>6</ele>
</trkpt>
<trkpt lat="35.99694777777778" lon="139.79688333333334">
<ele>6</ele>
</trkpt>
<trkpt lat="35.99697888888889" lon="139.79692305555557">
<ele>6</ele>
</trkpt>
<trkpt lat="35.997010277777775" lon="139.79696305555555">
<ele>6</ele>
</trkpt>
<trkpt lat="35.99704138888889" lon="139.79700305555556">
<ele>6</ele>
</trkpt>
<trkpt lat="35.9970725" lon="139.7970427777778">
<ele>6</ele>
</trkpt>
<trkpt lat="35.99710388888889" lon="139.79708277777777">
<ele>6</ele>
</trkpt>
<trkpt lat="35.997135" lon="139.7971227777778">
<ele>6</ele>
</trkpt>
<trkpt lat="35.997166388888886" lon="139.79716277777777">
<ele>6</ele>
</trkpt>
<trkpt lat="35.9971975" lon="139.7972025">
<ele>6</ele>
</trkpt>
<trkpt lat="35.99722861111111" lon="139.7972425">
<ele>6</ele>
</trkpt>
<trkpt lat="35.99726" lon="139.7972825">
<ele>6</ele>
</trkpt>
<trkpt lat="35.99726388888889" lon="139.7972875">
<ele>6</ele>
</trkpt>
<trkpt lat="35.99726388888889" lon="139.7972875">
<ele>6</ele>
</trkpt>
<trkpt lat="35.997300555555555" lon="139.79731972222223">
<ele>6</ele>
</trkpt>
<trkpt lat="35.99733722222222" lon="139.79735166666666">
<ele>6</ele>
</trkpt>
<trkpt lat="35.99737388888889" lon="139.7973838888889">
<ele>6</ele>
</trkpt>
<trkpt lat="35.99739833333334" lon="139.79740555555554">
<ele>6</ele>
</trkpt>
<trkpt lat="35.99739833333334" lon="139.79740555555554">
<ele>6</ele>
</trkpt>
<trkpt lat="35.997436111111114" lon="139.79743583333334">
<ele>6</ele>
</trkpt>
<trkpt lat="35.99747361111111" lon="139.7974661111111">
<ele>6</ele>
</trkpt>
<trkpt lat="35.99751138888889" lon="139.7974963888889">
<ele>6</ele>
</trkpt>
<trkpt lat="35.997548888888886" lon="139.79752694444446">
<ele>6</ele>
</trkpt>
<trkpt lat="35.99758638888889" lon="139.79755722222222">
<ele>6</ele>
</trkpt>
<trkpt lat="35.99762416666667" lon="139.7975875">
<ele>6</ele>
</trkpt>
<trkpt lat="35.997661666666666" lon="139.7976177777778">
<ele>6</ele>
</trkpt>
<trkpt lat="35.99769944444444" lon="139.79764805555556">
<ele>6</ele>
</trkpt>
<trkpt lat="35.99773694444445" lon="139.7976786111111">
<ele>6</ele>
</trkpt>
<trkpt lat="35.997774722222225" lon="139.79770888888888">
<ele>6</ele>
</trkpt>
<trkpt lat="35.99781222222222" lon="139.79773916666667">
<ele>6</ele>
</trkpt>
<trkpt lat="35.99784972222222" lon="139.79776944444444">
<ele>6</ele>
</trkpt>
<trkpt lat="35.9978875" lon="139.7977997222222">
<ele>6</ele>
</trkpt>
<trkpt lat="35.997925" lon="139.7978302777778">
<ele>6</ele>
</trkpt>
<trkpt lat="35.99796277777778" lon="139.79786055555556">
<ele>6</ele>
</trkpt>
<trkpt lat="35.99800027777778" lon="139.79789083333333">
<ele>6</ele>
</trkpt>
<trkpt lat="35.998038055555554" lon="139.79792111111112">
<ele>6</ele>
</trkpt>
<trkpt lat="35.99807555555556" lon="139.7979513888889">
<ele>6</ele>
</trkpt>
<trkpt lat="35.99811305555556" lon="139.79798194444444">
<ele>6</ele>
</trkpt>
<trkpt lat="35.998150833333334" lon="139.7980122222222">
<ele>6</ele>
</trkpt>
<trkpt lat="35.99818833333333" lon="139.7980425">
<ele>6</ele>
</trkpt>
<trkpt lat="35.99822611111111" lon="139.79807277777778">
<ele>6</ele>
</trkpt>
<trkpt lat="35.99826361111111" lon="139.79810305555554">
<ele>6</ele>
</trkpt>
<trkpt lat="35.99830111111111" lon="139.7981336111111">
<ele>6</ele>
</trkpt>
<trkpt lat="35.99833888888889" lon="139.7981638888889">
<ele>6</ele>
</trkpt>
<trkpt lat="35.998376388888886" lon="139.79819416666666">
<ele>6</ele>
</trkpt>
<trkpt lat="35.99841416666667" lon="139.79822444444446">
<ele>6</ele>
</trkpt>
<trkpt lat="35.99845166666667" lon="139.798255">
<ele>6</ele>
</trkpt>
<trkpt lat="35.998489444444445" lon="139.79828527777778">
<ele>6</ele>
</trkpt>
<trkpt lat="35.99852694444444" lon="139.79831555555555">
<ele>6</ele>
</trkpt>
<trkpt lat="35.99856444444445" lon="139.79834583333334">
<ele>6</ele>
</trkpt>
<trkpt lat="35.998602222222225" lon="139.7983761111111">
<ele>6</ele>
</trkpt>
<trkpt lat="35.99863972222222" lon="139.79840666666666">
<ele>6</ele>
</trkpt>
<trkpt lat="35.9986775" lon="139.79843694444443">
<ele>6</ele>
</trkpt>
<trkpt lat="35.998715" lon="139.79846722222223">
<ele>6</ele>
</trkpt>
<trkpt lat="35.998752777777774" lon="139.7984975">
<ele>6</ele>
</trkpt>
<trkpt lat="35.99879027777778" lon="139.79852777777776">
<ele>6</ele>
</trkpt>
<trkpt lat="35.998805" lon="139.79853972222222">
<ele>6</ele>
</trkpt>
<trkpt lat="35.998805" lon="139.79853972222222">
<ele>6</ele>
</trkpt>
<trkpt lat="35.99884333333333" lon="139.7985686111111">
<ele>6</ele>
</trkpt>
<trkpt lat="35.99888166666667" lon="139.7985975">
<ele>6</ele>
</trkpt>
<trkpt lat="35.99892" lon="139.7986263888889">
<ele>6</ele>
</trkpt>
<trkpt lat="35.998958333333334" lon="139.79865527777778">
<ele>6</ele>
</trkpt>
<trkpt lat="35.99899694444444" lon="139.79868416666667">
<ele>6</ele>
</trkpt>
<trkpt lat="35.99903527777778" lon="139.79871305555557">
<ele>6</ele>
</trkpt>
<trkpt lat="35.99907361111111" lon="139.79874194444446">
<ele>6</ele>
</trkpt>
<trkpt lat="35.999111944444444" lon="139.79877083333332">
<ele>6</ele>
</trkpt>
<trkpt lat="35.99915027777778" lon="139.7987997222222">
<ele>6</ele>
</trkpt>
<trkpt lat="35.99918861111111" lon="139.7988286111111">
<ele>6</ele>
</trkpt>
<trkpt lat="35.999226944444445" lon="139.7988575">
<ele>6</ele>
</trkpt>
<trkpt lat="35.99926083333333" lon="139.79888305555556">
<ele>6</ele>
</trkpt>
<trkpt lat="35.99926083333333" lon="139.79888305555556">
<ele>6</ele>
</trkpt>
<trkpt lat="35.99929861111111" lon="139.79891305555554">
<ele>6</ele>
</trkpt>
<trkpt lat="35.99933638888889" lon="139.79894277777777">
<ele>6</ele>
</trkpt>
<trkpt lat="35.99937444444444" lon="139.79897277777778">
<ele>6</ele>
</trkpt>
<trkpt lat="35.99941222222222" lon="139.7990025">
<ele>6</ele>
</trkpt>
<trkpt lat="35.99945" lon="139.7990325">
<ele>6</ele>
</trkpt>
<trkpt lat="35.99948805555555" lon="139.79906222222223">
<ele>6</ele>
</trkpt>
<trkpt lat="35.99952583333334" lon="139.7990922222222">
<ele>6</ele>
</trkpt>
<trkpt lat="35.999563611111114" lon="139.79912194444444">
<ele>6</ele>
</trkpt>
<trkpt lat="35.99960138888889" lon="139.79915194444445">
<ele>6</ele>
</trkpt>
<trkpt lat="35.99963944444445" lon="139.79918166666667">
<ele>6</ele>
</trkpt>
<trkpt lat="35.999677222222225" lon="139.79921166666668">
<ele>6</ele>
</trkpt>
<trkpt lat="35.999715" lon="139.7992413888889">
<ele>6</ele>
</trkpt>
<trkpt lat="35.99975305555556" lon="139.79927138888888">
<ele>6</ele>
</trkpt>
<trkpt lat="35.999790833333336" lon="139.7993011111111">
<ele>6</ele>
</trkpt>
<trkpt lat="35.99981833333333" lon="139.79932305555556">
<ele>6</ele>
</trkpt>
<trkpt lat="35.99981833333333" lon="139.79932305555556">
<ele>6</ele>
</trkpt>
<trkpt lat="35.999856666666666" lon="139.7993522222222">
<ele>6</ele>
</trkpt>
<trkpt lat="35.99989472222222" lon="139.79938166666668">
<ele>6</ele>
</trkpt>
<trkpt lat="35.99993305555556" lon="139.79941083333333">
<ele>6</ele>
</trkpt>
<trkpt lat="35.99997111111111" lon="139.79944">
<ele>6</ele>
</trkpt>
<trkpt lat="36.000009166666665" lon="139.79946944444444">
<ele>6</ele>
</trkpt>
<trkpt lat="36.0000475" lon="139.79949861111112">
<ele>6</ele>
</trkpt>
<trkpt lat="36.00008555555556" lon="139.79952805555556">
<ele>6</ele>
</trkpt>
<trkpt lat="36.000123611111114" lon="139.79955722222223">
<ele>6</ele>
</trkpt>
<trkpt lat="36.00013305555556" lon="139.79956444444446">
<ele>6</ele>
</trkpt>
<trkpt lat="36.00013305555556" lon="139.79956444444446">
<ele>6</ele>
</trkpt>
<trkpt lat="36.00017666666667" lon="139.79957777777778">
<ele>6</ele>
</trkpt>
<trkpt lat="36.00018527777778" lon="139.79958055555556">
<ele>6</ele>
</trkpt>
<trkpt lat="36.00018527777778" lon="139.79958055555556">
<ele>6</ele>
</trkpt>
<trkpt lat="36.00023" lon="139.7995838888889">
<ele>6</ele>
</trkpt>
<trkpt lat="36.00027472222222" lon="139.79958722222221">
<ele>6</ele>
</trkpt>
<trkpt lat="36.00031972222222" lon="139.79959083333333">
<ele>6</ele>
</trkpt>
<trkpt lat="36.00036444444444" lon="139.79959416666668">
<ele>6</ele>
</trkpt>
<trkpt lat="36.00040944444444" lon="139.7995977777778">
<ele>6</ele>
</trkpt>
<trkpt lat="36.00043027777778" lon="139.79959916666667">
<ele>6</ele>
</trkpt>
<trkpt lat="36.00043027777778" lon="139.79959916666667">
<ele>6</ele>
</trkpt>
<trkpt lat="36.00047527777778" lon="139.7996">
<ele>6</ele>
</trkpt>
<trkpt lat="36.00052027777778" lon="139.79960083333333">
<ele>6</ele>
</trkpt>
<trkpt lat="36.000565" lon="139.79960166666666">
<ele>6</ele>
</trkpt>
<trkpt lat="36.00061" lon="139.7996025">
<ele>6</ele>
</trkpt>
<trkpt lat="36.000655" lon="139.79960305555556">
<ele>6</ele>
</trkpt>
<trkpt lat="36.00069972222222" lon="139.7996038888889">
<ele>6</ele>
</trkpt>
<trkpt lat="36.00074472222222" lon="139.79960472222223">
<ele>6</ele>
</trkpt>
<trkpt lat="36.00078972222222" lon="139.79960555555556">
<ele>6</ele>
</trkpt>
<trkpt lat="36.00083444444444" lon="139.7996063888889">
<ele>6</ele>
</trkpt>
<trkpt lat="36.00087944444444" lon="139.79960694444443">
<ele>6</ele>
</trkpt>
<trkpt lat="36.00092444444444" lon="139.79960777777777">
<ele>6</ele>
</trkpt>
<trkpt lat="36.000969166666664" lon="139.7996086111111">
<ele>6</ele>
</trkpt>
<trkpt lat="36.001014166666664" lon="139.79960944444446">
<ele>6</ele>
</trkpt>
<trkpt lat="36.001059166666664" lon="139.7996102777778">
<ele>6</ele>
</trkpt>
<trkpt lat="36.001104166666664" lon="139.79961083333333">
<ele>6</ele>
</trkpt>
<trkpt lat="36.00114888888889" lon="139.79961166666666">
<ele>6</ele>
</trkpt>
<trkpt lat="36.00119388888889" lon="139.7996125">
<ele>6</ele>
</trkpt>
<trkpt lat="36.00120277777778" lon="139.79961277777778">
<ele>6</ele>
</trkpt>
<trkpt lat="36.00120277777778" lon="139.79961277777778">
<ele>6</ele>
</trkpt>
<trkpt lat="36.00124777777778" lon="139.7996138888889">
<ele>6</ele>
</trkpt>
<trkpt lat="36.00129277777778" lon="139.799615">
<ele>6</ele>
</trkpt>
<trkpt lat="36.0013375" lon="139.7996163888889">
<ele>6</ele>
</trkpt>
<trkpt lat="36.0013825" lon="139.7996175">
<ele>6</ele>
</trkpt>
<trkpt lat="36.0014275" lon="139.7996188888889">
<ele>6</ele>
</trkpt>
<trkpt lat="36.00147222222222" lon="139.79962">
<ele>6</ele>
</trkpt>
<trkpt lat="36.00151722222222" lon="139.79962138888888">
<ele>6</ele>
</trkpt>
<trkpt lat="36.00156222222222" lon="139.7996225">
<ele>6</ele>
</trkpt>
<trkpt lat="36.00160694444445" lon="139.79962361111112">
<ele>6</ele>
</trkpt>
<trkpt lat="36.00165194444445" lon="139.799625">
<ele>6</ele>
</trkpt>
<trkpt lat="36.00169694444445" lon="139.7996261111111">
<ele>6</ele>
</trkpt>
<trkpt lat="36.00174166666667" lon="139.7996275">
<ele>6</ele>
</trkpt>
<trkpt lat="36.00178666666667" lon="139.7996286111111">
<ele>6</ele>
</trkpt>
<trkpt lat="36.00183138888889" lon="139.79962972222222">
<ele>6</ele>
</trkpt>
<trkpt lat="36.00187638888889" lon="139.7996311111111">
<ele>6</ele>
</trkpt>
<trkpt lat="36.00192138888889" lon="139.79963222222221">
<ele>6</ele>
</trkpt>
<trkpt lat="36.00196611111111" lon="139.79963361111112">
<ele>6</ele>
</trkpt>
<trkpt lat="36.00201111111111" lon="139.7996347222222">
<ele>6</ele>
</trkpt>
<trkpt lat="36.00205611111111" lon="139.7996361111111">
<ele>6</ele>
</trkpt>
<trkpt lat="36.00210083333333" lon="139.79963722222223">
<ele>6</ele>
</trkpt>
<trkpt lat="36.00214583333333" lon="139.79963833333332">
<ele>6</ele>
</trkpt>
<trkpt lat="36.00219083333333" lon="139.79963972222222">
<ele>6</ele>
</trkpt>
<trkpt lat="36.00223555555556" lon="139.79964083333334">
<ele>6</ele>
</trkpt>
<trkpt lat="36.00228055555556" lon="139.79964222222222">
<ele>6</ele>
</trkpt>
<trkpt lat="36.00232555555556" lon="139.79964333333334">
<ele>6</ele>
</trkpt>
<trkpt lat="36.00237027777778" lon="139.79964444444445">
<ele>6</ele>
</trkpt>
<trkpt lat="36.00241527777778" lon="139.79964583333333">
<ele>6</ele>
</trkpt>
<trkpt lat="36.00246027777778" lon="139.79964694444445">
<ele>6</ele>
</trkpt>
<trkpt lat="36.00248916666666" lon="139.79964777777778">
<ele>6</ele>
</trkpt>
<trkpt lat="36.00248916666666" lon="139.79964777777778">
<ele>6</ele>
</trkpt>
<trkpt lat="36.00253388888889" lon="139.79964361111112">
<ele>6</ele>
</trkpt>
<trkpt lat="36.00257861111111" lon="139.79963944444444">
<ele>6</ele>
</trkpt>
<trkpt lat="36.00262361111111" lon="139.79963527777778">
<ele>6</ele>
</trkpt>
<trkpt lat="36.00266833333333" lon="139.7996311111111">
<ele>6</ele>
</trkpt>
<trkpt lat="36.00271305555555" lon="139.79962694444444">
<ele>6</ele>
</trkpt>
<trkpt lat="36.002719166666665" lon="139.7996263888889">
<ele>6</ele>
</trkpt>
<trkpt lat="36.002719166666665" lon="139.7996263888889">
<ele>6</ele>
</trkpt>
<trkpt lat="36.002763888888886" lon="139.79962166666667">
<ele>6</ele>
</trkpt>
<trkpt lat="36.002808611111114" lon="139.79961694444444">
<ele>6</ele>
</trkpt>
<trkpt lat="36.002853333333334" lon="139.7996122222222">
<ele>6</ele>
</trkpt>
<trkpt lat="36.002898055555555" lon="139.7996075">
<ele>6</ele>
</trkpt>
<trkpt lat="36.002942777777776" lon="139.79960277777778">
<ele>6</ele>
</trkpt>
<trkpt lat="36.002987777777776" lon="139.79959805555555">
<ele>6</ele>
</trkpt>
<trkpt lat="36.0030325" lon="139.7995936111111">
<ele>6</ele>
</trkpt>
<trkpt lat="36.003077222222224" lon="139.79958888888888">
<ele>6</ele>
</trkpt>
<trkpt lat="36.003121944444445" lon="139.79958416666668">
<ele>6</ele>
</trkpt>
<trkpt lat="36.003166666666665" lon="139.79957944444445">
<ele>6</ele>
</trkpt>
<trkpt lat="36.003211388888886" lon="139.79957472222222">
<ele>6</ele>
</trkpt>
<trkpt lat="36.003256111111114" lon="139.79957">
<ele>6</ele>
</trkpt>
<trkpt lat="36.003300833333334" lon="139.7995652777778">
<ele>6</ele>
</trkpt>
<trkpt lat="36.003345833333334" lon="139.79956055555556">
<ele>6</ele>
</trkpt>
<trkpt lat="36.003390555555555" lon="139.79955583333333">
<ele>6</ele>
</trkpt>
<trkpt lat="36.003435277777776" lon="139.7995513888889">
<ele>6</ele>
</trkpt>
<trkpt lat="36.003435277777776" lon="139.7995513888889">
<ele>6</ele>
</trkpt>
<trkpt lat="36.00348" lon="139.7995463888889">
<ele>6</ele>
</trkpt>
<trkpt lat="36.003524722222224" lon="139.79954138888888">
<ele>6</ele>
</trkpt>
<trkpt lat="36.003569444444445" lon="139.7995363888889">
<ele>6</ele>
</trkpt>
<trkpt lat="36.003614166666665" lon="139.79953138888888">
<ele>6</ele>
</trkpt>
<trkpt lat="36.003658888888886" lon="139.79952666666668">
<ele>6</ele>
</trkpt>
<trkpt lat="36.00370361111111" lon="139.79952166666666">
<ele>6</ele>
</trkpt>
<trkpt lat="36.003748333333334" lon="139.79951666666668">
<ele>6</ele>
</trkpt>
<trkpt lat="36.003793055555555" lon="139.79951166666666">
<ele>6</ele>
</trkpt>
<trkpt lat="36.003837777777775" lon="139.79950694444443">
<ele>6</ele>
</trkpt>
<trkpt lat="36.0038825" lon="139.79950194444444">
<ele>6</ele>
</trkpt>
<trkpt lat="36.003927222222224" lon="139.79949694444446">
<ele>6</ele>
</trkpt>
<trkpt lat="36.003971944444444" lon="139.79949194444444">
<ele>6</ele>
</trkpt>
<trkpt lat="36.004016666666665" lon="139.7994872222222">
<ele>6</ele>
</trkpt>
<trkpt lat="36.004061388888886" lon="139.79948222222222">
<ele>6</ele>
</trkpt>
<trkpt lat="36.004106388888886" lon="139.7994772222222">
<ele>6</ele>
</trkpt>
<trkpt lat="36.00415111111111" lon="139.79947222222222">
<ele>6</ele>
</trkpt>
<trkpt lat="36.004195833333334" lon="139.7994675">
<ele>6</ele>
</trkpt>
<trkpt lat="36.004240555555555" lon="139.7994625">
<ele>6</ele>
</trkpt>
<trkpt lat="36.004285277777775" lon="139.7994575">
<ele>6</ele>
</trkpt>
<trkpt lat="36.00433" lon="139.7994525">
<ele>6</ele>
</trkpt>
<trkpt lat="36.004374722222224" lon="139.7994475">
<ele>6</ele>
</trkpt>
<trkpt lat="36.004419444444444" lon="139.79944277777778">
<ele>6</ele>
</trkpt>
<trkpt lat="36.004464166666665" lon="139.79943777777777">
<ele>6</ele>
</trkpt>
<trkpt lat="36.004508888888886" lon="139.79943277777778">
<ele>6</ele>
</trkpt>
<trkpt lat="36.00455361111111" lon="139.79942777777777">
<ele>6</ele>
</trkpt>
<trkpt lat="36.004598333333334" lon="139.79942305555556">
<ele>6</ele>
</trkpt>
<trkpt lat="36.0046025" lon="139.7994225">
<ele>6</ele>
</trkpt>
<trkpt lat="36.0046025" lon="139.7994225">
<ele>6</ele>
</trkpt>
<trkpt lat="36.004647222222225" lon="139.79941694444443">
<ele>6</ele>
</trkpt>
<trkpt lat="36.004691944444446" lon="139.79941166666666">
<ele>6</ele>
</trkpt>
<trkpt lat="36.004736666666666" lon="139.79940611111113">
<ele>6</ele>
</trkpt>
<trkpt lat="36.00478138888889" lon="139.79940083333332">
<ele>6</ele>
</trkpt>
<trkpt lat="36.004826111111115" lon="139.7993952777778">
<ele>6</ele>
</trkpt>
<trkpt lat="36.004870833333335" lon="139.79938972222223">
<ele>6</ele>
</trkpt>
<trkpt lat="36.004915555555556" lon="139.79938444444446">
<ele>6</ele>
</trkpt>
<trkpt lat="36.004960277777776" lon="139.7993788888889">
<ele>6</ele>
</trkpt>
<trkpt lat="36.005004722222225" lon="139.79937361111112">
<ele>6</ele>
</trkpt>
<trkpt lat="36.005049444444445" lon="139.79936805555556">
<ele>6</ele>
</trkpt>
<trkpt lat="36.005094166666666" lon="139.7993625">
<ele>6</ele>
</trkpt>
<trkpt lat="36.00513888888889" lon="139.79935722222223">
<ele>6</ele>
</trkpt>
<trkpt lat="36.005183611111114" lon="139.79935166666667">
<ele>6</ele>
</trkpt>
<trkpt lat="36.00521888888889" lon="139.7993475">
<ele>6</ele>
</trkpt>
<trkpt lat="36.00521888888889" lon="139.7993475">
<ele>6</ele>
</trkpt>
<trkpt lat="36.005275" lon="139.79934083333333">
<ele>6</ele>
</trkpt>
<trkpt lat="36.00533111111111" lon="139.79933416666665">
<ele>6</ele>
</trkpt>
<trkpt lat="36.005387222222225" lon="139.7993275">
<ele>6</ele>
</trkpt>
<trkpt lat="36.00544333333333" lon="139.79932083333333">
<ele>6</ele>
</trkpt>
<trkpt lat="36.005499722222226" lon="139.79931416666668">
<ele>6</ele>
</trkpt>
<trkpt lat="36.00555583333333" lon="139.79930777777778">
<ele>6</ele>
</trkpt>
<trkpt lat="36.005611944444446" lon="139.7993011111111">
<ele>6</ele>
</trkpt>
<trkpt lat="36.00566805555555" lon="139.79929444444446">
<ele>6</ele>
</trkpt>
<trkpt lat="36.00572416666667" lon="139.79928777777778">
<ele>6</ele>
</trkpt>
<trkpt lat="36.00578027777778" lon="139.7992811111111">
<ele>6</ele>
</trkpt>
<trkpt lat="36.00583666666667" lon="139.79927444444445">
<ele>6</ele>
</trkpt>
<trkpt lat="36.00589277777778" lon="139.79926805555556">
<ele>6</ele>
</trkpt>
<trkpt lat="36.00594888888889" lon="139.79926138888888">
<ele>6</ele>
</trkpt>
<trkpt lat="36.006005" lon="139.79925472222223">
<ele>6</ele>
</trkpt>
<trkpt lat="36.00606111111111" lon="139.79924805555555">
<ele>6</ele>
</trkpt>
<trkpt lat="36.0061175" lon="139.7992413888889">
<ele>6</ele>
</trkpt>
<trkpt lat="36.00617361111111" lon="139.79923472222222">
<ele>6</ele>
</trkpt>
<trkpt lat="36.00622972222222" lon="139.79922833333333">
<ele>6</ele>
</trkpt>
<trkpt lat="36.00628583333334" lon="139.79922166666665">
<ele>6</ele>
</trkpt>
<trkpt lat="36.00634194444444" lon="139.799215">
<ele>6</ele>
</trkpt>
<trkpt lat="36.00639805555556" lon="139.79920833333333">
<ele>6</ele>
</trkpt>
<trkpt lat="36.006454444444444" lon="139.79920166666668">
<ele>6</ele>
</trkpt>
<trkpt lat="36.00651055555556" lon="139.799195">
<ele>6</ele>
</trkpt>
<trkpt lat="36.006566666666664" lon="139.7991886111111">
<ele>6</ele>
</trkpt>
<trkpt lat="36.00662277777778" lon="139.79918194444446">
<ele>6</ele>
</trkpt>
<trkpt lat="36.00667888888889" lon="139.79917527777778">
<ele>6</ele>
</trkpt>
<trkpt lat="36.006735" lon="139.7991686111111">
<ele>6</ele>
</trkpt>
<trkpt lat="36.00679138888889" lon="139.79916194444445">
<ele>6</ele>
</trkpt>
<trkpt lat="36.0068475" lon="139.79915527777777">
<ele>6</ele>
</trkpt>
<trkpt lat="36.00690361111111" lon="139.79914888888888">
<ele>6</ele>
</trkpt>
<trkpt lat="36.00695972222222" lon="139.79914222222223">
<ele>6</ele>
</trkpt>
<trkpt lat="36.007015833333334" lon="139.79913555555555">
<ele>6</ele>
</trkpt>
<trkpt lat="36.00707222222222" lon="139.7991288888889">
<ele>6</ele>
</trkpt>
<trkpt lat="36.007128333333334" lon="139.79912222222222">
<ele>6</ele>
</trkpt>
<trkpt lat="36.00718444444445" lon="139.79911555555555">
<ele>6</ele>
</trkpt>
<trkpt lat="36.007240555555555" lon="139.79910916666665">
<ele>6</ele>
</trkpt>
<trkpt lat="36.00729666666667" lon="139.7991025">
<ele>6</ele>
</trkpt>
<trkpt lat="36.007352777777776" lon="139.79909583333333">
<ele>6</ele>
</trkpt>
<trkpt lat="36.007352777777776" lon="139.79909583333333">
<ele>6</ele>
</trkpt>
<trkpt lat="36.007352777777776" lon="139.79909583333333">
<ele>6</ele>
</trkpt>
<trkpt lat="36.007397777777776" lon="139.79909138888888">
<ele>6</ele>
</trkpt>
<trkpt lat="36.0074425" lon="139.79908666666665">
<ele>6</ele>
</trkpt>
<trkpt lat="36.007487222222224" lon="139.7990822222222">
<ele>6</ele>
</trkpt>
<trkpt lat="36.007531944444445" lon="139.79907777777777">
<ele>6</ele>
</trkpt>
<trkpt lat="36.007576666666665" lon="139.79907305555557">
<ele>6</ele>
</trkpt>
<trkpt lat="36.007621388888886" lon="139.79906861111112">
<ele>6</ele>
</trkpt>
<trkpt lat="36.007666388888886" lon="139.79906416666665">
<ele>6</ele>
</trkpt>
<trkpt lat="36.007711111111114" lon="139.79905944444445">
<ele>6</ele>
</trkpt>
<trkpt lat="36.007755833333334" lon="139.799055">
<ele>6</ele>
</trkpt>
<trkpt lat="36.007800555555555" lon="139.79905055555557">
<ele>6</ele>
</trkpt>
<trkpt lat="36.007845277777776" lon="139.79904583333334">
<ele>6</ele>
</trkpt>
<trkpt lat="36.00789" lon="139.7990413888889">
<ele>6</ele>
</trkpt>
<trkpt lat="36.007934722222224" lon="139.79903694444445">
<ele>6</ele>
</trkpt>
<trkpt lat="36.007979722222224" lon="139.79903222222222">
<ele>6</ele>
</trkpt>
<trkpt lat="36.008024444444445" lon="139.79902777777778">
<ele>6</ele>
</trkpt>
<trkpt lat="36.008069166666665" lon="139.79902333333334">
<ele>6</ele>
</trkpt>
<trkpt lat="36.008113888888886" lon="139.7990186111111">
<ele>6</ele>
</trkpt>
<trkpt lat="36.008158611111114" lon="139.79901416666667">
<ele>6</ele>
</trkpt>
<trkpt lat="36.008203333333334" lon="139.79900972222222">
<ele>6</ele>
</trkpt>
<trkpt lat="36.008248333333334" lon="139.799005">
<ele>6</ele>
</trkpt>
<trkpt lat="36.008293055555555" lon="139.79900055555555">
<ele>6</ele>
</trkpt>
<trkpt lat="36.008337777777776" lon="139.7989961111111">
<ele>6</ele>
</trkpt>
<trkpt lat="36.0083825" lon="139.79899138888888">
<ele>6</ele>
</trkpt>
<trkpt lat="36.00841166666667" lon="139.7989886111111">
<ele>6</ele>
</trkpt>
<trkpt lat="36.00841166666667" lon="139.7989886111111">
<ele>6</ele>
</trkpt>
<trkpt lat="36.00845638888889" lon="139.7989836111111">
<ele>6</ele>
</trkpt>
<trkpt lat="36.00850111111111" lon="139.79897888888888">
<ele>6</ele>
</trkpt>
<trkpt lat="36.008545833333336" lon="139.7989738888889">
<ele>6</ele>
</trkpt>
<trkpt lat="36.008590833333336" lon="139.79896916666667">
<ele>6</ele>
</trkpt>
<trkpt lat="36.00863555555556" lon="139.79896416666668">
<ele>6</ele>
</trkpt>
<trkpt lat="36.00868027777778" lon="139.79895944444445">
<ele>6</ele>
</trkpt>
<trkpt lat="36.008725" lon="139.79895444444443">
<ele>6</ele>
</trkpt>
<trkpt lat="36.00876972222222" lon="139.79894972222223">
<ele>6</ele>
</trkpt>
<trkpt lat="36.00881444444445" lon="139.79894472222222">
<ele>6</ele>
</trkpt>
<trkpt lat="36.00885916666667" lon="139.79894">
<ele>6</ele>
</trkpt>
<trkpt lat="36.00890388888889" lon="139.7989352777778">
<ele>6</ele>
</trkpt>
<trkpt lat="36.00894861111111" lon="139.79893027777777">
<ele>6</ele>
</trkpt>
<trkpt lat="36.008993333333336" lon="139.79892555555554">
<ele>6</ele>
</trkpt>
<trkpt lat="36.00903805555556" lon="139.79892055555555">
<ele>6</ele>
</trkpt>
<trkpt lat="36.00908277777778" lon="139.79891583333333">
<ele>6</ele>
</trkpt>
<trkpt lat="36.00912777777778" lon="139.79891083333334">
<ele>6</ele>
</trkpt>
<trkpt lat="36.0091725" lon="139.7989061111111">
<ele>6</ele>
</trkpt>
<trkpt lat="36.00921722222222" lon="139.79890111111112">
<ele>6</ele>
</trkpt>
<trkpt lat="36.00926194444445" lon="139.7988963888889">
<ele>6</ele>
</trkpt>
<trkpt lat="36.00930666666667" lon="139.79889138888888">
<ele>6</ele>
</trkpt>
<trkpt lat="36.00935138888889" lon="139.79888666666668">
<ele>6</ele>
</trkpt>
<trkpt lat="36.00939611111111" lon="139.79888166666666">
<ele>6</ele>
</trkpt>
<trkpt lat="36.00940111111111" lon="139.79888111111111">
<ele>6</ele>
</trkpt>
<trkpt lat="36.00940111111111" lon="139.79888111111111">
<ele>6</ele>
</trkpt>
<trkpt lat="36.00944583333333" lon="139.79887555555555">
<ele>6</ele>
</trkpt>
<trkpt lat="36.00949055555556" lon="139.79887">
<ele>6</ele>
</trkpt>
<trkpt lat="36.00953527777778" lon="139.79886416666668">
<ele>6</ele>
</trkpt>
<trkpt lat="36.00957972222222" lon="139.79885861111111">
<ele>6</ele>
</trkpt>
<trkpt lat="36.00962444444445" lon="139.79885277777777">
<ele>6</ele>
</trkpt>
<trkpt lat="36.00966916666667" lon="139.79884722222224">
<ele>6</ele>
</trkpt>
<trkpt lat="36.00971388888889" lon="139.79884166666668">
<ele>6</ele>
</trkpt>
<trkpt lat="36.00975861111111" lon="139.79883583333333">
<ele>6</ele>
</trkpt>
<trkpt lat="36.00980333333333" lon="139.79883027777777">
<ele>6</ele>
</trkpt>
<trkpt lat="36.00984805555556" lon="139.79882444444445">
<ele>6</ele>
</trkpt>
<trkpt lat="36.0098925" lon="139.7988188888889">
<ele>6</ele>
</trkpt>
<trkpt lat="36.00993722222222" lon="139.79881305555554">
<ele>6</ele>
</trkpt>
<trkpt lat="36.00998194444445" lon="139.7988075">
<ele>6</ele>
</trkpt>
<trkpt lat="36.01002666666667" lon="139.79880194444445">
<ele>6</ele>
</trkpt>
<trkpt lat="36.01007138888889" lon="139.7987961111111">
<ele>6</ele>
</trkpt>
<trkpt lat="36.01011611111111" lon="139.79879055555554">
<ele>6</ele>
</trkpt>
<trkpt lat="36.01016083333333" lon="139.79878472222222">
<ele>6</ele>
</trkpt>
<trkpt lat="36.01020527777778" lon="139.79877916666666">
<ele>6</ele>
</trkpt>
<trkpt lat="36.01025" lon="139.7987736111111">
<ele>6</ele>
</trkpt>
<trkpt lat="36.01029472222222" lon="139.79876777777778">
<ele>6</ele>
</trkpt>
<trkpt lat="36.01033944444445" lon="139.79876222222222">
<ele>6</ele>
</trkpt>
<trkpt lat="36.01038416666667" lon="139.79875638888888">
<ele>6</ele>
</trkpt>
<trkpt lat="36.01042888888889" lon="139.79875083333334">
<ele>6</ele>
</trkpt>
<trkpt lat="36.01047333333333" lon="139.79874527777778">
<ele>6</ele>
</trkpt>
<trkpt lat="36.01051805555556" lon="139.79873944444444">
<ele>6</ele>
</trkpt>
<trkpt lat="36.01056277777778" lon="139.79873388888888">
<ele>6</ele>
</trkpt>
<trkpt lat="36.0106075" lon="139.79872805555556">
<ele>6</ele>
</trkpt>
<trkpt lat="36.01065222222222" lon="139.7987225">
<ele>6</ele>
</trkpt>
<trkpt lat="36.01067361111111" lon="139.79871972222222">
<ele>6</ele>
</trkpt>
<trkpt lat="36.01067361111111" lon="139.79871972222222">
<ele>6</ele>
</trkpt>
<trkpt lat="36.01072305555556" lon="139.79871472222223">
<ele>6</ele>
</trkpt>
<trkpt lat="36.01077277777778" lon="139.7987097222222">
<ele>6</ele>
</trkpt>
<trkpt lat="36.0108225" lon="139.79870444444444">
<ele>6</ele>
</trkpt>
<trkpt lat="36.010872222222226" lon="139.79869944444445">
<ele>6</ele>
</trkpt>
<trkpt lat="36.01092194444445" lon="139.79869444444444">
<ele>6</ele>
</trkpt>
<trkpt lat="36.01097166666667" lon="139.79868916666666">
<ele>6</ele>
</trkpt>
<trkpt lat="36.01102111111111" lon="139.79868416666667">
<ele>6</ele>
</trkpt>
<trkpt lat="36.011070833333335" lon="139.79867916666666">
<ele>6</ele>
</trkpt>
<trkpt lat="36.01112055555556" lon="139.79867416666667">
<ele>6</ele>
</trkpt>
<trkpt lat="36.01117027777778" lon="139.7986688888889">
<ele>6</ele>
</trkpt>
<trkpt lat="36.01122" lon="139.79866388888888">
<ele>6</ele>
</trkpt>
<trkpt lat="36.011269722222224" lon="139.7986588888889">
<ele>6</ele>
</trkpt>
<trkpt lat="36.01131916666667" lon="139.79865361111112">
<ele>6</ele>
</trkpt>
<trkpt lat="36.01136888888889" lon="139.7986486111111">
<ele>6</ele>
</trkpt>
<trkpt lat="36.01141861111111" lon="139.79864361111112">
<ele>6</ele>
</trkpt>
<trkpt lat="36.01146833333333" lon="139.79863833333334">
<ele>6</ele>
</trkpt>
<trkpt lat="36.011518055555555" lon="139.79863333333333">
<ele>6</ele>
</trkpt>
<trkpt lat="36.0115675" lon="139.79862833333334">
<ele>6</ele>
</trkpt>
<trkpt lat="36.01161722222222" lon="139.79862333333332">
<ele>6</ele>
</trkpt>
<trkpt lat="36.01166694444444" lon="139.79861805555555">
<ele>6</ele>
</trkpt>
<trkpt lat="36.011716666666665" lon="139.79861305555556">
<ele>6</ele>
</trkpt>
<trkpt lat="36.01176638888889" lon="139.79860805555555">
<ele>6</ele>
</trkpt>
<trkpt lat="36.01181611111111" lon="139.79860277777777">
<ele>6</ele>
</trkpt>
<trkpt lat="36.01186555555555" lon="139.7985977777778">
<ele>6</ele>
</trkpt>
<trkpt lat="36.011915277777774" lon="139.79859277777777">
<ele>6</ele>
</trkpt>
<trkpt lat="36.011965" lon="139.7985875">
<ele>6</ele>
</trkpt>
<trkpt lat="36.012014722222226" lon="139.7985825">
<ele>6</ele>
</trkpt>
<trkpt lat="36.01206444444445" lon="139.7985775">
<ele>6</ele>
</trkpt>
<trkpt lat="36.01211416666667" lon="139.7985725">
<ele>6</ele>
</trkpt>
<trkpt lat="36.01216361111111" lon="139.79856722222223">
<ele>6</ele>
</trkpt>
<trkpt lat="36.012213333333335" lon="139.79856222222222">
<ele>6</ele>
</trkpt>
<trkpt lat="36.01226305555556" lon="139.79855722222223">
<ele>6</ele>
</trkpt>
<trkpt lat="36.01231277777778" lon="139.79855194444445">
<ele>6</ele>
</trkpt>
<trkpt lat="36.0123625" lon="139.79854694444444">
<ele>6</ele>
</trkpt>
<trkpt lat="36.012411944444445" lon="139.79854194444445">
<ele>6</ele>
</trkpt>
<trkpt lat="36.01246166666667" lon="139.79853694444444">
<ele>6</ele>
</trkpt>
<trkpt lat="36.01251138888889" lon="139.79853166666666">
<ele>6</ele>
</trkpt>
<trkpt lat="36.01256111111111" lon="139.79852666666667">
<ele>6</ele>
</trkpt>
<trkpt lat="36.01256111111111" lon="139.79852666666667">
<ele>6</ele>
</trkpt>
<trkpt lat="36.01260583333333" lon="139.79852166666666">
<ele>6</ele>
</trkpt>
<trkpt lat="36.01265055555555" lon="139.79851666666667">
<ele>6</ele>
</trkpt>
<trkpt lat="36.01269527777778" lon="139.79851166666666">
<ele>6</ele>
</trkpt>
<trkpt lat="36.01274" lon="139.79850666666667">
<ele>6</ele>
</trkpt>
<trkpt lat="36.01278472222222" lon="139.7985013888889">
<ele>6</ele>
</trkpt>
<trkpt lat="36.01282944444444" lon="139.79849638888888">
<ele>6</ele>
</trkpt>
<trkpt lat="36.01287416666667" lon="139.7984913888889">
<ele>6</ele>
</trkpt>
<trkpt lat="36.01291888888889" lon="139.79848638888888">
<ele>6</ele>
</trkpt>
<trkpt lat="36.01296361111111" lon="139.7984813888889">
<ele>6</ele>
</trkpt>
<trkpt lat="36.01300833333333" lon="139.7984763888889">
<ele>6</ele>
</trkpt>
<trkpt lat="36.01305305555555" lon="139.79847138888888">
<ele>6</ele>
</trkpt>
<trkpt lat="36.01309777777778" lon="139.7984663888889">
<ele>6</ele>
</trkpt>
<trkpt lat="36.0131425" lon="139.79846138888888">
<ele>6</ele>
</trkpt>
<trkpt lat="36.01318722222222" lon="139.7984563888889">
<ele>6</ele>
</trkpt>
<trkpt lat="36.01323194444444" lon="139.79845111111112">
<ele>6</ele>
</trkpt>
<trkpt lat="36.01327666666667" lon="139.7984461111111">
<ele>6</ele>
</trkpt>
<trkpt lat="36.01332138888889" lon="139.79844111111112">
<ele>6</ele>
</trkpt>
<trkpt lat="36.01336638888889" lon="139.7984361111111">
<ele>6</ele>
</trkpt>
<trkpt lat="36.01341111111111" lon="139.7984311111111">
<ele>6</ele>
</trkpt>
<trkpt lat="36.01345583333333" lon="139.7984261111111">
<ele>6</ele>
</trkpt>
<trkpt lat="36.01350055555555" lon="139.7984211111111">
<ele>6</ele>
</trkpt>
<trkpt lat="36.01354527777778" lon="139.79841611111112">
<ele>6</ele>
</trkpt>
<trkpt lat="36.01359" lon="139.7984111111111">
<ele>6</ele>
</trkpt>
<trkpt lat="36.01363472222222" lon="139.79840611111112">
<ele>6</ele>
</trkpt>
<trkpt lat="36.01367944444444" lon="139.79840083333335">
<ele>6</ele>
</trkpt>
<trkpt lat="36.01372416666667" lon="139.79839583333333">
<ele>6</ele>
</trkpt>
<trkpt lat="36.013754444444444" lon="139.7983925">
<ele>6</ele>
</trkpt>
<trkpt lat="36.013754444444444" lon="139.7983925">
<ele>6</ele>
</trkpt>
<trkpt lat="36.013823611111114" lon="139.7983847222222">
<ele>6</ele>
</trkpt>
<trkpt lat="36.013893055555556" lon="139.79837694444444">
<ele>6</ele>
</trkpt>
<trkpt lat="36.013962222222226" lon="139.79836916666667">
<ele>6</ele>
</trkpt>
<trkpt lat="36.01403166666667" lon="139.79836138888888">
<ele>6</ele>
</trkpt>
<trkpt lat="36.01410083333333" lon="139.7983536111111">
<ele>6</ele>
</trkpt>
<trkpt lat="36.01417027777778" lon="139.79834583333334">
<ele>6</ele>
</trkpt>
<trkpt lat="36.01423944444444" lon="139.79833805555555">
<ele>6</ele>
</trkpt>
<trkpt lat="36.01430888888889" lon="139.79833055555557">
<ele>6</ele>
</trkpt>
<trkpt lat="36.014378055555554" lon="139.79832277777777">
<ele>6</ele>
</trkpt>
<trkpt lat="36.0144475" lon="139.798315">
<ele>6</ele>
</trkpt>
<trkpt lat="36.014516666666665" lon="139.79830722222223">
<ele>6</ele>
</trkpt>
<trkpt lat="36.014586111111115" lon="139.79829944444444">
<ele>6</ele>
</trkpt>
<trkpt lat="36.01465527777778" lon="139.79829166666667">
<ele>6</ele>
</trkpt>
<trkpt lat="36.01472472222222" lon="139.79828388888888">
<ele>6</ele>
</trkpt>
<trkpt lat="36.01479416666667" lon="139.7982761111111">
<ele>6</ele>
</trkpt>
<trkpt lat="36.01486333333333" lon="139.79826833333334">
<ele>6</ele>
</trkpt>
<trkpt lat="36.01493277777778" lon="139.79826055555554">
<ele>6</ele>
</trkpt>
<trkpt lat="36.01500194444444" lon="139.79825277777778">
<ele>6</ele>
</trkpt>
<trkpt lat="36.01507138888889" lon="139.798245">
<ele>6</ele>
</trkpt>
<trkpt lat="36.015140555555554" lon="139.7982372222222">
<ele>6</ele>
</trkpt>
<trkpt lat="36.01521" lon="139.79822944444444">
<ele>6</ele>
</trkpt>
<trkpt lat="36.015279166666666" lon="139.79822166666668">
<ele>6</ele>
</trkpt>
<trkpt lat="36.01534861111111" lon="139.79821388888888">
<ele>6</ele>
</trkpt>
<trkpt lat="36.01541777777778" lon="139.7982061111111">
<ele>6</ele>
</trkpt>
<trkpt lat="36.01548722222222" lon="139.79819833333335">
<ele>6</ele>
</trkpt>
<trkpt lat="36.01555638888889" lon="139.79819055555555">
<ele>6</ele>
</trkpt>
<trkpt lat="36.01562583333333" lon="139.79818277777778">
<ele>6</ele>
</trkpt>
<trkpt lat="36.015695" lon="139.798175">
<ele>6</ele>
</trkpt>
<trkpt lat="36.01576444444444" lon="139.7981675">
<ele>6</ele>
</trkpt>
<trkpt lat="36.01583361111111" lon="139.7981597222222">
<ele>6</ele>
</trkpt>
<trkpt lat="36.015903055555555" lon="139.79815194444444">
<ele>6</ele>
</trkpt>
<trkpt lat="36.015972222222224" lon="139.79814416666667">
<ele>6</ele>
</trkpt>
<trkpt lat="36.016041666666666" lon="139.79813638888888">
<ele>6</ele>
</trkpt>
<trkpt lat="36.016110833333336" lon="139.7981286111111">
<ele>6</ele>
</trkpt>
<trkpt lat="36.01618027777778" lon="139.79812083333334">
<ele>6</ele>
</trkpt>
<trkpt lat="36.01624944444445" lon="139.79811305555555">
<ele>6</ele>
</trkpt>
<trkpt lat="36.01631888888889" lon="139.79810527777778">
<ele>6</ele>
</trkpt>
<trkpt lat="36.01638805555555" lon="139.7980975">
<ele>6</ele>
</trkpt>
<trkpt lat="36.01638694444444" lon="139.7980861111111">
<ele>7</ele>
</trkpt>
<trkpt lat="36.01636111111111" lon="139.79808888888888">
<ele>7</ele>
</trkpt>
<trkpt lat="36.016418888888886" lon="139.79822694444445">
<ele>7</ele>
</trkpt>
<trkpt lat="36.01661111111111" lon="139.79872694444444">
<ele>7</ele>
</trkpt>
<trkpt lat="36.01687805555556" lon="139.79933888888888">
<ele>7</ele>
</trkpt>
<trkpt lat="36.01692805555555" lon="139.79945194444446">
<ele>7</ele>
</trkpt>
<trkpt lat="36.01736888888889" lon="139.80032694444444">
<ele>7</ele>
</trkpt>
<trkpt lat="36.01776888888889" lon="139.80115111111112">
<ele>7</ele>
</trkpt>
<trkpt lat="36.01802694444444" lon="139.8016638888889">
<ele>7</ele>
</trkpt>
<trkpt lat="36.01841888888889" lon="139.8024511111111">
<ele>7</ele>
</trkpt>
<trkpt lat="36.01848611111111" lon="139.8026011111111">
<ele>7</ele>
</trkpt>
<trkpt lat="36.01869388888889" lon="139.8030388888889">
<ele>7</ele>
</trkpt>
<trkpt lat="36.01881111111111" lon="139.8032761111111">
<ele>7</ele>
</trkpt>
<trkpt lat="36.01888611111111" lon="139.8034011111111">
<ele>7</ele>
</trkpt>
<trkpt lat="36.018926944444445" lon="139.8034888888889">
<ele>7</ele>
</trkpt>
<trkpt lat="36.01926111111111" lon="139.8041638888889">
<ele>7</ele>
</trkpt>
<trkpt lat="36.019353055555555" lon="139.80431388888888">
<ele>7</ele>
</trkpt>
<trkpt lat="36.019753055555555" lon="139.8049388888889">
<ele>7</ele>
</trkpt>
<trkpt lat="36.019978055555555" lon="139.80528805555556">
<ele>7</ele>
</trkpt>
<trkpt lat="36.02016111111111" lon="139.80558805555555">
<ele>7</ele>
</trkpt>
<trkpt lat="36.02064388888889" lon="139.80636305555555">
<ele>7</ele>
</trkpt>
<trkpt lat="36.02081111111111" lon="139.80662611111111">
<ele>7</ele>
</trkpt>
<trkpt lat="36.02094388888889" lon="139.80683805555554">
<ele>7</ele>
</trkpt>
<trkpt lat="36.021101944444446" lon="139.80708805555557">
<ele>7</ele>
</trkpt>
<trkpt lat="36.02115194444445" lon="139.80716305555555">
<ele>7</ele>
</trkpt>
<trkpt lat="36.021276944444445" lon="139.80736305555556">
<ele>7</ele>
</trkpt>
<trkpt lat="36.02140194444444" lon="139.80756305555556">
<ele>7</ele>
</trkpt>
<trkpt lat="36.02176111111111" lon="139.80813805555556">
<ele>8</ele>
</trkpt>
<trkpt lat="36.02276888888889" lon="139.809725">
<ele>8</ele>
</trkpt>
<trkpt lat="36.02366111111111" lon="139.81113805555555">
<ele>8</ele>
</trkpt>
<trkpt lat="36.02400194444444" lon="139.81165">
<ele>8</ele>
</trkpt>
<trkpt lat="36.02403805555556" lon="139.8117038888889">
<ele>8</ele>
</trkpt>
<trkpt lat="36.02403805555556" lon="139.8117038888889">
<ele>8</ele>
</trkpt>
<trkpt lat="36.024051944444444" lon="139.811725">
<ele>8</ele>
</trkpt>
<trkpt lat="36.02416111111111" lon="139.81185">
<ele>8</ele>
</trkpt>
<trkpt lat="36.02426888888889" lon="139.81191305555555">
<ele>9</ele>
</trkpt>
<trkpt lat="36.02523611111111" lon="139.81218694444445">
<ele>9</ele>
</trkpt>
<trkpt lat="36.02531888888889" lon="139.81221194444444">
<ele>9</ele>
</trkpt>
<trkpt lat="36.025776944444445" lon="139.81235">
<ele>9</ele>
</trkpt>
<trkpt lat="36.026268888888886" lon="139.812525">
<ele>9</ele>
</trkpt>
<trkpt lat="36.02681888888889" lon="139.81271194444443">
<ele>9</ele>
</trkpt>
<trkpt lat="36.02697694444444" lon="139.81273694444445">
<ele>9</ele>
</trkpt>
<trkpt lat="36.02701388888889" lon="139.81274194444444">
<ele>9</ele>
</trkpt>
<trkpt lat="36.02701388888889" lon="139.81274194444444">
<ele>9</ele>
</trkpt>
<trkpt lat="36.02769388888889" lon="139.812825">
<ele>10</ele>
</trkpt>
<trkpt lat="36.028601944444446" lon="139.812925">
<ele>10</ele>
</trkpt>
<trkpt lat="36.029426944444445" lon="139.81301194444444">
<ele>10</ele>
</trkpt>
<trkpt lat="36.02952694444444" lon="139.8130238888889">
<ele>10</ele>
</trkpt>
<trkpt lat="36.02999305555556" lon="139.81308694444445">
<ele>10</ele>
</trkpt>
<trkpt lat="36.03055194444445" lon="139.81316194444443">
<ele>10</ele>
</trkpt>
<trkpt lat="36.03077805555556" lon="139.81319805555555">
<ele>10</ele>
</trkpt>
<trkpt lat="36.03077805555556" lon="139.81319805555555">
<ele>10</ele>
</trkpt>
<trkpt lat="36.03082277777778" lon="139.81320472222222">
<ele>10</ele>
</trkpt>
<trkpt lat="36.03086722222222" lon="139.8132113888889">
<ele>10</ele>
</trkpt>
<trkpt lat="36.03091194444445" lon="139.81321805555555">
<ele>10</ele>
</trkpt>
<trkpt lat="36.03095638888889" lon="139.81322472222223">
<ele>10</ele>
</trkpt>
<trkpt lat="36.03100111111111" lon="139.81323138888888">
<ele>10</ele>
</trkpt>
<trkpt lat="36.03104555555556" lon="139.81323833333335">
<ele>10</ele>
</trkpt>
<trkpt lat="36.03109027777778" lon="139.813245">
<ele>10</ele>
</trkpt>
<trkpt lat="36.03113472222222" lon="139.81325166666667">
<ele>10</ele>
</trkpt>
<trkpt lat="36.03117944444445" lon="139.81325833333332">
<ele>10</ele>
</trkpt>
<trkpt lat="36.03122388888889" lon="139.813265">
<ele>10</ele>
</trkpt>
<trkpt lat="36.03126861111111" lon="139.81327166666668">
<ele>10</ele>
</trkpt>
<trkpt lat="36.03131305555556" lon="139.81327833333333">
<ele>10</ele>
</trkpt>
<trkpt lat="36.03135777777778" lon="139.813285">
<ele>10</ele>
</trkpt>
<trkpt lat="36.03140222222222" lon="139.81329166666666">
<ele>10</ele>
</trkpt>
<trkpt lat="36.03144694444445" lon="139.81329833333334">
<ele>10</ele>
</trkpt>
<trkpt lat="36.03149138888889" lon="139.813305">
<ele>10</ele>
</trkpt>
<trkpt lat="36.03153611111111" lon="139.81331194444445">
<ele>10</ele>
</trkpt>
<trkpt lat="36.03158055555556" lon="139.8133186111111">
<ele>10</ele>
</trkpt>
<trkpt lat="36.03162527777778" lon="139.81332527777778">
<ele>10</ele>
</trkpt>
<trkpt lat="36.03166972222222" lon="139.81333194444446">
<ele>10</ele>
</trkpt>
<trkpt lat="36.03171444444445" lon="139.8133386111111">
<ele>10</ele>
</trkpt>
<trkpt lat="36.03175888888889" lon="139.81334527777778">
<ele>10</ele>
</trkpt>
<trkpt lat="36.03180361111111" lon="139.81335194444443">
<ele>10</ele>
</trkpt>
<trkpt lat="36.03184805555556" lon="139.8133586111111">
<ele>10</ele>
</trkpt>
<trkpt lat="36.03189277777778" lon="139.8133652777778">
<ele>10</ele>
</trkpt>
<trkpt lat="36.031937222222226" lon="139.81337194444444">
<ele>10</ele>
</trkpt>
<trkpt lat="36.031981944444446" lon="139.81337861111112">
<ele>10</ele>
</trkpt>
<trkpt lat="36.03202666666667" lon="139.81338555555556">
<ele>10</ele>
</trkpt>
<trkpt lat="36.03207111111111" lon="139.81339222222223">
<ele>10</ele>
</trkpt>
<trkpt lat="36.032115833333336" lon="139.81339888888888">
<ele>10</ele>
</trkpt>
<trkpt lat="36.03216027777778" lon="139.81340555555556">
<ele>10</ele>
</trkpt>
<trkpt lat="36.032205" lon="139.8134122222222">
<ele>10</ele>
</trkpt>
<trkpt lat="36.032249166666666" lon="139.8134188888889">
<ele>10</ele>
</trkpt>
<trkpt lat="36.032249166666666" lon="139.8134188888889">
<ele>10</ele>
</trkpt>
<trkpt lat="36.03226194444444" lon="139.81336555555555">
<ele>10</ele>
</trkpt>
<trkpt lat="36.032275" lon="139.8133125">
<ele>10</ele>
</trkpt>
<trkpt lat="36.032288055555554" lon="139.81325944444444">
<ele>10</ele>
</trkpt>
<trkpt lat="36.03230111111111" lon="139.8132061111111">
<ele>10</ele>
</trkpt>
<trkpt lat="36.032313888888886" lon="139.81315305555555">
<ele>10</ele>
</trkpt>
<trkpt lat="36.03232694444444" lon="139.81309972222223">
<ele>9</ele>
</trkpt>
<trkpt lat="36.03234" lon="139.81304666666668">
<ele>9</ele>
</trkpt>
<trkpt lat="36.032353055555554" lon="139.81299361111112">
<ele>9</ele>
</trkpt>
<trkpt lat="36.032361944444446" lon="139.8129575">
<ele>9</ele>
</trkpt>
<trkpt lat="36.032361944444446" lon="139.8129575">
<ele>9</ele>
</trkpt>
<trkpt lat="36.03235361111111" lon="139.81301222222223">
<ele>9</ele>
</trkpt>
<trkpt lat="36.03234555555556" lon="139.81306666666666">
<ele>9</ele>
</trkpt>
<trkpt lat="36.0323375" lon="139.8131213888889">
<ele>10</ele>
</trkpt>
<trkpt lat="36.03232944444444" lon="139.81317611111112">
<ele>10</ele>
</trkpt>
<trkpt lat="36.03232111111111" lon="139.81323055555555">
<ele>10</ele>
</trkpt>
<trkpt lat="36.032313055555555" lon="139.81328527777777">
<ele>10</ele>
</trkpt>
<trkpt lat="36.032305" lon="139.81334">
<ele>10</ele>
</trkpt>
<trkpt lat="36.03229694444445" lon="139.81339444444444">
<ele>10</ele>
</trkpt>
<trkpt lat="36.032293333333335" lon="139.81341833333335">
<ele>10</ele>
</trkpt>
<trkpt lat="36.03229388888889" lon="139.81341">
<ele>10</ele>
</trkpt>
<trkpt lat="36.03219305555555" lon="139.81339888888888">
<ele>10</ele>
</trkpt>
<trkpt lat="36.03125194444444" lon="139.8132738888889">
<ele>10</ele>
</trkpt>
<trkpt lat="36.03055194444445" lon="139.81316194444443">
<ele>10</ele>
</trkpt>
<trkpt lat="36.02999305555556" lon="139.81308694444445">
<ele>10</ele>
</trkpt>
<trkpt lat="36.02952694444444" lon="139.8130238888889">
<ele>10</ele>
</trkpt>
<trkpt lat="36.029426944444445" lon="139.81301194444444">
<ele>10</ele>
</trkpt>
<trkpt lat="36.028601944444446" lon="139.812925">
<ele>10</ele>
</trkpt>
<trkpt lat="36.02861305555555" lon="139.81303">
<ele>10</ele>
</trkpt>
<trkpt lat="36.02861305555555" lon="139.81303">
<ele>10</ele>
</trkpt>
<trkpt lat="36.028601944444446" lon="139.812925">
<ele>10</ele>
</trkpt>
<trkpt lat="36.02769388888889" lon="139.812825">
<ele>10</ele>
</trkpt>
<trkpt lat="36.02697694444444" lon="139.81273694444445">
<ele>9</ele>
</trkpt>
<trkpt lat="36.02681888888889" lon="139.81271194444443">
<ele>9</ele>
</trkpt>
<trkpt lat="36.026268888888886" lon="139.812525">
<ele>9</ele>
</trkpt>
<trkpt lat="36.025776944444445" lon="139.81235">
<ele>9</ele>
</trkpt>
<trkpt lat="36.02531888888889" lon="139.81221194444444">
<ele>9</ele>
</trkpt>
<trkpt lat="36.02523611111111" lon="139.81218694444445">
<ele>9</ele>
</trkpt>
<trkpt lat="36.02426888888889" lon="139.81191305555555">
<ele>9</ele>
</trkpt>
<trkpt lat="36.02416111111111" lon="139.81185">
<ele>8</ele>
</trkpt>
<trkpt lat="36.02396888888889" lon="139.8119">
<ele>9</ele>
</trkpt>
<trkpt lat="36.023695" lon="139.8119338888889">
<ele>9</ele>
</trkpt>
<trkpt lat="36.023695" lon="139.8119338888889">
<ele>9</ele>
</trkpt>
<trkpt lat="36.02346111111111" lon="139.81196194444445">
<ele>9</ele>
</trkpt>
<trkpt lat="36.02268611111111" lon="139.81205">
<ele>9</ele>
</trkpt>
<trkpt lat="36.02256888888889" lon="139.81208694444445">
<ele>9</ele>
</trkpt>
<trkpt lat="36.02234388888889" lon="139.81221194444444">
<ele>9</ele>
</trkpt>
<trkpt lat="36.02205305555555" lon="139.81233694444444">
<ele>8</ele>
</trkpt>
<trkpt lat="36.021676944444444" lon="139.81241194444445">
<ele>8</ele>
</trkpt>
<trkpt lat="36.02126694444444" lon="139.8125061111111">
<ele>8</ele>
</trkpt>
<trkpt lat="36.02126694444444" lon="139.8125061111111">
<ele>8</ele>
</trkpt>
<trkpt lat="36.01981888888889" lon="139.81283805555555">
<ele>8</ele>
</trkpt>
<trkpt lat="36.01807" lon="139.81321194444445">
<ele>8</ele>
</trkpt>
<trkpt lat="36.01687" lon="139.81341194444445">
<ele>8</ele>
</trkpt>
<trkpt lat="36.01532" lon="139.813675">
<ele>8</ele>
</trkpt>
<trkpt lat="36.01341194444444" lon="139.814">
<ele>8</ele>
</trkpt>
<trkpt lat="36.011745" lon="139.81428805555555">
<ele>8</ele>
</trkpt>
<trkpt lat="36.01052888888889" lon="139.81448694444444">
<ele>8</ele>
</trkpt>
<trkpt lat="36.00958305555555" lon="139.8146238888889">
<ele>8</ele>
</trkpt>
<trkpt lat="36.00958305555555" lon="139.8146238888889">
<ele>8</ele>
</trkpt>
<trkpt lat="36.00906194444445" lon="139.8147">
<ele>8</ele>
</trkpt>
<trkpt lat="36.00777111111111" lon="139.81488694444445">
<ele>7</ele>
</trkpt>
<trkpt lat="36.00691194444445" lon="139.814975">
<ele>7</ele>
</trkpt>
<trkpt lat="36.00622888888889" lon="139.815025">
<ele>7</ele>
</trkpt>
<trkpt lat="36.00559611111111" lon="139.81503805555556">
<ele>7</ele>
</trkpt>
<trkpt lat="36.004846111111114" lon="139.815025">
<ele>8</ele>
</trkpt>
<trkpt lat="36.00417111111111" lon="139.81493805555556">
<ele>8</ele>
</trkpt>
<trkpt lat="36.00359611111111" lon="139.81483805555555">
<ele>8</ele>
</trkpt>
<trkpt lat="36.00336305555555" lon="139.81473805555555">
<ele>8</ele>
</trkpt>
<trkpt lat="36.00319611111111" lon="139.8147">
<ele>8</ele>
</trkpt>
<trkpt lat="36.00304611111111" lon="139.81466305555554">
<ele>8</ele>
</trkpt>
<trkpt lat="36.00271305555555" lon="139.814575">
<ele>8</ele>
</trkpt>
<trkpt lat="36.00217111111111" lon="139.81438805555555">
<ele>8</ele>
</trkpt>
<trkpt lat="35.999905" lon="139.81336305555556">
<ele>7</ele>
</trkpt>
<trkpt lat="35.999271944444445" lon="139.81311305555556">
<ele>7</ele>
</trkpt>
<trkpt lat="35.99894694444444" lon="139.8130011111111">
<ele>7</ele>
</trkpt>
<trkpt lat="35.998255" lon="139.81283805555555">
<ele>8</ele>
</trkpt>
<trkpt lat="35.998275" lon="139.812705">
<ele>8</ele>
</trkpt>
<trkpt lat="35.998275" lon="139.812705">
<ele>8</ele>
</trkpt>
<trkpt lat="35.99832194444444" lon="139.81240111111111">
<ele>8</ele>
</trkpt>
<trkpt lat="35.998446944444446" lon="139.81161305555557">
<ele>7</ele>
</trkpt>
<trkpt lat="35.998446944444446" lon="139.81147611111112">
<ele>7</ele>
</trkpt>
<trkpt lat="35.998405" lon="139.8113261111111">
<ele>7</ele>
</trkpt>
<trkpt lat="35.99834694444444" lon="139.81118805555556">
<ele>7</ele>
</trkpt>
<trkpt lat="35.998246944444446" lon="139.81108805555556">
<ele>7</ele>
</trkpt>
<trkpt lat="35.99763" lon="139.81056305555555">
<ele>7</ele>
</trkpt>
<trkpt lat="35.99736305555555" lon="139.81035111111112">
<ele>7</ele>
</trkpt>
<trkpt lat="35.996813055555556" lon="139.8100511111111">
<ele>7</ele>
</trkpt>
<trkpt lat="35.99653" lon="139.80987611111112">
<ele>6</ele>
</trkpt>
<trkpt lat="35.99553" lon="139.8093388888889">
<ele>6</ele>
</trkpt>
<trkpt lat="35.99552194444444" lon="139.8093338888889">
<ele>6</ele>
</trkpt>
<trkpt lat="35.99552194444444" lon="139.8093338888889">
<ele>6</ele>
</trkpt>
<trkpt lat="35.99546388888889" lon="139.80930111111113">
<ele>6</ele>
</trkpt>
<trkpt lat="35.995421944444445" lon="139.8092638888889">
<ele>6</ele>
</trkpt>
<trkpt lat="35.995405" lon="139.80921388888888">
<ele>6</ele>
</trkpt>
<trkpt lat="35.99541388888889" lon="139.8091388888889">
<ele>6</ele>
</trkpt>
<trkpt lat="35.99543" lon="139.80908888888888">
<ele>6</ele>
</trkpt>
<trkpt lat="35.99559694444444" lon="139.80851388888888">
<ele>6</ele>
</trkpt>
<trkpt lat="35.99558888888889" lon="139.8084388888889">
<ele>6</ele>
</trkpt>
<trkpt lat="35.99557194444444" lon="139.8083638888889">
<ele>6</ele>
</trkpt>
<trkpt lat="35.99523888888889" lon="139.8079888888889">
<ele>6</ele>
</trkpt>
<trkpt lat="35.994396944444446" lon="139.80707611111112">
<ele>6</ele>
</trkpt>
<trkpt lat="35.99358888888889" lon="139.8061888888889">
<ele>6</ele>
</trkpt>
<trkpt lat="35.99348" lon="139.8060638888889">
<ele>6</ele>
</trkpt>
<trkpt lat="35.99341388888889" lon="139.8059638888889">
<ele>6</ele>
</trkpt>
<trkpt lat="35.99336388888889" lon="139.8058638888889">
<ele>6</ele>
</trkpt>
<trkpt lat="35.99323888888889" lon="139.8055011111111">
<ele>6</ele>
</trkpt>
<trkpt lat="35.993155" lon="139.80522611111112">
<ele>6</ele>
</trkpt>
<trkpt lat="35.99313" lon="139.8049761111111">
<ele>6</ele>
</trkpt>
<trkpt lat="35.99308" lon="139.8048388888889">
<ele>6</ele>
</trkpt>
<trkpt lat="35.992846944444445" lon="139.80480111111112">
<ele>6</ele>
</trkpt>
<trkpt lat="35.99253" lon="139.8047388888889">
<ele>6</ele>
</trkpt>
<trkpt lat="35.99243194444445" lon="139.80468888888888">
<ele>6</ele>
</trkpt>
<trkpt lat="35.99243194444445" lon="139.80468888888888">
<ele>6</ele>
</trkpt>
<trkpt lat="35.99238111111111" lon="139.80466388888888">
<ele>6</ele>
</trkpt>
<trkpt lat="35.992421944444445" lon="139.80392694444444">
<ele>6</ele>
</trkpt>
<trkpt lat="35.992471944444446" lon="139.8026638888889">
<ele>6</ele>
</trkpt>
<trkpt lat="35.99258" lon="139.80032694444444">
<ele>6</ele>
</trkpt>
<trkpt lat="35.99261388888889" lon="139.79968888888888">
<ele>6</ele>
</trkpt>
<trkpt lat="35.992671944444446" lon="139.79867694444445">
<ele>6</ele>
</trkpt>
<trkpt lat="35.99272194444445" lon="139.79797694444446">
<ele>6</ele>
</trkpt>
<trkpt lat="35.99273" lon="139.79790194444445">
<ele>6</ele>
</trkpt>
<trkpt lat="35.99278" lon="139.79725194444444">
<ele>6</ele>
</trkpt>
<trkpt lat="35.99278888888889" lon="139.79710194444445">
<ele>6</ele>
</trkpt>
<trkpt lat="35.99279694444444" lon="139.79649">
<ele>6</ele>
</trkpt>
<trkpt lat="35.99278888888889" lon="139.79625194444444">
<ele>6</ele>
</trkpt>
<trkpt lat="35.992755" lon="139.795915">
<ele>6</ele>
</trkpt>
<trkpt lat="35.992671944444446" lon="139.79540194444445">
<ele>6</ele>
</trkpt>
<trkpt lat="35.99263" lon="139.795115">
<ele>6</ele>
</trkpt>
<trkpt lat="35.99261388888889" lon="139.795015">
<ele>6</ele>
</trkpt>
<trkpt lat="35.99248" lon="139.79417694444444">
<ele>6</ele>
</trkpt>
<trkpt lat="35.992455" lon="139.79397805555556">
<ele>6</ele>
</trkpt>
<trkpt lat="35.992421944444445" lon="139.793765">
<ele>6</ele>
</trkpt>
<trkpt lat="35.992405" lon="139.79369">
<ele>6</ele>
</trkpt>
<trkpt lat="35.99238" lon="139.79354">
<ele>6</ele>
</trkpt>
<trkpt lat="35.992351944444444" lon="139.7933588888889">
<ele>6</ele>
</trkpt>
<trkpt lat="35.992351944444444" lon="139.7933588888889">
<ele>6</ele>
</trkpt>
<trkpt lat="35.99238" lon="139.79354">
<ele>6</ele>
</trkpt>
<trkpt lat="35.992846944444445" lon="139.793565">
<ele>6</ele>
</trkpt>
<trkpt lat="35.99333" lon="139.793615">
<ele>6</ele>
</trkpt>
<trkpt lat="35.99398" lon="139.79369">
<ele>6</ele>
</trkpt>
<trkpt lat="35.994438055555555" lon="139.79375305555556">
<ele>6</ele>
</trkpt>
<trkpt lat="35.99467194444444" lon="139.79377805555555">
<ele>6</ele>
</trkpt>
<trkpt lat="35.99489694444444" lon="139.79379">
<ele>6</ele>
</trkpt>
<trkpt lat="35.99516305555556" lon="139.79377805555555">
<ele>6</ele>
</trkpt>
<trkpt lat="35.99538805555556" lon="139.79375305555556">
<ele>7</ele>
</trkpt>
<trkpt lat="35.995605" lon="139.793715">
<ele>7</ele>
</trkpt>
<trkpt lat="35.996105" lon="139.793615">
<ele>7</ele>
</trkpt>
<trkpt lat="35.99632111111111" lon="139.79355305555555">
<ele>7</ele>
</trkpt>
<trkpt lat="35.996538055555554" lon="139.79349">
<ele>7</ele>
</trkpt>
<trkpt lat="35.997013055555556" lon="139.79332805555555">
<ele>7</ele>
</trkpt>
<trkpt lat="35.997455" lon="139.79320305555555">
<ele>7</ele>
</trkpt>
<trkpt lat="35.99789611111111" lon="139.793065">
<ele>7</ele>
</trkpt>
<trkpt lat="35.99809611111111" lon="139.79300305555554">
<ele>8</ele>
</trkpt>
<trkpt lat="35.99808888888889" lon="139.79305805555555">
<ele>8</ele>
</trkpt>
<trkpt lat="35.99808888888889" lon="139.79305805555555">
<ele>8</ele>
</trkpt>
<trkpt lat="35.99807111111111" lon="139.79319">
<ele>8</ele>
</trkpt>
<trkpt lat="35.998063055555555" lon="139.79330194444444">
<ele>7</ele>
</trkpt>
<trkpt lat="35.998018055555555" lon="139.79405111111112">
<ele>7</ele>
</trkpt>
    </trkseg>
  </trk>
</gpx>