<?xml version="1.0" encoding="UTF-8"?>
<gpx version="1.1"
     creator="KMLtoGPX"
     xmlns="http://www.topografix.com/GPX/1/1">
  <metadata>
    <name>35 Kawagoe and Koedo Historical Tour Route</name>
    <desc>35 川越・小江戸の歴史めぐりルート</desc>
    <bounds minlat="35.90532944444445" minlon="139.47725" maxlat="35.930425" maxlon="139.49436888888889"/>
  </metadata>
  <trk>
    <name>35 Kawagoe and Koedo Historical Tour Route</name>
    <trkseg>
<trkpt lat="35.92605388888889" lon="139.493295">
<ele>11</ele>
</trkpt>
<trkpt lat="35.92607611111111" lon="139.49328111111112">
<ele>11</ele>
</trkpt>
<trkpt lat="35.92600111111111" lon="139.49311805555556">
<ele>11</ele>
</trkpt>
<trkpt lat="35.925958888888886" lon="139.49301805555555">
<ele>11</ele>
</trkpt>
<trkpt lat="35.925891944444444" lon="139.49286805555556">
<ele>12</ele>
</trkpt>
<trkpt lat="35.92573388888889" lon="139.4925311111111">
<ele>14</ele>
</trkpt>
<trkpt lat="35.92560888888889" lon="139.49225611111112">
<ele>16</ele>
</trkpt>
<trkpt lat="35.925533888888886" lon="139.49200611111112">
<ele>15</ele>
</trkpt>
<trkpt lat="35.92540888888889" lon="139.49145611111112">
<ele>16</ele>
</trkpt>
<trkpt lat="35.92537611111111" lon="139.49146305555556">
<ele>15</ele>
</trkpt>
<trkpt lat="35.92537611111111" lon="139.49146305555556">
<ele>15</ele>
</trkpt>
<trkpt lat="35.92480888888889" lon="139.4915938888889">
<ele>15</ele>
</trkpt>
<trkpt lat="35.92473888888889" lon="139.491625">
<ele>15</ele>
</trkpt>
<trkpt lat="35.92473888888889" lon="139.491625">
<ele>15</ele>
</trkpt>
<trkpt lat="35.92458388888889" lon="139.49169388888888">
<ele>15</ele>
</trkpt>
<trkpt lat="35.92413388888889" lon="139.4918311111111">
<ele>16</ele>
</trkpt>
<trkpt lat="35.923935" lon="139.49186694444444">
<ele>17</ele>
</trkpt>
<trkpt lat="35.923935" lon="139.49186694444444">
<ele>17</ele>
</trkpt>
<trkpt lat="35.92344305555556" lon="139.4919561111111">
<ele>18</ele>
</trkpt>
<trkpt lat="35.92326805555555" lon="139.49199388888889">
<ele>17</ele>
</trkpt>
<trkpt lat="35.92319194444445" lon="139.49201888888888">
<ele>16</ele>
</trkpt>
<trkpt lat="35.92301805555555" lon="139.49201888888888">
<ele>15</ele>
</trkpt>
<trkpt lat="35.92287611111111" lon="139.49200611111112">
<ele>14</ele>
</trkpt>
<trkpt lat="35.92278388888889" lon="139.49200611111112">
<ele>14</ele>
</trkpt>
<trkpt lat="35.92272611111111" lon="139.49199388888889">
<ele>14</ele>
</trkpt>
<trkpt lat="35.922691944444445" lon="139.4919811111111">
<ele>14</ele>
</trkpt>
<trkpt lat="35.92242611111111" lon="139.49203111111112">
<ele>13</ele>
</trkpt>
<trkpt lat="35.92241805555555" lon="139.4919811111111">
<ele>13</ele>
</trkpt>
<trkpt lat="35.92214194444445" lon="139.49201694444446">
<ele>13</ele>
</trkpt>
<trkpt lat="35.92214194444445" lon="139.49201694444446">
<ele>13</ele>
</trkpt>
<trkpt lat="35.92203388888889" lon="139.49203111111112">
<ele>13</ele>
</trkpt>
<trkpt lat="35.922018055555554" lon="139.49234388888888">
<ele>13</ele>
</trkpt>
<trkpt lat="35.922" lon="139.49242194444443">
<ele>12</ele>
</trkpt>
<trkpt lat="35.922" lon="139.49242194444443">
<ele>12</ele>
</trkpt>
<trkpt lat="35.92193388888889" lon="139.49270611111112">
<ele>12</ele>
</trkpt>
<trkpt lat="35.921883888888885" lon="139.4929561111111">
<ele>12</ele>
</trkpt>
<trkpt lat="35.92187194444445" lon="139.49302111111112">
<ele>12</ele>
</trkpt>
<trkpt lat="35.92187194444445" lon="139.49302111111112">
<ele>12</ele>
</trkpt>
<trkpt lat="35.92185888888889" lon="139.4930938888889">
<ele>12</ele>
</trkpt>
<trkpt lat="35.92187611111111" lon="139.4931688888889">
<ele>12</ele>
</trkpt>
<trkpt lat="35.92186805555556" lon="139.4932938888889">
<ele>12</ele>
</trkpt>
<trkpt lat="35.92184388888889" lon="139.49375388888888">
<ele>12</ele>
</trkpt>
<trkpt lat="35.92184388888889" lon="139.49375388888888">
<ele>12</ele>
</trkpt>
<trkpt lat="35.921843055555556" lon="139.4937811111111">
<ele>12</ele>
</trkpt>
<trkpt lat="35.92176805555555" lon="139.4937561111111">
<ele>13</ele>
</trkpt>
<trkpt lat="35.92160111111111" lon="139.49371888888888">
<ele>13</ele>
</trkpt>
<trkpt lat="35.92140888888889" lon="139.49369388888888">
<ele>13</ele>
</trkpt>
<trkpt lat="35.92142111111111" lon="139.4936561111111">
<ele>13</ele>
</trkpt>
<trkpt lat="35.92142111111111" lon="139.4936561111111">
<ele>13</ele>
</trkpt>
<trkpt lat="35.92140888888889" lon="139.49369388888888">
<ele>13</ele>
</trkpt>
<trkpt lat="35.92124305555556" lon="139.4934438888889">
<ele>13</ele>
</trkpt>
<trkpt lat="35.92120888888889" lon="139.49338111111112">
<ele>13</ele>
</trkpt>
<trkpt lat="35.921196944444446" lon="139.49333305555555">
<ele>13</ele>
</trkpt>
<trkpt lat="35.921196944444446" lon="139.49333305555555">
<ele>13</ele>
</trkpt>
<trkpt lat="35.92108388888889" lon="139.4928938888889">
<ele>14</ele>
</trkpt>
<trkpt lat="35.92085111111111" lon="139.49221888888889">
<ele>14</ele>
</trkpt>
<trkpt lat="35.920793055555556" lon="139.4920561111111">
<ele>14</ele>
</trkpt>
<trkpt lat="35.920608888888886" lon="139.49156888888888">
<ele>14</ele>
</trkpt>
<trkpt lat="35.920568055555556" lon="139.49144388888888">
<ele>14</ele>
</trkpt>
<trkpt lat="35.92043388888889" lon="139.49110611111112">
<ele>14</ele>
</trkpt>
<trkpt lat="35.92022611111111" lon="139.49064388888888">
<ele>14</ele>
</trkpt>
<trkpt lat="35.92010888888889" lon="139.4903438888889">
<ele>14</ele>
</trkpt>
<trkpt lat="35.92011388888889" lon="139.4902338888889">
<ele>14</ele>
</trkpt>
<trkpt lat="35.92011388888889" lon="139.4902338888889">
<ele>14</ele>
</trkpt>
<trkpt lat="35.92010888888889" lon="139.4903438888889">
<ele>14</ele>
</trkpt>
<trkpt lat="35.91996805555556" lon="139.49008111111112">
<ele>14</ele>
</trkpt>
<trkpt lat="35.91992611111111" lon="139.4900438888889">
<ele>14</ele>
</trkpt>
<trkpt lat="35.919868055555554" lon="139.4899061111111">
<ele>14</ele>
</trkpt>
<trkpt lat="35.91973388888889" lon="139.48961888888888">
<ele>14</ele>
</trkpt>
<trkpt lat="35.91965111111111" lon="139.48954388888887">
<ele>14</ele>
</trkpt>
<trkpt lat="35.91964388888889" lon="139.48948388888888">
<ele>14</ele>
</trkpt>
<trkpt lat="35.91964388888889" lon="139.48948388888888">
<ele>14</ele>
</trkpt>
<trkpt lat="35.91961805555555" lon="139.4892811111111">
<ele>14</ele>
</trkpt>
<trkpt lat="35.91961111111111" lon="139.4892188888889">
<ele>14</ele>
</trkpt>
<trkpt lat="35.91961194444445" lon="139.4892188888889">
<ele>14</ele>
</trkpt>
<trkpt lat="35.91961805555555" lon="139.4892811111111">
<ele>14</ele>
</trkpt>
<trkpt lat="35.91951805555556" lon="139.4892811111111">
<ele>14</ele>
</trkpt>
<trkpt lat="35.91934305555556" lon="139.4893311111111">
<ele>14</ele>
</trkpt>
<trkpt lat="35.91914305555556" lon="139.48940611111112">
<ele>14</ele>
</trkpt>
<trkpt lat="35.91867611111111" lon="139.48943111111112">
<ele>14</ele>
</trkpt>
<trkpt lat="35.91824305555556" lon="139.489455">
<ele>15</ele>
</trkpt>
<trkpt lat="35.91824305555556" lon="139.489455">
<ele>15</ele>
</trkpt>
<trkpt lat="35.918218055555556" lon="139.4894561111111">
<ele>15</ele>
</trkpt>
<trkpt lat="35.91828111111111" lon="139.48995305555556">
<ele>15</ele>
</trkpt>
<trkpt lat="35.91828111111111" lon="139.48995305555556">
<ele>15</ele>
</trkpt>
<trkpt lat="35.918326111111114" lon="139.49031888888888">
<ele>14</ele>
</trkpt>
<trkpt lat="35.917985" lon="139.4904061111111">
<ele>14</ele>
</trkpt>
<trkpt lat="35.91786805555556" lon="139.4904938888889">
<ele>14</ele>
</trkpt>
<trkpt lat="35.91782611111111" lon="139.4901811111111">
<ele>15</ele>
</trkpt>
<trkpt lat="35.91740194444444" lon="139.49023111111111">
<ele>15</ele>
</trkpt>
<trkpt lat="35.917375" lon="139.49023694444443">
<ele>15</ele>
</trkpt>
<trkpt lat="35.917375" lon="139.49023694444443">
<ele>15</ele>
</trkpt>
<trkpt lat="35.917343055555556" lon="139.4902438888889">
<ele>15</ele>
</trkpt>
<trkpt lat="35.91740194444444" lon="139.4906188888889">
<ele>15</ele>
</trkpt>
<trkpt lat="35.91739194444445" lon="139.49062111111112">
<ele>15</ele>
</trkpt>
<trkpt lat="35.91739194444445" lon="139.49062111111112">
<ele>15</ele>
</trkpt>
<trkpt lat="35.916668055555554" lon="139.4907938888889">
<ele>15</ele>
</trkpt>
<trkpt lat="35.916635" lon="139.4907938888889">
<ele>16</ele>
</trkpt>
<trkpt lat="35.916576944444444" lon="139.4908061111111">
<ele>16</ele>
</trkpt>
<trkpt lat="35.91635194444444" lon="139.4908561111111">
<ele>16</ele>
</trkpt>
<trkpt lat="35.916135" lon="139.49090611111112">
<ele>16</ele>
</trkpt>
<trkpt lat="35.915801944444446" lon="139.49098111111113">
<ele>16</ele>
</trkpt>
<trkpt lat="35.915435" lon="139.4910688888889">
<ele>17</ele>
</trkpt>
<trkpt lat="35.914701944444445" lon="139.49121888888888">
<ele>17</ele>
</trkpt>
<trkpt lat="35.914543888888886" lon="139.4912438888889">
<ele>17</ele>
</trkpt>
<trkpt lat="35.914385" lon="139.4912561111111">
<ele>17</ele>
</trkpt>
<trkpt lat="35.914383055555554" lon="139.49123194444445">
<ele>17</ele>
</trkpt>
<trkpt lat="35.914383055555554" lon="139.49123194444445">
<ele>17</ele>
</trkpt>
<trkpt lat="35.914385" lon="139.4912561111111">
<ele>17</ele>
</trkpt>
<trkpt lat="35.91367694444445" lon="139.4912811111111">
<ele>18</ele>
</trkpt>
<trkpt lat="35.91289388888889" lon="139.49131888888888">
<ele>19</ele>
</trkpt>
<trkpt lat="35.912301944444444" lon="139.49135694444445">
<ele>19</ele>
</trkpt>
<trkpt lat="35.91171888888889" lon="139.49138194444444">
<ele>19</ele>
</trkpt>
<trkpt lat="35.911228055555554" lon="139.4913938888889">
<ele>20</ele>
</trkpt>
<trkpt lat="35.91120194444444" lon="139.491355">
<ele>20</ele>
</trkpt>
<trkpt lat="35.91120111111111" lon="139.491355">
<ele>20</ele>
</trkpt>
<trkpt lat="35.911228055555554" lon="139.4913938888889">
<ele>20</ele>
</trkpt>
<trkpt lat="35.91090194444445" lon="139.49140694444444">
<ele>20</ele>
</trkpt>
<trkpt lat="35.91051888888889" lon="139.4914188888889">
<ele>19</ele>
</trkpt>
<trkpt lat="35.91029388888889" lon="139.49143194444446">
<ele>19</ele>
</trkpt>
<trkpt lat="35.909551944444445" lon="139.4915188888889">
<ele>18</ele>
</trkpt>
<trkpt lat="35.90941111111111" lon="139.49153194444443">
<ele>18</ele>
</trkpt>
<trkpt lat="35.90906888888889" lon="139.49155694444445">
<ele>18</ele>
</trkpt>
<trkpt lat="35.90844388888889" lon="139.49160694444444">
<ele>17</ele>
</trkpt>
<trkpt lat="35.90839694444445" lon="139.49161388888888">
<ele>17</ele>
</trkpt>
<trkpt lat="35.90839694444445" lon="139.49161388888888">
<ele>17</ele>
</trkpt>
<trkpt lat="35.90844388888889" lon="139.49160694444444">
<ele>17</ele>
</trkpt>
<trkpt lat="35.90856111111111" lon="139.49213194444445">
<ele>16</ele>
</trkpt>
<trkpt lat="35.90856111111111" lon="139.49225694444445">
<ele>16</ele>
</trkpt>
<trkpt lat="35.90851888888889" lon="139.4924438888889">
<ele>16</ele>
</trkpt>
<trkpt lat="35.90853694444444" lon="139.49245305555556">
<ele>16</ele>
</trkpt>
<trkpt lat="35.90853694444444" lon="139.49245305555556">
<ele>16</ele>
</trkpt>
<trkpt lat="35.90851888888889" lon="139.4924438888889">
<ele>16</ele>
</trkpt>
<trkpt lat="35.908428055555554" lon="139.49259388888888">
<ele>15</ele>
</trkpt>
<trkpt lat="35.90829388888889" lon="139.4927438888889">
<ele>15</ele>
</trkpt>
<trkpt lat="35.90792805555556" lon="139.49304388888888">
<ele>15</ele>
</trkpt>
<trkpt lat="35.90781888888889" lon="139.49318194444444">
<ele>15</ele>
</trkpt>
<trkpt lat="35.90773611111111" lon="139.4933188888889">
<ele>14</ele>
</trkpt>
<trkpt lat="35.90753611111111" lon="139.49360611111112">
<ele>14</ele>
</trkpt>
<trkpt lat="35.90747805555556" lon="139.4937561111111">
<ele>14</ele>
</trkpt>
<trkpt lat="35.90747805555556" lon="139.4938811111111">
<ele>14</ele>
</trkpt>
<trkpt lat="35.90749388888889" lon="139.49408111111111">
<ele>12</ele>
</trkpt>
<trkpt lat="35.90750305555556" lon="139.4942188888889">
<ele>12</ele>
</trkpt>
<trkpt lat="35.90750611111111" lon="139.4942411111111">
<ele>12</ele>
</trkpt>
<trkpt lat="35.90750611111111" lon="139.4942411111111">
<ele>12</ele>
</trkpt>
<trkpt lat="35.90752" lon="139.49436888888889">
<ele>11</ele>
</trkpt>
<trkpt lat="35.907428055555556" lon="139.4942561111111">
<ele>11</ele>
</trkpt>
<trkpt lat="35.907136111111114" lon="139.49393111111112">
<ele>13</ele>
</trkpt>
<trkpt lat="35.90711611111111" lon="139.49390805555555">
<ele>13</ele>
</trkpt>
<trkpt lat="35.90711611111111" lon="139.49390805555555">
<ele>13</ele>
</trkpt>
<trkpt lat="35.90707583333333" lon="139.4939325">
<ele>12</ele>
</trkpt>
<trkpt lat="35.90705888888889" lon="139.4939425">
<ele>12</ele>
</trkpt>
<trkpt lat="35.90705888888889" lon="139.4939425">
<ele>12</ele>
</trkpt>
<trkpt lat="35.90702111111111" lon="139.4939125">
<ele>12</ele>
</trkpt>
<trkpt lat="35.90698361111111" lon="139.49388222222223">
<ele>12</ele>
</trkpt>
<trkpt lat="35.90694583333333" lon="139.49385222222222">
<ele>12</ele>
</trkpt>
<trkpt lat="35.90694166666667" lon="139.4938486111111">
<ele>12</ele>
</trkpt>
<trkpt lat="35.90694166666667" lon="139.4938486111111">
<ele>12</ele>
</trkpt>
<trkpt lat="35.90690861111111" lon="139.4938111111111">
<ele>12</ele>
</trkpt>
<trkpt lat="35.90687583333333" lon="139.49377333333334">
<ele>12</ele>
</trkpt>
<trkpt lat="35.906842777777776" lon="139.49373555555556">
<ele>12</ele>
</trkpt>
<trkpt lat="35.90680972222222" lon="139.49369805555557">
<ele>12</ele>
</trkpt>
<trkpt lat="35.906776944444445" lon="139.49366027777776">
<ele>12</ele>
</trkpt>
<trkpt lat="35.90674388888889" lon="139.4936225">
<ele>12</ele>
</trkpt>
<trkpt lat="35.906711111111115" lon="139.4935847222222">
<ele>12</ele>
</trkpt>
<trkpt lat="35.90667805555555" lon="139.49354722222222">
<ele>12</ele>
</trkpt>
<trkpt lat="35.906645" lon="139.49350944444444">
<ele>12</ele>
</trkpt>
<trkpt lat="35.90661222222222" lon="139.49347166666666">
<ele>12</ele>
</trkpt>
<trkpt lat="35.90657916666667" lon="139.49343416666667">
<ele>12</ele>
</trkpt>
<trkpt lat="35.90654638888889" lon="139.4933963888889">
<ele>12</ele>
</trkpt>
<trkpt lat="35.906513333333336" lon="139.49335861111112">
<ele>12</ele>
</trkpt>
<trkpt lat="35.906480277777774" lon="139.49332083333334">
<ele>12</ele>
</trkpt>
<trkpt lat="35.9064475" lon="139.49328333333332">
<ele>12</ele>
</trkpt>
<trkpt lat="35.906414444444444" lon="139.49324555555555">
<ele>12</ele>
</trkpt>
<trkpt lat="35.90638166666667" lon="139.49320777777777">
<ele>12</ele>
</trkpt>
<trkpt lat="35.90634861111111" lon="139.49317027777778">
<ele>12</ele>
</trkpt>
<trkpt lat="35.90631583333333" lon="139.4931325">
<ele>12</ele>
</trkpt>
<trkpt lat="35.906282777777776" lon="139.49309472222222">
<ele>12</ele>
</trkpt>
<trkpt lat="35.90625722222222" lon="139.49306555555555">
<ele>12</ele>
</trkpt>
<trkpt lat="35.90625722222222" lon="139.49306555555555">
<ele>12</ele>
</trkpt>
<trkpt lat="35.9062225" lon="139.49303055555555">
<ele>12</ele>
</trkpt>
<trkpt lat="35.9061875" lon="139.49299527777777">
<ele>13</ele>
</trkpt>
<trkpt lat="35.90615277777778" lon="139.49296027777777">
<ele>13</ele>
</trkpt>
<trkpt lat="35.90611805555555" lon="139.49292527777777">
<ele>13</ele>
</trkpt>
<trkpt lat="35.906083333333335" lon="139.49289027777778">
<ele>14</ele>
</trkpt>
<trkpt lat="35.90604833333333" lon="139.49285527777778">
<ele>14</ele>
</trkpt>
<trkpt lat="35.90601361111111" lon="139.49282">
<ele>14</ele>
</trkpt>
<trkpt lat="35.90597888888889" lon="139.492785">
<ele>14</ele>
</trkpt>
<trkpt lat="35.90594388888889" lon="139.49275">
<ele>14</ele>
</trkpt>
<trkpt lat="35.90590916666667" lon="139.492715">
<ele>14</ele>
</trkpt>
<trkpt lat="35.905903055555555" lon="139.4927088888889">
<ele>14</ele>
</trkpt>
<trkpt lat="35.905903055555555" lon="139.4927088888889">
<ele>14</ele>
</trkpt>
<trkpt lat="35.90586583333333" lon="139.49267777777777">
<ele>14</ele>
</trkpt>
<trkpt lat="35.90582861111111" lon="139.49264694444443">
<ele>14</ele>
</trkpt>
<trkpt lat="35.905791388888886" lon="139.49261583333333">
<ele>14</ele>
</trkpt>
<trkpt lat="35.90575416666667" lon="139.492585">
<ele>14</ele>
</trkpt>
<trkpt lat="35.90571666666666" lon="139.4925538888889">
<ele>14</ele>
</trkpt>
<trkpt lat="35.905679444444445" lon="139.49252305555555">
<ele>14</ele>
</trkpt>
<trkpt lat="35.90567055555555" lon="139.49251555555554">
<ele>14</ele>
</trkpt>
<trkpt lat="35.90567055555555" lon="139.49251555555554">
<ele>14</ele>
</trkpt>
<trkpt lat="35.90562805555555" lon="139.4924986111111">
<ele>15</ele>
</trkpt>
<trkpt lat="35.905585277777774" lon="139.49248138888888">
<ele>15</ele>
</trkpt>
<trkpt lat="35.9055425" lon="139.49246416666668">
<ele>15</ele>
</trkpt>
<trkpt lat="35.905499722222224" lon="139.4924472222222">
<ele>15</ele>
</trkpt>
<trkpt lat="35.905456944444445" lon="139.49243">
<ele>15</ele>
</trkpt>
<trkpt lat="35.905414444444446" lon="139.4924127777778">
<ele>15</ele>
</trkpt>
<trkpt lat="35.90537166666667" lon="139.49239583333335">
<ele>15</ele>
</trkpt>
<trkpt lat="35.90532944444445" lon="139.49237888888888">
<ele>14</ele>
</trkpt>
<trkpt lat="35.90532944444445" lon="139.49237888888888">
<ele>14</ele>
</trkpt>
<trkpt lat="35.90533555555555" lon="139.49232388888888">
<ele>15</ele>
</trkpt>
<trkpt lat="35.905341666666665" lon="139.4922688888889">
<ele>15</ele>
</trkpt>
<trkpt lat="35.90534777777778" lon="139.49221416666666">
<ele>16</ele>
</trkpt>
<trkpt lat="35.90535333333333" lon="139.49216416666667">
<ele>16</ele>
</trkpt>
<trkpt lat="35.90535333333333" lon="139.49216416666667">
<ele>16</ele>
</trkpt>
<trkpt lat="35.905387222222224" lon="139.49212777777777">
<ele>16</ele>
</trkpt>
<trkpt lat="35.90542111111111" lon="139.4920913888889">
<ele>17</ele>
</trkpt>
<trkpt lat="35.905455" lon="139.492055">
<ele>17</ele>
</trkpt>
<trkpt lat="35.90548888888889" lon="139.49201833333333">
<ele>17</ele>
</trkpt>
<trkpt lat="35.9055225" lon="139.49198194444443">
<ele>18</ele>
</trkpt>
<trkpt lat="35.90555638888889" lon="139.49194555555556">
<ele>18</ele>
</trkpt>
<trkpt lat="35.905590277777776" lon="139.4919088888889">
<ele>18</ele>
</trkpt>
<trkpt lat="35.90562416666667" lon="139.4918725">
<ele>18</ele>
</trkpt>
<trkpt lat="35.90562722222222" lon="139.49186916666667">
<ele>18</ele>
</trkpt>
<trkpt lat="35.90562305555556" lon="139.4918638888889">
<ele>18</ele>
</trkpt>
<trkpt lat="35.90562805555555" lon="139.49185694444444">
<ele>18</ele>
</trkpt>
<trkpt lat="35.90572" lon="139.4913938888889">
<ele>19</ele>
</trkpt>
<trkpt lat="35.90578611111111" lon="139.49105694444444">
<ele>19</ele>
</trkpt>
<trkpt lat="35.90580305555556" lon="139.4909688888889">
<ele>19</ele>
</trkpt>
<trkpt lat="35.90582" lon="139.49070694444444">
<ele>19</ele>
</trkpt>
<trkpt lat="35.90582805555555" lon="139.4905188888889">
<ele>19</ele>
</trkpt>
<trkpt lat="35.90580305555556" lon="139.4898188888889">
<ele>20</ele>
</trkpt>
<trkpt lat="35.90575305555556" lon="139.48875694444445">
<ele>20</ele>
</trkpt>
<trkpt lat="35.905745" lon="139.4884438888889">
<ele>20</ele>
</trkpt>
<trkpt lat="35.90571111111111" lon="139.48814388888889">
<ele>20</ele>
</trkpt>
<trkpt lat="35.905653055555554" lon="139.4876688888889">
<ele>20</ele>
</trkpt>
<trkpt lat="35.90557111111111" lon="139.48692694444443">
<ele>20</ele>
</trkpt>
<trkpt lat="35.90557111111111" lon="139.48692694444443">
<ele>20</ele>
</trkpt>
<trkpt lat="35.90557" lon="139.48692">
<ele>20</ele>
</trkpt>
<trkpt lat="35.90600694444444" lon="139.4868588888889">
<ele>20</ele>
</trkpt>
<trkpt lat="35.90600694444444" lon="139.4868588888889">
<ele>20</ele>
</trkpt>
<trkpt lat="35.90602" lon="139.48685694444444">
<ele>20</ele>
</trkpt>
<trkpt lat="35.905988055555554" lon="139.486445">
<ele>20</ele>
</trkpt>
<trkpt lat="35.905988055555554" lon="139.486445">
<ele>20</ele>
</trkpt>
<trkpt lat="35.90598611111111" lon="139.48643194444443">
<ele>20</ele>
</trkpt>
<trkpt lat="35.90591111111111" lon="139.48637">
<ele>20</ele>
</trkpt>
<trkpt lat="35.90590888888889" lon="139.4863161111111">
<ele>20</ele>
</trkpt>
<trkpt lat="35.90590888888889" lon="139.4863161111111">
<ele>20</ele>
</trkpt>
<trkpt lat="35.90588611111111" lon="139.485845">
<ele>20</ele>
</trkpt>
<trkpt lat="35.90589388888889" lon="139.48583805555555">
<ele>20</ele>
</trkpt>
<trkpt lat="35.90589388888889" lon="139.48583805555555">
<ele>20</ele>
</trkpt>
<trkpt lat="35.90647805555555" lon="139.48533194444445">
<ele>20</ele>
</trkpt>
<trkpt lat="35.90708611111111" lon="139.48478194444445">
<ele>20</ele>
</trkpt>
<trkpt lat="35.907243888888885" lon="139.48463194444443">
<ele>20</ele>
</trkpt>
<trkpt lat="35.907336111111114" lon="139.48460694444444">
<ele>20</ele>
</trkpt>
<trkpt lat="35.90785805555556" lon="139.48456388888889">
<ele>20</ele>
</trkpt>
<trkpt lat="35.90785805555556" lon="139.48456388888889">
<ele>20</ele>
</trkpt>
<trkpt lat="35.90794388888889" lon="139.48455694444445">
<ele>20</ele>
</trkpt>
<trkpt lat="35.90846888888889" lon="139.48448194444444">
<ele>20</ele>
</trkpt>
<trkpt lat="35.90901111111111" lon="139.48438194444444">
<ele>20</ele>
</trkpt>
<trkpt lat="35.90908611111111" lon="139.48438194444444">
<ele>20</ele>
</trkpt>
<trkpt lat="35.90918388888889" lon="139.4843611111111">
<ele>20</ele>
</trkpt>
<trkpt lat="35.90918388888889" lon="139.4843611111111">
<ele>20</ele>
</trkpt>
<trkpt lat="35.90956111111111" lon="139.48428194444443">
<ele>20</ele>
</trkpt>
<trkpt lat="35.91011888888889" lon="139.48417">
<ele>20</ele>
</trkpt>
<trkpt lat="35.91036111111111" lon="139.48413194444444">
<ele>20</ele>
</trkpt>
<trkpt lat="35.91055194444444" lon="139.48413194444444">
<ele>20</ele>
</trkpt>
<trkpt lat="35.91092694444445" lon="139.48412">
<ele>20</ele>
</trkpt>
<trkpt lat="35.91117611111111" lon="139.4841111111111">
<ele>20</ele>
</trkpt>
<trkpt lat="35.91117611111111" lon="139.4841111111111">
<ele>20</ele>
</trkpt>
<trkpt lat="35.91126888888889" lon="139.48410694444445">
<ele>20</ele>
</trkpt>
<trkpt lat="35.91149388888889" lon="139.48410694444445">
<ele>20</ele>
</trkpt>
<trkpt lat="35.91168611111111" lon="139.484095">
<ele>20</ele>
</trkpt>
<trkpt lat="35.91194388888889" lon="139.48408194444445">
<ele>20</ele>
</trkpt>
<trkpt lat="35.91221888888889" lon="139.48408194444445">
<ele>20</ele>
</trkpt>
<trkpt lat="35.91249388888889" lon="139.48415694444444">
<ele>20</ele>
</trkpt>
<trkpt lat="35.912976944444445" lon="139.48428194444443">
<ele>20</ele>
</trkpt>
<trkpt lat="35.91303388888889" lon="139.48429611111112">
<ele>19</ele>
</trkpt>
<trkpt lat="35.91303388888889" lon="139.48429611111112">
<ele>19</ele>
</trkpt>
<trkpt lat="35.91351888888889" lon="139.48441888888888">
<ele>19</ele>
</trkpt>
<trkpt lat="35.91391888888889" lon="139.4843688888889">
<ele>19</ele>
</trkpt>
<trkpt lat="35.91412694444445" lon="139.48435694444444">
<ele>19</ele>
</trkpt>
<trkpt lat="35.914451944444444" lon="139.4843438888889">
<ele>18</ele>
</trkpt>
<trkpt lat="35.91486805555556" lon="139.4843438888889">
<ele>18</ele>
</trkpt>
<trkpt lat="35.91556805555555" lon="139.48433194444445">
<ele>17</ele>
</trkpt>
<trkpt lat="35.91556611111111" lon="139.48429611111112">
<ele>17</ele>
</trkpt>
<trkpt lat="35.91556611111111" lon="139.48429611111112">
<ele>17</ele>
</trkpt>
<trkpt lat="35.915485" lon="139.48318194444445">
<ele>18</ele>
</trkpt>
<trkpt lat="35.91551111111111" lon="139.4831838888889">
<ele>18</ele>
</trkpt>
<trkpt lat="35.91551111111111" lon="139.4831838888889">
<ele>18</ele>
</trkpt>
<trkpt lat="35.91657611111111" lon="139.48329388888888">
<ele>17</ele>
</trkpt>
<trkpt lat="35.91696805555556" lon="139.48333194444444">
<ele>18</ele>
</trkpt>
<trkpt lat="35.91703" lon="139.48333888888888">
<ele>17</ele>
</trkpt>
<trkpt lat="35.91703" lon="139.48333888888888">
<ele>17</ele>
</trkpt>
<trkpt lat="35.91757611111111" lon="139.48340694444445">
<ele>17</ele>
</trkpt>
<trkpt lat="35.91766805555555" lon="139.48340694444445">
<ele>17</ele>
</trkpt>
<trkpt lat="35.91777611111111" lon="139.48340694444445">
<ele>17</ele>
</trkpt>
<trkpt lat="35.91867611111111" lon="139.4835438888889">
<ele>18</ele>
</trkpt>
<trkpt lat="35.91880888888889" lon="139.48358194444444">
<ele>18</ele>
</trkpt>
<trkpt lat="35.91881" lon="139.48358194444444">
<ele>18</ele>
</trkpt>
<trkpt lat="35.91881" lon="139.48358194444444">
<ele>18</ele>
</trkpt>
<trkpt lat="35.919043055555555" lon="139.4836688888889">
<ele>18</ele>
</trkpt>
<trkpt lat="35.919243055555555" lon="139.4837188888889">
<ele>18</ele>
</trkpt>
<trkpt lat="35.919468055555555" lon="139.4837188888889">
<ele>18</ele>
</trkpt>
<trkpt lat="35.91965888888889" lon="139.48365694444445">
<ele>18</ele>
</trkpt>
<trkpt lat="35.919711944444444" lon="139.48363805555556">
<ele>18</ele>
</trkpt>
<trkpt lat="35.919711944444444" lon="139.48363805555556">
<ele>18</ele>
</trkpt>
<trkpt lat="35.91965888888889" lon="139.48365694444445">
<ele>18</ele>
</trkpt>
<trkpt lat="35.919493055555556" lon="139.48278194444444">
<ele>18</ele>
</trkpt>
<trkpt lat="35.91946611111111" lon="139.4827811111111">
<ele>18</ele>
</trkpt>
<trkpt lat="35.91946611111111" lon="139.4827811111111">
<ele>18</ele>
</trkpt>
<trkpt lat="35.919493055555556" lon="139.48278194444444">
<ele>18</ele>
</trkpt>
<trkpt lat="35.919868055555554" lon="139.4827688888889">
<ele>19</ele>
</trkpt>
<trkpt lat="35.92035111111111" lon="139.48274388888888">
<ele>19</ele>
</trkpt>
<trkpt lat="35.92110888888889" lon="139.48273194444445">
<ele>19</ele>
</trkpt>
<trkpt lat="35.921143055555554" lon="139.48273194444445">
<ele>19</ele>
</trkpt>
<trkpt lat="35.921143055555554" lon="139.48273194444445">
<ele>19</ele>
</trkpt>
<trkpt lat="35.92110888888889" lon="139.48273194444445">
<ele>19</ele>
</trkpt>
<trkpt lat="35.92110888888889" lon="139.48210694444444">
<ele>19</ele>
</trkpt>
<trkpt lat="35.92110888888889" lon="139.48171888888888">
<ele>19</ele>
</trkpt>
<trkpt lat="35.92110888888889" lon="139.4808438888889">
<ele>19</ele>
</trkpt>
<trkpt lat="35.92110888888889" lon="139.4806438888889">
<ele>19</ele>
</trkpt>
<trkpt lat="35.92109305555555" lon="139.47965694444446">
<ele>18</ele>
</trkpt>
<trkpt lat="35.92109305555555" lon="139.47810694444445">
<ele>20</ele>
</trkpt>
<trkpt lat="35.92107611111111" lon="139.47775694444445">
<ele>20</ele>
</trkpt>
<trkpt lat="35.92106694444445" lon="139.47743194444445">
<ele>20</ele>
</trkpt>
<trkpt lat="35.92110888888889" lon="139.47727">
<ele>20</ele>
</trkpt>
<trkpt lat="35.92111111111111" lon="139.47725">
<ele>19</ele>
</trkpt>
<trkpt lat="35.92111111111111" lon="139.47725">
<ele>19</ele>
</trkpt>
<trkpt lat="35.92110888888889" lon="139.47727">
<ele>20</ele>
</trkpt>
<trkpt lat="35.92170111111111" lon="139.47732">
<ele>20</ele>
</trkpt>
<trkpt lat="35.92195111111111" lon="139.477345">
<ele>20</ele>
</trkpt>
<trkpt lat="35.922201111111114" lon="139.47735694444444">
<ele>20</ele>
</trkpt>
<trkpt lat="35.92246305555555" lon="139.4773688888889">
<ele>20</ele>
</trkpt>
<trkpt lat="35.92246305555555" lon="139.4773688888889">
<ele>20</ele>
</trkpt>
<trkpt lat="35.92247611111111" lon="139.47737">
<ele>20</ele>
</trkpt>
<trkpt lat="35.92267611111111" lon="139.47838194444444">
<ele>20</ele>
</trkpt>
<trkpt lat="35.922691944444445" lon="139.47860694444444">
<ele>20</ele>
</trkpt>
<trkpt lat="35.92267611111111" lon="139.47900694444445">
<ele>20</ele>
</trkpt>
<trkpt lat="35.92268388888889" lon="139.479145">
<ele>20</ele>
</trkpt>
<trkpt lat="35.92272611111111" lon="139.479295">
<ele>20</ele>
</trkpt>
<trkpt lat="35.922941944444446" lon="139.47985694444444">
<ele>18</ele>
</trkpt>
<trkpt lat="35.92295194444444" lon="139.479905">
<ele>18</ele>
</trkpt>
<trkpt lat="35.92295194444444" lon="139.479905">
<ele>18</ele>
</trkpt>
<trkpt lat="35.922941944444446" lon="139.47985694444444">
<ele>18</ele>
</trkpt>
<trkpt lat="35.92303388888889" lon="139.4798438888889">
<ele>19</ele>
</trkpt>
<trkpt lat="35.923141944444446" lon="139.4798188888889">
<ele>20</ele>
</trkpt>
<trkpt lat="35.92363388888889" lon="139.4796438888889">
<ele>18</ele>
</trkpt>
<trkpt lat="35.923833888888886" lon="139.47958194444445">
<ele>18</ele>
</trkpt>
<trkpt lat="35.924416944444445" lon="139.47935694444445">
<ele>16</ele>
</trkpt>
<trkpt lat="35.92465888888889" lon="139.4792688888889">
<ele>15</ele>
</trkpt>
<trkpt lat="35.92466888888889" lon="139.47929305555556">
<ele>15</ele>
</trkpt>
<trkpt lat="35.92466888888889" lon="139.47929305555556">
<ele>15</ele>
</trkpt>
<trkpt lat="35.9248" lon="139.4795938888889">
<ele>15</ele>
</trkpt>
<trkpt lat="35.924925" lon="139.47983194444444">
<ele>15</ele>
</trkpt>
<trkpt lat="35.925025" lon="139.47995694444444">
<ele>15</ele>
</trkpt>
<trkpt lat="35.92511694444445" lon="139.48001888888888">
<ele>15</ele>
</trkpt>
<trkpt lat="35.92528388888889" lon="139.48011888888888">
<ele>15</ele>
</trkpt>
<trkpt lat="35.92528" lon="139.48013">
<ele>15</ele>
</trkpt>
<trkpt lat="35.92528" lon="139.48013">
<ele>15</ele>
</trkpt>
<trkpt lat="35.92528388888889" lon="139.48011888888888">
<ele>15</ele>
</trkpt>
<trkpt lat="35.92543388888889" lon="139.48018194444444">
<ele>15</ele>
</trkpt>
<trkpt lat="35.925925" lon="139.4802938888889">
<ele>15</ele>
</trkpt>
<trkpt lat="35.92644194444444" lon="139.48044388888889">
<ele>15</ele>
</trkpt>
<trkpt lat="35.926566944444446" lon="139.48046888888888">
<ele>14</ele>
</trkpt>
<trkpt lat="35.926808055555554" lon="139.48046888888888">
<ele>14</ele>
</trkpt>
<trkpt lat="35.92725" lon="139.48038194444445">
<ele>14</ele>
</trkpt>
<trkpt lat="35.927375" lon="139.4803938888889">
<ele>14</ele>
</trkpt>
<trkpt lat="35.92756694444444" lon="139.48050694444444">
<ele>14</ele>
</trkpt>
<trkpt lat="35.92773305555556" lon="139.4807188888889">
<ele>14</ele>
</trkpt>
<trkpt lat="35.92774694444444" lon="139.48073888888888">
<ele>14</ele>
</trkpt>
<trkpt lat="35.92774694444444" lon="139.48073888888888">
<ele>14</ele>
</trkpt>
<trkpt lat="35.928158055555556" lon="139.4813438888889">
<ele>14</ele>
</trkpt>
<trkpt lat="35.9283" lon="139.48158194444446">
<ele>14</ele>
</trkpt>
<trkpt lat="35.928375" lon="139.48178194444444">
<ele>14</ele>
</trkpt>
<trkpt lat="35.92838305555556" lon="139.4818938888889">
<ele>14</ele>
</trkpt>
<trkpt lat="35.9284" lon="139.48204388888888">
<ele>14</ele>
</trkpt>
<trkpt lat="35.9284" lon="139.48210694444444">
<ele>14</ele>
</trkpt>
<trkpt lat="35.92841694444444" lon="139.48226888888888">
<ele>14</ele>
</trkpt>
<trkpt lat="35.92843305555556" lon="139.48235694444443">
<ele>14</ele>
</trkpt>
<trkpt lat="35.928466944444445" lon="139.4824188888889">
<ele>14</ele>
</trkpt>
<trkpt lat="35.928525" lon="139.48250694444445">
<ele>14</ele>
</trkpt>
<trkpt lat="35.9286" lon="139.48258194444443">
<ele>14</ele>
</trkpt>
<trkpt lat="35.92880805555556" lon="139.48271888888888">
<ele>14</ele>
</trkpt>
<trkpt lat="35.92888305555555" lon="139.48274388888888">
<ele>14</ele>
</trkpt>
<trkpt lat="35.9292" lon="139.4830938888889">
<ele>14</ele>
</trkpt>
<trkpt lat="35.92949194444444" lon="139.48353111111112">
<ele>13</ele>
</trkpt>
<trkpt lat="35.929625" lon="139.4836811111111">
<ele>13</ele>
</trkpt>
<trkpt lat="35.929775" lon="139.4838311111111">
<ele>13</ele>
</trkpt>
<trkpt lat="35.92995805555555" lon="139.48399388888888">
<ele>13</ele>
</trkpt>
<trkpt lat="35.930016944444446" lon="139.4840438888889">
<ele>13</ele>
</trkpt>
<trkpt lat="35.93001805555556" lon="139.4840438888889">
<ele>13</ele>
</trkpt>
<trkpt lat="35.93001805555556" lon="139.4840438888889">
<ele>13</ele>
</trkpt>
<trkpt lat="35.93009194444444" lon="139.48408111111112">
<ele>13</ele>
</trkpt>
<trkpt lat="35.9301" lon="139.4841688888889">
<ele>13</ele>
</trkpt>
<trkpt lat="35.93030805555556" lon="139.4847061111111">
<ele>13</ele>
</trkpt>
<trkpt lat="35.930416111111114" lon="139.48500611111112">
<ele>13</ele>
</trkpt>
<trkpt lat="35.930425" lon="139.48509388888888">
<ele>13</ele>
</trkpt>
<trkpt lat="35.93042194444445" lon="139.485115">
<ele>13</ele>
</trkpt>
<trkpt lat="35.93042194444445" lon="139.485115">
<ele>13</ele>
</trkpt>
<trkpt lat="35.930416111111114" lon="139.4851688888889">
<ele>13</ele>
</trkpt>
<trkpt lat="35.930366944444444" lon="139.48534388888888">
<ele>13</ele>
</trkpt>
<trkpt lat="35.930258055555555" lon="139.4856188888889">
<ele>13</ele>
</trkpt>
<trkpt lat="35.930175" lon="139.48579388888888">
<ele>13</ele>
</trkpt>
<trkpt lat="35.929975" lon="139.48613111111112">
<ele>13</ele>
</trkpt>
<trkpt lat="35.929791944444446" lon="139.48636888888888">
<ele>13</ele>
</trkpt>
<trkpt lat="35.92970805555556" lon="139.48646888888888">
<ele>13</ele>
</trkpt>
<trkpt lat="35.92926694444444" lon="139.4868561111111">
<ele>13</ele>
</trkpt>
<trkpt lat="35.92908305555556" lon="139.48703111111112">
<ele>13</ele>
</trkpt>
<trkpt lat="35.928925" lon="139.4871938888889">
<ele>12</ele>
</trkpt>
<trkpt lat="35.92885805555556" lon="139.48728111111112">
<ele>12</ele>
</trkpt>
<trkpt lat="35.928775" lon="139.4874311111111">
<ele>12</ele>
</trkpt>
<trkpt lat="35.9287" lon="139.4875561111111">
<ele>12</ele>
</trkpt>
<trkpt lat="35.9282" lon="139.48874388888888">
<ele>12</ele>
</trkpt>
<trkpt lat="35.928086111111114" lon="139.4885988888889">
<ele>14</ele>
</trkpt>
<trkpt lat="35.928086111111114" lon="139.4885988888889">
<ele>14</ele>
</trkpt>
<trkpt lat="35.9282" lon="139.48874388888888">
<ele>12</ele>
</trkpt>
<trkpt lat="35.92773388888889" lon="139.48985611111112">
<ele>12</ele>
</trkpt>
<trkpt lat="35.927575" lon="139.4902561111111">
<ele>12</ele>
</trkpt>
<trkpt lat="35.927525" lon="139.49020611111112">
<ele>12</ele>
</trkpt>
<trkpt lat="35.927441944444446" lon="139.49009388888888">
<ele>13</ele>
</trkpt>
<trkpt lat="35.92740888888889" lon="139.4900311111111">
<ele>13</ele>
</trkpt>
<trkpt lat="35.927325" lon="139.49010611111112">
<ele>13</ele>
</trkpt>
<trkpt lat="35.92720888888889" lon="139.4901561111111">
<ele>12</ele>
</trkpt>
<trkpt lat="35.92726694444445" lon="139.4904811111111">
<ele>12</ele>
</trkpt>
<trkpt lat="35.927225" lon="139.4905938888889">
<ele>12</ele>
</trkpt>
<trkpt lat="35.926991944444445" lon="139.49136805555557">
<ele>15</ele>
</trkpt>
<trkpt lat="35.92693388888889" lon="139.49154305555555">
<ele>13</ele>
</trkpt>
<trkpt lat="35.92686694444444" lon="139.49171805555557">
<ele>14</ele>
</trkpt>
<trkpt lat="35.926808888888885" lon="139.4918311111111">
<ele>13</ele>
</trkpt>
<trkpt lat="35.9267" lon="139.492005">
<ele>12</ele>
</trkpt>
<trkpt lat="35.9267" lon="139.492005">
<ele>12</ele>
</trkpt>
<trkpt lat="35.92669194444444" lon="139.49201805555555">
<ele>12</ele>
</trkpt>
<trkpt lat="35.926516944444444" lon="139.4922061111111">
<ele>14</ele>
</trkpt>
<trkpt lat="35.92645111111111" lon="139.49226805555554">
<ele>13</ele>
</trkpt>
<trkpt lat="35.926408888888886" lon="139.49221805555555">
<ele>14</ele>
</trkpt>
<trkpt lat="35.926073055555555" lon="139.4923738888889">
<ele>14</ele>
</trkpt>
<trkpt lat="35.926073055555555" lon="139.4923738888889">
<ele>14</ele>
</trkpt>
<trkpt lat="35.92573388888889" lon="139.4925311111111">
<ele>14</ele>
</trkpt>
<trkpt lat="35.925891944444444" lon="139.49286805555556">
<ele>12</ele>
</trkpt>
<trkpt lat="35.925958888888886" lon="139.49301805555555">
<ele>11</ele>
</trkpt>
<trkpt lat="35.92600111111111" lon="139.49311805555556">
<ele>11</ele>
</trkpt>
<trkpt lat="35.92606111111111" lon="139.49324805555557">
<ele>11</ele>
</trkpt>
    </trkseg>
  </trk>
</gpx>