<?xml version="1.0" encoding="UTF-8"?>
<gpx version="1.1"
     creator="KMLtoGPX"
     xmlns="http://www.topografix.com/GPX/1/1">
  <metadata>
    <name>44 Route around Musashi Kyuryo Shinrin National Government Park</name>
    <desc>44 国営武蔵丘陵森林公園を巡るルート</desc>
    <bounds minlat="36.04604694444444" minlon="139.3632661111111" maxlat="36.100118333333334" maxlon="139.3850813888889"/>
  </metadata>
  <trk>
    <name>44 Route around Musashi Kyuryo Shinrin National Government Park</name>
    <trkseg>
<trkpt lat="36.046053055555554" lon="139.3752511111111">
<ele>39</ele>
</trkpt>
<trkpt lat="36.04604694444444" lon="139.3752788888889">
<ele>39</ele>
</trkpt>
<trkpt lat="36.04655611111111" lon="139.37544111111112">
<ele>37</ele>
</trkpt>
<trkpt lat="36.04768888888889" lon="139.3758038888889">
<ele>36</ele>
</trkpt>
<trkpt lat="36.047781111111114" lon="139.37585388888888">
<ele>36</ele>
</trkpt>
<trkpt lat="36.04788888888889" lon="139.3759661111111">
<ele>36</ele>
</trkpt>
<trkpt lat="36.04793111111111" lon="139.3761411111111">
<ele>36</ele>
</trkpt>
<trkpt lat="36.048896944444444" lon="139.3758161111111">
<ele>34</ele>
</trkpt>
<trkpt lat="36.04967194444444" lon="139.37562805555555">
<ele>32</ele>
</trkpt>
<trkpt lat="36.04988888888889" lon="139.37557805555556">
<ele>32</ele>
</trkpt>
<trkpt lat="36.05011388888889" lon="139.37552805555555">
<ele>32</ele>
</trkpt>
<trkpt lat="36.050555" lon="139.37542805555555">
<ele>36</ele>
</trkpt>
<trkpt lat="36.05133" lon="139.37529111111112">
<ele>38</ele>
</trkpt>
<trkpt lat="36.05184694444444" lon="139.37521611111111">
<ele>39</ele>
</trkpt>
<trkpt lat="36.052146944444445" lon="139.37517805555555">
<ele>41</ele>
</trkpt>
<trkpt lat="36.05276305555556" lon="139.37509111111112">
<ele>43</ele>
</trkpt>
<trkpt lat="36.052888055555556" lon="139.37507805555555">
<ele>44</ele>
</trkpt>
<trkpt lat="36.053255" lon="139.37499111111111">
<ele>46</ele>
</trkpt>
<trkpt lat="36.05348" lon="139.3749161111111">
<ele>47</ele>
</trkpt>
<trkpt lat="36.053688055555554" lon="139.37482805555555">
<ele>47</ele>
</trkpt>
<trkpt lat="36.054163055555556" lon="139.37460305555555">
<ele>47</ele>
</trkpt>
<trkpt lat="36.05439611111111" lon="139.3744661111111">
<ele>48</ele>
</trkpt>
<trkpt lat="36.054588055555556" lon="139.37435305555556">
<ele>49</ele>
</trkpt>
<trkpt lat="36.05492111111111" lon="139.3740911111111">
<ele>49</ele>
</trkpt>
<trkpt lat="36.05522888888889" lon="139.37382805555555">
<ele>49</ele>
</trkpt>
<trkpt lat="36.05573805555556" lon="139.37336611111112">
<ele>49</ele>
</trkpt>
<trkpt lat="36.056803888888886" lon="139.3724161111111">
<ele>44</ele>
</trkpt>
<trkpt lat="36.05708805555555" lon="139.3721661111111">
<ele>42</ele>
</trkpt>
<trkpt lat="36.05737111111111" lon="139.37191611111112">
<ele>41</ele>
</trkpt>
<trkpt lat="36.05750388888889" lon="139.37179111111112">
<ele>42</ele>
</trkpt>
<trkpt lat="36.05792888888889" lon="139.37140305555556">
<ele>40</ele>
</trkpt>
<trkpt lat="36.05887888888889" lon="139.37055305555555">
<ele>39</ele>
</trkpt>
<trkpt lat="36.05990388888889" lon="139.36964111111112">
<ele>39</ele>
</trkpt>
<trkpt lat="36.060611944444446" lon="139.36910305555554">
<ele>39</ele>
</trkpt>
<trkpt lat="36.06067888888889" lon="139.36906611111112">
<ele>38</ele>
</trkpt>
<trkpt lat="36.06096194444444" lon="139.3688911111111">
<ele>38</ele>
</trkpt>
<trkpt lat="36.06113694444444" lon="139.3687911111111">
<ele>38</ele>
</trkpt>
<trkpt lat="36.06132" lon="139.3686911111111">
<ele>39</ele>
</trkpt>
<trkpt lat="36.06162" lon="139.36852805555554">
<ele>39</ele>
</trkpt>
<trkpt lat="36.06197" lon="139.36837805555555">
<ele>39</ele>
</trkpt>
<trkpt lat="36.06240388888889" lon="139.36819111111112">
<ele>39</ele>
</trkpt>
<trkpt lat="36.06337805555555" lon="139.36785305555554">
<ele>39</ele>
</trkpt>
<trkpt lat="36.06435305555556" lon="139.36752805555557">
<ele>38</ele>
</trkpt>
<trkpt lat="36.06480305555556" lon="139.3673411111111">
<ele>38</ele>
</trkpt>
<trkpt lat="36.06503611111111" lon="139.3672411111111">
<ele>38</ele>
</trkpt>
<trkpt lat="36.06527805555555" lon="139.36712805555555">
<ele>40</ele>
</trkpt>
<trkpt lat="36.065545" lon="139.36697805555556">
<ele>40</ele>
</trkpt>
<trkpt lat="36.065745" lon="139.3667661111111">
<ele>41</ele>
</trkpt>
<trkpt lat="36.06601111111111" lon="139.36642805555556">
<ele>41</ele>
</trkpt>
<trkpt lat="36.066145" lon="139.36615305555554">
<ele>41</ele>
</trkpt>
<trkpt lat="36.066245" lon="139.36592805555554">
<ele>41</ele>
</trkpt>
<trkpt lat="36.06637" lon="139.36559111111112">
<ele>41</ele>
</trkpt>
<trkpt lat="36.066453055555556" lon="139.36562805555556">
<ele>41</ele>
</trkpt>
<trkpt lat="36.06666888888889" lon="139.36575305555556">
<ele>42</ele>
</trkpt>
<trkpt lat="36.06672805555556" lon="139.36577805555555">
<ele>42</ele>
</trkpt>
<trkpt lat="36.06696111111111" lon="139.36591611111112">
<ele>42</ele>
</trkpt>
<trkpt lat="36.06771111111111" lon="139.36630305555556">
<ele>44</ele>
</trkpt>
<trkpt lat="36.06778611111111" lon="139.36635305555555">
<ele>44</ele>
</trkpt>
<trkpt lat="36.06781" lon="139.3662238888889">
<ele>44</ele>
</trkpt>
<trkpt lat="36.06781" lon="139.3662238888889">
<ele>44</ele>
</trkpt>
<trkpt lat="36.067903055555554" lon="139.3657161111111">
<ele>44</ele>
</trkpt>
<trkpt lat="36.06794388888889" lon="139.3654911111111">
<ele>44</ele>
</trkpt>
<trkpt lat="36.06796111111111" lon="139.36540305555556">
<ele>44</ele>
</trkpt>
<trkpt lat="36.06811111111111" lon="139.36455305555555">
<ele>43</ele>
</trkpt>
<trkpt lat="36.068128055555555" lon="139.3644661111111">
<ele>44</ele>
</trkpt>
<trkpt lat="36.06816111111111" lon="139.3643661111111">
<ele>43</ele>
</trkpt>
<trkpt lat="36.06829388888889" lon="139.3640411111111">
<ele>43</ele>
</trkpt>
<trkpt lat="36.06841111111111" lon="139.36337805555556">
<ele>43</ele>
</trkpt>
<trkpt lat="36.068445" lon="139.3632661111111">
<ele>43</ele>
</trkpt>
<trkpt lat="36.068445" lon="139.3632661111111">
<ele>43</ele>
</trkpt>
<trkpt lat="36.06848277777778" lon="139.3632963888889">
<ele>43</ele>
</trkpt>
<trkpt lat="36.06852055555556" lon="139.36332638888888">
<ele>43</ele>
</trkpt>
<trkpt lat="36.068558333333335" lon="139.36335666666668">
<ele>43</ele>
</trkpt>
<trkpt lat="36.06859583333333" lon="139.36338666666666">
<ele>43</ele>
</trkpt>
<trkpt lat="36.06863361111111" lon="139.36341694444445">
<ele>43</ele>
</trkpt>
<trkpt lat="36.06867138888889" lon="139.36344694444443">
<ele>43</ele>
</trkpt>
<trkpt lat="36.068709166666665" lon="139.36347722222223">
<ele>43</ele>
</trkpt>
<trkpt lat="36.06874694444444" lon="139.3635072222222">
<ele>43</ele>
</trkpt>
<trkpt lat="36.06878472222222" lon="139.3635375">
<ele>43</ele>
</trkpt>
<trkpt lat="36.068822222222224" lon="139.3635675">
<ele>43</ele>
</trkpt>
<trkpt lat="36.06886" lon="139.36359777777778">
<ele>43</ele>
</trkpt>
<trkpt lat="36.06889777777778" lon="139.36362777777777">
<ele>44</ele>
</trkpt>
<trkpt lat="36.06890444444444" lon="139.36363305555557">
<ele>44</ele>
</trkpt>
<trkpt lat="36.06890444444444" lon="139.36363305555557">
<ele>44</ele>
</trkpt>
<trkpt lat="36.06894833333333" lon="139.36364416666666">
<ele>44</ele>
</trkpt>
<trkpt lat="36.0689925" lon="139.36365527777778">
<ele>44</ele>
</trkpt>
<trkpt lat="36.06903638888889" lon="139.36366611111112">
<ele>44</ele>
</trkpt>
<trkpt lat="36.06908055555556" lon="139.36367722222224">
<ele>43</ele>
</trkpt>
<trkpt lat="36.06912444444445" lon="139.36368833333333">
<ele>44</ele>
</trkpt>
<trkpt lat="36.06916861111111" lon="139.36369944444445">
<ele>44</ele>
</trkpt>
<trkpt lat="36.0692125" lon="139.36371055555554">
<ele>44</ele>
</trkpt>
<trkpt lat="36.06925638888889" lon="139.36372138888888">
<ele>44</ele>
</trkpt>
<trkpt lat="36.06930055555556" lon="139.3637325">
<ele>44</ele>
</trkpt>
<trkpt lat="36.06934444444445" lon="139.36374361111112">
<ele>44</ele>
</trkpt>
<trkpt lat="36.06938861111111" lon="139.3637547222222">
<ele>44</ele>
</trkpt>
<trkpt lat="36.0694325" lon="139.36376555555555">
<ele>44</ele>
</trkpt>
<trkpt lat="36.06947666666667" lon="139.36377666666667">
<ele>44</ele>
</trkpt>
<trkpt lat="36.069520555555556" lon="139.3637877777778">
<ele>44</ele>
</trkpt>
<trkpt lat="36.06952444444445" lon="139.36378861111112">
<ele>44</ele>
</trkpt>
<trkpt lat="36.06952444444445" lon="139.36378861111112">
<ele>44</ele>
</trkpt>
<trkpt lat="36.069563333333335" lon="139.3638163888889">
<ele>44</ele>
</trkpt>
<trkpt lat="36.0696025" lon="139.36384388888888">
<ele>44</ele>
</trkpt>
<trkpt lat="36.06964138888889" lon="139.3638713888889">
<ele>44</ele>
</trkpt>
<trkpt lat="36.06968027777778" lon="139.36389888888888">
<ele>44</ele>
</trkpt>
<trkpt lat="36.069719444444445" lon="139.36392666666666">
<ele>44</ele>
</trkpt>
<trkpt lat="36.06975833333333" lon="139.36395416666667">
<ele>44</ele>
</trkpt>
<trkpt lat="36.0697975" lon="139.36398166666666">
<ele>44</ele>
</trkpt>
<trkpt lat="36.06983638888889" lon="139.36400916666668">
<ele>44</ele>
</trkpt>
<trkpt lat="36.069875277777776" lon="139.36403694444445">
<ele>44</ele>
</trkpt>
<trkpt lat="36.06988861111111" lon="139.36404611111112">
<ele>44</ele>
</trkpt>
<trkpt lat="36.06988861111111" lon="139.36404611111112">
<ele>44</ele>
</trkpt>
<trkpt lat="36.06993361111111" lon="139.36404472222222">
<ele>44</ele>
</trkpt>
<trkpt lat="36.06997833333333" lon="139.36404333333334">
<ele>44</ele>
</trkpt>
<trkpt lat="36.07002333333333" lon="139.36404166666668">
<ele>44</ele>
</trkpt>
<trkpt lat="36.07006833333333" lon="139.36404027777778">
<ele>44</ele>
</trkpt>
<trkpt lat="36.07011305555555" lon="139.3640388888889">
<ele>46</ele>
</trkpt>
<trkpt lat="36.07015805555555" lon="139.3640375">
<ele>46</ele>
</trkpt>
<trkpt lat="36.07020305555555" lon="139.36403583333333">
<ele>46</ele>
</trkpt>
<trkpt lat="36.07021805555556" lon="139.36403555555555">
<ele>46</ele>
</trkpt>
<trkpt lat="36.07021805555556" lon="139.36403555555555">
<ele>46</ele>
</trkpt>
<trkpt lat="36.070257777777776" lon="139.36400916666668">
<ele>48</ele>
</trkpt>
<trkpt lat="36.07029722222222" lon="139.36398277777778">
<ele>49</ele>
</trkpt>
<trkpt lat="36.07033694444444" lon="139.36395638888888">
<ele>48</ele>
</trkpt>
<trkpt lat="36.07037638888889" lon="139.36393">
<ele>48</ele>
</trkpt>
<trkpt lat="36.070415833333335" lon="139.3639036111111">
<ele>48</ele>
</trkpt>
<trkpt lat="36.07044361111111" lon="139.36388527777777">
<ele>49</ele>
</trkpt>
<trkpt lat="36.07044361111111" lon="139.36388527777777">
<ele>49</ele>
</trkpt>
<trkpt lat="36.070478055555554" lon="139.36384944444444">
<ele>49</ele>
</trkpt>
<trkpt lat="36.07051222222222" lon="139.36381333333333">
<ele>49</ele>
</trkpt>
<trkpt lat="36.070546388888886" lon="139.3637775">
<ele>50</ele>
</trkpt>
<trkpt lat="36.07058083333333" lon="139.36374166666667">
<ele>50</ele>
</trkpt>
<trkpt lat="36.070615" lon="139.36370583333334">
<ele>50</ele>
</trkpt>
<trkpt lat="36.07064944444444" lon="139.36367">
<ele>50</ele>
</trkpt>
<trkpt lat="36.070683611111114" lon="139.3636338888889">
<ele>52</ele>
</trkpt>
<trkpt lat="36.07071805555555" lon="139.36359805555554">
<ele>52</ele>
</trkpt>
<trkpt lat="36.070725555555555" lon="139.36359027777777">
<ele>52</ele>
</trkpt>
<trkpt lat="36.070725555555555" lon="139.36359027777777">
<ele>52</ele>
</trkpt>
<trkpt lat="36.07076583333333" lon="139.36361444444444">
<ele>52</ele>
</trkpt>
<trkpt lat="36.07080638888889" lon="139.3636388888889">
<ele>53</ele>
</trkpt>
<trkpt lat="36.07084666666667" lon="139.36366333333334">
<ele>53</ele>
</trkpt>
<trkpt lat="36.070886944444446" lon="139.3636875">
<ele>52</ele>
</trkpt>
<trkpt lat="36.07089472222222" lon="139.36369222222223">
<ele>53</ele>
</trkpt>
<trkpt lat="36.07089472222222" lon="139.36369222222223">
<ele>53</ele>
</trkpt>
<trkpt lat="36.070904166666665" lon="139.3637463888889">
<ele>53</ele>
</trkpt>
<trkpt lat="36.07091388888889" lon="139.36380055555554">
<ele>52</ele>
</trkpt>
<trkpt lat="36.07092361111111" lon="139.363855">
<ele>52</ele>
</trkpt>
<trkpt lat="36.070933333333336" lon="139.36390916666667">
<ele>51</ele>
</trkpt>
<trkpt lat="36.07094305555555" lon="139.36396333333334">
<ele>51</ele>
</trkpt>
<trkpt lat="36.07095277777778" lon="139.36401777777778">
<ele>51</ele>
</trkpt>
<trkpt lat="36.0709625" lon="139.36407194444445">
<ele>51</ele>
</trkpt>
<trkpt lat="36.07096833333333" lon="139.36410527777778">
<ele>51</ele>
</trkpt>
<trkpt lat="36.07096833333333" lon="139.36410527777778">
<ele>51</ele>
</trkpt>
<trkpt lat="36.071000833333336" lon="139.3641436111111">
<ele>51</ele>
</trkpt>
<trkpt lat="36.07103333333333" lon="139.36418194444445">
<ele>51</ele>
</trkpt>
<trkpt lat="36.071065833333336" lon="139.36422027777778">
<ele>52</ele>
</trkpt>
<trkpt lat="36.07109833333333" lon="139.3642586111111">
<ele>52</ele>
</trkpt>
<trkpt lat="36.071130833333335" lon="139.36429694444445">
<ele>52</ele>
</trkpt>
<trkpt lat="36.071154722222225" lon="139.364325">
<ele>51</ele>
</trkpt>
<trkpt lat="36.071154722222225" lon="139.364325">
<ele>51</ele>
</trkpt>
<trkpt lat="36.07119361111111" lon="139.36435305555557">
<ele>51</ele>
</trkpt>
<trkpt lat="36.0712325" lon="139.3643811111111">
<ele>51</ele>
</trkpt>
<trkpt lat="36.07127111111111" lon="139.3644088888889">
<ele>51</ele>
</trkpt>
<trkpt lat="36.07131" lon="139.36443694444444">
<ele>51</ele>
</trkpt>
<trkpt lat="36.07134888888889" lon="139.364465">
<ele>51</ele>
</trkpt>
<trkpt lat="36.07138722222222" lon="139.3644925">
<ele>50</ele>
</trkpt>
<trkpt lat="36.07138722222222" lon="139.3644925">
<ele>50</ele>
</trkpt>
<trkpt lat="36.07143111111111" lon="139.3645036111111">
<ele>52</ele>
</trkpt>
<trkpt lat="36.07147527777778" lon="139.36451472222222">
<ele>52</ele>
</trkpt>
<trkpt lat="36.07151916666667" lon="139.36452583333335">
<ele>55</ele>
</trkpt>
<trkpt lat="36.07156333333333" lon="139.36453694444444">
<ele>55</ele>
</trkpt>
<trkpt lat="36.07160722222222" lon="139.36454805555556">
<ele>55</ele>
</trkpt>
<trkpt lat="36.07165111111111" lon="139.36455916666668">
<ele>57</ele>
</trkpt>
<trkpt lat="36.07169527777778" lon="139.36457055555556">
<ele>57</ele>
</trkpt>
<trkpt lat="36.07173916666667" lon="139.36458166666668">
<ele>57</ele>
</trkpt>
<trkpt lat="36.071783333333336" lon="139.36459277777777">
<ele>57</ele>
</trkpt>
<trkpt lat="36.071827222222225" lon="139.3646038888889">
<ele>57</ele>
</trkpt>
<trkpt lat="36.07187138888889" lon="139.364615">
<ele>57</ele>
</trkpt>
<trkpt lat="36.071891944444445" lon="139.3646202777778">
<ele>57</ele>
</trkpt>
<trkpt lat="36.071891944444445" lon="139.3646202777778">
<ele>57</ele>
</trkpt>
<trkpt lat="36.07192805555555" lon="139.3646527777778">
<ele>57</ele>
</trkpt>
<trkpt lat="36.07196444444445" lon="139.36468555555555">
<ele>53</ele>
</trkpt>
<trkpt lat="36.072000833333334" lon="139.36471833333334">
<ele>56</ele>
</trkpt>
<trkpt lat="36.07203694444444" lon="139.3647511111111">
<ele>56</ele>
</trkpt>
<trkpt lat="36.072073333333336" lon="139.3647838888889">
<ele>51</ele>
</trkpt>
<trkpt lat="36.07210972222222" lon="139.36481666666666">
<ele>51</ele>
</trkpt>
<trkpt lat="36.07214583333333" lon="139.36484944444445">
<ele>54</ele>
</trkpt>
<trkpt lat="36.07217861111111" lon="139.36487861111112">
<ele>54</ele>
</trkpt>
<trkpt lat="36.07217861111111" lon="139.36487861111112">
<ele>54</ele>
</trkpt>
<trkpt lat="36.07222194444444" lon="139.36489305555557">
<ele>49</ele>
</trkpt>
<trkpt lat="36.07226527777778" lon="139.3649075">
<ele>51</ele>
</trkpt>
<trkpt lat="36.07230861111111" lon="139.36492166666667">
<ele>51</ele>
</trkpt>
<trkpt lat="36.07235222222222" lon="139.36493611111112">
<ele>54</ele>
</trkpt>
<trkpt lat="36.07239555555556" lon="139.36495055555557">
<ele>54</ele>
</trkpt>
<trkpt lat="36.07243888888889" lon="139.364965">
<ele>54</ele>
</trkpt>
<trkpt lat="36.07248222222222" lon="139.36497916666667">
<ele>54</ele>
</trkpt>
<trkpt lat="36.07252555555556" lon="139.36499361111112">
<ele>54</ele>
</trkpt>
<trkpt lat="36.07255138888889" lon="139.36500222222222">
<ele>50</ele>
</trkpt>
<trkpt lat="36.07255138888889" lon="139.36500222222222">
<ele>50</ele>
</trkpt>
<trkpt lat="36.07259555555556" lon="139.36501305555555">
<ele>51</ele>
</trkpt>
<trkpt lat="36.07263944444444" lon="139.36502416666667">
<ele>51</ele>
</trkpt>
<trkpt lat="36.07268361111111" lon="139.365035">
<ele>52</ele>
</trkpt>
<trkpt lat="36.0727275" lon="139.3650461111111">
<ele>52</ele>
</trkpt>
<trkpt lat="36.07277166666667" lon="139.36505694444443">
<ele>52</ele>
</trkpt>
<trkpt lat="36.07281555555556" lon="139.36506805555555">
<ele>53</ele>
</trkpt>
<trkpt lat="36.07285972222222" lon="139.3650788888889">
<ele>53</ele>
</trkpt>
<trkpt lat="36.072874444444444" lon="139.3650825">
<ele>53</ele>
</trkpt>
<trkpt lat="36.072874444444444" lon="139.3650825">
<ele>53</ele>
</trkpt>
<trkpt lat="36.072918888888886" lon="139.36509">
<ele>53</ele>
</trkpt>
<trkpt lat="36.072963333333334" lon="139.3650975">
<ele>53</ele>
</trkpt>
<trkpt lat="36.073008055555555" lon="139.365105">
<ele>53</ele>
</trkpt>
<trkpt lat="36.0730525" lon="139.3651125">
<ele>50</ele>
</trkpt>
<trkpt lat="36.073096944444444" lon="139.36512">
<ele>50</ele>
</trkpt>
<trkpt lat="36.07311305555555" lon="139.36512277777777">
<ele>50</ele>
</trkpt>
<trkpt lat="36.07311305555555" lon="139.36512277777777">
<ele>50</ele>
</trkpt>
<trkpt lat="36.07315805555555" lon="139.36512055555556">
<ele>50</ele>
</trkpt>
<trkpt lat="36.07320277777778" lon="139.36511833333333">
<ele>50</ele>
</trkpt>
<trkpt lat="36.07324777777778" lon="139.36511638888888">
<ele>50</ele>
</trkpt>
<trkpt lat="36.0732925" lon="139.36511416666667">
<ele>50</ele>
</trkpt>
<trkpt lat="36.0733375" lon="139.36511194444444">
<ele>50</ele>
</trkpt>
<trkpt lat="36.07338222222222" lon="139.36510972222223">
<ele>52</ele>
</trkpt>
<trkpt lat="36.07342722222222" lon="139.3651075">
<ele>52</ele>
</trkpt>
<trkpt lat="36.07347222222222" lon="139.3651052777778">
<ele>53</ele>
</trkpt>
<trkpt lat="36.07351694444444" lon="139.36510333333334">
<ele>53</ele>
</trkpt>
<trkpt lat="36.07356194444444" lon="139.3651011111111">
<ele>53</ele>
</trkpt>
<trkpt lat="36.07360666666667" lon="139.3650988888889">
<ele>53</ele>
</trkpt>
<trkpt lat="36.07365166666666" lon="139.36509666666666">
<ele>53</ele>
</trkpt>
<trkpt lat="36.07369638888889" lon="139.36509444444445">
<ele>52</ele>
</trkpt>
<trkpt lat="36.07371944444444" lon="139.36509333333333">
<ele>52</ele>
</trkpt>
<trkpt lat="36.07371944444444" lon="139.36509333333333">
<ele>52</ele>
</trkpt>
<trkpt lat="36.07376333333333" lon="139.36508055555555">
<ele>52</ele>
</trkpt>
<trkpt lat="36.07380694444444" lon="139.36506777777777">
<ele>52</ele>
</trkpt>
<trkpt lat="36.07385055555556" lon="139.365055">
<ele>52</ele>
</trkpt>
<trkpt lat="36.07389444444444" lon="139.36504194444444">
<ele>51</ele>
</trkpt>
<trkpt lat="36.07393805555556" lon="139.36502916666666">
<ele>51</ele>
</trkpt>
<trkpt lat="36.07398166666667" lon="139.36501638888888">
<ele>51</ele>
</trkpt>
<trkpt lat="36.07402527777778" lon="139.36500361111112">
<ele>50</ele>
</trkpt>
<trkpt lat="36.07406638888889" lon="139.36499138888888">
<ele>51</ele>
</trkpt>
<trkpt lat="36.07406638888889" lon="139.36499138888888">
<ele>51</ele>
</trkpt>
<trkpt lat="36.07410388888889" lon="139.3649611111111">
<ele>51</ele>
</trkpt>
<trkpt lat="36.07414166666667" lon="139.36493055555556">
<ele>53</ele>
</trkpt>
<trkpt lat="36.07417916666667" lon="139.36490027777776">
<ele>52</ele>
</trkpt>
<trkpt lat="36.074216666666665" lon="139.3648697222222">
<ele>52</ele>
</trkpt>
<trkpt lat="36.07425416666667" lon="139.36483944444444">
<ele>52</ele>
</trkpt>
<trkpt lat="36.07429194444445" lon="139.3648088888889">
<ele>53</ele>
</trkpt>
<trkpt lat="36.074329444444444" lon="139.36477861111112">
<ele>53</ele>
</trkpt>
<trkpt lat="36.07436694444444" lon="139.36474805555557">
<ele>53</ele>
</trkpt>
<trkpt lat="36.07440472222222" lon="139.36471777777777">
<ele>53</ele>
</trkpt>
<trkpt lat="36.0744175" lon="139.36470722222222">
<ele>53</ele>
</trkpt>
<trkpt lat="36.0744175" lon="139.36470722222222">
<ele>53</ele>
</trkpt>
<trkpt lat="36.07445583333333" lon="139.36467833333333">
<ele>52</ele>
</trkpt>
<trkpt lat="36.07449444444445" lon="139.36464944444444">
<ele>54</ele>
</trkpt>
<trkpt lat="36.074532777777776" lon="139.36462055555555">
<ele>54</ele>
</trkpt>
<trkpt lat="36.07457111111111" lon="139.36459166666666">
<ele>53</ele>
</trkpt>
<trkpt lat="36.07460944444444" lon="139.3645627777778">
<ele>53</ele>
</trkpt>
<trkpt lat="36.07464777777778" lon="139.3645338888889">
<ele>54</ele>
</trkpt>
<trkpt lat="36.07468611111111" lon="139.364505">
<ele>55</ele>
</trkpt>
<trkpt lat="36.07471666666667" lon="139.36448194444444">
<ele>55</ele>
</trkpt>
<trkpt lat="36.07471666666667" lon="139.36448194444444">
<ele>55</ele>
</trkpt>
<trkpt lat="36.07476138888889" lon="139.36447694444445">
<ele>55</ele>
</trkpt>
<trkpt lat="36.07480611111111" lon="139.36447222222222">
<ele>55</ele>
</trkpt>
<trkpt lat="36.07485111111111" lon="139.3644675">
<ele>56</ele>
</trkpt>
<trkpt lat="36.074895833333336" lon="139.3644625">
<ele>56</ele>
</trkpt>
<trkpt lat="36.07494055555556" lon="139.36445777777777">
<ele>56</ele>
</trkpt>
<trkpt lat="36.07498527777778" lon="139.36445305555554">
<ele>56</ele>
</trkpt>
<trkpt lat="36.07503" lon="139.36444805555556">
<ele>58</ele>
</trkpt>
<trkpt lat="36.07507472222222" lon="139.36444333333333">
<ele>58</ele>
</trkpt>
<trkpt lat="36.075115555555556" lon="139.36443888888888">
<ele>58</ele>
</trkpt>
<trkpt lat="36.075115555555556" lon="139.36443888888888">
<ele>58</ele>
</trkpt>
<trkpt lat="36.075159722222224" lon="139.36445055555555">
<ele>56</ele>
</trkpt>
<trkpt lat="36.075203611111114" lon="139.36446194444446">
<ele>56</ele>
</trkpt>
<trkpt lat="36.0752475" lon="139.36447333333334">
<ele>56</ele>
</trkpt>
<trkpt lat="36.075291388888886" lon="139.364485">
<ele>56</ele>
</trkpt>
<trkpt lat="36.075335277777775" lon="139.36449638888888">
<ele>56</ele>
</trkpt>
<trkpt lat="36.075379444444444" lon="139.3645077777778">
<ele>58</ele>
</trkpt>
<trkpt lat="36.07542333333333" lon="139.36451944444445">
<ele>58</ele>
</trkpt>
<trkpt lat="36.07546722222222" lon="139.36453083333333">
<ele>58</ele>
</trkpt>
<trkpt lat="36.07550583333333" lon="139.36454083333334">
<ele>56</ele>
</trkpt>
<trkpt lat="36.07550583333333" lon="139.36454083333334">
<ele>56</ele>
</trkpt>
<trkpt lat="36.07555083333333" lon="139.3645388888889">
<ele>62</ele>
</trkpt>
<trkpt lat="36.07559555555556" lon="139.36453694444444">
<ele>63</ele>
</trkpt>
<trkpt lat="36.07564055555556" lon="139.36453472222223">
<ele>63</ele>
</trkpt>
<trkpt lat="36.07568527777778" lon="139.36453277777778">
<ele>64</ele>
</trkpt>
<trkpt lat="36.07573027777778" lon="139.36453083333333">
<ele>64</ele>
</trkpt>
<trkpt lat="36.07577527777778" lon="139.3645286111111">
<ele>64</ele>
</trkpt>
<trkpt lat="36.07582" lon="139.36452666666668">
<ele>64</ele>
</trkpt>
<trkpt lat="36.075865" lon="139.36452472222223">
<ele>64</ele>
</trkpt>
<trkpt lat="36.07590972222222" lon="139.36452277777778">
<ele>64</ele>
</trkpt>
<trkpt lat="36.07595472222222" lon="139.36452055555554">
<ele>64</ele>
</trkpt>
<trkpt lat="36.07599972222222" lon="139.36451861111112">
<ele>64</ele>
</trkpt>
<trkpt lat="36.07604444444444" lon="139.36451666666667">
<ele>64</ele>
</trkpt>
<trkpt lat="36.07608944444444" lon="139.36451444444444">
<ele>64</ele>
</trkpt>
<trkpt lat="36.07613416666667" lon="139.3645125">
<ele>65</ele>
</trkpt>
<trkpt lat="36.07617916666667" lon="139.36451055555557">
<ele>65</ele>
</trkpt>
<trkpt lat="36.07622416666667" lon="139.36450861111112">
<ele>65</ele>
</trkpt>
<trkpt lat="36.07626888888889" lon="139.36450638888888">
<ele>65</ele>
</trkpt>
<trkpt lat="36.07631388888889" lon="139.36450444444444">
<ele>65</ele>
</trkpt>
<trkpt lat="36.07633833333333" lon="139.36450333333335">
<ele>64</ele>
</trkpt>
<trkpt lat="36.07633833333333" lon="139.36450333333335">
<ele>64</ele>
</trkpt>
<trkpt lat="36.0763825" lon="139.36451277777778">
<ele>64</ele>
</trkpt>
<trkpt lat="36.07642694444444" lon="139.3645225">
<ele>64</ele>
</trkpt>
<trkpt lat="36.07647111111111" lon="139.36453194444445">
<ele>64</ele>
</trkpt>
<trkpt lat="36.07651527777778" lon="139.36454166666667">
<ele>64</ele>
</trkpt>
<trkpt lat="36.07655944444444" lon="139.3645511111111">
<ele>64</ele>
</trkpt>
<trkpt lat="36.07660388888889" lon="139.36456083333334">
<ele>65</ele>
</trkpt>
<trkpt lat="36.07661138888889" lon="139.36456222222222">
<ele>65</ele>
</trkpt>
<trkpt lat="36.07661138888889" lon="139.36456222222222">
<ele>66</ele>
</trkpt>
<trkpt lat="36.07665166666666" lon="139.3645872222222">
<ele>66</ele>
</trkpt>
<trkpt lat="36.07669194444444" lon="139.36461194444445">
<ele>67</ele>
</trkpt>
<trkpt lat="36.07673194444445" lon="139.36463694444444">
<ele>67</ele>
</trkpt>
<trkpt lat="36.076772222222225" lon="139.36466166666668">
<ele>67</ele>
</trkpt>
<trkpt lat="36.07681222222222" lon="139.36468666666667">
<ele>69</ele>
</trkpt>
<trkpt lat="36.0768525" lon="139.36471138888888">
<ele>69</ele>
</trkpt>
<trkpt lat="36.07689277777778" lon="139.3647363888889">
<ele>70</ele>
</trkpt>
<trkpt lat="36.07693277777778" lon="139.3647611111111">
<ele>70</ele>
</trkpt>
<trkpt lat="36.07694111111111" lon="139.36476611111112">
<ele>69</ele>
</trkpt>
<trkpt lat="36.07694111111111" lon="139.36476611111112">
<ele>69</ele>
</trkpt>
<trkpt lat="36.07697111111111" lon="139.3648075">
<ele>70</ele>
</trkpt>
<trkpt lat="36.07700138888889" lon="139.3648486111111">
<ele>70</ele>
</trkpt>
<trkpt lat="36.07703138888889" lon="139.36488972222222">
<ele>70</ele>
</trkpt>
<trkpt lat="36.077061666666665" lon="139.36493083333335">
<ele>70</ele>
</trkpt>
<trkpt lat="36.07706666666667" lon="139.36493777777778">
<ele>70</ele>
</trkpt>
<trkpt lat="36.07706666666667" lon="139.36493777777778">
<ele>70</ele>
</trkpt>
<trkpt lat="36.07706861111111" lon="139.36499333333333">
<ele>70</ele>
</trkpt>
<trkpt lat="36.07707027777778" lon="139.36504888888888">
<ele>70</ele>
</trkpt>
<trkpt lat="36.07707222222222" lon="139.36510444444446">
<ele>70</ele>
</trkpt>
<trkpt lat="36.07707361111111" lon="139.36515083333333">
<ele>70</ele>
</trkpt>
<trkpt lat="36.07707361111111" lon="139.36515083333333">
<ele>70</ele>
</trkpt>
<trkpt lat="36.07708777777778" lon="139.3652036111111">
<ele>70</ele>
</trkpt>
<trkpt lat="36.077101666666664" lon="139.3652563888889">
<ele>70</ele>
</trkpt>
<trkpt lat="36.07711583333333" lon="139.36530916666666">
<ele>70</ele>
</trkpt>
<trkpt lat="36.077129722222224" lon="139.36536194444443">
<ele>70</ele>
</trkpt>
<trkpt lat="36.07714388888889" lon="139.36541472222223">
<ele>70</ele>
</trkpt>
<trkpt lat="36.07715777777778" lon="139.3654675">
<ele>70</ele>
</trkpt>
<trkpt lat="36.077171944444444" lon="139.3655202777778">
<ele>70</ele>
</trkpt>
<trkpt lat="36.07717777777778" lon="139.3655425">
<ele>70</ele>
</trkpt>
<trkpt lat="36.07717777777778" lon="139.3655425">
<ele>70</ele>
</trkpt>
<trkpt lat="36.07720416666667" lon="139.36558722222222">
<ele>70</ele>
</trkpt>
<trkpt lat="36.07723055555556" lon="139.36563222222222">
<ele>70</ele>
</trkpt>
<trkpt lat="36.07725722222222" lon="139.36567722222222">
<ele>70</ele>
</trkpt>
<trkpt lat="36.07728361111111" lon="139.36572194444443">
<ele>71</ele>
</trkpt>
<trkpt lat="36.077305277777775" lon="139.36575861111112">
<ele>71</ele>
</trkpt>
<trkpt lat="36.077305277777775" lon="139.36575861111112">
<ele>71</ele>
</trkpt>
<trkpt lat="36.07735777777778" lon="139.3657863888889">
<ele>71</ele>
</trkpt>
<trkpt lat="36.07741027777778" lon="139.36581388888888">
<ele>71</ele>
</trkpt>
<trkpt lat="36.077463055555555" lon="139.36584166666665">
<ele>71</ele>
</trkpt>
<trkpt lat="36.07751555555556" lon="139.36586916666667">
<ele>71</ele>
</trkpt>
<trkpt lat="36.07756805555555" lon="139.36589694444444">
<ele>72</ele>
</trkpt>
<trkpt lat="36.077620833333334" lon="139.36592472222222">
<ele>72</ele>
</trkpt>
<trkpt lat="36.07767333333334" lon="139.36595222222223">
<ele>71</ele>
</trkpt>
<trkpt lat="36.07772583333333" lon="139.36598">
<ele>71</ele>
</trkpt>
<trkpt lat="36.077778611111114" lon="139.36600777777778">
<ele>71</ele>
</trkpt>
<trkpt lat="36.07783111111111" lon="139.36603527777777">
<ele>71</ele>
</trkpt>
<trkpt lat="36.07788361111111" lon="139.36606305555554">
<ele>71</ele>
</trkpt>
<trkpt lat="36.07793638888889" lon="139.36609055555556">
<ele>71</ele>
</trkpt>
<trkpt lat="36.07798888888889" lon="139.36611833333333">
<ele>71</ele>
</trkpt>
<trkpt lat="36.078041666666664" lon="139.3661461111111">
<ele>71</ele>
</trkpt>
<trkpt lat="36.078094166666666" lon="139.36617361111112">
<ele>71</ele>
</trkpt>
<trkpt lat="36.07814666666667" lon="139.3662013888889">
<ele>72</ele>
</trkpt>
<trkpt lat="36.078199444444444" lon="139.36622888888888">
<ele>72</ele>
</trkpt>
<trkpt lat="36.078251944444446" lon="139.36625666666666">
<ele>72</ele>
</trkpt>
<trkpt lat="36.07830444444444" lon="139.36628444444443">
<ele>72</ele>
</trkpt>
<trkpt lat="36.07830444444444" lon="139.36628444444443">
<ele>72</ele>
</trkpt>
<trkpt lat="36.07830444444444" lon="139.36628444444443">
<ele>72</ele>
</trkpt>
<trkpt lat="36.07834666666667" lon="139.36630333333332">
<ele>72</ele>
</trkpt>
<trkpt lat="36.07838888888889" lon="139.3663222222222">
<ele>72</ele>
</trkpt>
<trkpt lat="36.07843111111111" lon="139.36634138888888">
<ele>72</ele>
</trkpt>
<trkpt lat="36.078473333333335" lon="139.36636027777777">
<ele>72</ele>
</trkpt>
<trkpt lat="36.078515555555555" lon="139.36637916666666">
<ele>72</ele>
</trkpt>
<trkpt lat="36.078557777777775" lon="139.36639833333334">
<ele>72</ele>
</trkpt>
<trkpt lat="36.0786" lon="139.36641722222222">
<ele>72</ele>
</trkpt>
<trkpt lat="36.07864222222222" lon="139.3664363888889">
<ele>72</ele>
</trkpt>
<trkpt lat="36.07868444444444" lon="139.3664552777778">
<ele>71</ele>
</trkpt>
<trkpt lat="36.07872666666667" lon="139.36647416666668">
<ele>71</ele>
</trkpt>
<trkpt lat="36.07873388888889" lon="139.3664775">
<ele>71</ele>
</trkpt>
<trkpt lat="36.07873388888889" lon="139.3664775">
<ele>71</ele>
</trkpt>
<trkpt lat="36.0787775" lon="139.36648944444445">
<ele>71</ele>
</trkpt>
<trkpt lat="36.07882138888889" lon="139.36650138888888">
<ele>71</ele>
</trkpt>
<trkpt lat="36.07886527777778" lon="139.36651333333333">
<ele>71</ele>
</trkpt>
<trkpt lat="36.07890916666667" lon="139.36652555555557">
<ele>71</ele>
</trkpt>
<trkpt lat="36.07895305555556" lon="139.3665375">
<ele>71</ele>
</trkpt>
<trkpt lat="36.07899694444444" lon="139.36654944444444">
<ele>71</ele>
</trkpt>
<trkpt lat="36.07904083333333" lon="139.3665613888889">
<ele>71</ele>
</trkpt>
<trkpt lat="36.07908472222222" lon="139.36657333333332">
<ele>71</ele>
</trkpt>
<trkpt lat="36.07912833333334" lon="139.36658555555556">
<ele>70</ele>
</trkpt>
<trkpt lat="36.07917222222222" lon="139.3665975">
<ele>70</ele>
</trkpt>
<trkpt lat="36.07918472222222" lon="139.36660083333334">
<ele>70</ele>
</trkpt>
<trkpt lat="36.07918472222222" lon="139.36660083333334">
<ele>70</ele>
</trkpt>
<trkpt lat="36.079229444444444" lon="139.36660388888887">
<ele>70</ele>
</trkpt>
<trkpt lat="36.079274444444444" lon="139.36660694444444">
<ele>70</ele>
</trkpt>
<trkpt lat="36.079319166666664" lon="139.36660972222222">
<ele>70</ele>
</trkpt>
<trkpt lat="36.079345" lon="139.36661166666667">
<ele>72</ele>
</trkpt>
<trkpt lat="36.079345" lon="139.36661166666667">
<ele>72</ele>
</trkpt>
<trkpt lat="36.079389444444445" lon="139.36662">
<ele>71</ele>
</trkpt>
<trkpt lat="36.079433888888886" lon="139.36662833333332">
<ele>71</ele>
</trkpt>
<trkpt lat="36.079478333333334" lon="139.36663694444445">
<ele>71</ele>
</trkpt>
<trkpt lat="36.0795225" lon="139.36664527777776">
<ele>71</ele>
</trkpt>
<trkpt lat="36.079566944444444" lon="139.3666538888889">
<ele>71</ele>
</trkpt>
<trkpt lat="36.079611388888885" lon="139.36666222222223">
<ele>71</ele>
</trkpt>
<trkpt lat="36.079655833333334" lon="139.36667083333333">
<ele>71</ele>
</trkpt>
<trkpt lat="36.079700277777775" lon="139.36667916666667">
<ele>71</ele>
</trkpt>
<trkpt lat="36.07974472222222" lon="139.3666875">
<ele>71</ele>
</trkpt>
<trkpt lat="36.07978888888889" lon="139.3666961111111">
<ele>71</ele>
</trkpt>
<trkpt lat="36.079795833333336" lon="139.3666975">
<ele>71</ele>
</trkpt>
<trkpt lat="36.079795833333336" lon="139.3666975">
<ele>71</ele>
</trkpt>
<trkpt lat="36.079839722222225" lon="139.36670944444444">
<ele>71</ele>
</trkpt>
<trkpt lat="36.079883611111114" lon="139.3667213888889">
<ele>71</ele>
</trkpt>
<trkpt lat="36.0799275" lon="139.36673333333334">
<ele>71</ele>
</trkpt>
<trkpt lat="36.079971388888886" lon="139.36674527777777">
<ele>71</ele>
</trkpt>
<trkpt lat="36.080015277777775" lon="139.36675722222222">
<ele>71</ele>
</trkpt>
<trkpt lat="36.080059166666665" lon="139.36676916666667">
<ele>70</ele>
</trkpt>
<trkpt lat="36.080103055555554" lon="139.36678138888888">
<ele>70</ele>
</trkpt>
<trkpt lat="36.080146944444444" lon="139.36679333333333">
<ele>70</ele>
</trkpt>
<trkpt lat="36.08019055555555" lon="139.3668052777778">
<ele>70</ele>
</trkpt>
<trkpt lat="36.08023444444444" lon="139.3668172222222">
<ele>70</ele>
</trkpt>
<trkpt lat="36.08027833333333" lon="139.36682916666666">
<ele>68</ele>
</trkpt>
<trkpt lat="36.08032222222222" lon="139.3668411111111">
<ele>68</ele>
</trkpt>
<trkpt lat="36.08036611111111" lon="139.36685305555557">
<ele>66</ele>
</trkpt>
<trkpt lat="36.08041" lon="139.366865">
<ele>66</ele>
</trkpt>
<trkpt lat="36.08045388888889" lon="139.36687722222223">
<ele>66</ele>
</trkpt>
<trkpt lat="36.080463611111114" lon="139.36687972222222">
<ele>66</ele>
</trkpt>
<trkpt lat="36.080463611111114" lon="139.36687972222222">
<ele>66</ele>
</trkpt>
<trkpt lat="36.080506666666665" lon="139.3668636111111">
<ele>66</ele>
</trkpt>
<trkpt lat="36.08054944444444" lon="139.3668475">
<ele>66</ele>
</trkpt>
<trkpt lat="36.0805925" lon="139.3668311111111">
<ele>64</ele>
</trkpt>
<trkpt lat="36.08063555555555" lon="139.366815">
<ele>64</ele>
</trkpt>
<trkpt lat="36.08067861111111" lon="139.3667988888889">
<ele>64</ele>
</trkpt>
<trkpt lat="36.08072138888889" lon="139.3667827777778">
<ele>64</ele>
</trkpt>
<trkpt lat="36.08076444444445" lon="139.3667663888889">
<ele>65</ele>
</trkpt>
<trkpt lat="36.0808075" lon="139.36675027777778">
<ele>66</ele>
</trkpt>
<trkpt lat="36.08085027777778" lon="139.36673416666667">
<ele>66</ele>
</trkpt>
<trkpt lat="36.0808625" lon="139.36672944444445">
<ele>66</ele>
</trkpt>
<trkpt lat="36.0808625" lon="139.36672944444445">
<ele>66</ele>
</trkpt>
<trkpt lat="36.08090583333333" lon="139.36674472222222">
<ele>67</ele>
</trkpt>
<trkpt lat="36.08094888888889" lon="139.3667597222222">
<ele>67</ele>
</trkpt>
<trkpt lat="36.08099222222222" lon="139.366775">
<ele>67</ele>
</trkpt>
<trkpt lat="36.08103527777778" lon="139.36679">
<ele>67</ele>
</trkpt>
<trkpt lat="36.08106194444444" lon="139.36679944444444">
<ele>67</ele>
</trkpt>
<trkpt lat="36.08106194444444" lon="139.36679944444444">
<ele>67</ele>
</trkpt>
<trkpt lat="36.08108527777778" lon="139.36684666666667">
<ele>67</ele>
</trkpt>
<trkpt lat="36.08110861111111" lon="139.36689416666667">
<ele>66</ele>
</trkpt>
<trkpt lat="36.081131944444444" lon="139.36694166666666">
<ele>67</ele>
</trkpt>
<trkpt lat="36.081155277777775" lon="139.36698916666666">
<ele>67</ele>
</trkpt>
<trkpt lat="36.08117861111111" lon="139.36703666666668">
<ele>66</ele>
</trkpt>
<trkpt lat="36.081202222222224" lon="139.36708416666667">
<ele>66</ele>
</trkpt>
<trkpt lat="36.081225555555555" lon="139.36713166666667">
<ele>67</ele>
</trkpt>
<trkpt lat="36.08124888888889" lon="139.36717916666666">
<ele>67</ele>
</trkpt>
<trkpt lat="36.081272222222225" lon="139.3672263888889">
<ele>66</ele>
</trkpt>
<trkpt lat="36.081295555555556" lon="139.3672738888889">
<ele>66</ele>
</trkpt>
<trkpt lat="36.08131888888889" lon="139.36732138888888">
<ele>66</ele>
</trkpt>
<trkpt lat="36.081342222222226" lon="139.36736888888888">
<ele>67</ele>
</trkpt>
<trkpt lat="36.08136555555556" lon="139.3674163888889">
<ele>67</ele>
</trkpt>
<trkpt lat="36.08138888888889" lon="139.3674638888889">
<ele>67</ele>
</trkpt>
<trkpt lat="36.0814125" lon="139.3675113888889">
<ele>67</ele>
</trkpt>
<trkpt lat="36.08141305555556" lon="139.3675127777778">
<ele>67</ele>
</trkpt>
<trkpt lat="36.08141305555556" lon="139.3675127777778">
<ele>67</ele>
</trkpt>
<trkpt lat="36.08144472222222" lon="139.36755194444444">
<ele>70</ele>
</trkpt>
<trkpt lat="36.08147666666667" lon="139.36759138888888">
<ele>70</ele>
</trkpt>
<trkpt lat="36.08150833333333" lon="139.36763055555556">
<ele>70</ele>
</trkpt>
<trkpt lat="36.08154" lon="139.36767">
<ele>70</ele>
</trkpt>
<trkpt lat="36.08157194444444" lon="139.36770916666666">
<ele>72</ele>
</trkpt>
<trkpt lat="36.08160361111111" lon="139.36774861111113">
<ele>72</ele>
</trkpt>
<trkpt lat="36.081608055555556" lon="139.36775416666666">
<ele>72</ele>
</trkpt>
<trkpt lat="36.081608055555556" lon="139.36775416666666">
<ele>72</ele>
</trkpt>
<trkpt lat="36.081650555555555" lon="139.3677727777778">
<ele>72</ele>
</trkpt>
<trkpt lat="36.081692777777775" lon="139.3677913888889">
<ele>73</ele>
</trkpt>
<trkpt lat="36.081735" lon="139.36781">
<ele>73</ele>
</trkpt>
<trkpt lat="36.0817775" lon="139.36782888888888">
<ele>73</ele>
</trkpt>
<trkpt lat="36.08181972222222" lon="139.3678475">
<ele>75</ele>
</trkpt>
<trkpt lat="36.08186194444445" lon="139.3678661111111">
<ele>75</ele>
</trkpt>
<trkpt lat="36.08190444444445" lon="139.36788472222221">
<ele>77</ele>
</trkpt>
<trkpt lat="36.08192472222222" lon="139.3678936111111">
<ele>75</ele>
</trkpt>
<trkpt lat="36.08192472222222" lon="139.3678936111111">
<ele>75</ele>
</trkpt>
<trkpt lat="36.08196888888889" lon="139.36788333333334">
<ele>75</ele>
</trkpt>
<trkpt lat="36.08201277777778" lon="139.3678727777778">
<ele>77</ele>
</trkpt>
<trkpt lat="36.082056944444446" lon="139.3678625">
<ele>76</ele>
</trkpt>
<trkpt lat="36.08210111111111" lon="139.36785194444445">
<ele>76</ele>
</trkpt>
<trkpt lat="36.08214527777778" lon="139.36784166666666">
<ele>76</ele>
</trkpt>
<trkpt lat="36.082189444444445" lon="139.3678313888889">
<ele>73</ele>
</trkpt>
<trkpt lat="36.08219777777778" lon="139.36782916666667">
<ele>73</ele>
</trkpt>
<trkpt lat="36.08219777777778" lon="139.36782916666667">
<ele>73</ele>
</trkpt>
<trkpt lat="36.08223805555556" lon="139.36780472222222">
<ele>71</ele>
</trkpt>
<trkpt lat="36.082278333333335" lon="139.36778027777777">
<ele>71</ele>
</trkpt>
<trkpt lat="36.08231861111111" lon="139.36775583333332">
<ele>74</ele>
</trkpt>
<trkpt lat="36.08235888888889" lon="139.3677311111111">
<ele>73</ele>
</trkpt>
<trkpt lat="36.08239944444444" lon="139.36770666666666">
<ele>73</ele>
</trkpt>
<trkpt lat="36.08243972222222" lon="139.36768222222221">
<ele>73</ele>
</trkpt>
<trkpt lat="36.08246222222222" lon="139.36766833333334">
<ele>73</ele>
</trkpt>
<trkpt lat="36.08246222222222" lon="139.36766833333334">
<ele>73</ele>
</trkpt>
<trkpt lat="36.08250722222222" lon="139.36766944444443">
<ele>73</ele>
</trkpt>
<trkpt lat="36.08255194444445" lon="139.3676702777778">
<ele>73</ele>
</trkpt>
<trkpt lat="36.08259694444445" lon="139.36767138888888">
<ele>73</ele>
</trkpt>
<trkpt lat="36.08264194444445" lon="139.3676725">
<ele>73</ele>
</trkpt>
<trkpt lat="36.08268666666667" lon="139.36767361111112">
<ele>74</ele>
</trkpt>
<trkpt lat="36.08269638888889" lon="139.36767361111112">
<ele>74</ele>
</trkpt>
<trkpt lat="36.08269638888889" lon="139.36767361111112">
<ele>74</ele>
</trkpt>
<trkpt lat="36.08273722222222" lon="139.36769694444445">
<ele>74</ele>
</trkpt>
<trkpt lat="36.08277805555556" lon="139.36772027777778">
<ele>75</ele>
</trkpt>
<trkpt lat="36.08281861111111" lon="139.3677436111111">
<ele>75</ele>
</trkpt>
<trkpt lat="36.082859444444445" lon="139.36776666666665">
<ele>75</ele>
</trkpt>
<trkpt lat="36.082900277777775" lon="139.36779">
<ele>73</ele>
</trkpt>
<trkpt lat="36.08294111111111" lon="139.36781333333334">
<ele>73</ele>
</trkpt>
<trkpt lat="36.08298194444444" lon="139.36783666666668">
<ele>73</ele>
</trkpt>
<trkpt lat="36.08302277777778" lon="139.36786">
<ele>73</ele>
</trkpt>
<trkpt lat="36.083063333333335" lon="139.36788305555555">
<ele>73</ele>
</trkpt>
<trkpt lat="36.083104166666665" lon="139.36790638888888">
<ele>71</ele>
</trkpt>
<trkpt lat="36.083145" lon="139.36792972222221">
<ele>72</ele>
</trkpt>
<trkpt lat="36.08318583333333" lon="139.36795305555555">
<ele>72</ele>
</trkpt>
<trkpt lat="36.08322666666667" lon="139.36797611111112">
<ele>71</ele>
</trkpt>
<trkpt lat="36.0832675" lon="139.36799944444445">
<ele>71</ele>
</trkpt>
<trkpt lat="36.083308333333335" lon="139.36802277777778">
<ele>70</ele>
</trkpt>
<trkpt lat="36.08334888888889" lon="139.3680461111111">
<ele>69</ele>
</trkpt>
<trkpt lat="36.08336388888889" lon="139.3680547222222">
<ele>73</ele>
</trkpt>
<trkpt lat="36.08336388888889" lon="139.3680547222222">
<ele>73</ele>
</trkpt>
<trkpt lat="36.083395" lon="139.368095">
<ele>71</ele>
</trkpt>
<trkpt lat="36.08342583333334" lon="139.36813527777778">
<ele>72</ele>
</trkpt>
<trkpt lat="36.08345666666666" lon="139.36817555555555">
<ele>72</ele>
</trkpt>
<trkpt lat="36.0834875" lon="139.3682161111111">
<ele>71</ele>
</trkpt>
<trkpt lat="36.08351833333333" lon="139.36825638888888">
<ele>71</ele>
</trkpt>
<trkpt lat="36.083549444444444" lon="139.36829666666668">
<ele>70</ele>
</trkpt>
<trkpt lat="36.08358027777778" lon="139.36833694444445">
<ele>69</ele>
</trkpt>
<trkpt lat="36.083598055555555" lon="139.36836027777778">
<ele>69</ele>
</trkpt>
<trkpt lat="36.083598055555555" lon="139.36836027777778">
<ele>68</ele>
</trkpt>
<trkpt lat="36.08361444444444" lon="139.36841194444443">
<ele>68</ele>
</trkpt>
<trkpt lat="36.08363111111111" lon="139.3684638888889">
<ele>67</ele>
</trkpt>
<trkpt lat="36.0836475" lon="139.36851555555555">
<ele>67</ele>
</trkpt>
<trkpt lat="36.083663888888886" lon="139.36856722222223">
<ele>66</ele>
</trkpt>
<trkpt lat="36.08368055555555" lon="139.36861888888888">
<ele>67</ele>
</trkpt>
<trkpt lat="36.08369694444445" lon="139.36867055555555">
<ele>66</ele>
</trkpt>
<trkpt lat="36.083713333333336" lon="139.36872222222223">
<ele>66</ele>
</trkpt>
<trkpt lat="36.08372972222222" lon="139.36877416666667">
<ele>66</ele>
</trkpt>
<trkpt lat="36.083730833333334" lon="139.36877722222223">
<ele>66</ele>
</trkpt>
<trkpt lat="36.083730833333334" lon="139.36877722222223">
<ele>66</ele>
</trkpt>
<trkpt lat="36.08375916666667" lon="139.3688202777778">
<ele>66</ele>
</trkpt>
<trkpt lat="36.0837875" lon="139.36886333333334">
<ele>66</ele>
</trkpt>
<trkpt lat="36.08381583333333" lon="139.3689063888889">
<ele>66</ele>
</trkpt>
<trkpt lat="36.083844166666665" lon="139.36894944444444">
<ele>65</ele>
</trkpt>
<trkpt lat="36.08387277777778" lon="139.3689925">
<ele>66</ele>
</trkpt>
<trkpt lat="36.08387388888889" lon="139.36899444444444">
<ele>65</ele>
</trkpt>
<trkpt lat="36.08387388888889" lon="139.36899444444444">
<ele>65</ele>
</trkpt>
<trkpt lat="36.08391777777778" lon="139.3690063888889">
<ele>62</ele>
</trkpt>
<trkpt lat="36.08396166666667" lon="139.3690186111111">
<ele>62</ele>
</trkpt>
<trkpt lat="36.08400527777778" lon="139.36903055555555">
<ele>60</ele>
</trkpt>
<trkpt lat="36.08401055555556" lon="139.36903194444446">
<ele>60</ele>
</trkpt>
<trkpt lat="36.08401055555556" lon="139.36903194444446">
<ele>60</ele>
</trkpt>
<trkpt lat="36.084055" lon="139.3690261111111">
<ele>60</ele>
</trkpt>
<trkpt lat="36.08409972222222" lon="139.36902027777776">
<ele>60</ele>
</trkpt>
<trkpt lat="36.08414444444445" lon="139.36901416666666">
<ele>60</ele>
</trkpt>
<trkpt lat="36.08418916666667" lon="139.36900833333334">
<ele>60</ele>
</trkpt>
<trkpt lat="36.08423361111111" lon="139.3690025">
<ele>60</ele>
</trkpt>
<trkpt lat="36.08427833333333" lon="139.36899666666667">
<ele>61</ele>
</trkpt>
<trkpt lat="36.08432305555556" lon="139.36899055555557">
<ele>61</ele>
</trkpt>
<trkpt lat="36.08436777777778" lon="139.36898472222222">
<ele>61</ele>
</trkpt>
<trkpt lat="36.0844125" lon="139.36897888888888">
<ele>61</ele>
</trkpt>
<trkpt lat="36.08445694444445" lon="139.36897305555556">
<ele>62</ele>
</trkpt>
<trkpt lat="36.08450166666667" lon="139.36896694444445">
<ele>62</ele>
</trkpt>
<trkpt lat="36.084517777777776" lon="139.368965">
<ele>62</ele>
</trkpt>
<trkpt lat="36.084517777777776" lon="139.368965">
<ele>62</ele>
</trkpt>
<trkpt lat="36.08454972222222" lon="139.36892583333332">
<ele>62</ele>
</trkpt>
<trkpt lat="36.084581666666665" lon="139.36888694444445">
<ele>64</ele>
</trkpt>
<trkpt lat="36.08461361111111" lon="139.36884805555556">
<ele>64</ele>
</trkpt>
<trkpt lat="36.08464583333333" lon="139.36880888888888">
<ele>64</ele>
</trkpt>
<trkpt lat="36.08467777777778" lon="139.36877">
<ele>66</ele>
</trkpt>
<trkpt lat="36.08470972222222" lon="139.36873111111112">
<ele>66</ele>
</trkpt>
<trkpt lat="36.084741666666666" lon="139.36869194444444">
<ele>66</ele>
</trkpt>
<trkpt lat="36.08477388888889" lon="139.36865305555557">
<ele>66</ele>
</trkpt>
<trkpt lat="36.08479305555556" lon="139.3686297222222">
<ele>65</ele>
</trkpt>
<trkpt lat="36.08479305555556" lon="139.3686297222222">
<ele>65</ele>
</trkpt>
<trkpt lat="36.08483361111111" lon="139.36860611111112">
<ele>65</ele>
</trkpt>
<trkpt lat="36.084874444444445" lon="139.3685827777778">
<ele>65</ele>
</trkpt>
<trkpt lat="36.084915277777775" lon="139.36855944444446">
<ele>63</ele>
</trkpt>
<trkpt lat="36.08495583333333" lon="139.36853583333334">
<ele>63</ele>
</trkpt>
<trkpt lat="36.08499666666667" lon="139.3685125">
<ele>63</ele>
</trkpt>
<trkpt lat="36.08503722222222" lon="139.36848916666668">
<ele>61</ele>
</trkpt>
<trkpt lat="36.085078055555556" lon="139.36846555555556">
<ele>61</ele>
</trkpt>
<trkpt lat="36.085100833333335" lon="139.3684525">
<ele>62</ele>
</trkpt>
<trkpt lat="36.085100833333335" lon="139.3684525">
<ele>62</ele>
</trkpt>
<trkpt lat="36.085144166666666" lon="139.36843833333333">
<ele>62</ele>
</trkpt>
<trkpt lat="36.0851875" lon="139.36842388888888">
<ele>62</ele>
</trkpt>
<trkpt lat="36.085230833333334" lon="139.36840972222222">
<ele>62</ele>
</trkpt>
<trkpt lat="36.085274444444444" lon="139.36839527777778">
<ele>62</ele>
</trkpt>
<trkpt lat="36.085317777777774" lon="139.36838083333333">
<ele>62</ele>
</trkpt>
<trkpt lat="36.08536111111111" lon="139.36836666666667">
<ele>62</ele>
</trkpt>
<trkpt lat="36.08540444444444" lon="139.36835222222223">
<ele>62</ele>
</trkpt>
<trkpt lat="36.08544777777778" lon="139.36833777777778">
<ele>64</ele>
</trkpt>
<trkpt lat="36.085482222222225" lon="139.36832666666666">
<ele>64</ele>
</trkpt>
<trkpt lat="36.085482222222225" lon="139.36832666666666">
<ele>64</ele>
</trkpt>
<trkpt lat="36.085527222222225" lon="139.36832722222223">
<ele>64</ele>
</trkpt>
<trkpt lat="36.085571944444446" lon="139.36832777777778">
<ele>64</ele>
</trkpt>
<trkpt lat="36.085616944444446" lon="139.36832833333332">
<ele>64</ele>
</trkpt>
<trkpt lat="36.085661944444446" lon="139.3683288888889">
<ele>64</ele>
</trkpt>
<trkpt lat="36.085706944444446" lon="139.36832944444444">
<ele>64</ele>
</trkpt>
<trkpt lat="36.08575166666667" lon="139.36833">
<ele>64</ele>
</trkpt>
<trkpt lat="36.08579666666667" lon="139.36833055555556">
<ele>64</ele>
</trkpt>
<trkpt lat="36.08584166666667" lon="139.3683311111111">
<ele>64</ele>
</trkpt>
<trkpt lat="36.08588638888889" lon="139.36833166666668">
<ele>64</ele>
</trkpt>
<trkpt lat="36.08593138888889" lon="139.36833222222222">
<ele>63</ele>
</trkpt>
<trkpt lat="36.08597638888889" lon="139.36833277777777">
<ele>63</ele>
</trkpt>
<trkpt lat="36.08602111111111" lon="139.36833333333334">
<ele>62</ele>
</trkpt>
<trkpt lat="36.08606611111111" lon="139.36833416666667">
<ele>62</ele>
</trkpt>
<trkpt lat="36.08611111111111" lon="139.36833472222222">
<ele>62</ele>
</trkpt>
<trkpt lat="36.086155833333336" lon="139.3683352777778">
<ele>62</ele>
</trkpt>
<trkpt lat="36.086200833333336" lon="139.36833583333333">
<ele>62</ele>
</trkpt>
<trkpt lat="36.08623611111111" lon="139.36833611111112">
<ele>62</ele>
</trkpt>
<trkpt lat="36.08623611111111" lon="139.36833611111112">
<ele>62</ele>
</trkpt>
<trkpt lat="36.086279166666664" lon="139.36832">
<ele>63</ele>
</trkpt>
<trkpt lat="36.08632194444444" lon="139.3683038888889">
<ele>63</ele>
</trkpt>
<trkpt lat="36.086365" lon="139.3682875">
<ele>65</ele>
</trkpt>
<trkpt lat="36.08640805555556" lon="139.3682713888889">
<ele>65</ele>
</trkpt>
<trkpt lat="36.08645083333333" lon="139.368255">
<ele>66</ele>
</trkpt>
<trkpt lat="36.08649388888889" lon="139.3682388888889">
<ele>66</ele>
</trkpt>
<trkpt lat="36.08653694444445" lon="139.3682225">
<ele>66</ele>
</trkpt>
<trkpt lat="36.086579722222226" lon="139.3682063888889">
<ele>68</ele>
</trkpt>
<trkpt lat="36.08662277777778" lon="139.36819027777779">
<ele>68</ele>
</trkpt>
<trkpt lat="36.08664805555556" lon="139.36818055555557">
<ele>68</ele>
</trkpt>
<trkpt lat="36.08664805555556" lon="139.36818055555557">
<ele>68</ele>
</trkpt>
<trkpt lat="36.08669277777778" lon="139.36818">
<ele>69</ele>
</trkpt>
<trkpt lat="36.08673777777778" lon="139.36817944444445">
<ele>69</ele>
</trkpt>
<trkpt lat="36.08678277777778" lon="139.36817888888888">
<ele>70</ele>
</trkpt>
<trkpt lat="36.0868275" lon="139.36817861111112">
<ele>70</ele>
</trkpt>
<trkpt lat="36.0868725" lon="139.36817805555555">
<ele>70</ele>
</trkpt>
<trkpt lat="36.0869175" lon="139.3681775">
<ele>70</ele>
</trkpt>
<trkpt lat="36.08696222222222" lon="139.36817694444446">
<ele>70</ele>
</trkpt>
<trkpt lat="36.08700722222222" lon="139.36817638888888">
<ele>70</ele>
</trkpt>
<trkpt lat="36.08705222222222" lon="139.36817583333334">
<ele>70</ele>
</trkpt>
<trkpt lat="36.08709" lon="139.36817527777777">
<ele>70</ele>
</trkpt>
<trkpt lat="36.08709" lon="139.36817527777777">
<ele>70</ele>
</trkpt>
<trkpt lat="36.08713222222222" lon="139.36815583333333">
<ele>70</ele>
</trkpt>
<trkpt lat="36.087174166666664" lon="139.3681363888889">
<ele>70</ele>
</trkpt>
<trkpt lat="36.08721638888889" lon="139.36811666666668">
<ele>70</ele>
</trkpt>
<trkpt lat="36.08725833333333" lon="139.36809722222222">
<ele>70</ele>
</trkpt>
<trkpt lat="36.08729833333334" lon="139.36807861111112">
<ele>70</ele>
</trkpt>
<trkpt lat="36.08729833333334" lon="139.36807861111112">
<ele>70</ele>
</trkpt>
<trkpt lat="36.087335555555555" lon="139.36804777777778">
<ele>70</ele>
</trkpt>
<trkpt lat="36.08737277777778" lon="139.36801694444443">
<ele>70</ele>
</trkpt>
<trkpt lat="36.08741027777778" lon="139.36798583333334">
<ele>70</ele>
</trkpt>
<trkpt lat="36.0874475" lon="139.367955">
<ele>70</ele>
</trkpt>
<trkpt lat="36.08748472222222" lon="139.36792416666665">
<ele>70</ele>
</trkpt>
<trkpt lat="36.08752222222222" lon="139.36789305555556">
<ele>70</ele>
</trkpt>
<trkpt lat="36.087559444444445" lon="139.36786222222221">
<ele>71</ele>
</trkpt>
<trkpt lat="36.08759666666667" lon="139.3678313888889">
<ele>71</ele>
</trkpt>
<trkpt lat="36.08763416666667" lon="139.36780027777777">
<ele>71</ele>
</trkpt>
<trkpt lat="36.087671388888886" lon="139.36776944444443">
<ele>71</ele>
</trkpt>
<trkpt lat="36.08770861111111" lon="139.36773833333334">
<ele>71</ele>
</trkpt>
<trkpt lat="36.08774472222222" lon="139.3677086111111">
<ele>71</ele>
</trkpt>
<trkpt lat="36.08774472222222" lon="139.3677086111111">
<ele>71</ele>
</trkpt>
<trkpt lat="36.08778638888889" lon="139.36768805555556">
<ele>72</ele>
</trkpt>
<trkpt lat="36.087828333333334" lon="139.36766777777777">
<ele>72</ele>
</trkpt>
<trkpt lat="36.08787" lon="139.3676475">
<ele>71</ele>
</trkpt>
<trkpt lat="36.08791194444444" lon="139.36762694444445">
<ele>72</ele>
</trkpt>
<trkpt lat="36.08795361111111" lon="139.36760666666666">
<ele>72</ele>
</trkpt>
<trkpt lat="36.08799527777778" lon="139.3675861111111">
<ele>72</ele>
</trkpt>
<trkpt lat="36.08803722222222" lon="139.36756583333334">
<ele>71</ele>
</trkpt>
<trkpt lat="36.08807888888889" lon="139.36754527777777">
<ele>72</ele>
</trkpt>
<trkpt lat="36.088120833333335" lon="139.367525">
<ele>72</ele>
</trkpt>
<trkpt lat="36.0881625" lon="139.36750444444445">
<ele>72</ele>
</trkpt>
<trkpt lat="36.088204166666664" lon="139.36748416666666">
<ele>72</ele>
</trkpt>
<trkpt lat="36.08824611111111" lon="139.3674636111111">
<ele>71</ele>
</trkpt>
<trkpt lat="36.08828777777778" lon="139.36744333333334">
<ele>72</ele>
</trkpt>
<trkpt lat="36.08832972222222" lon="139.3674227777778">
<ele>72</ele>
</trkpt>
<trkpt lat="36.08837138888889" lon="139.3674025">
<ele>71</ele>
</trkpt>
<trkpt lat="36.08840361111111" lon="139.36738666666668">
<ele>71</ele>
</trkpt>
<trkpt lat="36.08840361111111" lon="139.36738666666668">
<ele>71</ele>
</trkpt>
<trkpt lat="36.08843888888889" lon="139.36735222222222">
<ele>71</ele>
</trkpt>
<trkpt lat="36.088474166666664" lon="139.36731777777777">
<ele>71</ele>
</trkpt>
<trkpt lat="36.08850916666667" lon="139.36728333333335">
<ele>71</ele>
</trkpt>
<trkpt lat="36.088544444444445" lon="139.3672486111111">
<ele>71</ele>
</trkpt>
<trkpt lat="36.08857972222222" lon="139.36721416666666">
<ele>71</ele>
</trkpt>
<trkpt lat="36.088615" lon="139.36717972222223">
<ele>71</ele>
</trkpt>
<trkpt lat="36.08865027777778" lon="139.36714527777778">
<ele>71</ele>
</trkpt>
<trkpt lat="36.08868527777778" lon="139.36711083333333">
<ele>71</ele>
</trkpt>
<trkpt lat="36.088720555555554" lon="139.36707611111112">
<ele>71</ele>
</trkpt>
<trkpt lat="36.08875583333333" lon="139.36704166666667">
<ele>71</ele>
</trkpt>
<trkpt lat="36.088791111111114" lon="139.3670072222222">
<ele>70</ele>
</trkpt>
<trkpt lat="36.08881972222222" lon="139.3669788888889">
<ele>71</ele>
</trkpt>
<trkpt lat="36.08881972222222" lon="139.3669788888889">
<ele>71</ele>
</trkpt>
<trkpt lat="36.088859444444445" lon="139.36695305555557">
<ele>71</ele>
</trkpt>
<trkpt lat="36.08889944444444" lon="139.36692722222222">
<ele>71</ele>
</trkpt>
<trkpt lat="36.08893916666667" lon="139.3669013888889">
<ele>71</ele>
</trkpt>
<trkpt lat="36.08897888888889" lon="139.36687555555557">
<ele>71</ele>
</trkpt>
<trkpt lat="36.088993333333335" lon="139.3668663888889">
<ele>70</ele>
</trkpt>
<trkpt lat="36.088993333333335" lon="139.3668663888889">
<ele>71</ele>
</trkpt>
<trkpt lat="36.089036944444445" lon="139.36687916666668">
<ele>71</ele>
</trkpt>
<trkpt lat="36.089080555555554" lon="139.36689222222222">
<ele>71</ele>
</trkpt>
<trkpt lat="36.089124166666664" lon="139.3669052777778">
<ele>71</ele>
</trkpt>
<trkpt lat="36.089168055555554" lon="139.36691805555554">
<ele>71</ele>
</trkpt>
<trkpt lat="36.0891925" lon="139.36692527777777">
<ele>70</ele>
</trkpt>
<trkpt lat="36.0891925" lon="139.36692527777777">
<ele>70</ele>
</trkpt>
<trkpt lat="36.089213055555554" lon="139.366975">
<ele>70</ele>
</trkpt>
<trkpt lat="36.08923333333333" lon="139.36702444444444">
<ele>70</ele>
</trkpt>
<trkpt lat="36.08925361111111" lon="139.36707416666667">
<ele>70</ele>
</trkpt>
<trkpt lat="36.08927388888889" lon="139.3671236111111">
<ele>70</ele>
</trkpt>
<trkpt lat="36.08929416666667" lon="139.36717305555555">
<ele>70</ele>
</trkpt>
<trkpt lat="36.08931472222222" lon="139.36722277777778">
<ele>70</ele>
</trkpt>
<trkpt lat="36.089335" lon="139.36727222222223">
<ele>70</ele>
</trkpt>
<trkpt lat="36.08935527777778" lon="139.36732194444446">
<ele>70</ele>
</trkpt>
<trkpt lat="36.089375555555556" lon="139.3673713888889">
<ele>70</ele>
</trkpt>
<trkpt lat="36.089395833333334" lon="139.3674211111111">
<ele>70</ele>
</trkpt>
<trkpt lat="36.08941611111111" lon="139.36747055555554">
<ele>70</ele>
</trkpt>
<trkpt lat="36.089436666666664" lon="139.36752">
<ele>70</ele>
</trkpt>
<trkpt lat="36.08945694444444" lon="139.3675697222222">
<ele>70</ele>
</trkpt>
<trkpt lat="36.08947722222222" lon="139.36761916666666">
<ele>70</ele>
</trkpt>
<trkpt lat="36.089483055555554" lon="139.3676336111111">
<ele>70</ele>
</trkpt>
<trkpt lat="36.089483055555554" lon="139.3676336111111">
<ele>70</ele>
</trkpt>
<trkpt lat="36.08949583333333" lon="139.36768666666666">
<ele>70</ele>
</trkpt>
<trkpt lat="36.089508611111114" lon="139.36774">
<ele>70</ele>
</trkpt>
<trkpt lat="36.08952138888889" lon="139.36779333333334">
<ele>69</ele>
</trkpt>
<trkpt lat="36.08953416666667" lon="139.36784666666668">
<ele>69</ele>
</trkpt>
<trkpt lat="36.08954" lon="139.36787055555556">
<ele>62</ele>
</trkpt>
<trkpt lat="36.08954" lon="139.36787055555556">
<ele>62</ele>
</trkpt>
<trkpt lat="36.08956111111111" lon="139.3679197222222">
<ele>62</ele>
</trkpt>
<trkpt lat="36.08958222222222" lon="139.3679686111111">
<ele>63</ele>
</trkpt>
<trkpt lat="36.089603333333336" lon="139.36801777777777">
<ele>63</ele>
</trkpt>
<trkpt lat="36.089624444444446" lon="139.36806666666666">
<ele>63</ele>
</trkpt>
<trkpt lat="36.089645555555556" lon="139.36811583333332">
<ele>65</ele>
</trkpt>
<trkpt lat="36.089666944444446" lon="139.36816472222222">
<ele>65</ele>
</trkpt>
<trkpt lat="36.089688055555555" lon="139.3682138888889">
<ele>65</ele>
</trkpt>
<trkpt lat="36.089709166666665" lon="139.36826277777777">
<ele>65</ele>
</trkpt>
<trkpt lat="36.089730277777775" lon="139.36831194444446">
<ele>65</ele>
</trkpt>
<trkpt lat="36.08975138888889" lon="139.36836083333333">
<ele>65</ele>
</trkpt>
<trkpt lat="36.0897725" lon="139.36841">
<ele>65</ele>
</trkpt>
<trkpt lat="36.08979388888889" lon="139.36845888888888">
<ele>65</ele>
</trkpt>
<trkpt lat="36.089815" lon="139.36850805555557">
<ele>65</ele>
</trkpt>
<trkpt lat="36.08983611111111" lon="139.36855694444444">
<ele>65</ele>
</trkpt>
<trkpt lat="36.08985722222222" lon="139.36860611111112">
<ele>65</ele>
</trkpt>
<trkpt lat="36.08987833333333" lon="139.368655">
<ele>65</ele>
</trkpt>
<trkpt lat="36.0898975" lon="139.36869944444445">
<ele>65</ele>
</trkpt>
<trkpt lat="36.0898975" lon="139.36869944444445">
<ele>65</ele>
</trkpt>
<trkpt lat="36.08991555555556" lon="139.36875027777776">
<ele>65</ele>
</trkpt>
<trkpt lat="36.089933333333335" lon="139.3688013888889">
<ele>65</ele>
</trkpt>
<trkpt lat="36.08995111111111" lon="139.36885222222222">
<ele>65</ele>
</trkpt>
<trkpt lat="36.08996916666667" lon="139.36890333333332">
<ele>65</ele>
</trkpt>
<trkpt lat="36.08998694444445" lon="139.36895416666667">
<ele>65</ele>
</trkpt>
<trkpt lat="36.090005" lon="139.36900527777777">
<ele>66</ele>
</trkpt>
<trkpt lat="36.090022777777776" lon="139.36905638888888">
<ele>66</ele>
</trkpt>
<trkpt lat="36.090040555555554" lon="139.36910722222223">
<ele>66</ele>
</trkpt>
<trkpt lat="36.09005861111111" lon="139.36915833333333">
<ele>64</ele>
</trkpt>
<trkpt lat="36.09007638888889" lon="139.36920916666668">
<ele>64</ele>
</trkpt>
<trkpt lat="36.090094444444446" lon="139.36926027777778">
<ele>62</ele>
</trkpt>
<trkpt lat="36.090112222222224" lon="139.3693111111111">
<ele>65</ele>
</trkpt>
<trkpt lat="36.090130277777774" lon="139.36936222222224">
<ele>63</ele>
</trkpt>
<trkpt lat="36.09014805555555" lon="139.36941305555555">
<ele>63</ele>
</trkpt>
<trkpt lat="36.09016583333333" lon="139.36946416666666">
<ele>61</ele>
</trkpt>
<trkpt lat="36.09018388888889" lon="139.369515">
<ele>61</ele>
</trkpt>
<trkpt lat="36.090201666666665" lon="139.3695661111111">
<ele>60</ele>
</trkpt>
<trkpt lat="36.09021972222222" lon="139.36961694444443">
<ele>60</ele>
</trkpt>
<trkpt lat="36.0902375" lon="139.36966805555556">
<ele>62</ele>
</trkpt>
<trkpt lat="36.09025527777778" lon="139.36971888888888">
<ele>62</ele>
</trkpt>
<trkpt lat="36.090273333333336" lon="139.36977">
<ele>62</ele>
</trkpt>
<trkpt lat="36.090291111111114" lon="139.36982111111112">
<ele>61</ele>
</trkpt>
<trkpt lat="36.090309166666664" lon="139.36987194444444">
<ele>61</ele>
</trkpt>
<trkpt lat="36.09032694444444" lon="139.36992305555555">
<ele>61</ele>
</trkpt>
<trkpt lat="36.090345" lon="139.3699738888889">
<ele>62</ele>
</trkpt>
<trkpt lat="36.09036277777778" lon="139.370025">
<ele>61</ele>
</trkpt>
<trkpt lat="36.090380555555555" lon="139.37007583333335">
<ele>61</ele>
</trkpt>
<trkpt lat="36.09039861111111" lon="139.37012694444445">
<ele>59</ele>
</trkpt>
<trkpt lat="36.09041638888889" lon="139.37017777777777">
<ele>59</ele>
</trkpt>
<trkpt lat="36.09043444444445" lon="139.3702288888889">
<ele>57</ele>
</trkpt>
<trkpt lat="36.090449722222225" lon="139.37027277777779">
<ele>56</ele>
</trkpt>
<trkpt lat="36.090449722222225" lon="139.37027277777779">
<ele>56</ele>
</trkpt>
<trkpt lat="36.09043444444445" lon="139.370325">
<ele>57</ele>
</trkpt>
<trkpt lat="36.09041944444444" lon="139.3703775">
<ele>55</ele>
</trkpt>
<trkpt lat="36.090404166666666" lon="139.3704297222222">
<ele>55</ele>
</trkpt>
<trkpt lat="36.09038888888889" lon="139.37048194444444">
<ele>57</ele>
</trkpt>
<trkpt lat="36.09037361111111" lon="139.37053416666666">
<ele>57</ele>
</trkpt>
<trkpt lat="36.090358333333334" lon="139.37058666666667">
<ele>59</ele>
</trkpt>
<trkpt lat="36.09034333333334" lon="139.3706388888889">
<ele>59</ele>
</trkpt>
<trkpt lat="36.09032805555555" lon="139.3706911111111">
<ele>61</ele>
</trkpt>
<trkpt lat="36.090312777777775" lon="139.37074333333334">
<ele>61</ele>
</trkpt>
<trkpt lat="36.0902975" lon="139.37079583333335">
<ele>63</ele>
</trkpt>
<trkpt lat="36.0902825" lon="139.37084805555557">
<ele>63</ele>
</trkpt>
<trkpt lat="36.090267222222224" lon="139.37090027777776">
<ele>63</ele>
</trkpt>
<trkpt lat="36.09025472222222" lon="139.37094333333334">
<ele>61</ele>
</trkpt>
<trkpt lat="36.09025472222222" lon="139.37094333333334">
<ele>61</ele>
</trkpt>
<trkpt lat="36.09025527777778" lon="139.3709988888889">
<ele>63</ele>
</trkpt>
<trkpt lat="36.09025583333333" lon="139.37105444444444">
<ele>63</ele>
</trkpt>
<trkpt lat="36.09025638888889" lon="139.37111">
<ele>63</ele>
</trkpt>
<trkpt lat="36.09025694444444" lon="139.37116555555556">
<ele>63</ele>
</trkpt>
<trkpt lat="36.0902575" lon="139.3712211111111">
<ele>63</ele>
</trkpt>
<trkpt lat="36.09025805555556" lon="139.37127666666666">
<ele>63</ele>
</trkpt>
<trkpt lat="36.09025861111111" lon="139.3713325">
<ele>63</ele>
</trkpt>
<trkpt lat="36.09025888888889" lon="139.37136722222223">
<ele>63</ele>
</trkpt>
<trkpt lat="36.09025888888889" lon="139.37136722222223">
<ele>63</ele>
</trkpt>
<trkpt lat="36.09027666666667" lon="139.37141833333334">
<ele>66</ele>
</trkpt>
<trkpt lat="36.090294166666666" lon="139.37146944444444">
<ele>66</ele>
</trkpt>
<trkpt lat="36.090311666666665" lon="139.37152055555555">
<ele>66</ele>
</trkpt>
<trkpt lat="36.09032916666666" lon="139.37157166666665">
<ele>66</ele>
</trkpt>
<trkpt lat="36.09034694444444" lon="139.3716227777778">
<ele>67</ele>
</trkpt>
<trkpt lat="36.09036444444445" lon="139.37167416666668">
<ele>67</ele>
</trkpt>
<trkpt lat="36.090381944444445" lon="139.37172527777778">
<ele>68</ele>
</trkpt>
<trkpt lat="36.090399444444444" lon="139.3717763888889">
<ele>68</ele>
</trkpt>
<trkpt lat="36.09041694444444" lon="139.3718275">
<ele>68</ele>
</trkpt>
<trkpt lat="36.09043472222222" lon="139.3718786111111">
<ele>68</ele>
</trkpt>
<trkpt lat="36.090452222222225" lon="139.37192972222223">
<ele>68</ele>
</trkpt>
<trkpt lat="36.09046722222222" lon="139.37197333333333">
<ele>68</ele>
</trkpt>
<trkpt lat="36.09046722222222" lon="139.37197333333333">
<ele>68</ele>
</trkpt>
<trkpt lat="36.090488055555554" lon="139.3720225">
<ele>68</ele>
</trkpt>
<trkpt lat="36.09050916666666" lon="139.37207138888888">
<ele>68</ele>
</trkpt>
<trkpt lat="36.09053027777778" lon="139.37212055555557">
<ele>68</ele>
</trkpt>
<trkpt lat="36.09055138888889" lon="139.37216972222222">
<ele>68</ele>
</trkpt>
<trkpt lat="36.0905725" lon="139.37221861111112">
<ele>67</ele>
</trkpt>
<trkpt lat="36.09059361111111" lon="139.37226777777778">
<ele>67</ele>
</trkpt>
<trkpt lat="36.09061472222222" lon="139.37231694444444">
<ele>67</ele>
</trkpt>
<trkpt lat="36.09063555555556" lon="139.37236611111112">
<ele>68</ele>
</trkpt>
<trkpt lat="36.09065666666667" lon="139.372415">
<ele>68</ele>
</trkpt>
<trkpt lat="36.09067777777778" lon="139.37246416666667">
<ele>67</ele>
</trkpt>
<trkpt lat="36.09068805555555" lon="139.37248833333334">
<ele>67</ele>
</trkpt>
<trkpt lat="36.09068805555555" lon="139.37248833333334">
<ele>67</ele>
</trkpt>
<trkpt lat="36.09072194444445" lon="139.372525">
<ele>67</ele>
</trkpt>
<trkpt lat="36.09075555555555" lon="139.37256194444444">
<ele>68</ele>
</trkpt>
<trkpt lat="36.09078916666667" lon="139.3725988888889">
<ele>66</ele>
</trkpt>
<trkpt lat="36.09082277777778" lon="139.37263555555555">
<ele>66</ele>
</trkpt>
<trkpt lat="36.09085638888889" lon="139.3726725">
<ele>67</ele>
</trkpt>
<trkpt lat="36.09089" lon="139.37270916666668">
<ele>64</ele>
</trkpt>
<trkpt lat="36.09092361111111" lon="139.3727461111111">
<ele>64</ele>
</trkpt>
<trkpt lat="36.09095722222222" lon="139.37278305555554">
<ele>66</ele>
</trkpt>
<trkpt lat="36.090990833333336" lon="139.37281972222223">
<ele>66</ele>
</trkpt>
<trkpt lat="36.09102444444444" lon="139.37285666666668">
<ele>64</ele>
</trkpt>
<trkpt lat="36.09105805555556" lon="139.37289361111112">
<ele>66</ele>
</trkpt>
<trkpt lat="36.091091666666664" lon="139.37293027777778">
<ele>66</ele>
</trkpt>
<trkpt lat="36.09112555555556" lon="139.37296722222223">
<ele>65</ele>
</trkpt>
<trkpt lat="36.091159166666664" lon="139.3730038888889">
<ele>66</ele>
</trkpt>
<trkpt lat="36.09117805555555" lon="139.37302472222223">
<ele>66</ele>
</trkpt>
<trkpt lat="36.09117805555555" lon="139.37302472222223">
<ele>66</ele>
</trkpt>
<trkpt lat="36.09120333333333" lon="139.37307055555556">
<ele>64</ele>
</trkpt>
<trkpt lat="36.09122861111111" lon="139.3731163888889">
<ele>66</ele>
</trkpt>
<trkpt lat="36.091254166666666" lon="139.3731625">
<ele>66</ele>
</trkpt>
<trkpt lat="36.091279444444446" lon="139.37320833333334">
<ele>65</ele>
</trkpt>
<trkpt lat="36.09130472222222" lon="139.37325416666667">
<ele>66</ele>
</trkpt>
<trkpt lat="36.09133" lon="139.3733">
<ele>66</ele>
</trkpt>
<trkpt lat="36.09135527777778" lon="139.37334583333333">
<ele>66</ele>
</trkpt>
<trkpt lat="36.09135583333333" lon="139.37334666666666">
<ele>66</ele>
</trkpt>
<trkpt lat="36.09135583333333" lon="139.37334666666666">
<ele>65</ele>
</trkpt>
<trkpt lat="36.09137722222222" lon="139.37339527777777">
<ele>65</ele>
</trkpt>
<trkpt lat="36.09139888888889" lon="139.37344416666667">
<ele>65</ele>
</trkpt>
<trkpt lat="36.09142027777778" lon="139.37349305555554">
<ele>64</ele>
</trkpt>
<trkpt lat="36.09144166666667" lon="139.37354166666665">
<ele>64</ele>
</trkpt>
<trkpt lat="36.09146333333333" lon="139.37359055555555">
<ele>64</ele>
</trkpt>
<trkpt lat="36.09148472222222" lon="139.37363944444445">
<ele>64</ele>
</trkpt>
<trkpt lat="36.09150638888889" lon="139.37368805555556">
<ele>64</ele>
</trkpt>
<trkpt lat="36.09152777777778" lon="139.37373694444443">
<ele>64</ele>
</trkpt>
<trkpt lat="36.091549444444446" lon="139.37378583333333">
<ele>63</ele>
</trkpt>
<trkpt lat="36.09156388888889" lon="139.37381861111112">
<ele>64</ele>
</trkpt>
<trkpt lat="36.09156388888889" lon="139.37381861111112">
<ele>64</ele>
</trkpt>
<trkpt lat="36.09157111111111" lon="139.37387361111112">
<ele>64</ele>
</trkpt>
<trkpt lat="36.09157861111111" lon="139.37392833333334">
<ele>63</ele>
</trkpt>
<trkpt lat="36.09158583333333" lon="139.37398305555556">
<ele>63</ele>
</trkpt>
<trkpt lat="36.091593333333336" lon="139.37403805555556">
<ele>63</ele>
</trkpt>
<trkpt lat="36.09160083333333" lon="139.37409277777778">
<ele>63</ele>
</trkpt>
<trkpt lat="36.091608055555554" lon="139.3741475">
<ele>63</ele>
</trkpt>
<trkpt lat="36.091615555555556" lon="139.3742025">
<ele>63</ele>
</trkpt>
<trkpt lat="36.091615833333336" lon="139.374205">
<ele>63</ele>
</trkpt>
<trkpt lat="36.091615833333336" lon="139.374205">
<ele>63</ele>
</trkpt>
<trkpt lat="36.091614722222225" lon="139.37426055555557">
<ele>63</ele>
</trkpt>
<trkpt lat="36.091613333333335" lon="139.3743161111111">
<ele>63</ele>
</trkpt>
<trkpt lat="36.091612222222224" lon="139.37437166666666">
<ele>63</ele>
</trkpt>
<trkpt lat="36.09161111111111" lon="139.3744272222222">
<ele>62</ele>
</trkpt>
<trkpt lat="36.09161" lon="139.37448277777779">
<ele>62</ele>
</trkpt>
<trkpt lat="36.09160861111111" lon="139.37453833333333">
<ele>62</ele>
</trkpt>
<trkpt lat="36.0916075" lon="139.37459388888888">
<ele>62</ele>
</trkpt>
<trkpt lat="36.09160638888889" lon="139.37464944444446">
<ele>62</ele>
</trkpt>
<trkpt lat="36.091605" lon="139.374705">
<ele>62</ele>
</trkpt>
<trkpt lat="36.09160388888889" lon="139.37476055555555">
<ele>62</ele>
</trkpt>
<trkpt lat="36.09160277777778" lon="139.37481111111111">
<ele>62</ele>
</trkpt>
<trkpt lat="36.09160277777778" lon="139.37481111111111">
<ele>62</ele>
</trkpt>
<trkpt lat="36.09162416666667" lon="139.37486">
<ele>62</ele>
</trkpt>
<trkpt lat="36.09164555555556" lon="139.37490888888888">
<ele>61</ele>
</trkpt>
<trkpt lat="36.09166694444444" lon="139.37495777777778">
<ele>61</ele>
</trkpt>
<trkpt lat="36.09168833333333" lon="139.37500666666668">
<ele>61</ele>
</trkpt>
<trkpt lat="36.09170972222222" lon="139.37505555555555">
<ele>61</ele>
</trkpt>
<trkpt lat="36.09173111111111" lon="139.37510444444445">
<ele>61</ele>
</trkpt>
<trkpt lat="36.0917525" lon="139.37515305555556">
<ele>61</ele>
</trkpt>
<trkpt lat="36.091771944444446" lon="139.37519722222223">
<ele>61</ele>
</trkpt>
<trkpt lat="36.091771944444446" lon="139.37519722222223">
<ele>61</ele>
</trkpt>
<trkpt lat="36.09180111111111" lon="139.37523944444445">
<ele>61</ele>
</trkpt>
<trkpt lat="36.09183027777778" lon="139.37528166666667">
<ele>61</ele>
</trkpt>
<trkpt lat="36.091859444444445" lon="139.3753238888889">
<ele>61</ele>
</trkpt>
<trkpt lat="36.09188861111111" lon="139.3753661111111">
<ele>61</ele>
</trkpt>
<trkpt lat="36.09191805555555" lon="139.37540833333333">
<ele>61</ele>
</trkpt>
<trkpt lat="36.091947222222224" lon="139.37545055555555">
<ele>61</ele>
</trkpt>
<trkpt lat="36.09197638888889" lon="139.37549277777777">
<ele>61</ele>
</trkpt>
<trkpt lat="36.09200555555555" lon="139.37553527777777">
<ele>61</ele>
</trkpt>
<trkpt lat="36.09203472222222" lon="139.3755775">
<ele>60</ele>
</trkpt>
<trkpt lat="36.09206388888889" lon="139.3756197222222">
<ele>60</ele>
</trkpt>
<trkpt lat="36.09209305555556" lon="139.37566194444443">
<ele>60</ele>
</trkpt>
<trkpt lat="36.09212222222222" lon="139.37570416666668">
<ele>60</ele>
</trkpt>
<trkpt lat="36.092151666666666" lon="139.3757463888889">
<ele>60</ele>
</trkpt>
<trkpt lat="36.09218083333333" lon="139.37578861111112">
<ele>60</ele>
</trkpt>
<trkpt lat="36.09218361111111" lon="139.37579277777778">
<ele>60</ele>
</trkpt>
<trkpt lat="36.09218361111111" lon="139.37579277777778">
<ele>60</ele>
</trkpt>
<trkpt lat="36.09221111111111" lon="139.37583666666666">
<ele>60</ele>
</trkpt>
<trkpt lat="36.092238611111114" lon="139.37588083333333">
<ele>60</ele>
</trkpt>
<trkpt lat="36.09226611111111" lon="139.3759247222222">
<ele>60</ele>
</trkpt>
<trkpt lat="36.09229333333333" lon="139.37596888888888">
<ele>60</ele>
</trkpt>
<trkpt lat="36.09232083333333" lon="139.3760127777778">
<ele>60</ele>
</trkpt>
<trkpt lat="36.092348333333334" lon="139.37605694444446">
<ele>60</ele>
</trkpt>
<trkpt lat="36.092375833333335" lon="139.37610083333334">
<ele>60</ele>
</trkpt>
<trkpt lat="36.09240305555556" lon="139.376145">
<ele>60</ele>
</trkpt>
<trkpt lat="36.09243055555555" lon="139.3761888888889">
<ele>60</ele>
</trkpt>
<trkpt lat="36.092458055555554" lon="139.37623305555556">
<ele>60</ele>
</trkpt>
<trkpt lat="36.09247305555556" lon="139.37625722222222">
<ele>60</ele>
</trkpt>
<trkpt lat="36.09247305555556" lon="139.37625722222222">
<ele>60</ele>
</trkpt>
<trkpt lat="36.092487222222225" lon="139.37631027777778">
<ele>60</ele>
</trkpt>
<trkpt lat="36.09250111111111" lon="139.37636305555554">
<ele>60</ele>
</trkpt>
<trkpt lat="36.092515" lon="139.37641583333334">
<ele>60</ele>
</trkpt>
<trkpt lat="36.092528888888886" lon="139.3764686111111">
<ele>60</ele>
</trkpt>
<trkpt lat="36.09254277777778" lon="139.37652166666666">
<ele>60</ele>
</trkpt>
<trkpt lat="36.09255666666667" lon="139.37657444444446">
<ele>60</ele>
</trkpt>
<trkpt lat="36.092570555555554" lon="139.37662722222223">
<ele>60</ele>
</trkpt>
<trkpt lat="36.09258472222222" lon="139.37668">
<ele>60</ele>
</trkpt>
<trkpt lat="36.092598611111114" lon="139.37673305555555">
<ele>60</ele>
</trkpt>
<trkpt lat="36.0926125" lon="139.37678583333334">
<ele>60</ele>
</trkpt>
<trkpt lat="36.09262638888889" lon="139.3768386111111">
<ele>60</ele>
</trkpt>
<trkpt lat="36.092640277777775" lon="139.37689138888888">
<ele>60</ele>
</trkpt>
<trkpt lat="36.09265194444444" lon="139.3769352777778">
<ele>60</ele>
</trkpt>
<trkpt lat="36.09265194444444" lon="139.3769352777778">
<ele>60</ele>
</trkpt>
<trkpt lat="36.09267388888889" lon="139.3769838888889">
<ele>60</ele>
</trkpt>
<trkpt lat="36.09269583333333" lon="139.3770325">
<ele>60</ele>
</trkpt>
<trkpt lat="36.0927175" lon="139.37708083333334">
<ele>60</ele>
</trkpt>
<trkpt lat="36.09273944444445" lon="139.37712944444445">
<ele>60</ele>
</trkpt>
<trkpt lat="36.09276138888889" lon="139.37717805555556">
<ele>60</ele>
</trkpt>
<trkpt lat="36.09278333333334" lon="139.3772263888889">
<ele>60</ele>
</trkpt>
<trkpt lat="36.09280527777778" lon="139.377275">
<ele>60</ele>
</trkpt>
<trkpt lat="36.09282722222222" lon="139.3773236111111">
<ele>60</ele>
</trkpt>
<trkpt lat="36.09284916666667" lon="139.37737194444443">
<ele>60</ele>
</trkpt>
<trkpt lat="36.09287111111111" lon="139.37742055555555">
<ele>60</ele>
</trkpt>
<trkpt lat="36.09287722222222" lon="139.37743416666666">
<ele>60</ele>
</trkpt>
<trkpt lat="36.09287722222222" lon="139.37743416666666">
<ele>60</ele>
</trkpt>
<trkpt lat="36.09290166666667" lon="139.3774811111111">
<ele>59</ele>
</trkpt>
<trkpt lat="36.09292583333333" lon="139.37752777777777">
<ele>59</ele>
</trkpt>
<trkpt lat="36.09295" lon="139.37757472222222">
<ele>58</ele>
</trkpt>
<trkpt lat="36.092974444444444" lon="139.37762138888888">
<ele>58</ele>
</trkpt>
<trkpt lat="36.09299861111111" lon="139.37766805555555">
<ele>57</ele>
</trkpt>
<trkpt lat="36.093022777777776" lon="139.377715">
<ele>58</ele>
</trkpt>
<trkpt lat="36.093047222222225" lon="139.37776166666666">
<ele>58</ele>
</trkpt>
<trkpt lat="36.09306361111111" lon="139.37779361111112">
<ele>58</ele>
</trkpt>
<trkpt lat="36.09306361111111" lon="139.37779361111112">
<ele>58</ele>
</trkpt>
<trkpt lat="36.09306888888889" lon="139.37784888888888">
<ele>58</ele>
</trkpt>
<trkpt lat="36.09307388888889" lon="139.37790416666667">
<ele>57</ele>
</trkpt>
<trkpt lat="36.09307888888889" lon="139.37795944444446">
<ele>57</ele>
</trkpt>
<trkpt lat="36.093084166666664" lon="139.37801472222222">
<ele>57</ele>
</trkpt>
<trkpt lat="36.093089166666665" lon="139.37806972222222">
<ele>57</ele>
</trkpt>
<trkpt lat="36.09309416666667" lon="139.378125">
<ele>57</ele>
</trkpt>
<trkpt lat="36.09309833333333" lon="139.37816916666668">
<ele>57</ele>
</trkpt>
<trkpt lat="36.09309833333333" lon="139.37816916666668">
<ele>57</ele>
</trkpt>
<trkpt lat="36.093111666666665" lon="139.37822222222223">
<ele>55</ele>
</trkpt>
<trkpt lat="36.093125" lon="139.3782752777778">
<ele>55</ele>
</trkpt>
<trkpt lat="36.093138055555556" lon="139.3783286111111">
<ele>55</ele>
</trkpt>
<trkpt lat="36.09315138888889" lon="139.37838166666666">
<ele>54</ele>
</trkpt>
<trkpt lat="36.09315472222222" lon="139.37839444444444">
<ele>54</ele>
</trkpt>
<trkpt lat="36.09315472222222" lon="139.37839444444444">
<ele>54</ele>
</trkpt>
<trkpt lat="36.09318722222222" lon="139.37843305555555">
<ele>54</ele>
</trkpt>
<trkpt lat="36.09321944444444" lon="139.3784713888889">
<ele>53</ele>
</trkpt>
<trkpt lat="36.09325194444445" lon="139.37850972222222">
<ele>53</ele>
</trkpt>
<trkpt lat="36.09328444444444" lon="139.37854833333333">
<ele>53</ele>
</trkpt>
<trkpt lat="36.093316944444446" lon="139.37858666666668">
<ele>54</ele>
</trkpt>
<trkpt lat="36.09334944444444" lon="139.3786252777778">
<ele>54</ele>
</trkpt>
<trkpt lat="36.093358333333335" lon="139.37863583333333">
<ele>54</ele>
</trkpt>
<trkpt lat="36.093358333333335" lon="139.37863583333333">
<ele>54</ele>
</trkpt>
<trkpt lat="36.09339472222222" lon="139.37866861111112">
<ele>54</ele>
</trkpt>
<trkpt lat="36.09343111111111" lon="139.37870138888889">
<ele>55</ele>
</trkpt>
<trkpt lat="36.09346722222222" lon="139.37873416666667">
<ele>55</ele>
</trkpt>
<trkpt lat="36.09350361111111" lon="139.37876694444444">
<ele>55</ele>
</trkpt>
<trkpt lat="36.09354" lon="139.37879972222223">
<ele>55</ele>
</trkpt>
<trkpt lat="36.09356638888889" lon="139.3788236111111">
<ele>56</ele>
</trkpt>
<trkpt lat="36.09356638888889" lon="139.3788236111111">
<ele>56</ele>
</trkpt>
<trkpt lat="36.093608333333336" lon="139.37884416666665">
<ele>56</ele>
</trkpt>
<trkpt lat="36.09365" lon="139.37886472222223">
<ele>56</ele>
</trkpt>
<trkpt lat="36.093691666666665" lon="139.37888527777778">
<ele>56</ele>
</trkpt>
<trkpt lat="36.09373361111111" lon="139.37890555555555">
<ele>57</ele>
</trkpt>
<trkpt lat="36.09377527777778" lon="139.3789261111111">
<ele>57</ele>
</trkpt>
<trkpt lat="36.09381694444444" lon="139.37894666666668">
<ele>57</ele>
</trkpt>
<trkpt lat="36.09383972222222" lon="139.37895777777777">
<ele>59</ele>
</trkpt>
<trkpt lat="36.09383972222222" lon="139.37895777777777">
<ele>59</ele>
</trkpt>
<trkpt lat="36.09388333333333" lon="139.37897027777777">
<ele>60</ele>
</trkpt>
<trkpt lat="36.09392722222222" lon="139.37898277777776">
<ele>61</ele>
</trkpt>
<trkpt lat="36.09397083333333" lon="139.378995">
<ele>61</ele>
</trkpt>
<trkpt lat="36.09401472222222" lon="139.3790075">
<ele>61</ele>
</trkpt>
<trkpt lat="36.09405833333334" lon="139.37902">
<ele>60</ele>
</trkpt>
<trkpt lat="36.09410222222222" lon="139.3790325">
<ele>60</ele>
</trkpt>
<trkpt lat="36.09414611111111" lon="139.379045">
<ele>60</ele>
</trkpt>
<trkpt lat="36.094189722222225" lon="139.3790575">
<ele>60</ele>
</trkpt>
<trkpt lat="36.094233611111115" lon="139.37907">
<ele>60</ele>
</trkpt>
<trkpt lat="36.094277222222225" lon="139.37908222222222">
<ele>60</ele>
</trkpt>
<trkpt lat="36.094321111111114" lon="139.37909472222222">
<ele>60</ele>
</trkpt>
<trkpt lat="36.094365" lon="139.37910722222222">
<ele>60</ele>
</trkpt>
<trkpt lat="36.09440861111111" lon="139.3791197222222">
<ele>60</ele>
</trkpt>
<trkpt lat="36.0944525" lon="139.3791322222222">
<ele>60</ele>
</trkpt>
<trkpt lat="36.09449611111111" lon="139.37914472222224">
<ele>60</ele>
</trkpt>
<trkpt lat="36.09454" lon="139.37915694444445">
<ele>60</ele>
</trkpt>
<trkpt lat="36.09458361111111" lon="139.37916944444444">
<ele>60</ele>
</trkpt>
<trkpt lat="36.0946275" lon="139.37918194444444">
<ele>60</ele>
</trkpt>
<trkpt lat="36.09465027777778" lon="139.37918833333333">
<ele>60</ele>
</trkpt>
<trkpt lat="36.09465027777778" lon="139.37918833333333">
<ele>60</ele>
</trkpt>
<trkpt lat="36.094681111111115" lon="139.3792286111111">
<ele>61</ele>
</trkpt>
<trkpt lat="36.09471222222222" lon="139.3792688888889">
<ele>61</ele>
</trkpt>
<trkpt lat="36.094743055555554" lon="139.37930916666667">
<ele>61</ele>
</trkpt>
<trkpt lat="36.09477416666667" lon="139.37934944444444">
<ele>62</ele>
</trkpt>
<trkpt lat="36.09480527777778" lon="139.37938944444446">
<ele>61</ele>
</trkpt>
<trkpt lat="36.094836111111114" lon="139.37942972222223">
<ele>61</ele>
</trkpt>
<trkpt lat="36.09486722222222" lon="139.37947">
<ele>62</ele>
</trkpt>
<trkpt lat="36.094898055555554" lon="139.37951027777777">
<ele>61</ele>
</trkpt>
<trkpt lat="36.09491888888889" lon="139.3795372222222">
<ele>61</ele>
</trkpt>
<trkpt lat="36.09491888888889" lon="139.3795372222222">
<ele>61</ele>
</trkpt>
<trkpt lat="36.094928333333336" lon="139.37959138888888">
<ele>62</ele>
</trkpt>
<trkpt lat="36.09493777777778" lon="139.37964583333334">
<ele>62</ele>
</trkpt>
<trkpt lat="36.094947222222224" lon="139.37970027777777">
<ele>62</ele>
</trkpt>
<trkpt lat="36.09495666666667" lon="139.37975444444444">
<ele>62</ele>
</trkpt>
<trkpt lat="36.09496611111111" lon="139.3798088888889">
<ele>63</ele>
</trkpt>
<trkpt lat="36.09497527777778" lon="139.37986333333333">
<ele>63</ele>
</trkpt>
<trkpt lat="36.09498472222222" lon="139.3799175">
<ele>65</ele>
</trkpt>
<trkpt lat="36.094994166666666" lon="139.37997194444443">
<ele>65</ele>
</trkpt>
<trkpt lat="36.094996944444446" lon="139.37998777777779">
<ele>65</ele>
</trkpt>
<trkpt lat="36.094996944444446" lon="139.37998777777779">
<ele>65</ele>
</trkpt>
<trkpt lat="36.09500611111111" lon="139.38004222222222">
<ele>65</ele>
</trkpt>
<trkpt lat="36.095015" lon="139.38009666666667">
<ele>65</ele>
</trkpt>
<trkpt lat="36.09502416666667" lon="139.3801511111111">
<ele>66</ele>
</trkpt>
<trkpt lat="36.095033055555554" lon="139.38020555555556">
<ele>66</ele>
</trkpt>
<trkpt lat="36.09504222222222" lon="139.38026">
<ele>67</ele>
</trkpt>
<trkpt lat="36.09505111111111" lon="139.38031444444445">
<ele>67</ele>
</trkpt>
<trkpt lat="36.095060277777776" lon="139.38036888888888">
<ele>69</ele>
</trkpt>
<trkpt lat="36.09506916666667" lon="139.38042333333334">
<ele>69</ele>
</trkpt>
<trkpt lat="36.09507833333333" lon="139.38047777777777">
<ele>70</ele>
</trkpt>
<trkpt lat="36.09508722222222" lon="139.38053222222223">
<ele>70</ele>
</trkpt>
<trkpt lat="36.09509638888889" lon="139.38058666666666">
<ele>71</ele>
</trkpt>
<trkpt lat="36.09509666666667" lon="139.3805886111111">
<ele>70</ele>
</trkpt>
<trkpt lat="36.09509666666667" lon="139.3805886111111">
<ele>70</ele>
</trkpt>
<trkpt lat="36.09511055555556" lon="139.38064138888888">
<ele>71</ele>
</trkpt>
<trkpt lat="36.095124444444444" lon="139.38069416666667">
<ele>71</ele>
</trkpt>
<trkpt lat="36.09513833333333" lon="139.38074722222223">
<ele>71</ele>
</trkpt>
<trkpt lat="36.095152222222225" lon="139.3808">
<ele>71</ele>
</trkpt>
<trkpt lat="36.09516611111111" lon="139.3808527777778">
<ele>71</ele>
</trkpt>
<trkpt lat="36.09518" lon="139.38090555555556">
<ele>71</ele>
</trkpt>
<trkpt lat="36.095193888888886" lon="139.3809586111111">
<ele>72</ele>
</trkpt>
<trkpt lat="36.09520777777778" lon="139.38101138888888">
<ele>72</ele>
</trkpt>
<trkpt lat="36.095218055555556" lon="139.38105">
<ele>73</ele>
</trkpt>
<trkpt lat="36.095218055555556" lon="139.38105">
<ele>73</ele>
</trkpt>
<trkpt lat="36.09524666666667" lon="139.38109277777778">
<ele>70</ele>
</trkpt>
<trkpt lat="36.095275" lon="139.38113583333333">
<ele>70</ele>
</trkpt>
<trkpt lat="36.09530361111111" lon="139.38117861111112">
<ele>71</ele>
</trkpt>
<trkpt lat="36.095332222222225" lon="139.3812213888889">
<ele>71</ele>
</trkpt>
<trkpt lat="36.09536083333333" lon="139.38126444444444">
<ele>72</ele>
</trkpt>
<trkpt lat="36.09538944444444" lon="139.38130722222223">
<ele>72</ele>
</trkpt>
<trkpt lat="36.095417777777776" lon="139.38135027777778">
<ele>73</ele>
</trkpt>
<trkpt lat="36.09544638888889" lon="139.38139305555555">
<ele>73</ele>
</trkpt>
<trkpt lat="36.095460833333334" lon="139.38141472222222">
<ele>74</ele>
</trkpt>
<trkpt lat="36.095460833333334" lon="139.38141472222222">
<ele>77</ele>
</trkpt>
<trkpt lat="36.09550361111111" lon="139.38143166666666">
<ele>77</ele>
</trkpt>
<trkpt lat="36.09554638888889" lon="139.38144861111113">
<ele>78</ele>
</trkpt>
<trkpt lat="36.09558916666667" lon="139.38146555555556">
<ele>78</ele>
</trkpt>
<trkpt lat="36.09563194444444" lon="139.3814827777778">
<ele>78</ele>
</trkpt>
<trkpt lat="36.09567444444444" lon="139.38149972222223">
<ele>78</ele>
</trkpt>
<trkpt lat="36.09571722222222" lon="139.38151666666667">
<ele>78</ele>
</trkpt>
<trkpt lat="36.09576" lon="139.3815336111111">
<ele>78</ele>
</trkpt>
<trkpt lat="36.09580277777778" lon="139.38155055555555">
<ele>78</ele>
</trkpt>
<trkpt lat="36.095821111111114" lon="139.38155777777777">
<ele>79</ele>
</trkpt>
<trkpt lat="36.095821111111114" lon="139.38155777777777">
<ele>79</ele>
</trkpt>
<trkpt lat="36.095889444444445" lon="139.38155805555556">
<ele>79</ele>
</trkpt>
<trkpt lat="36.0959575" lon="139.38155805555556">
<ele>79</ele>
</trkpt>
<trkpt lat="36.096025833333336" lon="139.38155805555556">
<ele>78</ele>
</trkpt>
<trkpt lat="36.09609416666667" lon="139.38155833333334">
<ele>78</ele>
</trkpt>
<trkpt lat="36.0961625" lon="139.38155833333334">
<ele>77</ele>
</trkpt>
<trkpt lat="36.09623083333334" lon="139.38155833333334">
<ele>76</ele>
</trkpt>
<trkpt lat="36.09629916666667" lon="139.3815586111111">
<ele>76</ele>
</trkpt>
<trkpt lat="36.0963675" lon="139.3815586111111">
<ele>75</ele>
</trkpt>
<trkpt lat="36.09643583333333" lon="139.3815586111111">
<ele>75</ele>
</trkpt>
<trkpt lat="36.09650416666667" lon="139.3815586111111">
<ele>74</ele>
</trkpt>
<trkpt lat="36.09657222222222" lon="139.3815588888889">
<ele>73</ele>
</trkpt>
<trkpt lat="36.09664055555555" lon="139.3815588888889">
<ele>73</ele>
</trkpt>
<trkpt lat="36.09670888888889" lon="139.3815588888889">
<ele>71</ele>
</trkpt>
<trkpt lat="36.09677722222222" lon="139.38155916666668">
<ele>71</ele>
</trkpt>
<trkpt lat="36.096845555555554" lon="139.38155916666668">
<ele>69</ele>
</trkpt>
<trkpt lat="36.09691388888889" lon="139.38155916666668">
<ele>68</ele>
</trkpt>
<trkpt lat="36.09698222222222" lon="139.38155944444443">
<ele>68</ele>
</trkpt>
<trkpt lat="36.097050555555555" lon="139.38155944444443">
<ele>66</ele>
</trkpt>
<trkpt lat="36.097118611111114" lon="139.38155944444443">
<ele>76</ele>
</trkpt>
<trkpt lat="36.097118611111114" lon="139.38155944444443">
<ele>76</ele>
</trkpt>
<trkpt lat="36.097163333333334" lon="139.38156694444444">
<ele>76</ele>
</trkpt>
<trkpt lat="36.097207777777776" lon="139.3815747222222">
<ele>75</ele>
</trkpt>
<trkpt lat="36.097252222222224" lon="139.38158222222222">
<ele>75</ele>
</trkpt>
<trkpt lat="36.097296666666665" lon="139.38158972222223">
<ele>74</ele>
</trkpt>
<trkpt lat="36.09733972222222" lon="139.38159694444445">
<ele>73</ele>
</trkpt>
<trkpt lat="36.09733972222222" lon="139.38159694444445">
<ele>60</ele>
</trkpt>
<trkpt lat="36.09737583333333" lon="139.3816302777778">
<ele>60</ele>
</trkpt>
<trkpt lat="36.097411944444445" lon="139.38166333333334">
<ele>60</ele>
</trkpt>
<trkpt lat="36.09744805555555" lon="139.38169638888888">
<ele>59</ele>
</trkpt>
<trkpt lat="36.097474166666665" lon="139.38172055555555">
<ele>59</ele>
</trkpt>
<trkpt lat="36.097474166666665" lon="139.38172055555555">
<ele>59</ele>
</trkpt>
<trkpt lat="36.09750472222222" lon="139.3817838888889">
<ele>59</ele>
</trkpt>
<trkpt lat="36.09753527777778" lon="139.3818475">
<ele>59</ele>
</trkpt>
<trkpt lat="36.097565833333334" lon="139.38191111111112">
<ele>55</ele>
</trkpt>
<trkpt lat="36.09759638888889" lon="139.38197444444444">
<ele>55</ele>
</trkpt>
<trkpt lat="36.09762694444444" lon="139.38203805555557">
<ele>56</ele>
</trkpt>
<trkpt lat="36.0976575" lon="139.38210166666667">
<ele>56</ele>
</trkpt>
<trkpt lat="36.09768805555556" lon="139.382165">
<ele>55</ele>
</trkpt>
<trkpt lat="36.09771861111111" lon="139.38222861111112">
<ele>56</ele>
</trkpt>
<trkpt lat="36.097749444444446" lon="139.38229222222222">
<ele>56</ele>
</trkpt>
<trkpt lat="36.09778" lon="139.38235583333332">
<ele>53</ele>
</trkpt>
<trkpt lat="36.097810555555554" lon="139.38241916666666">
<ele>53</ele>
</trkpt>
<trkpt lat="36.09784111111111" lon="139.38248277777777">
<ele>54</ele>
</trkpt>
<trkpt lat="36.09787166666667" lon="139.3825463888889">
<ele>54</ele>
</trkpt>
<trkpt lat="36.097902222222224" lon="139.3826097222222">
<ele>52</ele>
</trkpt>
<trkpt lat="36.09793277777778" lon="139.38267333333334">
<ele>53</ele>
</trkpt>
<trkpt lat="36.09796333333333" lon="139.38273694444445">
<ele>53</ele>
</trkpt>
<trkpt lat="36.09799388888889" lon="139.3828002777778">
<ele>54</ele>
</trkpt>
<trkpt lat="36.09802444444444" lon="139.3828638888889">
<ele>51</ele>
</trkpt>
<trkpt lat="36.098055" lon="139.3829275">
<ele>52</ele>
</trkpt>
<trkpt lat="36.098055" lon="139.3829275">
<ele>52</ele>
</trkpt>
<trkpt lat="36.098055" lon="139.3829275">
<ele>52</ele>
</trkpt>
<trkpt lat="36.0980775" lon="139.38297555555556">
<ele>52</ele>
</trkpt>
<trkpt lat="36.09809972222222" lon="139.38302388888889">
<ele>54</ele>
</trkpt>
<trkpt lat="36.09812222222222" lon="139.38307194444445">
<ele>51</ele>
</trkpt>
<trkpt lat="36.09814444444444" lon="139.38312027777778">
<ele>53</ele>
</trkpt>
<trkpt lat="36.09816694444444" lon="139.38316833333334">
<ele>53</ele>
</trkpt>
<trkpt lat="36.098171944444445" lon="139.38317944444444">
<ele>53</ele>
</trkpt>
<trkpt lat="36.098171944444445" lon="139.38317944444444">
<ele>53</ele>
</trkpt>
<trkpt lat="36.09819638888889" lon="139.3832263888889">
<ele>53</ele>
</trkpt>
<trkpt lat="36.098220833333336" lon="139.38327305555555">
<ele>53</ele>
</trkpt>
<trkpt lat="36.098245" lon="139.3833197222222">
<ele>51</ele>
</trkpt>
<trkpt lat="36.09826361111111" lon="139.383355">
<ele>52</ele>
</trkpt>
<trkpt lat="36.09826361111111" lon="139.383355">
<ele>52</ele>
</trkpt>
<trkpt lat="36.09829194444445" lon="139.38339805555555">
<ele>52</ele>
</trkpt>
<trkpt lat="36.09832055555555" lon="139.38344111111113">
<ele>52</ele>
</trkpt>
<trkpt lat="36.098348888888886" lon="139.38348416666668">
<ele>52</ele>
</trkpt>
<trkpt lat="36.098377222222226" lon="139.38352694444444">
<ele>52</ele>
</trkpt>
<trkpt lat="36.09838888888889" lon="139.38354444444445">
<ele>52</ele>
</trkpt>
<trkpt lat="36.09838888888889" lon="139.38354444444445">
<ele>52</ele>
</trkpt>
<trkpt lat="36.09842416666667" lon="139.38357861111112">
<ele>51</ele>
</trkpt>
<trkpt lat="36.098459444444444" lon="139.38361277777778">
<ele>50</ele>
</trkpt>
<trkpt lat="36.098495" lon="139.3836472222222">
<ele>50</ele>
</trkpt>
<trkpt lat="36.098530277777776" lon="139.3836813888889">
<ele>50</ele>
</trkpt>
<trkpt lat="36.09856555555555" lon="139.38371555555557">
<ele>49</ele>
</trkpt>
<trkpt lat="36.09860111111111" lon="139.38375">
<ele>49</ele>
</trkpt>
<trkpt lat="36.09863638888889" lon="139.38378416666666">
<ele>49</ele>
</trkpt>
<trkpt lat="36.09867166666667" lon="139.38381833333332">
<ele>47</ele>
</trkpt>
<trkpt lat="36.098707222222224" lon="139.38385277777778">
<ele>47</ele>
</trkpt>
<trkpt lat="36.0987425" lon="139.38388694444444">
<ele>47</ele>
</trkpt>
<trkpt lat="36.09877777777778" lon="139.3839211111111">
<ele>47</ele>
</trkpt>
<trkpt lat="36.0987875" lon="139.38393055555557">
<ele>47</ele>
</trkpt>
<trkpt lat="36.0987875" lon="139.38393055555557">
<ele>47</ele>
</trkpt>
<trkpt lat="36.09883111111111" lon="139.38394472222222">
<ele>47</ele>
</trkpt>
<trkpt lat="36.09887444444445" lon="139.38395888888888">
<ele>47</ele>
</trkpt>
<trkpt lat="36.09891777777778" lon="139.38397305555554">
<ele>45</ele>
</trkpt>
<trkpt lat="36.09896138888889" lon="139.38398722222223">
<ele>45</ele>
</trkpt>
<trkpt lat="36.09900472222222" lon="139.3840013888889">
<ele>44</ele>
</trkpt>
<trkpt lat="36.099048055555556" lon="139.3840152777778">
<ele>44</ele>
</trkpt>
<trkpt lat="36.099091666666666" lon="139.38402944444445">
<ele>44</ele>
</trkpt>
<trkpt lat="36.099135" lon="139.3840436111111">
<ele>42</ele>
</trkpt>
<trkpt lat="36.099178611111114" lon="139.38405777777777">
<ele>42</ele>
</trkpt>
<trkpt lat="36.09920805555556" lon="139.3840675">
<ele>42</ele>
</trkpt>
<trkpt lat="36.09920805555556" lon="139.3840675">
<ele>42</ele>
</trkpt>
<trkpt lat="36.099244722222224" lon="139.38409916666666">
<ele>41</ele>
</trkpt>
<trkpt lat="36.09928166666667" lon="139.38413111111112">
<ele>42</ele>
</trkpt>
<trkpt lat="36.099318333333336" lon="139.38416305555555">
<ele>42</ele>
</trkpt>
<trkpt lat="36.099338055555556" lon="139.38418">
<ele>40</ele>
</trkpt>
<trkpt lat="36.099338055555556" lon="139.38418">
<ele>40</ele>
</trkpt>
<trkpt lat="36.099356666666665" lon="139.38423055555555">
<ele>41</ele>
</trkpt>
<trkpt lat="36.099375277777774" lon="139.3842811111111">
<ele>41</ele>
</trkpt>
<trkpt lat="36.09939416666667" lon="139.38433166666667">
<ele>41</ele>
</trkpt>
<trkpt lat="36.099407222222226" lon="139.38436777777778">
<ele>40</ele>
</trkpt>
<trkpt lat="36.099407222222226" lon="139.38436777777778">
<ele>40</ele>
</trkpt>
<trkpt lat="36.09943055555556" lon="139.38441527777778">
<ele>40</ele>
</trkpt>
<trkpt lat="36.09945361111111" lon="139.38446305555556">
<ele>39</ele>
</trkpt>
<trkpt lat="36.09947694444445" lon="139.38451055555555">
<ele>39</ele>
</trkpt>
<trkpt lat="36.0995" lon="139.38455833333333">
<ele>38</ele>
</trkpt>
<trkpt lat="36.09952333333333" lon="139.38460583333332">
<ele>38</ele>
</trkpt>
<trkpt lat="36.09954638888889" lon="139.38465333333335">
<ele>38</ele>
</trkpt>
<trkpt lat="36.09956972222222" lon="139.3847011111111">
<ele>37</ele>
</trkpt>
<trkpt lat="36.099585" lon="139.3847325">
<ele>37</ele>
</trkpt>
<trkpt lat="36.099585" lon="139.3847325">
<ele>37</ele>
</trkpt>
<trkpt lat="36.09961611111111" lon="139.3847725">
<ele>37</ele>
</trkpt>
<trkpt lat="36.099647222222224" lon="139.38481277777777">
<ele>37</ele>
</trkpt>
<trkpt lat="36.09967833333334" lon="139.38485277777778">
<ele>36</ele>
</trkpt>
<trkpt lat="36.099693333333335" lon="139.38487194444446">
<ele>36</ele>
</trkpt>
<trkpt lat="36.099693333333335" lon="139.38487194444446">
<ele>36</ele>
</trkpt>
<trkpt lat="36.099735277777775" lon="139.3848925">
<ele>36</ele>
</trkpt>
<trkpt lat="36.09977694444444" lon="139.38491305555556">
<ele>36</ele>
</trkpt>
<trkpt lat="36.09981861111111" lon="139.3849336111111">
<ele>35</ele>
</trkpt>
<trkpt lat="36.09986027777778" lon="139.38495416666666">
<ele>35</ele>
</trkpt>
<trkpt lat="36.09990222222222" lon="139.3849747222222">
<ele>35</ele>
</trkpt>
<trkpt lat="36.09994388888889" lon="139.3849952777778">
<ele>35</ele>
</trkpt>
<trkpt lat="36.099985555555556" lon="139.38501583333334">
<ele>35</ele>
</trkpt>
<trkpt lat="36.100027222222224" lon="139.3850363888889">
<ele>35</ele>
</trkpt>
<trkpt lat="36.10006888888889" lon="139.38505694444444">
<ele>35</ele>
</trkpt>
<trkpt lat="36.10011083333333" lon="139.3850775">
<ele>35</ele>
</trkpt>
<trkpt lat="36.100118333333334" lon="139.3850813888889">
<ele>34</ele>
</trkpt>
    </trkseg>
  </trk>
</gpx>