<?xml version="1.0" encoding="UTF-8"?>
<gpx version="1.1"
     creator="KMLtoGPX"
     xmlns="http://www.topografix.com/GPX/1/1">
  <metadata>
    <name>61 Route to go casually to IrumaUS Army House</name>
    <desc>61 入間・米軍ハウスにふらっと行くルート</desc>
    <bounds minlat="35.822268888888885" minlon="139.383955" maxlat="35.84497611111111" maxlon="139.397995"/>
  </metadata>
  <trk>
    <name>61 Route to go casually to IrumaUS Army House</name>
    <trkseg>
<trkpt lat="35.84497611111111" lon="139.397995">
<ele>92</ele>
</trkpt>
<trkpt lat="35.844925" lon="139.397955">
<ele>92</ele>
</trkpt>
<trkpt lat="35.84455111111111" lon="139.39764194444444">
<ele>91</ele>
</trkpt>
<trkpt lat="35.844366944444445" lon="139.397455">
<ele>91</ele>
</trkpt>
<trkpt lat="35.84406694444444" lon="139.39711694444443">
<ele>92</ele>
</trkpt>
<trkpt lat="35.84399194444445" lon="139.39701694444443">
<ele>92</ele>
</trkpt>
<trkpt lat="35.84395111111111" lon="139.39696694444444">
<ele>92</ele>
</trkpt>
<trkpt lat="35.84376694444445" lon="139.39669194444446">
<ele>92</ele>
</trkpt>
<trkpt lat="35.84365888888889" lon="139.39651694444444">
<ele>93</ele>
</trkpt>
<trkpt lat="35.843516944444445" lon="139.396205">
<ele>93</ele>
</trkpt>
<trkpt lat="35.84344194444444" lon="139.39596805555556">
<ele>94</ele>
</trkpt>
<trkpt lat="35.84338388888889" lon="139.39573">
<ele>94</ele>
</trkpt>
<trkpt lat="35.84334194444445" lon="139.395605">
<ele>94</ele>
</trkpt>
<trkpt lat="35.84328388888889" lon="139.395405">
<ele>95</ele>
</trkpt>
<trkpt lat="35.84318388888889" lon="139.39514194444445">
<ele>95</ele>
</trkpt>
<trkpt lat="35.84296694444444" lon="139.39473">
<ele>95</ele>
</trkpt>
<trkpt lat="35.842841944444444" lon="139.39454305555554">
<ele>96</ele>
</trkpt>
<trkpt lat="35.84268388888889" lon="139.39433">
<ele>95</ele>
</trkpt>
<trkpt lat="35.84252611111111" lon="139.394155">
<ele>95</ele>
</trkpt>
<trkpt lat="35.84240888888889" lon="139.39404305555556">
<ele>95</ele>
</trkpt>
<trkpt lat="35.842216944444445" lon="139.39389194444445">
<ele>95</ele>
</trkpt>
<trkpt lat="35.841768055555555" lon="139.393655">
<ele>95</ele>
</trkpt>
<trkpt lat="35.84153388888889" lon="139.39356805555556">
<ele>95</ele>
</trkpt>
<trkpt lat="35.84142611111111" lon="139.39354305555557">
<ele>95</ele>
</trkpt>
<trkpt lat="35.840918055555555" lon="139.39336805555556">
<ele>95</ele>
</trkpt>
<trkpt lat="35.840651111111114" lon="139.39326805555555">
<ele>95</ele>
</trkpt>
<trkpt lat="35.83967611111111" lon="139.39299305555556">
<ele>98</ele>
</trkpt>
<trkpt lat="35.83955111111111" lon="139.39296805555554">
<ele>100</ele>
</trkpt>
<trkpt lat="35.83908388888889" lon="139.39286805555557">
<ele>100</ele>
</trkpt>
<trkpt lat="35.83901888888889" lon="139.3928588888889">
<ele>100</ele>
</trkpt>
<trkpt lat="35.83901888888889" lon="139.3928588888889">
<ele>100</ele>
</trkpt>
<trkpt lat="35.83908388888889" lon="139.39286805555557">
<ele>100</ele>
</trkpt>
<trkpt lat="35.83909305555556" lon="139.39299305555556">
<ele>100</ele>
</trkpt>
<trkpt lat="35.838993055555555" lon="139.393455">
<ele>100</ele>
</trkpt>
<trkpt lat="35.83886805555556" lon="139.39401805555556">
<ele>100</ele>
</trkpt>
<trkpt lat="35.83861805555556" lon="139.39511694444445">
<ele>99</ele>
</trkpt>
<trkpt lat="35.838593055555556" lon="139.39523">
<ele>99</ele>
</trkpt>
<trkpt lat="35.83855111111111" lon="139.395405">
<ele>99</ele>
</trkpt>
<trkpt lat="35.838143055555555" lon="139.39719305555556">
<ele>97</ele>
</trkpt>
<trkpt lat="35.838093055555554" lon="139.39741805555556">
<ele>97</ele>
</trkpt>
<trkpt lat="35.838071944444444" lon="139.39741194444446">
<ele>97</ele>
</trkpt>
<trkpt lat="35.838071944444444" lon="139.39741194444446">
<ele>97</ele>
</trkpt>
<trkpt lat="35.83790111111111" lon="139.39736805555555">
<ele>97</ele>
</trkpt>
<trkpt lat="35.83654305555556" lon="139.39691805555555">
<ele>99</ele>
</trkpt>
<trkpt lat="35.835118055555554" lon="139.39643">
<ele>101</ele>
</trkpt>
<trkpt lat="35.83497694444444" lon="139.39636694444445">
<ele>101</ele>
</trkpt>
<trkpt lat="35.834243055555554" lon="139.39561805555556">
<ele>102</ele>
</trkpt>
<trkpt lat="35.83418694444445" lon="139.39555805555557">
<ele>102</ele>
</trkpt>
<trkpt lat="35.83418694444445" lon="139.39555805555557">
<ele>102</ele>
</trkpt>
<trkpt lat="35.833818055555554" lon="139.39516805555556">
<ele>103</ele>
</trkpt>
<trkpt lat="35.833185" lon="139.394505">
<ele>104</ele>
</trkpt>
<trkpt lat="35.832835" lon="139.39413">
<ele>105</ele>
</trkpt>
<trkpt lat="35.832435" lon="139.39371805555555">
<ele>106</ele>
</trkpt>
<trkpt lat="35.83222694444444" lon="139.39351805555555">
<ele>106</ele>
</trkpt>
<trkpt lat="35.83171888888889" lon="139.3929811111111">
<ele>107</ele>
</trkpt>
<trkpt lat="35.831401944444444" lon="139.39266805555556">
<ele>108</ele>
</trkpt>
<trkpt lat="35.83116888888889" lon="139.39241805555557">
<ele>109</ele>
</trkpt>
<trkpt lat="35.830776944444445" lon="139.39201805555555">
<ele>110</ele>
</trkpt>
<trkpt lat="35.83041" lon="139.39164305555556">
<ele>110</ele>
</trkpt>
<trkpt lat="35.82951111111111" lon="139.39070611111111">
<ele>111</ele>
</trkpt>
<trkpt lat="35.82912694444445" lon="139.3903061111111">
<ele>112</ele>
</trkpt>
<trkpt lat="35.828361111111114" lon="139.38949305555556">
<ele>113</ele>
</trkpt>
<trkpt lat="35.82809388888889" lon="139.38923111111112">
<ele>113</ele>
</trkpt>
<trkpt lat="35.82771888888889" lon="139.38884305555555">
<ele>113</ele>
</trkpt>
<trkpt lat="35.827551944444444" lon="139.38866805555554">
<ele>113</ele>
</trkpt>
<trkpt lat="35.82738611111111" lon="139.38849305555556">
<ele>113</ele>
</trkpt>
<trkpt lat="35.827286111111114" lon="139.3883811111111">
<ele>113</ele>
</trkpt>
<trkpt lat="35.82693611111111" lon="139.3880311111111">
<ele>114</ele>
</trkpt>
<trkpt lat="35.82671111111111" lon="139.3878061111111">
<ele>115</ele>
</trkpt>
<trkpt lat="35.82657694444445" lon="139.3876688888889">
<ele>115</ele>
</trkpt>
<trkpt lat="35.82631111111111" lon="139.38738111111113">
<ele>115</ele>
</trkpt>
<trkpt lat="35.826101944444446" lon="139.38716888888888">
<ele>116</ele>
</trkpt>
<trkpt lat="35.825201944444444" lon="139.3862311111111">
<ele>117</ele>
</trkpt>
<trkpt lat="35.825068888888886" lon="139.3860811111111">
<ele>117</ele>
</trkpt>
<trkpt lat="35.82355305555556" lon="139.3845061111111">
<ele>119</ele>
</trkpt>
<trkpt lat="35.82338611111111" lon="139.38435611111112">
<ele>119</ele>
</trkpt>
<trkpt lat="35.823211111111114" lon="139.38423111111112">
<ele>119</ele>
</trkpt>
<trkpt lat="35.82298611111111" lon="139.38411888888888">
<ele>120</ele>
</trkpt>
<trkpt lat="35.82275305555556" lon="139.3840561111111">
<ele>120</ele>
</trkpt>
<trkpt lat="35.82235305555555" lon="139.3840561111111">
<ele>120</ele>
</trkpt>
<trkpt lat="35.822268888888885" lon="139.3840438888889">
<ele>120</ele>
</trkpt>
<trkpt lat="35.82227388888889" lon="139.383955">
<ele>120</ele>
</trkpt>
    </trkseg>
  </trk>
</gpx>