<?xml version="1.0" encoding="UTF-8"?>
<gpx version="1.1"
     creator="KMLtoGPX"
     xmlns="http://www.topografix.com/GPX/1/1">
  <metadata>
    <name>A course where you can enjoy the original scenery and traditions of Japan</name>
    <desc>ニッポンの原風景と伝統を楽しむコース</desc>
    <bounds minlat="36.546199" minlon="139.71159" maxlat="36.57992" maxlon="139.746623"/>
  </metadata>
  <trk>
    <name>A course where you can enjoy the original scenery and traditions of Japan</name>
    <trkseg>
<trkpt lat="36.564656" lon="139.746108">
<ele>148</ele>
</trkpt>
<trkpt lat="36.564622" lon="139.746623">
<ele>148</ele>
</trkpt>
<trkpt lat="36.563477" lon="139.746537">
<ele>148</ele>
</trkpt>
<trkpt lat="36.563393" lon="139.744413">
<ele>145</ele>
</trkpt>
<trkpt lat="36.562421" lon="139.74422">
<ele>143</ele>
</trkpt>
<trkpt lat="36.562035" lon="139.744262">
<ele>142</ele>
</trkpt>
<trkpt lat="36.561127" lon="139.744617">
<ele>142</ele>
</trkpt>
<trkpt lat="36.560218" lon="139.744971">
<ele>142</ele>
</trkpt>
<trkpt lat="36.560142" lon="139.743447">
<ele>142</ele>
</trkpt>
<trkpt lat="36.559618" lon="139.742889">
<ele>142</ele>
</trkpt>
<trkpt lat="36.559129" lon="139.742932">
<ele>142</ele>
</trkpt>
<trkpt lat="36.558484" lon="139.74231">
<ele>142</ele>
</trkpt>
<trkpt lat="36.557201" lon="139.742353">
<ele>139</ele>
</trkpt>
<trkpt lat="36.5571119" lon="139.741012">
<ele>142</ele>
</trkpt>
<trkpt lat="36.557022" lon="139.7396709">
<ele>146</ele>
</trkpt>
<trkpt lat="36.5569289" lon="139.738211">
<ele>158</ele>
</trkpt>
<trkpt lat="36.556508" lon="139.736151">
<ele>142</ele>
</trkpt>
<trkpt lat="36.556184" lon="139.734893">
<ele>140</ele>
</trkpt>
<trkpt lat="36.55586" lon="139.733634">
<ele>146</ele>
</trkpt>
<trkpt lat="36.5555359" lon="139.732375">
<ele>150</ele>
</trkpt>
<trkpt lat="36.554981" lon="139.731291">
<ele>157</ele>
</trkpt>
<trkpt lat="36.554426" lon="139.730208">
<ele>167</ele>
</trkpt>
<trkpt lat="36.553953" lon="139.728706">
<ele>171</ele>
</trkpt>
<trkpt lat="36.553085" lon="139.7277829">
<ele>179</ele>
</trkpt>
<trkpt lat="36.553233" lon="139.726882">
<ele>180</ele>
</trkpt>
<trkpt lat="36.553157" lon="139.726002">
<ele>169</ele>
</trkpt>
<trkpt lat="36.552891" lon="139.724436">
<ele>155</ele>
</trkpt>
<trkpt lat="36.5526259" lon="139.722998">
<ele>154</ele>
</trkpt>
<trkpt lat="36.552464" lon="139.722161">
<ele>155</ele>
</trkpt>
<trkpt lat="36.550891" lon="139.722376">
<ele>152</ele>
</trkpt>
<trkpt lat="36.550044" lon="139.722769">
<ele>150</ele>
</trkpt>
<trkpt lat="36.549197" lon="139.723162">
<ele>149</ele>
</trkpt>
<trkpt lat="36.54835" lon="139.723556">
<ele>149</ele>
</trkpt>
<trkpt lat="36.54733" lon="139.7234489">
<ele>147</ele>
</trkpt>
<trkpt lat="36.546309" lon="139.723341">
<ele>145</ele>
</trkpt>
<trkpt lat="36.546272" lon="139.721925">
<ele>143</ele>
</trkpt>
<trkpt lat="36.546235" lon="139.720509">
<ele>143</ele>
</trkpt>
<trkpt lat="36.546199" lon="139.7190929">
<ele>145</ele>
</trkpt>
<trkpt lat="36.546214" lon="139.719695">
<ele>145</ele>
</trkpt>
<trkpt lat="36.547512" lon="139.719705">
<ele>147</ele>
</trkpt>
<trkpt lat="36.54881" lon="139.719716">
<ele>146</ele>
</trkpt>
<trkpt lat="36.548769" lon="139.721046">
<ele>147</ele>
</trkpt>
<trkpt lat="36.550348" lon="139.720918">
<ele>150</ele>
</trkpt>
<trkpt lat="36.551978" lon="139.720274">
<ele>152</ele>
</trkpt>
<trkpt lat="36.552385" lon="139.721991">
<ele>153</ele>
</trkpt>
<trkpt lat="36.553878" lon="139.72227">
<ele>155</ele>
</trkpt>
<trkpt lat="36.55506" lon="139.721497">
<ele>156</ele>
</trkpt>
<trkpt lat="36.556294" lon="139.720875">
<ele>158</ele>
</trkpt>
<trkpt lat="36.55708" lon="139.719952">
<ele>158</ele>
</trkpt>
<trkpt lat="36.558762" lon="139.72021">
<ele>161</ele>
</trkpt>
<trkpt lat="36.560082" lon="139.719587">
<ele>165</ele>
</trkpt>
<trkpt lat="36.560471" lon="139.719523">
<ele>166</ele>
</trkpt>
<trkpt lat="36.5616709" lon="139.720317">
<ele>166</ele>
</trkpt>
<trkpt lat="36.562548" lon="139.71973">
<ele>166</ele>
</trkpt>
<trkpt lat="36.563424" lon="139.719144">
<ele>167</ele>
</trkpt>
<trkpt lat="36.564301" lon="139.718557">
<ele>167</ele>
</trkpt>
<trkpt lat="36.565018" lon="139.718085">
<ele>167</ele>
</trkpt>
<trkpt lat="36.5656139" lon="139.717291">
<ele>170</ele>
</trkpt>
<trkpt lat="36.566848" lon="139.716004">
<ele>173</ele>
</trkpt>
<trkpt lat="36.567875" lon="139.71506">
<ele>175</ele>
</trkpt>
<trkpt lat="36.568483" lon="139.71403">
<ele>175</ele>
</trkpt>
<trkpt lat="36.569091" lon="139.713">
<ele>176</ele>
</trkpt>
<trkpt lat="36.569843" lon="139.711777">
<ele>178</ele>
</trkpt>
<trkpt lat="36.5698099" lon="139.71174">
<ele>178</ele>
</trkpt>
<trkpt lat="36.56994" lon="139.71159">
<ele>177</ele>
</trkpt>
<trkpt lat="36.57142" lon="139.7119">
<ele>177</ele>
</trkpt>
<trkpt lat="36.57148" lon="139.71192">
<ele>177</ele>
</trkpt>
<trkpt lat="36.57248" lon="139.7125299">
<ele>182</ele>
</trkpt>
<trkpt lat="36.57268" lon="139.71268">
<ele>182</ele>
</trkpt>
<trkpt lat="36.57268" lon="139.71267">
<ele>182</ele>
</trkpt>
<trkpt lat="36.57367" lon="139.71349">
<ele>183</ele>
</trkpt>
<trkpt lat="36.57537" lon="139.71484">
<ele>182</ele>
</trkpt>
<trkpt lat="36.57537" lon="139.71485">
<ele>182</ele>
</trkpt>
<trkpt lat="36.57548" lon="139.71493">
<ele>182</ele>
</trkpt>
<trkpt lat="36.57582" lon="139.7153">
<ele>181</ele>
</trkpt>
<trkpt lat="36.57617" lon="139.71579">
<ele>181</ele>
</trkpt>
<trkpt lat="36.57629" lon="139.71589">
<ele>182</ele>
</trkpt>
<trkpt lat="36.57636" lon="139.71596">
<ele>182</ele>
</trkpt>
<trkpt lat="36.5768" lon="139.71609">
<ele>183</ele>
</trkpt>
<trkpt lat="36.57686" lon="139.7161099">
<ele>184</ele>
</trkpt>
<trkpt lat="36.57707" lon="139.71615">
<ele>184</ele>
</trkpt>
<trkpt lat="36.5777" lon="139.71636">
<ele>184</ele>
</trkpt>
<trkpt lat="36.57785" lon="139.7164">
<ele>184</ele>
</trkpt>
<trkpt lat="36.5780699" lon="139.71641">
<ele>184</ele>
</trkpt>
<trkpt lat="36.57838" lon="139.71641">
<ele>184</ele>
</trkpt>
<trkpt lat="36.57877" lon="139.71633">
<ele>184</ele>
</trkpt>
<trkpt lat="36.57902" lon="139.7163">
<ele>184</ele>
</trkpt>
<trkpt lat="36.57973" lon="139.71628">
<ele>183</ele>
</trkpt>
<trkpt lat="36.57979" lon="139.71626">
<ele>183</ele>
</trkpt>
<trkpt lat="36.57992" lon="139.71622">
<ele>183</ele>
</trkpt>
<trkpt lat="36.5798599" lon="139.7167">
<ele>183</ele>
</trkpt>
<trkpt lat="36.57964" lon="139.71809">
<ele>189</ele>
</trkpt>
<trkpt lat="36.5795699" lon="139.71807">
<ele>188</ele>
</trkpt>
<trkpt lat="36.57705" lon="139.71739">
<ele>183</ele>
</trkpt>
<trkpt lat="36.57683" lon="139.71725">
<ele>183</ele>
</trkpt>
<trkpt lat="36.57673" lon="139.71714">
<ele>183</ele>
</trkpt>
<trkpt lat="36.57665" lon="139.71695">
<ele>183</ele>
</trkpt>
<trkpt lat="36.57665" lon="139.71678">
<ele>183</ele>
</trkpt>
<trkpt lat="36.57656" lon="139.71685">
<ele>182</ele>
</trkpt>
<trkpt lat="36.57627" lon="139.71705">
<ele>181</ele>
</trkpt>
<trkpt lat="36.57623" lon="139.71702">
<ele>181</ele>
</trkpt>
<trkpt lat="36.57475" lon="139.71569">
<ele>181</ele>
</trkpt>
<trkpt lat="36.57452" lon="139.71552">
<ele>180</ele>
</trkpt>
<trkpt lat="36.5742199" lon="139.71533">
<ele>179</ele>
</trkpt>
<trkpt lat="36.57348" lon="139.71458">
<ele>178</ele>
</trkpt>
<trkpt lat="36.57317" lon="139.71421">
<ele>179</ele>
</trkpt>
<trkpt lat="36.5732" lon="139.71417">
<ele>179</ele>
</trkpt>
<trkpt lat="36.57355" lon="139.71358">
<ele>180</ele>
</trkpt>
<trkpt lat="36.57349" lon="139.71358">
<ele>180</ele>
</trkpt>
<trkpt lat="36.57255" lon="139.71356">
<ele>179</ele>
</trkpt>
<trkpt lat="36.57182" lon="139.7135">
<ele>179</ele>
</trkpt>
<trkpt lat="36.57153" lon="139.7135">
<ele>179</ele>
</trkpt>
<trkpt lat="36.57087" lon="139.71371">
<ele>178</ele>
</trkpt>
<trkpt lat="36.57044" lon="139.71381">
<ele>178</ele>
</trkpt>
<trkpt lat="36.56994" lon="139.71389">
<ele>176</ele>
</trkpt>
<trkpt lat="36.56976" lon="139.71399">
<ele>175</ele>
</trkpt>
<trkpt lat="36.56897" lon="139.71469">
<ele>176</ele>
</trkpt>
<trkpt lat="36.56884" lon="139.71476">
<ele>176</ele>
</trkpt>
<trkpt lat="36.56807" lon="139.71503">
<ele>176</ele>
</trkpt>
<trkpt lat="36.56796" lon="139.71507">
<ele>176</ele>
</trkpt>
<trkpt lat="36.56787" lon="139.71501">
<ele>175</ele>
</trkpt>
<trkpt lat="36.5664" lon="139.71626">
<ele>171</ele>
</trkpt>
<trkpt lat="36.56613" lon="139.71652">
<ele>171</ele>
</trkpt>
<trkpt lat="36.56584" lon="139.7169199">
<ele>171</ele>
</trkpt>
<trkpt lat="36.56528" lon="139.71778">
<ele>168</ele>
</trkpt>
<trkpt lat="36.56513" lon="139.71795">
<ele>167</ele>
</trkpt>
<trkpt lat="36.56467" lon="139.71832">
<ele>167</ele>
</trkpt>
<trkpt lat="36.56431" lon="139.71857">
<ele>167</ele>
</trkpt>
<trkpt lat="36.56423" lon="139.7186199">
<ele>167</ele>
</trkpt>
<trkpt lat="36.56433" lon="139.71966">
<ele>169</ele>
</trkpt>
<trkpt lat="36.5644" lon="139.72012">
<ele>169</ele>
</trkpt>
<trkpt lat="36.5644" lon="139.72013">
<ele>169</ele>
</trkpt>
<trkpt lat="36.56447" lon="139.72057">
<ele>169</ele>
</trkpt>
<trkpt lat="36.56454" lon="139.72085">
<ele>169</ele>
</trkpt>
<trkpt lat="36.56469" lon="139.72134">
<ele>169</ele>
</trkpt>
<trkpt lat="36.56479" lon="139.72156">
<ele>168</ele>
</trkpt>
<trkpt lat="36.56508" lon="139.72214">
<ele>165</ele>
</trkpt>
<trkpt lat="36.56577" lon="139.72349">
<ele>158</ele>
</trkpt>
<trkpt lat="36.56577" lon="139.72348">
<ele>158</ele>
</trkpt>
<trkpt lat="36.56614" lon="139.72422">
<ele>158</ele>
</trkpt>
<trkpt lat="36.566391" lon="139.72493">
<ele>156</ele>
</trkpt>
<trkpt lat="36.566591" lon="139.725552">
<ele>156</ele>
</trkpt>
<trkpt lat="36.566566" lon="139.726561">
<ele>156</ele>
</trkpt>
<trkpt lat="36.566146" lon="139.728406">
<ele>154</ele>
</trkpt>
<trkpt lat="36.565961" lon="139.729758">
<ele>152</ele>
</trkpt>
<trkpt lat="36.565777" lon="139.73111">
<ele>150</ele>
</trkpt>
<trkpt lat="36.5656869" lon="139.73274">
<ele>150</ele>
</trkpt>
<trkpt lat="36.5655969" lon="139.734371">
<ele>150</ele>
</trkpt>
<trkpt lat="36.565608" lon="139.736538">
<ele>149</ele>
</trkpt>
<trkpt lat="36.565084" lon="139.738405">
<ele>151</ele>
</trkpt>
<trkpt lat="36.564668" lon="139.739666">
<ele>149</ele>
</trkpt>
<trkpt lat="36.564253" lon="139.740926">
<ele>148</ele>
</trkpt>
<trkpt lat="36.5638379" lon="139.742187">
<ele>146</ele>
</trkpt>
<trkpt lat="36.563422" lon="139.743448">
<ele>145</ele>
</trkpt>
<trkpt lat="36.563467" lon="139.74422">
<ele>145</ele>
</trkpt>
<trkpt lat="36.563356" lon="139.746323">
<ele>148</ele>
</trkpt>
<trkpt lat="36.564504" lon="139.746452">
<ele>148</ele>
</trkpt>
<trkpt lat="36.564656" lon="139.746108">
<ele>148</ele>
</trkpt>
    </trkseg>
  </trk>
</gpx>