<?xml version="1.0" encoding="UTF-8"?>
<gpx version="1.1"
     creator="KMLtoGPX"
     xmlns="http://www.topografix.com/GPX/1/1">
  <metadata>
    <name>Hayase River Cycling Road</name>
    <desc>早瀬川サイクリングロード</desc>
    <bounds minlat="36.359114444444444" minlon="138.96499111111112" maxlat="36.367621944444444" maxlon="138.996465"/>
  </metadata>
  <trk>
    <name>Hayase River Cycling Road</name>
    <trkseg>
<trkpt lat="36.359967777777776" lon="138.996465">
<ele>105</ele>
</trkpt>
<trkpt lat="36.35978194444444" lon="138.99614861111112">
<ele>105</ele>
</trkpt>
<trkpt lat="36.35978194444444" lon="138.99614861111112">
<ele>105</ele>
</trkpt>
<trkpt lat="36.359410555555556" lon="138.9959875">
<ele>105</ele>
</trkpt>
<trkpt lat="36.359410555555556" lon="138.9959875">
<ele>105</ele>
</trkpt>
<trkpt lat="36.35925916666667" lon="138.99574611111112">
<ele>105</ele>
</trkpt>
<trkpt lat="36.35925916666667" lon="138.99574611111112">
<ele>105</ele>
</trkpt>
<trkpt lat="36.359140555555555" lon="138.9952513888889">
<ele>106</ele>
</trkpt>
<trkpt lat="36.359140555555555" lon="138.9952513888889">
<ele>106</ele>
</trkpt>
<trkpt lat="36.35919" lon="138.99471472222223">
<ele>106</ele>
</trkpt>
<trkpt lat="36.35919" lon="138.99471472222223">
<ele>106</ele>
</trkpt>
<trkpt lat="36.359114444444444" lon="138.9941275">
<ele>106</ele>
</trkpt>
<trkpt lat="36.359114444444444" lon="138.9941275">
<ele>106</ele>
</trkpt>
<trkpt lat="36.359138333333334" lon="138.9938486111111">
<ele>106</ele>
</trkpt>
<trkpt lat="36.359138333333334" lon="138.9938486111111">
<ele>106</ele>
</trkpt>
<trkpt lat="36.35932833333333" lon="138.99320333333333">
<ele>107</ele>
</trkpt>
<trkpt lat="36.35932833333333" lon="138.99320333333333">
<ele>107</ele>
</trkpt>
<trkpt lat="36.3595875" lon="138.9928277777778">
<ele>107</ele>
</trkpt>
<trkpt lat="36.3595875" lon="138.9928277777778">
<ele>107</ele>
</trkpt>
<trkpt lat="36.35969111111111" lon="138.992345">
<ele>107</ele>
</trkpt>
<trkpt lat="36.35969111111111" lon="138.992345">
<ele>107</ele>
</trkpt>
<trkpt lat="36.35993305555556" lon="138.9920875">
<ele>107</ele>
</trkpt>
<trkpt lat="36.35993305555556" lon="138.9920875">
<ele>107</ele>
</trkpt>
<trkpt lat="36.36024416666667" lon="138.99188388888888">
<ele>108</ele>
</trkpt>
<trkpt lat="36.36024416666667" lon="138.99188388888888">
<ele>108</ele>
</trkpt>
<trkpt lat="36.36058972222222" lon="138.9908861111111">
<ele>109</ele>
</trkpt>
<trkpt lat="36.36058972222222" lon="138.9908861111111">
<ele>109</ele>
</trkpt>
<trkpt lat="36.360680555555554" lon="138.99028777777778">
<ele>110</ele>
</trkpt>
<trkpt lat="36.360680555555554" lon="138.99028777777778">
<ele>110</ele>
</trkpt>
<trkpt lat="36.360875" lon="138.98866777777778">
<ele>109</ele>
</trkpt>
<trkpt lat="36.360875" lon="138.98866777777778">
<ele>109</ele>
</trkpt>
<trkpt lat="36.36085555555555" lon="138.98856722222223">
<ele>109</ele>
</trkpt>
<trkpt lat="36.36085555555555" lon="138.98856722222223">
<ele>109</ele>
</trkpt>
<trkpt lat="36.36073444444445" lon="138.9886236111111">
<ele>109</ele>
</trkpt>
<trkpt lat="36.36073444444445" lon="138.9886236111111">
<ele>109</ele>
</trkpt>
<trkpt lat="36.3607" lon="138.98831777777778">
<ele>109</ele>
</trkpt>
<trkpt lat="36.3607" lon="138.98831777777778">
<ele>109</ele>
</trkpt>
<trkpt lat="36.360775555555556" lon="138.98775444444445">
<ele>109</ele>
</trkpt>
<trkpt lat="36.360775555555556" lon="138.98775444444445">
<ele>109</ele>
</trkpt>
<trkpt lat="36.360875" lon="138.98557666666667">
<ele>110</ele>
</trkpt>
<trkpt lat="36.360875" lon="138.98557666666667">
<ele>110</ele>
</trkpt>
<trkpt lat="36.360907222222224" lon="138.98488722222223">
<ele>111</ele>
</trkpt>
<trkpt lat="36.360907222222224" lon="138.98488722222223">
<ele>111</ele>
</trkpt>
<trkpt lat="36.36113833333334" lon="138.9842663888889">
<ele>111</ele>
</trkpt>
<trkpt lat="36.36113833333334" lon="138.9842663888889">
<ele>111</ele>
</trkpt>
<trkpt lat="36.36145805555556" lon="138.98385333333334">
<ele>111</ele>
</trkpt>
<trkpt lat="36.36145805555556" lon="138.98385333333334">
<ele>111</ele>
</trkpt>
<trkpt lat="36.361795" lon="138.98331666666667">
<ele>112</ele>
</trkpt>
<trkpt lat="36.361795" lon="138.98331666666667">
<ele>112</ele>
</trkpt>
<trkpt lat="36.362075833333336" lon="138.98252277777777">
<ele>112</ele>
</trkpt>
<trkpt lat="36.362075833333336" lon="138.98252277777777">
<ele>112</ele>
</trkpt>
<trkpt lat="36.36223555555556" lon="138.98186305555555">
<ele>112</ele>
</trkpt>
<trkpt lat="36.36223555555556" lon="138.98186305555555">
<ele>112</ele>
</trkpt>
<trkpt lat="36.36255527777778" lon="138.98124611111112">
<ele>113</ele>
</trkpt>
<trkpt lat="36.36255527777778" lon="138.98124611111112">
<ele>113</ele>
</trkpt>
<trkpt lat="36.36252944444445" lon="138.98072027777778">
<ele>113</ele>
</trkpt>
<trkpt lat="36.36252944444445" lon="138.98072027777778">
<ele>113</ele>
</trkpt>
<trkpt lat="36.36262444444444" lon="138.9803611111111">
<ele>113</ele>
</trkpt>
<trkpt lat="36.36262444444444" lon="138.9803611111111">
<ele>113</ele>
</trkpt>
<trkpt lat="36.36279305555556" lon="138.98001222222223">
<ele>115</ele>
</trkpt>
<trkpt lat="36.36279305555556" lon="138.98001222222223">
<ele>115</ele>
</trkpt>
<trkpt lat="36.36290972222222" lon="138.97928805555554">
<ele>114</ele>
</trkpt>
<trkpt lat="36.36290972222222" lon="138.97928805555554">
<ele>114</ele>
</trkpt>
<trkpt lat="36.3631125" lon="138.97892861111112">
<ele>114</ele>
</trkpt>
<trkpt lat="36.3631125" lon="138.97892861111112">
<ele>114</ele>
</trkpt>
<trkpt lat="36.363030555555554" lon="138.97852111111112">
<ele>114</ele>
</trkpt>
<trkpt lat="36.363030555555554" lon="138.97852111111112">
<ele>114</ele>
</trkpt>
<trkpt lat="36.36310388888889" lon="138.9778022222222">
<ele>115</ele>
</trkpt>
<trkpt lat="36.36310388888889" lon="138.9778022222222">
<ele>115</ele>
</trkpt>
<trkpt lat="36.36327027777778" lon="138.97762916666667">
<ele>115</ele>
</trkpt>
<trkpt lat="36.36327027777778" lon="138.97762916666667">
<ele>115</ele>
</trkpt>
<trkpt lat="36.36320111111111" lon="138.97725888888888">
<ele>115</ele>
</trkpt>
<trkpt lat="36.36320111111111" lon="138.97725888888888">
<ele>115</ele>
</trkpt>
<trkpt lat="36.36324444444445" lon="138.97708472222223">
<ele>115</ele>
</trkpt>
<trkpt lat="36.36324444444445" lon="138.97708472222223">
<ele>115</ele>
</trkpt>
<trkpt lat="36.36338472222222" lon="138.9767736111111">
<ele>115</ele>
</trkpt>
<trkpt lat="36.36338472222222" lon="138.9767736111111">
<ele>115</ele>
</trkpt>
<trkpt lat="36.36356416666667" lon="138.97584">
<ele>116</ele>
</trkpt>
<trkpt lat="36.36356416666667" lon="138.97584">
<ele>116</ele>
</trkpt>
<trkpt lat="36.36367861111111" lon="138.97520444444444">
<ele>116</ele>
</trkpt>
<trkpt lat="36.36367861111111" lon="138.97520444444444">
<ele>116</ele>
</trkpt>
<trkpt lat="36.363661111111114" lon="138.97416638888888">
<ele>117</ele>
</trkpt>
<trkpt lat="36.36366611111111" lon="138.97414194444445">
<ele>117</ele>
</trkpt>
<trkpt lat="36.36362111111111" lon="138.97412805555555">
<ele>117</ele>
</trkpt>
<trkpt lat="36.36339611111111" lon="138.9741161111111">
<ele>117</ele>
</trkpt>
<trkpt lat="36.363438055555555" lon="138.97371611111112">
<ele>117</ele>
</trkpt>
<trkpt lat="36.363438055555555" lon="138.97357805555555">
<ele>117</ele>
</trkpt>
<trkpt lat="36.36343611111111" lon="138.9735588888889">
<ele>117</ele>
</trkpt>
<trkpt lat="36.36343611111111" lon="138.9735588888889">
<ele>117</ele>
</trkpt>
<trkpt lat="36.36340388888889" lon="138.9729911111111">
<ele>117</ele>
</trkpt>
<trkpt lat="36.36337888888889" lon="138.97291611111112">
<ele>117</ele>
</trkpt>
<trkpt lat="36.36327111111111" lon="138.9727661111111">
<ele>117</ele>
</trkpt>
<trkpt lat="36.36325388888889" lon="138.9727161111111">
<ele>117</ele>
</trkpt>
<trkpt lat="36.36319611111111" lon="138.9722911111111">
<ele>117</ele>
</trkpt>
<trkpt lat="36.363238055555556" lon="138.97210305555555">
<ele>118</ele>
</trkpt>
<trkpt lat="36.36384611111111" lon="138.97207805555556">
<ele>118</ele>
</trkpt>
<trkpt lat="36.363881944444444" lon="138.972015">
<ele>118</ele>
</trkpt>
<trkpt lat="36.363881944444444" lon="138.972015">
<ele>118</ele>
</trkpt>
<trkpt lat="36.36404611111111" lon="138.97172805555556">
<ele>118</ele>
</trkpt>
<trkpt lat="36.364128055555554" lon="138.97152694444443">
<ele>118</ele>
</trkpt>
<trkpt lat="36.364128055555554" lon="138.97152694444443">
<ele>118</ele>
</trkpt>
<trkpt lat="36.364507777777774" lon="138.9705911111111">
<ele>119</ele>
</trkpt>
<trkpt lat="36.364507777777774" lon="138.9705911111111">
<ele>119</ele>
</trkpt>
<trkpt lat="36.364495" lon="138.97036833333334">
<ele>119</ele>
</trkpt>
<trkpt lat="36.364495" lon="138.97036833333334">
<ele>119</ele>
</trkpt>
<trkpt lat="36.364484166666664" lon="138.97012166666667">
<ele>119</ele>
</trkpt>
<trkpt lat="36.36448" lon="138.97007305555556">
<ele>120</ele>
</trkpt>
<trkpt lat="36.36443805555555" lon="138.97007888888888">
<ele>120</ele>
</trkpt>
<trkpt lat="36.36474611111111" lon="138.96941611111112">
<ele>120</ele>
</trkpt>
<trkpt lat="36.36477111111111" lon="138.9693288888889">
<ele>120</ele>
</trkpt>
<trkpt lat="36.36481194444445" lon="138.9692411111111">
<ele>120</ele>
</trkpt>
<trkpt lat="36.36479611111111" lon="138.96919111111112">
<ele>120</ele>
</trkpt>
<trkpt lat="36.36484611111111" lon="138.9690161111111">
<ele>120</ele>
</trkpt>
<trkpt lat="36.36488694444444" lon="138.9688538888889">
<ele>120</ele>
</trkpt>
<trkpt lat="36.364936944444445" lon="138.9685661111111">
<ele>120</ele>
</trkpt>
<trkpt lat="36.365096111111114" lon="138.96835388888888">
<ele>121</ele>
</trkpt>
<trkpt lat="36.36511194444444" lon="138.9683038888889">
<ele>121</ele>
</trkpt>
<trkpt lat="36.36512888888889" lon="138.96826611111112">
<ele>121</ele>
</trkpt>
<trkpt lat="36.365125" lon="138.96823388888888">
<ele>121</ele>
</trkpt>
<trkpt lat="36.365125" lon="138.96823388888888">
<ele>121</ele>
</trkpt>
<trkpt lat="36.36506083333333" lon="138.96798666666666">
<ele>121</ele>
</trkpt>
<trkpt lat="36.36506083333333" lon="138.96798666666666">
<ele>121</ele>
</trkpt>
<trkpt lat="36.365145" lon="138.96769972222222">
<ele>121</ele>
</trkpt>
<trkpt lat="36.365145" lon="138.96769972222222">
<ele>121</ele>
</trkpt>
<trkpt lat="36.365410833333335" lon="138.9674877777778">
<ele>122</ele>
</trkpt>
<trkpt lat="36.365410833333335" lon="138.9674877777778">
<ele>122</ele>
</trkpt>
<trkpt lat="36.36545388888889" lon="138.96738305555556">
<ele>122</ele>
</trkpt>
<trkpt lat="36.36545388888889" lon="138.96738305555556">
<ele>122</ele>
</trkpt>
<trkpt lat="36.36542361111111" lon="138.96713916666667">
<ele>122</ele>
</trkpt>
<trkpt lat="36.36542361111111" lon="138.96713916666667">
<ele>122</ele>
</trkpt>
<trkpt lat="36.3653675" lon="138.966895">
<ele>122</ele>
</trkpt>
<trkpt lat="36.3653675" lon="138.966895">
<ele>122</ele>
</trkpt>
<trkpt lat="36.36539138888889" lon="138.96668583333334">
<ele>123</ele>
</trkpt>
<trkpt lat="36.36539138888889" lon="138.96668583333334">
<ele>123</ele>
</trkpt>
<trkpt lat="36.365516666666664" lon="138.9664525">
<ele>123</ele>
</trkpt>
<trkpt lat="36.365516666666664" lon="138.9664525">
<ele>123</ele>
</trkpt>
<trkpt lat="36.36572833333334" lon="138.9663211111111">
<ele>124</ele>
</trkpt>
<trkpt lat="36.36572833333334" lon="138.9663211111111">
<ele>124</ele>
</trkpt>
<trkpt lat="36.36583611111111" lon="138.96621638888888">
<ele>123</ele>
</trkpt>
<trkpt lat="36.36583611111111" lon="138.96621638888888">
<ele>123</ele>
</trkpt>
<trkpt lat="36.36592916666667" lon="138.9659697222222">
<ele>124</ele>
</trkpt>
<trkpt lat="36.36593388888889" lon="138.96597111111112">
<ele>124</ele>
</trkpt>
<trkpt lat="36.36596194444444" lon="138.9658538888889">
<ele>124</ele>
</trkpt>
<trkpt lat="36.36599611111111" lon="138.9654788888889">
<ele>125</ele>
</trkpt>
<trkpt lat="36.366036944444446" lon="138.96530388888888">
<ele>125</ele>
</trkpt>
<trkpt lat="36.36610388888889" lon="138.9651661111111">
<ele>125</ele>
</trkpt>
<trkpt lat="36.36620388888889" lon="138.9650661111111">
<ele>125</ele>
</trkpt>
<trkpt lat="36.36632888888889" lon="138.9650161111111">
<ele>125</ele>
</trkpt>
<trkpt lat="36.36647888888889" lon="138.96499111111112">
<ele>126</ele>
</trkpt>
<trkpt lat="36.366595" lon="138.9650038888889">
<ele>126</ele>
</trkpt>
<trkpt lat="36.366861944444445" lon="138.96509111111112">
<ele>126</ele>
</trkpt>
<trkpt lat="36.36698694444444" lon="138.96511611111112">
<ele>126</ele>
</trkpt>
<trkpt lat="36.367001944444446" lon="138.96511694444445">
<ele>126</ele>
</trkpt>
<trkpt lat="36.367001944444446" lon="138.96511694444445">
<ele>126</ele>
</trkpt>
<trkpt lat="36.36727888888889" lon="138.9651288888889">
<ele>127</ele>
</trkpt>
<trkpt lat="36.36741194444444" lon="138.9651288888889">
<ele>127</ele>
</trkpt>
<trkpt lat="36.367621944444444" lon="138.96516111111112">
<ele>127</ele>
</trkpt>
    </trkseg>
  </trk>
</gpx>