<?xml version="1.0" encoding="UTF-8"?>
<gpx version="1.1"
     creator="KMLtoGPX"
     xmlns="http://www.topografix.com/GPX/1/1">
  <metadata>
    <name>Launch route</name>
    <desc>上市ルート</desc>
    <bounds minlat="36.366818888888886" minlon="140.44730194444443" maxlat="36.39805111111111" maxlon="140.47837611111112"/>
  </metadata>
  <trk>
    <name>Launch route</name>
    <trkseg>
<trkpt lat="36.36888611111111" lon="140.47589888888888">
<ele>10</ele>
</trkpt>
<trkpt lat="36.368203055555554" lon="140.47577611111112">
<ele>8</ele>
</trkpt>
<trkpt lat="36.36765194444445" lon="140.4756638888889">
<ele>8</ele>
</trkpt>
<trkpt lat="36.367576944444444" lon="140.47565111111112">
<ele>8</ele>
</trkpt>
<trkpt lat="36.366818888888886" lon="140.47553888888888">
<ele>8</ele>
</trkpt>
<trkpt lat="36.36683611111111" lon="140.4753761111111">
<ele>8</ele>
</trkpt>
<trkpt lat="36.366926944444444" lon="140.47463888888888">
<ele>8</ele>
</trkpt>
<trkpt lat="36.367018888888886" lon="140.47384694444443">
<ele>8</ele>
</trkpt>
<trkpt lat="36.367018888888886" lon="140.47384694444443">
<ele>8</ele>
</trkpt>
<trkpt lat="36.36713611111111" lon="140.4728388888889">
<ele>8</ele>
</trkpt>
<trkpt lat="36.36736888888889" lon="140.47092694444444">
<ele>8</ele>
</trkpt>
<trkpt lat="36.367536111111114" lon="140.4694638888889">
<ele>8</ele>
</trkpt>
<trkpt lat="36.36758611111111" lon="140.46905194444443">
<ele>8</ele>
</trkpt>
<trkpt lat="36.36763611111111" lon="140.46867694444444">
<ele>9</ele>
</trkpt>
<trkpt lat="36.36769388888889" lon="140.4682138888889">
<ele>9</ele>
</trkpt>
<trkpt lat="36.36771111111111" lon="140.4680888888889">
<ele>9</ele>
</trkpt>
<trkpt lat="36.36830694444444" lon="140.46832805555556">
<ele>8</ele>
</trkpt>
<trkpt lat="36.36830694444444" lon="140.46832805555556">
<ele>8</ele>
</trkpt>
<trkpt lat="36.36833611111111" lon="140.4683388888889">
<ele>8</ele>
</trkpt>
<trkpt lat="36.36958611111111" lon="140.4687638888889">
<ele>8</ele>
</trkpt>
<trkpt lat="36.37055194444444" lon="140.46912694444444">
<ele>9</ele>
</trkpt>
<trkpt lat="36.371185" lon="140.4693388888889">
<ele>16</ele>
</trkpt>
<trkpt lat="36.37132694444445" lon="140.4694388888889">
<ele>17</ele>
</trkpt>
<trkpt lat="36.37121" lon="140.46975111111112">
<ele>17</ele>
</trkpt>
<trkpt lat="36.371085" lon="140.4702638888889">
<ele>17</ele>
</trkpt>
<trkpt lat="36.37096" lon="140.47098888888888">
<ele>16</ele>
</trkpt>
<trkpt lat="36.37086" lon="140.47111388888888">
<ele>14</ele>
</trkpt>
<trkpt lat="36.37079388888889" lon="140.4714011111111">
<ele>13</ele>
</trkpt>
<trkpt lat="36.37076" lon="140.4716138888889">
<ele>13</ele>
</trkpt>
<trkpt lat="36.37075194444444" lon="140.4718138888889">
<ele>13</ele>
</trkpt>
<trkpt lat="36.370851944444446" lon="140.4723138888889">
<ele>15</ele>
</trkpt>
<trkpt lat="36.37097" lon="140.47263805555556">
<ele>16</ele>
</trkpt>
<trkpt lat="36.37097111111111" lon="140.47263805555556">
<ele>16</ele>
</trkpt>
<trkpt lat="36.37099388888889" lon="140.47270111111112">
<ele>17</ele>
</trkpt>
<trkpt lat="36.37136888888889" lon="140.4733138888889">
<ele>19</ele>
</trkpt>
<trkpt lat="36.37149388888889" lon="140.47360111111112">
<ele>19</ele>
</trkpt>
<trkpt lat="36.37159388888889" lon="140.47358888888888">
<ele>19</ele>
</trkpt>
<trkpt lat="36.37191888888889" lon="140.47403888888888">
<ele>19</ele>
</trkpt>
<trkpt lat="36.37249388888889" lon="140.47486388888888">
<ele>19</ele>
</trkpt>
<trkpt lat="36.37265194444444" lon="140.47507611111112">
<ele>20</ele>
</trkpt>
<trkpt lat="36.37276888888889" lon="140.4752261111111">
<ele>20</ele>
</trkpt>
<trkpt lat="36.372926944444444" lon="140.4755011111111">
<ele>20</ele>
</trkpt>
<trkpt lat="36.372985" lon="140.4757138888889">
<ele>20</ele>
</trkpt>
<trkpt lat="36.37301" lon="140.47576388888888">
<ele>20</ele>
</trkpt>
<trkpt lat="36.37331888888889" lon="140.4759261111111">
<ele>20</ele>
</trkpt>
<trkpt lat="36.37396" lon="140.4762511111111">
<ele>21</ele>
</trkpt>
<trkpt lat="36.37379388888889" lon="140.47667611111112">
<ele>20</ele>
</trkpt>
<trkpt lat="36.373801944444445" lon="140.47676388888888">
<ele>20</ele>
</trkpt>
<trkpt lat="36.37414305555556" lon="140.47716305555556">
<ele>20</ele>
</trkpt>
<trkpt lat="36.37478611111111" lon="140.47770194444445">
<ele>20</ele>
</trkpt>
<trkpt lat="36.37478611111111" lon="140.47770194444445">
<ele>20</ele>
</trkpt>
<trkpt lat="36.375143055555554" lon="140.4780011111111">
<ele>20</ele>
</trkpt>
<trkpt lat="36.375435" lon="140.47823805555555">
<ele>18</ele>
</trkpt>
<trkpt lat="36.375585" lon="140.4783261111111">
<ele>15</ele>
</trkpt>
<trkpt lat="36.375726944444445" lon="140.47837611111112">
<ele>14</ele>
</trkpt>
<trkpt lat="36.375976944444446" lon="140.47835111111112">
<ele>13</ele>
</trkpt>
<trkpt lat="36.37609305555556" lon="140.47826305555554">
<ele>13</ele>
</trkpt>
<trkpt lat="36.37636" lon="140.47791305555555">
<ele>11</ele>
</trkpt>
<trkpt lat="36.37647611111111" lon="140.4778261111111">
<ele>13</ele>
</trkpt>
<trkpt lat="36.37681" lon="140.47721305555555">
<ele>18</ele>
</trkpt>
<trkpt lat="36.37751" lon="140.47593805555556">
<ele>20</ele>
</trkpt>
<trkpt lat="36.377676111111114" lon="140.47558805555556">
<ele>21</ele>
</trkpt>
<trkpt lat="36.37801805555556" lon="140.4749261111111">
<ele>20</ele>
</trkpt>
<trkpt lat="36.37755111111111" lon="140.47462611111112">
<ele>21</ele>
</trkpt>
<trkpt lat="36.37755805555555" lon="140.47461194444443">
<ele>21</ele>
</trkpt>
<trkpt lat="36.37755805555555" lon="140.4746111111111">
<ele>21</ele>
</trkpt>
<trkpt lat="36.37755111111111" lon="140.47462611111112">
<ele>21</ele>
</trkpt>
<trkpt lat="36.37696" lon="140.4743261111111">
<ele>22</ele>
</trkpt>
<trkpt lat="36.37591" lon="140.47385111111112">
<ele>23</ele>
</trkpt>
<trkpt lat="36.37504305555556" lon="140.4734388888889">
<ele>24</ele>
</trkpt>
<trkpt lat="36.37491" lon="140.47336388888888">
<ele>24</ele>
</trkpt>
<trkpt lat="36.374768055555556" lon="140.4732011111111">
<ele>24</ele>
</trkpt>
<trkpt lat="36.37492694444445" lon="140.4730638888889">
<ele>24</ele>
</trkpt>
<trkpt lat="36.374985" lon="140.4729761111111">
<ele>26</ele>
</trkpt>
<trkpt lat="36.375185" lon="140.47250111111111">
<ele>26</ele>
</trkpt>
<trkpt lat="36.37512805555556" lon="140.47246388888888">
<ele>26</ele>
</trkpt>
<trkpt lat="36.37512805555556" lon="140.47246388888888">
<ele>26</ele>
</trkpt>
<trkpt lat="36.375185" lon="140.47250111111111">
<ele>26</ele>
</trkpt>
<trkpt lat="36.375351944444446" lon="140.4720888888889">
<ele>26</ele>
</trkpt>
<trkpt lat="36.37645111111111" lon="140.46941388888888">
<ele>24</ele>
</trkpt>
<trkpt lat="36.376801111111114" lon="140.46852611111112">
<ele>23</ele>
</trkpt>
<trkpt lat="36.377451111111114" lon="140.4669638888889">
<ele>24</ele>
</trkpt>
<trkpt lat="36.37750888888889" lon="140.4668388888889">
<ele>24</ele>
</trkpt>
<trkpt lat="36.37799305555556" lon="140.46602694444445">
<ele>24</ele>
</trkpt>
<trkpt lat="36.37813388888889" lon="140.46578888888888">
<ele>24</ele>
</trkpt>
<trkpt lat="36.378233888888886" lon="140.4656388888889">
<ele>24</ele>
</trkpt>
<trkpt lat="36.37825888888889" lon="140.46557694444445">
<ele>24</ele>
</trkpt>
<trkpt lat="36.37829305555555" lon="140.46550194444444">
<ele>24</ele>
</trkpt>
<trkpt lat="36.37844305555556" lon="140.4649638888889">
<ele>24</ele>
</trkpt>
<trkpt lat="36.37871805555555" lon="140.46402694444444">
<ele>23</ele>
</trkpt>
<trkpt lat="36.37887611111111" lon="140.46408888888888">
<ele>23</ele>
</trkpt>
<trkpt lat="36.379095" lon="140.4642088888889">
<ele>23</ele>
</trkpt>
<trkpt lat="36.379095" lon="140.4642088888889">
<ele>23</ele>
</trkpt>
<trkpt lat="36.379401111111115" lon="140.46437694444444">
<ele>23</ele>
</trkpt>
<trkpt lat="36.37987611111111" lon="140.46463888888889">
<ele>22</ele>
</trkpt>
<trkpt lat="36.37965388888889" lon="140.4651211111111">
<ele>23</ele>
</trkpt>
<trkpt lat="36.37965388888889" lon="140.4651211111111">
<ele>23</ele>
</trkpt>
<trkpt lat="36.37987611111111" lon="140.46463888888889">
<ele>22</ele>
</trkpt>
<trkpt lat="36.379401111111115" lon="140.46437694444444">
<ele>23</ele>
</trkpt>
<trkpt lat="36.37887611111111" lon="140.46408888888888">
<ele>23</ele>
</trkpt>
<trkpt lat="36.37871805555555" lon="140.46402694444444">
<ele>23</ele>
</trkpt>
<trkpt lat="36.37880611111111" lon="140.46371194444444">
<ele>23</ele>
</trkpt>
<trkpt lat="36.37880611111111" lon="140.46371194444444">
<ele>23</ele>
</trkpt>
<trkpt lat="36.37893388888889" lon="140.46325194444444">
<ele>23</ele>
</trkpt>
<trkpt lat="36.37925111111111" lon="140.46222694444444">
<ele>23</ele>
</trkpt>
<trkpt lat="36.37928388888889" lon="140.46212694444444">
<ele>23</ele>
</trkpt>
<trkpt lat="36.37963388888889" lon="140.46102694444446">
<ele>23</ele>
</trkpt>
<trkpt lat="36.37967611111111" lon="140.46090194444446">
<ele>23</ele>
</trkpt>
<trkpt lat="36.38001805555555" lon="140.4597638888889">
<ele>24</ele>
</trkpt>
<trkpt lat="36.38008388888889" lon="140.4595888888889">
<ele>24</ele>
</trkpt>
<trkpt lat="36.380451111111114" lon="140.45850194444444">
<ele>24</ele>
</trkpt>
<trkpt lat="36.380518055555555" lon="140.4583638888889">
<ele>24</ele>
</trkpt>
<trkpt lat="36.38069194444444" lon="140.45815194444444">
<ele>24</ele>
</trkpt>
<trkpt lat="36.380876111111114" lon="140.4581388888889">
<ele>24</ele>
</trkpt>
<trkpt lat="36.38120888888889" lon="140.4580638888889">
<ele>24</ele>
</trkpt>
<trkpt lat="36.38127611111111" lon="140.45805194444443">
<ele>24</ele>
</trkpt>
<trkpt lat="36.38165111111111" lon="140.45795194444443">
<ele>24</ele>
</trkpt>
<trkpt lat="36.382666944444445" lon="140.45767694444444">
<ele>24</ele>
</trkpt>
<trkpt lat="36.383766944444446" lon="140.45740194444446">
<ele>24</ele>
</trkpt>
<trkpt lat="36.38390111111111" lon="140.4573888888889">
<ele>24</ele>
</trkpt>
<trkpt lat="36.38407611111111" lon="140.45737694444443">
<ele>24</ele>
</trkpt>
<trkpt lat="36.38418388888889" lon="140.45737694444443">
<ele>25</ele>
</trkpt>
<trkpt lat="36.38418388888889" lon="140.45737694444443">
<ele>25</ele>
</trkpt>
<trkpt lat="36.38483388888889" lon="140.45737694444443">
<ele>25</ele>
</trkpt>
<trkpt lat="36.38525888888889" lon="140.45737694444443">
<ele>26</ele>
</trkpt>
<trkpt lat="36.38540888888889" lon="140.4573888888889">
<ele>26</ele>
</trkpt>
<trkpt lat="36.38585" lon="140.4573888888889">
<ele>26</ele>
</trkpt>
<trkpt lat="36.386091944444445" lon="140.4573888888889">
<ele>27</ele>
</trkpt>
<trkpt lat="36.38614111111111" lon="140.45739111111112">
<ele>27</ele>
</trkpt>
<trkpt lat="36.38614111111111" lon="140.45739111111112">
<ele>27</ele>
</trkpt>
<trkpt lat="36.386091944444445" lon="140.4573888888889">
<ele>27</ele>
</trkpt>
<trkpt lat="36.38585" lon="140.4573888888889">
<ele>26</ele>
</trkpt>
<trkpt lat="36.38590888888889" lon="140.45752694444445">
<ele>26</ele>
</trkpt>
<trkpt lat="36.38610888888889" lon="140.45780194444444">
<ele>26</ele>
</trkpt>
<trkpt lat="36.38594194444445" lon="140.4580388888889">
<ele>25</ele>
</trkpt>
<trkpt lat="36.38587611111111" lon="140.45817194444444">
<ele>25</ele>
</trkpt>
<trkpt lat="36.38587611111111" lon="140.4581711111111">
<ele>25</ele>
</trkpt>
<trkpt lat="36.38579194444444" lon="140.45833888888887">
<ele>25</ele>
</trkpt>
<trkpt lat="36.38565" lon="140.45860194444444">
<ele>24</ele>
</trkpt>
<trkpt lat="36.38601694444444" lon="140.4589138888889">
<ele>24</ele>
</trkpt>
<trkpt lat="36.38605888888889" lon="140.4588388888889">
<ele>24</ele>
</trkpt>
<trkpt lat="36.38665" lon="140.45921388888888">
<ele>24</ele>
</trkpt>
<trkpt lat="36.38675" lon="140.45930194444443">
<ele>23</ele>
</trkpt>
<trkpt lat="36.38701694444445" lon="140.4596138888889">
<ele>26</ele>
</trkpt>
<trkpt lat="36.387208888888885" lon="140.45977694444446">
<ele>27</ele>
</trkpt>
<trkpt lat="36.387325" lon="140.45988888888888">
<ele>27</ele>
</trkpt>
<trkpt lat="36.387325" lon="140.45988888888888">
<ele>27</ele>
</trkpt>
<trkpt lat="36.387208888888885" lon="140.45977694444446">
<ele>27</ele>
</trkpt>
<trkpt lat="36.38701694444445" lon="140.4596138888889">
<ele>26</ele>
</trkpt>
<trkpt lat="36.38725888888889" lon="140.45922694444445">
<ele>27</ele>
</trkpt>
<trkpt lat="36.38749194444444" lon="140.45882694444444">
<ele>27</ele>
</trkpt>
<trkpt lat="36.3877" lon="140.45843888888888">
<ele>29</ele>
</trkpt>
<trkpt lat="36.3878" lon="140.45835194444444">
<ele>29</ele>
</trkpt>
<trkpt lat="36.387433888888886" lon="140.4577888888889">
<ele>29</ele>
</trkpt>
<trkpt lat="36.387748055555555" lon="140.4574538888889">
<ele>30</ele>
</trkpt>
<trkpt lat="36.387748055555555" lon="140.4574538888889">
<ele>30</ele>
</trkpt>
<trkpt lat="36.38780888888889" lon="140.4573888888889">
<ele>30</ele>
</trkpt>
<trkpt lat="36.38794194444444" lon="140.4572388888889">
<ele>30</ele>
</trkpt>
<trkpt lat="36.38815" lon="140.45702694444444">
<ele>30</ele>
</trkpt>
<trkpt lat="36.38839194444444" lon="140.45680194444444">
<ele>30</ele>
</trkpt>
<trkpt lat="36.38859194444444" lon="140.45661388888888">
<ele>30</ele>
</trkpt>
<trkpt lat="36.389158055555555" lon="140.45602694444443">
<ele>30</ele>
</trkpt>
<trkpt lat="36.38919194444444" lon="140.4559638888889">
<ele>30</ele>
</trkpt>
<trkpt lat="36.38920805555556" lon="140.4559138888889">
<ele>30</ele>
</trkpt>
<trkpt lat="36.38955" lon="140.45561388888888">
<ele>30</ele>
</trkpt>
<trkpt lat="36.3902" lon="140.45502694444446">
<ele>30</ele>
</trkpt>
<trkpt lat="36.391225" lon="140.45417694444444">
<ele>30</ele>
</trkpt>
<trkpt lat="36.39128" lon="140.454135">
<ele>30</ele>
</trkpt>
<trkpt lat="36.39128" lon="140.454135">
<ele>30</ele>
</trkpt>
<trkpt lat="36.39149194444445" lon="140.45397694444443">
<ele>30</ele>
</trkpt>
<trkpt lat="36.391775" lon="140.45447694444445">
<ele>30</ele>
</trkpt>
<trkpt lat="36.39140305555556" lon="140.45480305555554">
<ele>30</ele>
</trkpt>
<trkpt lat="36.39140305555556" lon="140.45480305555554">
<ele>30</ele>
</trkpt>
<trkpt lat="36.391775" lon="140.45447694444445">
<ele>30</ele>
</trkpt>
<trkpt lat="36.39149194444445" lon="140.45397694444443">
<ele>30</ele>
</trkpt>
<trkpt lat="36.39168305555555" lon="140.45382694444444">
<ele>30</ele>
</trkpt>
<trkpt lat="36.39174111111111" lon="140.45377805555555">
<ele>30</ele>
</trkpt>
<trkpt lat="36.39174111111111" lon="140.45377805555555">
<ele>30</ele>
</trkpt>
<trkpt lat="36.392408055555556" lon="140.453215">
<ele>30</ele>
</trkpt>
<trkpt lat="36.392741111111114" lon="140.45294">
<ele>30</ele>
</trkpt>
<trkpt lat="36.39324111111111" lon="140.45255194444445">
<ele>30</ele>
</trkpt>
<trkpt lat="36.39333305555556" lon="140.45249">
<ele>30</ele>
</trkpt>
<trkpt lat="36.39389111111111" lon="140.45227694444444">
<ele>30</ele>
</trkpt>
<trkpt lat="36.39445805555555" lon="140.45199">
<ele>31</ele>
</trkpt>
<trkpt lat="36.394575" lon="140.45194">
<ele>31</ele>
</trkpt>
<trkpt lat="36.39478305555556" lon="140.45184">
<ele>31</ele>
</trkpt>
<trkpt lat="36.394958055555556" lon="140.45174">
<ele>31</ele>
</trkpt>
<trkpt lat="36.3952" lon="140.451615">
<ele>31</ele>
</trkpt>
<trkpt lat="36.39541611111111" lon="140.451465">
<ele>31</ele>
</trkpt>
<trkpt lat="36.395583055555555" lon="140.45134">
<ele>31</ele>
</trkpt>
<trkpt lat="36.39576611111111" lon="140.451215">
<ele>31</ele>
</trkpt>
<trkpt lat="36.395875" lon="140.45114">
<ele>31</ele>
</trkpt>
<trkpt lat="36.395875" lon="140.4511388888889">
<ele>31</ele>
</trkpt>
<trkpt lat="36.395875" lon="140.4511388888889">
<ele>31</ele>
</trkpt>
<trkpt lat="36.39605" lon="140.45104">
<ele>31</ele>
</trkpt>
<trkpt lat="36.39619111111111" lon="140.450965">
<ele>31</ele>
</trkpt>
<trkpt lat="36.39645" lon="140.45090194444444">
<ele>31</ele>
</trkpt>
<trkpt lat="36.396575" lon="140.450915">
<ele>31</ele>
</trkpt>
<trkpt lat="36.39676611111111" lon="140.45095194444445">
<ele>30</ele>
</trkpt>
<trkpt lat="36.39709111111111" lon="140.45102694444444">
<ele>30</ele>
</trkpt>
<trkpt lat="36.39731611111111" lon="140.45105194444446">
<ele>30</ele>
</trkpt>
<trkpt lat="36.397375" lon="140.451115">
<ele>30</ele>
</trkpt>
<trkpt lat="36.397466111111115" lon="140.45125194444444">
<ele>30</ele>
</trkpt>
<trkpt lat="36.39751611111111" lon="140.451365">
<ele>30</ele>
</trkpt>
<trkpt lat="36.39755805555556" lon="140.451515">
<ele>30</ele>
</trkpt>
<trkpt lat="36.39761611111111" lon="140.45164">
<ele>28</ele>
</trkpt>
<trkpt lat="36.39771611111111" lon="140.45177694444445">
<ele>25</ele>
</trkpt>
<trkpt lat="36.39781611111111" lon="140.45185194444446">
<ele>24</ele>
</trkpt>
<trkpt lat="36.39794111111111" lon="140.45190194444444">
<ele>20</ele>
</trkpt>
<trkpt lat="36.398023888888886" lon="140.451965">
<ele>18</ele>
</trkpt>
<trkpt lat="36.39804888888889" lon="140.45199">
<ele>18</ele>
</trkpt>
<trkpt lat="36.39805111111111" lon="140.4519938888889">
<ele>18</ele>
</trkpt>
<trkpt lat="36.39805111111111" lon="140.4519938888889">
<ele>18</ele>
</trkpt>
<trkpt lat="36.39804888888889" lon="140.45199">
<ele>18</ele>
</trkpt>
<trkpt lat="36.398023888888886" lon="140.451965">
<ele>18</ele>
</trkpt>
<trkpt lat="36.39794111111111" lon="140.45190194444444">
<ele>20</ele>
</trkpt>
<trkpt lat="36.39781611111111" lon="140.45185194444446">
<ele>24</ele>
</trkpt>
<trkpt lat="36.39771611111111" lon="140.45177694444445">
<ele>25</ele>
</trkpt>
<trkpt lat="36.39761611111111" lon="140.45164">
<ele>28</ele>
</trkpt>
<trkpt lat="36.39755805555556" lon="140.451515">
<ele>30</ele>
</trkpt>
<trkpt lat="36.39751611111111" lon="140.451365">
<ele>30</ele>
</trkpt>
<trkpt lat="36.397466111111115" lon="140.45125194444444">
<ele>30</ele>
</trkpt>
<trkpt lat="36.397375" lon="140.451115">
<ele>30</ele>
</trkpt>
<trkpt lat="36.39731611111111" lon="140.45105194444446">
<ele>30</ele>
</trkpt>
<trkpt lat="36.39709111111111" lon="140.45102694444444">
<ele>30</ele>
</trkpt>
<trkpt lat="36.39676611111111" lon="140.45095194444445">
<ele>30</ele>
</trkpt>
<trkpt lat="36.396575" lon="140.450915">
<ele>31</ele>
</trkpt>
<trkpt lat="36.39645" lon="140.45090194444444">
<ele>31</ele>
</trkpt>
<trkpt lat="36.39619111111111" lon="140.450965">
<ele>31</ele>
</trkpt>
<trkpt lat="36.39619111111111" lon="140.450965">
<ele>31</ele>
</trkpt>
<trkpt lat="36.39600472222222" lon="140.45018694444445">
<ele>31</ele>
</trkpt>
<trkpt lat="36.396008888888886" lon="140.45019805555555">
<ele>31</ele>
</trkpt>
<trkpt lat="36.39595805555555" lon="140.45022694444444">
<ele>31</ele>
</trkpt>
<trkpt lat="36.396033055555556" lon="140.450015">
<ele>31</ele>
</trkpt>
<trkpt lat="36.396255" lon="140.4494738888889">
<ele>31</ele>
</trkpt>
<trkpt lat="36.396255" lon="140.4494738888889">
<ele>31</ele>
</trkpt>
<trkpt lat="36.3963" lon="140.449365">
<ele>31</ele>
</trkpt>
<trkpt lat="36.396325" lon="140.44929">
<ele>31</ele>
</trkpt>
<trkpt lat="36.396475" lon="140.44902694444446">
<ele>31</ele>
</trkpt>
<trkpt lat="36.39658305555555" lon="140.448865">
<ele>32</ele>
</trkpt>
<trkpt lat="36.39676611111111" lon="140.448565">
<ele>32</ele>
</trkpt>
<trkpt lat="36.39630805555556" lon="140.44812694444445">
<ele>32</ele>
</trkpt>
<trkpt lat="36.39615" lon="140.44797805555555">
<ele>34</ele>
</trkpt>
<trkpt lat="36.396143055555555" lon="140.44797111111112">
<ele>34</ele>
</trkpt>
<trkpt lat="36.396143055555555" lon="140.44797111111112">
<ele>34</ele>
</trkpt>
<trkpt lat="36.395675" lon="140.44752805555555">
<ele>34</ele>
</trkpt>
<trkpt lat="36.39556611111111" lon="140.447415">
<ele>34</ele>
</trkpt>
<trkpt lat="36.39549111111111" lon="140.44730194444443">
<ele>34</ele>
</trkpt>
<trkpt lat="36.39525805555556" lon="140.44764">
<ele>34</ele>
</trkpt>
<trkpt lat="36.39485" lon="140.448215">
<ele>33</ele>
</trkpt>
<trkpt lat="36.394675" lon="140.44844">
<ele>33</ele>
</trkpt>
<trkpt lat="36.39451388888889" lon="140.44866888888888">
<ele>32</ele>
</trkpt>
<trkpt lat="36.39451388888889" lon="140.44866888888888">
<ele>32</ele>
</trkpt>
<trkpt lat="36.394175" lon="140.44915194444445">
<ele>32</ele>
</trkpt>
<trkpt lat="36.39398305555556" lon="140.44942694444444">
<ele>32</ele>
</trkpt>
<trkpt lat="36.39386611111111" lon="140.44959">
<ele>32</ele>
</trkpt>
<trkpt lat="36.3938" lon="140.449665">
<ele>32</ele>
</trkpt>
<trkpt lat="36.39365" lon="140.44989">
<ele>32</ele>
</trkpt>
<trkpt lat="36.393525" lon="140.450065">
<ele>32</ele>
</trkpt>
<trkpt lat="36.39333305555556" lon="140.45030194444445">
<ele>32</ele>
</trkpt>
<trkpt lat="36.39261611111111" lon="140.45127694444446">
<ele>31</ele>
</trkpt>
<trkpt lat="36.39234111111111" lon="140.45165194444445">
<ele>31</ele>
</trkpt>
<trkpt lat="36.39180805555556" lon="140.452215">
<ele>30</ele>
</trkpt>
<trkpt lat="36.3915" lon="140.45254">
<ele>30</ele>
</trkpt>
<trkpt lat="36.391283055555554" lon="140.45277694444445">
<ele>30</ele>
</trkpt>
<trkpt lat="36.39125" lon="140.452815">
<ele>30</ele>
</trkpt>
<trkpt lat="36.391" lon="140.45307694444443">
<ele>31</ele>
</trkpt>
<trkpt lat="36.390883055555555" lon="140.45320194444446">
<ele>31</ele>
</trkpt>
<trkpt lat="36.38979194444445" lon="140.45433888888888">
<ele>30</ele>
</trkpt>
<trkpt lat="36.3893" lon="140.4548388888889">
<ele>30</ele>
</trkpt>
<trkpt lat="36.38919194444444" lon="140.45491388888888">
<ele>30</ele>
</trkpt>
<trkpt lat="36.38903305555556" lon="140.45501388888889">
<ele>30</ele>
</trkpt>
<trkpt lat="36.388641944444444" lon="140.45510194444444">
<ele>30</ele>
</trkpt>
<trkpt lat="36.388508055555555" lon="140.45513888888888">
<ele>30</ele>
</trkpt>
<trkpt lat="36.3884" lon="140.45517694444445">
<ele>30</ele>
</trkpt>
<trkpt lat="36.38825805555555" lon="140.4552888888889">
<ele>30</ele>
</trkpt>
<trkpt lat="36.387816944444445" lon="140.45581388888888">
<ele>30</ele>
</trkpt>
<trkpt lat="36.38767694444444" lon="140.45597">
<ele>30</ele>
</trkpt>
<trkpt lat="36.38767694444444" lon="140.45597">
<ele>30</ele>
</trkpt>
<trkpt lat="36.38733388888889" lon="140.45635194444444">
<ele>30</ele>
</trkpt>
<trkpt lat="36.386941944444445" lon="140.4568138888889">
<ele>30</ele>
</trkpt>
<trkpt lat="36.38681694444445" lon="140.45697694444445">
<ele>29</ele>
</trkpt>
<trkpt lat="36.38644194444444" lon="140.45740194444446">
<ele>27</ele>
</trkpt>
<trkpt lat="36.386091944444445" lon="140.4573888888889">
<ele>27</ele>
</trkpt>
<trkpt lat="36.38585" lon="140.4573888888889">
<ele>26</ele>
</trkpt>
<trkpt lat="36.38540888888889" lon="140.4573888888889">
<ele>26</ele>
</trkpt>
<trkpt lat="36.38525888888889" lon="140.45737694444443">
<ele>26</ele>
</trkpt>
<trkpt lat="36.38483388888889" lon="140.45737694444443">
<ele>25</ele>
</trkpt>
<trkpt lat="36.38407611111111" lon="140.45737694444443">
<ele>24</ele>
</trkpt>
<trkpt lat="36.38390111111111" lon="140.4573888888889">
<ele>24</ele>
</trkpt>
<trkpt lat="36.383766944444446" lon="140.45740194444446">
<ele>24</ele>
</trkpt>
<trkpt lat="36.382666944444445" lon="140.45767694444444">
<ele>24</ele>
</trkpt>
<trkpt lat="36.38213805555556" lon="140.45782">
<ele>24</ele>
</trkpt>
<trkpt lat="36.38213805555556" lon="140.45782">
<ele>24</ele>
</trkpt>
<trkpt lat="36.38165111111111" lon="140.45795194444443">
<ele>24</ele>
</trkpt>
<trkpt lat="36.38127611111111" lon="140.45805194444443">
<ele>24</ele>
</trkpt>
<trkpt lat="36.38120888888889" lon="140.4580638888889">
<ele>24</ele>
</trkpt>
<trkpt lat="36.380876111111114" lon="140.4581388888889">
<ele>24</ele>
</trkpt>
<trkpt lat="36.38069194444444" lon="140.45815194444444">
<ele>24</ele>
</trkpt>
<trkpt lat="36.38079305555556" lon="140.45797694444445">
<ele>24</ele>
</trkpt>
<trkpt lat="36.38087888888889" lon="140.45756694444444">
<ele>24</ele>
</trkpt>
<trkpt lat="36.38087888888889" lon="140.45756694444444">
<ele>24</ele>
</trkpt>
<trkpt lat="36.380941944444444" lon="140.4572638888889">
<ele>24</ele>
</trkpt>
<trkpt lat="36.38115111111111" lon="140.45632694444444">
<ele>24</ele>
</trkpt>
<trkpt lat="36.38135111111111" lon="140.455465">
<ele>25</ele>
</trkpt>
<trkpt lat="36.380991944444446" lon="140.455265">
<ele>25</ele>
</trkpt>
<trkpt lat="36.38078388888889" lon="140.455165">
<ele>25</ele>
</trkpt>
<trkpt lat="36.38064305555555" lon="140.45510194444444">
<ele>25</ele>
</trkpt>
<trkpt lat="36.38020111111111" lon="140.454865">
<ele>25</ele>
</trkpt>
<trkpt lat="36.37992305555556" lon="140.454715">
<ele>25</ele>
</trkpt>
<trkpt lat="36.37992305555556" lon="140.454715">
<ele>25</ele>
</trkpt>
<trkpt lat="36.379668055555555" lon="140.45457694444445">
<ele>25</ele>
</trkpt>
<trkpt lat="36.37912611111111" lon="140.45430194444444">
<ele>26</ele>
</trkpt>
<trkpt lat="36.379066944444446" lon="140.45424">
<ele>26</ele>
</trkpt>
<trkpt lat="36.379043055555556" lon="140.45420194444443">
<ele>26</ele>
</trkpt>
<trkpt lat="36.37893388888889" lon="140.45385194444444">
<ele>26</ele>
</trkpt>
<trkpt lat="36.37870111111111" lon="140.45317694444444">
<ele>25</ele>
</trkpt>
<trkpt lat="36.37858388888889" lon="140.452765">
<ele>25</ele>
</trkpt>
<trkpt lat="36.37850888888889" lon="140.45285305555555">
<ele>25</ele>
</trkpt>
<trkpt lat="36.378033888888886" lon="140.45317694444444">
<ele>25</ele>
</trkpt>
<trkpt lat="36.37798111111111" lon="140.4532188888889">
<ele>25</ele>
</trkpt>
<trkpt lat="36.37798111111111" lon="140.4532188888889">
<ele>25</ele>
</trkpt>
<trkpt lat="36.377876111111114" lon="140.45330194444443">
<ele>25</ele>
</trkpt>
<trkpt lat="36.37725888888889" lon="140.45370305555556">
<ele>25</ele>
</trkpt>
<trkpt lat="36.37696805555556" lon="140.453865">
<ele>25</ele>
</trkpt>
<trkpt lat="36.376618055555554" lon="140.45407805555556">
<ele>25</ele>
</trkpt>
<trkpt lat="36.37640888888889" lon="140.45420305555555">
<ele>25</ele>
</trkpt>
<trkpt lat="36.37615111111111" lon="140.454365">
<ele>24</ele>
</trkpt>
<trkpt lat="36.37609305555556" lon="140.45442694444444">
<ele>24</ele>
</trkpt>
<trkpt lat="36.37609305555556" lon="140.45454">
<ele>24</ele>
</trkpt>
<trkpt lat="36.37609305555556" lon="140.45464">
<ele>24</ele>
</trkpt>
<trkpt lat="36.37591805555556" lon="140.455065">
<ele>24</ele>
</trkpt>
<trkpt lat="36.37590888888889" lon="140.4550888888889">
<ele>24</ele>
</trkpt>
<trkpt lat="36.37590888888889" lon="140.4550888888889">
<ele>24</ele>
</trkpt>
<trkpt lat="36.37562555555556" lon="140.45494222222223">
<ele>24</ele>
</trkpt>
<trkpt lat="36.37562555555556" lon="140.45494222222223">
<ele>24</ele>
</trkpt>
<trkpt lat="36.37383194444445" lon="140.45500361111112">
<ele>20</ele>
</trkpt>
<trkpt lat="36.37383194444445" lon="140.45500361111112">
<ele>20</ele>
</trkpt>
<trkpt lat="36.37371666666667" lon="140.45532666666668">
<ele>20</ele>
</trkpt>
<trkpt lat="36.37371666666667" lon="140.45532666666668">
<ele>20</ele>
</trkpt>
<trkpt lat="36.37363833333333" lon="140.45484638888888">
<ele>19</ele>
</trkpt>
<trkpt lat="36.37363833333333" lon="140.45484638888888">
<ele>19</ele>
</trkpt>
<trkpt lat="36.373510833333334" lon="140.4551172222222">
<ele>13</ele>
</trkpt>
<trkpt lat="36.373510833333334" lon="140.4551172222222">
<ele>13</ele>
</trkpt>
<trkpt lat="36.373465555555555" lon="140.45492805555557">
<ele>13</ele>
</trkpt>
<trkpt lat="36.373465555555555" lon="140.45492805555557">
<ele>13</ele>
</trkpt>
<trkpt lat="36.37225611111111" lon="140.45499972222223">
<ele>9</ele>
</trkpt>
<trkpt lat="36.37225611111111" lon="140.45499972222223">
<ele>9</ele>
</trkpt>
<trkpt lat="36.37202583333333" lon="140.45492805555557">
<ele>9</ele>
</trkpt>
<trkpt lat="36.37202583333333" lon="140.45492805555557">
<ele>9</ele>
</trkpt>
<trkpt lat="36.371787222222224" lon="140.4547186111111">
<ele>9</ele>
</trkpt>
<trkpt lat="36.371787222222224" lon="140.4547186111111">
<ele>9</ele>
</trkpt>
<trkpt lat="36.37160611111111" lon="140.45450916666667">
<ele>9</ele>
</trkpt>
<trkpt lat="36.37160611111111" lon="140.45450916666667">
<ele>9</ele>
</trkpt>
<trkpt lat="36.3714375" lon="140.45448888888887">
<ele>9</ele>
</trkpt>
<trkpt lat="36.3714375" lon="140.45448888888887">
<ele>9</ele>
</trkpt>
<trkpt lat="36.37095222222222" lon="140.45433027777779">
<ele>9</ele>
</trkpt>
<trkpt lat="36.37095222222222" lon="140.45433027777779">
<ele>9</ele>
</trkpt>
<trkpt lat="36.371096111111115" lon="140.4538247222222">
<ele>9</ele>
</trkpt>
    </trkseg>
  </trk>
</gpx>