<?xml version="1.0" encoding="UTF-8"?>
<gpx version="1.1"
     creator="KMLtoGPX"
     xmlns="http://www.topografix.com/GPX/1/1">
  <metadata>
    <name>Retro cityscape course</name>
    <desc>レトロな街並みコース</desc>
    <bounds minlat="35.9888261" minlon="139.0827009" maxlat="36.0007396" maxlon="139.089174"/>
  </metadata>
  <trk>
    <name>Retro cityscape course</name>
    <trkseg>
<trkpt lat="35.9893409" lon="139.0836964">
<ele>0</ele>
</trkpt>
<trkpt lat="35.9894337" lon="139.0837533">
<ele>0</ele>
</trkpt>
<trkpt lat="35.989444" lon="139.0837182">
<ele>0</ele>
</trkpt>
<trkpt lat="35.9894561" lon="139.0836888">
<ele>0</ele>
</trkpt>
<trkpt lat="35.9894689" lon="139.0836647">
<ele>0</ele>
</trkpt>
<trkpt lat="35.9894965" lon="139.0836316">
<ele>0</ele>
</trkpt>
<trkpt lat="35.9895188" lon="139.0836163">
<ele>0</ele>
</trkpt>
<trkpt lat="35.9895438" lon="139.083606">
<ele>0</ele>
</trkpt>
<trkpt lat="35.9895687" lon="139.0836019">
<ele>0</ele>
</trkpt>
<trkpt lat="35.9896033" lon="139.0836035">
<ele>0</ele>
</trkpt>
<trkpt lat="35.9896304" lon="139.0836116">
<ele>0</ele>
</trkpt>
<trkpt lat="35.9897232" lon="139.0836483">
<ele>0</ele>
</trkpt>
<trkpt lat="35.9897641" lon="139.0836658">
<ele>0</ele>
</trkpt>
<trkpt lat="35.9897932" lon="139.0836828">
<ele>0</ele>
</trkpt>
<trkpt lat="35.9898112" lon="139.0836983">
<ele>0</ele>
</trkpt>
<trkpt lat="35.9898334" lon="139.0837254">
<ele>0</ele>
</trkpt>
<trkpt lat="35.9898423" lon="139.0837408">
<ele>0</ele>
</trkpt>
<trkpt lat="35.989846" lon="139.083763">
<ele>0</ele>
</trkpt>
<trkpt lat="35.9898447" lon="139.0838308">
<ele>0</ele>
</trkpt>
<trkpt lat="35.9897935" lon="139.0840318">
<ele>0</ele>
</trkpt>
<trkpt lat="35.9897906" lon="139.0840526">
<ele>0</ele>
</trkpt>
<trkpt lat="35.9897954" lon="139.0840756">
<ele>0</ele>
</trkpt>
<trkpt lat="35.989801" lon="139.0840875">
<ele>0</ele>
</trkpt>
<trkpt lat="35.9898099" lon="139.0840995">
<ele>0</ele>
</trkpt>
<trkpt lat="35.989822" lon="139.0841087">
<ele>0</ele>
</trkpt>
<trkpt lat="35.989835" lon="139.0841126">
<ele>0</ele>
</trkpt>
<trkpt lat="35.9902036" lon="139.0841756">
<ele>0</ele>
</trkpt>
<trkpt lat="35.9905584" lon="139.0842399">
<ele>0</ele>
</trkpt>
<trkpt lat="35.9906195" lon="139.0842634">
<ele>0</ele>
</trkpt>
<trkpt lat="35.9906685" lon="139.0842721">
<ele>0</ele>
</trkpt>
<trkpt lat="35.9907731" lon="139.08429">
<ele>0</ele>
</trkpt>
<trkpt lat="35.9908925" lon="139.0843092">
<ele>0</ele>
</trkpt>
<trkpt lat="35.9910069" lon="139.0843246">
<ele>0</ele>
</trkpt>
<trkpt lat="35.9910182" lon="139.0843213">
<ele>0</ele>
</trkpt>
<trkpt lat="35.9910333" lon="139.0843136">
<ele>0</ele>
</trkpt>
<trkpt lat="35.991057" lon="139.0842871">
<ele>0</ele>
</trkpt>
<trkpt lat="35.9910979" lon="139.0842135">
<ele>0</ele>
</trkpt>
<trkpt lat="35.9911176" lon="139.0841844">
<ele>0</ele>
</trkpt>
<trkpt lat="35.9911506" lon="139.0842296">
<ele>0</ele>
</trkpt>
<trkpt lat="35.9911748" lon="139.0841976">
<ele>0</ele>
</trkpt>
<trkpt lat="35.9911991" lon="139.0841646">
<ele>0</ele>
</trkpt>
<trkpt lat="35.9912599" lon="139.0840928">
<ele>0</ele>
</trkpt>
<trkpt lat="35.9913727" lon="139.0839586">
<ele>0</ele>
</trkpt>
<trkpt lat="35.9914266" lon="139.0838962">
<ele>0</ele>
</trkpt>
<trkpt lat="35.9914956" lon="139.0838225">
<ele>0</ele>
</trkpt>
<trkpt lat="35.9915102" lon="139.0838014">
<ele>0</ele>
</trkpt>
<trkpt lat="35.9915489" lon="139.0837301">
<ele>0</ele>
</trkpt>
<trkpt lat="35.9915891" lon="139.0836598">
<ele>0</ele>
</trkpt>
<trkpt lat="35.9916428" lon="139.0835416">
<ele>0</ele>
</trkpt>
<trkpt lat="35.9917892" lon="139.0831857">
<ele>0</ele>
</trkpt>
<trkpt lat="35.9919139" lon="139.0828877">
<ele>0</ele>
</trkpt>
<trkpt lat="35.9919246" lon="139.0828638">
<ele>0</ele>
</trkpt>
<trkpt lat="35.9919308" lon="139.0828583">
<ele>0</ele>
</trkpt>
<trkpt lat="35.9919428" lon="139.0828572">
<ele>0</ele>
</trkpt>
<trkpt lat="35.9919478" lon="139.0828592">
<ele>0</ele>
</trkpt>
<trkpt lat="35.9919578" lon="139.0828317">
<ele>0</ele>
</trkpt>
<trkpt lat="35.9919755" lon="139.08279">
<ele>0</ele>
</trkpt>
<trkpt lat="35.9919869" lon="139.0828173">
<ele>0</ele>
</trkpt>
<trkpt lat="35.9919996" lon="139.0828301">
<ele>0</ele>
</trkpt>
<trkpt lat="35.992169" lon="139.0829626">
<ele>0</ele>
</trkpt>
<trkpt lat="35.9922547" lon="139.0830508">
<ele>0</ele>
</trkpt>
<trkpt lat="35.992291" lon="139.0830829">
<ele>0</ele>
</trkpt>
<trkpt lat="35.9923817" lon="139.0831424">
<ele>0</ele>
</trkpt>
<trkpt lat="35.9924204" lon="139.0831651">
<ele>0</ele>
</trkpt>
<trkpt lat="35.9924759" lon="139.0831912">
<ele>0</ele>
</trkpt>
<trkpt lat="35.9925343" lon="139.0832184">
<ele>0</ele>
</trkpt>
<trkpt lat="35.9927066" lon="139.0832831">
<ele>0</ele>
</trkpt>
<trkpt lat="35.9929338" lon="139.0833701">
<ele>0</ele>
</trkpt>
<trkpt lat="35.9929491" lon="139.0833711">
<ele>0</ele>
</trkpt>
<trkpt lat="35.9929594" lon="139.0833677">
<ele>0</ele>
</trkpt>
<trkpt lat="35.992973" lon="139.0833618">
<ele>0</ele>
</trkpt>
<trkpt lat="35.992979" lon="139.0833573">
<ele>0</ele>
</trkpt>
<trkpt lat="35.9929862" lon="139.0833496">
<ele>0</ele>
</trkpt>
<trkpt lat="35.9929931" lon="139.0833309">
<ele>0</ele>
</trkpt>
<trkpt lat="35.9930134" lon="139.0833433">
<ele>0</ele>
</trkpt>
<trkpt lat="35.993005" lon="139.0833717">
<ele>0</ele>
</trkpt>
<trkpt lat="35.9930032" lon="139.0833845">
<ele>0</ele>
</trkpt>
<trkpt lat="35.993008" lon="139.0833976">
<ele>0</ele>
</trkpt>
<trkpt lat="35.9930145" lon="139.0834069">
<ele>0</ele>
</trkpt>
<trkpt lat="35.9930422" lon="139.0834178">
<ele>0</ele>
</trkpt>
<trkpt lat="35.9933737" lon="139.0835602">
<ele>0</ele>
</trkpt>
<trkpt lat="35.9934468" lon="139.0835922">
<ele>0</ele>
</trkpt>
<trkpt lat="35.9934717" lon="139.0835999">
<ele>0</ele>
</trkpt>
<trkpt lat="35.9937357" lon="139.0836571">
<ele>0</ele>
</trkpt>
<trkpt lat="35.9938132" lon="139.0836764">
<ele>0</ele>
</trkpt>
<trkpt lat="35.9942025" lon="139.0837486">
<ele>0</ele>
</trkpt>
<trkpt lat="35.9942134" lon="139.0837481">
<ele>0</ele>
</trkpt>
<trkpt lat="35.9942256" lon="139.0837419">
<ele>0</ele>
</trkpt>
<trkpt lat="35.9942325" lon="139.0837377">
<ele>0</ele>
</trkpt>
<trkpt lat="35.9942441" lon="139.0837236">
<ele>0</ele>
</trkpt>
<trkpt lat="35.9942499" lon="139.0837105">
<ele>0</ele>
</trkpt>
<trkpt lat="35.994255" lon="139.0836945">
<ele>0</ele>
</trkpt>
<trkpt lat="35.9942743" lon="139.0837036">
<ele>0</ele>
</trkpt>
<trkpt lat="35.9942715" lon="139.0837173">
<ele>0</ele>
</trkpt>
<trkpt lat="35.9942696" lon="139.0837318">
<ele>0</ele>
</trkpt>
<trkpt lat="35.9942732" lon="139.0837437">
<ele>0</ele>
</trkpt>
<trkpt lat="35.9942791" lon="139.0837514">
<ele>0</ele>
</trkpt>
<trkpt lat="35.9942867" lon="139.0837571">
<ele>0</ele>
</trkpt>
<trkpt lat="35.9943833" lon="139.083771">
<ele>0</ele>
</trkpt>
<trkpt lat="35.9945574" lon="139.0837994">
<ele>0</ele>
</trkpt>
<trkpt lat="35.9948603" lon="139.0838459">
<ele>0</ele>
</trkpt>
<trkpt lat="35.9951352" lon="139.0838674">
<ele>0</ele>
</trkpt>
<trkpt lat="35.995175" lon="139.0838598">
<ele>0</ele>
</trkpt>
<trkpt lat="35.9951902" lon="139.0838646">
<ele>0</ele>
</trkpt>
<trkpt lat="35.9955254" lon="139.0839146">
<ele>0</ele>
</trkpt>
<trkpt lat="35.9959365" lon="139.0839728">
<ele>0</ele>
</trkpt>
<trkpt lat="35.9962424" lon="139.0840182">
<ele>0</ele>
</trkpt>
<trkpt lat="35.996361" lon="139.0840265">
<ele>0</ele>
</trkpt>
<trkpt lat="35.9963993" lon="139.0840146">
<ele>0</ele>
</trkpt>
<trkpt lat="35.9964156" lon="139.0840201">
<ele>0</ele>
</trkpt>
<trkpt lat="35.9964299" lon="139.0840215">
<ele>0</ele>
</trkpt>
<trkpt lat="35.99648" lon="139.0840252">
<ele>0</ele>
</trkpt>
<trkpt lat="35.996503" lon="139.0840258">
<ele>0</ele>
</trkpt>
<trkpt lat="35.996523" lon="139.0840212">
<ele>0</ele>
</trkpt>
<trkpt lat="35.9965425" lon="139.0840155">
<ele>0</ele>
</trkpt>
<trkpt lat="35.9965636" lon="139.0840058">
<ele>0</ele>
</trkpt>
<trkpt lat="35.9965827" lon="139.0839916">
<ele>0</ele>
</trkpt>
<trkpt lat="35.9965985" lon="139.0839768">
<ele>0</ele>
</trkpt>
<trkpt lat="35.9966119" lon="139.0839603">
<ele>0</ele>
</trkpt>
<trkpt lat="35.9967162" lon="139.0837667">
<ele>0</ele>
</trkpt>
<trkpt lat="35.9967721" lon="139.0836598">
<ele>0</ele>
</trkpt>
<trkpt lat="35.9968429" lon="139.0835236">
<ele>0</ele>
</trkpt>
<trkpt lat="35.9968447" lon="139.08351">
<ele>0</ele>
</trkpt>
<trkpt lat="35.9968465" lon="139.0834947">
<ele>0</ele>
</trkpt>
<trkpt lat="35.996843" lon="139.0834729">
<ele>0</ele>
</trkpt>
<trkpt lat="35.9968532" lon="139.0834405">
<ele>0</ele>
</trkpt>
<trkpt lat="35.996865" lon="139.0834365">
<ele>0</ele>
</trkpt>
<trkpt lat="35.9968814" lon="139.083424">
<ele>0</ele>
</trkpt>
<trkpt lat="35.9968929" lon="139.0834056">
<ele>0</ele>
</trkpt>
<trkpt lat="35.9969051" lon="139.0833866">
<ele>0</ele>
</trkpt>
<trkpt lat="35.9969473" lon="139.0832149">
<ele>0</ele>
</trkpt>
<trkpt lat="35.996946" lon="139.083199">
<ele>0</ele>
</trkpt>
<trkpt lat="35.9969409" lon="139.0831885">
<ele>0</ele>
</trkpt>
<trkpt lat="35.9969467" lon="139.0831546">
<ele>0</ele>
</trkpt>
<trkpt lat="35.9969551" lon="139.0831464">
<ele>0</ele>
</trkpt>
<trkpt lat="35.9969606" lon="139.0831406">
<ele>0</ele>
</trkpt>
<trkpt lat="35.9969702" lon="139.0831192">
<ele>0</ele>
</trkpt>
<trkpt lat="35.9970134" lon="139.0829396">
<ele>0</ele>
</trkpt>
<trkpt lat="35.9970198" lon="139.0828982">
<ele>0</ele>
</trkpt>
<trkpt lat="35.9970187" lon="139.0828551">
<ele>0</ele>
</trkpt>
<trkpt lat="35.9970127" lon="139.0828321">
<ele>0</ele>
</trkpt>
<trkpt lat="35.997005" lon="139.0828155">
<ele>0</ele>
</trkpt>
<trkpt lat="35.9969973" lon="139.0828056">
<ele>0</ele>
</trkpt>
<trkpt lat="35.9969909" lon="139.082799">
<ele>0</ele>
</trkpt>
<trkpt lat="35.9970082" lon="139.0827421">
<ele>0</ele>
</trkpt>
<trkpt lat="35.9970203" lon="139.0827449">
<ele>0</ele>
</trkpt>
<trkpt lat="35.9970362" lon="139.0827407">
<ele>0</ele>
</trkpt>
<trkpt lat="35.9970435" lon="139.0827374">
<ele>0</ele>
</trkpt>
<trkpt lat="35.9970499" lon="139.0827318">
<ele>0</ele>
</trkpt>
<trkpt lat="35.9970555" lon="139.0827199">
<ele>0</ele>
</trkpt>
<trkpt lat="35.9970607" lon="139.0827009">
<ele>0</ele>
</trkpt>
<trkpt lat="35.9970875" lon="139.0827145">
<ele>0</ele>
</trkpt>
<trkpt lat="35.9970797" lon="139.0827475">
<ele>0</ele>
</trkpt>
<trkpt lat="35.9970799" lon="139.0827623">
<ele>0</ele>
</trkpt>
<trkpt lat="35.9970832" lon="139.082775">
<ele>0</ele>
</trkpt>
<trkpt lat="35.9972387" lon="139.0828424">
<ele>0</ele>
</trkpt>
<trkpt lat="35.9974905" lon="139.0829496">
<ele>0</ele>
</trkpt>
<trkpt lat="35.9976266" lon="139.0830112">
<ele>0</ele>
</trkpt>
<trkpt lat="35.9979035" lon="139.083125">
<ele>0</ele>
</trkpt>
<trkpt lat="35.9980551" lon="139.0831854">
<ele>0</ele>
</trkpt>
<trkpt lat="35.9981435" lon="139.0832214">
<ele>0</ele>
</trkpt>
<trkpt lat="35.9982346" lon="139.0832577">
<ele>0</ele>
</trkpt>
<trkpt lat="35.9983321" lon="139.0832982">
<ele>0</ele>
</trkpt>
<trkpt lat="35.9984268" lon="139.0833387">
<ele>0</ele>
</trkpt>
<trkpt lat="35.9984562" lon="139.0833502">
<ele>0</ele>
</trkpt>
<trkpt lat="35.998497" lon="139.0833704">
<ele>0</ele>
</trkpt>
<trkpt lat="35.9985507" lon="139.0833982">
<ele>0</ele>
</trkpt>
<trkpt lat="35.9985836" lon="139.0834158">
<ele>0</ele>
</trkpt>
<trkpt lat="35.9986352" lon="139.0834464">
<ele>0</ele>
</trkpt>
<trkpt lat="35.9986743" lon="139.0834705">
<ele>0</ele>
</trkpt>
<trkpt lat="35.9987152" lon="139.0834963">
<ele>0</ele>
</trkpt>
<trkpt lat="35.9988249" lon="139.0835703">
<ele>0</ele>
</trkpt>
<trkpt lat="35.9988783" lon="139.0836048">
<ele>0</ele>
</trkpt>
<trkpt lat="35.9992039" lon="139.0838182">
<ele>0</ele>
</trkpt>
<trkpt lat="35.9993142" lon="139.0838815">
<ele>0</ele>
</trkpt>
<trkpt lat="35.9993754" lon="139.0839133">
<ele>0</ele>
</trkpt>
<trkpt lat="35.9994106" lon="139.0839323">
<ele>0</ele>
</trkpt>
<trkpt lat="35.9996181" lon="139.0840443">
<ele>0</ele>
</trkpt>
<trkpt lat="35.9997241" lon="139.0841015">
<ele>0</ele>
</trkpt>
<trkpt lat="35.9999437" lon="139.0842198">
<ele>0</ele>
</trkpt>
<trkpt lat="36.0002712" lon="139.0843966">
<ele>0</ele>
</trkpt>
<trkpt lat="36.0003465" lon="139.0844359">
<ele>0</ele>
</trkpt>
<trkpt lat="36.0004026" lon="139.084468">
<ele>0</ele>
</trkpt>
<trkpt lat="36.0004541" lon="139.0844964">
<ele>0</ele>
</trkpt>
<trkpt lat="36.0005452" lon="139.0845459">
<ele>0</ele>
</trkpt>
<trkpt lat="36.0006003" lon="139.0845762">
<ele>0</ele>
</trkpt>
<trkpt lat="36.0006557" lon="139.0846075">
<ele>0</ele>
</trkpt>
<trkpt lat="36.000703" lon="139.0846347">
<ele>0</ele>
</trkpt>
<trkpt lat="36.0007396" lon="139.0846544">
<ele>0</ele>
</trkpt>
<trkpt lat="36.0007186" lon="139.0847115">
<ele>0</ele>
</trkpt>
<trkpt lat="36.000686" lon="139.084697">
<ele>0</ele>
</trkpt>
<trkpt lat="36.0006621" lon="139.0846828">
<ele>0</ele>
</trkpt>
<trkpt lat="36.0006148" lon="139.0846553">
<ele>0</ele>
</trkpt>
<trkpt lat="36.0005558" lon="139.084621">
<ele>0</ele>
</trkpt>
<trkpt lat="36.0005235" lon="139.0846044">
<ele>0</ele>
</trkpt>
<trkpt lat="36.0000955" lon="139.0843705">
<ele>0</ele>
</trkpt>
<trkpt lat="35.9999166" lon="139.084273">
<ele>0</ele>
</trkpt>
<trkpt lat="35.9996912" lon="139.0841537">
<ele>0</ele>
</trkpt>
<trkpt lat="35.9995424" lon="139.0840752">
<ele>0</ele>
</trkpt>
<trkpt lat="35.9994243" lon="139.0840146">
<ele>0</ele>
</trkpt>
<trkpt lat="35.999413" lon="139.0840152">
<ele>0</ele>
</trkpt>
<trkpt lat="35.9994004" lon="139.0840241">
<ele>0</ele>
</trkpt>
<trkpt lat="35.9993886" lon="139.0840423">
<ele>0</ele>
</trkpt>
<trkpt lat="35.9993656" lon="139.084102">
<ele>0</ele>
</trkpt>
<trkpt lat="35.9992824" lon="139.0843428">
<ele>0</ele>
</trkpt>
<trkpt lat="35.9991981" lon="139.0845802">
<ele>0</ele>
</trkpt>
<trkpt lat="35.9991644" lon="139.0846771">
<ele>0</ele>
</trkpt>
<trkpt lat="35.9991317" lon="139.0847767">
<ele>0</ele>
</trkpt>
<trkpt lat="35.9991235" lon="139.0847736">
<ele>0</ele>
</trkpt>
<trkpt lat="35.9991121" lon="139.0847721">
<ele>0</ele>
</trkpt>
<trkpt lat="35.9990998" lon="139.084772">
<ele>0</ele>
</trkpt>
<trkpt lat="35.9990883" lon="139.0847754">
<ele>0</ele>
</trkpt>
<trkpt lat="35.9990768" lon="139.0847871">
<ele>0</ele>
</trkpt>
<trkpt lat="35.9990372" lon="139.0848965">
<ele>0</ele>
</trkpt>
<trkpt lat="35.9990215" lon="139.0849414">
<ele>0</ele>
</trkpt>
<trkpt lat="35.9990068" lon="139.0849796">
<ele>0</ele>
</trkpt>
<trkpt lat="35.9989763" lon="139.0850702">
<ele>0</ele>
</trkpt>
<trkpt lat="35.99897" lon="139.0850971">
<ele>0</ele>
</trkpt>
<trkpt lat="35.9989617" lon="139.0851555">
<ele>0</ele>
</trkpt>
<trkpt lat="35.9989583" lon="139.0852061">
<ele>0</ele>
</trkpt>
<trkpt lat="35.9989572" lon="139.0852439">
<ele>0</ele>
</trkpt>
<trkpt lat="35.998962" lon="139.0853006">
<ele>0</ele>
</trkpt>
<trkpt lat="35.9989699" lon="139.0853575">
<ele>0</ele>
</trkpt>
<trkpt lat="35.9989841" lon="139.0854087">
<ele>0</ele>
</trkpt>
<trkpt lat="35.9990034" lon="139.0854576">
<ele>0</ele>
</trkpt>
<trkpt lat="35.9990249" lon="139.0855051">
<ele>0</ele>
</trkpt>
<trkpt lat="35.999055" lon="139.0855523">
<ele>0</ele>
</trkpt>
<trkpt lat="35.9990243" lon="139.0856117">
<ele>0</ele>
</trkpt>
<trkpt lat="35.9990056" lon="139.0855834">
<ele>0</ele>
</trkpt>
<trkpt lat="35.9989846" lon="139.0855401">
<ele>0</ele>
</trkpt>
<trkpt lat="35.9989693" lon="139.0855031">
<ele>0</ele>
</trkpt>
<trkpt lat="35.9989521" lon="139.0854611">
<ele>0</ele>
</trkpt>
<trkpt lat="35.9989362" lon="139.0854313">
<ele>0</ele>
</trkpt>
<trkpt lat="35.9989255" lon="139.0854192">
<ele>0</ele>
</trkpt>
<trkpt lat="35.9989136" lon="139.0854097">
<ele>0</ele>
</trkpt>
<trkpt lat="35.9989007" lon="139.0854033">
<ele>0</ele>
</trkpt>
<trkpt lat="35.9988936" lon="139.0854026">
<ele>0</ele>
</trkpt>
<trkpt lat="35.9988814" lon="139.0854083">
<ele>0</ele>
</trkpt>
<trkpt lat="35.9988754" lon="139.0854152">
<ele>0</ele>
</trkpt>
<trkpt lat="35.9988455" lon="139.0854622">
<ele>0</ele>
</trkpt>
<trkpt lat="35.9988224" lon="139.0855012">
<ele>0</ele>
</trkpt>
<trkpt lat="35.9988" lon="139.0855337">
<ele>0</ele>
</trkpt>
<trkpt lat="35.9987785" lon="139.0855573">
<ele>0</ele>
</trkpt>
<trkpt lat="35.9987721" lon="139.0855615">
<ele>0</ele>
</trkpt>
<trkpt lat="35.9987452" lon="139.0855699">
<ele>0</ele>
</trkpt>
<trkpt lat="35.9987042" lon="139.0855738">
<ele>0</ele>
</trkpt>
<trkpt lat="35.998675" lon="139.085569">
<ele>0</ele>
</trkpt>
<trkpt lat="35.9986481" lon="139.0855602">
<ele>0</ele>
</trkpt>
<trkpt lat="35.9986071" lon="139.0855347">
<ele>0</ele>
</trkpt>
<trkpt lat="35.998593" lon="139.0855196">
<ele>0</ele>
</trkpt>
<trkpt lat="35.998581" lon="139.0854973">
<ele>0</ele>
</trkpt>
<trkpt lat="35.9985692" lon="139.0854557">
<ele>0</ele>
</trkpt>
<trkpt lat="35.9985651" lon="139.0854231">
<ele>0</ele>
</trkpt>
<trkpt lat="35.9985639" lon="139.0853948">
<ele>0</ele>
</trkpt>
<trkpt lat="35.9985674" lon="139.0853534">
<ele>0</ele>
</trkpt>
<trkpt lat="35.99858" lon="139.0852345">
<ele>0</ele>
</trkpt>
<trkpt lat="35.9985803" lon="139.085224">
<ele>0</ele>
</trkpt>
<trkpt lat="35.9985793" lon="139.0852144">
<ele>0</ele>
</trkpt>
<trkpt lat="35.9985753" lon="139.0852058">
<ele>0</ele>
</trkpt>
<trkpt lat="35.9985659" lon="139.0851949">
<ele>0</ele>
</trkpt>
<trkpt lat="35.9985011" lon="139.0851838">
<ele>0</ele>
</trkpt>
<trkpt lat="35.9984287" lon="139.085169">
<ele>0</ele>
</trkpt>
<trkpt lat="35.9984215" lon="139.085169">
<ele>0</ele>
</trkpt>
<trkpt lat="35.998409" lon="139.0851777">
<ele>0</ele>
</trkpt>
<trkpt lat="35.9984044" lon="139.085186">
<ele>0</ele>
</trkpt>
<trkpt lat="35.998403" lon="139.0851948">
<ele>0</ele>
</trkpt>
<trkpt lat="35.9983799" lon="139.0854494">
<ele>0</ele>
</trkpt>
<trkpt lat="35.9983772" lon="139.0854585">
<ele>0</ele>
</trkpt>
<trkpt lat="35.9983721" lon="139.0854755">
<ele>0</ele>
</trkpt>
<trkpt lat="35.9983578" lon="139.085493">
<ele>0</ele>
</trkpt>
<trkpt lat="35.9983431" lon="139.0855042">
<ele>0</ele>
</trkpt>
<trkpt lat="35.9983225" lon="139.0855124">
<ele>0</ele>
</trkpt>
<trkpt lat="35.9982777" lon="139.0855158">
<ele>0</ele>
</trkpt>
<trkpt lat="35.9980335" lon="139.0855347">
<ele>0</ele>
</trkpt>
<trkpt lat="35.9978296" lon="139.0855541">
<ele>0</ele>
</trkpt>
<trkpt lat="35.9978144" lon="139.0855599">
<ele>0</ele>
</trkpt>
<trkpt lat="35.9978" lon="139.0855727">
<ele>0</ele>
</trkpt>
<trkpt lat="35.9977871" lon="139.0855942">
<ele>0</ele>
</trkpt>
<trkpt lat="35.9977793" lon="139.0856143">
<ele>0</ele>
</trkpt>
<trkpt lat="35.9977738" lon="139.0856515">
<ele>0</ele>
</trkpt>
<trkpt lat="35.9977587" lon="139.0857714">
<ele>0</ele>
</trkpt>
<trkpt lat="35.9977556" lon="139.085801">
<ele>0</ele>
</trkpt>
<trkpt lat="35.9977558" lon="139.0858626">
<ele>0</ele>
</trkpt>
<trkpt lat="35.9977618" lon="139.0859589">
<ele>0</ele>
</trkpt>
<trkpt lat="35.9977645" lon="139.0860178">
<ele>0</ele>
</trkpt>
<trkpt lat="35.9977738" lon="139.0861214">
<ele>0</ele>
</trkpt>
<trkpt lat="35.9977783" lon="139.0862286">
<ele>0</ele>
</trkpt>
<trkpt lat="35.9977807" lon="139.0862905">
<ele>0</ele>
</trkpt>
<trkpt lat="35.997784" lon="139.0863729">
<ele>0</ele>
</trkpt>
<trkpt lat="35.9977875" lon="139.0864144">
<ele>0</ele>
</trkpt>
<trkpt lat="35.9977921" lon="139.086443">
<ele>0</ele>
</trkpt>
<trkpt lat="35.9978045" lon="139.0864832">
<ele>0</ele>
</trkpt>
<trkpt lat="35.9978136" lon="139.0865099">
<ele>0</ele>
</trkpt>
<trkpt lat="35.9978071" lon="139.0865722">
<ele>0</ele>
</trkpt>
<trkpt lat="35.997797" lon="139.0865746">
<ele>0</ele>
</trkpt>
<trkpt lat="35.9977891" lon="139.0865789">
<ele>0</ele>
</trkpt>
<trkpt lat="35.9977878" lon="139.0865856">
<ele>0</ele>
</trkpt>
<trkpt lat="35.9977811" lon="139.0866228">
<ele>0</ele>
</trkpt>
<trkpt lat="35.9977694" lon="139.086662">
<ele>0</ele>
</trkpt>
<trkpt lat="35.9977117" lon="139.0869075">
<ele>0</ele>
</trkpt>
<trkpt lat="35.9976983" lon="139.086969">
<ele>0</ele>
</trkpt>
<trkpt lat="35.9976527" lon="139.0871655">
<ele>0</ele>
</trkpt>
<trkpt lat="35.9976448" lon="139.0872039">
<ele>0</ele>
</trkpt>
<trkpt lat="35.9976054" lon="139.0873907">
<ele>0</ele>
</trkpt>
<trkpt lat="35.9975836" lon="139.0874736">
<ele>0</ele>
</trkpt>
<trkpt lat="35.9975155" lon="139.0877603">
<ele>0</ele>
</trkpt>
<trkpt lat="35.9975076" lon="139.0878106">
<ele>0</ele>
</trkpt>
<trkpt lat="35.9974967" lon="139.0878688">
<ele>0</ele>
</trkpt>
<trkpt lat="35.9974809" lon="139.0879148">
<ele>0</ele>
</trkpt>
<trkpt lat="35.9974636" lon="139.0879848">
<ele>0</ele>
</trkpt>
<trkpt lat="35.9974506" lon="139.0880312">
<ele>0</ele>
</trkpt>
<trkpt lat="35.9974283" lon="139.0881105">
<ele>0</ele>
</trkpt>
<trkpt lat="35.9974082" lon="139.0881877">
<ele>0</ele>
</trkpt>
<trkpt lat="35.9973875" lon="139.0882643">
<ele>0</ele>
</trkpt>
<trkpt lat="35.997368" lon="139.0883602">
<ele>0</ele>
</trkpt>
<trkpt lat="35.997342" lon="139.0883498">
<ele>0</ele>
</trkpt>
<trkpt lat="35.9973338" lon="139.088377">
<ele>0</ele>
</trkpt>
<trkpt lat="35.9973264" lon="139.0883923">
<ele>0</ele>
</trkpt>
<trkpt lat="35.9973084" lon="139.0884002">
<ele>0</ele>
</trkpt>
<trkpt lat="35.9972705" lon="139.0883987">
<ele>0</ele>
</trkpt>
<trkpt lat="35.9972469" lon="139.0883937">
<ele>0</ele>
</trkpt>
<trkpt lat="35.9972295" lon="139.0884683">
<ele>0</ele>
</trkpt>
<trkpt lat="35.9972456" lon="139.0884759">
<ele>0</ele>
</trkpt>
<trkpt lat="35.9972541" lon="139.0884876">
<ele>0</ele>
</trkpt>
<trkpt lat="35.9972635" lon="139.0885048">
<ele>0</ele>
</trkpt>
<trkpt lat="35.997269" lon="139.0885284">
<ele>0</ele>
</trkpt>
<trkpt lat="35.997269" lon="139.0885522">
<ele>0</ele>
</trkpt>
<trkpt lat="35.9972682" lon="139.0885727">
<ele>0</ele>
</trkpt>
<trkpt lat="35.9972664" lon="139.0885911">
<ele>0</ele>
</trkpt>
<trkpt lat="35.997262" lon="139.0886149">
<ele>0</ele>
</trkpt>
<trkpt lat="35.9972572" lon="139.088638">
<ele>0</ele>
</trkpt>
<trkpt lat="35.9975212" lon="139.0887532">
<ele>0</ele>
</trkpt>
<trkpt lat="35.9976319" lon="139.0888023">
<ele>0</ele>
</trkpt>
<trkpt lat="35.9977304" lon="139.0888437">
<ele>0</ele>
</trkpt>
<trkpt lat="35.9977956" lon="139.0888717">
<ele>0</ele>
</trkpt>
<trkpt lat="35.9978645" lon="139.0888977">
<ele>0</ele>
</trkpt>
<trkpt lat="35.9978965" lon="139.0889139">
<ele>0</ele>
</trkpt>
<trkpt lat="35.9979002" lon="139.0889208">
<ele>0</ele>
</trkpt>
<trkpt lat="35.9979113" lon="139.0889568">
<ele>0</ele>
</trkpt>
<trkpt lat="35.9979106" lon="139.0889959">
<ele>0</ele>
</trkpt>
<trkpt lat="35.9979029" lon="139.0890327">
<ele>0</ele>
</trkpt>
<trkpt lat="35.9978806" lon="139.0890756">
<ele>0</ele>
</trkpt>
<trkpt lat="35.9978486" lon="139.0890929">
<ele>0</ele>
</trkpt>
<trkpt lat="35.997805" lon="139.0891002">
<ele>0</ele>
</trkpt>
<trkpt lat="35.9977554" lon="139.0891032">
<ele>0</ele>
</trkpt>
<trkpt lat="35.9977349" lon="139.0891096">
<ele>0</ele>
</trkpt>
<trkpt lat="35.9976662" lon="139.0891669">
<ele>0</ele>
</trkpt>
<trkpt lat="35.9976125" lon="139.089174">
<ele>0</ele>
</trkpt>
<trkpt lat="35.9975719" lon="139.0891642">
<ele>0</ele>
</trkpt>
<trkpt lat="35.9975013" lon="139.0891365">
<ele>0</ele>
</trkpt>
<trkpt lat="35.9973877" lon="139.0890938">
<ele>0</ele>
</trkpt>
<trkpt lat="35.9973057" lon="139.0890577">
<ele>0</ele>
</trkpt>
<trkpt lat="35.9972042" lon="139.0890096">
<ele>0</ele>
</trkpt>
<trkpt lat="35.997161" lon="139.0889918">
<ele>0</ele>
</trkpt>
<trkpt lat="35.9971652" lon="139.088964">
<ele>0</ele>
</trkpt>
<trkpt lat="35.9971798" lon="139.0889066">
<ele>0</ele>
</trkpt>
<trkpt lat="35.9971968" lon="139.0888372">
<ele>0</ele>
</trkpt>
<trkpt lat="35.9972047" lon="139.0888055">
<ele>0</ele>
</trkpt>
<trkpt lat="35.9972254" lon="139.0887276">
<ele>0</ele>
</trkpt>
<trkpt lat="35.9972348" lon="139.0886868">
<ele>0</ele>
</trkpt>
<trkpt lat="35.9972507" lon="139.088622">
<ele>0</ele>
</trkpt>
<trkpt lat="35.9972541" lon="139.0886102">
<ele>0</ele>
</trkpt>
<trkpt lat="35.9972585" lon="139.0885888">
<ele>0</ele>
</trkpt>
<trkpt lat="35.9972614" lon="139.0885683">
<ele>0</ele>
</trkpt>
<trkpt lat="35.9972617" lon="139.088549">
<ele>0</ele>
</trkpt>
<trkpt lat="35.9972608" lon="139.088527">
<ele>0</ele>
</trkpt>
<trkpt lat="35.997256" lon="139.0885079">
<ele>0</ele>
</trkpt>
<trkpt lat="35.9972479" lon="139.0884943">
<ele>0</ele>
</trkpt>
<trkpt lat="35.9972425" lon="139.0884862">
<ele>0</ele>
</trkpt>
<trkpt lat="35.9972341" lon="139.0884802">
<ele>0</ele>
</trkpt>
<trkpt lat="35.997224" lon="139.0884761">
<ele>0</ele>
</trkpt>
<trkpt lat="35.9969053" lon="139.0883611">
<ele>0</ele>
</trkpt>
<trkpt lat="35.9967826" lon="139.0883069">
<ele>0</ele>
</trkpt>
<trkpt lat="35.9966929" lon="139.0882682">
<ele>0</ele>
</trkpt>
<trkpt lat="35.9965709" lon="139.0882167">
<ele>0</ele>
</trkpt>
<trkpt lat="35.9965359" lon="139.0882018">
<ele>0</ele>
</trkpt>
<trkpt lat="35.9965161" lon="139.0881943">
<ele>0</ele>
</trkpt>
<trkpt lat="35.9963517" lon="139.0881257">
<ele>0</ele>
</trkpt>
<trkpt lat="35.996308" lon="139.0881078">
<ele>0</ele>
</trkpt>
<trkpt lat="35.9962706" lon="139.0880929">
<ele>0</ele>
</trkpt>
<trkpt lat="35.9961916" lon="139.0880626">
<ele>0</ele>
</trkpt>
<trkpt lat="35.9961378" lon="139.0880416">
<ele>0</ele>
</trkpt>
<trkpt lat="35.9959547" lon="139.0879678">
<ele>0</ele>
</trkpt>
<trkpt lat="35.9958226" lon="139.0879083">
<ele>0</ele>
</trkpt>
<trkpt lat="35.9957851" lon="139.0878965">
<ele>0</ele>
</trkpt>
<trkpt lat="35.9957245" lon="139.0878802">
<ele>0</ele>
</trkpt>
<trkpt lat="35.9955699" lon="139.0878208">
<ele>0</ele>
</trkpt>
<trkpt lat="35.9957245" lon="139.0878802">
<ele>0</ele>
</trkpt>
<trkpt lat="35.9956464" lon="139.0878503">
<ele>0</ele>
</trkpt>
<trkpt lat="35.9953995" lon="139.0877545">
<ele>0</ele>
</trkpt>
<trkpt lat="35.9953876" lon="139.0877537">
<ele>0</ele>
</trkpt>
<trkpt lat="35.995374" lon="139.0877569">
<ele>0</ele>
</trkpt>
<trkpt lat="35.9953404" lon="139.0877441">
<ele>0</ele>
</trkpt>
<trkpt lat="35.9953357" lon="139.0877356">
<ele>0</ele>
</trkpt>
<trkpt lat="35.9953267" lon="139.0877248">
<ele>0</ele>
</trkpt>
<trkpt lat="35.995281" lon="139.0877065">
<ele>0</ele>
</trkpt>
<trkpt lat="35.9952635" lon="139.0877005">
<ele>0</ele>
</trkpt>
<trkpt lat="35.9952464" lon="139.0876975">
<ele>0</ele>
</trkpt>
<trkpt lat="35.9952293" lon="139.0876974">
<ele>0</ele>
</trkpt>
<trkpt lat="35.9952018" lon="139.0877017">
<ele>0</ele>
</trkpt>
<trkpt lat="35.995179" lon="139.0877115">
<ele>0</ele>
</trkpt>
<trkpt lat="35.9951541" lon="139.0877248">
<ele>0</ele>
</trkpt>
<trkpt lat="35.9951369" lon="139.0877383">
<ele>0</ele>
</trkpt>
<trkpt lat="35.9951089" lon="139.0877641">
<ele>0</ele>
</trkpt>
<trkpt lat="35.995087" lon="139.0877913">
<ele>0</ele>
</trkpt>
<trkpt lat="35.9950728" lon="139.087811">
<ele>0</ele>
</trkpt>
<trkpt lat="35.9950571" lon="139.0878356">
<ele>0</ele>
</trkpt>
<trkpt lat="35.9950071" lon="139.0877865">
<ele>0</ele>
</trkpt>
<trkpt lat="35.9950191" lon="139.0877573">
<ele>0</ele>
</trkpt>
<trkpt lat="35.995025" lon="139.0877263">
<ele>0</ele>
</trkpt>
<trkpt lat="35.9950272" lon="139.0877074">
<ele>0</ele>
</trkpt>
<trkpt lat="35.9950248" lon="139.0876859">
<ele>0</ele>
</trkpt>
<trkpt lat="35.9950227" lon="139.0876721">
<ele>0</ele>
</trkpt>
<trkpt lat="35.9950146" lon="139.0876478">
<ele>0</ele>
</trkpt>
<trkpt lat="35.9950068" lon="139.0876308">
<ele>0</ele>
</trkpt>
<trkpt lat="35.9949994" lon="139.0876197">
<ele>0</ele>
</trkpt>
<trkpt lat="35.9949883" lon="139.0876058">
<ele>0</ele>
</trkpt>
<trkpt lat="35.9949722" lon="139.0875942">
<ele>0</ele>
</trkpt>
<trkpt lat="35.9949655" lon="139.0875901">
<ele>0</ele>
</trkpt>
<trkpt lat="35.9947572" lon="139.0875038">
<ele>0</ele>
</trkpt>
<trkpt lat="35.9947144" lon="139.087479">
<ele>0</ele>
</trkpt>
<trkpt lat="35.9946655" lon="139.0874549">
<ele>0</ele>
</trkpt>
<trkpt lat="35.9945077" lon="139.0873845">
<ele>0</ele>
</trkpt>
<trkpt lat="35.9940836" lon="139.0872088">
<ele>0</ele>
</trkpt>
<trkpt lat="35.9940678" lon="139.0872028">
<ele>0</ele>
</trkpt>
<trkpt lat="35.9940553" lon="139.0872009">
<ele>0</ele>
</trkpt>
<trkpt lat="35.9940432" lon="139.0872034">
<ele>0</ele>
</trkpt>
<trkpt lat="35.9940295" lon="139.087208">
<ele>0</ele>
</trkpt>
<trkpt lat="35.9940217" lon="139.0872139">
<ele>0</ele>
</trkpt>
<trkpt lat="35.9940026" lon="139.0872048">
<ele>0</ele>
</trkpt>
<trkpt lat="35.9940015" lon="139.0871919">
<ele>0</ele>
</trkpt>
<trkpt lat="35.9939974" lon="139.0871819">
<ele>0</ele>
</trkpt>
<trkpt lat="35.9939915" lon="139.0871729">
<ele>0</ele>
</trkpt>
<trkpt lat="35.9939761" lon="139.0871623">
<ele>0</ele>
</trkpt>
<trkpt lat="35.9938906" lon="139.0871262">
<ele>0</ele>
</trkpt>
<trkpt lat="35.9938346" lon="139.0871011">
<ele>0</ele>
</trkpt>
<trkpt lat="35.9938194" lon="139.0870949">
<ele>0</ele>
</trkpt>
<trkpt lat="35.9937242" lon="139.0870543">
<ele>0</ele>
</trkpt>
<trkpt lat="35.993712" lon="139.0870543">
<ele>0</ele>
</trkpt>
<trkpt lat="35.9937047" lon="139.0870606">
<ele>0</ele>
</trkpt>
<trkpt lat="35.993688" lon="139.0870527">
<ele>0</ele>
</trkpt>
<trkpt lat="35.9936851" lon="139.0870443">
<ele>0</ele>
</trkpt>
<trkpt lat="35.9936733" lon="139.087036">
<ele>0</ele>
</trkpt>
<trkpt lat="35.9936104" lon="139.0870124">
<ele>0</ele>
</trkpt>
<trkpt lat="35.9935731" lon="139.0869978">
<ele>0</ele>
</trkpt>
<trkpt lat="35.9934237" lon="139.0869385">
<ele>0</ele>
</trkpt>
<trkpt lat="35.9934109" lon="139.0869353">
<ele>0</ele>
</trkpt>
<trkpt lat="35.9933991" lon="139.0869348">
<ele>0</ele>
</trkpt>
<trkpt lat="35.993387" lon="139.0869402">
<ele>0</ele>
</trkpt>
<trkpt lat="35.9933578" lon="139.0869335">
<ele>0</ele>
</trkpt>
<trkpt lat="35.9933551" lon="139.0869246">
<ele>0</ele>
</trkpt>
<trkpt lat="35.9933474" lon="139.0869153">
<ele>0</ele>
</trkpt>
<trkpt lat="35.9933417" lon="139.0869097">
<ele>0</ele>
</trkpt>
<trkpt lat="35.9933135" lon="139.0868975">
<ele>0</ele>
</trkpt>
<trkpt lat="35.9931982" lon="139.0868472">
<ele>0</ele>
</trkpt>
<trkpt lat="35.992988" lon="139.0867621">
<ele>0</ele>
</trkpt>
<trkpt lat="35.9927796" lon="139.086671">
<ele>0</ele>
</trkpt>
<trkpt lat="35.9921852" lon="139.086422">
<ele>0</ele>
</trkpt>
<trkpt lat="35.9919474" lon="139.0863254">
<ele>0</ele>
</trkpt>
<trkpt lat="35.9919393" lon="139.0863264">
<ele>0</ele>
</trkpt>
<trkpt lat="35.9919296" lon="139.086328">
<ele>0</ele>
</trkpt>
<trkpt lat="35.9919199" lon="139.0863346">
<ele>0</ele>
</trkpt>
<trkpt lat="35.9918839" lon="139.0863251">
<ele>0</ele>
</trkpt>
<trkpt lat="35.9918794" lon="139.0863116">
<ele>0</ele>
</trkpt>
<trkpt lat="35.991869" lon="139.0863012">
<ele>0</ele>
</trkpt>
<trkpt lat="35.9918291" lon="139.0862891">
<ele>0</ele>
</trkpt>
<trkpt lat="35.9912631" lon="139.0861035">
<ele>0</ele>
</trkpt>
<trkpt lat="35.9912511" lon="139.0861049">
<ele>0</ele>
</trkpt>
<trkpt lat="35.9912444" lon="139.0861087">
<ele>0</ele>
</trkpt>
<trkpt lat="35.9912383" lon="139.0861159">
<ele>0</ele>
</trkpt>
<trkpt lat="35.9911772" lon="139.0863163">
<ele>0</ele>
</trkpt>
<trkpt lat="35.9911021" lon="139.0865262">
<ele>0</ele>
</trkpt>
<trkpt lat="35.9910401" lon="139.0866852">
<ele>0</ele>
</trkpt>
<trkpt lat="35.9909841" lon="139.0868377">
<ele>0</ele>
</trkpt>
<trkpt lat="35.9909701" lon="139.086891">
<ele>0</ele>
</trkpt>
<trkpt lat="35.9909327" lon="139.0869984">
<ele>0</ele>
</trkpt>
<trkpt lat="35.9908689" lon="139.0871699">
<ele>0</ele>
</trkpt>
<trkpt lat="35.9908431" lon="139.0872314">
<ele>0</ele>
</trkpt>
<trkpt lat="35.9908284" lon="139.0872765">
<ele>0</ele>
</trkpt>
<trkpt lat="35.9906076" lon="139.0871397">
<ele>0</ele>
</trkpt>
<trkpt lat="35.9904424" lon="139.0870384">
<ele>0</ele>
</trkpt>
<trkpt lat="35.9904331" lon="139.0870373">
<ele>0</ele>
</trkpt>
<trkpt lat="35.9904253" lon="139.0870437">
<ele>0</ele>
</trkpt>
<trkpt lat="35.9904184" lon="139.0870539">
<ele>0</ele>
</trkpt>
<trkpt lat="35.9903706" lon="139.0870283">
<ele>0</ele>
</trkpt>
<trkpt lat="35.9903689" lon="139.0870179">
<ele>0</ele>
</trkpt>
<trkpt lat="35.9903659" lon="139.087007">
<ele>0</ele>
</trkpt>
<trkpt lat="35.9903912" lon="139.0869479">
<ele>0</ele>
</trkpt>
<trkpt lat="35.9904017" lon="139.0869549">
<ele>0</ele>
</trkpt>
<trkpt lat="35.9904127" lon="139.0869593">
<ele>0</ele>
</trkpt>
<trkpt lat="35.9904234" lon="139.0869538">
<ele>0</ele>
</trkpt>
<trkpt lat="35.9904808" lon="139.0868173">
<ele>0</ele>
</trkpt>
<trkpt lat="35.9905841" lon="139.0865813">
<ele>0</ele>
</trkpt>
<trkpt lat="35.9907375" lon="139.086253">
<ele>0</ele>
</trkpt>
<trkpt lat="35.9907996" lon="139.0861216">
<ele>0</ele>
</trkpt>
<trkpt lat="35.9908346" lon="139.0860378">
<ele>0</ele>
</trkpt>
<trkpt lat="35.9908489" lon="139.0859972">
<ele>0</ele>
</trkpt>
<trkpt lat="35.9908498" lon="139.0859869">
<ele>0</ele>
</trkpt>
<trkpt lat="35.9908432" lon="139.0859781">
<ele>0</ele>
</trkpt>
<trkpt lat="35.9906314" lon="139.085913">
<ele>0</ele>
</trkpt>
<trkpt lat="35.9904851" lon="139.0858707">
<ele>0</ele>
</trkpt>
<trkpt lat="35.9901689" lon="139.08577">
<ele>0</ele>
</trkpt>
<trkpt lat="35.98982" lon="139.0856613">
<ele>0</ele>
</trkpt>
<trkpt lat="35.9898062" lon="139.0856645">
<ele>0</ele>
</trkpt>
<trkpt lat="35.9897928" lon="139.0856775">
<ele>0</ele>
</trkpt>
<trkpt lat="35.9897898" lon="139.0856872">
<ele>0</ele>
</trkpt>
<trkpt lat="35.989753" lon="139.0856768">
<ele>0</ele>
</trkpt>
<trkpt lat="35.9897525" lon="139.0856646">
<ele>0</ele>
</trkpt>
<trkpt lat="35.9897512" lon="139.0856538">
<ele>0</ele>
</trkpt>
<trkpt lat="35.9897424" lon="139.0856397">
<ele>0</ele>
</trkpt>
<trkpt lat="35.9897184" lon="139.0856289">
<ele>0</ele>
</trkpt>
<trkpt lat="35.9894832" lon="139.0855492">
<ele>0</ele>
</trkpt>
<trkpt lat="35.9893638" lon="139.0854941">
<ele>0</ele>
</trkpt>
<trkpt lat="35.9893394" lon="139.0854824">
<ele>0</ele>
</trkpt>
<trkpt lat="35.9893292" lon="139.0854812">
<ele>0</ele>
</trkpt>
<trkpt lat="35.9893209" lon="139.0854847">
<ele>0</ele>
</trkpt>
<trkpt lat="35.9893157" lon="139.0854931">
<ele>0</ele>
</trkpt>
<trkpt lat="35.9892897" lon="139.0854782">
<ele>0</ele>
</trkpt>
<trkpt lat="35.9892903" lon="139.0854701">
<ele>0</ele>
</trkpt>
<trkpt lat="35.9892879" lon="139.085464">
<ele>0</ele>
</trkpt>
<trkpt lat="35.9892812" lon="139.0854559">
<ele>0</ele>
</trkpt>
<trkpt lat="35.9891757" lon="139.0853925">
<ele>0</ele>
</trkpt>
<trkpt lat="35.9890597" lon="139.0853066">
<ele>0</ele>
</trkpt>
<trkpt lat="35.989006" lon="139.0852662">
<ele>0</ele>
</trkpt>
<trkpt lat="35.9889096" lon="139.0851809">
<ele>0</ele>
</trkpt>
<trkpt lat="35.9888956" lon="139.0851769">
<ele>0</ele>
</trkpt>
<trkpt lat="35.9888811" lon="139.085178">
<ele>0</ele>
</trkpt>
<trkpt lat="35.9888695" lon="139.0851853">
<ele>0</ele>
</trkpt>
<trkpt lat="35.9888607" lon="139.0851748">
<ele>0</ele>
</trkpt>
<trkpt lat="35.9888391" lon="139.0851535">
<ele>0</ele>
</trkpt>
<trkpt lat="35.9888369" lon="139.085138">
<ele>0</ele>
</trkpt>
<trkpt lat="35.9888322" lon="139.0851244">
<ele>0</ele>
</trkpt>
<trkpt lat="35.9888261" lon="139.0851132">
<ele>0</ele>
</trkpt>
<trkpt lat="35.9888629" lon="139.0850499">
<ele>0</ele>
</trkpt>
<trkpt lat="35.988878" lon="139.0850599">
<ele>0</ele>
</trkpt>
<trkpt lat="35.9889024" lon="139.0850722">
<ele>0</ele>
</trkpt>
<trkpt lat="35.9889294" lon="139.0850768">
<ele>0</ele>
</trkpt>
<trkpt lat="35.9889545" lon="139.0850741">
<ele>0</ele>
</trkpt>
<trkpt lat="35.9889682" lon="139.0850694">
<ele>0</ele>
</trkpt>
<trkpt lat="35.988978" lon="139.0850637">
<ele>0</ele>
</trkpt>
<trkpt lat="35.9889889" lon="139.0850588">
<ele>0</ele>
</trkpt>
<trkpt lat="35.9889984" lon="139.0850496">
<ele>0</ele>
</trkpt>
<trkpt lat="35.9890162" lon="139.0850276">
<ele>0</ele>
</trkpt>
<trkpt lat="35.989023" lon="139.085013">
<ele>0</ele>
</trkpt>
<trkpt lat="35.9891702" lon="139.0846683">
<ele>0</ele>
</trkpt>
<trkpt lat="35.9891862" lon="139.0846226">
<ele>0</ele>
</trkpt>
<trkpt lat="35.9892446" lon="139.0844813">
<ele>0</ele>
</trkpt>
<trkpt lat="35.9893347" lon="139.084257">
<ele>0</ele>
</trkpt>
<trkpt lat="35.989343" lon="139.0842183">
<ele>0</ele>
</trkpt>
<trkpt lat="35.9893448" lon="139.0841929">
<ele>0</ele>
</trkpt>
<trkpt lat="35.9893421" lon="139.0841731">
<ele>0</ele>
</trkpt>
<trkpt lat="35.9893389" lon="139.0841565">
<ele>0</ele>
</trkpt>
<trkpt lat="35.9893343" lon="139.0841449">
<ele>0</ele>
</trkpt>
<trkpt lat="35.9893265" lon="139.0841257">
<ele>0</ele>
</trkpt>
<trkpt lat="35.9893091" lon="139.084106">
<ele>0</ele>
</trkpt>
<trkpt lat="35.989315" lon="139.084065">
<ele>0</ele>
</trkpt>
<trkpt lat="35.9893446" lon="139.0840502">
<ele>0</ele>
</trkpt>
<trkpt lat="35.9893594" lon="139.0840337">
<ele>0</ele>
</trkpt>
<trkpt lat="35.9893767" lon="139.084006">
<ele>0</ele>
</trkpt>
<trkpt lat="35.9893821" lon="139.0839947">
<ele>0</ele>
</trkpt>
<trkpt lat="35.9893917" lon="139.0839617">
<ele>0</ele>
</trkpt>
<trkpt lat="35.9893978" lon="139.0839187">
<ele>0</ele>
</trkpt>
<trkpt lat="35.9892982" lon="139.0838935">
<ele>0</ele>
</trkpt>
    </trkseg>
  </trk>
</gpx>