<?xml version="1.0" encoding="UTF-8"?>
<gpx version="1.1"
     creator="KMLtoGPX"
     xmlns="http://www.topografix.com/GPX/1/1">
  <metadata>
    <name>Echizen coast cycling course (round trip course)</name>
    <desc>越前海岸サイクリングコース（往復コース）</desc>
    <bounds minlat="35.920384" minlon="135.958745" maxlat="36.202528" maxlon="136.142958"/>
  </metadata>
  <trk>
    <name>Echizen coast cycling course (round trip course)</name>
    <trkseg>
<trkpt lat="36.20251" lon="136.142958">
<ele>21</ele>
</trkpt>
<trkpt lat="36.197068" lon="136.140848">
<ele>14</ele>
</trkpt>
<trkpt lat="36.193344" lon="136.139566">
<ele>16</ele>
</trkpt>
<trkpt lat="36.192046" lon="136.139062">
<ele>12</ele>
</trkpt>
<trkpt lat="36.190661" lon="136.138486">
<ele>14</ele>
</trkpt>
<trkpt lat="36.190164" lon="136.138258">
<ele>15</ele>
</trkpt>
<trkpt lat="36.189576" lon="136.137956">
<ele>15</ele>
</trkpt>
<trkpt lat="36.189134" lon="136.137717">
<ele>15</ele>
</trkpt>
<trkpt lat="36.188605" lon="136.137401">
<ele>15</ele>
</trkpt>
<trkpt lat="36.187759" lon="136.136862">
<ele>17</ele>
</trkpt>
<trkpt lat="36.186895" lon="136.136219">
<ele>17</ele>
</trkpt>
<trkpt lat="36.182713" lon="136.132852">
<ele>19</ele>
</trkpt>
<trkpt lat="36.181283" lon="136.131773">
<ele>22</ele>
</trkpt>
<trkpt lat="36.177068" lon="136.128671">
<ele>23</ele>
</trkpt>
<trkpt lat="36.176484" lon="136.128207">
<ele>24</ele>
</trkpt>
<trkpt lat="36.175077" lon="136.127173">
<ele>25</ele>
</trkpt>
<trkpt lat="36.174206" lon="136.126481">
<ele>23</ele>
</trkpt>
<trkpt lat="36.173984" lon="136.126244">
<ele>23</ele>
</trkpt>
<trkpt lat="36.169167" lon="136.122112">
<ele>24</ele>
</trkpt>
<trkpt lat="36.167722" lon="136.120709">
<ele>21</ele>
</trkpt>
<trkpt lat="36.166152" lon="136.119133">
<ele>21</ele>
</trkpt>
<trkpt lat="36.163086" lon="136.116144">
<ele>24</ele>
</trkpt>
<trkpt lat="36.160292" lon="136.113316">
<ele>32</ele>
</trkpt>
<trkpt lat="36.159262" lon="136.112161">
<ele>31</ele>
</trkpt>
<trkpt lat="36.158241" lon="136.110951">
<ele>35</ele>
</trkpt>
<trkpt lat="36.156643" lon="136.109186">
<ele>30</ele>
</trkpt>
<trkpt lat="36.154354" lon="136.106876">
<ele>35</ele>
</trkpt>
<trkpt lat="36.152848" lon="136.105179">
<ele>33</ele>
</trkpt>
<trkpt lat="36.151938" lon="136.103982">
<ele>33</ele>
</trkpt>
<trkpt lat="36.150972" lon="136.102536">
<ele>30</ele>
</trkpt>
<trkpt lat="36.149971" lon="136.101073">
<ele>30</ele>
</trkpt>
<trkpt lat="36.149167" lon="136.099828">
<ele>32</ele>
</trkpt>
<trkpt lat="36.148792" lon="136.09916">
<ele>30</ele>
</trkpt>
<trkpt lat="36.148097" lon="136.097742">
<ele>19</ele>
</trkpt>
<trkpt lat="36.147543" lon="136.098041">
<ele>17</ele>
</trkpt>
<trkpt lat="36.14654" lon="136.098692">
<ele>26</ele>
</trkpt>
<trkpt lat="36.146347" lon="136.09872">
<ele>26</ele>
</trkpt>
<trkpt lat="36.146066" lon="136.098109">
<ele>24</ele>
</trkpt>
<trkpt lat="36.145945" lon="136.09754">
<ele>19</ele>
</trkpt>
<trkpt lat="36.14585" lon="136.096922">
<ele>14</ele>
</trkpt>
<trkpt lat="36.145852" lon="136.095023">
<ele>8</ele>
</trkpt>
<trkpt lat="36.145874" lon="136.09398">
<ele>7</ele>
</trkpt>
<trkpt lat="36.145843" lon="136.093501">
<ele>7</ele>
</trkpt>
<trkpt lat="36.145742" lon="136.093165">
<ele>7</ele>
</trkpt>
<trkpt lat="36.145495" lon="136.092563">
<ele>7</ele>
</trkpt>
<trkpt lat="36.142972" lon="136.087177">
<ele>6</ele>
</trkpt>
<trkpt lat="36.142665" lon="136.086756">
<ele>6</ele>
</trkpt>
<trkpt lat="36.142039" lon="136.085963">
<ele>7</ele>
</trkpt>
<trkpt lat="36.141874" lon="136.085726">
<ele>8</ele>
</trkpt>
<trkpt lat="36.141144" lon="136.084582">
<ele>12</ele>
</trkpt>
<trkpt lat="36.140684" lon="136.083814">
<ele>13</ele>
</trkpt>
<trkpt lat="36.140353" lon="136.083303">
<ele>13</ele>
</trkpt>
<trkpt lat="36.140073" lon="136.082929">
<ele>11</ele>
</trkpt>
<trkpt lat="36.13982" lon="136.082763">
<ele>10</ele>
</trkpt>
<trkpt lat="36.139368" lon="136.082187">
<ele>10</ele>
</trkpt>
<trkpt lat="36.13819" lon="136.080561">
<ele>13</ele>
</trkpt>
<trkpt lat="36.137376" lon="136.079522">
<ele>16</ele>
</trkpt>
<trkpt lat="36.137037" lon="136.079294">
<ele>16</ele>
</trkpt>
<trkpt lat="36.136647" lon="136.079245">
<ele>16</ele>
</trkpt>
<trkpt lat="36.135166" lon="136.078882">
<ele>11</ele>
</trkpt>
<trkpt lat="36.134544" lon="136.078654">
<ele>12</ele>
</trkpt>
<trkpt lat="36.134338" lon="136.078549">
<ele>14</ele>
</trkpt>
<trkpt lat="36.133944" lon="136.078302">
<ele>18</ele>
</trkpt>
<trkpt lat="36.133545" lon="136.077991">
<ele>19</ele>
</trkpt>
<trkpt lat="36.132987" lon="136.0774">
<ele>23</ele>
</trkpt>
<trkpt lat="36.132335" lon="136.076456">
<ele>31</ele>
</trkpt>
<trkpt lat="36.131252" lon="136.074169">
<ele>33</ele>
</trkpt>
<trkpt lat="36.130184" lon="136.072153">
<ele>32</ele>
</trkpt>
<trkpt lat="36.129127" lon="136.07004">
<ele>28</ele>
</trkpt>
<trkpt lat="36.128927" lon="136.069472">
<ele>29</ele>
</trkpt>
<trkpt lat="36.128549" lon="136.067758">
<ele>32</ele>
</trkpt>
<trkpt lat="36.128325" lon="136.067069">
<ele>32</ele>
</trkpt>
<trkpt lat="36.128033" lon="136.066423">
<ele>30</ele>
</trkpt>
<trkpt lat="36.127341" lon="136.065061">
<ele>29</ele>
</trkpt>
<trkpt lat="36.127162" lon="136.06463">
<ele>31</ele>
</trkpt>
<trkpt lat="36.127079" lon="136.064232">
<ele>32</ele>
</trkpt>
<trkpt lat="36.127041" lon="136.063933">
<ele>32</ele>
</trkpt>
<trkpt lat="36.12703" lon="136.063533">
<ele>33</ele>
</trkpt>
<trkpt lat="36.127124" lon="136.062697">
<ele>33</ele>
</trkpt>
<trkpt lat="36.127121" lon="136.062555">
<ele>33</ele>
</trkpt>
<trkpt lat="36.127048" lon="136.062187">
<ele>33</ele>
</trkpt>
<trkpt lat="36.126877" lon="136.06166">
<ele>33</ele>
</trkpt>
<trkpt lat="36.12675" lon="136.061372">
<ele>34</ele>
</trkpt>
<trkpt lat="36.125943" lon="136.059878">
<ele>32</ele>
</trkpt>
<trkpt lat="36.125854" lon="136.059529">
<ele>31</ele>
</trkpt>
<trkpt lat="36.125659" lon="136.058536">
<ele>30</ele>
</trkpt>
<trkpt lat="36.125552" lon="136.058226">
<ele>30</ele>
</trkpt>
<trkpt lat="36.125356" lon="136.057942">
<ele>30</ele>
</trkpt>
<trkpt lat="36.125048" lon="136.05766">
<ele>30</ele>
</trkpt>
<trkpt lat="36.124032" lon="136.056478">
<ele>26</ele>
</trkpt>
<trkpt lat="36.123802" lon="136.056248">
<ele>25</ele>
</trkpt>
<trkpt lat="36.123476" lon="136.05599">
<ele>23</ele>
</trkpt>
<trkpt lat="36.123296" lon="136.055881">
<ele>23</ele>
</trkpt>
<trkpt lat="36.12304" lon="136.055888">
<ele>21</ele>
</trkpt>
<trkpt lat="36.122623" lon="136.055835">
<ele>20</ele>
</trkpt>
<trkpt lat="36.122479" lon="136.055745">
<ele>18</ele>
</trkpt>
<trkpt lat="36.122398" lon="136.055658">
<ele>17</ele>
</trkpt>
<trkpt lat="36.122325" lon="136.055373">
<ele>14</ele>
</trkpt>
<trkpt lat="36.122259" lon="136.055196">
<ele>13</ele>
</trkpt>
<trkpt lat="36.122137" lon="136.055079">
<ele>11</ele>
</trkpt>
<trkpt lat="36.12196" lon="136.05505">
<ele>11</ele>
</trkpt>
<trkpt lat="36.121627" lon="136.055144">
<ele>12</ele>
</trkpt>
<trkpt lat="36.121466" lon="136.055166">
<ele>12</ele>
</trkpt>
<trkpt lat="36.121381" lon="136.055131">
<ele>13</ele>
</trkpt>
<trkpt lat="36.120103" lon="136.054402">
<ele>12</ele>
</trkpt>
<trkpt lat="36.119877" lon="136.054152">
<ele>11</ele>
</trkpt>
<trkpt lat="36.118465" lon="136.052001">
<ele>12</ele>
</trkpt>
<trkpt lat="36.11757" lon="136.050503">
<ele>11</ele>
</trkpt>
<trkpt lat="36.1174" lon="136.049966">
<ele>11</ele>
</trkpt>
<trkpt lat="36.117243" lon="136.049687">
<ele>11</ele>
</trkpt>
<trkpt lat="36.11711" lon="136.049548">
<ele>11</ele>
</trkpt>
<trkpt lat="36.116755" lon="136.049418">
<ele>10</ele>
</trkpt>
<trkpt lat="36.11611" lon="136.049344">
<ele>9</ele>
</trkpt>
<trkpt lat="36.115751" lon="136.049253">
<ele>6</ele>
</trkpt>
<trkpt lat="36.1148" lon="136.048945">
<ele>3</ele>
</trkpt>
<trkpt lat="36.113373" lon="136.048839">
<ele>8</ele>
</trkpt>
<trkpt lat="36.11229" lon="136.048689">
<ele>14</ele>
</trkpt>
<trkpt lat="36.112024" lon="136.048617">
<ele>12</ele>
</trkpt>
<trkpt lat="36.111133" lon="136.04863">
<ele>7</ele>
</trkpt>
<trkpt lat="36.110179" lon="136.048768">
<ele>4</ele>
</trkpt>
<trkpt lat="36.10993" lon="136.048789">
<ele>4</ele>
</trkpt>
<trkpt lat="36.109671" lon="136.048759">
<ele>3</ele>
</trkpt>
<trkpt lat="36.109478" lon="136.048683">
<ele>3</ele>
</trkpt>
<trkpt lat="36.109382" lon="136.048621">
<ele>3</ele>
</trkpt>
<trkpt lat="36.108682" lon="136.047927">
<ele>2</ele>
</trkpt>
<trkpt lat="36.108375" lon="136.047493">
<ele>1</ele>
</trkpt>
<trkpt lat="36.108018" lon="136.046887">
<ele>1</ele>
</trkpt>
<trkpt lat="36.107609" lon="136.045936">
<ele>3</ele>
</trkpt>
<trkpt lat="36.107374" lon="136.045518">
<ele>3</ele>
</trkpt>
<trkpt lat="36.107308" lon="136.045308">
<ele>2</ele>
</trkpt>
<trkpt lat="36.10728" lon="136.045164">
<ele>2</ele>
</trkpt>
<trkpt lat="36.107245" lon="136.044807">
<ele>1</ele>
</trkpt>
<trkpt lat="36.107202" lon="136.04456">
<ele>1</ele>
</trkpt>
<trkpt lat="36.107045" lon="136.044188">
<ele>1</ele>
</trkpt>
<trkpt lat="36.106591" lon="136.043292">
<ele>1</ele>
</trkpt>
<trkpt lat="36.106416" lon="136.043061">
<ele>1</ele>
</trkpt>
<trkpt lat="36.10621" lon="136.042893">
<ele>1</ele>
</trkpt>
<trkpt lat="36.105819" lon="136.042694">
<ele>1</ele>
</trkpt>
<trkpt lat="36.105608" lon="136.042547">
<ele>1</ele>
</trkpt>
<trkpt lat="36.105236" lon="136.042159">
<ele>2</ele>
</trkpt>
<trkpt lat="36.105083" lon="136.041978">
<ele>2</ele>
</trkpt>
<trkpt lat="36.104928" lon="136.041698">
<ele>2</ele>
</trkpt>
<trkpt lat="36.104382" lon="136.040515">
<ele>7</ele>
</trkpt>
<trkpt lat="36.104323" lon="136.040271">
<ele>8</ele>
</trkpt>
<trkpt lat="36.104277" lon="136.039523">
<ele>13</ele>
</trkpt>
<trkpt lat="36.104105" lon="136.038891">
<ele>15</ele>
</trkpt>
<trkpt lat="36.103895" lon="136.038243">
<ele>15</ele>
</trkpt>
<trkpt lat="36.103638" lon="136.037543">
<ele>9</ele>
</trkpt>
<trkpt lat="36.103458" lon="136.037312">
<ele>8</ele>
</trkpt>
<trkpt lat="36.103311" lon="136.037223">
<ele>9</ele>
</trkpt>
<trkpt lat="36.102261" lon="136.036778">
<ele>14</ele>
</trkpt>
<trkpt lat="36.102028" lon="136.036718">
<ele>16</ele>
</trkpt>
<trkpt lat="36.101833" lon="136.036624">
<ele>16</ele>
</trkpt>
<trkpt lat="36.101632" lon="136.036502">
<ele>14</ele>
</trkpt>
<trkpt lat="36.101254" lon="136.036081">
<ele>10</ele>
</trkpt>
<trkpt lat="36.10037" lon="136.035158">
<ele>8</ele>
</trkpt>
<trkpt lat="36.099979" lon="136.03484">
<ele>8</ele>
</trkpt>
<trkpt lat="36.099348" lon="136.034451">
<ele>7</ele>
</trkpt>
<trkpt lat="36.098564" lon="136.033939">
<ele>5</ele>
</trkpt>
<trkpt lat="36.097632" lon="136.033248">
<ele>4</ele>
</trkpt>
<trkpt lat="36.096884" lon="136.032626">
<ele>4</ele>
</trkpt>
<trkpt lat="36.09666" lon="136.03227">
<ele>5</ele>
</trkpt>
<trkpt lat="36.09638" lon="136.031545">
<ele>8</ele>
</trkpt>
<trkpt lat="36.096224" lon="136.031207">
<ele>9</ele>
</trkpt>
<trkpt lat="36.095155" lon="136.030282">
<ele>11</ele>
</trkpt>
<trkpt lat="36.094979" lon="136.030185">
<ele>11</ele>
</trkpt>
<trkpt lat="36.09478" lon="136.0302">
<ele>11</ele>
</trkpt>
<trkpt lat="36.094558" lon="136.03031">
<ele>10</ele>
</trkpt>
<trkpt lat="36.093504" lon="136.031004">
<ele>6</ele>
</trkpt>
<trkpt lat="36.093177" lon="136.031156">
<ele>5</ele>
</trkpt>
<trkpt lat="36.092873" lon="136.031229">
<ele>5</ele>
</trkpt>
<trkpt lat="36.091327" lon="136.031392">
<ele>4</ele>
</trkpt>
<trkpt lat="36.090978" lon="136.031349">
<ele>4</ele>
</trkpt>
<trkpt lat="36.090607" lon="136.031169">
<ele>4</ele>
</trkpt>
<trkpt lat="36.090135" lon="136.030878">
<ele>3</ele>
</trkpt>
<trkpt lat="36.089838" lon="136.030775">
<ele>3</ele>
</trkpt>
<trkpt lat="36.089538" lon="136.03078">
<ele>3</ele>
</trkpt>
<trkpt lat="36.088726" lon="136.031041">
<ele>3</ele>
</trkpt>
<trkpt lat="36.088394" lon="136.031093">
<ele>2</ele>
</trkpt>
<trkpt lat="36.088006" lon="136.031058">
<ele>2</ele>
</trkpt>
<trkpt lat="36.08711" lon="136.030892">
<ele>2</ele>
</trkpt>
<trkpt lat="36.086402" lon="136.030843">
<ele>3</ele>
</trkpt>
<trkpt lat="36.086144" lon="136.030721">
<ele>3</ele>
</trkpt>
<trkpt lat="36.085105" lon="136.029985">
<ele>10</ele>
</trkpt>
<trkpt lat="36.084768" lon="136.029814">
<ele>19</ele>
</trkpt>
<trkpt lat="36.083863" lon="136.029448">
<ele>11</ele>
</trkpt>
<trkpt lat="36.082774" lon="136.029047">
<ele>4</ele>
</trkpt>
<trkpt lat="36.081779" lon="136.028635">
<ele>3</ele>
</trkpt>
<trkpt lat="36.081545" lon="136.028497">
<ele>3</ele>
</trkpt>
<trkpt lat="36.081409" lon="136.028379">
<ele>3</ele>
</trkpt>
<trkpt lat="36.080707" lon="136.027486">
<ele>5</ele>
</trkpt>
<trkpt lat="36.080431" lon="136.027187">
<ele>6</ele>
</trkpt>
<trkpt lat="36.080248" lon="136.027032">
<ele>6</ele>
</trkpt>
<trkpt lat="36.079992" lon="136.026913">
<ele>6</ele>
</trkpt>
<trkpt lat="36.079321" lon="136.026833">
<ele>5</ele>
</trkpt>
<trkpt lat="36.078452" lon="136.026605">
<ele>6</ele>
</trkpt>
<trkpt lat="36.077185" lon="136.02623">
<ele>7</ele>
</trkpt>
<trkpt lat="36.076533" lon="136.025728">
<ele>12</ele>
</trkpt>
<trkpt lat="36.07631" lon="136.02559">
<ele>13</ele>
</trkpt>
<trkpt lat="36.076105" lon="136.0255">
<ele>13</ele>
</trkpt>
<trkpt lat="36.074966" lon="136.025077">
<ele>6</ele>
</trkpt>
<trkpt lat="36.074727" lon="136.025027">
<ele>3</ele>
</trkpt>
<trkpt lat="36.074551" lon="136.025077">
<ele>3</ele>
</trkpt>
<trkpt lat="36.074303" lon="136.025291">
<ele>2</ele>
</trkpt>
<trkpt lat="36.073961" lon="136.025817">
<ele>2</ele>
</trkpt>
<trkpt lat="36.07305" lon="136.026397">
<ele>3</ele>
</trkpt>
<trkpt lat="36.072943" lon="136.026431">
<ele>3</ele>
</trkpt>
<trkpt lat="36.072825" lon="136.026439">
<ele>3</ele>
</trkpt>
<trkpt lat="36.072581" lon="136.026392">
<ele>3</ele>
</trkpt>
<trkpt lat="36.072396" lon="136.026296">
<ele>2</ele>
</trkpt>
<trkpt lat="36.071654" lon="136.0257">
<ele>2</ele>
</trkpt>
<trkpt lat="36.071063" lon="136.025278">
<ele>5</ele>
</trkpt>
<trkpt lat="36.070714" lon="136.024897">
<ele>5</ele>
</trkpt>
<trkpt lat="36.070594" lon="136.024496">
<ele>4</ele>
</trkpt>
<trkpt lat="36.070569" lon="136.024259">
<ele>4</ele>
</trkpt>
<trkpt lat="36.070596" lon="136.024052">
<ele>4</ele>
</trkpt>
<trkpt lat="36.070691" lon="136.023717">
<ele>4</ele>
</trkpt>
<trkpt lat="36.070946" lon="136.02328">
<ele>5</ele>
</trkpt>
<trkpt lat="36.071075" lon="136.023093">
<ele>5</ele>
</trkpt>
<trkpt lat="36.071233" lon="136.022927">
<ele>4</ele>
</trkpt>
<trkpt lat="36.071349" lon="136.022424">
<ele>3</ele>
</trkpt>
<trkpt lat="36.071344" lon="136.022231">
<ele>3</ele>
</trkpt>
<trkpt lat="36.071281" lon="136.022013">
<ele>3</ele>
</trkpt>
<trkpt lat="36.071205" lon="136.021912">
<ele>4</ele>
</trkpt>
<trkpt lat="36.070892" lon="136.021697">
<ele>6</ele>
</trkpt>
<trkpt lat="36.070568" lon="136.021547">
<ele>7</ele>
</trkpt>
<trkpt lat="36.069435" lon="136.021417">
<ele>7</ele>
</trkpt>
<trkpt lat="36.069015" lon="136.021404">
<ele>8</ele>
</trkpt>
<trkpt lat="36.067997" lon="136.021548">
<ele>8</ele>
</trkpt>
<trkpt lat="36.067847" lon="136.021533">
<ele>8</ele>
</trkpt>
<trkpt lat="36.067698" lon="136.021449">
<ele>8</ele>
</trkpt>
<trkpt lat="36.067006" lon="136.020799">
<ele>10</ele>
</trkpt>
<trkpt lat="36.066218" lon="136.020378">
<ele>9</ele>
</trkpt>
<trkpt lat="36.065506" lon="136.020058">
<ele>8</ele>
</trkpt>
<trkpt lat="36.065219" lon="136.019998">
<ele>9</ele>
</trkpt>
<trkpt lat="36.064925" lon="136.020071">
<ele>10</ele>
</trkpt>
<trkpt lat="36.064346" lon="136.020314">
<ele>9</ele>
</trkpt>
<trkpt lat="36.064073" lon="136.020356">
<ele>7</ele>
</trkpt>
<trkpt lat="36.063572" lon="136.020352">
<ele>6</ele>
</trkpt>
<trkpt lat="36.062965" lon="136.020521">
<ele>4</ele>
</trkpt>
<trkpt lat="36.062302" lon="136.020383">
<ele>4</ele>
</trkpt>
<trkpt lat="36.062067" lon="136.020364">
<ele>4</ele>
</trkpt>
<trkpt lat="36.061671" lon="136.020389">
<ele>5</ele>
</trkpt>
<trkpt lat="36.061376" lon="136.020373">
<ele>7</ele>
</trkpt>
<trkpt lat="36.0612" lon="136.020306">
<ele>7</ele>
</trkpt>
<trkpt lat="36.060517" lon="136.019869">
<ele>7</ele>
</trkpt>
<trkpt lat="36.060171" lon="136.019753">
<ele>7</ele>
</trkpt>
<trkpt lat="36.059744" lon="136.019756">
<ele>9</ele>
</trkpt>
<trkpt lat="36.059109" lon="136.019856">
<ele>10</ele>
</trkpt>
<trkpt lat="36.058893" lon="136.019833">
<ele>11</ele>
</trkpt>
<trkpt lat="36.058524" lon="136.019707">
<ele>12</ele>
</trkpt>
<trkpt lat="36.057062" lon="136.019305">
<ele>10</ele>
</trkpt>
<trkpt lat="36.055948" lon="136.019027">
<ele>29</ele>
</trkpt>
<trkpt lat="36.054391" lon="136.018741">
<ele>95</ele>
</trkpt>
<trkpt lat="36.053521" lon="136.018636">
<ele>88</ele>
</trkpt>
<trkpt lat="36.052127" lon="136.018321">
<ele>37</ele>
</trkpt>
<trkpt lat="36.051884" lon="136.018073">
<ele>30</ele>
</trkpt>
<trkpt lat="36.051481" lon="136.017573">
<ele>18</ele>
</trkpt>
<trkpt lat="36.051036" lon="136.017237">
<ele>7</ele>
</trkpt>
<trkpt lat="36.050504" lon="136.017109">
<ele>6</ele>
</trkpt>
<trkpt lat="36.049861" lon="136.017026">
<ele>5</ele>
</trkpt>
<trkpt lat="36.049374" lon="136.016862">
<ele>4</ele>
</trkpt>
<trkpt lat="36.048958" lon="136.016563">
<ele>5</ele>
</trkpt>
<trkpt lat="36.048819" lon="136.016275">
<ele>7</ele>
</trkpt>
<trkpt lat="36.048634" lon="136.015645">
<ele>13</ele>
</trkpt>
<trkpt lat="36.048536" lon="136.01546">
<ele>16</ele>
</trkpt>
<trkpt lat="36.047703" lon="136.014401">
<ele>16</ele>
</trkpt>
<trkpt lat="36.047415" lon="136.014077">
<ele>13</ele>
</trkpt>
<trkpt lat="36.047282" lon="136.013784">
<ele>11</ele>
</trkpt>
<trkpt lat="36.047151" lon="136.012942">
<ele>7</ele>
</trkpt>
<trkpt lat="36.047089" lon="136.012715">
<ele>6</ele>
</trkpt>
<trkpt lat="36.04702" lon="136.01256">
<ele>6</ele>
</trkpt>
<trkpt lat="36.046906" lon="136.012378">
<ele>5</ele>
</trkpt>
<trkpt lat="36.046773" lon="136.012225">
<ele>5</ele>
</trkpt>
<trkpt lat="36.046456" lon="136.012113">
<ele>5</ele>
</trkpt>
<trkpt lat="36.044519" lon="136.012283">
<ele>4</ele>
</trkpt>
<trkpt lat="36.044201" lon="136.012292">
<ele>4</ele>
</trkpt>
<trkpt lat="36.04364" lon="136.012173">
<ele>4</ele>
</trkpt>
<trkpt lat="36.042404" lon="136.011596">
<ele>3</ele>
</trkpt>
<trkpt lat="36.041832" lon="136.01145">
<ele>2</ele>
</trkpt>
<trkpt lat="36.040718" lon="136.011468">
<ele>0</ele>
</trkpt>
<trkpt lat="36.038923" lon="136.01159">
<ele>0</ele>
</trkpt>
<trkpt lat="36.037793" lon="136.011641">
<ele>0</ele>
</trkpt>
<trkpt lat="36.037084" lon="136.011777">
<ele>1</ele>
</trkpt>
<trkpt lat="36.035753" lon="136.012249">
<ele>2</ele>
</trkpt>
<trkpt lat="36.035285" lon="136.012381">
<ele>4</ele>
</trkpt>
<trkpt lat="36.035077" lon="136.01241">
<ele>6</ele>
</trkpt>
<trkpt lat="36.034659" lon="136.012346">
<ele>10</ele>
</trkpt>
<trkpt lat="36.034346" lon="136.01222">
<ele>12</ele>
</trkpt>
<trkpt lat="36.034147" lon="136.012069">
<ele>13</ele>
</trkpt>
<trkpt lat="36.033527" lon="136.01135">
<ele>16</ele>
</trkpt>
<trkpt lat="36.032953" lon="136.010892">
<ele>19</ele>
</trkpt>
<trkpt lat="36.032102" lon="136.010359">
<ele>16</ele>
</trkpt>
<trkpt lat="36.031707" lon="136.009908">
<ele>8</ele>
</trkpt>
<trkpt lat="36.030947" lon="136.008916">
<ele>10</ele>
</trkpt>
<trkpt lat="36.029629" lon="136.006735">
<ele>17</ele>
</trkpt>
<trkpt lat="36.029357" lon="136.006412">
<ele>17</ele>
</trkpt>
<trkpt lat="36.029126" lon="136.006087">
<ele>14</ele>
</trkpt>
<trkpt lat="36.029019" lon="136.005819">
<ele>12</ele>
</trkpt>
<trkpt lat="36.028906" lon="136.005386">
<ele>10</ele>
</trkpt>
<trkpt lat="36.028832" lon="136.005183">
<ele>11</ele>
</trkpt>
<trkpt lat="36.028454" lon="136.004624">
<ele>16</ele>
</trkpt>
<trkpt lat="36.028213" lon="136.004343">
<ele>18</ele>
</trkpt>
<trkpt lat="36.028098" lon="136.004238">
<ele>20</ele>
</trkpt>
<trkpt lat="36.027565" lon="136.003955">
<ele>25</ele>
</trkpt>
<trkpt lat="36.02746" lon="136.003856">
<ele>26</ele>
</trkpt>
<trkpt lat="36.027178" lon="136.003434">
<ele>31</ele>
</trkpt>
<trkpt lat="36.026734" lon="136.003082">
<ele>29</ele>
</trkpt>
<trkpt lat="36.026544" lon="136.002864">
<ele>24</ele>
</trkpt>
<trkpt lat="36.026345" lon="136.00254">
<ele>18</ele>
</trkpt>
<trkpt lat="36.026228" lon="136.002404">
<ele>17</ele>
</trkpt>
<trkpt lat="36.026111" lon="136.002323">
<ele>17</ele>
</trkpt>
<trkpt lat="36.025967" lon="136.002263">
<ele>17</ele>
</trkpt>
<trkpt lat="36.025619" lon="136.002192">
<ele>17</ele>
</trkpt>
<trkpt lat="36.02551" lon="136.002139">
<ele>17</ele>
</trkpt>
<trkpt lat="36.025233" lon="136.001927">
<ele>19</ele>
</trkpt>
<trkpt lat="36.02452" lon="136.001567">
<ele>22</ele>
</trkpt>
<trkpt lat="36.023903" lon="136.001182">
<ele>23</ele>
</trkpt>
<trkpt lat="36.023297" lon="136.000767">
<ele>20</ele>
</trkpt>
<trkpt lat="36.023236" lon="136.000692">
<ele>19</ele>
</trkpt>
<trkpt lat="36.023033" lon="136.000172">
<ele>19</ele>
</trkpt>
<trkpt lat="36.02296" lon="136.000035">
<ele>20</ele>
</trkpt>
<trkpt lat="36.022881" lon="135.99993">
<ele>20</ele>
</trkpt>
<trkpt lat="36.022735" lon="135.999834">
<ele>21</ele>
</trkpt>
<trkpt lat="36.022587" lon="135.999764">
<ele>21</ele>
</trkpt>
<trkpt lat="36.022361" lon="135.999575">
<ele>18</ele>
</trkpt>
<trkpt lat="36.021608" lon="135.998859">
<ele>9</ele>
</trkpt>
<trkpt lat="36.020996" lon="135.998459">
<ele>9</ele>
</trkpt>
<trkpt lat="36.020819" lon="135.998422">
<ele>11</ele>
</trkpt>
<trkpt lat="36.020654" lon="135.998414">
<ele>13</ele>
</trkpt>
<trkpt lat="36.020073" lon="135.99848">
<ele>19</ele>
</trkpt>
<trkpt lat="36.019285" lon="135.998508">
<ele>22</ele>
</trkpt>
<trkpt lat="36.019126" lon="135.99846">
<ele>21</ele>
</trkpt>
<trkpt lat="36.018963" lon="135.998363">
<ele>19</ele>
</trkpt>
<trkpt lat="36.018801" lon="135.998231">
<ele>16</ele>
</trkpt>
<trkpt lat="36.018603" lon="135.997989">
<ele>13</ele>
</trkpt>
<trkpt lat="36.018513" lon="135.997912">
<ele>13</ele>
</trkpt>
<trkpt lat="36.018343" lon="135.997723">
<ele>13</ele>
</trkpt>
<trkpt lat="36.018244" lon="135.997644">
<ele>13</ele>
</trkpt>
<trkpt lat="36.018107" lon="135.997492">
<ele>13</ele>
</trkpt>
<trkpt lat="36.017856" lon="135.997066">
<ele>13</ele>
</trkpt>
<trkpt lat="36.017768" lon="135.996763">
<ele>15</ele>
</trkpt>
<trkpt lat="36.017646" lon="135.99654">
<ele>17</ele>
</trkpt>
<trkpt lat="36.017583" lon="135.996323">
<ele>18</ele>
</trkpt>
<trkpt lat="36.017453" lon="135.996099">
<ele>19</ele>
</trkpt>
<trkpt lat="36.016958" lon="135.995445">
<ele>18</ele>
</trkpt>
<trkpt lat="36.014851" lon="135.992824">
<ele>9</ele>
</trkpt>
<trkpt lat="36.01452" lon="135.992292">
<ele>12</ele>
</trkpt>
<trkpt lat="36.014199" lon="135.991899">
<ele>13</ele>
</trkpt>
<trkpt lat="36.012773" lon="135.991275">
<ele>8</ele>
</trkpt>
<trkpt lat="36.012472" lon="135.99102">
<ele>8</ele>
</trkpt>
<trkpt lat="36.01229" lon="135.99075">
<ele>7</ele>
</trkpt>
<trkpt lat="36.012229" lon="135.990609">
<ele>7</ele>
</trkpt>
<trkpt lat="36.012146" lon="135.990183">
<ele>6</ele>
</trkpt>
<trkpt lat="36.012126" lon="135.98938">
<ele>5</ele>
</trkpt>
<trkpt lat="36.012052" lon="135.989152">
<ele>5</ele>
</trkpt>
<trkpt lat="36.011953" lon="135.989012">
<ele>5</ele>
</trkpt>
<trkpt lat="36.010069" lon="135.987081">
<ele>6</ele>
</trkpt>
<trkpt lat="36.009329" lon="135.9863">
<ele>3</ele>
</trkpt>
<trkpt lat="36.008442" lon="135.985191">
<ele>6</ele>
</trkpt>
<trkpt lat="36.008367" lon="135.985042">
<ele>7</ele>
</trkpt>
<trkpt lat="36.008342" lon="135.984877">
<ele>8</ele>
</trkpt>
<trkpt lat="36.008332" lon="135.984347">
<ele>11</ele>
</trkpt>
<trkpt lat="36.008427" lon="135.983502">
<ele>13</ele>
</trkpt>
<trkpt lat="36.008494" lon="135.98241">
<ele>12</ele>
</trkpt>
<trkpt lat="36.008475" lon="135.9823">
<ele>12</ele>
</trkpt>
<trkpt lat="36.008424" lon="135.982202">
<ele>13</ele>
</trkpt>
<trkpt lat="36.008291" lon="135.98208">
<ele>14</ele>
</trkpt>
<trkpt lat="36.007497" lon="135.981542">
<ele>15</ele>
</trkpt>
<trkpt lat="36.006921" lon="135.981181">
<ele>13</ele>
</trkpt>
<trkpt lat="36.006894" lon="135.981133">
<ele>13</ele>
</trkpt>
<trkpt lat="36.005914" lon="135.980503">
<ele>12</ele>
</trkpt>
<trkpt lat="36.005848" lon="135.980489">
<ele>12</ele>
</trkpt>
<trkpt lat="36.005695" lon="135.980391">
<ele>12</ele>
</trkpt>
<trkpt lat="36.00513" lon="135.979869">
<ele>12</ele>
</trkpt>
<trkpt lat="36.004912" lon="135.979515">
<ele>12</ele>
</trkpt>
<trkpt lat="36.004756" lon="135.979109">
<ele>12</ele>
</trkpt>
<trkpt lat="36.004339" lon="135.977744">
<ele>12</ele>
</trkpt>
<trkpt lat="36.004101" lon="135.977267">
<ele>13</ele>
</trkpt>
<trkpt lat="36.003831" lon="135.976527">
<ele>13</ele>
</trkpt>
<trkpt lat="36.003794" lon="135.976284">
<ele>12</ele>
</trkpt>
<trkpt lat="36.003791" lon="135.97605">
<ele>11</ele>
</trkpt>
<trkpt lat="36.003874" lon="135.975531">
<ele>7</ele>
</trkpt>
<trkpt lat="36.003916" lon="135.975131">
<ele>7</ele>
</trkpt>
<trkpt lat="36.003894" lon="135.97491">
<ele>7</ele>
</trkpt>
<trkpt lat="36.003827" lon="135.974631">
<ele>7</ele>
</trkpt>
<trkpt lat="36.003557" lon="135.974199">
<ele>7</ele>
</trkpt>
<trkpt lat="36.003109" lon="135.973647">
<ele>8</ele>
</trkpt>
<trkpt lat="36.003005" lon="135.973547">
<ele>9</ele>
</trkpt>
<trkpt lat="36.001524" lon="135.972677">
<ele>9</ele>
</trkpt>
<trkpt lat="36.001176" lon="135.972447">
<ele>7</ele>
</trkpt>
<trkpt lat="36.001068" lon="135.972344">
<ele>6</ele>
</trkpt>
<trkpt lat="36.000978" lon="135.972212">
<ele>5</ele>
</trkpt>
<trkpt lat="36.000921" lon="135.972053">
<ele>5</ele>
</trkpt>
<trkpt lat="36.000871" lon="135.971838">
<ele>4</ele>
</trkpt>
<trkpt lat="36.000442" lon="135.969664">
<ele>17</ele>
</trkpt>
<trkpt lat="36.000358" lon="135.969414">
<ele>17</ele>
</trkpt>
<trkpt lat="36.000206" lon="135.969048">
<ele>16</ele>
</trkpt>
<trkpt lat="35.999828" lon="135.968636">
<ele>15</ele>
</trkpt>
<trkpt lat="35.999611" lon="135.968403">
<ele>14</ele>
</trkpt>
<trkpt lat="35.999245" lon="135.968158">
<ele>14</ele>
</trkpt>
<trkpt lat="35.998783" lon="135.967896">
<ele>12</ele>
</trkpt>
<trkpt lat="35.998615" lon="135.967746">
<ele>12</ele>
</trkpt>
<trkpt lat="35.998379" lon="135.967362">
<ele>12</ele>
</trkpt>
<trkpt lat="35.997753" lon="135.966424">
<ele>10</ele>
</trkpt>
<trkpt lat="35.997652" lon="135.96616">
<ele>9</ele>
</trkpt>
<trkpt lat="35.997571" lon="135.965892">
<ele>8</ele>
</trkpt>
<trkpt lat="35.997501" lon="135.965549">
<ele>8</ele>
</trkpt>
<trkpt lat="35.997411" lon="135.965272">
<ele>9</ele>
</trkpt>
<trkpt lat="35.997159" lon="135.964904">
<ele>10</ele>
</trkpt>
<trkpt lat="35.997059" lon="135.964822">
<ele>10</ele>
</trkpt>
<trkpt lat="35.99661" lon="135.964613">
<ele>9</ele>
</trkpt>
<trkpt lat="35.996188" lon="135.96446">
<ele>8</ele>
</trkpt>
<trkpt lat="35.995996" lon="135.96444">
<ele>8</ele>
</trkpt>
<trkpt lat="35.995726" lon="135.964449">
<ele>8</ele>
</trkpt>
<trkpt lat="35.995456" lon="135.964484">
<ele>8</ele>
</trkpt>
<trkpt lat="35.994666" lon="135.964759">
<ele>11</ele>
</trkpt>
<trkpt lat="35.994191" lon="135.964889">
<ele>11</ele>
</trkpt>
<trkpt lat="35.993184" lon="135.965243">
<ele>5</ele>
</trkpt>
<trkpt lat="35.992624" lon="135.96553">
<ele>4</ele>
</trkpt>
<trkpt lat="35.99229" lon="135.965674">
<ele>4</ele>
</trkpt>
<trkpt lat="35.992136" lon="135.965719">
<ele>4</ele>
</trkpt>
<trkpt lat="35.991981" lon="135.965721">
<ele>4</ele>
</trkpt>
<trkpt lat="35.991862" lon="135.965664">
<ele>5</ele>
</trkpt>
<trkpt lat="35.99172" lon="135.965546">
<ele>10</ele>
</trkpt>
<trkpt lat="35.991337" lon="135.965128">
<ele>27</ele>
</trkpt>
<trkpt lat="35.990352" lon="135.963626">
<ele>68</ele>
</trkpt>
<trkpt lat="35.989799" lon="135.963086">
<ele>65</ele>
</trkpt>
<trkpt lat="35.988554" lon="135.962568">
<ele>17</ele>
</trkpt>
<trkpt lat="35.988281" lon="135.962551">
<ele>7</ele>
</trkpt>
<trkpt lat="35.988147" lon="135.962606">
<ele>7</ele>
</trkpt>
<trkpt lat="35.987389" lon="135.96321">
<ele>6</ele>
</trkpt>
<trkpt lat="35.987206" lon="135.963306">
<ele>7</ele>
</trkpt>
<trkpt lat="35.987128" lon="135.963321">
<ele>8</ele>
</trkpt>
<trkpt lat="35.987045" lon="135.963308">
<ele>8</ele>
</trkpt>
<trkpt lat="35.986638" lon="135.963103">
<ele>9</ele>
</trkpt>
<trkpt lat="35.986531" lon="135.96297">
<ele>7</ele>
</trkpt>
<trkpt lat="35.986464" lon="135.962755">
<ele>5</ele>
</trkpt>
<trkpt lat="35.98641" lon="135.962391">
<ele>1</ele>
</trkpt>
<trkpt lat="35.986361" lon="135.96224">
<ele>0</ele>
</trkpt>
<trkpt lat="35.986111" lon="135.961875">
<ele>1</ele>
</trkpt>
<trkpt lat="35.985839" lon="135.96166">
<ele>3</ele>
</trkpt>
<trkpt lat="35.983812" lon="135.959412">
<ele>7</ele>
</trkpt>
<trkpt lat="35.983492" lon="135.959125">
<ele>7</ele>
</trkpt>
<trkpt lat="35.983291" lon="135.959011">
<ele>7</ele>
</trkpt>
<trkpt lat="35.982394" lon="135.958745">
<ele>15</ele>
</trkpt>
<trkpt lat="35.982009" lon="135.958768">
<ele>20</ele>
</trkpt>
<trkpt lat="35.981783" lon="135.958809">
<ele>19</ele>
</trkpt>
<trkpt lat="35.981404" lon="135.95893">
<ele>17</ele>
</trkpt>
<trkpt lat="35.9798" lon="135.960413">
<ele>18</ele>
</trkpt>
<trkpt lat="35.979526" lon="135.960636">
<ele>18</ele>
</trkpt>
<trkpt lat="35.979291" lon="135.960757">
<ele>16</ele>
</trkpt>
<trkpt lat="35.978672" lon="135.961014">
<ele>19</ele>
</trkpt>
<trkpt lat="35.978021" lon="135.961134">
<ele>33</ele>
</trkpt>
<trkpt lat="35.976698" lon="135.961592">
<ele>84</ele>
</trkpt>
<trkpt lat="35.976156" lon="135.961831">
<ele>88</ele>
</trkpt>
<trkpt lat="35.97542" lon="135.962235">
<ele>104</ele>
</trkpt>
<trkpt lat="35.974243" lon="135.963117">
<ele>126</ele>
</trkpt>
<trkpt lat="35.971595" lon="135.965218">
<ele>86</ele>
</trkpt>
<trkpt lat="35.9704" lon="135.96606">
<ele>10</ele>
</trkpt>
<trkpt lat="35.970227" lon="135.96625">
<ele>8</ele>
</trkpt>
<trkpt lat="35.970076" lon="135.966542">
<ele>8</ele>
</trkpt>
<trkpt lat="35.969855" lon="135.967093">
<ele>8</ele>
</trkpt>
<trkpt lat="35.969761" lon="135.967255">
<ele>8</ele>
</trkpt>
<trkpt lat="35.969615" lon="135.967422">
<ele>8</ele>
</trkpt>
<trkpt lat="35.968985" lon="135.967839">
<ele>3</ele>
</trkpt>
<trkpt lat="35.968867" lon="135.967953">
<ele>3</ele>
</trkpt>
<trkpt lat="35.968515" lon="135.968418">
<ele>7</ele>
</trkpt>
<trkpt lat="35.968355" lon="135.968543">
<ele>9</ele>
</trkpt>
<trkpt lat="35.968256" lon="135.968568">
<ele>10</ele>
</trkpt>
<trkpt lat="35.967906" lon="135.968513">
<ele>13</ele>
</trkpt>
<trkpt lat="35.967283" lon="135.968274">
<ele>22</ele>
</trkpt>
<trkpt lat="35.967153" lon="135.968263">
<ele>26</ele>
</trkpt>
<trkpt lat="35.966995" lon="135.968303">
<ele>31</ele>
</trkpt>
<trkpt lat="35.96533" lon="135.969307">
<ele>41</ele>
</trkpt>
<trkpt lat="35.965048" lon="135.969516">
<ele>46</ele>
</trkpt>
<trkpt lat="35.962344" lon="135.971211">
<ele>27</ele>
</trkpt>
<trkpt lat="35.962271" lon="135.971303">
<ele>28</ele>
</trkpt>
<trkpt lat="35.962191" lon="135.971441">
<ele>29</ele>
</trkpt>
<trkpt lat="35.962042" lon="135.971913">
<ele>34</ele>
</trkpt>
<trkpt lat="35.961933" lon="135.972148">
<ele>30</ele>
</trkpt>
<trkpt lat="35.961783" lon="135.972285">
<ele>26</ele>
</trkpt>
<trkpt lat="35.961215" lon="135.972463">
<ele>16</ele>
</trkpt>
<trkpt lat="35.961115" lon="135.972466">
<ele>16</ele>
</trkpt>
<trkpt lat="35.96098" lon="135.972576">
<ele>16</ele>
</trkpt>
<trkpt lat="35.960876" lon="135.972771">
<ele>16</ele>
</trkpt>
<trkpt lat="35.960542" lon="135.973547">
<ele>17</ele>
</trkpt>
<trkpt lat="35.960422" lon="135.973783">
<ele>17</ele>
</trkpt>
<trkpt lat="35.960314" lon="135.973891">
<ele>18</ele>
</trkpt>
<trkpt lat="35.960154" lon="135.973996">
<ele>19</ele>
</trkpt>
<trkpt lat="35.958741" lon="135.974535">
<ele>17</ele>
</trkpt>
<trkpt lat="35.958522" lon="135.974841">
<ele>16</ele>
</trkpt>
<trkpt lat="35.958277" lon="135.975416">
<ele>14</ele>
</trkpt>
<trkpt lat="35.958188" lon="135.975584">
<ele>13</ele>
</trkpt>
<trkpt lat="35.958066" lon="135.97576">
<ele>13</ele>
</trkpt>
<trkpt lat="35.957635" lon="135.976198">
<ele>13</ele>
</trkpt>
<trkpt lat="35.957515" lon="135.976481">
<ele>13</ele>
</trkpt>
<trkpt lat="35.957389" lon="135.977102">
<ele>12</ele>
</trkpt>
<trkpt lat="35.957171" lon="135.977515">
<ele>12</ele>
</trkpt>
<trkpt lat="35.95695" lon="135.977821">
<ele>11</ele>
</trkpt>
<trkpt lat="35.95678" lon="135.978153">
<ele>10</ele>
</trkpt>
<trkpt lat="35.95652" lon="135.978861">
<ele>7</ele>
</trkpt>
<trkpt lat="35.956026" lon="135.979856">
<ele>5</ele>
</trkpt>
<trkpt lat="35.955865" lon="135.980212">
<ele>6</ele>
</trkpt>
<trkpt lat="35.955812" lon="135.98043">
<ele>6</ele>
</trkpt>
<trkpt lat="35.95574" lon="135.981439">
<ele>9</ele>
</trkpt>
<trkpt lat="35.955671" lon="135.981682">
<ele>9</ele>
</trkpt>
<trkpt lat="35.955573" lon="135.981834">
<ele>8</ele>
</trkpt>
<trkpt lat="35.955461" lon="135.981911">
<ele>8</ele>
</trkpt>
<trkpt lat="35.955087" lon="135.981947">
<ele>6</ele>
</trkpt>
<trkpt lat="35.954575" lon="135.981841">
<ele>6</ele>
</trkpt>
<trkpt lat="35.954306" lon="135.981894">
<ele>6</ele>
</trkpt>
<trkpt lat="35.954164" lon="135.981985">
<ele>6</ele>
</trkpt>
<trkpt lat="35.954055" lon="135.982089">
<ele>5</ele>
</trkpt>
<trkpt lat="35.953782" lon="135.982543">
<ele>5</ele>
</trkpt>
<trkpt lat="35.953646" lon="135.982817">
<ele>5</ele>
</trkpt>
<trkpt lat="35.953591" lon="135.982968">
<ele>4</ele>
</trkpt>
<trkpt lat="35.953478" lon="135.98361">
<ele>4</ele>
</trkpt>
<trkpt lat="35.953283" lon="135.984044">
<ele>4</ele>
</trkpt>
<trkpt lat="35.952636" lon="135.985181">
<ele>5</ele>
</trkpt>
<trkpt lat="35.952547" lon="135.985262">
<ele>5</ele>
</trkpt>
<trkpt lat="35.951415" lon="135.985882">
<ele>5</ele>
</trkpt>
<trkpt lat="35.95124" lon="135.985955">
<ele>5</ele>
</trkpt>
<trkpt lat="35.950586" lon="135.98608">
<ele>5</ele>
</trkpt>
<trkpt lat="35.950231" lon="135.986192">
<ele>4</ele>
</trkpt>
<trkpt lat="35.949202" lon="135.986707">
<ele>4</ele>
</trkpt>
<trkpt lat="35.948523" lon="135.987139">
<ele>7</ele>
</trkpt>
<trkpt lat="35.948114" lon="135.987317">
<ele>9</ele>
</trkpt>
<trkpt lat="35.947693" lon="135.987387">
<ele>11</ele>
</trkpt>
<trkpt lat="35.947546" lon="135.987395">
<ele>11</ele>
</trkpt>
<trkpt lat="35.947297" lon="135.987338">
<ele>11</ele>
</trkpt>
<trkpt lat="35.947117" lon="135.987331">
<ele>11</ele>
</trkpt>
<trkpt lat="35.946392" lon="135.987501">
<ele>10</ele>
</trkpt>
<trkpt lat="35.946166" lon="135.987496">
<ele>10</ele>
</trkpt>
<trkpt lat="35.945939" lon="135.98745">
<ele>11</ele>
</trkpt>
<trkpt lat="35.94527" lon="135.987192">
<ele>18</ele>
</trkpt>
<trkpt lat="35.944646" lon="135.987338">
<ele>39</ele>
</trkpt>
<trkpt lat="35.944044" lon="135.987539">
<ele>40</ele>
</trkpt>
<trkpt lat="35.943417" lon="135.987943">
<ele>23</ele>
</trkpt>
<trkpt lat="35.943116" lon="135.988322">
<ele>16</ele>
</trkpt>
<trkpt lat="35.942946" lon="135.988583">
<ele>11</ele>
</trkpt>
<trkpt lat="35.942869" lon="135.988823">
<ele>10</ele>
</trkpt>
<trkpt lat="35.942826" lon="135.989009">
<ele>10</ele>
</trkpt>
<trkpt lat="35.942804" lon="135.989174">
<ele>9</ele>
</trkpt>
<trkpt lat="35.942802" lon="135.989411">
<ele>9</ele>
</trkpt>
<trkpt lat="35.942764" lon="135.989603">
<ele>9</ele>
</trkpt>
<trkpt lat="35.942699" lon="135.989829">
<ele>8</ele>
</trkpt>
<trkpt lat="35.942528" lon="135.990167">
<ele>8</ele>
</trkpt>
<trkpt lat="35.942046" lon="135.990984">
<ele>6</ele>
</trkpt>
<trkpt lat="35.94166" lon="135.991577">
<ele>5</ele>
</trkpt>
<trkpt lat="35.941447" lon="135.992017">
<ele>6</ele>
</trkpt>
<trkpt lat="35.941101" lon="135.992927">
<ele>7</ele>
</trkpt>
<trkpt lat="35.94103" lon="135.993027">
<ele>7</ele>
</trkpt>
<trkpt lat="35.940939" lon="135.993103">
<ele>7</ele>
</trkpt>
<trkpt lat="35.940766" lon="135.993202">
<ele>7</ele>
</trkpt>
<trkpt lat="35.940588" lon="135.993233">
<ele>8</ele>
</trkpt>
<trkpt lat="35.940448" lon="135.993291">
<ele>8</ele>
</trkpt>
<trkpt lat="35.939765" lon="135.993468">
<ele>8</ele>
</trkpt>
<trkpt lat="35.939662" lon="135.993596">
<ele>8</ele>
</trkpt>
<trkpt lat="35.939449" lon="135.994354">
<ele>6</ele>
</trkpt>
<trkpt lat="35.939396" lon="135.994491">
<ele>6</ele>
</trkpt>
<trkpt lat="35.939289" lon="135.994688">
<ele>6</ele>
</trkpt>
<trkpt lat="35.939172" lon="135.994816">
<ele>6</ele>
</trkpt>
<trkpt lat="35.939016" lon="135.994919">
<ele>6</ele>
</trkpt>
<trkpt lat="35.938388" lon="135.995193">
<ele>8</ele>
</trkpt>
<trkpt lat="35.938296" lon="135.995284">
<ele>9</ele>
</trkpt>
<trkpt lat="35.937656" lon="135.995608">
<ele>11</ele>
</trkpt>
<trkpt lat="35.937505" lon="135.995705">
<ele>11</ele>
</trkpt>
<trkpt lat="35.937181" lon="135.996034">
<ele>11</ele>
</trkpt>
<trkpt lat="35.935281" lon="135.997673">
<ele>9</ele>
</trkpt>
<trkpt lat="35.934998" lon="135.99799">
<ele>9</ele>
</trkpt>
<trkpt lat="35.93402" lon="135.998356">
<ele>5</ele>
</trkpt>
<trkpt lat="35.933019" lon="135.998388">
<ele>5</ele>
</trkpt>
<trkpt lat="35.931357" lon="135.998524">
<ele>5</ele>
</trkpt>
<trkpt lat="35.930601" lon="135.998561">
<ele>4</ele>
</trkpt>
<trkpt lat="35.929812" lon="135.998636">
<ele>7</ele>
</trkpt>
<trkpt lat="35.927301" lon="135.998596">
<ele>7</ele>
</trkpt>
<trkpt lat="35.925714" lon="135.998526">
<ele>9</ele>
</trkpt>
<trkpt lat="35.925433" lon="135.998475">
<ele>10</ele>
</trkpt>
<trkpt lat="35.924724" lon="135.998258">
<ele>11</ele>
</trkpt>
<trkpt lat="35.924432" lon="135.9981">
<ele>11</ele>
</trkpt>
<trkpt lat="35.923896" lon="135.997747">
<ele>12</ele>
</trkpt>
<trkpt lat="35.923739" lon="135.997686">
<ele>13</ele>
</trkpt>
<trkpt lat="35.923585" lon="135.997696">
<ele>13</ele>
</trkpt>
<trkpt lat="35.923379" lon="135.997799">
<ele>12</ele>
</trkpt>
<trkpt lat="35.923191" lon="135.997868">
<ele>10</ele>
</trkpt>
<trkpt lat="35.923002" lon="135.997901">
<ele>8</ele>
</trkpt>
<trkpt lat="35.922812" lon="135.997905">
<ele>6</ele>
</trkpt>
<trkpt lat="35.92157" lon="135.997592">
<ele>8</ele>
</trkpt>
<trkpt lat="35.92137" lon="135.997594">
<ele>8</ele>
</trkpt>
<trkpt lat="35.92111" lon="135.997636">
<ele>8</ele>
</trkpt>
<trkpt lat="35.920384" lon="135.997706">
<ele>8</ele>
</trkpt>
<trkpt lat="35.92111" lon="135.997636">
<ele>7</ele>
</trkpt>
<trkpt lat="35.92137" lon="135.997594">
<ele>6</ele>
</trkpt>
<trkpt lat="35.92157" lon="135.997592">
<ele>6</ele>
</trkpt>
<trkpt lat="35.922812" lon="135.997905">
<ele>10</ele>
</trkpt>
<trkpt lat="35.923002" lon="135.997901">
<ele>10</ele>
</trkpt>
<trkpt lat="35.923191" lon="135.997868">
<ele>10</ele>
</trkpt>
<trkpt lat="35.923379" lon="135.997799">
<ele>10</ele>
</trkpt>
<trkpt lat="35.923585" lon="135.997696">
<ele>10</ele>
</trkpt>
<trkpt lat="35.923739" lon="135.997686">
<ele>10</ele>
</trkpt>
<trkpt lat="35.923896" lon="135.997747">
<ele>10</ele>
</trkpt>
<trkpt lat="35.924432" lon="135.9981">
<ele>10</ele>
</trkpt>
<trkpt lat="35.924724" lon="135.998258">
<ele>10</ele>
</trkpt>
<trkpt lat="35.925433" lon="135.998475">
<ele>8</ele>
</trkpt>
<trkpt lat="35.925714" lon="135.998526">
<ele>7</ele>
</trkpt>
<trkpt lat="35.927301" lon="135.998596">
<ele>6</ele>
</trkpt>
<trkpt lat="35.929812" lon="135.998636">
<ele>5</ele>
</trkpt>
<trkpt lat="35.930601" lon="135.998561">
<ele>5</ele>
</trkpt>
<trkpt lat="35.931357" lon="135.998524">
<ele>8</ele>
</trkpt>
<trkpt lat="35.933019" lon="135.998388">
<ele>5</ele>
</trkpt>
<trkpt lat="35.93402" lon="135.998356">
<ele>7</ele>
</trkpt>
<trkpt lat="35.934998" lon="135.99799">
<ele>9</ele>
</trkpt>
<trkpt lat="35.935281" lon="135.997673">
<ele>9</ele>
</trkpt>
<trkpt lat="35.937181" lon="135.996034">
<ele>11</ele>
</trkpt>
<trkpt lat="35.937505" lon="135.995705">
<ele>9</ele>
</trkpt>
<trkpt lat="35.937656" lon="135.995608">
<ele>9</ele>
</trkpt>
<trkpt lat="35.938296" lon="135.995284">
<ele>6</ele>
</trkpt>
<trkpt lat="35.938388" lon="135.995193">
<ele>6</ele>
</trkpt>
<trkpt lat="35.939016" lon="135.994919">
<ele>7</ele>
</trkpt>
<trkpt lat="35.939172" lon="135.994816">
<ele>7</ele>
</trkpt>
<trkpt lat="35.939289" lon="135.994688">
<ele>8</ele>
</trkpt>
<trkpt lat="35.939396" lon="135.994491">
<ele>8</ele>
</trkpt>
<trkpt lat="35.939449" lon="135.994354">
<ele>9</ele>
</trkpt>
<trkpt lat="35.939662" lon="135.993596">
<ele>9</ele>
</trkpt>
<trkpt lat="35.939765" lon="135.993468">
<ele>9</ele>
</trkpt>
<trkpt lat="35.940448" lon="135.993291">
<ele>8</ele>
</trkpt>
<trkpt lat="35.940588" lon="135.993233">
<ele>8</ele>
</trkpt>
<trkpt lat="35.940766" lon="135.993202">
<ele>7</ele>
</trkpt>
<trkpt lat="35.940939" lon="135.993103">
<ele>6</ele>
</trkpt>
<trkpt lat="35.94103" lon="135.993027">
<ele>6</ele>
</trkpt>
<trkpt lat="35.941101" lon="135.992927">
<ele>6</ele>
</trkpt>
<trkpt lat="35.941447" lon="135.992017">
<ele>5</ele>
</trkpt>
<trkpt lat="35.94166" lon="135.991577">
<ele>6</ele>
</trkpt>
<trkpt lat="35.942046" lon="135.990984">
<ele>7</ele>
</trkpt>
<trkpt lat="35.942528" lon="135.990167">
<ele>9</ele>
</trkpt>
<trkpt lat="35.942699" lon="135.989829">
<ele>10</ele>
</trkpt>
<trkpt lat="35.942764" lon="135.989603">
<ele>12</ele>
</trkpt>
<trkpt lat="35.942802" lon="135.989411">
<ele>14</ele>
</trkpt>
<trkpt lat="35.942804" lon="135.989174">
<ele>16</ele>
</trkpt>
<trkpt lat="35.942826" lon="135.989009">
<ele>17</ele>
</trkpt>
<trkpt lat="35.942869" lon="135.988823">
<ele>19</ele>
</trkpt>
<trkpt lat="35.942946" lon="135.988583">
<ele>23</ele>
</trkpt>
<trkpt lat="35.943116" lon="135.988322">
<ele>32</ele>
</trkpt>
<trkpt lat="35.943417" lon="135.987943">
<ele>46</ele>
</trkpt>
<trkpt lat="35.944044" lon="135.987539">
<ele>34</ele>
</trkpt>
<trkpt lat="35.944646" lon="135.987338">
<ele>20</ele>
</trkpt>
<trkpt lat="35.94527" lon="135.987192">
<ele>10</ele>
</trkpt>
<trkpt lat="35.945939" lon="135.98745">
<ele>10</ele>
</trkpt>
<trkpt lat="35.946166" lon="135.987496">
<ele>10</ele>
</trkpt>
<trkpt lat="35.946392" lon="135.987501">
<ele>10</ele>
</trkpt>
<trkpt lat="35.947117" lon="135.987331">
<ele>10</ele>
</trkpt>
<trkpt lat="35.947297" lon="135.987338">
<ele>9</ele>
</trkpt>
<trkpt lat="35.947546" lon="135.987395">
<ele>8</ele>
</trkpt>
<trkpt lat="35.947693" lon="135.987387">
<ele>7</ele>
</trkpt>
<trkpt lat="35.948114" lon="135.987317">
<ele>5</ele>
</trkpt>
<trkpt lat="35.948523" lon="135.987139">
<ele>3</ele>
</trkpt>
<trkpt lat="35.949202" lon="135.986707">
<ele>4</ele>
</trkpt>
<trkpt lat="35.950231" lon="135.986192">
<ele>5</ele>
</trkpt>
<trkpt lat="35.950586" lon="135.98608">
<ele>5</ele>
</trkpt>
<trkpt lat="35.95124" lon="135.985955">
<ele>4</ele>
</trkpt>
<trkpt lat="35.951415" lon="135.985882">
<ele>4</ele>
</trkpt>
<trkpt lat="35.952547" lon="135.985262">
<ele>4</ele>
</trkpt>
<trkpt lat="35.952636" lon="135.985181">
<ele>4</ele>
</trkpt>
<trkpt lat="35.953283" lon="135.984044">
<ele>5</ele>
</trkpt>
<trkpt lat="35.953478" lon="135.98361">
<ele>6</ele>
</trkpt>
<trkpt lat="35.953591" lon="135.982968">
<ele>6</ele>
</trkpt>
<trkpt lat="35.953646" lon="135.982817">
<ele>6</ele>
</trkpt>
<trkpt lat="35.953782" lon="135.982543">
<ele>6</ele>
</trkpt>
<trkpt lat="35.954055" lon="135.982089">
<ele>6</ele>
</trkpt>
<trkpt lat="35.954164" lon="135.981985">
<ele>6</ele>
</trkpt>
<trkpt lat="35.954306" lon="135.981894">
<ele>6</ele>
</trkpt>
<trkpt lat="35.954575" lon="135.981841">
<ele>6</ele>
</trkpt>
<trkpt lat="35.955087" lon="135.981947">
<ele>7</ele>
</trkpt>
<trkpt lat="35.955461" lon="135.981911">
<ele>7</ele>
</trkpt>
<trkpt lat="35.955573" lon="135.981834">
<ele>7</ele>
</trkpt>
<trkpt lat="35.955671" lon="135.981682">
<ele>7</ele>
</trkpt>
<trkpt lat="35.95574" lon="135.981439">
<ele>7</ele>
</trkpt>
<trkpt lat="35.955812" lon="135.98043">
<ele>5</ele>
</trkpt>
<trkpt lat="35.955865" lon="135.980212">
<ele>5</ele>
</trkpt>
<trkpt lat="35.956026" lon="135.979856">
<ele>4</ele>
</trkpt>
<trkpt lat="35.95652" lon="135.978861">
<ele>9</ele>
</trkpt>
<trkpt lat="35.95678" lon="135.978153">
<ele>13</ele>
</trkpt>
<trkpt lat="35.95695" lon="135.977821">
<ele>14</ele>
</trkpt>
<trkpt lat="35.957171" lon="135.977515">
<ele>15</ele>
</trkpt>
<trkpt lat="35.957389" lon="135.977102">
<ele>12</ele>
</trkpt>
<trkpt lat="35.957515" lon="135.976481">
<ele>11</ele>
</trkpt>
<trkpt lat="35.957635" lon="135.976198">
<ele>13</ele>
</trkpt>
<trkpt lat="35.958066" lon="135.97576">
<ele>18</ele>
</trkpt>
<trkpt lat="35.958188" lon="135.975584">
<ele>18</ele>
</trkpt>
<trkpt lat="35.958277" lon="135.975416">
<ele>17</ele>
</trkpt>
<trkpt lat="35.958522" lon="135.974841">
<ele>16</ele>
</trkpt>
<trkpt lat="35.958741" lon="135.974535">
<ele>18</ele>
</trkpt>
<trkpt lat="35.960154" lon="135.973996">
<ele>17</ele>
</trkpt>
<trkpt lat="35.960314" lon="135.973891">
<ele>17</ele>
</trkpt>
<trkpt lat="35.960422" lon="135.973783">
<ele>17</ele>
</trkpt>
<trkpt lat="35.960542" lon="135.973547">
<ele>17</ele>
</trkpt>
<trkpt lat="35.960876" lon="135.972771">
<ele>23</ele>
</trkpt>
<trkpt lat="35.96098" lon="135.972576">
<ele>26</ele>
</trkpt>
<trkpt lat="35.961115" lon="135.972466">
<ele>29</ele>
</trkpt>
<trkpt lat="35.961215" lon="135.972463">
<ele>31</ele>
</trkpt>
<trkpt lat="35.961783" lon="135.972285">
<ele>26</ele>
</trkpt>
<trkpt lat="35.961933" lon="135.972148">
<ele>24</ele>
</trkpt>
<trkpt lat="35.962042" lon="135.971913">
<ele>24</ele>
</trkpt>
<trkpt lat="35.962191" lon="135.971441">
<ele>34</ele>
</trkpt>
<trkpt lat="35.962271" lon="135.971303">
<ele>38</ele>
</trkpt>
<trkpt lat="35.962344" lon="135.971211">
<ele>41</ele>
</trkpt>
<trkpt lat="35.965048" lon="135.969516">
<ele>37</ele>
</trkpt>
<trkpt lat="35.96533" lon="135.969307">
<ele>40</ele>
</trkpt>
<trkpt lat="35.966995" lon="135.968303">
<ele>16</ele>
</trkpt>
<trkpt lat="35.967153" lon="135.968263">
<ele>13</ele>
</trkpt>
<trkpt lat="35.967283" lon="135.968274">
<ele>10</ele>
</trkpt>
<trkpt lat="35.967906" lon="135.968513">
<ele>5</ele>
</trkpt>
<trkpt lat="35.968256" lon="135.968568">
<ele>4</ele>
</trkpt>
<trkpt lat="35.968355" lon="135.968543">
<ele>4</ele>
</trkpt>
<trkpt lat="35.968515" lon="135.968418">
<ele>5</ele>
</trkpt>
<trkpt lat="35.968867" lon="135.967953">
<ele>6</ele>
</trkpt>
<trkpt lat="35.968985" lon="135.967839">
<ele>7</ele>
</trkpt>
<trkpt lat="35.969615" lon="135.967422">
<ele>10</ele>
</trkpt>
<trkpt lat="35.969761" lon="135.967255">
<ele>10</ele>
</trkpt>
<trkpt lat="35.969855" lon="135.967093">
<ele>9</ele>
</trkpt>
<trkpt lat="35.970076" lon="135.966542">
<ele>7</ele>
</trkpt>
<trkpt lat="35.970227" lon="135.96625">
<ele>17</ele>
</trkpt>
<trkpt lat="35.9704" lon="135.96606">
<ele>36</ele>
</trkpt>
<trkpt lat="35.971595" lon="135.965218">
<ele>128</ele>
</trkpt>
<trkpt lat="35.974243" lon="135.963117">
<ele>115</ele>
</trkpt>
<trkpt lat="35.97542" lon="135.962235">
<ele>89</ele>
</trkpt>
<trkpt lat="35.976156" lon="135.961831">
<ele>83</ele>
</trkpt>
<trkpt lat="35.976698" lon="135.961592">
<ele>64</ele>
</trkpt>
<trkpt lat="35.978021" lon="135.961134">
<ele>14</ele>
</trkpt>
<trkpt lat="35.978672" lon="135.961014">
<ele>17</ele>
</trkpt>
<trkpt lat="35.979291" lon="135.960757">
<ele>18</ele>
</trkpt>
<trkpt lat="35.979526" lon="135.960636">
<ele>18</ele>
</trkpt>
<trkpt lat="35.9798" lon="135.960413">
<ele>17</ele>
</trkpt>
<trkpt lat="35.981404" lon="135.95893">
<ele>15</ele>
</trkpt>
<trkpt lat="35.981783" lon="135.958809">
<ele>11</ele>
</trkpt>
<trkpt lat="35.982009" lon="135.958768">
<ele>9</ele>
</trkpt>
<trkpt lat="35.982394" lon="135.958745">
<ele>8</ele>
</trkpt>
<trkpt lat="35.983291" lon="135.959011">
<ele>7</ele>
</trkpt>
<trkpt lat="35.983492" lon="135.959125">
<ele>7</ele>
</trkpt>
<trkpt lat="35.983812" lon="135.959412">
<ele>8</ele>
</trkpt>
<trkpt lat="35.985839" lon="135.96166">
<ele>1</ele>
</trkpt>
<trkpt lat="35.986111" lon="135.961875">
<ele>4</ele>
</trkpt>
<trkpt lat="35.986361" lon="135.96224">
<ele>6</ele>
</trkpt>
<trkpt lat="35.98641" lon="135.962391">
<ele>6</ele>
</trkpt>
<trkpt lat="35.986464" lon="135.962755">
<ele>6</ele>
</trkpt>
<trkpt lat="35.986531" lon="135.96297">
<ele>6</ele>
</trkpt>
<trkpt lat="35.986638" lon="135.963103">
<ele>6</ele>
</trkpt>
<trkpt lat="35.987045" lon="135.963308">
<ele>6</ele>
</trkpt>
<trkpt lat="35.987128" lon="135.963321">
<ele>6</ele>
</trkpt>
<trkpt lat="35.987206" lon="135.963306">
<ele>6</ele>
</trkpt>
<trkpt lat="35.987389" lon="135.96321">
<ele>6</ele>
</trkpt>
<trkpt lat="35.988147" lon="135.962606">
<ele>30</ele>
</trkpt>
<trkpt lat="35.988281" lon="135.962551">
<ele>35</ele>
</trkpt>
<trkpt lat="35.988554" lon="135.962568">
<ele>47</ele>
</trkpt>
<trkpt lat="35.989799" lon="135.963086">
<ele>64</ele>
</trkpt>
<trkpt lat="35.990352" lon="135.963626">
<ele>52</ele>
</trkpt>
<trkpt lat="35.991337" lon="135.965128">
<ele>7</ele>
</trkpt>
<trkpt lat="35.99172" lon="135.965546">
<ele>5</ele>
</trkpt>
<trkpt lat="35.991862" lon="135.965664">
<ele>5</ele>
</trkpt>
<trkpt lat="35.991981" lon="135.965721">
<ele>5</ele>
</trkpt>
<trkpt lat="35.992136" lon="135.965719">
<ele>5</ele>
</trkpt>
<trkpt lat="35.99229" lon="135.965674">
<ele>6</ele>
</trkpt>
<trkpt lat="35.992624" lon="135.96553">
<ele>6</ele>
</trkpt>
<trkpt lat="35.993184" lon="135.965243">
<ele>9</ele>
</trkpt>
<trkpt lat="35.994191" lon="135.964889">
<ele>8</ele>
</trkpt>
<trkpt lat="35.994666" lon="135.964759">
<ele>8</ele>
</trkpt>
<trkpt lat="35.995456" lon="135.964484">
<ele>9</ele>
</trkpt>
<trkpt lat="35.995726" lon="135.964449">
<ele>9</ele>
</trkpt>
<trkpt lat="35.995996" lon="135.96444">
<ele>9</ele>
</trkpt>
<trkpt lat="35.996188" lon="135.96446">
<ele>9</ele>
</trkpt>
<trkpt lat="35.99661" lon="135.964613">
<ele>9</ele>
</trkpt>
<trkpt lat="35.997059" lon="135.964822">
<ele>9</ele>
</trkpt>
<trkpt lat="35.997159" lon="135.964904">
<ele>9</ele>
</trkpt>
<trkpt lat="35.997411" lon="135.965272">
<ele>10</ele>
</trkpt>
<trkpt lat="35.997501" lon="135.965549">
<ele>10</ele>
</trkpt>
<trkpt lat="35.997571" lon="135.965892">
<ele>11</ele>
</trkpt>
<trkpt lat="35.997652" lon="135.96616">
<ele>11</ele>
</trkpt>
<trkpt lat="35.997753" lon="135.966424">
<ele>12</ele>
</trkpt>
<trkpt lat="35.998379" lon="135.967362">
<ele>13</ele>
</trkpt>
<trkpt lat="35.998615" lon="135.967746">
<ele>14</ele>
</trkpt>
<trkpt lat="35.998783" lon="135.967896">
<ele>14</ele>
</trkpt>
<trkpt lat="35.999245" lon="135.968158">
<ele>15</ele>
</trkpt>
<trkpt lat="35.999611" lon="135.968403">
<ele>16</ele>
</trkpt>
<trkpt lat="36.000206" lon="135.969048">
<ele>13</ele>
</trkpt>
<trkpt lat="36.000358" lon="135.969414">
<ele>10</ele>
</trkpt>
<trkpt lat="36.000442" lon="135.969664">
<ele>7</ele>
</trkpt>
<trkpt lat="36.000921" lon="135.972053">
<ele>8</ele>
</trkpt>
<trkpt lat="36.000978" lon="135.972212">
<ele>8</ele>
</trkpt>
<trkpt lat="36.001068" lon="135.972344">
<ele>8</ele>
</trkpt>
<trkpt lat="36.001176" lon="135.972447">
<ele>8</ele>
</trkpt>
<trkpt lat="36.001524" lon="135.972677">
<ele>8</ele>
</trkpt>
<trkpt lat="36.003005" lon="135.973547">
<ele>8</ele>
</trkpt>
<trkpt lat="36.003109" lon="135.973647">
<ele>7</ele>
</trkpt>
<trkpt lat="36.003557" lon="135.974199">
<ele>5</ele>
</trkpt>
<trkpt lat="36.003827" lon="135.974631">
<ele>7</ele>
</trkpt>
<trkpt lat="36.003894" lon="135.97491">
<ele>9</ele>
</trkpt>
<trkpt lat="36.003916" lon="135.975131">
<ele>10</ele>
</trkpt>
<trkpt lat="36.003874" lon="135.975531">
<ele>12</ele>
</trkpt>
<trkpt lat="36.003791" lon="135.97605">
<ele>12</ele>
</trkpt>
<trkpt lat="36.003794" lon="135.976284">
<ele>12</ele>
</trkpt>
<trkpt lat="36.003831" lon="135.976527">
<ele>12</ele>
</trkpt>
<trkpt lat="36.004101" lon="135.977267">
<ele>10</ele>
</trkpt>
<trkpt lat="36.004339" lon="135.977744">
<ele>10</ele>
</trkpt>
<trkpt lat="36.004756" lon="135.979109">
<ele>11</ele>
</trkpt>
<trkpt lat="36.004912" lon="135.979515">
<ele>11</ele>
</trkpt>
<trkpt lat="36.00513" lon="135.979869">
<ele>11</ele>
</trkpt>
<trkpt lat="36.005695" lon="135.980391">
<ele>13</ele>
</trkpt>
<trkpt lat="36.005848" lon="135.980489">
<ele>13</ele>
</trkpt>
<trkpt lat="36.005914" lon="135.980503">
<ele>13</ele>
</trkpt>
<trkpt lat="36.006894" lon="135.981133">
<ele>16</ele>
</trkpt>
<trkpt lat="36.006921" lon="135.981181">
<ele>16</ele>
</trkpt>
<trkpt lat="36.007497" lon="135.981542">
<ele>15</ele>
</trkpt>
<trkpt lat="36.008291" lon="135.98208">
<ele>13</ele>
</trkpt>
<trkpt lat="36.008424" lon="135.982202">
<ele>14</ele>
</trkpt>
<trkpt lat="36.008475" lon="135.9823">
<ele>15</ele>
</trkpt>
<trkpt lat="36.008494" lon="135.98241">
<ele>15</ele>
</trkpt>
<trkpt lat="36.008427" lon="135.983502">
<ele>10</ele>
</trkpt>
<trkpt lat="36.008332" lon="135.984347">
<ele>6</ele>
</trkpt>
<trkpt lat="36.008342" lon="135.984877">
<ele>4</ele>
</trkpt>
<trkpt lat="36.008367" lon="135.985042">
<ele>4</ele>
</trkpt>
<trkpt lat="36.008442" lon="135.985191">
<ele>3</ele>
</trkpt>
<trkpt lat="36.009329" lon="135.9863">
<ele>6</ele>
</trkpt>
<trkpt lat="36.010069" lon="135.987081">
<ele>4</ele>
</trkpt>
<trkpt lat="36.011953" lon="135.989012">
<ele>5</ele>
</trkpt>
<trkpt lat="36.012052" lon="135.989152">
<ele>6</ele>
</trkpt>
<trkpt lat="36.012126" lon="135.98938">
<ele>7</ele>
</trkpt>
<trkpt lat="36.012146" lon="135.990183">
<ele>9</ele>
</trkpt>
<trkpt lat="36.012229" lon="135.990609">
<ele>10</ele>
</trkpt>
<trkpt lat="36.01229" lon="135.99075">
<ele>10</ele>
</trkpt>
<trkpt lat="36.012472" lon="135.99102">
<ele>11</ele>
</trkpt>
<trkpt lat="36.012773" lon="135.991275">
<ele>12</ele>
</trkpt>
<trkpt lat="36.014199" lon="135.991899">
<ele>10</ele>
</trkpt>
<trkpt lat="36.01452" lon="135.992292">
<ele>8</ele>
</trkpt>
<trkpt lat="36.014851" lon="135.992824">
<ele>7</ele>
</trkpt>
<trkpt lat="36.016958" lon="135.995445">
<ele>19</ele>
</trkpt>
<trkpt lat="36.017453" lon="135.996099">
<ele>13</ele>
</trkpt>
<trkpt lat="36.017583" lon="135.996323">
<ele>13</ele>
</trkpt>
<trkpt lat="36.017646" lon="135.99654">
<ele>13</ele>
</trkpt>
<trkpt lat="36.017768" lon="135.996763">
<ele>14</ele>
</trkpt>
<trkpt lat="36.017856" lon="135.997066">
<ele>14</ele>
</trkpt>
<trkpt lat="36.018107" lon="135.997492">
<ele>16</ele>
</trkpt>
<trkpt lat="36.018244" lon="135.997644">
<ele>17</ele>
</trkpt>
<trkpt lat="36.018343" lon="135.997723">
<ele>17</ele>
</trkpt>
<trkpt lat="36.018513" lon="135.997912">
<ele>18</ele>
</trkpt>
<trkpt lat="36.018603" lon="135.997989">
<ele>19</ele>
</trkpt>
<trkpt lat="36.018801" lon="135.998231">
<ele>20</ele>
</trkpt>
<trkpt lat="36.018963" lon="135.998363">
<ele>20</ele>
</trkpt>
<trkpt lat="36.019126" lon="135.99846">
<ele>21</ele>
</trkpt>
<trkpt lat="36.019285" lon="135.998508">
<ele>21</ele>
</trkpt>
<trkpt lat="36.020073" lon="135.99848">
<ele>9</ele>
</trkpt>
<trkpt lat="36.020654" lon="135.998414">
<ele>9</ele>
</trkpt>
<trkpt lat="36.020819" lon="135.998422">
<ele>10</ele>
</trkpt>
<trkpt lat="36.020996" lon="135.998459">
<ele>10</ele>
</trkpt>
<trkpt lat="36.021608" lon="135.998859">
<ele>15</ele>
</trkpt>
<trkpt lat="36.022361" lon="135.999575">
<ele>17</ele>
</trkpt>
<trkpt lat="36.022587" lon="135.999764">
<ele>18</ele>
</trkpt>
<trkpt lat="36.022735" lon="135.999834">
<ele>19</ele>
</trkpt>
<trkpt lat="36.022881" lon="135.99993">
<ele>20</ele>
</trkpt>
<trkpt lat="36.02296" lon="136.000035">
<ele>21</ele>
</trkpt>
<trkpt lat="36.023033" lon="136.000172">
<ele>22</ele>
</trkpt>
<trkpt lat="36.023236" lon="136.000692">
<ele>23</ele>
</trkpt>
<trkpt lat="36.023297" lon="136.000767">
<ele>23</ele>
</trkpt>
<trkpt lat="36.023903" lon="136.001182">
<ele>22</ele>
</trkpt>
<trkpt lat="36.02452" lon="136.001567">
<ele>19</ele>
</trkpt>
<trkpt lat="36.025233" lon="136.001927">
<ele>16</ele>
</trkpt>
<trkpt lat="36.02551" lon="136.002139">
<ele>18</ele>
</trkpt>
<trkpt lat="36.025619" lon="136.002192">
<ele>20</ele>
</trkpt>
<trkpt lat="36.025967" lon="136.002263">
<ele>28</ele>
</trkpt>
<trkpt lat="36.026111" lon="136.002323">
<ele>32</ele>
</trkpt>
<trkpt lat="36.026228" lon="136.002404">
<ele>35</ele>
</trkpt>
<trkpt lat="36.026345" lon="136.00254">
<ele>34</ele>
</trkpt>
<trkpt lat="36.026544" lon="136.002864">
<ele>28</ele>
</trkpt>
<trkpt lat="36.026734" lon="136.003082">
<ele>23</ele>
</trkpt>
<trkpt lat="36.027178" lon="136.003434">
<ele>19</ele>
</trkpt>
<trkpt lat="36.02746" lon="136.003856">
<ele>19</ele>
</trkpt>
<trkpt lat="36.027565" lon="136.003955">
<ele>18</ele>
</trkpt>
<trkpt lat="36.028098" lon="136.004238">
<ele>13</ele>
</trkpt>
<trkpt lat="36.028213" lon="136.004343">
<ele>12</ele>
</trkpt>
<trkpt lat="36.028454" lon="136.004624">
<ele>11</ele>
</trkpt>
<trkpt lat="36.028832" lon="136.005183">
<ele>15</ele>
</trkpt>
<trkpt lat="36.028906" lon="136.005386">
<ele>16</ele>
</trkpt>
<trkpt lat="36.029019" lon="136.005819">
<ele>17</ele>
</trkpt>
<trkpt lat="36.029126" lon="136.006087">
<ele>18</ele>
</trkpt>
<trkpt lat="36.029357" lon="136.006412">
<ele>18</ele>
</trkpt>
<trkpt lat="36.029629" lon="136.006735">
<ele>18</ele>
</trkpt>
<trkpt lat="36.030947" lon="136.008916">
<ele>6</ele>
</trkpt>
<trkpt lat="36.031707" lon="136.009908">
<ele>16</ele>
</trkpt>
<trkpt lat="36.032102" lon="136.010359">
<ele>19</ele>
</trkpt>
<trkpt lat="36.032953" lon="136.010892">
<ele>15</ele>
</trkpt>
<trkpt lat="36.033527" lon="136.01135">
<ele>15</ele>
</trkpt>
<trkpt lat="36.034147" lon="136.012069">
<ele>8</ele>
</trkpt>
<trkpt lat="36.034346" lon="136.01222">
<ele>5</ele>
</trkpt>
<trkpt lat="36.034659" lon="136.012346">
<ele>3</ele>
</trkpt>
<trkpt lat="36.035077" lon="136.01241">
<ele>1</ele>
</trkpt>
<trkpt lat="36.035285" lon="136.012381">
<ele>1</ele>
</trkpt>
<trkpt lat="36.035753" lon="136.012249">
<ele>1</ele>
</trkpt>
<trkpt lat="36.037084" lon="136.011777">
<ele>0</ele>
</trkpt>
<trkpt lat="36.037793" lon="136.011641">
<ele>0</ele>
</trkpt>
<trkpt lat="36.038923" lon="136.01159">
<ele>0</ele>
</trkpt>
<trkpt lat="36.040718" lon="136.011468">
<ele>1</ele>
</trkpt>
<trkpt lat="36.041832" lon="136.01145">
<ele>4</ele>
</trkpt>
<trkpt lat="36.042404" lon="136.011596">
<ele>4</ele>
</trkpt>
<trkpt lat="36.04364" lon="136.012173">
<ele>4</ele>
</trkpt>
<trkpt lat="36.044201" lon="136.012292">
<ele>3</ele>
</trkpt>
<trkpt lat="36.044519" lon="136.012283">
<ele>3</ele>
</trkpt>
<trkpt lat="36.046456" lon="136.012113">
<ele>6</ele>
</trkpt>
<trkpt lat="36.046773" lon="136.012225">
<ele>7</ele>
</trkpt>
<trkpt lat="36.046906" lon="136.012378">
<ele>8</ele>
</trkpt>
<trkpt lat="36.04702" lon="136.01256">
<ele>10</ele>
</trkpt>
<trkpt lat="36.047089" lon="136.012715">
<ele>11</ele>
</trkpt>
<trkpt lat="36.047151" lon="136.012942">
<ele>12</ele>
</trkpt>
<trkpt lat="36.047282" lon="136.013784">
<ele>18</ele>
</trkpt>
<trkpt lat="36.047415" lon="136.014077">
<ele>21</ele>
</trkpt>
<trkpt lat="36.047703" lon="136.014401">
<ele>21</ele>
</trkpt>
<trkpt lat="36.048536" lon="136.01546">
<ele>7</ele>
</trkpt>
<trkpt lat="36.048634" lon="136.015645">
<ele>6</ele>
</trkpt>
<trkpt lat="36.048819" lon="136.016275">
<ele>4</ele>
</trkpt>
<trkpt lat="36.048958" lon="136.016563">
<ele>4</ele>
</trkpt>
<trkpt lat="36.049374" lon="136.016862">
<ele>5</ele>
</trkpt>
<trkpt lat="36.049861" lon="136.017026">
<ele>5</ele>
</trkpt>
<trkpt lat="36.050504" lon="136.017109">
<ele>13</ele>
</trkpt>
<trkpt lat="36.051036" lon="136.017237">
<ele>23</ele>
</trkpt>
<trkpt lat="36.051481" lon="136.017573">
<ele>32</ele>
</trkpt>
<trkpt lat="36.051884" lon="136.018073">
<ele>49</ele>
</trkpt>
<trkpt lat="36.052127" lon="136.018321">
<ele>64</ele>
</trkpt>
<trkpt lat="36.053521" lon="136.018636">
<ele>96</ele>
</trkpt>
<trkpt lat="36.054391" lon="136.018741">
<ele>71</ele>
</trkpt>
<trkpt lat="36.055948" lon="136.019027">
<ele>11</ele>
</trkpt>
<trkpt lat="36.057062" lon="136.019305">
<ele>13</ele>
</trkpt>
<trkpt lat="36.058524" lon="136.019707">
<ele>10</ele>
</trkpt>
<trkpt lat="36.058893" lon="136.019833">
<ele>9</ele>
</trkpt>
<trkpt lat="36.059109" lon="136.019856">
<ele>8</ele>
</trkpt>
<trkpt lat="36.059744" lon="136.019756">
<ele>8</ele>
</trkpt>
<trkpt lat="36.060171" lon="136.019753">
<ele>8</ele>
</trkpt>
<trkpt lat="36.060517" lon="136.019869">
<ele>7</ele>
</trkpt>
<trkpt lat="36.0612" lon="136.020306">
<ele>4</ele>
</trkpt>
<trkpt lat="36.061376" lon="136.020373">
<ele>4</ele>
</trkpt>
<trkpt lat="36.061671" lon="136.020389">
<ele>4</ele>
</trkpt>
<trkpt lat="36.062067" lon="136.020364">
<ele>4</ele>
</trkpt>
<trkpt lat="36.062302" lon="136.020383">
<ele>5</ele>
</trkpt>
<trkpt lat="36.062965" lon="136.020521">
<ele>8</ele>
</trkpt>
<trkpt lat="36.063572" lon="136.020352">
<ele>9</ele>
</trkpt>
<trkpt lat="36.064073" lon="136.020356">
<ele>9</ele>
</trkpt>
<trkpt lat="36.064346" lon="136.020314">
<ele>8</ele>
</trkpt>
<trkpt lat="36.064925" lon="136.020071">
<ele>8</ele>
</trkpt>
<trkpt lat="36.065219" lon="136.019998">
<ele>8</ele>
</trkpt>
<trkpt lat="36.065506" lon="136.020058">
<ele>8</ele>
</trkpt>
<trkpt lat="36.066218" lon="136.020378">
<ele>10</ele>
</trkpt>
<trkpt lat="36.067006" lon="136.020799">
<ele>8</ele>
</trkpt>
<trkpt lat="36.067698" lon="136.021449">
<ele>8</ele>
</trkpt>
<trkpt lat="36.067847" lon="136.021533">
<ele>8</ele>
</trkpt>
<trkpt lat="36.067997" lon="136.021548">
<ele>8</ele>
</trkpt>
<trkpt lat="36.069015" lon="136.021404">
<ele>6</ele>
</trkpt>
<trkpt lat="36.069435" lon="136.021417">
<ele>7</ele>
</trkpt>
<trkpt lat="36.070568" lon="136.021547">
<ele>3</ele>
</trkpt>
<trkpt lat="36.070892" lon="136.021697">
<ele>3</ele>
</trkpt>
<trkpt lat="36.071205" lon="136.021912">
<ele>3</ele>
</trkpt>
<trkpt lat="36.071281" lon="136.022013">
<ele>3</ele>
</trkpt>
<trkpt lat="36.071344" lon="136.022231">
<ele>4</ele>
</trkpt>
<trkpt lat="36.071349" lon="136.022424">
<ele>4</ele>
</trkpt>
<trkpt lat="36.071233" lon="136.022927">
<ele>4</ele>
</trkpt>
<trkpt lat="36.071075" lon="136.023093">
<ele>4</ele>
</trkpt>
<trkpt lat="36.070946" lon="136.02328">
<ele>4</ele>
</trkpt>
<trkpt lat="36.070691" lon="136.023717">
<ele>4</ele>
</trkpt>
<trkpt lat="36.070596" lon="136.024052">
<ele>4</ele>
</trkpt>
<trkpt lat="36.070569" lon="136.024259">
<ele>4</ele>
</trkpt>
<trkpt lat="36.070594" lon="136.024496">
<ele>4</ele>
</trkpt>
<trkpt lat="36.070714" lon="136.024897">
<ele>2</ele>
</trkpt>
<trkpt lat="36.071063" lon="136.025278">
<ele>2</ele>
</trkpt>
<trkpt lat="36.071654" lon="136.0257">
<ele>2</ele>
</trkpt>
<trkpt lat="36.072396" lon="136.026296">
<ele>3</ele>
</trkpt>
<trkpt lat="36.072581" lon="136.026392">
<ele>2</ele>
</trkpt>
<trkpt lat="36.072825" lon="136.026439">
<ele>2</ele>
</trkpt>
<trkpt lat="36.072943" lon="136.026431">
<ele>2</ele>
</trkpt>
<trkpt lat="36.07305" lon="136.026397">
<ele>2</ele>
</trkpt>
<trkpt lat="36.073961" lon="136.025817">
<ele>3</ele>
</trkpt>
<trkpt lat="36.074303" lon="136.025291">
<ele>7</ele>
</trkpt>
<trkpt lat="36.074551" lon="136.025077">
<ele>10</ele>
</trkpt>
<trkpt lat="36.074727" lon="136.025027">
<ele>12</ele>
</trkpt>
<trkpt lat="36.074966" lon="136.025077">
<ele>12</ele>
</trkpt>
<trkpt lat="36.076105" lon="136.0255">
<ele>10</ele>
</trkpt>
<trkpt lat="36.07631" lon="136.02559">
<ele>8</ele>
</trkpt>
<trkpt lat="36.076533" lon="136.025728">
<ele>6</ele>
</trkpt>
<trkpt lat="36.077185" lon="136.02623">
<ele>6</ele>
</trkpt>
<trkpt lat="36.078452" lon="136.026605">
<ele>5</ele>
</trkpt>
<trkpt lat="36.079321" lon="136.026833">
<ele>5</ele>
</trkpt>
<trkpt lat="36.079992" lon="136.026913">
<ele>5</ele>
</trkpt>
<trkpt lat="36.080248" lon="136.027032">
<ele>4</ele>
</trkpt>
<trkpt lat="36.080431" lon="136.027187">
<ele>3</ele>
</trkpt>
<trkpt lat="36.080707" lon="136.027486">
<ele>3</ele>
</trkpt>
<trkpt lat="36.081409" lon="136.028379">
<ele>3</ele>
</trkpt>
<trkpt lat="36.081545" lon="136.028497">
<ele>3</ele>
</trkpt>
<trkpt lat="36.081779" lon="136.028635">
<ele>3</ele>
</trkpt>
<trkpt lat="36.082774" lon="136.029047">
<ele>6</ele>
</trkpt>
<trkpt lat="36.083863" lon="136.029448">
<ele>21</ele>
</trkpt>
<trkpt lat="36.084768" lon="136.029814">
<ele>3</ele>
</trkpt>
<trkpt lat="36.085105" lon="136.029985">
<ele>3</ele>
</trkpt>
<trkpt lat="36.086144" lon="136.030721">
<ele>3</ele>
</trkpt>
<trkpt lat="36.086402" lon="136.030843">
<ele>2</ele>
</trkpt>
<trkpt lat="36.08711" lon="136.030892">
<ele>2</ele>
</trkpt>
<trkpt lat="36.088006" lon="136.031058">
<ele>3</ele>
</trkpt>
<trkpt lat="36.088394" lon="136.031093">
<ele>3</ele>
</trkpt>
<trkpt lat="36.088726" lon="136.031041">
<ele>3</ele>
</trkpt>
<trkpt lat="36.089538" lon="136.03078">
<ele>3</ele>
</trkpt>
<trkpt lat="36.089838" lon="136.030775">
<ele>4</ele>
</trkpt>
<trkpt lat="36.090135" lon="136.030878">
<ele>4</ele>
</trkpt>
<trkpt lat="36.090607" lon="136.031169">
<ele>3</ele>
</trkpt>
<trkpt lat="36.090978" lon="136.031349">
<ele>3</ele>
</trkpt>
<trkpt lat="36.091327" lon="136.031392">
<ele>3</ele>
</trkpt>
<trkpt lat="36.092873" lon="136.031229">
<ele>5</ele>
</trkpt>
<trkpt lat="36.093177" lon="136.031156">
<ele>5</ele>
</trkpt>
<trkpt lat="36.093504" lon="136.031004">
<ele>7</ele>
</trkpt>
<trkpt lat="36.094558" lon="136.03031">
<ele>10</ele>
</trkpt>
<trkpt lat="36.09478" lon="136.0302">
<ele>10</ele>
</trkpt>
<trkpt lat="36.094979" lon="136.030185">
<ele>9</ele>
</trkpt>
<trkpt lat="36.095155" lon="136.030282">
<ele>9</ele>
</trkpt>
<trkpt lat="36.096224" lon="136.031207">
<ele>6</ele>
</trkpt>
<trkpt lat="36.09638" lon="136.031545">
<ele>5</ele>
</trkpt>
<trkpt lat="36.09666" lon="136.03227">
<ele>4</ele>
</trkpt>
<trkpt lat="36.096884" lon="136.032626">
<ele>4</ele>
</trkpt>
<trkpt lat="36.097632" lon="136.033248">
<ele>5</ele>
</trkpt>
<trkpt lat="36.098564" lon="136.033939">
<ele>7</ele>
</trkpt>
<trkpt lat="36.099348" lon="136.034451">
<ele>8</ele>
</trkpt>
<trkpt lat="36.099979" lon="136.03484">
<ele>8</ele>
</trkpt>
<trkpt lat="36.10037" lon="136.035158">
<ele>8</ele>
</trkpt>
<trkpt lat="36.101254" lon="136.036081">
<ele>15</ele>
</trkpt>
<trkpt lat="36.101632" lon="136.036502">
<ele>14</ele>
</trkpt>
<trkpt lat="36.101833" lon="136.036624">
<ele>14</ele>
</trkpt>
<trkpt lat="36.102028" lon="136.036718">
<ele>12</ele>
</trkpt>
<trkpt lat="36.102261" lon="136.036778">
<ele>11</ele>
</trkpt>
<trkpt lat="36.103311" lon="136.037223">
<ele>14</ele>
</trkpt>
<trkpt lat="36.103458" lon="136.037312">
<ele>15</ele>
</trkpt>
<trkpt lat="36.103638" lon="136.037543">
<ele>16</ele>
</trkpt>
<trkpt lat="36.103895" lon="136.038243">
<ele>15</ele>
</trkpt>
<trkpt lat="36.104105" lon="136.038891">
<ele>12</ele>
</trkpt>
<trkpt lat="36.104277" lon="136.039523">
<ele>9</ele>
</trkpt>
<trkpt lat="36.104323" lon="136.040271">
<ele>4</ele>
</trkpt>
<trkpt lat="36.104382" lon="136.040515">
<ele>3</ele>
</trkpt>
<trkpt lat="36.104928" lon="136.041698">
<ele>2</ele>
</trkpt>
<trkpt lat="36.105083" lon="136.041978">
<ele>1</ele>
</trkpt>
<trkpt lat="36.105236" lon="136.042159">
<ele>0</ele>
</trkpt>
<trkpt lat="36.105608" lon="136.042547">
<ele>0</ele>
</trkpt>
<trkpt lat="36.105819" lon="136.042694">
<ele>1</ele>
</trkpt>
<trkpt lat="36.10621" lon="136.042893">
<ele>1</ele>
</trkpt>
<trkpt lat="36.106416" lon="136.043061">
<ele>1</ele>
</trkpt>
<trkpt lat="36.106591" lon="136.043292">
<ele>1</ele>
</trkpt>
<trkpt lat="36.107045" lon="136.044188">
<ele>2</ele>
</trkpt>
<trkpt lat="36.107202" lon="136.04456">
<ele>3</ele>
</trkpt>
<trkpt lat="36.107245" lon="136.044807">
<ele>3</ele>
</trkpt>
<trkpt lat="36.10728" lon="136.045164">
<ele>2</ele>
</trkpt>
<trkpt lat="36.107308" lon="136.045308">
<ele>2</ele>
</trkpt>
<trkpt lat="36.107374" lon="136.045518">
<ele>1</ele>
</trkpt>
<trkpt lat="36.107609" lon="136.045936">
<ele>1</ele>
</trkpt>
<trkpt lat="36.108018" lon="136.046887">
<ele>2</ele>
</trkpt>
<trkpt lat="36.108375" lon="136.047493">
<ele>2</ele>
</trkpt>
<trkpt lat="36.108682" lon="136.047927">
<ele>3</ele>
</trkpt>
<trkpt lat="36.109382" lon="136.048621">
<ele>4</ele>
</trkpt>
<trkpt lat="36.109478" lon="136.048683">
<ele>4</ele>
</trkpt>
<trkpt lat="36.109671" lon="136.048759">
<ele>5</ele>
</trkpt>
<trkpt lat="36.10993" lon="136.048789">
<ele>6</ele>
</trkpt>
<trkpt lat="36.110179" lon="136.048768">
<ele>7</ele>
</trkpt>
<trkpt lat="36.111133" lon="136.04863">
<ele>12</ele>
</trkpt>
<trkpt lat="36.112024" lon="136.048617">
<ele>13</ele>
</trkpt>
<trkpt lat="36.11229" lon="136.048689">
<ele>11</ele>
</trkpt>
<trkpt lat="36.113373" lon="136.048839">
<ele>5</ele>
</trkpt>
<trkpt lat="36.1148" lon="136.048945">
<ele>4</ele>
</trkpt>
<trkpt lat="36.115751" lon="136.049253">
<ele>9</ele>
</trkpt>
<trkpt lat="36.11611" lon="136.049344">
<ele>11</ele>
</trkpt>
<trkpt lat="36.116755" lon="136.049418">
<ele>11</ele>
</trkpt>
<trkpt lat="36.11711" lon="136.049548">
<ele>11</ele>
</trkpt>
<trkpt lat="36.117243" lon="136.049687">
<ele>11</ele>
</trkpt>
<trkpt lat="36.1174" lon="136.049966">
<ele>10</ele>
</trkpt>
<trkpt lat="36.11757" lon="136.050503">
<ele>10</ele>
</trkpt>
<trkpt lat="36.118465" lon="136.052001">
<ele>9</ele>
</trkpt>
<trkpt lat="36.119877" lon="136.054152">
<ele>14</ele>
</trkpt>
<trkpt lat="36.120103" lon="136.054402">
<ele>14</ele>
</trkpt>
<trkpt lat="36.121381" lon="136.055131">
<ele>13</ele>
</trkpt>
<trkpt lat="36.121466" lon="136.055166">
<ele>14</ele>
</trkpt>
<trkpt lat="36.121627" lon="136.055144">
<ele>15</ele>
</trkpt>
<trkpt lat="36.12196" lon="136.05505">
<ele>17</ele>
</trkpt>
<trkpt lat="36.122137" lon="136.055079">
<ele>18</ele>
</trkpt>
<trkpt lat="36.122259" lon="136.055196">
<ele>19</ele>
</trkpt>
<trkpt lat="36.122325" lon="136.055373">
<ele>20</ele>
</trkpt>
<trkpt lat="36.122398" lon="136.055658">
<ele>21</ele>
</trkpt>
<trkpt lat="36.122479" lon="136.055745">
<ele>22</ele>
</trkpt>
<trkpt lat="36.122623" lon="136.055835">
<ele>23</ele>
</trkpt>
<trkpt lat="36.12304" lon="136.055888">
<ele>25</ele>
</trkpt>
<trkpt lat="36.123296" lon="136.055881">
<ele>26</ele>
</trkpt>
<trkpt lat="36.123476" lon="136.05599">
<ele>27</ele>
</trkpt>
<trkpt lat="36.123802" lon="136.056248">
<ele>27</ele>
</trkpt>
<trkpt lat="36.124032" lon="136.056478">
<ele>28</ele>
</trkpt>
<trkpt lat="36.125048" lon="136.05766">
<ele>31</ele>
</trkpt>
<trkpt lat="36.125356" lon="136.057942">
<ele>30</ele>
</trkpt>
<trkpt lat="36.125552" lon="136.058226">
<ele>30</ele>
</trkpt>
<trkpt lat="36.125659" lon="136.058536">
<ele>31</ele>
</trkpt>
<trkpt lat="36.125854" lon="136.059529">
<ele>33</ele>
</trkpt>
<trkpt lat="36.125943" lon="136.059878">
<ele>34</ele>
</trkpt>
<trkpt lat="36.12675" lon="136.061372">
<ele>33</ele>
</trkpt>
<trkpt lat="36.126877" lon="136.06166">
<ele>33</ele>
</trkpt>
<trkpt lat="36.127048" lon="136.062187">
<ele>32</ele>
</trkpt>
<trkpt lat="36.127121" lon="136.062555">
<ele>32</ele>
</trkpt>
<trkpt lat="36.127124" lon="136.062697">
<ele>32</ele>
</trkpt>
<trkpt lat="36.12703" lon="136.063533">
<ele>31</ele>
</trkpt>
<trkpt lat="36.127041" lon="136.063933">
<ele>29</ele>
</trkpt>
<trkpt lat="36.127079" lon="136.064232">
<ele>29</ele>
</trkpt>
<trkpt lat="36.127162" lon="136.06463">
<ele>29</ele>
</trkpt>
<trkpt lat="36.127341" lon="136.065061">
<ele>29</ele>
</trkpt>
<trkpt lat="36.128033" lon="136.066423">
<ele>32</ele>
</trkpt>
<trkpt lat="36.128325" lon="136.067069">
<ele>31</ele>
</trkpt>
<trkpt lat="36.128549" lon="136.067758">
<ele>30</ele>
</trkpt>
<trkpt lat="36.128927" lon="136.069472">
<ele>27</ele>
</trkpt>
<trkpt lat="36.129127" lon="136.07004">
<ele>27</ele>
</trkpt>
<trkpt lat="36.130184" lon="136.072153">
<ele>35</ele>
</trkpt>
<trkpt lat="36.131252" lon="136.074169">
<ele>33</ele>
</trkpt>
<trkpt lat="36.132335" lon="136.076456">
<ele>25</ele>
</trkpt>
<trkpt lat="36.132918" lon="136.077308">
<ele>20</ele>
</trkpt>
<trkpt lat="36.132987" lon="136.0774">
<ele>20</ele>
</trkpt>
<trkpt lat="36.133545" lon="136.077991">
<ele>16</ele>
</trkpt>
<trkpt lat="36.133944" lon="136.078302">
<ele>11</ele>
</trkpt>
<trkpt lat="36.134338" lon="136.078549">
<ele>11</ele>
</trkpt>
<trkpt lat="36.134544" lon="136.078654">
<ele>11</ele>
</trkpt>
<trkpt lat="36.135166" lon="136.078882">
<ele>13</ele>
</trkpt>
<trkpt lat="36.136647" lon="136.079245">
<ele>15</ele>
</trkpt>
<trkpt lat="36.137037" lon="136.079294">
<ele>14</ele>
</trkpt>
<trkpt lat="36.137376" lon="136.079522">
<ele>14</ele>
</trkpt>
<trkpt lat="36.13819" lon="136.080561">
<ele>11</ele>
</trkpt>
<trkpt lat="36.139368" lon="136.082187">
<ele>10</ele>
</trkpt>
<trkpt lat="36.13982" lon="136.082763">
<ele>13</ele>
</trkpt>
<trkpt lat="36.140073" lon="136.082929">
<ele>13</ele>
</trkpt>
<trkpt lat="36.140353" lon="136.083303">
<ele>13</ele>
</trkpt>
<trkpt lat="36.140684" lon="136.083814">
<ele>12</ele>
</trkpt>
<trkpt lat="36.141144" lon="136.084582">
<ele>9</ele>
</trkpt>
<trkpt lat="36.141874" lon="136.085726">
<ele>7</ele>
</trkpt>
<trkpt lat="36.142039" lon="136.085963">
<ele>6</ele>
</trkpt>
<trkpt lat="36.142665" lon="136.086756">
<ele>6</ele>
</trkpt>
<trkpt lat="36.142972" lon="136.087177">
<ele>6</ele>
</trkpt>
<trkpt lat="36.145495" lon="136.092563">
<ele>7</ele>
</trkpt>
<trkpt lat="36.145742" lon="136.093165">
<ele>7</ele>
</trkpt>
<trkpt lat="36.145843" lon="136.093501">
<ele>7</ele>
</trkpt>
<trkpt lat="36.145874" lon="136.09398">
<ele>7</ele>
</trkpt>
<trkpt lat="36.145852" lon="136.095023">
<ele>9</ele>
</trkpt>
<trkpt lat="36.14585" lon="136.096922">
<ele>22</ele>
</trkpt>
<trkpt lat="36.145945" lon="136.09754">
<ele>25</ele>
</trkpt>
<trkpt lat="36.146066" lon="136.098109">
<ele>27</ele>
</trkpt>
<trkpt lat="36.146347" lon="136.09872">
<ele>22</ele>
</trkpt>
<trkpt lat="36.14654" lon="136.098692">
<ele>20</ele>
</trkpt>
<trkpt lat="36.147543" lon="136.098041">
<ele>20</ele>
</trkpt>
<trkpt lat="36.148097" lon="136.097742">
<ele>26</ele>
</trkpt>
<trkpt lat="36.148792" lon="136.09916">
<ele>32</ele>
</trkpt>
<trkpt lat="36.149167" lon="136.099828">
<ele>31</ele>
</trkpt>
<trkpt lat="36.149971" lon="136.101073">
<ele>29</ele>
</trkpt>
<trkpt lat="36.150972" lon="136.102536">
<ele>30</ele>
</trkpt>
<trkpt lat="36.151938" lon="136.103982">
<ele>32</ele>
</trkpt>
<trkpt lat="36.152848" lon="136.105179">
<ele>33</ele>
</trkpt>
<trkpt lat="36.154354" lon="136.106876">
<ele>35</ele>
</trkpt>
<trkpt lat="36.156643" lon="136.109186">
<ele>30</ele>
</trkpt>
<trkpt lat="36.158241" lon="136.110951">
<ele>34</ele>
</trkpt>
<trkpt lat="36.159262" lon="136.112161">
<ele>32</ele>
</trkpt>
<trkpt lat="36.160292" lon="136.113316">
<ele>30</ele>
</trkpt>
<trkpt lat="36.163086" lon="136.116144">
<ele>25</ele>
</trkpt>
<trkpt lat="36.166152" lon="136.119133">
<ele>20</ele>
</trkpt>
<trkpt lat="36.167722" lon="136.120709">
<ele>23</ele>
</trkpt>
<trkpt lat="36.169167" lon="136.122112">
<ele>24</ele>
</trkpt>
<trkpt lat="36.173984" lon="136.126244">
<ele>25</ele>
</trkpt>
<trkpt lat="36.179831" lon="136.130567">
<ele>20</ele>
</trkpt>
<trkpt lat="36.18277" lon="136.132782">
<ele>22</ele>
</trkpt>
<trkpt lat="36.18708" lon="136.136232">
<ele>18</ele>
</trkpt>
<trkpt lat="36.187916" lon="136.136843">
<ele>17</ele>
</trkpt>
<trkpt lat="36.188709" lon="136.137354">
<ele>17</ele>
</trkpt>
<trkpt lat="36.189695" lon="136.137896">
<ele>16</ele>
</trkpt>
<trkpt lat="36.190538" lon="136.138315">
<ele>13</ele>
</trkpt>
<trkpt lat="36.192589" lon="136.139163">
<ele>17</ele>
</trkpt>
<trkpt lat="36.193512" lon="136.139515">
<ele>14</ele>
</trkpt>
<trkpt lat="36.196346" lon="136.140491">
<ele>15</ele>
</trkpt>
<trkpt lat="36.197069" lon="136.140724">
<ele>14</ele>
</trkpt>
<trkpt lat="36.198528" lon="136.14127">
<ele>14</ele>
</trkpt>
<trkpt lat="36.202528" lon="136.142837">
<ele>20</ele>
</trkpt>
    </trkseg>
  </trk>
</gpx>