<?xml version="1.0" encoding="UTF-8"?>
<gpx version="1.1"
     creator="KMLtoGPX"
     xmlns="http://www.topografix.com/GPX/1/1">
  <metadata>
    <name>Kaino Shrine and Temple Course</name>
    <desc>貝野神社仏閣コース</desc>
    <bounds minlat="37.06595194444444" minlon="138.69063194444445" maxlat="37.08538305555555" maxlon="138.7075688888889"/>
  </metadata>
  <trk>
    <name>Kaino Shrine and Temple Course</name>
    <trkseg>
<trkpt lat="37.06729194444444" lon="138.7072261111111">
<ele>160</ele>
</trkpt>
<trkpt lat="37.067235" lon="138.70711805555555">
<ele>160</ele>
</trkpt>
<trkpt lat="37.06616" lon="138.70526805555556">
<ele>160</ele>
</trkpt>
<trkpt lat="37.066001944444444" lon="138.70494305555556">
<ele>160</ele>
</trkpt>
<trkpt lat="37.06595194444444" lon="138.70481805555556">
<ele>160</ele>
</trkpt>
<trkpt lat="37.06595305555555" lon="138.70480388888888">
<ele>160</ele>
</trkpt>
<trkpt lat="37.06595305555555" lon="138.70480388888888">
<ele>160</ele>
</trkpt>
<trkpt lat="37.065976944444444" lon="138.70449305555556">
<ele>160</ele>
</trkpt>
<trkpt lat="37.06601888888889" lon="138.70419388888888">
<ele>161</ele>
</trkpt>
<trkpt lat="37.06616888888889" lon="138.7035938888889">
<ele>162</ele>
</trkpt>
<trkpt lat="37.06619388888889" lon="138.70343111111112">
<ele>161</ele>
</trkpt>
<trkpt lat="37.06621" lon="138.70329388888888">
<ele>162</ele>
</trkpt>
<trkpt lat="37.066201944444444" lon="138.7029061111111">
<ele>162</ele>
</trkpt>
<trkpt lat="37.066226944444445" lon="138.70273111111112">
<ele>162</ele>
</trkpt>
<trkpt lat="37.06659388888889" lon="138.70160611111112">
<ele>163</ele>
</trkpt>
<trkpt lat="37.066635" lon="138.7015188888889">
<ele>163</ele>
</trkpt>
<trkpt lat="37.06721805555556" lon="138.7003688888889">
<ele>164</ele>
</trkpt>
<trkpt lat="37.06761" lon="138.69931888888888">
<ele>165</ele>
</trkpt>
<trkpt lat="37.06765194444444" lon="138.69923111111112">
<ele>165</ele>
</trkpt>
<trkpt lat="37.068081944444444" lon="138.69929305555556">
<ele>168</ele>
</trkpt>
<trkpt lat="37.068081944444444" lon="138.69929305555556">
<ele>168</ele>
</trkpt>
<trkpt lat="37.068176944444446" lon="138.6993061111111">
<ele>169</ele>
</trkpt>
<trkpt lat="37.068218055555555" lon="138.69934388888888">
<ele>169</ele>
</trkpt>
<trkpt lat="37.06825194444444" lon="138.69955611111112">
<ele>169</ele>
</trkpt>
<trkpt lat="37.068351944444444" lon="138.69989388888888">
<ele>170</ele>
</trkpt>
<trkpt lat="37.068401944444446" lon="138.6998188888889">
<ele>171</ele>
</trkpt>
<trkpt lat="37.068385" lon="138.6997061111111">
<ele>173</ele>
</trkpt>
<trkpt lat="37.06856" lon="138.6996061111111">
<ele>180</ele>
</trkpt>
<trkpt lat="37.06867694444445" lon="138.6994061111111">
<ele>182</ele>
</trkpt>
<trkpt lat="37.068785" lon="138.6991561111111">
<ele>183</ele>
</trkpt>
<trkpt lat="37.068885" lon="138.69899388888888">
<ele>184</ele>
</trkpt>
<trkpt lat="37.06895111111111" lon="138.69896888888888">
<ele>185</ele>
</trkpt>
<trkpt lat="37.06899305555555" lon="138.69899388888888">
<ele>185</ele>
</trkpt>
<trkpt lat="37.06912611111111" lon="138.6991688888889">
<ele>186</ele>
</trkpt>
<trkpt lat="37.06917611111111" lon="138.69919388888889">
<ele>186</ele>
</trkpt>
<trkpt lat="37.069285" lon="138.69921888888888">
<ele>187</ele>
</trkpt>
<trkpt lat="37.069251111111114" lon="138.6990188888889">
<ele>187</ele>
</trkpt>
<trkpt lat="37.06910111111111" lon="138.6981811111111">
<ele>192</ele>
</trkpt>
<trkpt lat="37.069085" lon="138.69775694444445">
<ele>195</ele>
</trkpt>
<trkpt lat="37.069085" lon="138.6974438888889">
<ele>197</ele>
</trkpt>
<trkpt lat="37.069085" lon="138.69663194444445">
<ele>202</ele>
</trkpt>
<trkpt lat="37.069068055555555" lon="138.69628194444445">
<ele>206</ele>
</trkpt>
<trkpt lat="37.06901" lon="138.69585694444444">
<ele>214</ele>
</trkpt>
<trkpt lat="37.06891805555556" lon="138.6953188888889">
<ele>216</ele>
</trkpt>
<trkpt lat="37.06887611111111" lon="138.69485694444444">
<ele>222</ele>
</trkpt>
<trkpt lat="37.06881" lon="138.69463194444444">
<ele>225</ele>
</trkpt>
<trkpt lat="37.06865111111111" lon="138.6943188888889">
<ele>232</ele>
</trkpt>
<trkpt lat="37.06856805555555" lon="138.69413194444445">
<ele>235</ele>
</trkpt>
<trkpt lat="37.068485" lon="138.69383194444444">
<ele>233</ele>
</trkpt>
<trkpt lat="37.06842611111111" lon="138.69368194444445">
<ele>236</ele>
</trkpt>
<trkpt lat="37.068376111111114" lon="138.69360694444444">
<ele>239</ele>
</trkpt>
<trkpt lat="37.068235" lon="138.69345694444445">
<ele>244</ele>
</trkpt>
<trkpt lat="37.06820111111111" lon="138.69340694444443">
<ele>244</ele>
</trkpt>
<trkpt lat="37.06816805555555" lon="138.69334388888888">
<ele>244</ele>
</trkpt>
<trkpt lat="37.06815111111111" lon="138.69325694444444">
<ele>246</ele>
</trkpt>
<trkpt lat="37.06825111111111" lon="138.6926938888889">
<ele>239</ele>
</trkpt>
<trkpt lat="37.06825111111111" lon="138.69260694444444">
<ele>238</ele>
</trkpt>
<trkpt lat="37.068235" lon="138.69250694444443">
<ele>238</ele>
</trkpt>
<trkpt lat="37.06812611111111" lon="138.6922438888889">
<ele>237</ele>
</trkpt>
<trkpt lat="37.06807611111111" lon="138.69215694444443">
<ele>236</ele>
</trkpt>
<trkpt lat="37.068018055555555" lon="138.69210694444445">
<ele>237</ele>
</trkpt>
<trkpt lat="37.06797611111111" lon="138.69208194444445">
<ele>235</ele>
</trkpt>
<trkpt lat="37.06781" lon="138.692045">
<ele>233</ele>
</trkpt>
<trkpt lat="37.067768055555554" lon="138.691995">
<ele>231</ele>
</trkpt>
<trkpt lat="37.06776" lon="138.69195694444446">
<ele>231</ele>
</trkpt>
<trkpt lat="37.067751111111114" lon="138.691895">
<ele>231</ele>
</trkpt>
<trkpt lat="37.067751111111114" lon="138.69173194444446">
<ele>217</ele>
</trkpt>
<trkpt lat="37.067768055555554" lon="138.691645">
<ele>188</ele>
</trkpt>
<trkpt lat="37.06781" lon="138.691545">
<ele>221</ele>
</trkpt>
<trkpt lat="37.06802611111111" lon="138.691195">
<ele>224</ele>
</trkpt>
<trkpt lat="37.06805111111111" lon="138.69113194444444">
<ele>224</ele>
</trkpt>
<trkpt lat="37.068035" lon="138.69103194444443">
<ele>222</ele>
</trkpt>
<trkpt lat="37.06800111111111" lon="138.69085694444445">
<ele>215</ele>
</trkpt>
<trkpt lat="37.06797611111111" lon="138.690795">
<ele>208</ele>
</trkpt>
<trkpt lat="37.06784305555556" lon="138.69065694444444">
<ele>202</ele>
</trkpt>
<trkpt lat="37.067785" lon="138.69063194444445">
<ele>202</ele>
</trkpt>
<trkpt lat="37.06771" lon="138.69063194444445">
<ele>201</ele>
</trkpt>
<trkpt lat="37.067593055555555" lon="138.69068194444444">
<ele>202</ele>
</trkpt>
<trkpt lat="37.06751805555555" lon="138.69077">
<ele>207</ele>
</trkpt>
<trkpt lat="37.067475" lon="138.6908688888889">
<ele>211</ele>
</trkpt>
<trkpt lat="37.067475" lon="138.6908688888889">
<ele>211</ele>
</trkpt>
<trkpt lat="37.06751805555555" lon="138.69077">
<ele>207</ele>
</trkpt>
<trkpt lat="37.067593055555555" lon="138.69068194444444">
<ele>202</ele>
</trkpt>
<trkpt lat="37.06771" lon="138.69063194444445">
<ele>201</ele>
</trkpt>
<trkpt lat="37.067785" lon="138.69063194444445">
<ele>202</ele>
</trkpt>
<trkpt lat="37.06784305555556" lon="138.69065694444444">
<ele>202</ele>
</trkpt>
<trkpt lat="37.06797611111111" lon="138.690795">
<ele>208</ele>
</trkpt>
<trkpt lat="37.06800111111111" lon="138.69085694444445">
<ele>215</ele>
</trkpt>
<trkpt lat="37.068035" lon="138.69103194444443">
<ele>222</ele>
</trkpt>
<trkpt lat="37.06805111111111" lon="138.69113194444444">
<ele>224</ele>
</trkpt>
<trkpt lat="37.06802611111111" lon="138.691195">
<ele>224</ele>
</trkpt>
<trkpt lat="37.06781" lon="138.691545">
<ele>221</ele>
</trkpt>
<trkpt lat="37.067768055555554" lon="138.691645">
<ele>188</ele>
</trkpt>
<trkpt lat="37.067751111111114" lon="138.69173194444446">
<ele>217</ele>
</trkpt>
<trkpt lat="37.067751111111114" lon="138.691895">
<ele>231</ele>
</trkpt>
<trkpt lat="37.06776" lon="138.69195694444446">
<ele>231</ele>
</trkpt>
<trkpt lat="37.067768055555554" lon="138.691995">
<ele>231</ele>
</trkpt>
<trkpt lat="37.06781" lon="138.692045">
<ele>233</ele>
</trkpt>
<trkpt lat="37.06797611111111" lon="138.69208194444445">
<ele>235</ele>
</trkpt>
<trkpt lat="37.068018055555555" lon="138.69210694444445">
<ele>237</ele>
</trkpt>
<trkpt lat="37.06807611111111" lon="138.69215694444443">
<ele>236</ele>
</trkpt>
<trkpt lat="37.06812611111111" lon="138.6922438888889">
<ele>237</ele>
</trkpt>
<trkpt lat="37.068235" lon="138.69250694444443">
<ele>238</ele>
</trkpt>
<trkpt lat="37.06825111111111" lon="138.69260694444444">
<ele>238</ele>
</trkpt>
<trkpt lat="37.06825111111111" lon="138.6926938888889">
<ele>239</ele>
</trkpt>
<trkpt lat="37.06815111111111" lon="138.69325694444444">
<ele>246</ele>
</trkpt>
<trkpt lat="37.06816805555555" lon="138.69334388888888">
<ele>244</ele>
</trkpt>
<trkpt lat="37.06820111111111" lon="138.69340694444443">
<ele>244</ele>
</trkpt>
<trkpt lat="37.068235" lon="138.69345694444445">
<ele>244</ele>
</trkpt>
<trkpt lat="37.068376111111114" lon="138.69360694444444">
<ele>239</ele>
</trkpt>
<trkpt lat="37.06842611111111" lon="138.69368194444445">
<ele>236</ele>
</trkpt>
<trkpt lat="37.068485" lon="138.69383194444444">
<ele>233</ele>
</trkpt>
<trkpt lat="37.06856805555555" lon="138.69413194444445">
<ele>235</ele>
</trkpt>
<trkpt lat="37.06865111111111" lon="138.6943188888889">
<ele>232</ele>
</trkpt>
<trkpt lat="37.06881" lon="138.69463194444444">
<ele>225</ele>
</trkpt>
<trkpt lat="37.06887611111111" lon="138.69485694444444">
<ele>222</ele>
</trkpt>
<trkpt lat="37.06891805555556" lon="138.6953188888889">
<ele>216</ele>
</trkpt>
<trkpt lat="37.06901" lon="138.69585694444444">
<ele>214</ele>
</trkpt>
<trkpt lat="37.069068055555555" lon="138.69628194444445">
<ele>206</ele>
</trkpt>
<trkpt lat="37.069085" lon="138.69663194444445">
<ele>202</ele>
</trkpt>
<trkpt lat="37.069085" lon="138.6974438888889">
<ele>197</ele>
</trkpt>
<trkpt lat="37.069085" lon="138.69775694444445">
<ele>195</ele>
</trkpt>
<trkpt lat="37.06910111111111" lon="138.6981811111111">
<ele>192</ele>
</trkpt>
<trkpt lat="37.069251111111114" lon="138.6990188888889">
<ele>187</ele>
</trkpt>
<trkpt lat="37.06934305555556" lon="138.6990811111111">
<ele>188</ele>
</trkpt>
<trkpt lat="37.06944305555555" lon="138.6992561111111">
<ele>187</ele>
</trkpt>
<trkpt lat="37.07009305555555" lon="138.6999811111111">
<ele>191</ele>
</trkpt>
<trkpt lat="37.070326111111115" lon="138.7002811111111">
<ele>191</ele>
</trkpt>
<trkpt lat="37.07042611111111" lon="138.7004188888889">
<ele>191</ele>
</trkpt>
<trkpt lat="37.070635" lon="138.70081888888888">
<ele>191</ele>
</trkpt>
<trkpt lat="37.07089305555556" lon="138.7012188888889">
<ele>193</ele>
</trkpt>
<trkpt lat="37.07102611111111" lon="138.70136888888888">
<ele>191</ele>
</trkpt>
<trkpt lat="37.07111" lon="138.7015438888889">
<ele>190</ele>
</trkpt>
<trkpt lat="37.071196111111114" lon="138.70190888888888">
<ele>188</ele>
</trkpt>
<trkpt lat="37.071196111111114" lon="138.70190888888888">
<ele>188</ele>
</trkpt>
<trkpt lat="37.07120111111111" lon="138.70193111111112">
<ele>188</ele>
</trkpt>
<trkpt lat="37.071335" lon="138.70236888888888">
<ele>189</ele>
</trkpt>
<trkpt lat="37.07130111111111" lon="138.70250611111112">
<ele>188</ele>
</trkpt>
<trkpt lat="37.07126" lon="138.70261888888888">
<ele>188</ele>
</trkpt>
<trkpt lat="37.07131" lon="138.7026438888889">
<ele>188</ele>
</trkpt>
<trkpt lat="37.07139305555555" lon="138.7026438888889">
<ele>189</ele>
</trkpt>
<trkpt lat="37.071843055555554" lon="138.70249388888888">
<ele>194</ele>
</trkpt>
<trkpt lat="37.07234305555556" lon="138.70228111111112">
<ele>194</ele>
</trkpt>
<trkpt lat="37.07240888888889" lon="138.7022438888889">
<ele>194</ele>
</trkpt>
<trkpt lat="37.07245888888889" lon="138.70216888888888">
<ele>193</ele>
</trkpt>
<trkpt lat="37.072786944444445" lon="138.701305">
<ele>194</ele>
</trkpt>
<trkpt lat="37.072786944444445" lon="138.701305">
<ele>194</ele>
</trkpt>
<trkpt lat="37.07283388888889" lon="138.7011811111111">
<ele>194</ele>
</trkpt>
<trkpt lat="37.07297611111111" lon="138.70113111111112">
<ele>193</ele>
</trkpt>
<trkpt lat="37.07303388888889" lon="138.7011688888889">
<ele>194</ele>
</trkpt>
<trkpt lat="37.07321805555556" lon="138.70136888888888">
<ele>196</ele>
</trkpt>
<trkpt lat="37.07325111111111" lon="138.7014311111111">
<ele>198</ele>
</trkpt>
<trkpt lat="37.07345111111111" lon="138.70159388888888">
<ele>202</ele>
</trkpt>
<trkpt lat="37.073751111111115" lon="138.70170611111112">
<ele>204</ele>
</trkpt>
<trkpt lat="37.07380111111111" lon="138.7016438888889">
<ele>206</ele>
</trkpt>
<trkpt lat="37.073658888888886" lon="138.7008311111111">
<ele>207</ele>
</trkpt>
<trkpt lat="37.07367611111111" lon="138.7006061111111">
<ele>211</ele>
</trkpt>
<trkpt lat="37.07380111111111" lon="138.69965611111112">
<ele>216</ele>
</trkpt>
<trkpt lat="37.07380888888889" lon="138.6994688888889">
<ele>217</ele>
</trkpt>
<trkpt lat="37.07380888888889" lon="138.6993938888889">
<ele>219</ele>
</trkpt>
<trkpt lat="37.07378388888889" lon="138.6992561111111">
<ele>221</ele>
</trkpt>
<trkpt lat="37.073726111111114" lon="138.69910611111112">
<ele>224</ele>
</trkpt>
<trkpt lat="37.07370111111111" lon="138.6990811111111">
<ele>224</ele>
</trkpt>
<trkpt lat="37.07362611111111" lon="138.6990811111111">
<ele>221</ele>
</trkpt>
<trkpt lat="37.07353388888889" lon="138.69910388888889">
<ele>220</ele>
</trkpt>
<trkpt lat="37.07353388888889" lon="138.69910388888889">
<ele>220</ele>
</trkpt>
<trkpt lat="37.07362611111111" lon="138.6990811111111">
<ele>221</ele>
</trkpt>
<trkpt lat="37.07370111111111" lon="138.6990811111111">
<ele>224</ele>
</trkpt>
<trkpt lat="37.073726111111114" lon="138.69910611111112">
<ele>224</ele>
</trkpt>
<trkpt lat="37.07378388888889" lon="138.6992561111111">
<ele>221</ele>
</trkpt>
<trkpt lat="37.07380888888889" lon="138.6993938888889">
<ele>219</ele>
</trkpt>
<trkpt lat="37.07380888888889" lon="138.6994688888889">
<ele>217</ele>
</trkpt>
<trkpt lat="37.07380111111111" lon="138.69965611111112">
<ele>216</ele>
</trkpt>
<trkpt lat="37.07367611111111" lon="138.7006061111111">
<ele>211</ele>
</trkpt>
<trkpt lat="37.073658888888886" lon="138.7008311111111">
<ele>207</ele>
</trkpt>
<trkpt lat="37.07380111111111" lon="138.7016438888889">
<ele>206</ele>
</trkpt>
<trkpt lat="37.07393388888889" lon="138.7015311111111">
<ele>208</ele>
</trkpt>
<trkpt lat="37.07415611111111" lon="138.70142611111112">
<ele>207</ele>
</trkpt>
<trkpt lat="37.07415611111111" lon="138.70142611111112">
<ele>207</ele>
</trkpt>
<trkpt lat="37.07425111111111" lon="138.70138111111112">
<ele>207</ele>
</trkpt>
<trkpt lat="37.07436805555555" lon="138.70128111111111">
<ele>207</ele>
</trkpt>
<trkpt lat="37.07467611111111" lon="138.7009561111111">
<ele>206</ele>
</trkpt>
<trkpt lat="37.07485888888889" lon="138.7007811111111">
<ele>206</ele>
</trkpt>
<trkpt lat="37.07492611111111" lon="138.7007438888889">
<ele>205</ele>
</trkpt>
<trkpt lat="37.07512611111111" lon="138.7007561111111">
<ele>205</ele>
</trkpt>
<trkpt lat="37.07532611111111" lon="138.7007811111111">
<ele>204</ele>
</trkpt>
<trkpt lat="37.07540888888889" lon="138.70081888888888">
<ele>204</ele>
</trkpt>
<trkpt lat="37.075783888888886" lon="138.7011061111111">
<ele>202</ele>
</trkpt>
<trkpt lat="37.07586694444444" lon="138.70114388888888">
<ele>201</ele>
</trkpt>
<trkpt lat="37.075991944444446" lon="138.7011938888889">
<ele>202</ele>
</trkpt>
<trkpt lat="37.07627611111111" lon="138.70138111111112">
<ele>201</ele>
</trkpt>
<trkpt lat="37.076433888888886" lon="138.7014438888889">
<ele>201</ele>
</trkpt>
<trkpt lat="37.076633888888885" lon="138.70146888888888">
<ele>201</ele>
</trkpt>
<trkpt lat="37.07675111111111" lon="138.70148111111112">
<ele>201</ele>
</trkpt>
<trkpt lat="37.07725111111111" lon="138.7015311111111">
<ele>202</ele>
</trkpt>
<trkpt lat="37.07735111111111" lon="138.7015561111111">
<ele>201</ele>
</trkpt>
<trkpt lat="37.07805888888889" lon="138.7017938888889">
<ele>201</ele>
</trkpt>
<trkpt lat="37.07820888888889" lon="138.7018561111111">
<ele>202</ele>
</trkpt>
<trkpt lat="37.07845888888889" lon="138.7019938888889">
<ele>203</ele>
</trkpt>
<trkpt lat="37.07857611111111" lon="138.7020638888889">
<ele>202</ele>
</trkpt>
<trkpt lat="37.07857611111111" lon="138.7020638888889">
<ele>202</ele>
</trkpt>
<trkpt lat="37.07870888888889" lon="138.70214388888888">
<ele>201</ele>
</trkpt>
<trkpt lat="37.078775" lon="138.70216888888888">
<ele>201</ele>
</trkpt>
<trkpt lat="37.07904194444444" lon="138.70226888888888">
<ele>202</ele>
</trkpt>
<trkpt lat="37.079275" lon="138.7024811111111">
<ele>201</ele>
</trkpt>
<trkpt lat="37.079766944444444" lon="138.70271805555555">
<ele>202</ele>
</trkpt>
<trkpt lat="37.079816944444445" lon="138.7027561111111">
<ele>204</ele>
</trkpt>
<trkpt lat="37.080441944444445" lon="138.7033811111111">
<ele>204</ele>
</trkpt>
<trkpt lat="37.0805" lon="138.70344305555557">
<ele>207</ele>
</trkpt>
<trkpt lat="37.08081694444444" lon="138.7036811111111">
<ele>208</ele>
</trkpt>
<trkpt lat="37.080848055555556" lon="138.70371111111112">
<ele>208</ele>
</trkpt>
<trkpt lat="37.080848055555556" lon="138.70371194444445">
<ele>208</ele>
</trkpt>
<trkpt lat="37.08094194444445" lon="138.7038061111111">
<ele>207</ele>
</trkpt>
<trkpt lat="37.081" lon="138.7039561111111">
<ele>207</ele>
</trkpt>
<trkpt lat="37.08106111111111" lon="138.7039561111111">
<ele>207</ele>
</trkpt>
<trkpt lat="37.08106111111111" lon="138.7039561111111">
<ele>207</ele>
</trkpt>
<trkpt lat="37.08108277777778" lon="138.70400555555557">
<ele>206</ele>
</trkpt>
<trkpt lat="37.08110416666667" lon="138.70405472222222">
<ele>206</ele>
</trkpt>
<trkpt lat="37.08112583333333" lon="138.70410416666667">
<ele>207</ele>
</trkpt>
<trkpt lat="37.0811475" lon="138.7041536111111">
<ele>206</ele>
</trkpt>
<trkpt lat="37.08116916666667" lon="138.70420305555555">
<ele>206</ele>
</trkpt>
<trkpt lat="37.08119055555556" lon="138.7042522222222">
<ele>205</ele>
</trkpt>
<trkpt lat="37.08121222222222" lon="138.70430166666668">
<ele>205</ele>
</trkpt>
<trkpt lat="37.08121277777778" lon="138.70430277777777">
<ele>205</ele>
</trkpt>
<trkpt lat="37.08121277777778" lon="138.70430277777777">
<ele>205</ele>
</trkpt>
<trkpt lat="37.0812475" lon="138.70433833333334">
<ele>205</ele>
</trkpt>
<trkpt lat="37.08128222222222" lon="138.70437416666667">
<ele>205</ele>
</trkpt>
<trkpt lat="37.081316944444445" lon="138.7044097222222">
<ele>205</ele>
</trkpt>
<trkpt lat="37.08135166666667" lon="138.70444555555557">
<ele>206</ele>
</trkpt>
<trkpt lat="37.08138638888889" lon="138.7044811111111">
<ele>206</ele>
</trkpt>
<trkpt lat="37.08142138888889" lon="138.70451666666668">
<ele>206</ele>
</trkpt>
<trkpt lat="37.08145611111111" lon="138.7045525">
<ele>207</ele>
</trkpt>
<trkpt lat="37.08147916666667" lon="138.70457611111112">
<ele>207</ele>
</trkpt>
<trkpt lat="37.08147916666667" lon="138.70457611111112">
<ele>207</ele>
</trkpt>
<trkpt lat="37.08145888888889" lon="138.70462666666666">
<ele>207</ele>
</trkpt>
<trkpt lat="37.08143888888889" lon="138.70467694444446">
<ele>205</ele>
</trkpt>
<trkpt lat="37.08141888888889" lon="138.70472722222223">
<ele>205</ele>
</trkpt>
<trkpt lat="37.08139861111111" lon="138.7047775">
<ele>205</ele>
</trkpt>
<trkpt lat="37.08137861111111" lon="138.70482805555557">
<ele>205</ele>
</trkpt>
<trkpt lat="37.08135861111111" lon="138.70487833333334">
<ele>205</ele>
</trkpt>
<trkpt lat="37.081338611111114" lon="138.70492861111111">
<ele>205</ele>
</trkpt>
<trkpt lat="37.081318333333336" lon="138.70497916666667">
<ele>204</ele>
</trkpt>
<trkpt lat="37.081298333333336" lon="138.70502944444445">
<ele>204</ele>
</trkpt>
<trkpt lat="37.08127833333333" lon="138.70507972222222">
<ele>204</ele>
</trkpt>
<trkpt lat="37.08125805555556" lon="138.70513">
<ele>204</ele>
</trkpt>
<trkpt lat="37.08123805555555" lon="138.70518055555556">
<ele>204</ele>
</trkpt>
<trkpt lat="37.08123694444444" lon="138.70518305555555">
<ele>204</ele>
</trkpt>
<trkpt lat="37.08123694444444" lon="138.70518305555555">
<ele>204</ele>
</trkpt>
<trkpt lat="37.08123694444444" lon="138.70523944444443">
<ele>203</ele>
</trkpt>
<trkpt lat="37.08123694444444" lon="138.70529583333334">
<ele>203</ele>
</trkpt>
<trkpt lat="37.08123694444444" lon="138.70535194444443">
<ele>203</ele>
</trkpt>
<trkpt lat="37.08123694444444" lon="138.70540833333334">
<ele>203</ele>
</trkpt>
<trkpt lat="37.08123694444444" lon="138.70546472222222">
<ele>202</ele>
</trkpt>
<trkpt lat="37.08123694444444" lon="138.70551694444444">
<ele>202</ele>
</trkpt>
<trkpt lat="37.08123" lon="138.70555">
<ele>199</ele>
</trkpt>
<trkpt lat="37.081691944444444" lon="138.70569305555554">
<ele>200</ele>
</trkpt>
<trkpt lat="37.08179194444445" lon="138.70571805555556">
<ele>199</ele>
</trkpt>
<trkpt lat="37.082175" lon="138.70581805555557">
<ele>198</ele>
</trkpt>
<trkpt lat="37.08238305555555" lon="138.7058311111111">
<ele>198</ele>
</trkpt>
<trkpt lat="37.08258305555555" lon="138.70581805555557">
<ele>198</ele>
</trkpt>
<trkpt lat="37.08285" lon="138.70578111111112">
<ele>198</ele>
</trkpt>
<trkpt lat="37.083075" lon="138.70574305555556">
<ele>198</ele>
</trkpt>
<trkpt lat="37.083325" lon="138.70574305555556">
<ele>197</ele>
</trkpt>
<trkpt lat="37.08345805555555" lon="138.70578111111112">
<ele>198</ele>
</trkpt>
<trkpt lat="37.08355" lon="138.70584305555556">
<ele>198</ele>
</trkpt>
<trkpt lat="37.083666111111114" lon="138.70591805555554">
<ele>199</ele>
</trkpt>
<trkpt lat="37.08376611111111" lon="138.7058561111111">
<ele>199</ele>
</trkpt>
<trkpt lat="37.08405805555556" lon="138.70580611111112">
<ele>202</ele>
</trkpt>
<trkpt lat="37.08416611111111" lon="138.7057311111111">
<ele>206</ele>
</trkpt>
<trkpt lat="37.0842" lon="138.7057311111111">
<ele>206</ele>
</trkpt>
<trkpt lat="37.08425" lon="138.7057561111111">
<ele>209</ele>
</trkpt>
<trkpt lat="37.084333055555554" lon="138.7058311111111">
<ele>210</ele>
</trkpt>
<trkpt lat="37.08443305555556" lon="138.70584305555556">
<ele>212</ele>
</trkpt>
<trkpt lat="37.0848" lon="138.7057561111111">
<ele>217</ele>
</trkpt>
<trkpt lat="37.08485805555556" lon="138.70576805555555">
<ele>217</ele>
</trkpt>
<trkpt lat="37.08524888888889" lon="138.7059911111111">
<ele>216</ele>
</trkpt>
<trkpt lat="37.08524888888889" lon="138.7059911111111">
<ele>216</ele>
</trkpt>
<trkpt lat="37.08538305555555" lon="138.70606805555556">
<ele>216</ele>
</trkpt>
<trkpt lat="37.08533305555556" lon="138.70611805555555">
<ele>214</ele>
</trkpt>
<trkpt lat="37.084558055555554" lon="138.7063311111111">
<ele>207</ele>
</trkpt>
<trkpt lat="37.084408055555556" lon="138.70639305555557">
<ele>208</ele>
</trkpt>
<trkpt lat="37.08434888888889" lon="138.70642305555555">
<ele>208</ele>
</trkpt>
<trkpt lat="37.08434888888889" lon="138.70642305555555">
<ele>208</ele>
</trkpt>
<trkpt lat="37.08416611111111" lon="138.70651805555556">
<ele>207</ele>
</trkpt>
<trkpt lat="37.084125" lon="138.70641805555556">
<ele>208</ele>
</trkpt>
<trkpt lat="37.08404111111111" lon="138.70625611111112">
<ele>206</ele>
</trkpt>
<trkpt lat="37.083925" lon="138.70611805555555">
<ele>205</ele>
</trkpt>
<trkpt lat="37.08385305555556" lon="138.70606">
<ele>203</ele>
</trkpt>
<trkpt lat="37.08385305555556" lon="138.70606">
<ele>203</ele>
</trkpt>
<trkpt lat="37.08381611111111" lon="138.70603111111112">
<ele>202</ele>
</trkpt>
<trkpt lat="37.083666111111114" lon="138.70591805555554">
<ele>199</ele>
</trkpt>
<trkpt lat="37.08355" lon="138.70584305555556">
<ele>198</ele>
</trkpt>
<trkpt lat="37.08345805555555" lon="138.70578111111112">
<ele>198</ele>
</trkpt>
<trkpt lat="37.083325" lon="138.70574305555556">
<ele>197</ele>
</trkpt>
<trkpt lat="37.083075" lon="138.70574305555556">
<ele>198</ele>
</trkpt>
<trkpt lat="37.08285" lon="138.70578111111112">
<ele>198</ele>
</trkpt>
<trkpt lat="37.08258305555555" lon="138.70581805555557">
<ele>198</ele>
</trkpt>
<trkpt lat="37.08238305555555" lon="138.7058311111111">
<ele>198</ele>
</trkpt>
<trkpt lat="37.082175" lon="138.70581805555557">
<ele>198</ele>
</trkpt>
<trkpt lat="37.08179194444445" lon="138.70571805555556">
<ele>199</ele>
</trkpt>
<trkpt lat="37.081691944444444" lon="138.70569305555554">
<ele>200</ele>
</trkpt>
<trkpt lat="37.080441944444445" lon="138.7053061111111">
<ele>197</ele>
</trkpt>
<trkpt lat="37.07985" lon="138.70511805555554">
<ele>193</ele>
</trkpt>
<trkpt lat="37.07951694444444" lon="138.7050311111111">
<ele>193</ele>
</trkpt>
<trkpt lat="37.079425" lon="138.70501805555554">
<ele>193</ele>
</trkpt>
<trkpt lat="37.07931694444444" lon="138.7050311111111">
<ele>192</ele>
</trkpt>
<trkpt lat="37.0792" lon="138.70504305555556">
<ele>192</ele>
</trkpt>
<trkpt lat="37.078966944444446" lon="138.70510611111112">
<ele>191</ele>
</trkpt>
<trkpt lat="37.07836694444445" lon="138.7053061111111">
<ele>190</ele>
</trkpt>
<trkpt lat="37.07812611111111" lon="138.70535611111112">
<ele>190</ele>
</trkpt>
<trkpt lat="37.07804194444444" lon="138.70535611111112">
<ele>190</ele>
</trkpt>
<trkpt lat="37.077866944444445" lon="138.70531805555555">
<ele>190</ele>
</trkpt>
<trkpt lat="37.07730111111111" lon="138.70498111111112">
<ele>191</ele>
</trkpt>
<trkpt lat="37.07682611111111" lon="138.70469305555557">
<ele>190</ele>
</trkpt>
<trkpt lat="37.07660111111111" lon="138.7046061111111">
<ele>191</ele>
</trkpt>
<trkpt lat="37.07655194444445" lon="138.70458194444444">
<ele>191</ele>
</trkpt>
<trkpt lat="37.07655194444445" lon="138.7045811111111">
<ele>191</ele>
</trkpt>
<trkpt lat="37.07647611111111" lon="138.70454305555555">
<ele>191</ele>
</trkpt>
<trkpt lat="37.076208888888885" lon="138.70446805555557">
<ele>191</ele>
</trkpt>
<trkpt lat="37.07580111111111" lon="138.70439305555556">
<ele>192</ele>
</trkpt>
<trkpt lat="37.07496694444445" lon="138.70426805555556">
<ele>193</ele>
</trkpt>
<trkpt lat="37.07483388888889" lon="138.7043561111111">
<ele>193</ele>
</trkpt>
<trkpt lat="37.07436805555555" lon="138.7044811111111">
<ele>192</ele>
</trkpt>
<trkpt lat="37.07415888888889" lon="138.70454305555555">
<ele>192</ele>
</trkpt>
<trkpt lat="37.07370888888889" lon="138.70474305555555">
<ele>191</ele>
</trkpt>
<trkpt lat="37.07350888888889" lon="138.70496805555555">
<ele>190</ele>
</trkpt>
<trkpt lat="37.07345888888889" lon="138.70500611111112">
<ele>190</ele>
</trkpt>
<trkpt lat="37.073343055555554" lon="138.70501805555554">
<ele>190</ele>
</trkpt>
<trkpt lat="37.07325111111111" lon="138.70500611111112">
<ele>189</ele>
</trkpt>
<trkpt lat="37.07318388888889" lon="138.70498111111112">
<ele>187</ele>
</trkpt>
<trkpt lat="37.07290611111111" lon="138.704795">
<ele>187</ele>
</trkpt>
<trkpt lat="37.07290611111111" lon="138.704795">
<ele>187</ele>
</trkpt>
<trkpt lat="37.072808888888886" lon="138.7047311111111">
<ele>187</ele>
</trkpt>
<trkpt lat="37.07270111111111" lon="138.70466805555554">
<ele>186</ele>
</trkpt>
<trkpt lat="37.07250888888889" lon="138.70461805555556">
<ele>186</ele>
</trkpt>
<trkpt lat="37.072383888888886" lon="138.70461805555556">
<ele>186</ele>
</trkpt>
<trkpt lat="37.071835" lon="138.7046061111111">
<ele>182</ele>
</trkpt>
<trkpt lat="37.07179305555555" lon="138.7046061111111">
<ele>182</ele>
</trkpt>
<trkpt lat="37.070785" lon="138.70456805555557">
<ele>173</ele>
</trkpt>
<trkpt lat="37.07061" lon="138.70451805555555">
<ele>175</ele>
</trkpt>
<trkpt lat="37.070326111111115" lon="138.70431805555555">
<ele>176</ele>
</trkpt>
<trkpt lat="37.07029305555555" lon="138.70420611111112">
<ele>177</ele>
</trkpt>
<trkpt lat="37.070193055555556" lon="138.70414305555556">
<ele>176</ele>
</trkpt>
<trkpt lat="37.06954694444445" lon="138.70500388888888">
<ele>169</ele>
</trkpt>
<trkpt lat="37.06954694444445" lon="138.70500388888888">
<ele>169</ele>
</trkpt>
<trkpt lat="37.069293055555555" lon="138.70534305555555">
<ele>166</ele>
</trkpt>
<trkpt lat="37.069185" lon="138.70546805555554">
<ele>165</ele>
</trkpt>
<trkpt lat="37.06825194444444" lon="138.70624305555555">
<ele>161</ele>
</trkpt>
<trkpt lat="37.067235" lon="138.70711805555555">
<ele>160</ele>
</trkpt>
<trkpt lat="37.067326944444446" lon="138.70729305555557">
<ele>160</ele>
</trkpt>
<trkpt lat="37.067335" lon="138.7074061111111">
<ele>160</ele>
</trkpt>
<trkpt lat="37.06731888888889" lon="138.70749305555555">
<ele>160</ele>
</trkpt>
<trkpt lat="37.06726888888889" lon="138.70754305555556">
<ele>160</ele>
</trkpt>
<trkpt lat="37.06723888888889" lon="138.7075688888889">
<ele>160</ele>
</trkpt>
    </trkseg>
  </trk>
</gpx>