<?xml version="1.0" encoding="UTF-8"?>
<gpx version="1.1"
     creator="KMLtoGPX"
     xmlns="http://www.topografix.com/GPX/1/1">
  <metadata>
    <name>Madarao Plateau Excursion Route</name>
    <desc>斑尾高原周遊ルート</desc>
    <bounds minlat="36.79974888888889" minlon="138.2863411111111" maxlat="36.85924194444444" maxlon="138.3602688888889"/>
  </metadata>
  <trk>
    <name>Madarao Plateau Excursion Route</name>
    <trkseg>
<trkpt lat="36.845528055555555" lon="138.3591188888889">
<ele>315</ele>
</trkpt>
<trkpt lat="36.845645" lon="138.35910694444445">
<ele>315</ele>
</trkpt>
<trkpt lat="36.84582" lon="138.35943194444445">
<ele>315</ele>
</trkpt>
<trkpt lat="36.84581111111111" lon="138.35950694444443">
<ele>315</ele>
</trkpt>
<trkpt lat="36.845845" lon="138.35963194444443">
<ele>315</ele>
</trkpt>
<trkpt lat="36.845928055555554" lon="138.35976888888888">
<ele>315</ele>
</trkpt>
<trkpt lat="36.84596111111111" lon="138.35980694444444">
<ele>315</ele>
</trkpt>
<trkpt lat="36.846345" lon="138.35986888888888">
<ele>315</ele>
</trkpt>
<trkpt lat="36.84695305555555" lon="138.3600188888889">
<ele>315</ele>
</trkpt>
<trkpt lat="36.847145" lon="138.3600688888889">
<ele>315</ele>
</trkpt>
<trkpt lat="36.84738" lon="138.36013111111112">
<ele>315</ele>
</trkpt>
<trkpt lat="36.84738" lon="138.36013111111112">
<ele>315</ele>
</trkpt>
<trkpt lat="36.847903055555555" lon="138.3602688888889">
<ele>315</ele>
</trkpt>
<trkpt lat="36.84792" lon="138.36009388888888">
<ele>315</ele>
</trkpt>
<trkpt lat="36.847968888888886" lon="138.35978194444445">
<ele>315</ele>
</trkpt>
<trkpt lat="36.84801111111111" lon="138.3595688888889">
<ele>315</ele>
</trkpt>
<trkpt lat="36.848078055555554" lon="138.3592688888889">
<ele>315</ele>
</trkpt>
<trkpt lat="36.848261111111114" lon="138.35840694444445">
<ele>316</ele>
</trkpt>
<trkpt lat="36.848391944444444" lon="138.3577011111111">
<ele>322</ele>
</trkpt>
<trkpt lat="36.848391944444444" lon="138.3577011111111">
<ele>322</ele>
</trkpt>
<trkpt lat="36.84851111111111" lon="138.35705694444445">
<ele>327</ele>
</trkpt>
<trkpt lat="36.84851888888889" lon="138.3569938888889">
<ele>326</ele>
</trkpt>
<trkpt lat="36.84854388888889" lon="138.35675694444444">
<ele>325</ele>
</trkpt>
<trkpt lat="36.84854388888889" lon="138.3565438888889">
<ele>324</ele>
</trkpt>
<trkpt lat="36.84851888888889" lon="138.35633194444443">
<ele>323</ele>
</trkpt>
<trkpt lat="36.84849388888889" lon="138.35617">
<ele>323</ele>
</trkpt>
<trkpt lat="36.84842805555556" lon="138.355945">
<ele>325</ele>
</trkpt>
<trkpt lat="36.84841888888889" lon="138.355895">
<ele>325</ele>
</trkpt>
<trkpt lat="36.84811888888889" lon="138.355095">
<ele>329</ele>
</trkpt>
<trkpt lat="36.84801888888889" lon="138.35483194444444">
<ele>331</ele>
</trkpt>
<trkpt lat="36.84771111111111" lon="138.35405694444444">
<ele>336</ele>
</trkpt>
<trkpt lat="36.84757805555556" lon="138.353695">
<ele>338</ele>
</trkpt>
<trkpt lat="36.847498888888886" lon="138.353495">
<ele>339</ele>
</trkpt>
<trkpt lat="36.847498888888886" lon="138.353495">
<ele>339</ele>
</trkpt>
<trkpt lat="36.84736888888889" lon="138.35317">
<ele>341</ele>
</trkpt>
<trkpt lat="36.84668611111111" lon="138.353545">
<ele>341</ele>
</trkpt>
<trkpt lat="36.84659388888889" lon="138.35355694444445">
<ele>342</ele>
</trkpt>
<trkpt lat="36.84652" lon="138.35358194444444">
<ele>343</ele>
</trkpt>
<trkpt lat="36.846403055555555" lon="138.35357">
<ele>344</ele>
</trkpt>
<trkpt lat="36.84616111111111" lon="138.353545">
<ele>345</ele>
</trkpt>
<trkpt lat="36.84566111111111" lon="138.35345805555556">
<ele>345</ele>
</trkpt>
<trkpt lat="36.84508611111111" lon="138.35337">
<ele>345</ele>
</trkpt>
<trkpt lat="36.84500305555556" lon="138.353345">
<ele>345</ele>
</trkpt>
<trkpt lat="36.844745" lon="138.35328305555555">
<ele>344</ele>
</trkpt>
<trkpt lat="36.843395" lon="138.35287">
<ele>346</ele>
</trkpt>
<trkpt lat="36.84176194444444" lon="138.3523461111111">
<ele>349</ele>
</trkpt>
<trkpt lat="36.84126194444445" lon="138.35220805555556">
<ele>349</ele>
</trkpt>
<trkpt lat="36.84093388888889" lon="138.35209805555556">
<ele>353</ele>
</trkpt>
<trkpt lat="36.84093388888889" lon="138.35209805555556">
<ele>353</ele>
</trkpt>
<trkpt lat="36.84077888888889" lon="138.35204611111112">
<ele>354</ele>
</trkpt>
<trkpt lat="36.839795" lon="138.35172111111112">
<ele>351</ele>
</trkpt>
<trkpt lat="36.839528888888886" lon="138.35162111111111">
<ele>349</ele>
</trkpt>
<trkpt lat="36.83937111111111" lon="138.3515211111111">
<ele>349</ele>
</trkpt>
<trkpt lat="36.83917111111111" lon="138.3513211111111">
<ele>349</ele>
</trkpt>
<trkpt lat="36.83860388888889" lon="138.35075805555556">
<ele>349</ele>
</trkpt>
<trkpt lat="36.83850388888889" lon="138.3506461111111">
<ele>349</ele>
</trkpt>
<trkpt lat="36.83837888888889" lon="138.3502961111111">
<ele>349</ele>
</trkpt>
<trkpt lat="36.83827888888889" lon="138.3498211111111">
<ele>349</ele>
</trkpt>
<trkpt lat="36.83822111111111" lon="138.34969611111111">
<ele>349</ele>
</trkpt>
<trkpt lat="36.83809611111111" lon="138.34957111111112">
<ele>349</ele>
</trkpt>
<trkpt lat="36.83770388888889" lon="138.3493588888889">
<ele>348</ele>
</trkpt>
<trkpt lat="36.837536944444444" lon="138.3492961111111">
<ele>348</ele>
</trkpt>
<trkpt lat="36.83737111111111" lon="138.3492711111111">
<ele>347</ele>
</trkpt>
<trkpt lat="36.83718694444445" lon="138.3492711111111">
<ele>345</ele>
</trkpt>
<trkpt lat="36.837046111111114" lon="138.3492711111111">
<ele>344</ele>
</trkpt>
<trkpt lat="36.83657888888889" lon="138.3492838888889">
<ele>347</ele>
</trkpt>
<trkpt lat="36.83640388888889" lon="138.34930888888888">
<ele>348</ele>
</trkpt>
<trkpt lat="36.836036944444444" lon="138.34932111111112">
<ele>351</ele>
</trkpt>
<trkpt lat="36.83415388888889" lon="138.34922111111112">
<ele>349</ele>
</trkpt>
<trkpt lat="36.833288055555556" lon="138.3491588888889">
<ele>348</ele>
</trkpt>
<trkpt lat="36.83317111111111" lon="138.3491588888889">
<ele>348</ele>
</trkpt>
<trkpt lat="36.83272111111111" lon="138.34912111111112">
<ele>348</ele>
</trkpt>
<trkpt lat="36.832555" lon="138.34909611111112">
<ele>350</ele>
</trkpt>
<trkpt lat="36.83228" lon="138.34899611111112">
<ele>352</ele>
</trkpt>
<trkpt lat="36.831313055555555" lon="138.3485961111111">
<ele>353</ele>
</trkpt>
<trkpt lat="36.830938055555556" lon="138.3484961111111">
<ele>356</ele>
</trkpt>
<trkpt lat="36.83073805555556" lon="138.3484838888889">
<ele>357</ele>
</trkpt>
<trkpt lat="36.83053" lon="138.3484838888889">
<ele>357</ele>
</trkpt>
<trkpt lat="36.83027805555555" lon="138.3484861111111">
<ele>356</ele>
</trkpt>
<trkpt lat="36.83027805555555" lon="138.3484861111111">
<ele>356</ele>
</trkpt>
<trkpt lat="36.82789694444445" lon="138.3485088888889">
<ele>353</ele>
</trkpt>
<trkpt lat="36.827596944444444" lon="138.34847194444444">
<ele>354</ele>
</trkpt>
<trkpt lat="36.82723" lon="138.34842194444445">
<ele>357</ele>
</trkpt>
<trkpt lat="36.82608" lon="138.34820888888888">
<ele>358</ele>
</trkpt>
<trkpt lat="36.825271944444445" lon="138.34799694444445">
<ele>358</ele>
</trkpt>
<trkpt lat="36.82470611111111" lon="138.34773388888888">
<ele>358</ele>
</trkpt>
<trkpt lat="36.82443888888889" lon="138.3475588888889">
<ele>359</ele>
</trkpt>
<trkpt lat="36.824263888888886" lon="138.3474338888889">
<ele>362</ele>
</trkpt>
<trkpt lat="36.82404694444445" lon="138.34727194444446">
<ele>362</ele>
</trkpt>
<trkpt lat="36.82326388888889" lon="138.34667194444444">
<ele>363</ele>
</trkpt>
<trkpt lat="36.82300611111111" lon="138.34649694444445">
<ele>365</ele>
</trkpt>
<trkpt lat="36.82278888888889" lon="138.34638388888888">
<ele>364</ele>
</trkpt>
<trkpt lat="36.82168111111111" lon="138.34589694444443">
<ele>366</ele>
</trkpt>
<trkpt lat="36.820498055555554" lon="138.345335">
<ele>374</ele>
</trkpt>
<trkpt lat="36.82013888888889" lon="138.345235">
<ele>370</ele>
</trkpt>
<trkpt lat="36.81999805555556" lon="138.34524694444445">
<ele>366</ele>
</trkpt>
<trkpt lat="36.81983888888889" lon="138.345285">
<ele>364</ele>
</trkpt>
<trkpt lat="36.81971388888889" lon="138.34536">
<ele>363</ele>
</trkpt>
<trkpt lat="36.81945611111111" lon="138.34556">
<ele>362</ele>
</trkpt>
<trkpt lat="36.81914805555556" lon="138.345185">
<ele>367</ele>
</trkpt>
<trkpt lat="36.81898888888889" lon="138.34502194444445">
<ele>368</ele>
</trkpt>
<trkpt lat="36.818688888888886" lon="138.344785">
<ele>367</ele>
</trkpt>
<trkpt lat="36.81849805555556" lon="138.344685">
<ele>367</ele>
</trkpt>
<trkpt lat="36.818165" lon="138.34456">
<ele>367</ele>
</trkpt>
<trkpt lat="36.817215" lon="138.34432305555555">
<ele>367</ele>
</trkpt>
<trkpt lat="36.81648111111111" lon="138.34411">
<ele>368</ele>
</trkpt>
<trkpt lat="36.816365" lon="138.34407305555555">
<ele>372</ele>
</trkpt>
<trkpt lat="36.81623111111111" lon="138.34401">
<ele>374</ele>
</trkpt>
<trkpt lat="36.816203055555555" lon="138.34399611111112">
<ele>374</ele>
</trkpt>
<trkpt lat="36.816203055555555" lon="138.34399611111112">
<ele>374</ele>
</trkpt>
<trkpt lat="36.81499" lon="138.34341">
<ele>386</ele>
</trkpt>
<trkpt lat="36.81464805555556" lon="138.34321">
<ele>394</ele>
</trkpt>
<trkpt lat="36.81424805555555" lon="138.342885">
<ele>396</ele>
</trkpt>
<trkpt lat="36.81402305555556" lon="138.34264805555554">
<ele>396</ele>
</trkpt>
<trkpt lat="36.81390694444445" lon="138.34249805555555">
<ele>394</ele>
</trkpt>
<trkpt lat="36.81269" lon="138.34077305555556">
<ele>414</ele>
</trkpt>
<trkpt lat="36.81194" lon="138.3397361111111">
<ele>411</ele>
</trkpt>
<trkpt lat="36.81169888888889" lon="138.3393861111111">
<ele>412</ele>
</trkpt>
<trkpt lat="36.811523888888885" lon="138.33902305555554">
<ele>413</ele>
</trkpt>
<trkpt lat="36.81068194444445" lon="138.3370988888889">
<ele>421</ele>
</trkpt>
<trkpt lat="36.81030694444444" lon="138.33618611111112">
<ele>424</ele>
</trkpt>
<trkpt lat="36.81012388888889" lon="138.3357611111111">
<ele>426</ele>
</trkpt>
<trkpt lat="36.80994" lon="138.3354488888889">
<ele>428</ele>
</trkpt>
<trkpt lat="36.809715" lon="138.3350988888889">
<ele>435</ele>
</trkpt>
<trkpt lat="36.807965" lon="138.3328238888889">
<ele>441</ele>
</trkpt>
<trkpt lat="36.80702388888889" lon="138.3315738888889">
<ele>442</ele>
</trkpt>
<trkpt lat="36.80661611111111" lon="138.3310488888889">
<ele>447</ele>
</trkpt>
<trkpt lat="36.80612388888889" lon="138.33046194444444">
<ele>444</ele>
</trkpt>
<trkpt lat="36.80575694444445" lon="138.32998694444444">
<ele>452</ele>
</trkpt>
<trkpt lat="36.80484111111111" lon="138.32895">
<ele>454</ele>
</trkpt>
<trkpt lat="36.80450694444445" lon="138.32853694444444">
<ele>456</ele>
</trkpt>
<trkpt lat="36.80409888888889" lon="138.328">
<ele>457</ele>
</trkpt>
<trkpt lat="36.80339111111111" lon="138.32715">
<ele>456</ele>
</trkpt>
<trkpt lat="36.802531944444446" lon="138.326">
<ele>458</ele>
</trkpt>
<trkpt lat="36.80240805555555" lon="138.32578805555556">
<ele>458</ele>
</trkpt>
<trkpt lat="36.80236611111111" lon="138.32568694444444">
<ele>459</ele>
</trkpt>
<trkpt lat="36.80230805555556" lon="138.32556194444444">
<ele>459</ele>
</trkpt>
<trkpt lat="36.80222388888889" lon="138.32535">
<ele>459</ele>
</trkpt>
<trkpt lat="36.80184111111111" lon="138.32431305555556">
<ele>464</ele>
</trkpt>
<trkpt lat="36.80167388888889" lon="138.323775">
<ele>465</ele>
</trkpt>
<trkpt lat="36.80136611111111" lon="138.32278805555555">
<ele>459</ele>
</trkpt>
<trkpt lat="36.80105805555556" lon="138.32176305555555">
<ele>458</ele>
</trkpt>
<trkpt lat="36.80073194444444" lon="138.3206761111111">
<ele>456</ele>
</trkpt>
<trkpt lat="36.800716111111115" lon="138.32063805555555">
<ele>457</ele>
</trkpt>
<trkpt lat="36.800581944444446" lon="138.32011305555557">
<ele>459</ele>
</trkpt>
<trkpt lat="36.80048111111111" lon="138.3197811111111">
<ele>457</ele>
</trkpt>
<trkpt lat="36.80048111111111" lon="138.3197811111111">
<ele>457</ele>
</trkpt>
<trkpt lat="36.800398888888886" lon="138.31951305555555">
<ele>456</ele>
</trkpt>
<trkpt lat="36.80029888888889" lon="138.3192511111111">
<ele>453</ele>
</trkpt>
<trkpt lat="36.80019111111111" lon="138.31896305555554">
<ele>448</ele>
</trkpt>
<trkpt lat="36.80009888888889" lon="138.31878805555556">
<ele>448</ele>
</trkpt>
<trkpt lat="36.79986611111111" lon="138.3184511111111">
<ele>449</ele>
</trkpt>
<trkpt lat="36.79974888888889" lon="138.31827611111112">
<ele>448</ele>
</trkpt>
<trkpt lat="36.79986611111111" lon="138.31811305555556">
<ele>449</ele>
</trkpt>
<trkpt lat="36.80020694444445" lon="138.3176761111111">
<ele>449</ele>
</trkpt>
<trkpt lat="36.80028305555555" lon="138.3175511111111">
<ele>448</ele>
</trkpt>
<trkpt lat="36.800331944444444" lon="138.3174261111111">
<ele>448</ele>
</trkpt>
<trkpt lat="36.80034888888889" lon="138.3173011111111">
<ele>448</ele>
</trkpt>
<trkpt lat="36.800356944444445" lon="138.31715111111112">
<ele>448</ele>
</trkpt>
<trkpt lat="36.800356944444445" lon="138.3168138888889">
<ele>448</ele>
</trkpt>
<trkpt lat="36.800331944444444" lon="138.31566388888888">
<ele>448</ele>
</trkpt>
<trkpt lat="36.80031611111111" lon="138.31486388888888">
<ele>447</ele>
</trkpt>
<trkpt lat="36.80031611111111" lon="138.31475111111112">
<ele>447</ele>
</trkpt>
<trkpt lat="36.800356944444445" lon="138.31441388888888">
<ele>447</ele>
</trkpt>
<trkpt lat="36.800426944444446" lon="138.3141488888889">
<ele>446</ele>
</trkpt>
<trkpt lat="36.800426944444446" lon="138.3141488888889">
<ele>446</ele>
</trkpt>
<trkpt lat="36.80048194444444" lon="138.31393888888888">
<ele>445</ele>
</trkpt>
<trkpt lat="36.80064888888889" lon="138.31350111111112">
<ele>445</ele>
</trkpt>
<trkpt lat="36.800781944444445" lon="138.3131888888889">
<ele>447</ele>
</trkpt>
<trkpt lat="36.80092388888889" lon="138.31293888888888">
<ele>451</ele>
</trkpt>
<trkpt lat="36.80119111111111" lon="138.3125388888889">
<ele>450</ele>
</trkpt>
<trkpt lat="36.80139" lon="138.31223888888888">
<ele>454</ele>
</trkpt>
<trkpt lat="36.80149888888889" lon="138.31203888888888">
<ele>454</ele>
</trkpt>
<trkpt lat="36.801606944444444" lon="138.31178888888888">
<ele>454</ele>
</trkpt>
<trkpt lat="36.80169" lon="138.31156388888888">
<ele>454</ele>
</trkpt>
<trkpt lat="36.80178194444444" lon="138.3112638888889">
<ele>448</ele>
</trkpt>
<trkpt lat="36.80184888888889" lon="138.31101388888888">
<ele>445</ele>
</trkpt>
<trkpt lat="36.80187388888889" lon="138.3108388888889">
<ele>445</ele>
</trkpt>
<trkpt lat="36.80189" lon="138.3104888888889">
<ele>447</ele>
</trkpt>
<trkpt lat="36.801856944444445" lon="138.31022694444445">
<ele>445</ele>
</trkpt>
<trkpt lat="36.80179" lon="138.31010194444445">
<ele>447</ele>
</trkpt>
<trkpt lat="36.80195694444444" lon="138.30997694444446">
<ele>448</ele>
</trkpt>
<trkpt lat="36.803023055555556" lon="138.30963888888888">
<ele>454</ele>
</trkpt>
<trkpt lat="36.80319" lon="138.3096138888889">
<ele>452</ele>
</trkpt>
<trkpt lat="36.80328194444444" lon="138.30957694444444">
<ele>453</ele>
</trkpt>
<trkpt lat="36.80332305555556" lon="138.30952694444446">
<ele>452</ele>
</trkpt>
<trkpt lat="36.803581944444446" lon="138.30907694444446">
<ele>457</ele>
</trkpt>
<trkpt lat="36.803648055555556" lon="138.30896388888888">
<ele>457</ele>
</trkpt>
<trkpt lat="36.80373194444444" lon="138.30886388888888">
<ele>457</ele>
</trkpt>
<trkpt lat="36.803823055555554" lon="138.30880194444444">
<ele>458</ele>
</trkpt>
<trkpt lat="36.80460611111111" lon="138.30841388888888">
<ele>463</ele>
</trkpt>
<trkpt lat="36.804715" lon="138.30831388888888">
<ele>464</ele>
</trkpt>
<trkpt lat="36.80493111111111" lon="138.3077638888889">
<ele>466</ele>
</trkpt>
<trkpt lat="36.80500611111111" lon="138.30765194444444">
<ele>467</ele>
</trkpt>
<trkpt lat="36.805098055555554" lon="138.3075888888889">
<ele>467</ele>
</trkpt>
<trkpt lat="36.80518111111111" lon="138.3075638888889">
<ele>468</ele>
</trkpt>
<trkpt lat="36.805365" lon="138.30761388888888">
<ele>470</ele>
</trkpt>
<trkpt lat="36.80558111111111" lon="138.30771388888888">
<ele>475</ele>
</trkpt>
<trkpt lat="36.80582305555556" lon="138.30775194444445">
<ele>475</ele>
</trkpt>
<trkpt lat="36.805948055555554" lon="138.3076888888889">
<ele>476</ele>
</trkpt>
<trkpt lat="36.806023055555556" lon="138.3075888888889">
<ele>476</ele>
</trkpt>
<trkpt lat="36.80609" lon="138.3073638888889">
<ele>474</ele>
</trkpt>
<trkpt lat="36.80619" lon="138.3067388888889">
<ele>479</ele>
</trkpt>
<trkpt lat="36.80624" lon="138.30638888888888">
<ele>487</ele>
</trkpt>
<trkpt lat="36.80619" lon="138.30615194444445">
<ele>486</ele>
</trkpt>
<trkpt lat="36.806131111111114" lon="138.306065">
<ele>487</ele>
</trkpt>
<trkpt lat="36.805798055555556" lon="138.30572694444444">
<ele>494</ele>
</trkpt>
<trkpt lat="36.80573111111111" lon="138.30562694444444">
<ele>492</ele>
</trkpt>
<trkpt lat="36.80569805555555" lon="138.30554">
<ele>493</ele>
</trkpt>
<trkpt lat="36.80569" lon="138.30537694444445">
<ele>494</ele>
</trkpt>
<trkpt lat="36.805706111111114" lon="138.30520194444443">
<ele>494</ele>
</trkpt>
<trkpt lat="36.80578111111111" lon="138.30494">
<ele>496</ele>
</trkpt>
<trkpt lat="36.80580611111111" lon="138.304865">
<ele>495</ele>
</trkpt>
<trkpt lat="36.80608888888889" lon="138.304415">
<ele>496</ele>
</trkpt>
<trkpt lat="36.806131111111114" lon="138.30432694444445">
<ele>497</ele>
</trkpt>
<trkpt lat="36.80614805555555" lon="138.304215">
<ele>496</ele>
</trkpt>
<trkpt lat="36.80612305555555" lon="138.30407694444443">
<ele>495</ele>
</trkpt>
<trkpt lat="36.805931111111114" lon="138.303515">
<ele>498</ele>
</trkpt>
<trkpt lat="36.80571388888889" lon="138.30305194444443">
<ele>504</ele>
</trkpt>
<trkpt lat="36.80568888888889" lon="138.302915">
<ele>504</ele>
</trkpt>
<trkpt lat="36.80568888888889" lon="138.30277694444445">
<ele>507</ele>
</trkpt>
<trkpt lat="36.80572305555555" lon="138.30269">
<ele>507</ele>
</trkpt>
<trkpt lat="36.80578111111111" lon="138.30262694444446">
<ele>507</ele>
</trkpt>
<trkpt lat="36.80584805555556" lon="138.30259">
<ele>507</ele>
</trkpt>
<trkpt lat="36.80621388888889" lon="138.30247805555555">
<ele>507</ele>
</trkpt>
<trkpt lat="36.806356111111114" lon="138.30239">
<ele>508</ele>
</trkpt>
<trkpt lat="36.80640611111111" lon="138.30229">
<ele>509</ele>
</trkpt>
<trkpt lat="36.80647305555556" lon="138.30205305555555">
<ele>514</ele>
</trkpt>
<trkpt lat="36.80649805555556" lon="138.30195305555554">
<ele>516</ele>
</trkpt>
<trkpt lat="36.80656388888889" lon="138.30185194444445">
<ele>516</ele>
</trkpt>
<trkpt lat="36.80663888888889" lon="138.30179">
<ele>516</ele>
</trkpt>
<trkpt lat="36.80698888888889" lon="138.30160305555555">
<ele>518</ele>
</trkpt>
<trkpt lat="36.80723888888889" lon="138.30142694444444">
<ele>519</ele>
</trkpt>
<trkpt lat="36.80741388888889" lon="138.30127694444445">
<ele>519</ele>
</trkpt>
<trkpt lat="36.80770611111111" lon="138.30095305555557">
<ele>526</ele>
</trkpt>
<trkpt lat="36.80790611111111" lon="138.30072805555557">
<ele>527</ele>
</trkpt>
<trkpt lat="36.80815611111111" lon="138.30059">
<ele>527</ele>
</trkpt>
<trkpt lat="36.80823888888889" lon="138.30050194444445">
<ele>529</ele>
</trkpt>
<trkpt lat="36.808573055555556" lon="138.29995305555556">
<ele>535</ele>
</trkpt>
<trkpt lat="36.80878111111111" lon="138.299715">
<ele>535</ele>
</trkpt>
<trkpt lat="36.80932305555555" lon="138.299465">
<ele>539</ele>
</trkpt>
<trkpt lat="36.80945611111111" lon="138.29937805555556">
<ele>545</ele>
</trkpt>
<trkpt lat="36.80954694444444" lon="138.29929">
<ele>543</ele>
</trkpt>
<trkpt lat="36.80959694444444" lon="138.29920305555555">
<ele>545</ele>
</trkpt>
<trkpt lat="36.80963111111111" lon="138.29910305555555">
<ele>544</ele>
</trkpt>
<trkpt lat="36.80965611111111" lon="138.298965">
<ele>544</ele>
</trkpt>
<trkpt lat="36.809646944444445" lon="138.298815">
<ele>544</ele>
</trkpt>
<trkpt lat="36.80959694444444" lon="138.29864">
<ele>546</ele>
</trkpt>
<trkpt lat="36.809488888888886" lon="138.29837805555556">
<ele>552</ele>
</trkpt>
<trkpt lat="36.80923111111111" lon="138.29795305555555">
<ele>556</ele>
</trkpt>
<trkpt lat="36.80916388888889" lon="138.297765">
<ele>556</ele>
</trkpt>
<trkpt lat="36.80895611111111" lon="138.2964411111111">
<ele>566</ele>
</trkpt>
<trkpt lat="36.808931111111114" lon="138.29615305555555">
<ele>573</ele>
</trkpt>
<trkpt lat="36.80892194444444" lon="138.29560305555555">
<ele>576</ele>
</trkpt>
<trkpt lat="36.80896388888889" lon="138.29530305555556">
<ele>575</ele>
</trkpt>
<trkpt lat="36.80903111111111" lon="138.29475305555556">
<ele>584</ele>
</trkpt>
<trkpt lat="36.80912194444444" lon="138.29450305555557">
<ele>585</ele>
</trkpt>
<trkpt lat="36.80918888888889" lon="138.2944161111111">
<ele>583</ele>
</trkpt>
<trkpt lat="36.809421944444445" lon="138.2941661111111">
<ele>586</ele>
</trkpt>
<trkpt lat="36.80953888888889" lon="138.29405305555557">
<ele>591</ele>
</trkpt>
<trkpt lat="36.80958888888889" lon="138.2939911111111">
<ele>594</ele>
</trkpt>
<trkpt lat="36.809646944444445" lon="138.2938411111111">
<ele>593</ele>
</trkpt>
<trkpt lat="36.80980111111111" lon="138.2931561111111">
<ele>593</ele>
</trkpt>
<trkpt lat="36.80980111111111" lon="138.2931561111111">
<ele>593</ele>
</trkpt>
<trkpt lat="36.80988111111111" lon="138.29280305555557">
<ele>593</ele>
</trkpt>
<trkpt lat="36.80998888888889" lon="138.2925161111111">
<ele>595</ele>
</trkpt>
<trkpt lat="36.81016388888889" lon="138.29232805555554">
<ele>599</ele>
</trkpt>
<trkpt lat="36.810305" lon="138.2922661111111">
<ele>601</ele>
</trkpt>
<trkpt lat="36.810455" lon="138.2922411111111">
<ele>606</ele>
</trkpt>
<trkpt lat="36.81063" lon="138.29220305555555">
<ele>609</ele>
</trkpt>
<trkpt lat="36.810746944444446" lon="138.2921661111111">
<ele>613</ele>
</trkpt>
<trkpt lat="36.810855" lon="138.29210305555554">
<ele>614</ele>
</trkpt>
<trkpt lat="36.810946944444446" lon="138.2920161111111">
<ele>616</ele>
</trkpt>
<trkpt lat="36.81123888888889" lon="138.29172805555555">
<ele>615</ele>
</trkpt>
<trkpt lat="36.811413888888886" lon="138.29155305555557">
<ele>613</ele>
</trkpt>
<trkpt lat="36.81149694444444" lon="138.2914911111111">
<ele>615</ele>
</trkpt>
<trkpt lat="36.81191388888889" lon="138.29122805555556">
<ele>618</ele>
</trkpt>
<trkpt lat="36.81198" lon="138.29116611111112">
<ele>617</ele>
</trkpt>
<trkpt lat="36.812005" lon="138.29109111111111">
<ele>618</ele>
</trkpt>
<trkpt lat="36.811971944444444" lon="138.2909911111111">
<ele>618</ele>
</trkpt>
<trkpt lat="36.811838888888886" lon="138.29086611111111">
<ele>621</ele>
</trkpt>
<trkpt lat="36.81178" lon="138.29072888888888">
<ele>622</ele>
</trkpt>
<trkpt lat="36.81178888888889" lon="138.29060388888888">
<ele>624</ele>
</trkpt>
<trkpt lat="36.81184694444445" lon="138.2905411111111">
<ele>626</ele>
</trkpt>
<trkpt lat="36.811905" lon="138.29050388888888">
<ele>625</ele>
</trkpt>
<trkpt lat="36.81198888888889" lon="138.29050388888888">
<ele>625</ele>
</trkpt>
<trkpt lat="36.812221944444445" lon="138.2905661111111">
<ele>624</ele>
</trkpt>
<trkpt lat="36.81229694444445" lon="138.2905661111111">
<ele>624</ele>
</trkpt>
<trkpt lat="36.812463055555554" lon="138.29051611111112">
<ele>627</ele>
</trkpt>
<trkpt lat="36.81254694444444" lon="138.2904538888889">
<ele>627</ele>
</trkpt>
<trkpt lat="36.813005" lon="138.29005388888888">
<ele>640</ele>
</trkpt>
<trkpt lat="36.81363" lon="138.2893038888889">
<ele>647</ele>
</trkpt>
<trkpt lat="36.81391305555555" lon="138.2888661111111">
<ele>653</ele>
</trkpt>
<trkpt lat="36.81408" lon="138.28869111111112">
<ele>654</ele>
</trkpt>
<trkpt lat="36.814413055555555" lon="138.28846611111112">
<ele>655</ele>
</trkpt>
<trkpt lat="36.814505" lon="138.28836611111112">
<ele>658</ele>
</trkpt>
<trkpt lat="36.81468" lon="138.2879788888889">
<ele>664</ele>
</trkpt>
<trkpt lat="36.81472111111111" lon="138.2878538888889">
<ele>666</ele>
</trkpt>
<trkpt lat="36.814555" lon="138.2876161111111">
<ele>669</ele>
</trkpt>
<trkpt lat="36.81454611111111" lon="138.2875288888889">
<ele>672</ele>
</trkpt>
<trkpt lat="36.81456305555555" lon="138.2873911111111">
<ele>675</ele>
</trkpt>
<trkpt lat="36.81467111111111" lon="138.2870661111111">
<ele>676</ele>
</trkpt>
<trkpt lat="36.815005" lon="138.2872538888889">
<ele>683</ele>
</trkpt>
<trkpt lat="36.815663055555554" lon="138.28742888888888">
<ele>685</ele>
</trkpt>
<trkpt lat="36.81574611111111" lon="138.28744111111112">
<ele>685</ele>
</trkpt>
<trkpt lat="36.81592111111111" lon="138.28745388888888">
<ele>683</ele>
</trkpt>
<trkpt lat="36.81638" lon="138.28744111111112">
<ele>686</ele>
</trkpt>
<trkpt lat="36.816655" lon="138.28746611111112">
<ele>685</ele>
</trkpt>
<trkpt lat="36.81702111111111" lon="138.2875288888889">
<ele>687</ele>
</trkpt>
<trkpt lat="36.81776305555555" lon="138.2876161111111">
<ele>693</ele>
</trkpt>
<trkpt lat="36.81794611111111" lon="138.2875911111111">
<ele>694</ele>
</trkpt>
<trkpt lat="36.81821305555555" lon="138.2875038888889">
<ele>697</ele>
</trkpt>
<trkpt lat="36.81843805555555" lon="138.2874911111111">
<ele>703</ele>
</trkpt>
<trkpt lat="36.81947111111111" lon="138.2875288888889">
<ele>715</ele>
</trkpt>
<trkpt lat="36.81964611111111" lon="138.2875788888889">
<ele>714</ele>
</trkpt>
<trkpt lat="36.819763055555555" lon="138.2876411111111">
<ele>714</ele>
</trkpt>
<trkpt lat="36.81989611111111" lon="138.2877161111111">
<ele>715</ele>
</trkpt>
<trkpt lat="36.82007111111111" lon="138.2878661111111">
<ele>716</ele>
</trkpt>
<trkpt lat="36.82077888888889" lon="138.2886288888889">
<ele>717</ele>
</trkpt>
<trkpt lat="36.82087111111111" lon="138.2887288888889">
<ele>714</ele>
</trkpt>
<trkpt lat="36.82147888888889" lon="138.2894411111111">
<ele>736</ele>
</trkpt>
<trkpt lat="36.82172111111111" lon="138.28980305555555">
<ele>735</ele>
</trkpt>
<trkpt lat="36.82181305555556" lon="138.2899911111111">
<ele>738</ele>
</trkpt>
<trkpt lat="36.82187888888889" lon="138.29016611111112">
<ele>743</ele>
</trkpt>
<trkpt lat="36.82195388888889" lon="138.29071611111112">
<ele>744</ele>
</trkpt>
<trkpt lat="36.82204611111111" lon="138.2910161111111">
<ele>744</ele>
</trkpt>
<trkpt lat="36.822113055555555" lon="138.29115305555555">
<ele>746</ele>
</trkpt>
<trkpt lat="36.82222888888889" lon="138.29129111111112">
<ele>750</ele>
</trkpt>
<trkpt lat="36.82243694444445" lon="138.2914661111111">
<ele>752</ele>
</trkpt>
<trkpt lat="36.822696111111114" lon="138.2915911111111">
<ele>756</ele>
</trkpt>
<trkpt lat="36.822828888888886" lon="138.29165305555554">
<ele>760</ele>
</trkpt>
<trkpt lat="36.82294611111111" lon="138.29175305555555">
<ele>765</ele>
</trkpt>
<trkpt lat="36.82315388888889" lon="138.29200305555557">
<ele>767</ele>
</trkpt>
<trkpt lat="36.82320388888889" lon="138.2921411111111">
<ele>766</ele>
</trkpt>
<trkpt lat="36.823278888888886" lon="138.29252805555555">
<ele>775</ele>
</trkpt>
<trkpt lat="36.823478888888886" lon="138.29286611111112">
<ele>776</ele>
</trkpt>
<trkpt lat="36.823571111111114" lon="138.2930661111111">
<ele>778</ele>
</trkpt>
<trkpt lat="36.82359611111111" lon="138.2934161111111">
<ele>776</ele>
</trkpt>
<trkpt lat="36.823636944444445" lon="138.29360305555556">
<ele>776</ele>
</trkpt>
<trkpt lat="36.82367111111111" lon="138.29370305555557">
<ele>776</ele>
</trkpt>
<trkpt lat="36.82374611111111" lon="138.29380305555554">
<ele>778</ele>
</trkpt>
<trkpt lat="36.823838055555555" lon="138.29389">
<ele>778</ele>
</trkpt>
<trkpt lat="36.82444611111111" lon="138.29434">
<ele>784</ele>
</trkpt>
<trkpt lat="36.82457888888889" lon="138.294465">
<ele>785</ele>
</trkpt>
<trkpt lat="36.82472111111111" lon="138.29470305555554">
<ele>786</ele>
</trkpt>
<trkpt lat="36.824978888888886" lon="138.29537805555555">
<ele>788</ele>
</trkpt>
<trkpt lat="36.82508694444444" lon="138.29552805555556">
<ele>788</ele>
</trkpt>
<trkpt lat="36.82525388888889" lon="138.29565305555556">
<ele>788</ele>
</trkpt>
<trkpt lat="36.82544611111111" lon="138.29570305555555">
<ele>790</ele>
</trkpt>
<trkpt lat="36.82572888888889" lon="138.29572694444445">
<ele>792</ele>
</trkpt>
<trkpt lat="36.82607111111111" lon="138.29577694444444">
<ele>792</ele>
</trkpt>
<trkpt lat="36.82627111111111" lon="138.29580194444443">
<ele>794</ele>
</trkpt>
<trkpt lat="36.82655388888889" lon="138.29587694444444">
<ele>796</ele>
</trkpt>
<trkpt lat="36.826771111111114" lon="138.29599">
<ele>798</ele>
</trkpt>
<trkpt lat="36.826886944444446" lon="138.29607805555557">
<ele>799</ele>
</trkpt>
<trkpt lat="36.827086944444446" lon="138.296215">
<ele>798</ele>
</trkpt>
<trkpt lat="36.82725388888889" lon="138.296365">
<ele>799</ele>
</trkpt>
<trkpt lat="36.82730388888889" lon="138.29644">
<ele>799</ele>
</trkpt>
<trkpt lat="36.82740388888889" lon="138.29659">
<ele>800</ele>
</trkpt>
<trkpt lat="36.82753694444445" lon="138.296715">
<ele>801</ele>
</trkpt>
<trkpt lat="36.827711944444445" lon="138.29680194444444">
<ele>802</ele>
</trkpt>
<trkpt lat="36.82802888888889" lon="138.29699">
<ele>802</ele>
</trkpt>
<trkpt lat="36.82822888888889" lon="138.297115">
<ele>806</ele>
</trkpt>
<trkpt lat="36.828403888888886" lon="138.29725305555556">
<ele>807</ele>
</trkpt>
<trkpt lat="36.82882" lon="138.29760194444444">
<ele>815</ele>
</trkpt>
<trkpt lat="36.82907888888889" lon="138.29770194444444">
<ele>815</ele>
</trkpt>
<trkpt lat="36.82920388888889" lon="138.29775194444446">
<ele>815</ele>
</trkpt>
<trkpt lat="36.829545" lon="138.29795194444443">
<ele>823</ele>
</trkpt>
<trkpt lat="36.83082888888889" lon="138.29855194444445">
<ele>825</ele>
</trkpt>
<trkpt lat="36.83128694444444" lon="138.29874">
<ele>824</ele>
</trkpt>
<trkpt lat="36.831536944444444" lon="138.29888888888888">
<ele>825</ele>
</trkpt>
<trkpt lat="36.831995" lon="138.2990888888889">
<ele>823</ele>
</trkpt>
<trkpt lat="36.83204305555556" lon="138.29909694444444">
<ele>823</ele>
</trkpt>
<trkpt lat="36.83204305555556" lon="138.29909694444444">
<ele>823</ele>
</trkpt>
<trkpt lat="36.83240305555555" lon="138.29915194444445">
<ele>825</ele>
</trkpt>
<trkpt lat="36.832995" lon="138.29927694444444">
<ele>834</ele>
</trkpt>
<trkpt lat="36.83322" lon="138.2992888888889">
<ele>834</ele>
</trkpt>
<trkpt lat="36.83338694444444" lon="138.29927694444444">
<ele>835</ele>
</trkpt>
<trkpt lat="36.833528055555554" lon="138.29922694444446">
<ele>835</ele>
</trkpt>
<trkpt lat="36.833661944444444" lon="138.29912694444445">
<ele>833</ele>
</trkpt>
<trkpt lat="36.83392805555555" lon="138.29885194444444">
<ele>836</ele>
</trkpt>
<trkpt lat="36.834378055555554" lon="138.29827694444444">
<ele>834</ele>
</trkpt>
<trkpt lat="36.834561111111114" lon="138.29815194444444">
<ele>834</ele>
</trkpt>
<trkpt lat="36.83483611111111" lon="138.29810194444445">
<ele>833</ele>
</trkpt>
<trkpt lat="36.83510305555556" lon="138.29812694444445">
<ele>836</ele>
</trkpt>
<trkpt lat="36.835303055555556" lon="138.29808888888888">
<ele>837</ele>
</trkpt>
<trkpt lat="36.835453055555554" lon="138.29802694444444">
<ele>839</ele>
</trkpt>
<trkpt lat="36.83560305555555" lon="138.2979138888889">
<ele>838</ele>
</trkpt>
<trkpt lat="36.835745" lon="138.29772694444443">
<ele>838</ele>
</trkpt>
<trkpt lat="36.83595305555556" lon="138.29731388888888">
<ele>842</ele>
</trkpt>
<trkpt lat="36.83607" lon="138.2971388888889">
<ele>843</ele>
</trkpt>
<trkpt lat="36.83618611111111" lon="138.2970138888889">
<ele>844</ele>
</trkpt>
<trkpt lat="36.83640305555556" lon="138.2968138888889">
<ele>847</ele>
</trkpt>
<trkpt lat="36.83672" lon="138.2965638888889">
<ele>855</ele>
</trkpt>
<trkpt lat="36.836778055555556" lon="138.2964888888889">
<ele>857</ele>
</trkpt>
<trkpt lat="36.83685305555556" lon="138.296365">
<ele>855</ele>
</trkpt>
<trkpt lat="36.83690305555555" lon="138.29614">
<ele>855</ele>
</trkpt>
<trkpt lat="36.83690305555555" lon="138.295965">
<ele>855</ele>
</trkpt>
<trkpt lat="36.83686888888889" lon="138.295715">
<ele>855</ele>
</trkpt>
<trkpt lat="36.836778055555556" lon="138.29549">
<ele>856</ele>
</trkpt>
<trkpt lat="36.836711111111114" lon="138.29527694444445">
<ele>855</ele>
</trkpt>
<trkpt lat="36.83666111111111" lon="138.29507694444445">
<ele>854</ele>
</trkpt>
<trkpt lat="36.83663611111111" lon="138.29487694444444">
<ele>855</ele>
</trkpt>
<trkpt lat="36.83665305555556" lon="138.294715">
<ele>855</ele>
</trkpt>
<trkpt lat="36.83666888888889" lon="138.29457694444446">
<ele>857</ele>
</trkpt>
<trkpt lat="36.83671888888889" lon="138.29442694444444">
<ele>859</ele>
</trkpt>
<trkpt lat="36.83676888888889" lon="138.29430194444444">
<ele>860</ele>
</trkpt>
<trkpt lat="36.83683611111111" lon="138.294215">
<ele>862</ele>
</trkpt>
<trkpt lat="36.836953055555554" lon="138.29410305555555">
<ele>865</ele>
</trkpt>
<trkpt lat="36.83711111111111" lon="138.293965">
<ele>866</ele>
</trkpt>
<trkpt lat="36.83730305555556" lon="138.29387805555555">
<ele>867</ele>
</trkpt>
<trkpt lat="36.83741888888889" lon="138.29384">
<ele>869</ele>
</trkpt>
<trkpt lat="36.83763611111111" lon="138.29379">
<ele>872</ele>
</trkpt>
<trkpt lat="36.837803055555554" lon="138.29380194444445">
<ele>871</ele>
</trkpt>
<trkpt lat="36.83799388888889" lon="138.29387805555555">
<ele>873</ele>
</trkpt>
<trkpt lat="36.83806111111111" lon="138.293915">
<ele>877</ele>
</trkpt>
<trkpt lat="36.83844388888889" lon="138.29412694444446">
<ele>879</ele>
</trkpt>
<trkpt lat="36.83855194444445" lon="138.29414">
<ele>879</ele>
</trkpt>
<trkpt lat="36.838768888888886" lon="138.294065">
<ele>884</ele>
</trkpt>
<trkpt lat="36.83882805555555" lon="138.29399">
<ele>890</ele>
</trkpt>
<trkpt lat="36.83888611111111" lon="138.29380194444445">
<ele>891</ele>
</trkpt>
<trkpt lat="36.838926944444445" lon="138.29354">
<ele>896</ele>
</trkpt>
<trkpt lat="36.83896111111111" lon="138.29320305555555">
<ele>899</ele>
</trkpt>
<trkpt lat="36.83900194444445" lon="138.29279">
<ele>903</ele>
</trkpt>
<trkpt lat="36.839061111111114" lon="138.29220305555555">
<ele>906</ele>
</trkpt>
<trkpt lat="36.839078055555554" lon="138.29197805555555">
<ele>910</ele>
</trkpt>
<trkpt lat="36.839103055555555" lon="138.29177694444445">
<ele>910</ele>
</trkpt>
<trkpt lat="36.839128055555555" lon="138.29165194444445">
<ele>912</ele>
</trkpt>
<trkpt lat="36.83920194444445" lon="138.29142694444445">
<ele>911</ele>
</trkpt>
<trkpt lat="36.839326944444444" lon="138.29119">
<ele>914</ele>
</trkpt>
<trkpt lat="36.839418888888886" lon="138.29105305555555">
<ele>919</ele>
</trkpt>
<trkpt lat="36.83958611111111" lon="138.29080305555556">
<ele>923</ele>
</trkpt>
<trkpt lat="36.83964388888889" lon="138.29067805555556">
<ele>924</ele>
</trkpt>
<trkpt lat="36.839686111111114" lon="138.29054">
<ele>925</ele>
</trkpt>
<trkpt lat="36.83969388888889" lon="138.29044">
<ele>927</ele>
</trkpt>
<trkpt lat="36.83967805555555" lon="138.29029">
<ele>928</ele>
</trkpt>
<trkpt lat="36.83964388888889" lon="138.29020305555557">
<ele>930</ele>
</trkpt>
<trkpt lat="36.83954388888889" lon="138.29005305555555">
<ele>932</ele>
</trkpt>
<trkpt lat="36.83937805555556" lon="138.289815">
<ele>934</ele>
</trkpt>
<trkpt lat="36.83934388888889" lon="138.28970305555555">
<ele>936</ele>
</trkpt>
<trkpt lat="36.83934388888889" lon="138.28964">
<ele>937</ele>
</trkpt>
<trkpt lat="36.83936888888889" lon="138.28949">
<ele>939</ele>
</trkpt>
<trkpt lat="36.839418888888886" lon="138.28934">
<ele>940</ele>
</trkpt>
<trkpt lat="36.839526944444444" lon="138.28919">
<ele>944</ele>
</trkpt>
<trkpt lat="36.83964388888889" lon="138.28915305555554">
<ele>945</ele>
</trkpt>
<trkpt lat="36.84001888888889" lon="138.28907805555556">
<ele>947</ele>
</trkpt>
<trkpt lat="36.84030194444444" lon="138.289015">
<ele>945</ele>
</trkpt>
<trkpt lat="36.84052694444444" lon="138.28885305555556">
<ele>939</ele>
</trkpt>
<trkpt lat="36.84071111111111" lon="138.28860305555557">
<ele>937</ele>
</trkpt>
<trkpt lat="36.840826944444444" lon="138.2883911111111">
<ele>937</ele>
</trkpt>
<trkpt lat="36.84086888888889" lon="138.2880661111111">
<ele>938</ele>
</trkpt>
<trkpt lat="36.84086888888889" lon="138.2875161111111">
<ele>940</ele>
</trkpt>
<trkpt lat="36.84088611111111" lon="138.2871911111111">
<ele>947</ele>
</trkpt>
<trkpt lat="36.84093611111111" lon="138.28697805555555">
<ele>946</ele>
</trkpt>
<trkpt lat="36.84106111111111" lon="138.28670305555556">
<ele>946</ele>
</trkpt>
<trkpt lat="36.841211111111114" lon="138.28654111111112">
<ele>945</ele>
</trkpt>
<trkpt lat="36.84137694444444" lon="138.28644111111112">
<ele>937</ele>
</trkpt>
<trkpt lat="36.84169388888889" lon="138.2863411111111">
<ele>946</ele>
</trkpt>
<trkpt lat="36.841951944444446" lon="138.28635305555557">
<ele>952</ele>
</trkpt>
<trkpt lat="36.842635" lon="138.28647805555556">
<ele>962</ele>
</trkpt>
<trkpt lat="36.84286" lon="138.28655305555554">
<ele>963</ele>
</trkpt>
<trkpt lat="36.843243888888885" lon="138.28675305555555">
<ele>959</ele>
</trkpt>
<trkpt lat="36.84341" lon="138.28686611111112">
<ele>955</ele>
</trkpt>
<trkpt lat="36.84356" lon="138.28701611111111">
<ele>943</ele>
</trkpt>
<trkpt lat="36.84366888888889" lon="138.28712805555554">
<ele>943</ele>
</trkpt>
<trkpt lat="36.843735" lon="138.2871661111111">
<ele>943</ele>
</trkpt>
<trkpt lat="36.84404305555555" lon="138.28727805555556">
<ele>957</ele>
</trkpt>
<trkpt lat="36.84429305555555" lon="138.2873661111111">
<ele>963</ele>
</trkpt>
<trkpt lat="36.84476" lon="138.28734111111112">
<ele>954</ele>
</trkpt>
<trkpt lat="36.84501" lon="138.28721611111112">
<ele>963</ele>
</trkpt>
<trkpt lat="36.845193055555555" lon="138.28715305555556">
<ele>963</ele>
</trkpt>
<trkpt lat="36.845376944444446" lon="138.28715305555556">
<ele>961</ele>
</trkpt>
<trkpt lat="36.84551805555556" lon="138.28722805555554">
<ele>961</ele>
</trkpt>
<trkpt lat="36.845635" lon="138.28737805555556">
<ele>962</ele>
</trkpt>
<trkpt lat="36.84571" lon="138.28756611111112">
<ele>962</ele>
</trkpt>
<trkpt lat="36.84571" lon="138.287725">
<ele>962</ele>
</trkpt>
<trkpt lat="36.84571" lon="138.287725">
<ele>962</ele>
</trkpt>
<trkpt lat="36.84571" lon="138.28772805555556">
<ele>962</ele>
</trkpt>
<trkpt lat="36.84571805555556" lon="138.28827805555557">
<ele>961</ele>
</trkpt>
<trkpt lat="36.845735" lon="138.28844">
<ele>962</ele>
</trkpt>
<trkpt lat="36.845785" lon="138.28855305555555">
<ele>963</ele>
</trkpt>
<trkpt lat="36.84586" lon="138.28865305555556">
<ele>963</ele>
</trkpt>
<trkpt lat="36.84594305555556" lon="138.288715">
<ele>962</ele>
</trkpt>
<trkpt lat="36.84671" lon="138.28872805555557">
<ele>964</ele>
</trkpt>
<trkpt lat="36.846985" lon="138.28879">
<ele>964</ele>
</trkpt>
<trkpt lat="36.84725111111111" lon="138.28889">
<ele>963</ele>
</trkpt>
<trkpt lat="36.847318055555554" lon="138.288965">
<ele>963</ele>
</trkpt>
<trkpt lat="36.84740111111111" lon="138.28907805555556">
<ele>963</ele>
</trkpt>
<trkpt lat="36.84746" lon="138.28919">
<ele>965</ele>
</trkpt>
<trkpt lat="36.84751" lon="138.28940305555557">
<ele>968</ele>
</trkpt>
<trkpt lat="36.84761805555556" lon="138.28990194444444">
<ele>973</ele>
</trkpt>
<trkpt lat="36.84772611111111" lon="138.29022805555556">
<ele>973</ele>
</trkpt>
<trkpt lat="36.847793055555556" lon="138.29034">
<ele>973</ele>
</trkpt>
<trkpt lat="36.847968055555555" lon="138.290465">
<ele>973</ele>
</trkpt>
<trkpt lat="36.84800111111111" lon="138.29047805555555">
<ele>974</ele>
</trkpt>
<trkpt lat="36.84816" lon="138.29049">
<ele>974</ele>
</trkpt>
<trkpt lat="36.84840111111111" lon="138.29042694444445">
<ele>975</ele>
</trkpt>
<trkpt lat="36.84873388888889" lon="138.29022805555556">
<ele>973</ele>
</trkpt>
<trkpt lat="36.849001111111114" lon="138.29002805555555">
<ele>973</ele>
</trkpt>
<trkpt lat="36.84923388888889" lon="138.28979">
<ele>974</ele>
</trkpt>
<trkpt lat="36.84935111111111" lon="138.28967694444444">
<ele>973</ele>
</trkpt>
<trkpt lat="36.84980888888889" lon="138.28919">
<ele>971</ele>
</trkpt>
<trkpt lat="36.84995111111111" lon="138.28909">
<ele>971</ele>
</trkpt>
<trkpt lat="36.85001805555556" lon="138.289065">
<ele>971</ele>
</trkpt>
<trkpt lat="36.85019305555556" lon="138.28905305555554">
<ele>972</ele>
</trkpt>
<trkpt lat="36.85055111111111" lon="138.289215">
<ele>972</ele>
</trkpt>
<trkpt lat="36.85070888888889" lon="138.28934">
<ele>972</ele>
</trkpt>
<trkpt lat="36.85080111111111" lon="138.28945305555555">
<ele>974</ele>
</trkpt>
<trkpt lat="36.85085888888889" lon="138.28957805555555">
<ele>977</ele>
</trkpt>
<trkpt lat="36.85091805555555" lon="138.28972694444445">
<ele>981</ele>
</trkpt>
<trkpt lat="36.850966944444444" lon="138.28989">
<ele>985</ele>
</trkpt>
<trkpt lat="36.85095111111111" lon="138.29002805555555">
<ele>986</ele>
</trkpt>
<trkpt lat="36.85075111111111" lon="138.290615">
<ele>987</ele>
</trkpt>
<trkpt lat="36.850476111111114" lon="138.291515">
<ele>988</ele>
</trkpt>
<trkpt lat="36.85044305555556" lon="138.29172694444443">
<ele>987</ele>
</trkpt>
<trkpt lat="36.85045111111111" lon="138.29195194444443">
<ele>989</ele>
</trkpt>
<trkpt lat="36.850501111111114" lon="138.29220194444446">
<ele>988</ele>
</trkpt>
<trkpt lat="36.85055111111111" lon="138.29229">
<ele>988</ele>
</trkpt>
<trkpt lat="36.85062611111111" lon="138.29237694444444">
<ele>987</ele>
</trkpt>
<trkpt lat="36.850718055555554" lon="138.29242694444446">
<ele>988</ele>
</trkpt>
<trkpt lat="36.85085888888889" lon="138.292465">
<ele>987</ele>
</trkpt>
<trkpt lat="36.85100888888889" lon="138.292465">
<ele>990</ele>
</trkpt>
<trkpt lat="36.85113388888889" lon="138.292415">
<ele>992</ele>
</trkpt>
<trkpt lat="36.85170111111111" lon="138.29194">
<ele>997</ele>
</trkpt>
<trkpt lat="36.85187611111111" lon="138.292115">
<ele>994</ele>
</trkpt>
<trkpt lat="36.85208388888889" lon="138.292265">
<ele>993</ele>
</trkpt>
<trkpt lat="36.852268055555555" lon="138.29235194444445">
<ele>991</ele>
</trkpt>
<trkpt lat="36.85245888888889" lon="138.292415">
<ele>989</ele>
</trkpt>
<trkpt lat="36.85280111111111" lon="138.292415">
<ele>986</ele>
</trkpt>
<trkpt lat="36.853141944444445" lon="138.29232694444445">
<ele>984</ele>
</trkpt>
<trkpt lat="36.85324194444444" lon="138.29230194444443">
<ele>983</ele>
</trkpt>
<trkpt lat="36.85340111111111" lon="138.29224">
<ele>982</ele>
</trkpt>
<trkpt lat="36.85369194444444" lon="138.29199">
<ele>986</ele>
</trkpt>
<trkpt lat="36.85380111111111" lon="138.29194">
<ele>987</ele>
</trkpt>
<trkpt lat="36.853901111111114" lon="138.29194">
<ele>991</ele>
</trkpt>
<trkpt lat="36.85393388888889" lon="138.291965">
<ele>991</ele>
</trkpt>
<trkpt lat="36.85397611111111" lon="138.292015">
<ele>988</ele>
</trkpt>
<trkpt lat="36.85402611111111" lon="138.292165">
<ele>988</ele>
</trkpt>
<trkpt lat="36.85410111111111" lon="138.29244">
<ele>985</ele>
</trkpt>
<trkpt lat="36.85430888888889" lon="138.29321388888889">
<ele>986</ele>
</trkpt>
<trkpt lat="36.85447611111111" lon="138.29382694444445">
<ele>979</ele>
</trkpt>
<trkpt lat="36.85469194444445" lon="138.2946638888889">
<ele>973</ele>
</trkpt>
<trkpt lat="36.85476694444444" lon="138.29495194444445">
<ele>971</ele>
</trkpt>
<trkpt lat="36.85485111111111" lon="138.29520194444444">
<ele>969</ele>
</trkpt>
<trkpt lat="36.85491805555556" lon="138.2954588888889">
<ele>967</ele>
</trkpt>
<trkpt lat="36.85491805555556" lon="138.2954588888889">
<ele>967</ele>
</trkpt>
<trkpt lat="36.85501694444444" lon="138.29583888888888">
<ele>964</ele>
</trkpt>
<trkpt lat="36.855091944444446" lon="138.2960138888889">
<ele>964</ele>
</trkpt>
<trkpt lat="36.85493388888889" lon="138.29617694444445">
<ele>963</ele>
</trkpt>
<trkpt lat="36.85475888888889" lon="138.29645194444444">
<ele>961</ele>
</trkpt>
<trkpt lat="36.85474194444444" lon="138.29653888888888">
<ele>961</ele>
</trkpt>
<trkpt lat="36.85475111111111" lon="138.29661388888888">
<ele>962</ele>
</trkpt>
<trkpt lat="36.85483388888889" lon="138.29712694444444">
<ele>960</ele>
</trkpt>
<trkpt lat="36.85485111111111" lon="138.29718888888888">
<ele>960</ele>
</trkpt>
<trkpt lat="36.85492611111111" lon="138.29725194444444">
<ele>957</ele>
</trkpt>
<trkpt lat="36.855426111111115" lon="138.29755111111112">
<ele>954</ele>
</trkpt>
<trkpt lat="36.855491944444445" lon="138.2975638888889">
<ele>951</ele>
</trkpt>
<trkpt lat="36.85576694444445" lon="138.2974638888889">
<ele>946</ele>
</trkpt>
<trkpt lat="36.855825" lon="138.2974638888889">
<ele>945</ele>
</trkpt>
<trkpt lat="36.855891944444444" lon="138.2975138888889">
<ele>946</ele>
</trkpt>
<trkpt lat="36.8561" lon="138.29766388888888">
<ele>944</ele>
</trkpt>
<trkpt lat="36.856141944444445" lon="138.29765111111112">
<ele>944</ele>
</trkpt>
<trkpt lat="36.85643388888889" lon="138.29753888888888">
<ele>946</ele>
</trkpt>
<trkpt lat="36.85648388888889" lon="138.29753888888888">
<ele>945</ele>
</trkpt>
<trkpt lat="36.85655" lon="138.2975761111111">
<ele>943</ele>
</trkpt>
<trkpt lat="36.85675" lon="138.29777611111112">
<ele>939</ele>
</trkpt>
<trkpt lat="36.85684194444445" lon="138.2978138888889">
<ele>936</ele>
</trkpt>
<trkpt lat="36.857191944444445" lon="138.29786388888888">
<ele>937</ele>
</trkpt>
<trkpt lat="36.857258888888886" lon="138.29788888888888">
<ele>936</ele>
</trkpt>
<trkpt lat="36.857325" lon="138.2979761111111">
<ele>936</ele>
</trkpt>
<trkpt lat="36.85746694444445" lon="138.29831388888888">
<ele>928</ele>
</trkpt>
<trkpt lat="36.85756694444444" lon="138.2984761111111">
<ele>926</ele>
</trkpt>
<trkpt lat="36.857666944444446" lon="138.29857611111112">
<ele>925</ele>
</trkpt>
<trkpt lat="36.857883888888885" lon="138.29880111111112">
<ele>922</ele>
</trkpt>
<trkpt lat="36.85793388888889" lon="138.29891388888888">
<ele>923</ele>
</trkpt>
<trkpt lat="36.85791694444445" lon="138.2990638888889">
<ele>921</ele>
</trkpt>
<trkpt lat="36.85789194444445" lon="138.29915111111112">
<ele>920</ele>
</trkpt>
<trkpt lat="36.85775" lon="138.2992888888889">
<ele>917</ele>
</trkpt>
<trkpt lat="36.85760888888889" lon="138.29936388888888">
<ele>917</ele>
</trkpt>
<trkpt lat="36.85753388888889" lon="138.2994388888889">
<ele>913</ele>
</trkpt>
<trkpt lat="36.8573" lon="138.29970111111112">
<ele>906</ele>
</trkpt>
<trkpt lat="36.85705" lon="138.30023888888888">
<ele>897</ele>
</trkpt>
<trkpt lat="36.85698388888889" lon="138.3006638888889">
<ele>896</ele>
</trkpt>
<trkpt lat="36.85705" lon="138.30095111111112">
<ele>892</ele>
</trkpt>
<trkpt lat="36.857175" lon="138.3011388888889">
<ele>891</ele>
</trkpt>
<trkpt lat="36.85743388888889" lon="138.30137611111113">
<ele>885</ele>
</trkpt>
<trkpt lat="36.85753388888889" lon="138.3014261111111">
<ele>886</ele>
</trkpt>
<trkpt lat="36.85820888888889" lon="138.30197611111112">
<ele>887</ele>
</trkpt>
<trkpt lat="36.8584" lon="138.30216388888888">
<ele>887</ele>
</trkpt>
<trkpt lat="36.85873388888889" lon="138.30256305555557">
<ele>884</ele>
</trkpt>
<trkpt lat="36.858825" lon="138.30271305555556">
<ele>880</ele>
</trkpt>
<trkpt lat="36.8589" lon="138.30293805555556">
<ele>878</ele>
</trkpt>
<trkpt lat="36.858958888888885" lon="138.3032761111111">
<ele>875</ele>
</trkpt>
<trkpt lat="36.85900888888889" lon="138.3036011111111">
<ele>870</ele>
</trkpt>
<trkpt lat="36.859116944444445" lon="138.30441305555556">
<ele>863</ele>
</trkpt>
<trkpt lat="36.85915" lon="138.3046511111111">
<ele>861</ele>
</trkpt>
<trkpt lat="36.8592" lon="138.30521305555556">
<ele>854</ele>
</trkpt>
<trkpt lat="36.85924194444444" lon="138.3059511111111">
<ele>851</ele>
</trkpt>
<trkpt lat="36.85923388888889" lon="138.30621305555556">
<ele>850</ele>
</trkpt>
<trkpt lat="36.859025" lon="138.3071011111111">
<ele>846</ele>
</trkpt>
<trkpt lat="36.85895" lon="138.30715111111112">
<ele>842</ele>
</trkpt>
<trkpt lat="36.85881694444444" lon="138.30715111111112">
<ele>840</ele>
</trkpt>
<trkpt lat="36.85875" lon="138.30705111111112">
<ele>840</ele>
</trkpt>
<trkpt lat="36.85863388888889" lon="138.3067511111111">
<ele>834</ele>
</trkpt>
<trkpt lat="36.85855" lon="138.3066511111111">
<ele>834</ele>
</trkpt>
<trkpt lat="36.858516944444446" lon="138.30660111111112">
<ele>834</ele>
</trkpt>
<trkpt lat="36.857975" lon="138.3059761111111">
<ele>828</ele>
</trkpt>
<trkpt lat="36.85746694444445" lon="138.3052761111111">
<ele>824</ele>
</trkpt>
<trkpt lat="36.857375" lon="138.30521305555556">
<ele>822</ele>
</trkpt>
<trkpt lat="36.85682611111111" lon="138.30506305555556">
<ele>813</ele>
</trkpt>
<trkpt lat="36.856741944444444" lon="138.30503805555554">
<ele>813</ele>
</trkpt>
<trkpt lat="36.856366944444446" lon="138.30486305555556">
<ele>814</ele>
</trkpt>
<trkpt lat="36.85610888888889" lon="138.30455111111112">
<ele>808</ele>
</trkpt>
<trkpt lat="36.855851111111114" lon="138.3041761111111">
<ele>808</ele>
</trkpt>
<trkpt lat="36.85570888888889" lon="138.30410111111112">
<ele>809</ele>
</trkpt>
<trkpt lat="36.85556694444445" lon="138.3041511111111">
<ele>806</ele>
</trkpt>
<trkpt lat="36.85543388888889" lon="138.30422611111112">
<ele>799</ele>
</trkpt>
<trkpt lat="36.85534194444445" lon="138.30438805555556">
<ele>799</ele>
</trkpt>
<trkpt lat="36.85536694444444" lon="138.3046261111111">
<ele>796</ele>
</trkpt>
<trkpt lat="36.85545111111111" lon="138.3048511111111">
<ele>795</ele>
</trkpt>
<trkpt lat="36.85560111111111" lon="138.3049761111111">
<ele>795</ele>
</trkpt>
<trkpt lat="36.85578388888889" lon="138.30512611111112">
<ele>795</ele>
</trkpt>
<trkpt lat="36.856166944444446" lon="138.3055511111111">
<ele>795</ele>
</trkpt>
<trkpt lat="36.85657611111111" lon="138.30592611111112">
<ele>786</ele>
</trkpt>
<trkpt lat="36.85685111111111" lon="138.30627611111112">
<ele>787</ele>
</trkpt>
<trkpt lat="36.85688388888889" lon="138.30636305555555">
<ele>787</ele>
</trkpt>
<trkpt lat="36.85689194444444" lon="138.30647611111112">
<ele>791</ele>
</trkpt>
<trkpt lat="36.85688388888889" lon="138.3065761111111">
<ele>787</ele>
</trkpt>
<trkpt lat="36.85673388888889" lon="138.30696305555554">
<ele>786</ele>
</trkpt>
<trkpt lat="36.85669194444444" lon="138.30715111111112">
<ele>785</ele>
</trkpt>
<trkpt lat="36.856701111111114" lon="138.3073261111111">
<ele>785</ele>
</trkpt>
<trkpt lat="36.85675888888889" lon="138.3075511111111">
<ele>784</ele>
</trkpt>
<trkpt lat="36.85691694444444" lon="138.30805">
<ele>777</ele>
</trkpt>
<trkpt lat="36.856966944444444" lon="138.30823805555556">
<ele>776</ele>
</trkpt>
<trkpt lat="36.857016944444446" lon="138.308425">
<ele>779</ele>
</trkpt>
<trkpt lat="36.857016944444446" lon="138.30855">
<ele>779</ele>
</trkpt>
<trkpt lat="36.856991944444445" lon="138.30876305555554">
<ele>775</ele>
</trkpt>
<trkpt lat="36.85691694444444" lon="138.30913805555556">
<ele>779</ele>
</trkpt>
<trkpt lat="36.85630888888889" lon="138.3102">
<ele>775</ele>
</trkpt>
<trkpt lat="36.85625111111111" lon="138.310375">
<ele>777</ele>
</trkpt>
<trkpt lat="36.85621694444445" lon="138.31053805555555">
<ele>774</ele>
</trkpt>
<trkpt lat="36.85620888888889" lon="138.310925">
<ele>778</ele>
</trkpt>
<trkpt lat="36.85616805555556" lon="138.31113805555555">
<ele>781</ele>
</trkpt>
<trkpt lat="36.85615111111111" lon="138.31118694444444">
<ele>781</ele>
</trkpt>
<trkpt lat="36.85612611111111" lon="138.31123694444443">
<ele>783</ele>
</trkpt>
<trkpt lat="36.85570888888889" lon="138.31196194444445">
<ele>772</ele>
</trkpt>
<trkpt lat="36.85565888888889" lon="138.3121">
<ele>768</ele>
</trkpt>
<trkpt lat="36.855643055555554" lon="138.31223694444444">
<ele>768</ele>
</trkpt>
<trkpt lat="36.855643055555554" lon="138.31238694444446">
<ele>768</ele>
</trkpt>
<trkpt lat="36.85565888888889" lon="138.3125">
<ele>766</ele>
</trkpt>
<trkpt lat="36.85570111111111" lon="138.31263805555557">
<ele>767</ele>
</trkpt>
<trkpt lat="36.855758888888886" lon="138.31273694444445">
<ele>765</ele>
</trkpt>
<trkpt lat="36.85583388888889" lon="138.312825">
<ele>765</ele>
</trkpt>
<trkpt lat="36.85599194444445" lon="138.313">
<ele>766</ele>
</trkpt>
<trkpt lat="36.856051111111114" lon="138.31308694444445">
<ele>767</ele>
</trkpt>
<trkpt lat="36.85610111111111" lon="138.31318694444445">
<ele>766</ele>
</trkpt>
<trkpt lat="36.85635888888889" lon="138.31413694444444">
<ele>761</ele>
</trkpt>
<trkpt lat="36.856566944444445" lon="138.31508694444443">
<ele>757</ele>
</trkpt>
<trkpt lat="36.85657611111111" lon="138.31533694444445">
<ele>757</ele>
</trkpt>
<trkpt lat="36.856518055555554" lon="138.31555">
<ele>753</ele>
</trkpt>
<trkpt lat="36.85646805555555" lon="138.31565">
<ele>752</ele>
</trkpt>
<trkpt lat="36.85633388888889" lon="138.315825">
<ele>743</ele>
</trkpt>
<trkpt lat="36.856276111111114" lon="138.31593694444445">
<ele>743</ele>
</trkpt>
<trkpt lat="36.85623388888889" lon="138.3160488888889">
<ele>742</ele>
</trkpt>
<trkpt lat="36.85615888888889" lon="138.31638694444445">
<ele>743</ele>
</trkpt>
<trkpt lat="36.85608388888889" lon="138.31671194444445">
<ele>742</ele>
</trkpt>
<trkpt lat="36.85593388888889" lon="138.3169988888889">
<ele>744</ele>
</trkpt>
<trkpt lat="36.855533888888885" lon="138.31769888888888">
<ele>740</ele>
</trkpt>
<trkpt lat="36.855426111111115" lon="138.31783694444445">
<ele>738</ele>
</trkpt>
<trkpt lat="36.85505888888889" lon="138.3182238888889">
<ele>735</ele>
</trkpt>
<trkpt lat="36.85502611111111" lon="138.31836194444443">
<ele>732</ele>
</trkpt>
<trkpt lat="36.85505888888889" lon="138.31851194444445">
<ele>731</ele>
</trkpt>
<trkpt lat="36.85515111111111" lon="138.31859888888889">
<ele>729</ele>
</trkpt>
<trkpt lat="36.855268055555555" lon="138.31863694444445">
<ele>727</ele>
</trkpt>
<trkpt lat="36.85556805555556" lon="138.31846194444444">
<ele>724</ele>
</trkpt>
<trkpt lat="36.85620111111111" lon="138.31804888888888">
<ele>720</ele>
</trkpt>
<trkpt lat="36.85643388888889" lon="138.31792388888888">
<ele>715</ele>
</trkpt>
<trkpt lat="36.856591944444446" lon="138.31792388888888">
<ele>712</ele>
</trkpt>
<trkpt lat="36.85667611111111" lon="138.3179988888889">
<ele>709</ele>
</trkpt>
<trkpt lat="36.85670888888889" lon="138.31813694444443">
<ele>706</ele>
</trkpt>
<trkpt lat="36.856701111111114" lon="138.31841194444445">
<ele>702</ele>
</trkpt>
<trkpt lat="36.856591944444446" lon="138.3186988888889">
<ele>702</ele>
</trkpt>
<trkpt lat="36.856276111111114" lon="138.31907388888888">
<ele>703</ele>
</trkpt>
<trkpt lat="36.85597611111111" lon="138.3193488888889">
<ele>696</ele>
</trkpt>
<trkpt lat="36.85541805555555" lon="138.31984888888888">
<ele>687</ele>
</trkpt>
<trkpt lat="36.85525111111111" lon="138.32001194444445">
<ele>686</ele>
</trkpt>
<trkpt lat="36.855133888888886" lon="138.32026194444444">
<ele>687</ele>
</trkpt>
<trkpt lat="36.85509305555556" lon="138.32044888888888">
<ele>685</ele>
</trkpt>
<trkpt lat="36.855018055555554" lon="138.32106194444444">
<ele>672</ele>
</trkpt>
<trkpt lat="36.85496805555555" lon="138.32138694444444">
<ele>662</ele>
</trkpt>
<trkpt lat="36.85493388888889" lon="138.3216238888889">
<ele>663</ele>
</trkpt>
<trkpt lat="36.85475111111111" lon="138.32216111111111">
<ele>663</ele>
</trkpt>
<trkpt lat="36.85457611111111" lon="138.3224111111111">
<ele>663</ele>
</trkpt>
<trkpt lat="36.854326111111114" lon="138.3226361111111">
<ele>662</ele>
</trkpt>
<trkpt lat="36.85352611111111" lon="138.3231361111111">
<ele>663</ele>
</trkpt>
<trkpt lat="36.85316805555556" lon="138.32348611111112">
<ele>662</ele>
</trkpt>
<trkpt lat="36.85291" lon="138.32394888888888">
<ele>644</ele>
</trkpt>
<trkpt lat="36.852785" lon="138.32437388888889">
<ele>647</ele>
</trkpt>
<trkpt lat="36.852785" lon="138.3250488888889">
<ele>645</ele>
</trkpt>
<trkpt lat="36.85291" lon="138.3255861111111">
<ele>636</ele>
</trkpt>
<trkpt lat="36.85294805555556" lon="138.32569694444445">
<ele>634</ele>
</trkpt>
<trkpt lat="36.85294805555556" lon="138.32569694444445">
<ele>634</ele>
</trkpt>
<trkpt lat="36.85319305555556" lon="138.3264111111111">
<ele>623</ele>
</trkpt>
<trkpt lat="36.85325111111111" lon="138.3267488888889">
<ele>622</ele>
</trkpt>
<trkpt lat="36.85311" lon="138.32849805555554">
<ele>625</ele>
</trkpt>
<trkpt lat="36.852985" lon="138.32887305555556">
<ele>626</ele>
</trkpt>
<trkpt lat="36.85276" lon="138.32924805555555">
<ele>628</ele>
</trkpt>
<trkpt lat="36.85236805555556" lon="138.3296611111111">
<ele>634</ele>
</trkpt>
<trkpt lat="36.851735" lon="138.3301111111111">
<ele>642</ele>
</trkpt>
<trkpt lat="36.851443055555556" lon="138.33038611111112">
<ele>643</ele>
</trkpt>
<trkpt lat="36.85109305555556" lon="138.33083611111113">
<ele>654</ele>
</trkpt>
<trkpt lat="36.850885" lon="138.3312861111111">
<ele>657</ele>
</trkpt>
<trkpt lat="36.850485" lon="138.33359805555557">
<ele>655</ele>
</trkpt>
<trkpt lat="36.85036" lon="138.33411">
<ele>650</ele>
</trkpt>
<trkpt lat="36.84979388888889" lon="138.33546">
<ele>643</ele>
</trkpt>
<trkpt lat="36.849336111111114" lon="138.33649805555555">
<ele>635</ele>
</trkpt>
<trkpt lat="36.84926111111111" lon="138.33667194444445">
<ele>632</ele>
</trkpt>
<trkpt lat="36.84915194444444" lon="138.33689694444445">
<ele>629</ele>
</trkpt>
<trkpt lat="36.849111111111114" lon="138.33697305555555">
<ele>628</ele>
</trkpt>
<trkpt lat="36.84905194444445" lon="138.337035">
<ele>627</ele>
</trkpt>
<trkpt lat="36.84890194444444" lon="138.33716">
<ele>626</ele>
</trkpt>
<trkpt lat="36.84876888888889" lon="138.33719805555555">
<ele>623</ele>
</trkpt>
<trkpt lat="36.848751944444444" lon="138.33719805555555">
<ele>623</ele>
</trkpt>
<trkpt lat="36.84865194444444" lon="138.33721">
<ele>621</ele>
</trkpt>
<trkpt lat="36.84850194444444" lon="138.33717194444444">
<ele>620</ele>
</trkpt>
<trkpt lat="36.84841888888889" lon="138.337185">
<ele>617</ele>
</trkpt>
<trkpt lat="36.84836111111111" lon="138.33719805555555">
<ele>617</ele>
</trkpt>
<trkpt lat="36.84829388888889" lon="138.33724694444444">
<ele>616</ele>
</trkpt>
<trkpt lat="36.84827694444444" lon="138.33727194444444">
<ele>616</ele>
</trkpt>
<trkpt lat="36.84823611111111" lon="138.33732194444445">
<ele>616</ele>
</trkpt>
<trkpt lat="36.84821888888889" lon="138.337385">
<ele>614</ele>
</trkpt>
<trkpt lat="36.848193888888886" lon="138.33749694444444">
<ele>615</ele>
</trkpt>
<trkpt lat="36.84820194444445" lon="138.33762305555555">
<ele>613</ele>
</trkpt>
<trkpt lat="36.84824388888889" lon="138.33771">
<ele>611</ele>
</trkpt>
<trkpt lat="36.84826888888889" lon="138.33774805555555">
<ele>611</ele>
</trkpt>
<trkpt lat="36.84844388888889" lon="138.337935">
<ele>606</ele>
</trkpt>
<trkpt lat="36.84856888888889" lon="138.33804694444444">
<ele>610</ele>
</trkpt>
<trkpt lat="36.84861111111111" lon="138.33807194444444">
<ele>610</ele>
</trkpt>
<trkpt lat="36.84859388888889" lon="138.33809694444443">
<ele>610</ele>
</trkpt>
<trkpt lat="36.84858611111111" lon="138.33821">
<ele>609</ele>
</trkpt>
<trkpt lat="36.848576944444446" lon="138.33841">
<ele>606</ele>
</trkpt>
<trkpt lat="36.84859388888889" lon="138.33851">
<ele>605</ele>
</trkpt>
<trkpt lat="36.84865194444444" lon="138.338635">
<ele>603</ele>
</trkpt>
<trkpt lat="36.84874388888889" lon="138.33871">
<ele>604</ele>
</trkpt>
<trkpt lat="36.84885194444445" lon="138.33876">
<ele>603</ele>
</trkpt>
<trkpt lat="36.84902694444445" lon="138.33882194444445">
<ele>596</ele>
</trkpt>
<trkpt lat="36.84906111111111" lon="138.33882194444445">
<ele>596</ele>
</trkpt>
<trkpt lat="36.84905194444445" lon="138.33891">
<ele>593</ele>
</trkpt>
<trkpt lat="36.84898611111111" lon="138.33909694444444">
<ele>594</ele>
</trkpt>
<trkpt lat="36.848951944444444" lon="138.33914694444445">
<ele>591</ele>
</trkpt>
<trkpt lat="36.84884388888889" lon="138.339285">
<ele>593</ele>
</trkpt>
<trkpt lat="36.848686111111114" lon="138.33941">
<ele>594</ele>
</trkpt>
<trkpt lat="36.84860194444445" lon="138.33947194444445">
<ele>594</ele>
</trkpt>
<trkpt lat="36.84834388888889" lon="138.33966">
<ele>589</ele>
</trkpt>
<trkpt lat="36.848078055555554" lon="138.33989694444443">
<ele>583</ele>
</trkpt>
<trkpt lat="36.847478055555555" lon="138.34059694444446">
<ele>581</ele>
</trkpt>
<trkpt lat="36.84732694444445" lon="138.34073388888888">
<ele>582</ele>
</trkpt>
<trkpt lat="36.84717805555555" lon="138.34083388888888">
<ele>582</ele>
</trkpt>
<trkpt lat="36.847003055555554" lon="138.3408838888889">
<ele>580</ele>
</trkpt>
<trkpt lat="36.846578055555554" lon="138.34099694444444">
<ele>572</ele>
</trkpt>
<trkpt lat="36.846536111111114" lon="138.3410338888889">
<ele>573</ele>
</trkpt>
<trkpt lat="36.84649388888889" lon="138.34112194444444">
<ele>573</ele>
</trkpt>
<trkpt lat="36.846451944444446" lon="138.34132194444445">
<ele>572</ele>
</trkpt>
<trkpt lat="36.84650194444445" lon="138.34147194444444">
<ele>569</ele>
</trkpt>
<trkpt lat="36.84658611111111" lon="138.34157194444444">
<ele>566</ele>
</trkpt>
<trkpt lat="36.84670194444445" lon="138.34160888888889">
<ele>565</ele>
</trkpt>
<trkpt lat="36.84683611111111" lon="138.34160888888889">
<ele>564</ele>
</trkpt>
<trkpt lat="36.84713611111111" lon="138.34138388888888">
<ele>564</ele>
</trkpt>
<trkpt lat="36.84733611111111" lon="138.3412338888889">
<ele>564</ele>
</trkpt>
<trkpt lat="36.847503055555556" lon="138.34114694444443">
<ele>566</ele>
</trkpt>
<trkpt lat="36.84771111111111" lon="138.34109694444444">
<ele>568</ele>
</trkpt>
<trkpt lat="36.847853055555554" lon="138.34108388888887">
<ele>567</ele>
</trkpt>
<trkpt lat="36.84797694444445" lon="138.34109694444444">
<ele>567</ele>
</trkpt>
<trkpt lat="36.848103055555555" lon="138.3411338888889">
<ele>565</ele>
</trkpt>
<trkpt lat="36.84818611111111" lon="138.3412088888889">
<ele>566</ele>
</trkpt>
<trkpt lat="36.84825305555555" lon="138.34132194444445">
<ele>565</ele>
</trkpt>
<trkpt lat="36.84840194444445" lon="138.34175888888888">
<ele>556</ele>
</trkpt>
<trkpt lat="36.84846888888889" lon="138.34187194444445">
<ele>555</ele>
</trkpt>
<trkpt lat="36.84854388888889" lon="138.34194694444443">
<ele>554</ele>
</trkpt>
<trkpt lat="36.84866888888889" lon="138.34198388888888">
<ele>549</ele>
</trkpt>
<trkpt lat="36.84890194444444" lon="138.34204694444443">
<ele>549</ele>
</trkpt>
<trkpt lat="36.849561111111115" lon="138.34214694444444">
<ele>538</ele>
</trkpt>
<trkpt lat="36.85057694444444" lon="138.3422588888889">
<ele>533</ele>
</trkpt>
<trkpt lat="36.850701944444445" lon="138.34229694444446">
<ele>533</ele>
</trkpt>
<trkpt lat="36.85079388888889" lon="138.34234694444444">
<ele>532</ele>
</trkpt>
<trkpt lat="36.85085194444444" lon="138.34243388888888">
<ele>532</ele>
</trkpt>
<trkpt lat="36.850836111111114" lon="138.3425588888889">
<ele>527</ele>
</trkpt>
<trkpt lat="36.85078611111111" lon="138.34263388888888">
<ele>527</ele>
</trkpt>
<trkpt lat="36.85063611111111" lon="138.34269694444444">
<ele>526</ele>
</trkpt>
<trkpt lat="36.850543888888886" lon="138.3428088888889">
<ele>525</ele>
</trkpt>
<trkpt lat="36.850543888888886" lon="138.3429338888889">
<ele>523</ele>
</trkpt>
<trkpt lat="36.850611111111114" lon="138.34302194444444">
<ele>520</ele>
</trkpt>
<trkpt lat="36.85075194444445" lon="138.3430588888889">
<ele>519</ele>
</trkpt>
<trkpt lat="36.851485" lon="138.3430588888889">
<ele>512</ele>
</trkpt>
<trkpt lat="36.85167694444444" lon="138.34310888888888">
<ele>510</ele>
</trkpt>
<trkpt lat="36.85216888888889" lon="138.34333388888888">
<ele>501</ele>
</trkpt>
<trkpt lat="36.85227694444445" lon="138.3434961111111">
<ele>497</ele>
</trkpt>
<trkpt lat="36.85230194444444" lon="138.3436338888889">
<ele>495</ele>
</trkpt>
<trkpt lat="36.85226888888889" lon="138.3438461111111">
<ele>491</ele>
</trkpt>
<trkpt lat="36.852226944444446" lon="138.34399611111112">
<ele>491</ele>
</trkpt>
<trkpt lat="36.85210194444444" lon="138.3441961111111">
<ele>495</ele>
</trkpt>
<trkpt lat="36.85196" lon="138.34424611111112">
<ele>494</ele>
</trkpt>
<trkpt lat="36.851818888888886" lon="138.34424611111112">
<ele>495</ele>
</trkpt>
<trkpt lat="36.85123611111111" lon="138.3440588888889">
<ele>496</ele>
</trkpt>
<trkpt lat="36.85109388888889" lon="138.34410888888888">
<ele>498</ele>
</trkpt>
<trkpt lat="36.85098611111111" lon="138.3444088888889">
<ele>494</ele>
</trkpt>
<trkpt lat="36.85089388888889" lon="138.3445211111111">
<ele>492</ele>
</trkpt>
<trkpt lat="36.85051888888889" lon="138.3446588888889">
<ele>495</ele>
</trkpt>
<trkpt lat="36.85042694444444" lon="138.3447711111111">
<ele>490</ele>
</trkpt>
<trkpt lat="36.85038611111111" lon="138.3449711111111">
<ele>485</ele>
</trkpt>
<trkpt lat="36.85044388888889" lon="138.3451961111111">
<ele>485</ele>
</trkpt>
<trkpt lat="36.85076888888889" lon="138.34570888888888">
<ele>482</ele>
</trkpt>
<trkpt lat="36.85085194444444" lon="138.3460088888889">
<ele>472</ele>
</trkpt>
<trkpt lat="36.85091111111111" lon="138.34660888888888">
<ele>470</ele>
</trkpt>
<trkpt lat="36.850968888888886" lon="138.3468711111111">
<ele>471</ele>
</trkpt>
<trkpt lat="36.851261111111114" lon="138.34752111111112">
<ele>461</ele>
</trkpt>
<trkpt lat="36.85142694444444" lon="138.34803305555556">
<ele>455</ele>
</trkpt>
<trkpt lat="36.85149388888889" lon="138.3482711111111">
<ele>453</ele>
</trkpt>
<trkpt lat="36.85170194444444" lon="138.34875805555555">
<ele>442</ele>
</trkpt>
<trkpt lat="36.85211888888889" lon="138.34960805555556">
<ele>441</ele>
</trkpt>
<trkpt lat="36.85248611111111" lon="138.35028305555556">
<ele>433</ele>
</trkpt>
<trkpt lat="36.85252888888889" lon="138.350325">
<ele>433</ele>
</trkpt>
<trkpt lat="36.85252888888889" lon="138.350325">
<ele>433</ele>
</trkpt>
<trkpt lat="36.852801944444444" lon="138.350595">
<ele>431</ele>
</trkpt>
<trkpt lat="36.852935" lon="138.35075805555556">
<ele>431</ele>
</trkpt>
<trkpt lat="36.85300194444444" lon="138.350895">
<ele>430</ele>
</trkpt>
<trkpt lat="36.85301888888889" lon="138.35098305555556">
<ele>430</ele>
</trkpt>
<trkpt lat="36.85295194444444" lon="138.35182">
<ele>423</ele>
</trkpt>
<trkpt lat="36.85296888888889" lon="138.351945">
<ele>424</ele>
</trkpt>
<trkpt lat="36.85311" lon="138.35233194444444">
<ele>422</ele>
</trkpt>
<trkpt lat="36.853118888888886" lon="138.35245694444444">
<ele>421</ele>
</trkpt>
<trkpt lat="36.853076944444446" lon="138.35253194444445">
<ele>423</ele>
</trkpt>
<trkpt lat="36.852985" lon="138.35255694444444">
<ele>421</ele>
</trkpt>
<trkpt lat="36.85278611111111" lon="138.35252">
<ele>421</ele>
</trkpt>
<trkpt lat="36.852668888888886" lon="138.35248305555555">
<ele>418</ele>
</trkpt>
<trkpt lat="36.85256888888889" lon="138.352395">
<ele>417</ele>
</trkpt>
<trkpt lat="36.85249388888889" lon="138.35230694444445">
<ele>418</ele>
</trkpt>
<trkpt lat="36.85231888888889" lon="138.352045">
<ele>413</ele>
</trkpt>
<trkpt lat="36.85225194444445" lon="138.351995">
<ele>420</ele>
</trkpt>
<trkpt lat="36.85216111111111" lon="138.35195694444445">
<ele>408</ele>
</trkpt>
<trkpt lat="36.85169388888889" lon="138.351845">
<ele>406</ele>
</trkpt>
<trkpt lat="36.851351944444446" lon="138.35163305555557">
<ele>407</ele>
</trkpt>
<trkpt lat="36.85128611111111" lon="138.35158305555555">
<ele>405</ele>
</trkpt>
<trkpt lat="36.85124388888889" lon="138.35153305555556">
<ele>405</ele>
</trkpt>
<trkpt lat="36.85123611111111" lon="138.351445">
<ele>405</ele>
</trkpt>
<trkpt lat="36.85138611111111" lon="138.350995">
<ele>400</ele>
</trkpt>
<trkpt lat="36.85141111111111" lon="138.35088305555556">
<ele>400</ele>
</trkpt>
<trkpt lat="36.85140194444445" lon="138.350795">
<ele>400</ele>
</trkpt>
<trkpt lat="36.851351944444446" lon="138.35072">
<ele>401</ele>
</trkpt>
<trkpt lat="36.85127694444444" lon="138.35067">
<ele>398</ele>
</trkpt>
<trkpt lat="36.851151944444446" lon="138.35065805555556">
<ele>399</ele>
</trkpt>
<trkpt lat="36.85076111111111" lon="138.350745">
<ele>387</ele>
</trkpt>
<trkpt lat="36.85037805555555" lon="138.35095805555557">
<ele>385</ele>
</trkpt>
<trkpt lat="36.84950194444444" lon="138.35123305555555">
<ele>374</ele>
</trkpt>
<trkpt lat="36.84837805555556" lon="138.351495">
<ele>360</ele>
</trkpt>
<trkpt lat="36.848261111111114" lon="138.35152">
<ele>359</ele>
</trkpt>
<trkpt lat="36.84746111111111" lon="138.351745">
<ele>348</ele>
</trkpt>
<trkpt lat="36.84733611111111" lon="138.35178305555556">
<ele>347</ele>
</trkpt>
<trkpt lat="36.84723611111111" lon="138.35187">
<ele>347</ele>
</trkpt>
<trkpt lat="36.847186111111114" lon="138.351945">
<ele>347</ele>
</trkpt>
<trkpt lat="36.84712805555556" lon="138.35207">
<ele>347</ele>
</trkpt>
<trkpt lat="36.84709388888889" lon="138.35222">
<ele>347</ele>
</trkpt>
<trkpt lat="36.84708611111111" lon="138.35235805555556">
<ele>346</ele>
</trkpt>
<trkpt lat="36.84711111111111" lon="138.352495">
<ele>345</ele>
</trkpt>
<trkpt lat="36.847186111111114" lon="138.352695">
<ele>344</ele>
</trkpt>
<trkpt lat="36.84736888888889" lon="138.35317">
<ele>341</ele>
</trkpt>
<trkpt lat="36.84757805555556" lon="138.353695">
<ele>338</ele>
</trkpt>
<trkpt lat="36.84771111111111" lon="138.35405694444444">
<ele>336</ele>
</trkpt>
<trkpt lat="36.84801888888889" lon="138.35483194444444">
<ele>331</ele>
</trkpt>
<trkpt lat="36.84811888888889" lon="138.355095">
<ele>329</ele>
</trkpt>
<trkpt lat="36.84841888888889" lon="138.355895">
<ele>325</ele>
</trkpt>
<trkpt lat="36.84842805555556" lon="138.355945">
<ele>325</ele>
</trkpt>
<trkpt lat="36.84849388888889" lon="138.35617">
<ele>323</ele>
</trkpt>
<trkpt lat="36.84851888888889" lon="138.35633194444443">
<ele>323</ele>
</trkpt>
<trkpt lat="36.84854388888889" lon="138.3565438888889">
<ele>324</ele>
</trkpt>
<trkpt lat="36.84854388888889" lon="138.35675694444444">
<ele>325</ele>
</trkpt>
<trkpt lat="36.84851888888889" lon="138.3569938888889">
<ele>326</ele>
</trkpt>
<trkpt lat="36.84851111111111" lon="138.35705694444445">
<ele>327</ele>
</trkpt>
<trkpt lat="36.848261111111114" lon="138.35840694444445">
<ele>316</ele>
</trkpt>
<trkpt lat="36.84811" lon="138.35911611111112">
<ele>315</ele>
</trkpt>
<trkpt lat="36.84811" lon="138.35911611111112">
<ele>315</ele>
</trkpt>
<trkpt lat="36.848078055555554" lon="138.3592688888889">
<ele>315</ele>
</trkpt>
<trkpt lat="36.84801111111111" lon="138.3595688888889">
<ele>315</ele>
</trkpt>
<trkpt lat="36.847968888888886" lon="138.35978194444445">
<ele>315</ele>
</trkpt>
<trkpt lat="36.84792" lon="138.36009388888888">
<ele>315</ele>
</trkpt>
<trkpt lat="36.847903055555555" lon="138.3602688888889">
<ele>315</ele>
</trkpt>
<trkpt lat="36.847145" lon="138.3600688888889">
<ele>315</ele>
</trkpt>
<trkpt lat="36.84695305555555" lon="138.3600188888889">
<ele>315</ele>
</trkpt>
<trkpt lat="36.846725" lon="138.35996305555557">
<ele>315</ele>
</trkpt>
<trkpt lat="36.846725" lon="138.35996305555557">
<ele>315</ele>
</trkpt>
<trkpt lat="36.846345" lon="138.35986888888888">
<ele>315</ele>
</trkpt>
<trkpt lat="36.84596111111111" lon="138.35980694444444">
<ele>315</ele>
</trkpt>
<trkpt lat="36.845928055555554" lon="138.35976888888888">
<ele>315</ele>
</trkpt>
<trkpt lat="36.845845" lon="138.35963194444443">
<ele>315</ele>
</trkpt>
<trkpt lat="36.84581111111111" lon="138.35950694444443">
<ele>315</ele>
</trkpt>
<trkpt lat="36.84582" lon="138.35943194444445">
<ele>315</ele>
</trkpt>
<trkpt lat="36.845645" lon="138.35910694444445">
<ele>315</ele>
</trkpt>
    </trkseg>
  </trk>
</gpx>