<?xml version="1.0" encoding="UTF-8"?>
<gpx version="1.1"
     creator="KMLtoGPX"
     xmlns="http://www.topografix.com/GPX/1/1">
  <metadata>
    <name>Nakatsuna Forest Road Course</name>
    <desc>中綱林道コース</desc>
    <bounds minlat="36.54233694444444" minlon="137.82671694444446" maxlat="36.59978888888889" maxlon="137.84305305555554"/>
  </metadata>
  <trk>
    <name>Nakatsuna Forest Road Course</name>
    <trkseg>
<trkpt lat="36.54290805555556" lon="137.84142">
<ele>764</ele>
</trkpt>
<trkpt lat="36.54282" lon="137.8411788888889">
<ele>765</ele>
</trkpt>
<trkpt lat="36.542645" lon="137.84042888888888">
<ele>765</ele>
</trkpt>
<trkpt lat="36.54246305555556" lon="137.83958805555557">
<ele>765</ele>
</trkpt>
<trkpt lat="36.54246305555556" lon="137.83958805555557">
<ele>765</ele>
</trkpt>
<trkpt lat="36.54233694444444" lon="137.8390038888889">
<ele>765</ele>
</trkpt>
<trkpt lat="36.54297805555556" lon="137.8388038888889">
<ele>765</ele>
</trkpt>
<trkpt lat="36.543261944444446" lon="137.83874111111112">
<ele>765</ele>
</trkpt>
<trkpt lat="36.54446111111111" lon="137.8384288888889">
<ele>766</ele>
</trkpt>
<trkpt lat="36.54446388888889" lon="137.83844694444446">
<ele>765</ele>
</trkpt>
<trkpt lat="36.54446388888889" lon="137.83844694444446">
<ele>765</ele>
</trkpt>
<trkpt lat="36.54446111111111" lon="137.8384288888889">
<ele>766</ele>
</trkpt>
<trkpt lat="36.544578055555554" lon="137.83840388888888">
<ele>766</ele>
</trkpt>
<trkpt lat="36.54550305555556" lon="137.83816611111112">
<ele>764</ele>
</trkpt>
<trkpt lat="36.54587" lon="137.8380038888889">
<ele>764</ele>
</trkpt>
<trkpt lat="36.54654388888889" lon="137.83774111111111">
<ele>764</ele>
</trkpt>
<trkpt lat="36.54709388888889" lon="137.8375288888889">
<ele>765</ele>
</trkpt>
<trkpt lat="36.547311111111114" lon="137.8374411111111">
<ele>766</ele>
</trkpt>
<trkpt lat="36.547378055555555" lon="137.83739111111112">
<ele>766</ele>
</trkpt>
<trkpt lat="36.547403055555556" lon="137.8373161111111">
<ele>766</ele>
</trkpt>
<trkpt lat="36.54754388888889" lon="137.83624111111112">
<ele>765</ele>
</trkpt>
<trkpt lat="36.547603055555555" lon="137.8360911111111">
<ele>768</ele>
</trkpt>
<trkpt lat="36.54768611111111" lon="137.83611611111112">
<ele>768</ele>
</trkpt>
<trkpt lat="36.54775305555555" lon="137.8360911111111">
<ele>769</ele>
</trkpt>
<trkpt lat="36.54779388888889" lon="137.83604111111111">
<ele>769</ele>
</trkpt>
<trkpt lat="36.548028055555555" lon="137.83546611111112">
<ele>774</ele>
</trkpt>
<trkpt lat="36.54810305555556" lon="137.8353161111111">
<ele>777</ele>
</trkpt>
<trkpt lat="36.54815305555555" lon="137.8352538888889">
<ele>770</ele>
</trkpt>
<trkpt lat="36.54821111111111" lon="137.83521611111112">
<ele>777</ele>
</trkpt>
<trkpt lat="36.548278055555556" lon="137.83520388888888">
<ele>775</ele>
</trkpt>
<trkpt lat="36.54843888888889" lon="137.835225">
<ele>773</ele>
</trkpt>
<trkpt lat="36.54843888888889" lon="137.835225">
<ele>773</ele>
</trkpt>
<trkpt lat="36.54875305555556" lon="137.8352661111111">
<ele>770</ele>
</trkpt>
<trkpt lat="36.54899388888889" lon="137.83522888888888">
<ele>772</ele>
</trkpt>
<trkpt lat="36.54917694444445" lon="137.8352538888889">
<ele>773</ele>
</trkpt>
<trkpt lat="36.549503055555554" lon="137.8353911111111">
<ele>769</ele>
</trkpt>
<trkpt lat="36.549551944444445" lon="137.8353911111111">
<ele>769</ele>
</trkpt>
<trkpt lat="36.549753055555556" lon="137.8351661111111">
<ele>769</ele>
</trkpt>
<trkpt lat="36.54989388888889" lon="137.83489111111112">
<ele>769</ele>
</trkpt>
<trkpt lat="36.55000305555556" lon="137.83479111111112">
<ele>769</ele>
</trkpt>
<trkpt lat="36.55022694444445" lon="137.8346911111111">
<ele>769</ele>
</trkpt>
<trkpt lat="36.55027694444444" lon="137.83464111111113">
<ele>769</ele>
</trkpt>
<trkpt lat="36.550311111111114" lon="137.8345788888889">
<ele>769</ele>
</trkpt>
<trkpt lat="36.550401944444445" lon="137.8340538888889">
<ele>769</ele>
</trkpt>
<trkpt lat="36.55046111111111" lon="137.8338288888889">
<ele>769</ele>
</trkpt>
<trkpt lat="36.55051888888889" lon="137.83364111111112">
<ele>769</ele>
</trkpt>
<trkpt lat="36.55066111111111" lon="137.8334661111111">
<ele>769</ele>
</trkpt>
<trkpt lat="36.55075305555555" lon="137.8333788888889">
<ele>769</ele>
</trkpt>
<trkpt lat="36.55137694444444" lon="137.83305388888888">
<ele>769</ele>
</trkpt>
<trkpt lat="36.551586111111114" lon="137.8329288888889">
<ele>769</ele>
</trkpt>
<trkpt lat="36.55181888888889" lon="137.83285388888888">
<ele>771</ele>
</trkpt>
<trkpt lat="36.55197694444445" lon="137.8328788888889">
<ele>772</ele>
</trkpt>
<trkpt lat="36.55225194444444" lon="137.8329911111111">
<ele>771</ele>
</trkpt>
<trkpt lat="36.55233611111111" lon="137.8329911111111">
<ele>770</ele>
</trkpt>
<trkpt lat="36.55238611111111" lon="137.8329788888889">
<ele>770</ele>
</trkpt>
<trkpt lat="36.552526944444445" lon="137.8328161111111">
<ele>770</ele>
</trkpt>
<trkpt lat="36.552751944444445" lon="137.8324788888889">
<ele>770</ele>
</trkpt>
<trkpt lat="36.552818888888886" lon="137.83241611111112">
<ele>769</ele>
</trkpt>
<trkpt lat="36.55290194444444" lon="137.8323661111111">
<ele>769</ele>
</trkpt>
<trkpt lat="36.553111111111114" lon="137.83229111111112">
<ele>769</ele>
</trkpt>
<trkpt lat="36.55329388888889" lon="137.8322161111111">
<ele>769</ele>
</trkpt>
<trkpt lat="36.553401944444445" lon="137.8322038888889">
<ele>770</ele>
</trkpt>
<trkpt lat="36.55361111111111" lon="137.83225388888889">
<ele>769</ele>
</trkpt>
<trkpt lat="36.55406888888889" lon="137.83250388888888">
<ele>769</ele>
</trkpt>
<trkpt lat="36.554185" lon="137.8325411111111">
<ele>769</ele>
</trkpt>
<trkpt lat="36.55430194444445" lon="137.8325411111111">
<ele>769</ele>
</trkpt>
<trkpt lat="36.55475194444445" lon="137.83251611111112">
<ele>772</ele>
</trkpt>
<trkpt lat="36.554876944444445" lon="137.8325538888889">
<ele>773</ele>
</trkpt>
<trkpt lat="36.55499388888889" lon="137.83261611111112">
<ele>769</ele>
</trkpt>
<trkpt lat="36.55571" lon="137.8331288888889">
<ele>769</ele>
</trkpt>
<trkpt lat="36.555785" lon="137.8331661111111">
<ele>769</ele>
</trkpt>
<trkpt lat="36.55590194444444" lon="137.8332161111111">
<ele>769</ele>
</trkpt>
<trkpt lat="36.556085" lon="137.8332411111111">
<ele>769</ele>
</trkpt>
<trkpt lat="36.556443888888886" lon="137.8331661111111">
<ele>769</ele>
</trkpt>
<trkpt lat="36.55659388888889" lon="137.8331661111111">
<ele>769</ele>
</trkpt>
<trkpt lat="36.55670194444444" lon="137.83317888888888">
<ele>769</ele>
</trkpt>
<trkpt lat="36.55670194444444" lon="137.83317888888888">
<ele>769</ele>
</trkpt>
<trkpt lat="36.55691" lon="137.8332411111111">
<ele>769</ele>
</trkpt>
<trkpt lat="36.55701888888889" lon="137.8332538888889">
<ele>769</ele>
</trkpt>
<trkpt lat="36.557385" lon="137.8332411111111">
<ele>769</ele>
</trkpt>
<trkpt lat="36.557735" lon="137.8332038888889">
<ele>769</ele>
</trkpt>
<trkpt lat="36.558385" lon="137.8330161111111">
<ele>769</ele>
</trkpt>
<trkpt lat="36.55864305555556" lon="137.8329038888889">
<ele>769</ele>
</trkpt>
<trkpt lat="36.55889305555556" lon="137.8327788888889">
<ele>773</ele>
</trkpt>
<trkpt lat="36.55911" lon="137.8326661111111">
<ele>776</ele>
</trkpt>
<trkpt lat="36.559601944444445" lon="137.8323288888889">
<ele>777</ele>
</trkpt>
<trkpt lat="36.56004305555555" lon="137.8319911111111">
<ele>776</ele>
</trkpt>
<trkpt lat="36.56021805555555" lon="137.83180388888889">
<ele>776</ele>
</trkpt>
<trkpt lat="36.56041805555556" lon="137.8316288888889">
<ele>778</ele>
</trkpt>
<trkpt lat="36.56050111111111" lon="137.83159111111112">
<ele>777</ele>
</trkpt>
<trkpt lat="36.56062611111111" lon="137.8315411111111">
<ele>779</ele>
</trkpt>
<trkpt lat="36.560743055555555" lon="137.8315288888889">
<ele>779</ele>
</trkpt>
<trkpt lat="36.56102611111111" lon="137.83149111111112">
<ele>776</ele>
</trkpt>
<trkpt lat="36.56156" lon="137.8310661111111">
<ele>783</ele>
</trkpt>
<trkpt lat="36.56166" lon="137.8310038888889">
<ele>783</ele>
</trkpt>
<trkpt lat="36.56176" lon="137.8309661111111">
<ele>784</ele>
</trkpt>
<trkpt lat="36.56194305555555" lon="137.83092888888888">
<ele>783</ele>
</trkpt>
<trkpt lat="36.56221" lon="137.83091611111112">
<ele>783</ele>
</trkpt>
<trkpt lat="36.56240888888889" lon="137.83092888888888">
<ele>783</ele>
</trkpt>
<trkpt lat="36.56263388888889" lon="137.8309911111111">
<ele>782</ele>
</trkpt>
<trkpt lat="36.56340111111111" lon="137.83139111111112">
<ele>773</ele>
</trkpt>
<trkpt lat="36.56375888888889" lon="137.83150388888888">
<ele>773</ele>
</trkpt>
<trkpt lat="36.56386805555555" lon="137.83150388888888">
<ele>773</ele>
</trkpt>
<trkpt lat="36.56399305555556" lon="137.83147888888888">
<ele>774</ele>
</trkpt>
<trkpt lat="36.56406805555556" lon="137.83147888888888">
<ele>774</ele>
</trkpt>
<trkpt lat="36.56413388888889" lon="137.83149111111112">
<ele>774</ele>
</trkpt>
<trkpt lat="36.56486805555556" lon="137.83170388888888">
<ele>775</ele>
</trkpt>
<trkpt lat="36.56594194444445" lon="137.8321161111111">
<ele>769</ele>
</trkpt>
<trkpt lat="36.56601805555555" lon="137.83217888888888">
<ele>769</ele>
</trkpt>
<trkpt lat="36.56616805555556" lon="137.8323288888889">
<ele>769</ele>
</trkpt>
<trkpt lat="36.56619194444445" lon="137.8323538888889">
<ele>769</ele>
</trkpt>
<trkpt lat="36.56648388888889" lon="137.83251611111112">
<ele>766</ele>
</trkpt>
<trkpt lat="36.56692611111111" lon="137.8326538888889">
<ele>765</ele>
</trkpt>
<trkpt lat="36.567118055555554" lon="137.8327538888889">
<ele>765</ele>
</trkpt>
<trkpt lat="36.567301111111114" lon="137.8327911111111">
<ele>765</ele>
</trkpt>
<trkpt lat="36.56771805555555" lon="137.8329038888889">
<ele>765</ele>
</trkpt>
<trkpt lat="36.56786694444445" lon="137.83295388888888">
<ele>765</ele>
</trkpt>
<trkpt lat="36.56810888888889" lon="137.83305388888888">
<ele>765</ele>
</trkpt>
<trkpt lat="36.568176111111114" lon="137.8331038888889">
<ele>765</ele>
</trkpt>
<trkpt lat="36.56843388888889" lon="137.83331611111112">
<ele>765</ele>
</trkpt>
<trkpt lat="36.568618055555554" lon="137.8334411111111">
<ele>764</ele>
</trkpt>
<trkpt lat="36.56865111111111" lon="137.8334661111111">
<ele>765</ele>
</trkpt>
<trkpt lat="36.56872611111111" lon="137.83352805555555">
<ele>764</ele>
</trkpt>
<trkpt lat="36.56896694444445" lon="137.8336161111111">
<ele>764</ele>
</trkpt>
<trkpt lat="36.56905888888889" lon="137.8336661111111">
<ele>765</ele>
</trkpt>
<trkpt lat="36.56955888888889" lon="137.83415305555556">
<ele>764</ele>
</trkpt>
<trkpt lat="36.56965111111111" lon="137.83421611111112">
<ele>764</ele>
</trkpt>
<trkpt lat="36.57010888888889" lon="137.83442805555555">
<ele>764</ele>
</trkpt>
<trkpt lat="36.57017611111111" lon="137.8344661111111">
<ele>764</ele>
</trkpt>
<trkpt lat="36.57045111111111" lon="137.83466611111112">
<ele>765</ele>
</trkpt>
<trkpt lat="36.570591944444445" lon="137.83475305555555">
<ele>765</ele>
</trkpt>
<trkpt lat="36.57076694444444" lon="137.83487805555555">
<ele>765</ele>
</trkpt>
<trkpt lat="36.57114194444444" lon="137.8350911111111">
<ele>765</ele>
</trkpt>
<trkpt lat="36.57131694444445" lon="137.83515305555557">
<ele>765</ele>
</trkpt>
<trkpt lat="36.57165111111111" lon="137.83525305555557">
<ele>765</ele>
</trkpt>
<trkpt lat="36.571975" lon="137.83530305555556">
<ele>765</ele>
</trkpt>
<trkpt lat="36.57266694444444" lon="137.83540305555556">
<ele>766</ele>
</trkpt>
<trkpt lat="36.573175" lon="137.8357661111111">
<ele>766</ele>
</trkpt>
<trkpt lat="36.573141944444444" lon="137.8358411111111">
<ele>766</ele>
</trkpt>
<trkpt lat="36.57313388888889" lon="137.83605305555557">
<ele>766</ele>
</trkpt>
<trkpt lat="36.573125" lon="137.8364411111111">
<ele>765</ele>
</trkpt>
<trkpt lat="36.57306694444444" lon="137.83785305555554">
<ele>767</ele>
</trkpt>
<trkpt lat="36.57306694444444" lon="137.83806611111112">
<ele>768</ele>
</trkpt>
<trkpt lat="36.57301694444445" lon="137.83872805555555">
<ele>773</ele>
</trkpt>
<trkpt lat="36.572783888888885" lon="137.8387161111111">
<ele>771</ele>
</trkpt>
<trkpt lat="36.572583888888886" lon="137.8386911111111">
<ele>772</ele>
</trkpt>
<trkpt lat="36.57125111111111" lon="137.8383411111111">
<ele>768</ele>
</trkpt>
<trkpt lat="36.57120111111111" lon="137.83832805555556">
<ele>767</ele>
</trkpt>
<trkpt lat="36.57078388888889" lon="137.8383161111111">
<ele>767</ele>
</trkpt>
<trkpt lat="36.57063388888889" lon="137.8383411111111">
<ele>767</ele>
</trkpt>
<trkpt lat="36.57015888888889" lon="137.8385411111111">
<ele>767</ele>
</trkpt>
<trkpt lat="36.56985888888889" lon="137.83865305555557">
<ele>765</ele>
</trkpt>
<trkpt lat="36.569808888888886" lon="137.8386911111111">
<ele>765</ele>
</trkpt>
<trkpt lat="36.56940888888889" lon="137.83900305555557">
<ele>765</ele>
</trkpt>
<trkpt lat="36.568643055555555" lon="137.83957805555556">
<ele>765</ele>
</trkpt>
<trkpt lat="36.568491944444446" lon="137.8397161111111">
<ele>765</ele>
</trkpt>
<trkpt lat="36.56802611111111" lon="137.84012805555557">
<ele>764</ele>
</trkpt>
<trkpt lat="36.56721805555556" lon="137.84079111111112">
<ele>764</ele>
</trkpt>
<trkpt lat="36.56710888888889" lon="137.8408661111111">
<ele>764</ele>
</trkpt>
<trkpt lat="36.56693694444444" lon="137.84103">
<ele>764</ele>
</trkpt>
<trkpt lat="36.56693694444444" lon="137.84103">
<ele>764</ele>
</trkpt>
<trkpt lat="36.56710888888889" lon="137.8408661111111">
<ele>764</ele>
</trkpt>
<trkpt lat="36.56721805555556" lon="137.84079111111112">
<ele>764</ele>
</trkpt>
<trkpt lat="36.56802611111111" lon="137.84012805555557">
<ele>764</ele>
</trkpt>
<trkpt lat="36.568491944444446" lon="137.8397161111111">
<ele>765</ele>
</trkpt>
<trkpt lat="36.568643055555555" lon="137.83957805555556">
<ele>765</ele>
</trkpt>
<trkpt lat="36.56940888888889" lon="137.83900305555557">
<ele>765</ele>
</trkpt>
<trkpt lat="36.569808888888886" lon="137.8386911111111">
<ele>765</ele>
</trkpt>
<trkpt lat="36.56985888888889" lon="137.83865305555557">
<ele>765</ele>
</trkpt>
<trkpt lat="36.57015888888889" lon="137.8385411111111">
<ele>767</ele>
</trkpt>
<trkpt lat="36.57063388888889" lon="137.8383411111111">
<ele>767</ele>
</trkpt>
<trkpt lat="36.57078388888889" lon="137.8383161111111">
<ele>767</ele>
</trkpt>
<trkpt lat="36.57120111111111" lon="137.83832805555556">
<ele>767</ele>
</trkpt>
<trkpt lat="36.57125111111111" lon="137.8383411111111">
<ele>768</ele>
</trkpt>
<trkpt lat="36.572583888888886" lon="137.8386911111111">
<ele>772</ele>
</trkpt>
<trkpt lat="36.572783888888885" lon="137.8387161111111">
<ele>771</ele>
</trkpt>
<trkpt lat="36.57301694444445" lon="137.83872805555555">
<ele>773</ele>
</trkpt>
<trkpt lat="36.57318388888889" lon="137.83870305555556">
<ele>776</ele>
</trkpt>
<trkpt lat="36.57386694444445" lon="137.83851611111112">
<ele>775</ele>
</trkpt>
<trkpt lat="36.57429194444445" lon="137.83839111111112">
<ele>775</ele>
</trkpt>
<trkpt lat="36.575066944444444" lon="137.83841611111112">
<ele>775</ele>
</trkpt>
<trkpt lat="36.575275" lon="137.83840305555555">
<ele>776</ele>
</trkpt>
<trkpt lat="36.57615805555555" lon="137.8382161111111">
<ele>781</ele>
</trkpt>
<trkpt lat="36.576525" lon="137.83819111111112">
<ele>783</ele>
</trkpt>
<trkpt lat="36.5766" lon="137.83819111111112">
<ele>783</ele>
</trkpt>
<trkpt lat="36.57718305555556" lon="137.8382161111111">
<ele>783</ele>
</trkpt>
<trkpt lat="36.5775" lon="137.83825305555555">
<ele>785</ele>
</trkpt>
<trkpt lat="36.578116111111115" lon="137.83839111111112">
<ele>792</ele>
</trkpt>
<trkpt lat="36.57861611111111" lon="137.83842805555557">
<ele>788</ele>
</trkpt>
<trkpt lat="36.57873305555555" lon="137.83845305555556">
<ele>792</ele>
</trkpt>
<trkpt lat="36.57955805555556" lon="137.8387161111111">
<ele>792</ele>
</trkpt>
<trkpt lat="36.57973305555556" lon="137.83880305555556">
<ele>790</ele>
</trkpt>
<trkpt lat="36.58011611111111" lon="137.83902805555556">
<ele>792</ele>
</trkpt>
<trkpt lat="36.580333055555556" lon="137.8391411111111">
<ele>794</ele>
</trkpt>
<trkpt lat="36.58045" lon="137.83919111111112">
<ele>792</ele>
</trkpt>
<trkpt lat="36.58099888888889" lon="137.83929111111112">
<ele>792</ele>
</trkpt>
<trkpt lat="36.58109888888889" lon="137.8393411111111">
<ele>795</ele>
</trkpt>
<trkpt lat="36.58124888888889" lon="137.83945305555557">
<ele>795</ele>
</trkpt>
<trkpt lat="36.58153305555555" lon="137.83967805555557">
<ele>795</ele>
</trkpt>
<trkpt lat="36.58224111111111" lon="137.84025305555556">
<ele>798</ele>
</trkpt>
<trkpt lat="36.582591111111114" lon="137.8404911111111">
<ele>797</ele>
</trkpt>
<trkpt lat="36.58284888888889" lon="137.8406161111111">
<ele>797</ele>
</trkpt>
<trkpt lat="36.583241111111114" lon="137.84067805555554">
<ele>798</ele>
</trkpt>
<trkpt lat="36.58400694444445" lon="137.8407411111111">
<ele>798</ele>
</trkpt>
<trkpt lat="36.58439888888889" lon="137.84080305555557">
<ele>800</ele>
</trkpt>
<trkpt lat="36.584558055555554" lon="137.84085305555556">
<ele>801</ele>
</trkpt>
<trkpt lat="36.58468194444445" lon="137.84090305555554">
<ele>802</ele>
</trkpt>
<trkpt lat="36.585073888888886" lon="137.84115305555557">
<ele>805</ele>
</trkpt>
<trkpt lat="36.585183055555554" lon="137.8411911111111">
<ele>806</ele>
</trkpt>
<trkpt lat="36.585408055555554" lon="137.8411911111111">
<ele>805</ele>
</trkpt>
<trkpt lat="36.58579888888889" lon="137.8410911111111">
<ele>804</ele>
</trkpt>
<trkpt lat="36.585948888888886" lon="137.84107805555556">
<ele>804</ele>
</trkpt>
<trkpt lat="36.58615694444445" lon="137.84112805555554">
<ele>806</ele>
</trkpt>
<trkpt lat="36.58641611111111" lon="137.84122805555555">
<ele>807</ele>
</trkpt>
<trkpt lat="36.58665805555555" lon="137.84130305555556">
<ele>807</ele>
</trkpt>
<trkpt lat="36.58689888888889" lon="137.84135305555554">
<ele>808</ele>
</trkpt>
<trkpt lat="36.58743194444445" lon="137.84145305555555">
<ele>809</ele>
</trkpt>
<trkpt lat="36.58808194444445" lon="137.841615">
<ele>810</ele>
</trkpt>
<trkpt lat="36.58820611111111" lon="137.84167888888888">
<ele>811</ele>
</trkpt>
<trkpt lat="36.58820611111111" lon="137.84167888888888">
<ele>811</ele>
</trkpt>
<trkpt lat="36.588906944444446" lon="137.84204">
<ele>815</ele>
</trkpt>
<trkpt lat="36.58914111111111" lon="137.84202805555555">
<ele>816</ele>
</trkpt>
<trkpt lat="36.589241111111114" lon="137.84204">
<ele>815</ele>
</trkpt>
<trkpt lat="36.59017388888889" lon="137.84250305555557">
<ele>816</ele>
</trkpt>
<trkpt lat="36.590515" lon="137.84267805555555">
<ele>814</ele>
</trkpt>
<trkpt lat="36.59068194444445" lon="137.84285305555557">
<ele>814</ele>
</trkpt>
<trkpt lat="36.59075694444444" lon="137.84292805555555">
<ele>819</ele>
</trkpt>
<trkpt lat="36.59084" lon="137.84299">
<ele>818</ele>
</trkpt>
<trkpt lat="36.59094" lon="137.84302805555555">
<ele>821</ele>
</trkpt>
<trkpt lat="36.59102388888889" lon="137.84305305555554">
<ele>821</ele>
</trkpt>
<trkpt lat="36.591115" lon="137.84305305555554">
<ele>822</ele>
</trkpt>
<trkpt lat="36.591206944444444" lon="137.84302805555555">
<ele>822</ele>
</trkpt>
<trkpt lat="36.59124" lon="137.843015">
<ele>822</ele>
</trkpt>
<trkpt lat="36.59130694444445" lon="137.84299">
<ele>821</ele>
</trkpt>
<trkpt lat="36.591406944444444" lon="137.84292805555555">
<ele>822</ele>
</trkpt>
<trkpt lat="36.591456944444445" lon="137.84290305555555">
<ele>822</ele>
</trkpt>
<trkpt lat="36.591456944444445" lon="137.84274">
<ele>819</ele>
</trkpt>
<trkpt lat="36.59149" lon="137.84267805555555">
<ele>819</ele>
</trkpt>
<trkpt lat="36.59155694444444" lon="137.84262805555556">
<ele>817</ele>
</trkpt>
<trkpt lat="36.59177388888889" lon="137.84247805555555">
<ele>818</ele>
</trkpt>
<trkpt lat="36.591948888888886" lon="137.84232805555556">
<ele>819</ele>
</trkpt>
<trkpt lat="36.59207388888889" lon="137.84215305555554">
<ele>819</ele>
</trkpt>
<trkpt lat="36.59252388888889" lon="137.84155305555555">
<ele>826</ele>
</trkpt>
<trkpt lat="36.592615" lon="137.84140305555556">
<ele>825</ele>
</trkpt>
<trkpt lat="36.59262388888889" lon="137.84124111111112">
<ele>827</ele>
</trkpt>
<trkpt lat="36.59284" lon="137.84032805555555">
<ele>829</ele>
</trkpt>
<trkpt lat="36.59285694444444" lon="137.84020305555555">
<ele>829</ele>
</trkpt>
<trkpt lat="36.592865" lon="137.84005305555556">
<ele>830</ele>
</trkpt>
<trkpt lat="36.59285694444444" lon="137.83986611111112">
<ele>833</ele>
</trkpt>
<trkpt lat="36.59284" lon="137.83957805555556">
<ele>836</ele>
</trkpt>
<trkpt lat="36.592765" lon="137.83887805555557">
<ele>848</ele>
</trkpt>
<trkpt lat="36.592715" lon="137.83839111111112">
<ele>848</ele>
</trkpt>
<trkpt lat="36.592615" lon="137.8374411111111">
<ele>858</ele>
</trkpt>
<trkpt lat="36.593065" lon="137.8368661111111">
<ele>856</ele>
</trkpt>
<trkpt lat="36.59312305555556" lon="137.83675305555556">
<ele>857</ele>
</trkpt>
<trkpt lat="36.59319" lon="137.83660305555554">
<ele>857</ele>
</trkpt>
<trkpt lat="36.59328194444444" lon="137.83640305555556">
<ele>858</ele>
</trkpt>
<trkpt lat="36.59344" lon="137.8360911111111">
<ele>860</ele>
</trkpt>
<trkpt lat="36.59349805555556" lon="137.8359661111111">
<ele>864</ele>
</trkpt>
<trkpt lat="36.593565" lon="137.83580305555554">
<ele>867</ele>
</trkpt>
<trkpt lat="36.593556944444444" lon="137.83569111111112">
<ele>870</ele>
</trkpt>
<trkpt lat="36.593465" lon="137.8356038888889">
<ele>872</ele>
</trkpt>
<trkpt lat="36.59334" lon="137.8355038888889">
<ele>874</ele>
</trkpt>
<trkpt lat="36.593115" lon="137.8353038888889">
<ele>876</ele>
</trkpt>
<trkpt lat="36.592573055555555" lon="137.8346911111111">
<ele>879</ele>
</trkpt>
<trkpt lat="36.59258194444445" lon="137.8346161111111">
<ele>880</ele>
</trkpt>
<trkpt lat="36.592615" lon="137.83409111111112">
<ele>888</ele>
</trkpt>
<trkpt lat="36.59268194444444" lon="137.8339411111111">
<ele>887</ele>
</trkpt>
<trkpt lat="36.59274" lon="137.8339038888889">
<ele>887</ele>
</trkpt>
<trkpt lat="36.592815" lon="137.8339038888889">
<ele>887</ele>
</trkpt>
<trkpt lat="36.59300694444445" lon="137.8339161111111">
<ele>892</ele>
</trkpt>
<trkpt lat="36.59304" lon="137.8338288888889">
<ele>894</ele>
</trkpt>
<trkpt lat="36.593048055555556" lon="137.83375388888888">
<ele>894</ele>
</trkpt>
<trkpt lat="36.59304" lon="137.8336661111111">
<ele>895</ele>
</trkpt>
<trkpt lat="36.59289" lon="137.8331661111111">
<ele>897</ele>
</trkpt>
<trkpt lat="36.59284805555556" lon="137.8330288888889">
<ele>898</ele>
</trkpt>
<trkpt lat="36.59284" lon="137.8329411111111">
<ele>900</ele>
</trkpt>
<trkpt lat="36.592865" lon="137.8328788888889">
<ele>901</ele>
</trkpt>
<trkpt lat="36.592915" lon="137.83284111111112">
<ele>902</ele>
</trkpt>
<trkpt lat="36.592973055555554" lon="137.8328161111111">
<ele>902</ele>
</trkpt>
<trkpt lat="36.593023055555555" lon="137.83285388888888">
<ele>904</ele>
</trkpt>
<trkpt lat="36.59307305555556" lon="137.8329161111111">
<ele>901</ele>
</trkpt>
<trkpt lat="36.593115" lon="137.8330288888889">
<ele>903</ele>
</trkpt>
<trkpt lat="36.59330611111111" lon="137.83365388888888">
<ele>904</ele>
</trkpt>
<trkpt lat="36.593381111111114" lon="137.8338411111111">
<ele>911</ele>
</trkpt>
<trkpt lat="36.59348111111111" lon="137.83407888888888">
<ele>913</ele>
</trkpt>
<trkpt lat="36.59365611111111" lon="137.8343911111111">
<ele>913</ele>
</trkpt>
<trkpt lat="36.59374" lon="137.8344911111111">
<ele>917</ele>
</trkpt>
<trkpt lat="36.59392305555556" lon="137.8346288888889">
<ele>925</ele>
</trkpt>
<trkpt lat="36.594165" lon="137.8346788888889">
<ele>929</ele>
</trkpt>
<trkpt lat="36.59439805555556" lon="137.8346911111111">
<ele>931</ele>
</trkpt>
<trkpt lat="36.59450611111111" lon="137.8347038888889">
<ele>931</ele>
</trkpt>
<trkpt lat="36.59462305555556" lon="137.8347411111111">
<ele>933</ele>
</trkpt>
<trkpt lat="36.595015" lon="137.83489111111112">
<ele>931</ele>
</trkpt>
<trkpt lat="36.59513111111111" lon="137.8349161111111">
<ele>930</ele>
</trkpt>
<trkpt lat="36.59520611111111" lon="137.83489111111112">
<ele>930</ele>
</trkpt>
<trkpt lat="36.59529" lon="137.8348411111111">
<ele>939</ele>
</trkpt>
<trkpt lat="36.595465" lon="137.83466611111112">
<ele>944</ele>
</trkpt>
<trkpt lat="36.59554" lon="137.8346038888889">
<ele>944</ele>
</trkpt>
<trkpt lat="36.59564" lon="137.83454111111112">
<ele>947</ele>
</trkpt>
<trkpt lat="36.59588111111111" lon="137.8344538888889">
<ele>945</ele>
</trkpt>
<trkpt lat="36.59609805555556" lon="137.8343911111111">
<ele>947</ele>
</trkpt>
<trkpt lat="36.596423055555555" lon="137.8342288888889">
<ele>955</ele>
</trkpt>
<trkpt lat="36.596515" lon="137.83420388888888">
<ele>957</ele>
</trkpt>
<trkpt lat="36.59673111111111" lon="137.83419111111112">
<ele>960</ele>
</trkpt>
<trkpt lat="36.59688888888889" lon="137.8341661111111">
<ele>962</ele>
</trkpt>
<trkpt lat="36.59697305555556" lon="137.8341288888889">
<ele>962</ele>
</trkpt>
<trkpt lat="36.59703888888889" lon="137.8340411111111">
<ele>963</ele>
</trkpt>
<trkpt lat="36.59718888888889" lon="137.8338038888889">
<ele>966</ele>
</trkpt>
<trkpt lat="36.59735611111111" lon="137.8336161111111">
<ele>965</ele>
</trkpt>
<trkpt lat="36.597523055555556" lon="137.83330388888888">
<ele>976</ele>
</trkpt>
<trkpt lat="36.59763111111111" lon="137.8330288888889">
<ele>978</ele>
</trkpt>
<trkpt lat="36.59766388888889" lon="137.83295388888888">
<ele>980</ele>
</trkpt>
<trkpt lat="36.59773111111111" lon="137.8329288888889">
<ele>979</ele>
</trkpt>
<trkpt lat="36.59782305555556" lon="137.8329161111111">
<ele>983</ele>
</trkpt>
<trkpt lat="36.59788888888889" lon="137.83295388888888">
<ele>987</ele>
</trkpt>
<trkpt lat="36.59795611111111" lon="137.8330288888889">
<ele>984</ele>
</trkpt>
<trkpt lat="36.59803111111111" lon="137.8331538888889">
<ele>986</ele>
</trkpt>
<trkpt lat="36.598081111111114" lon="137.8332538888889">
<ele>983</ele>
</trkpt>
<trkpt lat="36.59811388888889" lon="137.8333538888889">
<ele>986</ele>
</trkpt>
<trkpt lat="36.59819805555556" lon="137.8335538888889">
<ele>985</ele>
</trkpt>
<trkpt lat="36.598238888888886" lon="137.8335911111111">
<ele>987</ele>
</trkpt>
<trkpt lat="36.59833888888889" lon="137.8336038888889">
<ele>988</ele>
</trkpt>
<trkpt lat="36.598506111111114" lon="137.8335661111111">
<ele>990</ele>
</trkpt>
<trkpt lat="36.59867305555556" lon="137.83352888888888">
<ele>1012</ele>
</trkpt>
<trkpt lat="36.59878111111111" lon="137.83352888888888">
<ele>1013</ele>
</trkpt>
<trkpt lat="36.59892305555555" lon="137.8335788888889">
<ele>1010</ele>
</trkpt>
<trkpt lat="36.598973055555554" lon="137.83364111111112">
<ele>1010</ele>
</trkpt>
<trkpt lat="36.59900611111111" lon="137.83374111111112">
<ele>1017</ele>
</trkpt>
<trkpt lat="36.59903111111111" lon="137.83386611111112">
<ele>1008</ele>
</trkpt>
<trkpt lat="36.599023055555556" lon="137.8340038888889">
<ele>1008</ele>
</trkpt>
<trkpt lat="36.59903888888889" lon="137.8342788888889">
<ele>1013</ele>
</trkpt>
<trkpt lat="36.59907305555556" lon="137.8344038888889">
<ele>1013</ele>
</trkpt>
<trkpt lat="36.59912305555556" lon="137.8345788888889">
<ele>1023</ele>
</trkpt>
<trkpt lat="36.59918111111111" lon="137.83487888888888">
<ele>1023</ele>
</trkpt>
<trkpt lat="36.59918888888889" lon="137.8350538888889">
<ele>1023</ele>
</trkpt>
<trkpt lat="36.59920611111111" lon="137.83535388888887">
<ele>1023</ele>
</trkpt>
<trkpt lat="36.59918888888889" lon="137.8359288888889">
<ele>1030</ele>
</trkpt>
<trkpt lat="36.599156111111114" lon="137.83622888888888">
<ele>1033</ele>
</trkpt>
<trkpt lat="36.59918111111111" lon="137.8363161111111">
<ele>1033</ele>
</trkpt>
<trkpt lat="36.59921388888889" lon="137.8364161111111">
<ele>1033</ele>
</trkpt>
<trkpt lat="36.59926388888889" lon="137.8365038888889">
<ele>1036</ele>
</trkpt>
<trkpt lat="36.59931388888889" lon="137.8365411111111">
<ele>1036</ele>
</trkpt>
<trkpt lat="36.599381111111114" lon="137.8365411111111">
<ele>1040</ele>
</trkpt>
<trkpt lat="36.599423055555555" lon="137.83647888888888">
<ele>1040</ele>
</trkpt>
<trkpt lat="36.59948888888889" lon="137.83600388888888">
<ele>1047</ele>
</trkpt>
<trkpt lat="36.599513888888886" lon="137.83587888888889">
<ele>1045</ele>
</trkpt>
<trkpt lat="36.599606111111115" lon="137.83556611111112">
<ele>1048</ele>
</trkpt>
<trkpt lat="36.59970611111111" lon="137.8349661111111">
<ele>1057</ele>
</trkpt>
<trkpt lat="36.59970611111111" lon="137.8349038888889">
<ele>1057</ele>
</trkpt>
<trkpt lat="36.59972305555556" lon="137.83477888888888">
<ele>1057</ele>
</trkpt>
<trkpt lat="36.59972305555556" lon="137.8343538888889">
<ele>1065</ele>
</trkpt>
<trkpt lat="36.599738888888886" lon="137.83417888888889">
<ele>1065</ele>
</trkpt>
<trkpt lat="36.59976388888889" lon="137.83389111111111">
<ele>1064</ele>
</trkpt>
<trkpt lat="36.59978888888889" lon="137.83352888888888">
<ele>1068</ele>
</trkpt>
<trkpt lat="36.59977305555555" lon="137.8332538888889">
<ele>1073</ele>
</trkpt>
<trkpt lat="36.599673055555556" lon="137.8330161111111">
<ele>1077</ele>
</trkpt>
<trkpt lat="36.59963888888889" lon="137.83286611111112">
<ele>1075</ele>
</trkpt>
<trkpt lat="36.59963888888889" lon="137.83264111111112">
<ele>1077</ele>
</trkpt>
<trkpt lat="36.599606111111115" lon="137.8325661111111">
<ele>1077</ele>
</trkpt>
<trkpt lat="36.59955611111111" lon="137.83251611111112">
<ele>1079</ele>
</trkpt>
<trkpt lat="36.59948888888889" lon="137.8324788888889">
<ele>1077</ele>
</trkpt>
<trkpt lat="36.59925611111111" lon="137.83240388888888">
<ele>1084</ele>
</trkpt>
<trkpt lat="36.59921388888889" lon="137.8323538888889">
<ele>1082</ele>
</trkpt>
<trkpt lat="36.59918111111111" lon="137.83225388888889">
<ele>1084</ele>
</trkpt>
<trkpt lat="36.59903111111111" lon="137.8320038888889">
<ele>1091</ele>
</trkpt>
<trkpt lat="36.598996944444444" lon="137.8319161111111">
<ele>1090</ele>
</trkpt>
<trkpt lat="36.59898111111111" lon="137.8317538888889">
<ele>1092</ele>
</trkpt>
<trkpt lat="36.59891388888889" lon="137.83144194444444">
<ele>1097</ele>
</trkpt>
<trkpt lat="36.59881388888889" lon="137.8311788888889">
<ele>1098</ele>
</trkpt>
<trkpt lat="36.59869805555556" lon="137.83084194444444">
<ele>1105</ele>
</trkpt>
<trkpt lat="36.59868888888889" lon="137.8307288888889">
<ele>1105</ele>
</trkpt>
<trkpt lat="36.59871388888889" lon="137.8306288888889">
<ele>1105</ele>
</trkpt>
<trkpt lat="36.598773055555554" lon="137.83047888888888">
<ele>1105</ele>
</trkpt>
<trkpt lat="36.59878888888889" lon="137.83036694444445">
<ele>1109</ele>
</trkpt>
<trkpt lat="36.598798055555555" lon="137.83011694444446">
<ele>1115</ele>
</trkpt>
<trkpt lat="36.59883888888889" lon="137.82986694444443">
<ele>1119</ele>
</trkpt>
<trkpt lat="36.59888888888889" lon="137.82980388888888">
<ele>1123</ele>
</trkpt>
<trkpt lat="36.59903888888889" lon="137.8296038888889">
<ele>1126</ele>
</trkpt>
<trkpt lat="36.59903888888889" lon="137.82945388888888">
<ele>1125</ele>
</trkpt>
<trkpt lat="36.59901388888889" lon="137.82939194444444">
<ele>1125</ele>
</trkpt>
<trkpt lat="36.59898111111111" lon="137.82935388888887">
<ele>1124</ele>
</trkpt>
<trkpt lat="36.59883111111111" lon="137.8292788888889">
<ele>1125</ele>
</trkpt>
<trkpt lat="36.59872305555555" lon="137.82921694444445">
<ele>1125</ele>
</trkpt>
<trkpt lat="36.598638888888885" lon="137.82914194444444">
<ele>1123</ele>
</trkpt>
<trkpt lat="36.59848111111111" lon="137.8288538888889">
<ele>1127</ele>
</trkpt>
<trkpt lat="36.59843111111111" lon="137.82881694444444">
<ele>1126</ele>
</trkpt>
<trkpt lat="36.59816388888889" lon="137.8286788888889">
<ele>1124</ele>
</trkpt>
<trkpt lat="36.59804694444444" lon="137.82856694444445">
<ele>1126</ele>
</trkpt>
<trkpt lat="36.59784805555555" lon="137.8283788888889">
<ele>1127</ele>
</trkpt>
<trkpt lat="36.597698055555554" lon="137.8282288888889">
<ele>1127</ele>
</trkpt>
<trkpt lat="36.59742305555555" lon="137.8279038888889">
<ele>1128</ele>
</trkpt>
<trkpt lat="36.59720611111111" lon="137.82761694444446">
<ele>1128</ele>
</trkpt>
<trkpt lat="36.59717194444445" lon="137.8274788888889">
<ele>1127</ele>
</trkpt>
<trkpt lat="36.597163888888886" lon="137.82736694444444">
<ele>1127</ele>
</trkpt>
<trkpt lat="36.597163888888886" lon="137.8269788888889">
<ele>1128</ele>
</trkpt>
<trkpt lat="36.59718111111111" lon="137.8268038888889">
<ele>1128</ele>
</trkpt>
<trkpt lat="36.597185" lon="137.82671694444446">
<ele>1128</ele>
</trkpt>
    </trkseg>
  </trk>
</gpx>