<?xml version="1.0" encoding="UTF-8"?>
<gpx version="1.1"
     creator="KMLtoGPX"
     xmlns="http://www.topografix.com/GPX/1/1">
  <metadata>
    <name>Sea to Summit Chikuma River and Mount Takayashiro Route</name>
    <desc>シートゥーサミット千曲川・高社山ルート</desc>
    <bounds minlat="36.78780805555556" minlon="138.35863194444445" maxlat="36.935628055555554" maxlon="138.41945611111112"/>
  </metadata>
  <trk>
    <name>Sea to Summit Chikuma River and Mount Takayashiro Route</name>
    <trkseg>
<trkpt lat="36.84961111111111" lon="138.36824805555557">
<ele>309</ele>
</trkpt>
<trkpt lat="36.84974" lon="138.36882805555555">
<ele>309</ele>
</trkpt>
<trkpt lat="36.850075" lon="138.3691488888889">
<ele>309</ele>
</trkpt>
<trkpt lat="36.85047888888889" lon="138.36926805555555">
<ele>309</ele>
</trkpt>
<trkpt lat="36.85101888888889" lon="138.36933194444444">
<ele>309</ele>
</trkpt>
<trkpt lat="36.85153388888889" lon="138.369385">
<ele>309</ele>
</trkpt>
<trkpt lat="36.85194694444444" lon="138.36946111111112">
<ele>309</ele>
</trkpt>
<trkpt lat="36.85319611111111" lon="138.3696588888889">
<ele>309</ele>
</trkpt>
<trkpt lat="36.85520388888889" lon="138.36998111111112">
<ele>309</ele>
</trkpt>
<trkpt lat="36.85640611111111" lon="138.3701738888889">
<ele>309</ele>
</trkpt>
<trkpt lat="36.85766" lon="138.37026">
<ele>309</ele>
</trkpt>
<trkpt lat="36.85862111111111" lon="138.3703888888889">
<ele>309</ele>
</trkpt>
<trkpt lat="36.859943055555554" lon="138.37081805555556">
<ele>309</ele>
</trkpt>
<trkpt lat="36.86092194444444" lon="138.37118194444446">
<ele>309</ele>
</trkpt>
<trkpt lat="36.86171111111111" lon="138.37174">
<ele>309</ele>
</trkpt>
<trkpt lat="36.86255305555556" lon="138.3723411111111">
<ele>309</ele>
</trkpt>
<trkpt lat="36.863461944444445" lon="138.37309194444444">
<ele>309</ele>
</trkpt>
<trkpt lat="36.86433805555556" lon="138.3738">
<ele>309</ele>
</trkpt>
<trkpt lat="36.86564305555556" lon="138.37448694444444">
<ele>309</ele>
</trkpt>
<trkpt lat="36.86662111111111" lon="138.37515194444444">
<ele>309</ele>
</trkpt>
<trkpt lat="36.86768611111111" lon="138.3756888888889">
<ele>309</ele>
</trkpt>
<trkpt lat="36.868235" lon="138.3761388888889">
<ele>309</ele>
</trkpt>
<trkpt lat="36.86883611111111" lon="138.37648194444444">
<ele>309</ele>
</trkpt>
<trkpt lat="36.86954" lon="138.37721194444444">
<ele>309</ele>
</trkpt>
<trkpt lat="36.87130805555555" lon="138.37914305555555">
<ele>309</ele>
</trkpt>
<trkpt lat="36.87214888888889" lon="138.380345">
<ele>309</ele>
</trkpt>
<trkpt lat="36.87240611111111" lon="138.381225">
<ele>309</ele>
</trkpt>
<trkpt lat="36.872458055555555" lon="138.38236194444445">
<ele>309</ele>
</trkpt>
<trkpt lat="36.872458055555555" lon="138.3833711111111">
<ele>308</ele>
</trkpt>
<trkpt lat="36.872611944444444" lon="138.3843361111111">
<ele>309</ele>
</trkpt>
<trkpt lat="36.87302388888889" lon="138.38532305555555">
<ele>309</ele>
</trkpt>
<trkpt lat="36.873401944444446" lon="138.38671805555555">
<ele>309</ele>
</trkpt>
<trkpt lat="36.8739" lon="138.38781194444445">
<ele>309</ele>
</trkpt>
<trkpt lat="36.874415" lon="138.38783388888888">
<ele>309</ele>
</trkpt>
<trkpt lat="36.87520388888889" lon="138.38766194444443">
<ele>309</ele>
</trkpt>
<trkpt lat="36.875701944444444" lon="138.38757611111112">
<ele>309</ele>
</trkpt>
<trkpt lat="36.876131111111114" lon="138.38796194444444">
<ele>309</ele>
</trkpt>
<trkpt lat="36.876336944444446" lon="138.38834888888888">
<ele>309</ele>
</trkpt>
<trkpt lat="36.87662888888889" lon="138.38942111111112">
<ele>309</ele>
</trkpt>
<trkpt lat="36.87690388888889" lon="138.39060194444446">
<ele>309</ele>
</trkpt>
<trkpt lat="36.877178055555554" lon="138.39165305555557">
<ele>309</ele>
</trkpt>
<trkpt lat="36.87757305555556" lon="138.39319805555556">
<ele>309</ele>
</trkpt>
<trkpt lat="36.87795111111111" lon="138.3943138888889">
<ele>308</ele>
</trkpt>
<trkpt lat="36.878835" lon="138.39617">
<ele>309</ele>
</trkpt>
<trkpt lat="36.87921194444444" lon="138.39754305555556">
<ele>309</ele>
</trkpt>
<trkpt lat="36.879693055555556" lon="138.3989588888889">
<ele>309</ele>
</trkpt>
<trkpt lat="36.880345" lon="138.400075">
<ele>309</ele>
</trkpt>
<trkpt lat="36.88116888888889" lon="138.40063305555555">
<ele>309</ele>
</trkpt>
<trkpt lat="36.88209611111111" lon="138.4009761111111">
<ele>309</ele>
</trkpt>
<trkpt lat="36.88305694444445" lon="138.4017061111111">
<ele>309</ele>
</trkpt>
<trkpt lat="36.884155" lon="138.4019211111111">
<ele>309</ele>
</trkpt>
<trkpt lat="36.88497888888889" lon="138.40247888888888">
<ele>309</ele>
</trkpt>
<trkpt lat="36.88652388888889" lon="138.403895">
<ele>307</ele>
</trkpt>
<trkpt lat="36.88796611111111" lon="138.40445194444445">
<ele>307</ele>
</trkpt>
<trkpt lat="36.888995" lon="138.40453805555555">
<ele>307</ele>
</trkpt>
<trkpt lat="36.889853055555555" lon="138.40415194444444">
<ele>307</ele>
</trkpt>
<trkpt lat="36.890813888888886" lon="138.40380888888888">
<ele>306</ele>
</trkpt>
<trkpt lat="36.891775" lon="138.40350805555556">
<ele>306</ele>
</trkpt>
<trkpt lat="36.89297694444444" lon="138.40295111111112">
<ele>307</ele>
</trkpt>
<trkpt lat="36.894418055555555" lon="138.4025211111111">
<ele>306</ele>
</trkpt>
<trkpt lat="36.89561888888889" lon="138.40187805555556">
<ele>306</ele>
</trkpt>
<trkpt lat="36.896751944444446" lon="138.40132">
<ele>306</ele>
</trkpt>
<trkpt lat="36.89805611111111" lon="138.40084805555554">
<ele>306</ele>
</trkpt>
<trkpt lat="36.89946305555556" lon="138.400075">
<ele>306</ele>
</trkpt>
<trkpt lat="36.90087" lon="138.39956">
<ele>306</ele>
</trkpt>
<trkpt lat="36.90203694444445" lon="138.3991738888889">
<ele>306</ele>
</trkpt>
<trkpt lat="36.90327194444444" lon="138.39883111111112">
<ele>305</ele>
</trkpt>
<trkpt lat="36.904541944444446" lon="138.3984011111111">
<ele>305</ele>
</trkpt>
<trkpt lat="36.906258055555554" lon="138.39805805555557">
<ele>305</ele>
</trkpt>
<trkpt lat="36.907905" lon="138.3975861111111">
<ele>305</ele>
</trkpt>
<trkpt lat="36.909655" lon="138.39737194444444">
<ele>305</ele>
</trkpt>
<trkpt lat="36.91123388888889" lon="138.3973288888889">
<ele>306</ele>
</trkpt>
<trkpt lat="36.912641111111114" lon="138.39715694444445">
<ele>305</ele>
</trkpt>
<trkpt lat="36.91445888888889" lon="138.39741388888888">
<ele>305</ele>
</trkpt>
<trkpt lat="36.91593388888889" lon="138.39767194444445">
<ele>304</ele>
</trkpt>
<trkpt lat="36.91672388888889" lon="138.39823">
<ele>303</ele>
</trkpt>
<trkpt lat="36.91768388888889" lon="138.3988738888889">
<ele>308</ele>
</trkpt>
<trkpt lat="36.918748055555554" lon="138.39994611111112">
<ele>309</ele>
</trkpt>
<trkpt lat="36.91970888888889" lon="138.40127694444445">
<ele>309</ele>
</trkpt>
<trkpt lat="36.920771944444446" lon="138.40217805555557">
<ele>309</ele>
</trkpt>
<trkpt lat="36.921596111111114" lon="138.4030788888889">
<ele>309</ele>
</trkpt>
<trkpt lat="36.92293388888889" lon="138.4032938888889">
<ele>309</ele>
</trkpt>
<trkpt lat="36.9241" lon="138.4035511111111">
<ele>309</ele>
</trkpt>
<trkpt lat="36.92550694444444" lon="138.40428111111112">
<ele>309</ele>
</trkpt>
<trkpt lat="36.92670805555556" lon="138.40471">
<ele>309</ele>
</trkpt>
<trkpt lat="36.92852611111111" lon="138.40556805555556">
<ele>309</ele>
</trkpt>
<trkpt lat="36.929898055555554" lon="138.4066411111111">
<ele>309</ele>
</trkpt>
<trkpt lat="36.930926944444444" lon="138.40818611111112">
<ele>309</ele>
</trkpt>
<trkpt lat="36.931578888888886" lon="138.40917305555556">
<ele>308</ele>
</trkpt>
<trkpt lat="36.93199111111111" lon="138.41071805555555">
<ele>308</ele>
</trkpt>
<trkpt lat="36.93240194444444" lon="138.4126061111111">
<ele>308</ele>
</trkpt>
<trkpt lat="36.932881944444446" lon="138.4146661111111">
<ele>309</ele>
</trkpt>
<trkpt lat="36.9335" lon="138.41604">
<ele>308</ele>
</trkpt>
<trkpt lat="36.933843055555556" lon="138.41771305555557">
<ele>308</ele>
</trkpt>
<trkpt lat="36.93446111111111" lon="138.41913">
<ele>308</ele>
</trkpt>
<trkpt lat="36.93492805555555" lon="138.41908694444444">
<ele>309</ele>
</trkpt>
<trkpt lat="36.934958888888886" lon="138.41919805555557">
<ele>309</ele>
</trkpt>
<trkpt lat="36.935251111111114" lon="138.41934805555556">
<ele>310</ele>
</trkpt>
<trkpt lat="36.935406111111114" lon="138.41941194444445">
<ele>311</ele>
</trkpt>
<trkpt lat="36.935628055555554" lon="138.41945611111112">
<ele>311</ele>
</trkpt>
<trkpt lat="36.935543055555556" lon="138.41919805555557">
<ele>314</ele>
</trkpt>
<trkpt lat="36.93550805555556" lon="138.4189188888889">
<ele>316</ele>
</trkpt>
<trkpt lat="36.93544" lon="138.41859694444443">
<ele>318</ele>
</trkpt>
<trkpt lat="36.935406111111114" lon="138.41836111111112">
<ele>319</ele>
</trkpt>
<trkpt lat="36.93537111111111" lon="138.41806111111111">
<ele>319</ele>
</trkpt>
<trkpt lat="36.935365" lon="138.41807111111112">
<ele>319</ele>
</trkpt>
<trkpt lat="36.93497694444444" lon="138.41771111111112">
<ele>317</ele>
</trkpt>
<trkpt lat="36.93487694444445" lon="138.41759805555554">
<ele>317</ele>
</trkpt>
<trkpt lat="36.93481111111111" lon="138.41748611111112">
<ele>317</ele>
</trkpt>
<trkpt lat="36.93478611111111" lon="138.41737305555554">
<ele>318</ele>
</trkpt>
<trkpt lat="36.93474388888889" lon="138.41714805555554">
<ele>316</ele>
</trkpt>
<trkpt lat="36.93471111111111" lon="138.4169611111111">
<ele>317</ele>
</trkpt>
<trkpt lat="36.93463611111111" lon="138.4167111111111">
<ele>317</ele>
</trkpt>
<trkpt lat="36.93456111111111" lon="138.4166361111111">
<ele>318</ele>
</trkpt>
<trkpt lat="36.93422694444445" lon="138.4163861111111">
<ele>315</ele>
</trkpt>
<trkpt lat="36.93416888888889" lon="138.41629805555556">
<ele>315</ele>
</trkpt>
<trkpt lat="36.93412694444444" lon="138.41619805555555">
<ele>316</ele>
</trkpt>
<trkpt lat="36.93396111111111" lon="138.41554805555555">
<ele>317</ele>
</trkpt>
<trkpt lat="36.93386888888889" lon="138.4152611111111">
<ele>316</ele>
</trkpt>
<trkpt lat="36.933701944444444" lon="138.4148238888889">
<ele>318</ele>
</trkpt>
<trkpt lat="36.93341111111111" lon="138.41396111111112">
<ele>318</ele>
</trkpt>
<trkpt lat="36.933236111111114" lon="138.41352388888888">
<ele>321</ele>
</trkpt>
<trkpt lat="36.933101944444445" lon="138.4132238888889">
<ele>314</ele>
</trkpt>
<trkpt lat="36.93306888888889" lon="138.4130861111111">
<ele>316</ele>
</trkpt>
<trkpt lat="36.93291888888889" lon="138.4124361111111">
<ele>317</ele>
</trkpt>
<trkpt lat="36.93282694444444" lon="138.4117738888889">
<ele>315</ele>
</trkpt>
<trkpt lat="36.932718888888886" lon="138.4109361111111">
<ele>315</ele>
</trkpt>
<trkpt lat="36.93255194444444" lon="138.4100738888889">
<ele>312</ele>
</trkpt>
<trkpt lat="36.932521944444446" lon="138.40995">
<ele>313</ele>
</trkpt>
<trkpt lat="36.93246888888889" lon="138.40973694444443">
<ele>315</ele>
</trkpt>
<trkpt lat="36.93223611111111" lon="138.40901194444444">
<ele>316</ele>
</trkpt>
<trkpt lat="36.93210194444445" lon="138.4086738888889">
<ele>312</ele>
</trkpt>
<trkpt lat="36.93165194444445" lon="138.40784888888888">
<ele>313</ele>
</trkpt>
<trkpt lat="36.931511111111114" lon="138.40761194444445">
<ele>313</ele>
</trkpt>
<trkpt lat="36.93116888888889" lon="138.40713694444443">
<ele>312</ele>
</trkpt>
<trkpt lat="36.93082694444445" lon="138.40661194444445">
<ele>315</ele>
</trkpt>
<trkpt lat="36.930726944444444" lon="138.40648694444445">
<ele>315</ele>
</trkpt>
<trkpt lat="36.93064388888889" lon="138.4063988888889">
<ele>314</ele>
</trkpt>
<trkpt lat="36.93034388888889" lon="138.40608694444444">
<ele>314</ele>
</trkpt>
<trkpt lat="36.92986111111111" lon="138.40565">
<ele>315</ele>
</trkpt>
<trkpt lat="36.929003055555555" lon="138.40481194444445">
<ele>313</ele>
</trkpt>
<trkpt lat="36.92848611111111" lon="138.40443694444446">
<ele>314</ele>
</trkpt>
<trkpt lat="36.928111111111114" lon="138.40415">
<ele>313</ele>
</trkpt>
<trkpt lat="36.927926944444444" lon="138.40406305555555">
<ele>314</ele>
</trkpt>
<trkpt lat="36.92774388888889" lon="138.403975">
<ele>313</ele>
</trkpt>
<trkpt lat="36.92754388888889" lon="138.4039">
<ele>311</ele>
</trkpt>
<trkpt lat="36.92727694444444" lon="138.40381194444444">
<ele>312</ele>
</trkpt>
<trkpt lat="36.92716111111111" lon="138.403775">
<ele>313</ele>
</trkpt>
<trkpt lat="36.92659388888889" lon="138.4036">
<ele>315</ele>
</trkpt>
<trkpt lat="36.92601111111111" lon="138.403425">
<ele>315</ele>
</trkpt>
<trkpt lat="36.92570305555556" lon="138.40326305555556">
<ele>315</ele>
</trkpt>
<trkpt lat="36.92561888888889" lon="138.4032">
<ele>316</ele>
</trkpt>
<trkpt lat="36.92526888888889" lon="138.403">
<ele>314</ele>
</trkpt>
<trkpt lat="36.92503611111111" lon="138.40286305555554">
<ele>314</ele>
</trkpt>
<trkpt lat="36.924953055555555" lon="138.40281305555555">
<ele>313</ele>
</trkpt>
<trkpt lat="36.92456888888889" lon="138.40256305555556">
<ele>315</ele>
</trkpt>
<trkpt lat="36.924053055555554" lon="138.40223805555556">
<ele>317</ele>
</trkpt>
<trkpt lat="36.923611111111114" lon="138.40198805555556">
<ele>318</ele>
</trkpt>
<trkpt lat="36.923028055555555" lon="138.401675">
<ele>320</ele>
</trkpt>
<trkpt lat="36.92285305555556" lon="138.4016">
<ele>323</ele>
</trkpt>
<trkpt lat="36.922761111111114" lon="138.40156305555556">
<ele>322</ele>
</trkpt>
<trkpt lat="36.92267805555556" lon="138.40153805555556">
<ele>324</ele>
</trkpt>
<trkpt lat="36.92236111111111" lon="138.4014511111111">
<ele>321</ele>
</trkpt>
<trkpt lat="36.92223611111111" lon="138.40138805555554">
<ele>322</ele>
</trkpt>
<trkpt lat="36.92197" lon="138.4012261111111">
<ele>321</ele>
</trkpt>
<trkpt lat="36.920695" lon="138.40031305555556">
<ele>322</ele>
</trkpt>
<trkpt lat="36.92058611111111" lon="138.40021305555555">
<ele>322</ele>
</trkpt>
<trkpt lat="36.920253055555555" lon="138.3998261111111">
<ele>322</ele>
</trkpt>
<trkpt lat="36.91972805555555" lon="138.39921305555555">
<ele>316</ele>
</trkpt>
<trkpt lat="36.919295" lon="138.3987261111111">
<ele>316</ele>
</trkpt>
<trkpt lat="36.91918694444445" lon="138.39856305555554">
<ele>316</ele>
</trkpt>
<trkpt lat="36.91902" lon="138.39808805555555">
<ele>317</ele>
</trkpt>
<trkpt lat="36.91898694444444" lon="138.39797611111112">
<ele>316</ele>
</trkpt>
<trkpt lat="36.91892" lon="138.39773888888888">
<ele>319</ele>
</trkpt>
<trkpt lat="36.918911944444446" lon="138.39762611111112">
<ele>318</ele>
</trkpt>
<trkpt lat="36.91892" lon="138.39751388888888">
<ele>318</ele>
</trkpt>
<trkpt lat="36.91897" lon="138.3972638888889">
<ele>318</ele>
</trkpt>
<trkpt lat="36.91921111111111" lon="138.39636388888889">
<ele>317</ele>
</trkpt>
<trkpt lat="36.91922805555556" lon="138.3962511111111">
<ele>317</ele>
</trkpt>
<trkpt lat="36.91923611111111" lon="138.3961261111111">
<ele>314</ele>
</trkpt>
<trkpt lat="36.91922805555556" lon="138.3960261111111">
<ele>312</ele>
</trkpt>
<trkpt lat="36.91921111111111" lon="138.3959638888889">
<ele>311</ele>
</trkpt>
<trkpt lat="36.919153055555554" lon="138.3958638888889">
<ele>311</ele>
</trkpt>
<trkpt lat="36.91902805555556" lon="138.39570111111112">
<ele>313</ele>
</trkpt>
<trkpt lat="36.91820305555556" lon="138.3947388888889">
<ele>316</ele>
</trkpt>
<trkpt lat="36.917945" lon="138.3945388888889">
<ele>314</ele>
</trkpt>
<trkpt lat="36.91776194444444" lon="138.3943888888889">
<ele>313</ele>
</trkpt>
<trkpt lat="36.91746194444445" lon="138.3949761111111">
<ele>313</ele>
</trkpt>
<trkpt lat="36.917295" lon="138.3952888888889">
<ele>314</ele>
</trkpt>
<trkpt lat="36.917186944444445" lon="138.3955261111111">
<ele>314</ele>
</trkpt>
<trkpt lat="36.91701194444445" lon="138.39595111111112">
<ele>318</ele>
</trkpt>
<trkpt lat="36.91695305555555" lon="138.39615111111112">
<ele>315</ele>
</trkpt>
<trkpt lat="36.91691194444444" lon="138.39630111111111">
<ele>316</ele>
</trkpt>
<trkpt lat="36.916795" lon="138.3967888888889">
<ele>314</ele>
</trkpt>
<trkpt lat="36.916145" lon="138.39938805555556">
<ele>308</ele>
</trkpt>
<trkpt lat="36.91612" lon="138.39948805555557">
<ele>309</ele>
</trkpt>
<trkpt lat="36.916086944444444" lon="138.39961305555556">
<ele>310</ele>
</trkpt>
<trkpt lat="36.91590388888889" lon="138.39953805555555">
<ele>310</ele>
</trkpt>
<trkpt lat="36.91493694444444" lon="138.39928805555556">
<ele>310</ele>
</trkpt>
<trkpt lat="36.91449611111111" lon="138.39921305555555">
<ele>310</ele>
</trkpt>
<trkpt lat="36.91410694444444" lon="138.3991638888889">
<ele>310</ele>
</trkpt>
<trkpt lat="36.913803888888886" lon="138.39912611111112">
<ele>310</ele>
</trkpt>
<trkpt lat="36.91342111111111" lon="138.39910111111112">
<ele>310</ele>
</trkpt>
<trkpt lat="36.91278694444444" lon="138.3990761111111">
<ele>310</ele>
</trkpt>
<trkpt lat="36.91234611111111" lon="138.39908888888888">
<ele>310</ele>
</trkpt>
<trkpt lat="36.91197888888889" lon="138.39911388888888">
<ele>311</ele>
</trkpt>
<trkpt lat="36.91009611111111" lon="138.39933888888888">
<ele>312</ele>
</trkpt>
<trkpt lat="36.90967888888889" lon="138.3993888888889">
<ele>312</ele>
</trkpt>
<trkpt lat="36.909328888888886" lon="138.39945111111112">
<ele>313</ele>
</trkpt>
<trkpt lat="36.90886305555556" lon="138.39956388888888">
<ele>313</ele>
</trkpt>
<trkpt lat="36.90868805555556" lon="138.3996388888889">
<ele>313</ele>
</trkpt>
<trkpt lat="36.90837888888889" lon="138.39980111111112">
<ele>312</ele>
</trkpt>
<trkpt lat="36.90823805555556" lon="138.39988888888888">
<ele>312</ele>
</trkpt>
<trkpt lat="36.90722111111111" lon="138.40056388888888">
<ele>321</ele>
</trkpt>
<trkpt lat="36.90743" lon="138.4009761111111">
<ele>321</ele>
</trkpt>
<trkpt lat="36.90749611111111" lon="138.40115111111112">
<ele>322</ele>
</trkpt>
<trkpt lat="36.90752111111111" lon="138.4013511111111">
<ele>323</ele>
</trkpt>
<trkpt lat="36.907505" lon="138.4015261111111">
<ele>323</ele>
</trkpt>
<trkpt lat="36.90744611111111" lon="138.40172611111112">
<ele>324</ele>
</trkpt>
<trkpt lat="36.90679111111111" lon="138.40281694444445">
<ele>331</ele>
</trkpt>
<trkpt lat="36.90631305555556" lon="138.40361305555555">
<ele>336</ele>
</trkpt>
<trkpt lat="36.906105" lon="138.4039011111111">
<ele>337</ele>
</trkpt>
<trkpt lat="36.90568805555556" lon="138.4044011111111">
<ele>341</ele>
</trkpt>
<trkpt lat="36.90522194444444" lon="138.40487611111112">
<ele>342</ele>
</trkpt>
<trkpt lat="36.90468" lon="138.40533805555555">
<ele>346</ele>
</trkpt>
<trkpt lat="36.90433888888889" lon="138.40573805555556">
<ele>354</ele>
</trkpt>
<trkpt lat="36.90423888888889" lon="138.40573805555556">
<ele>353</ele>
</trkpt>
<trkpt lat="36.90381388888889" lon="138.40576305555555">
<ele>354</ele>
</trkpt>
<trkpt lat="36.903255" lon="138.40580111111112">
<ele>356</ele>
</trkpt>
<trkpt lat="36.903055" lon="138.40580111111112">
<ele>356</ele>
</trkpt>
<trkpt lat="36.90261388888889" lon="138.40581305555557">
<ele>357</ele>
</trkpt>
<trkpt lat="36.902346944444446" lon="138.4058261111111">
<ele>358</ele>
</trkpt>
<trkpt lat="36.90213111111111" lon="138.40580111111112">
<ele>358</ele>
</trkpt>
<trkpt lat="36.90162194444444" lon="138.4057011111111">
<ele>356</ele>
</trkpt>
<trkpt lat="36.90155611111111" lon="138.4057011111111">
<ele>355</ele>
</trkpt>
<trkpt lat="36.901421944444444" lon="138.4057261111111">
<ele>355</ele>
</trkpt>
<trkpt lat="36.901088888888886" lon="138.40586305555556">
<ele>357</ele>
</trkpt>
<trkpt lat="36.90063111111111" lon="138.40586305555556">
<ele>356</ele>
</trkpt>
<trkpt lat="36.90051388888889" lon="138.4058761111111">
<ele>356</ele>
</trkpt>
<trkpt lat="36.900463888888886" lon="138.40588805555555">
<ele>356</ele>
</trkpt>
<trkpt lat="36.90007305555555" lon="138.40601305555555">
<ele>358</ele>
</trkpt>
<trkpt lat="36.899906111111115" lon="138.40606305555556">
<ele>358</ele>
</trkpt>
<trkpt lat="36.89966388888889" lon="138.40613805555554">
<ele>354</ele>
</trkpt>
<trkpt lat="36.899521944444444" lon="138.40618805555556">
<ele>353</ele>
</trkpt>
<trkpt lat="36.89947305555555" lon="138.40621305555555">
<ele>353</ele>
</trkpt>
<trkpt lat="36.899388888888886" lon="138.40623805555555">
<ele>352</ele>
</trkpt>
<trkpt lat="36.899298055555555" lon="138.4063011111111">
<ele>352</ele>
</trkpt>
<trkpt lat="36.89922305555555" lon="138.40638805555557">
<ele>351</ele>
</trkpt>
<trkpt lat="36.899121944444445" lon="138.40656305555555">
<ele>350</ele>
</trkpt>
<trkpt lat="36.899048055555554" lon="138.40681305555555">
<ele>347</ele>
</trkpt>
<trkpt lat="36.89866388888889" lon="138.40671305555554">
<ele>346</ele>
</trkpt>
<trkpt lat="36.89850194444445" lon="138.40666694444445">
<ele>346</ele>
</trkpt>
<trkpt lat="36.89835611111111" lon="138.4066261111111">
<ele>346</ele>
</trkpt>
<trkpt lat="36.89789805555556" lon="138.4065511111111">
<ele>347</ele>
</trkpt>
<trkpt lat="36.897531111111114" lon="138.40651305555556">
<ele>344</ele>
</trkpt>
<trkpt lat="36.89686388888889" lon="138.40647611111112">
<ele>330</ele>
</trkpt>
<trkpt lat="36.89636388888889" lon="138.40646305555555">
<ele>328</ele>
</trkpt>
<trkpt lat="36.89562305555555" lon="138.40641305555556">
<ele>324</ele>
</trkpt>
<trkpt lat="36.895181111111114" lon="138.40637611111111">
<ele>322</ele>
</trkpt>
<trkpt lat="36.89378194444444" lon="138.40623805555555">
<ele>318</ele>
</trkpt>
<trkpt lat="36.89282305555555" lon="138.4064011111111">
<ele>325</ele>
</trkpt>
<trkpt lat="36.892648055555554" lon="138.40647611111112">
<ele>324</ele>
</trkpt>
<trkpt lat="36.89167388888889" lon="138.4069761111111">
<ele>322</ele>
</trkpt>
<trkpt lat="36.89004111111111" lon="138.40788805555556">
<ele>326</ele>
</trkpt>
<trkpt lat="36.89004194444444" lon="138.40789388888888">
<ele>326</ele>
</trkpt>
<trkpt lat="36.89006611111111" lon="138.40801305555556">
<ele>326</ele>
</trkpt>
<trkpt lat="36.889873888888886" lon="138.40816305555555">
<ele>324</ele>
</trkpt>
<trkpt lat="36.88969888888889" lon="138.40830111111111">
<ele>326</ele>
</trkpt>
<trkpt lat="36.889631944444446" lon="138.40840111111112">
<ele>328</ele>
</trkpt>
<trkpt lat="36.88957388888889" lon="138.4085511111111">
<ele>329</ele>
</trkpt>
<trkpt lat="36.88950694444444" lon="138.4084761111111">
<ele>331</ele>
</trkpt>
<trkpt lat="36.88933194444444" lon="138.40811305555556">
<ele>332</ele>
</trkpt>
<trkpt lat="36.889248888888886" lon="138.4080011111111">
<ele>331</ele>
</trkpt>
<trkpt lat="36.88903194444445" lon="138.4077511111111">
<ele>331</ele>
</trkpt>
<trkpt lat="36.888891111111114" lon="138.40760111111112">
<ele>333</ele>
</trkpt>
<trkpt lat="36.88881611111111" lon="138.40753805555556">
<ele>336</ele>
</trkpt>
<trkpt lat="36.88867388888889" lon="138.40748805555555">
<ele>336</ele>
</trkpt>
<trkpt lat="36.88852388888889" lon="138.40748805555555">
<ele>333</ele>
</trkpt>
<trkpt lat="36.88836611111111" lon="138.40746305555555">
<ele>333</ele>
</trkpt>
<trkpt lat="36.88827388888889" lon="138.4074011111111">
<ele>331</ele>
</trkpt>
<trkpt lat="36.88795694444445" lon="138.40716305555554">
<ele>333</ele>
</trkpt>
<trkpt lat="36.88779888888889" lon="138.40706305555557">
<ele>333</ele>
</trkpt>
<trkpt lat="36.88773194444445" lon="138.40691305555555">
<ele>335</ele>
</trkpt>
<trkpt lat="36.887656944444444" lon="138.40682611111112">
<ele>337</ele>
</trkpt>
<trkpt lat="36.887616111111114" lon="138.40680111111112">
<ele>337</ele>
</trkpt>
<trkpt lat="36.88744888888889" lon="138.4067511111111">
<ele>336</ele>
</trkpt>
<trkpt lat="36.88726611111111" lon="138.4067261111111">
<ele>336</ele>
</trkpt>
<trkpt lat="36.88720694444444" lon="138.4067261111111">
<ele>336</ele>
</trkpt>
<trkpt lat="36.887081944444446" lon="138.4067261111111">
<ele>336</ele>
</trkpt>
<trkpt lat="36.88702388888889" lon="138.40671305555554">
<ele>336</ele>
</trkpt>
<trkpt lat="36.886808055555555" lon="138.4066261111111">
<ele>336</ele>
</trkpt>
<trkpt lat="36.88656611111111" lon="138.40658805555555">
<ele>337</ele>
</trkpt>
<trkpt lat="36.88626611111111" lon="138.40658805555555">
<ele>337</ele>
</trkpt>
<trkpt lat="36.88623194444445" lon="138.40656305555555">
<ele>337</ele>
</trkpt>
<trkpt lat="36.886091111111114" lon="138.40648805555554">
<ele>335</ele>
</trkpt>
<trkpt lat="36.88603194444445" lon="138.40646305555555">
<ele>335</ele>
</trkpt>
<trkpt lat="36.88596611111111" lon="138.40645111111112">
<ele>335</ele>
</trkpt>
<trkpt lat="36.88588305555555" lon="138.40646305555555">
<ele>337</ele>
</trkpt>
<trkpt lat="36.885756944444445" lon="138.40647611111112">
<ele>338</ele>
</trkpt>
<trkpt lat="36.88570694444444" lon="138.40647611111112">
<ele>338</ele>
</trkpt>
<trkpt lat="36.885508055555555" lon="138.40637611111111">
<ele>338</ele>
</trkpt>
<trkpt lat="36.88543305555555" lon="138.40636305555554">
<ele>339</ele>
</trkpt>
<trkpt lat="36.88494111111111" lon="138.40628805555556">
<ele>337</ele>
</trkpt>
<trkpt lat="36.88456611111111" lon="138.40631305555556">
<ele>337</ele>
</trkpt>
<trkpt lat="36.884166111111114" lon="138.40638805555557">
<ele>339</ele>
</trkpt>
<trkpt lat="36.88401611111111" lon="138.40641305555556">
<ele>339</ele>
</trkpt>
<trkpt lat="36.88375805555555" lon="138.40645111111112">
<ele>340</ele>
</trkpt>
<trkpt lat="36.883158055555555" lon="138.40653805555556">
<ele>338</ele>
</trkpt>
<trkpt lat="36.88264111111111" lon="138.4066261111111">
<ele>333</ele>
</trkpt>
<trkpt lat="36.88260805555556" lon="138.40663805555556">
<ele>333</ele>
</trkpt>
<trkpt lat="36.882533055555555" lon="138.40663805555556">
<ele>333</ele>
</trkpt>
<trkpt lat="36.88236388888889" lon="138.40659805555555">
<ele>333</ele>
</trkpt>
<trkpt lat="36.882275" lon="138.40657611111112">
<ele>333</ele>
</trkpt>
<trkpt lat="36.88211611111111" lon="138.4065511111111">
<ele>332</ele>
</trkpt>
<trkpt lat="36.882025" lon="138.4065511111111">
<ele>331</ele>
</trkpt>
<trkpt lat="36.88191611111111" lon="138.40656388888888">
<ele>332</ele>
</trkpt>
<trkpt lat="36.88186611111111" lon="138.40658888888888">
<ele>331</ele>
</trkpt>
<trkpt lat="36.881675" lon="138.40670111111112">
<ele>332</ele>
</trkpt>
<trkpt lat="36.88079194444445" lon="138.40715111111112">
<ele>324</ele>
</trkpt>
<trkpt lat="36.880608055555555" lon="138.40718805555557">
<ele>321</ele>
</trkpt>
<trkpt lat="36.880558055555554" lon="138.4070761111111">
<ele>320</ele>
</trkpt>
<trkpt lat="36.88045805555556" lon="138.4069761111111">
<ele>319</ele>
</trkpt>
<trkpt lat="36.88026694444444" lon="138.40690111111113">
<ele>317</ele>
</trkpt>
<trkpt lat="36.88000805555556" lon="138.4068388888889">
<ele>314</ele>
</trkpt>
<trkpt lat="36.87948305555555" lon="138.4067638888889">
<ele>311</ele>
</trkpt>
<trkpt lat="36.879441944444444" lon="138.40667611111112">
<ele>310</ele>
</trkpt>
<trkpt lat="36.87891694444444" lon="138.40567611111112">
<ele>309</ele>
</trkpt>
<trkpt lat="36.87886694444445" lon="138.40557611111112">
<ele>309</ele>
</trkpt>
<trkpt lat="36.879133055555556" lon="138.4054761111111">
<ele>309</ele>
</trkpt>
<trkpt lat="36.879225" lon="138.4054138888889">
<ele>309</ele>
</trkpt>
<trkpt lat="36.87925388888889" lon="138.4053788888889">
<ele>309</ele>
</trkpt>
<trkpt lat="36.87941694444444" lon="138.4051888888889">
<ele>310</ele>
</trkpt>
<trkpt lat="36.87960805555556" lon="138.4049388888889">
<ele>310</ele>
</trkpt>
<trkpt lat="36.879775" lon="138.4046261111111">
<ele>310</ele>
</trkpt>
<trkpt lat="36.879866944444444" lon="138.4043638888889">
<ele>310</ele>
</trkpt>
<trkpt lat="36.87990805555555" lon="138.4041511111111">
<ele>310</ele>
</trkpt>
<trkpt lat="36.87994194444445" lon="138.4039138888889">
<ele>310</ele>
</trkpt>
<trkpt lat="36.879958055555555" lon="138.4037261111111">
<ele>310</ele>
</trkpt>
<trkpt lat="36.87994194444445" lon="138.4030261111111">
<ele>310</ele>
</trkpt>
<trkpt lat="36.87990805555555" lon="138.4027761111111">
<ele>310</ele>
</trkpt>
<trkpt lat="36.879875" lon="138.40252611111111">
<ele>310</ele>
</trkpt>
<trkpt lat="36.879783055555556" lon="138.40213888888889">
<ele>310</ele>
</trkpt>
<trkpt lat="36.8797" lon="138.40182611111112">
<ele>310</ele>
</trkpt>
<trkpt lat="36.87963305555556" lon="138.4016261111111">
<ele>310</ele>
</trkpt>
<trkpt lat="36.87951694444445" lon="138.4013388888889">
<ele>310</ele>
</trkpt>
<trkpt lat="36.87941694444444" lon="138.4011138888889">
<ele>310</ele>
</trkpt>
<trkpt lat="36.87925" lon="138.40080194444445">
<ele>310</ele>
</trkpt>
<trkpt lat="36.878991944444444" lon="138.40040194444444">
<ele>310</ele>
</trkpt>
<trkpt lat="36.87854194444444" lon="138.39975194444443">
<ele>310</ele>
</trkpt>
<trkpt lat="36.878525" lon="138.39972694444444">
<ele>310</ele>
</trkpt>
<trkpt lat="36.87746805555555" lon="138.39829805555556">
<ele>311</ele>
</trkpt>
<trkpt lat="36.87735" lon="138.3981388888889">
<ele>311</ele>
</trkpt>
<trkpt lat="36.87575" lon="138.39595194444445">
<ele>312</ele>
</trkpt>
<trkpt lat="36.87538388888889" lon="138.39545194444443">
<ele>312</ele>
</trkpt>
<trkpt lat="36.875141944444444" lon="138.39512694444446">
<ele>313</ele>
</trkpt>
<trkpt lat="36.87506694444444" lon="138.395015">
<ele>313</ele>
</trkpt>
<trkpt lat="36.87300111111111" lon="138.39218305555556">
<ele>313</ele>
</trkpt>
<trkpt lat="36.87285111111111" lon="138.39197694444445">
<ele>313</ele>
</trkpt>
<trkpt lat="36.87190888888889" lon="138.39069">
<ele>314</ele>
</trkpt>
<trkpt lat="36.87074194444445" lon="138.38907805555556">
<ele>314</ele>
</trkpt>
<trkpt lat="36.87027611111111" lon="138.38844">
<ele>313</ele>
</trkpt>
<trkpt lat="36.86852388888889" lon="138.38603194444445">
<ele>312</ele>
</trkpt>
<trkpt lat="36.86852388888889" lon="138.38603111111112">
<ele>312</ele>
</trkpt>
<trkpt lat="36.86837611111111" lon="138.38582805555555">
<ele>312</ele>
</trkpt>
<trkpt lat="36.86806694444444" lon="138.3853411111111">
<ele>312</ele>
</trkpt>
<trkpt lat="36.86800888888889" lon="138.38525305555555">
<ele>312</ele>
</trkpt>
<trkpt lat="36.86772611111111" lon="138.38485305555557">
<ele>312</ele>
</trkpt>
<trkpt lat="36.867308888888886" lon="138.38430305555556">
<ele>312</ele>
</trkpt>
<trkpt lat="36.86640888888889" lon="138.38307805555556">
<ele>312</ele>
</trkpt>
<trkpt lat="36.865918055555554" lon="138.38244111111112">
<ele>313</ele>
</trkpt>
<trkpt lat="36.86545111111111" lon="138.3818411111111">
<ele>313</ele>
</trkpt>
<trkpt lat="36.865068055555554" lon="138.38140388888888">
<ele>313</ele>
</trkpt>
<trkpt lat="36.86488388888889" lon="138.38119111111112">
<ele>313</ele>
</trkpt>
<trkpt lat="36.86451805555556" lon="138.3807788888889">
<ele>314</ele>
</trkpt>
<trkpt lat="36.86431694444445" lon="138.38054805555555">
<ele>314</ele>
</trkpt>
<trkpt lat="36.86391805555556" lon="138.3800911111111">
<ele>314</ele>
</trkpt>
<trkpt lat="36.863685" lon="138.3798538888889">
<ele>314</ele>
</trkpt>
<trkpt lat="36.86306" lon="138.3791911111111">
<ele>314</ele>
</trkpt>
<trkpt lat="36.862918055555554" lon="138.37905388888888">
<ele>314</ele>
</trkpt>
<trkpt lat="36.862235" lon="138.37836611111112">
<ele>314</ele>
</trkpt>
<trkpt lat="36.86175194444444" lon="138.37791611111112">
<ele>314</ele>
</trkpt>
<trkpt lat="36.86105194444445" lon="138.37729194444444">
<ele>314</ele>
</trkpt>
<trkpt lat="36.86082694444445" lon="138.3770788888889">
<ele>314</ele>
</trkpt>
<trkpt lat="36.86001" lon="138.37639194444444">
<ele>316</ele>
</trkpt>
<trkpt lat="36.859985" lon="138.37636694444444">
<ele>315</ele>
</trkpt>
<trkpt lat="36.85995805555556" lon="138.376345">
<ele>315</ele>
</trkpt>
<trkpt lat="36.85946805555555" lon="138.3759538888889">
<ele>317</ele>
</trkpt>
<trkpt lat="36.85939305555556" lon="138.3759038888889">
<ele>317</ele>
</trkpt>
<trkpt lat="36.858485" lon="138.37521694444445">
<ele>316</ele>
</trkpt>
<trkpt lat="36.85827694444444" lon="138.37506694444446">
<ele>316</ele>
</trkpt>
<trkpt lat="36.85751" lon="138.37450388888888">
<ele>315</ele>
</trkpt>
<trkpt lat="36.857101944444445" lon="138.37421694444444">
<ele>315</ele>
</trkpt>
<trkpt lat="36.85599388888889" lon="138.37349194444445">
<ele>315</ele>
</trkpt>
<trkpt lat="36.85518611111111" lon="138.3729788888889">
<ele>313</ele>
</trkpt>
<trkpt lat="36.85376888888889" lon="138.37206694444444">
<ele>311</ele>
</trkpt>
<trkpt lat="36.85337805555555" lon="138.371855">
<ele>311</ele>
</trkpt>
<trkpt lat="36.853186111111114" lon="138.371755">
<ele>311</ele>
</trkpt>
<trkpt lat="36.85288611111111" lon="138.37158">
<ele>310</ele>
</trkpt>
<trkpt lat="36.85277611111111" lon="138.3715388888889">
<ele>310</ele>
</trkpt>
<trkpt lat="36.852693888888886" lon="138.37156305555555">
<ele>310</ele>
</trkpt>
<trkpt lat="36.852648888888886" lon="138.3720138888889">
<ele>311</ele>
</trkpt>
<trkpt lat="36.85258888888889" lon="138.37262">
<ele>311</ele>
</trkpt>
<trkpt lat="36.85252694444444" lon="138.37310305555556">
<ele>311</ele>
</trkpt>
<trkpt lat="36.852516111111115" lon="138.37321">
<ele>311</ele>
</trkpt>
<trkpt lat="36.85242111111111" lon="138.37315388888888">
<ele>311</ele>
</trkpt>
<trkpt lat="36.852385" lon="138.37318305555556">
<ele>311</ele>
</trkpt>
<trkpt lat="36.852338055555556" lon="138.37317305555555">
<ele>311</ele>
</trkpt>
<trkpt lat="36.852308055555554" lon="138.37315694444445">
<ele>311</ele>
</trkpt>
<trkpt lat="36.85226888888889" lon="138.37313805555556">
<ele>311</ele>
</trkpt>
<trkpt lat="36.852218055555554" lon="138.37306">
<ele>311</ele>
</trkpt>
<trkpt lat="36.852176944444444" lon="138.37299611111112">
<ele>311</ele>
</trkpt>
<trkpt lat="36.852175" lon="138.3730038888889">
<ele>311</ele>
</trkpt>
<trkpt lat="36.85171111111111" lon="138.37284194444445">
<ele>311</ele>
</trkpt>
<trkpt lat="36.85148111111111" lon="138.37277305555557">
<ele>310</ele>
</trkpt>
<trkpt lat="36.851461111111114" lon="138.37276694444444">
<ele>310</ele>
</trkpt>
<trkpt lat="36.851193888888886" lon="138.37266694444443">
<ele>310</ele>
</trkpt>
<trkpt lat="36.85079388888889" lon="138.37253">
<ele>310</ele>
</trkpt>
<trkpt lat="36.85057805555556" lon="138.372455">
<ele>310</ele>
</trkpt>
<trkpt lat="36.850411111111114" lon="138.37239194444444">
<ele>310</ele>
</trkpt>
<trkpt lat="36.85016888888889" lon="138.372305">
<ele>310</ele>
</trkpt>
<trkpt lat="36.84990305555556" lon="138.37219194444444">
<ele>310</ele>
</trkpt>
<trkpt lat="36.84951111111111" lon="138.37203">
<ele>310</ele>
</trkpt>
<trkpt lat="36.84912805555555" lon="138.371855">
<ele>310</ele>
</trkpt>
<trkpt lat="36.84865305555556" lon="138.37164194444443">
<ele>310</ele>
</trkpt>
<trkpt lat="36.848578055555556" lon="138.37159194444445">
<ele>310</ele>
</trkpt>
<trkpt lat="36.84836111111111" lon="138.371455">
<ele>310</ele>
</trkpt>
<trkpt lat="36.84825305555555" lon="138.371405">
<ele>310</ele>
</trkpt>
<trkpt lat="36.846561944444446" lon="138.37081805555556">
<ele>311</ele>
</trkpt>
<trkpt lat="36.84647805555556" lon="138.370805">
<ele>311</ele>
</trkpt>
<trkpt lat="36.846403055555555" lon="138.370805">
<ele>311</ele>
</trkpt>
<trkpt lat="36.84571" lon="138.37061805555555">
<ele>311</ele>
</trkpt>
<trkpt lat="36.845661944444444" lon="138.370605">
<ele>311</ele>
</trkpt>
<trkpt lat="36.84555388888889" lon="138.37059305555556">
<ele>311</ele>
</trkpt>
<trkpt lat="36.845286944444446" lon="138.37044305555557">
<ele>311</ele>
</trkpt>
<trkpt lat="36.845095" lon="138.37033">
<ele>311</ele>
</trkpt>
<trkpt lat="36.844861944444446" lon="138.370205">
<ele>311</ele>
</trkpt>
<trkpt lat="36.844836944444445" lon="138.37019305555555">
<ele>311</ele>
</trkpt>
<trkpt lat="36.844678888888886" lon="138.370105">
<ele>311</ele>
</trkpt>
<trkpt lat="36.84452611111111" lon="138.3700561111111">
<ele>312</ele>
</trkpt>
<trkpt lat="36.84437" lon="138.370005">
<ele>312</ele>
</trkpt>
<trkpt lat="36.843536944444445" lon="138.36973">
<ele>312</ele>
</trkpt>
<trkpt lat="36.84342888888889" lon="138.36966805555556">
<ele>312</ele>
</trkpt>
<trkpt lat="36.843361944444446" lon="138.36961805555555">
<ele>312</ele>
</trkpt>
<trkpt lat="36.84332111111111" lon="138.36959305555555">
<ele>312</ele>
</trkpt>
<trkpt lat="36.84307111111111" lon="138.36936805555555">
<ele>313</ele>
</trkpt>
<trkpt lat="36.842886944444444" lon="138.3692561111111">
<ele>313</ele>
</trkpt>
<trkpt lat="36.84237888888889" lon="138.3688561111111">
<ele>315</ele>
</trkpt>
<trkpt lat="36.84214111111111" lon="138.36868611111112">
<ele>316</ele>
</trkpt>
<trkpt lat="36.84204611111111" lon="138.36861805555554">
<ele>316</ele>
</trkpt>
<trkpt lat="36.84196194444444" lon="138.3685561111111">
<ele>316</ele>
</trkpt>
<trkpt lat="36.84197888888889" lon="138.36844305555556">
<ele>316</ele>
</trkpt>
<trkpt lat="36.842036944444445" lon="138.36806805555557">
<ele>317</ele>
</trkpt>
<trkpt lat="36.84205388888889" lon="138.36794305555554">
<ele>317</ele>
</trkpt>
<trkpt lat="36.84212111111111" lon="138.36756805555555">
<ele>317</ele>
</trkpt>
<trkpt lat="36.84214194444444" lon="138.36747805555555">
<ele>316</ele>
</trkpt>
<trkpt lat="36.84217888888889" lon="138.36731805555556">
<ele>315</ele>
</trkpt>
<trkpt lat="36.842196111111114" lon="138.3672811111111">
<ele>315</ele>
</trkpt>
<trkpt lat="36.84225388888889" lon="138.3670811111111">
<ele>313</ele>
</trkpt>
<trkpt lat="36.842103888888886" lon="138.36696805555556">
<ele>315</ele>
</trkpt>
<trkpt lat="36.84189611111111" lon="138.36676805555555">
<ele>316</ele>
</trkpt>
<trkpt lat="36.841878888888886" lon="138.3667061111111">
<ele>318</ele>
</trkpt>
<trkpt lat="36.84188388888889" lon="138.36669">
<ele>317</ele>
</trkpt>
<trkpt lat="36.84189611111111" lon="138.3666561111111">
<ele>316</ele>
</trkpt>
<trkpt lat="36.84182888888889" lon="138.36661805555556">
<ele>317</ele>
</trkpt>
<trkpt lat="36.84165388888889" lon="138.36649305555557">
<ele>318</ele>
</trkpt>
<trkpt lat="36.84146194444445" lon="138.3663811111111">
<ele>318</ele>
</trkpt>
<trkpt lat="36.84126194444445" lon="138.36629305555556">
<ele>318</ele>
</trkpt>
<trkpt lat="36.84107111111111" lon="138.36621805555555">
<ele>317</ele>
</trkpt>
<trkpt lat="36.84087888888889" lon="138.3661688888889">
<ele>317</ele>
</trkpt>
<trkpt lat="36.840696111111114" lon="138.3661438888889">
<ele>318</ele>
</trkpt>
<trkpt lat="36.84050888888889" lon="138.36612888888888">
<ele>318</ele>
</trkpt>
<trkpt lat="36.84036305555556" lon="138.36611888888888">
<ele>318</ele>
</trkpt>
<trkpt lat="36.84025388888889" lon="138.36613111111112">
<ele>317</ele>
</trkpt>
<trkpt lat="36.83983805555555" lon="138.3662938888889">
<ele>317</ele>
</trkpt>
<trkpt lat="36.83949611111111" lon="138.3663811111111">
<ele>318</ele>
</trkpt>
<trkpt lat="36.83915388888889" lon="138.3664311111111">
<ele>318</ele>
</trkpt>
<trkpt lat="36.83690388888889" lon="138.36666888888888">
<ele>317</ele>
</trkpt>
<trkpt lat="36.83679611111111" lon="138.3666438888889">
<ele>316</ele>
</trkpt>
<trkpt lat="36.83669611111111" lon="138.3666311111111">
<ele>316</ele>
</trkpt>
<trkpt lat="36.83660388888889" lon="138.36658111111112">
<ele>316</ele>
</trkpt>
<trkpt lat="36.836405" lon="138.3664311111111">
<ele>314</ele>
</trkpt>
<trkpt lat="36.83569611111111" lon="138.3658561111111">
<ele>314</ele>
</trkpt>
<trkpt lat="36.834305" lon="138.3646688888889">
<ele>314</ele>
</trkpt>
<trkpt lat="36.83422111111111" lon="138.3646061111111">
<ele>314</ele>
</trkpt>
<trkpt lat="36.833938055555556" lon="138.36453111111112">
<ele>314</ele>
</trkpt>
<trkpt lat="36.83383805555555" lon="138.3644938888889">
<ele>314</ele>
</trkpt>
<trkpt lat="36.833705" lon="138.36439388888888">
<ele>314</ele>
</trkpt>
<trkpt lat="36.83307194444444" lon="138.36374388888888">
<ele>314</ele>
</trkpt>
<trkpt lat="36.83253805555555" lon="138.36325694444446">
<ele>313</ele>
</trkpt>
<trkpt lat="36.82946388888889" lon="138.36042">
<ele>313</ele>
</trkpt>
<trkpt lat="36.829188888888886" lon="138.36018194444443">
<ele>314</ele>
</trkpt>
<trkpt lat="36.82897194444445" lon="138.36003194444444">
<ele>314</ele>
</trkpt>
<trkpt lat="36.82868888888889" lon="138.35985694444443">
<ele>314</ele>
</trkpt>
<trkpt lat="36.82683111111111" lon="138.35897">
<ele>315</ele>
</trkpt>
<trkpt lat="36.826348055555556" lon="138.358795">
<ele>315</ele>
</trkpt>
<trkpt lat="36.825538888888886" lon="138.35863194444445">
<ele>316</ele>
</trkpt>
<trkpt lat="36.82488111111111" lon="138.35863194444445">
<ele>316</ele>
</trkpt>
<trkpt lat="36.82430611111111" lon="138.358695">
<ele>316</ele>
</trkpt>
<trkpt lat="36.82384805555556" lon="138.35878194444444">
<ele>316</ele>
</trkpt>
<trkpt lat="36.823388888888886" lon="138.358895">
<ele>316</ele>
</trkpt>
<trkpt lat="36.82306388888889" lon="138.35900805555556">
<ele>317</ele>
</trkpt>
<trkpt lat="36.82280611111111" lon="138.35913305555556">
<ele>317</ele>
</trkpt>
<trkpt lat="36.822473055555555" lon="138.35937">
<ele>318</ele>
</trkpt>
<trkpt lat="36.82223111111111" lon="138.35955694444445">
<ele>318</ele>
</trkpt>
<trkpt lat="36.822115" lon="138.35963305555555">
<ele>318</ele>
</trkpt>
<trkpt lat="36.82199" lon="138.35972">
<ele>319</ele>
</trkpt>
<trkpt lat="36.82062305555556" lon="138.35968194444445">
<ele>323</ele>
</trkpt>
<trkpt lat="36.819273055555556" lon="138.35965805555554">
<ele>321</ele>
</trkpt>
<trkpt lat="36.819206944444446" lon="138.35965805555554">
<ele>321</ele>
</trkpt>
<trkpt lat="36.81878" lon="138.359635">
<ele>321</ele>
</trkpt>
<trkpt lat="36.81874" lon="138.35963305555555">
<ele>321</ele>
</trkpt>
<trkpt lat="36.818581944444446" lon="138.359595">
<ele>321</ele>
</trkpt>
<trkpt lat="36.81823194444444" lon="138.35940805555555">
<ele>321</ele>
</trkpt>
<trkpt lat="36.818115" lon="138.359395">
<ele>321</ele>
</trkpt>
<trkpt lat="36.81800694444444" lon="138.35940805555555">
<ele>321</ele>
</trkpt>
<trkpt lat="36.81789" lon="138.35947">
<ele>321</ele>
</trkpt>
<trkpt lat="36.81783194444444" lon="138.35952">
<ele>321</ele>
</trkpt>
<trkpt lat="36.81779" lon="138.35957">
<ele>321</ele>
</trkpt>
<trkpt lat="36.81747388888889" lon="138.36002">
<ele>321</ele>
</trkpt>
<trkpt lat="36.817415" lon="138.36008305555555">
<ele>321</ele>
</trkpt>
<trkpt lat="36.817365" lon="138.36010805555554">
<ele>321</ele>
</trkpt>
<trkpt lat="36.81738194444444" lon="138.36018305555555">
<ele>322</ele>
</trkpt>
<trkpt lat="36.81749" lon="138.361495">
<ele>327</ele>
</trkpt>
<trkpt lat="36.81747388888889" lon="138.36227">
<ele>330</ele>
</trkpt>
<trkpt lat="36.817481944444445" lon="138.36238194444445">
<ele>331</ele>
</trkpt>
<trkpt lat="36.81760694444444" lon="138.36292">
<ele>334</ele>
</trkpt>
<trkpt lat="36.81763194444444" lon="138.363045">
<ele>335</ele>
</trkpt>
<trkpt lat="36.81764" lon="138.36323194444444">
<ele>336</ele>
</trkpt>
<trkpt lat="36.81763194444444" lon="138.36337">
<ele>337</ele>
</trkpt>
<trkpt lat="36.81759" lon="138.363545">
<ele>337</ele>
</trkpt>
<trkpt lat="36.817481944444445" lon="138.36378194444444">
<ele>340</ele>
</trkpt>
<trkpt lat="36.81711611111111" lon="138.36451888888888">
<ele>346</ele>
</trkpt>
<trkpt lat="36.81706611111111" lon="138.36468194444444">
<ele>347</ele>
</trkpt>
<trkpt lat="36.81698194444444" lon="138.36465694444445">
<ele>347</ele>
</trkpt>
<trkpt lat="36.81669111111111" lon="138.36437">
<ele>348</ele>
</trkpt>
<trkpt lat="36.81649111111111" lon="138.36417">
<ele>348</ele>
</trkpt>
<trkpt lat="36.81639888888889" lon="138.364095">
<ele>347</ele>
</trkpt>
<trkpt lat="36.81624111111111" lon="138.363995">
<ele>346</ele>
</trkpt>
<trkpt lat="36.81593194444444" lon="138.36383194444446">
<ele>343</ele>
</trkpt>
<trkpt lat="36.81569888888889" lon="138.36362">
<ele>346</ele>
</trkpt>
<trkpt lat="36.81554111111111" lon="138.36340694444445">
<ele>347</ele>
</trkpt>
<trkpt lat="36.81536611111111" lon="138.36315694444446">
<ele>346</ele>
</trkpt>
<trkpt lat="36.815266111111114" lon="138.36307">
<ele>346</ele>
</trkpt>
<trkpt lat="36.81512388888889" lon="138.362995">
<ele>348</ele>
</trkpt>
<trkpt lat="36.814908055555556" lon="138.36292">
<ele>353</ele>
</trkpt>
<trkpt lat="36.814098888888886" lon="138.362745">
<ele>362</ele>
</trkpt>
<trkpt lat="36.81394111111111" lon="138.36273305555557">
<ele>362</ele>
</trkpt>
<trkpt lat="36.81379888888889" lon="138.36273305555557">
<ele>362</ele>
</trkpt>
<trkpt lat="36.813631944444445" lon="138.362745">
<ele>362</ele>
</trkpt>
<trkpt lat="36.81349111111111" lon="138.36278305555555">
<ele>365</ele>
</trkpt>
<trkpt lat="36.813231944444446" lon="138.36290805555555">
<ele>367</ele>
</trkpt>
<trkpt lat="36.813006944444446" lon="138.36300805555555">
<ele>373</ele>
</trkpt>
<trkpt lat="36.81160805555555" lon="138.36370694444443">
<ele>383</ele>
</trkpt>
<trkpt lat="36.81151611111111" lon="138.363745">
<ele>382</ele>
</trkpt>
<trkpt lat="36.81130805555556" lon="138.36382">
<ele>382</ele>
</trkpt>
<trkpt lat="36.81114111111111" lon="138.363845">
<ele>382</ele>
</trkpt>
<trkpt lat="36.809875" lon="138.363845">
<ele>389</ele>
</trkpt>
<trkpt lat="36.809733055555554" lon="138.36383305555555">
<ele>385</ele>
</trkpt>
<trkpt lat="36.809575" lon="138.36382">
<ele>383</ele>
</trkpt>
<trkpt lat="36.80900805555556" lon="138.36367">
<ele>396</ele>
</trkpt>
<trkpt lat="36.80883305555555" lon="138.36365694444444">
<ele>393</ele>
</trkpt>
<trkpt lat="36.80866694444445" lon="138.363645">
<ele>393</ele>
</trkpt>
<trkpt lat="36.80846694444445" lon="138.36365694444444">
<ele>393</ele>
</trkpt>
<trkpt lat="36.80831694444444" lon="138.363695">
<ele>395</ele>
</trkpt>
<trkpt lat="36.80770805555556" lon="138.36395694444445">
<ele>397</ele>
</trkpt>
<trkpt lat="36.80719194444445" lon="138.364195">
<ele>402</ele>
</trkpt>
<trkpt lat="36.80664194444444" lon="138.36467">
<ele>388</ele>
</trkpt>
<trkpt lat="36.806375" lon="138.36497">
<ele>387</ele>
</trkpt>
<trkpt lat="36.806041944444445" lon="138.36538194444444">
<ele>388</ele>
</trkpt>
<trkpt lat="36.80580888888889" lon="138.36558194444444">
<ele>396</ele>
</trkpt>
<trkpt lat="36.805683888888886" lon="138.365645">
<ele>397</ele>
</trkpt>
<trkpt lat="36.80553388888889" lon="138.36570694444444">
<ele>399</ele>
</trkpt>
<trkpt lat="36.80540888888889" lon="138.36570694444444">
<ele>398</ele>
</trkpt>
<trkpt lat="36.80531694444444" lon="138.36568194444445">
<ele>397</ele>
</trkpt>
<trkpt lat="36.8052" lon="138.36565694444445">
<ele>396</ele>
</trkpt>
<trkpt lat="36.80510888888889" lon="138.36560694444444">
<ele>397</ele>
</trkpt>
<trkpt lat="36.80445888888889" lon="138.36512">
<ele>405</ele>
</trkpt>
<trkpt lat="36.80423388888889" lon="138.36502">
<ele>406</ele>
</trkpt>
<trkpt lat="36.80400888888889" lon="138.36498305555557">
<ele>410</ele>
</trkpt>
<trkpt lat="36.803958888888886" lon="138.36498305555557">
<ele>412</ele>
</trkpt>
<trkpt lat="36.80383388888889" lon="138.36500805555556">
<ele>414</ele>
</trkpt>
<trkpt lat="36.80370111111111" lon="138.365045">
<ele>413</ele>
</trkpt>
<trkpt lat="36.803601111111114" lon="138.36512">
<ele>413</ele>
</trkpt>
<trkpt lat="36.80350111111111" lon="138.36518305555555">
<ele>412</ele>
</trkpt>
<trkpt lat="36.80341694444444" lon="138.365245">
<ele>412</ele>
</trkpt>
<trkpt lat="36.80325111111111" lon="138.36540694444443">
<ele>413</ele>
</trkpt>
<trkpt lat="36.802976111111114" lon="138.36565694444445">
<ele>413</ele>
</trkpt>
<trkpt lat="36.80229305555556" lon="138.36628194444444">
<ele>416</ele>
</trkpt>
<trkpt lat="36.802168055555555" lon="138.366395">
<ele>417</ele>
</trkpt>
<trkpt lat="36.802101111111114" lon="138.366445">
<ele>418</ele>
</trkpt>
<trkpt lat="36.801941944444444" lon="138.36653194444443">
<ele>420</ele>
</trkpt>
<trkpt lat="36.80145888888889" lon="138.36673194444444">
<ele>427</ele>
</trkpt>
<trkpt lat="36.80119194444445" lon="138.36685694444444">
<ele>427</ele>
</trkpt>
<trkpt lat="36.80102611111111" lon="138.36693194444445">
<ele>427</ele>
</trkpt>
<trkpt lat="36.80080888888889" lon="138.367045">
<ele>427</ele>
</trkpt>
<trkpt lat="36.800626111111114" lon="138.367145">
<ele>427</ele>
</trkpt>
<trkpt lat="36.80055111111111" lon="138.36720694444443">
<ele>426</ele>
</trkpt>
<trkpt lat="36.80045888888889" lon="138.36728194444444">
<ele>427</ele>
</trkpt>
<trkpt lat="36.799993055555554" lon="138.36788194444443">
<ele>426</ele>
</trkpt>
<trkpt lat="36.799751111111114" lon="138.36818194444444">
<ele>426</ele>
</trkpt>
<trkpt lat="36.799458888888886" lon="138.36840694444444">
<ele>426</ele>
</trkpt>
<trkpt lat="36.79930111111111" lon="138.36849388888888">
<ele>426</ele>
</trkpt>
<trkpt lat="36.79861805555556" lon="138.3687938888889">
<ele>428</ele>
</trkpt>
<trkpt lat="36.79844305555556" lon="138.36885694444445">
<ele>425</ele>
</trkpt>
<trkpt lat="36.79826" lon="138.36890694444443">
<ele>427</ele>
</trkpt>
<trkpt lat="36.798093055555555" lon="138.36895694444445">
<ele>426</ele>
</trkpt>
<trkpt lat="36.79776805555556" lon="138.36900694444444">
<ele>426</ele>
</trkpt>
<trkpt lat="36.79666805555556" lon="138.36913194444443">
<ele>425</ele>
</trkpt>
<trkpt lat="36.79606" lon="138.36923194444444">
<ele>426</ele>
</trkpt>
<trkpt lat="36.795318055555555" lon="138.3693438888889">
<ele>425</ele>
</trkpt>
<trkpt lat="36.795051944444445" lon="138.36935694444443">
<ele>428</ele>
</trkpt>
<trkpt lat="36.79503305555556" lon="138.36935694444443">
<ele>428</ele>
</trkpt>
<trkpt lat="36.79494388888889" lon="138.36935694444443">
<ele>430</ele>
</trkpt>
<trkpt lat="36.794826944444445" lon="138.3693438888889">
<ele>433</ele>
</trkpt>
<trkpt lat="36.79451888888889" lon="138.36926888888888">
<ele>432</ele>
</trkpt>
<trkpt lat="36.79426888888889" lon="138.36923194444444">
<ele>433</ele>
</trkpt>
<trkpt lat="36.79399388888889" lon="138.36920694444444">
<ele>432</ele>
</trkpt>
<trkpt lat="36.793593888888886" lon="138.3691938888889">
<ele>432</ele>
</trkpt>
<trkpt lat="36.79346" lon="138.36920694444444">
<ele>432</ele>
</trkpt>
<trkpt lat="36.793351944444446" lon="138.36923194444444">
<ele>434</ele>
</trkpt>
<trkpt lat="36.79304388888889" lon="138.3693438888889">
<ele>435</ele>
</trkpt>
<trkpt lat="36.79169388888889" lon="138.37003194444443">
<ele>443</ele>
</trkpt>
<trkpt lat="36.79130194444444" lon="138.37023194444444">
<ele>445</ele>
</trkpt>
<trkpt lat="36.791243888888886" lon="138.37025694444444">
<ele>445</ele>
</trkpt>
<trkpt lat="36.79006888888889" lon="138.37084388888888">
<ele>453</ele>
</trkpt>
<trkpt lat="36.789743888888886" lon="138.37100694444445">
<ele>453</ele>
</trkpt>
<trkpt lat="36.78971888888889" lon="138.37101611111112">
<ele>453</ele>
</trkpt>
<trkpt lat="36.78953611111111" lon="138.37108194444446">
<ele>452</ele>
</trkpt>
<trkpt lat="36.78929388888889" lon="138.3711438888889">
<ele>450</ele>
</trkpt>
<trkpt lat="36.78916111111111" lon="138.3711438888889">
<ele>447</ele>
</trkpt>
<trkpt lat="36.78904388888889" lon="138.37113194444444">
<ele>444</ele>
</trkpt>
<trkpt lat="36.78886111111111" lon="138.37109388888888">
<ele>445</ele>
</trkpt>
<trkpt lat="36.78869611111111" lon="138.37104">
<ele>448</ele>
</trkpt>
<trkpt lat="36.78863388888889" lon="138.3710188888889">
<ele>450</ele>
</trkpt>
<trkpt lat="36.78853388888889" lon="138.37098694444444">
<ele>452</ele>
</trkpt>
<trkpt lat="36.78851888888889" lon="138.37098194444445">
<ele>452</ele>
</trkpt>
<trkpt lat="36.78841194444445" lon="138.37096">
<ele>452</ele>
</trkpt>
<trkpt lat="36.788336111111114" lon="138.3709438888889">
<ele>452</ele>
</trkpt>
<trkpt lat="36.788223055555555" lon="138.37092694444445">
<ele>452</ele>
</trkpt>
<trkpt lat="36.78816888888889" lon="138.3709188888889">
<ele>452</ele>
</trkpt>
<trkpt lat="36.78805694444444" lon="138.3709188888889">
<ele>452</ele>
</trkpt>
<trkpt lat="36.78802805555556" lon="138.3709188888889">
<ele>452</ele>
</trkpt>
<trkpt lat="36.788043888888886" lon="138.37103194444444">
<ele>453</ele>
</trkpt>
<trkpt lat="36.788041944444444" lon="138.37105">
<ele>454</ele>
</trkpt>
<trkpt lat="36.78803388888889" lon="138.37104805555555">
<ele>453</ele>
</trkpt>
<trkpt lat="36.78794694444444" lon="138.37156">
<ele>461</ele>
</trkpt>
<trkpt lat="36.78787388888889" lon="138.37191194444443">
<ele>464</ele>
</trkpt>
<trkpt lat="36.78780805555556" lon="138.3724261111111">
<ele>469</ele>
</trkpt>
<trkpt lat="36.78781" lon="138.3725738888889">
<ele>472</ele>
</trkpt>
<trkpt lat="36.78787611111111" lon="138.37262694444445">
<ele>472</ele>
</trkpt>
<trkpt lat="36.7879" lon="138.37281611111112">
<ele>473</ele>
</trkpt>
<trkpt lat="36.78798305555556" lon="138.37306805555556">
<ele>474</ele>
</trkpt>
<trkpt lat="36.78801888888889" lon="138.37314111111112">
<ele>472</ele>
</trkpt>
<trkpt lat="36.78812" lon="138.37330805555555">
<ele>470</ele>
</trkpt>
<trkpt lat="36.78821888888889" lon="138.37344305555555">
<ele>473</ele>
</trkpt>
<trkpt lat="36.78830694444444" lon="138.37349194444445">
<ele>476</ele>
</trkpt>
<trkpt lat="36.78842111111111" lon="138.3735338888889">
<ele>474</ele>
</trkpt>
<trkpt lat="36.78847888888889" lon="138.37354611111112">
<ele>473</ele>
</trkpt>
<trkpt lat="36.78857194444444" lon="138.373555">
<ele>476</ele>
</trkpt>
<trkpt lat="36.788651944444446" lon="138.37354194444444">
<ele>476</ele>
</trkpt>
<trkpt lat="36.788716944444445" lon="138.37353694444445">
<ele>479</ele>
</trkpt>
<trkpt lat="36.78878111111111" lon="138.37362611111112">
<ele>482</ele>
</trkpt>
<trkpt lat="36.78884388888889" lon="138.37373194444444">
<ele>482</ele>
</trkpt>
<trkpt lat="36.78894888888889" lon="138.3739038888889">
<ele>486</ele>
</trkpt>
<trkpt lat="36.78905388888889" lon="138.37405805555557">
<ele>490</ele>
</trkpt>
<trkpt lat="36.789098055555556" lon="138.37409194444444">
<ele>490</ele>
</trkpt>
<trkpt lat="36.78915194444444" lon="138.37416611111112">
<ele>498</ele>
</trkpt>
<trkpt lat="36.78923" lon="138.3743">
<ele>502</ele>
</trkpt>
<trkpt lat="36.78925111111111" lon="138.37433694444445">
<ele>503</ele>
</trkpt>
<trkpt lat="36.789295" lon="138.37444805555555">
<ele>503</ele>
</trkpt>
<trkpt lat="36.78935888888889" lon="138.37463194444445">
<ele>510</ele>
</trkpt>
<trkpt lat="36.78938194444444" lon="138.37471305555556">
<ele>510</ele>
</trkpt>
<trkpt lat="36.7894" lon="138.37479305555556">
<ele>510</ele>
</trkpt>
<trkpt lat="36.78940305555555" lon="138.3748961111111">
<ele>511</ele>
</trkpt>
<trkpt lat="36.789411111111114" lon="138.37502111111112">
<ele>511</ele>
</trkpt>
<trkpt lat="36.78941694444445" lon="138.37505388888889">
<ele>511</ele>
</trkpt>
<trkpt lat="36.78944" lon="138.37511111111112">
<ele>512</ele>
</trkpt>
<trkpt lat="36.78950805555556" lon="138.3752288888889">
<ele>520</ele>
</trkpt>
<trkpt lat="36.789588055555555" lon="138.37538111111112">
<ele>523</ele>
</trkpt>
<trkpt lat="36.78966305555556" lon="138.3755238888889">
<ele>525</ele>
</trkpt>
<trkpt lat="36.78973388888889" lon="138.37567611111112">
<ele>532</ele>
</trkpt>
<trkpt lat="36.78984388888889" lon="138.37592805555556">
<ele>540</ele>
</trkpt>
<trkpt lat="36.789901111111114" lon="138.37604611111112">
<ele>544</ele>
</trkpt>
<trkpt lat="36.78995388888889" lon="138.37615694444443">
<ele>545</ele>
</trkpt>
<trkpt lat="36.79006611111111" lon="138.37637194444446">
<ele>550</ele>
</trkpt>
<trkpt lat="36.79011194444445" lon="138.37647">
<ele>554</ele>
</trkpt>
<trkpt lat="36.790148888888886" lon="138.37654194444445">
<ele>554</ele>
</trkpt>
<trkpt lat="36.79017611111111" lon="138.37660694444443">
<ele>554</ele>
</trkpt>
<trkpt lat="36.790281944444445" lon="138.37684194444444">
<ele>560</ele>
</trkpt>
<trkpt lat="36.79036611111111" lon="138.3770438888889">
<ele>564</ele>
</trkpt>
<trkpt lat="36.79049805555555" lon="138.3773438888889">
<ele>568</ele>
</trkpt>
<trkpt lat="36.79058388888889" lon="138.37754">
<ele>571</ele>
</trkpt>
<trkpt lat="36.790666944444446" lon="138.3777411111111">
<ele>575</ele>
</trkpt>
<trkpt lat="36.79074388888889" lon="138.37790805555557">
<ele>574</ele>
</trkpt>
<trkpt lat="36.79080305555556" lon="138.3780311111111">
<ele>580</ele>
</trkpt>
<trkpt lat="36.790865" lon="138.37818388888888">
<ele>579</ele>
</trkpt>
<trkpt lat="36.79090111111111" lon="138.37827611111112">
<ele>582</ele>
</trkpt>
<trkpt lat="36.79096194444445" lon="138.37839805555555">
<ele>583</ele>
</trkpt>
<trkpt lat="36.79101111111111" lon="138.37847805555555">
<ele>584</ele>
</trkpt>
<trkpt lat="36.79105888888889" lon="138.3785761111111">
<ele>586</ele>
</trkpt>
<trkpt lat="36.791195" lon="138.37882694444446">
<ele>589</ele>
</trkpt>
<trkpt lat="36.79121888888889" lon="138.3788788888889">
<ele>589</ele>
</trkpt>
<trkpt lat="36.79125111111111" lon="138.37892305555556">
<ele>591</ele>
</trkpt>
<trkpt lat="36.79129611111111" lon="138.379005">
<ele>592</ele>
</trkpt>
<trkpt lat="36.79139611111111" lon="138.37917305555555">
<ele>593</ele>
</trkpt>
<trkpt lat="36.791471111111115" lon="138.37928805555555">
<ele>593</ele>
</trkpt>
<trkpt lat="36.79151" lon="138.37934388888888">
<ele>596</ele>
</trkpt>
<trkpt lat="36.79161388888889" lon="138.3795">
<ele>599</ele>
</trkpt>
<trkpt lat="36.79168611111111" lon="138.3795861111111">
<ele>601</ele>
</trkpt>
<trkpt lat="36.79175111111111" lon="138.37964888888888">
<ele>601</ele>
</trkpt>
<trkpt lat="36.79183388888889" lon="138.37973694444443">
<ele>607</ele>
</trkpt>
<trkpt lat="36.791916944444445" lon="138.37982888888888">
<ele>611</ele>
</trkpt>
<trkpt lat="36.792048055555554" lon="138.37996388888888">
<ele>615</ele>
</trkpt>
<trkpt lat="36.79212611111111" lon="138.3800711111111">
<ele>619</ele>
</trkpt>
<trkpt lat="36.79222" lon="138.38018805555555">
<ele>620</ele>
</trkpt>
<trkpt lat="36.792325" lon="138.38032">
<ele>623</ele>
</trkpt>
<trkpt lat="36.79237888888889" lon="138.38040388888888">
<ele>626</ele>
</trkpt>
<trkpt lat="36.79244694444444" lon="138.38050611111112">
<ele>628</ele>
</trkpt>
<trkpt lat="36.79261805555556" lon="138.38074111111112">
<ele>636</ele>
</trkpt>
<trkpt lat="36.792763055555554" lon="138.38093305555554">
<ele>641</ele>
</trkpt>
<trkpt lat="36.792895" lon="138.38111194444446">
<ele>649</ele>
</trkpt>
<trkpt lat="36.79298305555555" lon="138.3812311111111">
<ele>649</ele>
</trkpt>
<trkpt lat="36.79308611111111" lon="138.38140194444443">
<ele>656</ele>
</trkpt>
<trkpt lat="36.793168055555554" lon="138.38153305555556">
<ele>663</ele>
</trkpt>
<trkpt lat="36.793238055555555" lon="138.3816488888889">
<ele>665</ele>
</trkpt>
<trkpt lat="36.793275" lon="138.3817038888889">
<ele>670</ele>
</trkpt>
<trkpt lat="36.793375" lon="138.3819038888889">
<ele>674</ele>
</trkpt>
<trkpt lat="36.793461944444445" lon="138.3821188888889">
<ele>678</ele>
</trkpt>
<trkpt lat="36.79356194444444" lon="138.38238388888888">
<ele>683</ele>
</trkpt>
<trkpt lat="36.793663055555555" lon="138.38264694444445">
<ele>684</ele>
</trkpt>
<trkpt lat="36.79374111111111" lon="138.38285694444446">
<ele>691</ele>
</trkpt>
<trkpt lat="36.79387111111111" lon="138.383075">
<ele>697</ele>
</trkpt>
<trkpt lat="36.793956111111115" lon="138.38318194444443">
<ele>702</ele>
</trkpt>
<trkpt lat="36.79400305555556" lon="138.38325305555554">
<ele>704</ele>
</trkpt>
<trkpt lat="36.794068055555556" lon="138.383335">
<ele>708</ele>
</trkpt>
<trkpt lat="36.794178055555555" lon="138.38348611111113">
<ele>711</ele>
</trkpt>
<trkpt lat="36.794255" lon="138.38359305555556">
<ele>712</ele>
</trkpt>
<trkpt lat="36.79431611111111" lon="138.3836711111111">
<ele>714</ele>
</trkpt>
<trkpt lat="36.794385" lon="138.38378194444445">
<ele>717</ele>
</trkpt>
<trkpt lat="36.794491944444445" lon="138.38395305555557">
<ele>719</ele>
</trkpt>
<trkpt lat="36.79456694444445" lon="138.38407805555556">
<ele>722</ele>
</trkpt>
<trkpt lat="36.79463194444445" lon="138.38417611111112">
<ele>724</ele>
</trkpt>
<trkpt lat="36.794705" lon="138.3842711111111">
<ele>729</ele>
</trkpt>
<trkpt lat="36.79480111111111" lon="138.384405">
<ele>734</ele>
</trkpt>
<trkpt lat="36.794938055555555" lon="138.38459805555556">
<ele>739</ele>
</trkpt>
<trkpt lat="36.795055" lon="138.38476305555557">
<ele>744</ele>
</trkpt>
<trkpt lat="36.79518888888889" lon="138.3849561111111">
<ele>752</ele>
</trkpt>
<trkpt lat="36.79530888888889" lon="138.3851238888889">
<ele>759</ele>
</trkpt>
<trkpt lat="36.79539388888889" lon="138.3852511111111">
<ele>763</ele>
</trkpt>
<trkpt lat="36.795518888888886" lon="138.38543194444443">
<ele>767</ele>
</trkpt>
<trkpt lat="36.79562" lon="138.38557194444445">
<ele>775</ele>
</trkpt>
<trkpt lat="36.79577805555556" lon="138.3858">
<ele>782</ele>
</trkpt>
<trkpt lat="36.79588388888889" lon="138.38594111111112">
<ele>786</ele>
</trkpt>
<trkpt lat="36.795991111111114" lon="138.38609805555555">
<ele>791</ele>
</trkpt>
<trkpt lat="36.79606" lon="138.3861938888889">
<ele>795</ele>
</trkpt>
<trkpt lat="36.79613305555556" lon="138.38629805555556">
<ele>799</ele>
</trkpt>
<trkpt lat="36.79623888888889" lon="138.38649194444446">
<ele>807</ele>
</trkpt>
<trkpt lat="36.79630111111111" lon="138.38661">
<ele>809</ele>
</trkpt>
<trkpt lat="36.79638194444444" lon="138.38675305555554">
<ele>817</ele>
</trkpt>
<trkpt lat="36.79640388888889" lon="138.38679305555556">
<ele>818</ele>
</trkpt>
<trkpt lat="36.79651305555556" lon="138.38694694444445">
<ele>825</ele>
</trkpt>
<trkpt lat="36.79656194444444" lon="138.3870138888889">
<ele>830</ele>
</trkpt>
<trkpt lat="36.79661194444444" lon="138.3870938888889">
<ele>830</ele>
</trkpt>
<trkpt lat="36.79669694444444" lon="138.38723">
<ele>837</ele>
</trkpt>
<trkpt lat="36.79674611111111" lon="138.38732">
<ele>837</ele>
</trkpt>
<trkpt lat="36.79681305555555" lon="138.38741305555556">
<ele>842</ele>
</trkpt>
<trkpt lat="36.79691111111111" lon="138.387575">
<ele>847</ele>
</trkpt>
<trkpt lat="36.79698805555556" lon="138.38769305555556">
<ele>848</ele>
</trkpt>
<trkpt lat="36.79705888888889" lon="138.38781305555557">
<ele>852</ele>
</trkpt>
<trkpt lat="36.797125" lon="138.38792388888888">
<ele>857</ele>
</trkpt>
<trkpt lat="36.79717111111111" lon="138.3879961111111">
<ele>857</ele>
</trkpt>
<trkpt lat="36.79729611111111" lon="138.38817305555557">
<ele>861</ele>
</trkpt>
<trkpt lat="36.79743305555556" lon="138.38837194444446">
<ele>863</ele>
</trkpt>
<trkpt lat="36.79750888888889" lon="138.388475">
<ele>867</ele>
</trkpt>
<trkpt lat="36.79768194444444" lon="138.38869111111111">
<ele>872</ele>
</trkpt>
<trkpt lat="36.79779694444444" lon="138.388855">
<ele>875</ele>
</trkpt>
<trkpt lat="36.79788305555556" lon="138.38896111111112">
<ele>876</ele>
</trkpt>
<trkpt lat="36.79798611111111" lon="138.38907305555554">
<ele>880</ele>
</trkpt>
<trkpt lat="36.79811" lon="138.3892011111111">
<ele>885</ele>
</trkpt>
<trkpt lat="36.79819805555555" lon="138.38928694444445">
<ele>891</ele>
</trkpt>
<trkpt lat="36.79831388888889" lon="138.3893688888889">
<ele>899</ele>
</trkpt>
<trkpt lat="36.79855888888889" lon="138.3895238888889">
<ele>918</ele>
</trkpt>
<trkpt lat="36.79863611111111" lon="138.38953805555556">
<ele>918</ele>
</trkpt>
<trkpt lat="36.798901111111114" lon="138.38964611111112">
<ele>929</ele>
</trkpt>
<trkpt lat="36.79898305555555" lon="138.38966194444444">
<ele>929</ele>
</trkpt>
<trkpt lat="36.79915388888889" lon="138.3897188888889">
<ele>940</ele>
</trkpt>
<trkpt lat="36.79935805555556" lon="138.3897511111111">
<ele>947</ele>
</trkpt>
<trkpt lat="36.79941888888889" lon="138.3897611111111">
<ele>947</ele>
</trkpt>
<trkpt lat="36.799593055555555" lon="138.38978">
<ele>957</ele>
</trkpt>
<trkpt lat="36.79977" lon="138.38979111111112">
<ele>962</ele>
</trkpt>
<trkpt lat="36.79986805555556" lon="138.3898011111111">
<ele>965</ele>
</trkpt>
<trkpt lat="36.800005" lon="138.3898011111111">
<ele>975</ele>
</trkpt>
<trkpt lat="36.80018305555556" lon="138.38977694444444">
<ele>978</ele>
</trkpt>
<trkpt lat="36.800315" lon="138.3897611111111">
<ele>982</ele>
</trkpt>
<trkpt lat="36.800643055555554" lon="138.38968694444443">
<ele>1000</ele>
</trkpt>
<trkpt lat="36.800718055555556" lon="138.3896711111111">
<ele>1005</ele>
</trkpt>
<trkpt lat="36.80092111111111" lon="138.38961305555554">
<ele>1019</ele>
</trkpt>
<trkpt lat="36.800955" lon="138.38960805555556">
<ele>1019</ele>
</trkpt>
<trkpt lat="36.80100111111111" lon="138.38959888888888">
<ele>1025</ele>
</trkpt>
<trkpt lat="36.801405" lon="138.3894811111111">
<ele>1047</ele>
</trkpt>
<trkpt lat="36.801541944444445" lon="138.38944">
<ele>1056</ele>
</trkpt>
<trkpt lat="36.801611111111114" lon="138.38942111111112">
<ele>1061</ele>
</trkpt>
<trkpt lat="36.801698055555555" lon="138.38942194444445">
<ele>1066</ele>
</trkpt>
<trkpt lat="36.801785" lon="138.38945694444445">
<ele>1065</ele>
</trkpt>
<trkpt lat="36.8018" lon="138.3895811111111">
<ele>1062</ele>
</trkpt>
<trkpt lat="36.80181888888889" lon="138.3896611111111">
<ele>1062</ele>
</trkpt>
<trkpt lat="36.80188" lon="138.38983">
<ele>1056</ele>
</trkpt>
<trkpt lat="36.801921944444445" lon="138.38992194444444">
<ele>1060</ele>
</trkpt>
<trkpt lat="36.80196888888889" lon="138.390005">
<ele>1056</ele>
</trkpt>
<trkpt lat="36.802" lon="138.39007305555555">
<ele>1060</ele>
</trkpt>
<trkpt lat="36.80208611111111" lon="138.3902711111111">
<ele>1059</ele>
</trkpt>
<trkpt lat="36.802135" lon="138.39040888888889">
<ele>1066</ele>
</trkpt>
<trkpt lat="36.80214" lon="138.39048805555555">
<ele>1067</ele>
</trkpt>
<trkpt lat="36.80215194444445" lon="138.3905611111111">
<ele>1068</ele>
</trkpt>
<trkpt lat="36.802171111111114" lon="138.39072805555554">
<ele>1066</ele>
</trkpt>
<trkpt lat="36.80218" lon="138.39080388888888">
<ele>1064</ele>
</trkpt>
<trkpt lat="36.80221888888889" lon="138.39095111111112">
<ele>1063</ele>
</trkpt>
<trkpt lat="36.802233055555554" lon="138.39101805555555">
<ele>1072</ele>
</trkpt>
<trkpt lat="36.802303888888886" lon="138.39121305555557">
<ele>1072</ele>
</trkpt>
<trkpt lat="36.80234111111111" lon="138.3913761111111">
<ele>1081</ele>
</trkpt>
<trkpt lat="36.80234611111111" lon="138.39144805555554">
<ele>1082</ele>
</trkpt>
<trkpt lat="36.802345" lon="138.39166111111112">
<ele>1084</ele>
</trkpt>
<trkpt lat="36.80234388888889" lon="138.39174694444444">
<ele>1088</ele>
</trkpt>
<trkpt lat="36.802335" lon="138.39187805555557">
<ele>1090</ele>
</trkpt>
<trkpt lat="36.80233305555556" lon="138.39200805555555">
<ele>1088</ele>
</trkpt>
<trkpt lat="36.80233194444445" lon="138.39239388888888">
<ele>1097</ele>
</trkpt>
<trkpt lat="36.80233611111111" lon="138.39248305555554">
<ele>1103</ele>
</trkpt>
<trkpt lat="36.80234611111111" lon="138.39262">
<ele>1104</ele>
</trkpt>
<trkpt lat="36.80235888888889" lon="138.39270305555556">
<ele>1106</ele>
</trkpt>
<trkpt lat="36.80240611111111" lon="138.392895">
<ele>1108</ele>
</trkpt>
<trkpt lat="36.802456944444444" lon="138.39311111111112">
<ele>1119</ele>
</trkpt>
<trkpt lat="36.80249694444444" lon="138.39336194444445">
<ele>1124</ele>
</trkpt>
<trkpt lat="36.8025" lon="138.39339805555556">
<ele>1124</ele>
</trkpt>
<trkpt lat="36.802501944444444" lon="138.39359305555556">
<ele>1132</ele>
</trkpt>
<trkpt lat="36.80252611111111" lon="138.39378">
<ele>1138</ele>
</trkpt>
<trkpt lat="36.802548888888886" lon="138.39388694444443">
<ele>1138</ele>
</trkpt>
<trkpt lat="36.80256888888889" lon="138.39397194444444">
<ele>1146</ele>
</trkpt>
<trkpt lat="36.80257388888889" lon="138.3940411111111">
<ele>1146</ele>
</trkpt>
<trkpt lat="36.80267611111111" lon="138.394325">
<ele>1157</ele>
</trkpt>
<trkpt lat="36.80267694444444" lon="138.39469694444443">
<ele>1166</ele>
</trkpt>
<trkpt lat="36.802663055555556" lon="138.39475611111112">
<ele>1161</ele>
</trkpt>
<trkpt lat="36.80266388888889" lon="138.39487194444445">
<ele>1164</ele>
</trkpt>
<trkpt lat="36.80265388888889" lon="138.39499">
<ele>1169</ele>
</trkpt>
<trkpt lat="36.802636944444444" lon="138.3951461111111">
<ele>1183</ele>
</trkpt>
<trkpt lat="36.802616111111114" lon="138.395255">
<ele>1187</ele>
</trkpt>
<trkpt lat="36.802596944444446" lon="138.395335">
<ele>1192</ele>
</trkpt>
<trkpt lat="36.802551944444446" lon="138.39544694444444">
<ele>1191</ele>
</trkpt>
<trkpt lat="36.80247305555555" lon="138.39561805555556">
<ele>1199</ele>
</trkpt>
<trkpt lat="36.80240194444445" lon="138.39576805555555">
<ele>1200</ele>
</trkpt>
<trkpt lat="36.80234388888889" lon="138.3958988888889">
<ele>1212</ele>
</trkpt>
<trkpt lat="36.802325" lon="138.395965">
<ele>1210</ele>
</trkpt>
<trkpt lat="36.802303055555555" lon="138.39617805555557">
<ele>1220</ele>
</trkpt>
<trkpt lat="36.80229305555556" lon="138.3963038888889">
<ele>1226</ele>
</trkpt>
<trkpt lat="36.80228388888889" lon="138.3963838888889">
<ele>1231</ele>
</trkpt>
<trkpt lat="36.802281111111114" lon="138.39643">
<ele>1231</ele>
</trkpt>
<trkpt lat="36.80226888888889" lon="138.3964488888889">
<ele>1235</ele>
</trkpt>
<trkpt lat="36.802216944444446" lon="138.39673888888888">
<ele>1238</ele>
</trkpt>
<trkpt lat="36.802191111111114" lon="138.39686">
<ele>1240</ele>
</trkpt>
<trkpt lat="36.80211611111111" lon="138.39705194444446">
<ele>1240</ele>
</trkpt>
<trkpt lat="36.80211305555556" lon="138.397065">
<ele>1240</ele>
</trkpt>
<trkpt lat="36.80211" lon="138.39713194444445">
<ele>1240</ele>
</trkpt>
<trkpt lat="36.80207388888889" lon="138.39727194444444">
<ele>1240</ele>
</trkpt>
<trkpt lat="36.80204388888889" lon="138.39735194444444">
<ele>1241</ele>
</trkpt>
<trkpt lat="36.80201611111111" lon="138.39740694444444">
<ele>1241</ele>
</trkpt>
<trkpt lat="36.80195194444445" lon="138.39750388888888">
<ele>1241</ele>
</trkpt>
<trkpt lat="36.80179388888889" lon="138.39763">
<ele>1241</ele>
</trkpt>
<trkpt lat="36.80173611111111" lon="138.3976761111111">
<ele>1240</ele>
</trkpt>
<trkpt lat="36.80168" lon="138.39774305555557">
<ele>1240</ele>
</trkpt>
<trkpt lat="36.801561944444444" lon="138.39791888888888">
<ele>1240</ele>
</trkpt>
<trkpt lat="36.801455" lon="138.39807305555556">
<ele>1234</ele>
</trkpt>
<trkpt lat="36.801408055555555" lon="138.3981361111111">
<ele>1232</ele>
</trkpt>
<trkpt lat="36.80133111111111" lon="138.39820194444445">
<ele>1237</ele>
</trkpt>
<trkpt lat="36.801248055555554" lon="138.398255">
<ele>1240</ele>
</trkpt>
<trkpt lat="36.801186944444446" lon="138.398275">
<ele>1241</ele>
</trkpt>
<trkpt lat="36.80110888888889" lon="138.3982938888889">
<ele>1241</ele>
</trkpt>
<trkpt lat="36.800965" lon="138.39833694444445">
<ele>1243</ele>
</trkpt>
<trkpt lat="36.80086194444444" lon="138.3983511111111">
<ele>1243</ele>
</trkpt>
<trkpt lat="36.80078888888889" lon="138.39836111111111">
<ele>1243</ele>
</trkpt>
<trkpt lat="36.80069805555556" lon="138.39838111111112">
<ele>1243</ele>
</trkpt>
<trkpt lat="36.80063305555556" lon="138.398405">
<ele>1241</ele>
</trkpt>
<trkpt lat="36.80059888888889" lon="138.39845111111111">
<ele>1245</ele>
</trkpt>
<trkpt lat="36.800575" lon="138.39856805555556">
<ele>1248</ele>
</trkpt>
<trkpt lat="36.800556944444445" lon="138.39866805555556">
<ele>1251</ele>
</trkpt>
<trkpt lat="36.800531944444444" lon="138.39879">
<ele>1250</ele>
</trkpt>
<trkpt lat="36.800505" lon="138.3989238888889">
<ele>1253</ele>
</trkpt>
<trkpt lat="36.800485" lon="138.3989688888889">
<ele>1253</ele>
</trkpt>
<trkpt lat="36.80042805555556" lon="138.39909111111112">
<ele>1252</ele>
</trkpt>
<trkpt lat="36.800398055555554" lon="138.3991611111111">
<ele>1256</ele>
</trkpt>
<trkpt lat="36.800351944444444" lon="138.39926805555555">
<ele>1255</ele>
</trkpt>
<trkpt lat="36.80033111111111" lon="138.399315">
<ele>1253</ele>
</trkpt>
<trkpt lat="36.80014888888889" lon="138.39957194444443">
<ele>1271</ele>
</trkpt>
<trkpt lat="36.800086944444445" lon="138.3996588888889">
<ele>1272</ele>
</trkpt>
<trkpt lat="36.80005888888889" lon="138.3997038888889">
<ele>1277</ele>
</trkpt>
<trkpt lat="36.79999111111111" lon="138.39981111111112">
<ele>1285</ele>
</trkpt>
<trkpt lat="36.79992111111111" lon="138.39991194444445">
<ele>1292</ele>
</trkpt>
<trkpt lat="36.79983694444444" lon="138.40003805555557">
<ele>1300</ele>
</trkpt>
<trkpt lat="36.799785" lon="138.40012194444444">
<ele>1306</ele>
</trkpt>
<trkpt lat="36.799728055555555" lon="138.400195">
<ele>1311</ele>
</trkpt>
<trkpt lat="36.79961" lon="138.40039194444444">
<ele>1320</ele>
</trkpt>
<trkpt lat="36.799506111111114" lon="138.40055611111111">
<ele>1320</ele>
</trkpt>
<trkpt lat="36.79946388888889" lon="138.400615">
<ele>1320</ele>
</trkpt>
<trkpt lat="36.799445" lon="138.40079194444445">
<ele>1320</ele>
</trkpt>
<trkpt lat="36.799438888888886" lon="138.4008438888889">
<ele>1310</ele>
</trkpt>
<trkpt lat="36.799416944444445" lon="138.40100611111112">
<ele>1311</ele>
</trkpt>
<trkpt lat="36.79940194444445" lon="138.4011688888889">
<ele>1312</ele>
</trkpt>
<trkpt lat="36.799385" lon="138.40130194444444">
<ele>1313</ele>
</trkpt>
<trkpt lat="36.79938305555556" lon="138.40136805555557">
<ele>1311</ele>
</trkpt>
<trkpt lat="36.799366944444444" lon="138.4014588888889">
<ele>1312</ele>
</trkpt>
<trkpt lat="36.79936305555555" lon="138.40161388888887">
<ele>1312</ele>
</trkpt>
<trkpt lat="36.79933194444445" lon="138.40175694444446">
<ele>1307</ele>
</trkpt>
<trkpt lat="36.799315" lon="138.40191305555555">
<ele>1308</ele>
</trkpt>
<trkpt lat="36.799301944444444" lon="138.40199305555555">
<ele>1308</ele>
</trkpt>
<trkpt lat="36.79929111111111" lon="138.40216">
<ele>1310</ele>
</trkpt>
<trkpt lat="36.79927111111111" lon="138.40229194444444">
<ele>1310</ele>
</trkpt>
<trkpt lat="36.79926" lon="138.40243388888888">
<ele>1311</ele>
</trkpt>
<trkpt lat="36.79925194444444" lon="138.40252611111111">
<ele>1313</ele>
</trkpt>
<trkpt lat="36.79924611111111" lon="138.4026061111111">
<ele>1317</ele>
</trkpt>
<trkpt lat="36.799213055555555" lon="138.40279305555555">
<ele>1318</ele>
</trkpt>
<trkpt lat="36.79920805555555" lon="138.40297">
<ele>1324</ele>
</trkpt>
<trkpt lat="36.79919888888889" lon="138.40307194444443">
<ele>1328</ele>
</trkpt>
<trkpt lat="36.799195" lon="138.40315611111112">
<ele>1333</ele>
</trkpt>
<trkpt lat="36.79917611111111" lon="138.40330194444445">
<ele>1338</ele>
</trkpt>
<trkpt lat="36.799165" lon="138.4033961111111">
<ele>1340</ele>
</trkpt>
<trkpt lat="36.799166944444444" lon="138.4034561111111">
<ele>1341</ele>
</trkpt>
<trkpt lat="36.79917694444445" lon="138.40350694444444">
<ele>1341</ele>
</trkpt>
<trkpt lat="36.79920388888889" lon="138.40364194444444">
<ele>1344</ele>
</trkpt>
<trkpt lat="36.79923194444444" lon="138.40378694444445">
<ele>1350</ele>
</trkpt>
<trkpt lat="36.79925" lon="138.403805">
<ele>1350</ele>
</trkpt>
<trkpt lat="36.79926888888889" lon="138.4038138888889">
<ele>1351</ele>
</trkpt>
    </trkseg>
  </trk>
</gpx>