<?xml version="1.0" encoding="UTF-8"?>
<gpx version="1.1"
     creator="KMLtoGPX"
     xmlns="http://www.topografix.com/GPX/1/1">
  <metadata>
    <name>Shinano River View Luxury Course</name>
    <desc>信濃川眺望贅沢コース</desc>
    <bounds minlat="37.06399722222222" minlon="138.69063194444445" maxlat="37.07380888888889" maxlon="138.70711805555555"/>
  </metadata>
  <trk>
    <name>Shinano River View Luxury Course</name>
    <trkseg>
<trkpt lat="37.06701" lon="138.7067311111111">
<ele>160</ele>
</trkpt>
<trkpt lat="37.06616" lon="138.70526805555556">
<ele>160</ele>
</trkpt>
<trkpt lat="37.066001944444444" lon="138.70494305555556">
<ele>160</ele>
</trkpt>
<trkpt lat="37.06595194444444" lon="138.70481805555556">
<ele>160</ele>
</trkpt>
<trkpt lat="37.065976944444444" lon="138.70449305555556">
<ele>160</ele>
</trkpt>
<trkpt lat="37.06601888888889" lon="138.70419388888888">
<ele>161</ele>
</trkpt>
<trkpt lat="37.06616888888889" lon="138.7035938888889">
<ele>162</ele>
</trkpt>
<trkpt lat="37.06619388888889" lon="138.70343111111112">
<ele>161</ele>
</trkpt>
<trkpt lat="37.06621" lon="138.70329388888888">
<ele>162</ele>
</trkpt>
<trkpt lat="37.066201944444444" lon="138.7029061111111">
<ele>162</ele>
</trkpt>
<trkpt lat="37.066226944444445" lon="138.70273111111112">
<ele>162</ele>
</trkpt>
<trkpt lat="37.06626388888889" lon="138.7026161111111">
<ele>162</ele>
</trkpt>
<trkpt lat="37.06626388888889" lon="138.7026161111111">
<ele>162</ele>
</trkpt>
<trkpt lat="37.06659388888889" lon="138.70160611111112">
<ele>163</ele>
</trkpt>
<trkpt lat="37.066635" lon="138.7015188888889">
<ele>163</ele>
</trkpt>
<trkpt lat="37.06721805555556" lon="138.7003688888889">
<ele>164</ele>
</trkpt>
<trkpt lat="37.06761" lon="138.69931888888888">
<ele>165</ele>
</trkpt>
<trkpt lat="37.06765194444444" lon="138.69923111111112">
<ele>165</ele>
</trkpt>
<trkpt lat="37.067618055555556" lon="138.6991438888889">
<ele>165</ele>
</trkpt>
<trkpt lat="37.067551944444446" lon="138.6989188888889">
<ele>165</ele>
</trkpt>
<trkpt lat="37.067526944444445" lon="138.6987938888889">
<ele>165</ele>
</trkpt>
<trkpt lat="37.06741" lon="138.69866888888888">
<ele>163</ele>
</trkpt>
<trkpt lat="37.06740194444444" lon="138.69866888888888">
<ele>163</ele>
</trkpt>
<trkpt lat="37.06664305555555" lon="138.69793194444443">
<ele>160</ele>
</trkpt>
<trkpt lat="37.06584388888889" lon="138.69719388888888">
<ele>170</ele>
</trkpt>
<trkpt lat="37.06531888888889" lon="138.6966938888889">
<ele>172</ele>
</trkpt>
<trkpt lat="37.06525194444445" lon="138.6966438888889">
<ele>174</ele>
</trkpt>
<trkpt lat="37.06519388888889" lon="138.69665694444444">
<ele>175</ele>
</trkpt>
<trkpt lat="37.06519388888889" lon="138.69665694444444">
<ele>175</ele>
</trkpt>
<trkpt lat="37.06519055555555" lon="138.69660083333332">
<ele>175</ele>
</trkpt>
<trkpt lat="37.06518722222222" lon="138.69654472222223">
<ele>177</ele>
</trkpt>
<trkpt lat="37.06518361111111" lon="138.6964886111111">
<ele>177</ele>
</trkpt>
<trkpt lat="37.06518027777778" lon="138.6964325">
<ele>177</ele>
</trkpt>
<trkpt lat="37.065176944444445" lon="138.6963763888889">
<ele>177</ele>
</trkpt>
<trkpt lat="37.06517361111111" lon="138.69632027777777">
<ele>177</ele>
</trkpt>
<trkpt lat="37.06517" lon="138.69626416666668">
<ele>177</ele>
</trkpt>
<trkpt lat="37.06516666666667" lon="138.69620805555556">
<ele>177</ele>
</trkpt>
<trkpt lat="37.06516333333333" lon="138.69615166666668">
<ele>177</ele>
</trkpt>
<trkpt lat="37.06516" lon="138.69609555555556">
<ele>177</ele>
</trkpt>
<trkpt lat="37.06515638888889" lon="138.69603944444444">
<ele>177</ele>
</trkpt>
<trkpt lat="37.065153055555555" lon="138.69598333333334">
<ele>177</ele>
</trkpt>
<trkpt lat="37.06514972222222" lon="138.69592722222222">
<ele>177</ele>
</trkpt>
<trkpt lat="37.06514638888889" lon="138.6958711111111">
<ele>177</ele>
</trkpt>
<trkpt lat="37.06514305555555" lon="138.695815">
<ele>177</ele>
</trkpt>
<trkpt lat="37.06513944444445" lon="138.6957588888889">
<ele>176</ele>
</trkpt>
<trkpt lat="37.06513611111111" lon="138.69570277777777">
<ele>176</ele>
</trkpt>
<trkpt lat="37.06513277777778" lon="138.69564666666668">
<ele>176</ele>
</trkpt>
<trkpt lat="37.065129444444445" lon="138.69559055555555">
<ele>176</ele>
</trkpt>
<trkpt lat="37.06512583333333" lon="138.69553444444443">
<ele>176</ele>
</trkpt>
<trkpt lat="37.0651225" lon="138.69547833333334">
<ele>176</ele>
</trkpt>
<trkpt lat="37.06511916666667" lon="138.69542222222222">
<ele>176</ele>
</trkpt>
<trkpt lat="37.06511583333333" lon="138.6953661111111">
<ele>176</ele>
</trkpt>
<trkpt lat="37.0651125" lon="138.69531">
<ele>176</ele>
</trkpt>
<trkpt lat="37.065108888888886" lon="138.69525388888889">
<ele>177</ele>
</trkpt>
<trkpt lat="37.065108333333335" lon="138.69524361111112">
<ele>177</ele>
</trkpt>
<trkpt lat="37.065108333333335" lon="138.69524361111112">
<ele>177</ele>
</trkpt>
<trkpt lat="37.06507333333333" lon="138.69520805555555">
<ele>177</ele>
</trkpt>
<trkpt lat="37.065038333333334" lon="138.69517277777777">
<ele>177</ele>
</trkpt>
<trkpt lat="37.06502972222222" lon="138.69516388888889">
<ele>177</ele>
</trkpt>
<trkpt lat="37.06502972222222" lon="138.69516388888889">
<ele>177</ele>
</trkpt>
<trkpt lat="37.06498527777778" lon="138.6951547222222">
<ele>177</ele>
</trkpt>
<trkpt lat="37.06494111111111" lon="138.69514527777778">
<ele>177</ele>
</trkpt>
<trkpt lat="37.06489666666667" lon="138.6951361111111">
<ele>177</ele>
</trkpt>
<trkpt lat="37.0648525" lon="138.69512694444444">
<ele>178</ele>
</trkpt>
<trkpt lat="37.06480805555555" lon="138.6951175">
<ele>178</ele>
</trkpt>
<trkpt lat="37.06476388888889" lon="138.69510833333334">
<ele>179</ele>
</trkpt>
<trkpt lat="37.06475722222222" lon="138.69510694444443">
<ele>179</ele>
</trkpt>
<trkpt lat="37.06475722222222" lon="138.69510694444443">
<ele>179</ele>
</trkpt>
<trkpt lat="37.064726944444445" lon="138.6951486111111">
<ele>179</ele>
</trkpt>
<trkpt lat="37.06469972222222" lon="138.69518666666667">
<ele>179</ele>
</trkpt>
<trkpt lat="37.06469972222222" lon="138.69518666666667">
<ele>179</ele>
</trkpt>
<trkpt lat="37.06468944444445" lon="138.6952413888889">
<ele>179</ele>
</trkpt>
<trkpt lat="37.064679444444444" lon="138.6952963888889">
<ele>179</ele>
</trkpt>
<trkpt lat="37.06466916666667" lon="138.6953511111111">
<ele>179</ele>
</trkpt>
<trkpt lat="37.064659166666665" lon="138.69540583333333">
<ele>179</ele>
</trkpt>
<trkpt lat="37.06464888888889" lon="138.69546083333333">
<ele>179</ele>
</trkpt>
<trkpt lat="37.06463888888889" lon="138.69551555555555">
<ele>179</ele>
</trkpt>
<trkpt lat="37.06462888888889" lon="138.69557055555555">
<ele>180</ele>
</trkpt>
<trkpt lat="37.06461861111111" lon="138.69562527777776">
<ele>180</ele>
</trkpt>
<trkpt lat="37.06460861111111" lon="138.69568">
<ele>180</ele>
</trkpt>
<trkpt lat="37.064598333333336" lon="138.695735">
<ele>180</ele>
</trkpt>
<trkpt lat="37.06458833333333" lon="138.69578972222223">
<ele>181</ele>
</trkpt>
<trkpt lat="37.06457805555556" lon="138.69584472222223">
<ele>181</ele>
</trkpt>
<trkpt lat="37.064568055555554" lon="138.69589944444445">
<ele>182</ele>
</trkpt>
<trkpt lat="37.06455777777778" lon="138.69595444444445">
<ele>182</ele>
</trkpt>
<trkpt lat="37.064548333333335" lon="138.6960061111111">
<ele>183</ele>
</trkpt>
<trkpt lat="37.064548333333335" lon="138.6960061111111">
<ele>183</ele>
</trkpt>
<trkpt lat="37.064550555555556" lon="138.69594972222222">
<ele>183</ele>
</trkpt>
<trkpt lat="37.06455277777778" lon="138.6958936111111">
<ele>183</ele>
</trkpt>
<trkpt lat="37.06455527777778" lon="138.6958375">
<ele>182</ele>
</trkpt>
<trkpt lat="37.0645575" lon="138.6957811111111">
<ele>181</ele>
</trkpt>
<trkpt lat="37.06455972222222" lon="138.695725">
<ele>180</ele>
</trkpt>
<trkpt lat="37.06456222222222" lon="138.6956688888889">
<ele>180</ele>
</trkpt>
<trkpt lat="37.06456444444444" lon="138.6956125">
<ele>180</ele>
</trkpt>
<trkpt lat="37.064566666666664" lon="138.6955563888889">
<ele>180</ele>
</trkpt>
<trkpt lat="37.064569166666665" lon="138.6955">
<ele>179</ele>
</trkpt>
<trkpt lat="37.064571388888886" lon="138.6954438888889">
<ele>179</ele>
</trkpt>
<trkpt lat="37.06457361111111" lon="138.69538777777777">
<ele>179</ele>
</trkpt>
<trkpt lat="37.06457611111111" lon="138.6953313888889">
<ele>179</ele>
</trkpt>
<trkpt lat="37.06457833333333" lon="138.69527527777777">
<ele>179</ele>
</trkpt>
<trkpt lat="37.06458055555556" lon="138.69521916666667">
<ele>179</ele>
</trkpt>
<trkpt lat="37.06458305555556" lon="138.69516277777777">
<ele>179</ele>
</trkpt>
<trkpt lat="37.06458527777778" lon="138.69510666666667">
<ele>179</ele>
</trkpt>
<trkpt lat="37.0645875" lon="138.69505027777777">
<ele>179</ele>
</trkpt>
<trkpt lat="37.06458972222222" lon="138.69499416666667">
<ele>179</ele>
</trkpt>
<trkpt lat="37.064592222222224" lon="138.69493805555555">
<ele>179</ele>
</trkpt>
<trkpt lat="37.064594444444445" lon="138.69488166666667">
<ele>179</ele>
</trkpt>
<trkpt lat="37.06459666666667" lon="138.6948261111111">
<ele>179</ele>
</trkpt>
<trkpt lat="37.06459666666667" lon="138.6948261111111">
<ele>179</ele>
</trkpt>
<trkpt lat="37.06459916666667" lon="138.69477">
<ele>179</ele>
</trkpt>
<trkpt lat="37.06460166666667" lon="138.69471388888888">
<ele>179</ele>
</trkpt>
<trkpt lat="37.06460416666667" lon="138.6946575">
<ele>179</ele>
</trkpt>
<trkpt lat="37.06460666666667" lon="138.69460138888888">
<ele>179</ele>
</trkpt>
<trkpt lat="37.06460888888889" lon="138.6945452777778">
<ele>179</ele>
</trkpt>
<trkpt lat="37.06461138888889" lon="138.69448888888888">
<ele>179</ele>
</trkpt>
<trkpt lat="37.064613888888886" lon="138.6944327777778">
<ele>180</ele>
</trkpt>
<trkpt lat="37.064616388888886" lon="138.69437666666667">
<ele>180</ele>
</trkpt>
<trkpt lat="37.06461888888889" lon="138.6943202777778">
<ele>180</ele>
</trkpt>
<trkpt lat="37.06462138888889" lon="138.69426416666667">
<ele>180</ele>
</trkpt>
<trkpt lat="37.06462361111111" lon="138.69420805555555">
<ele>180</ele>
</trkpt>
<trkpt lat="37.06462611111111" lon="138.69415166666667">
<ele>180</ele>
</trkpt>
<trkpt lat="37.06462861111111" lon="138.69409555555555">
<ele>180</ele>
</trkpt>
<trkpt lat="37.06463111111111" lon="138.69403944444446">
<ele>180</ele>
</trkpt>
<trkpt lat="37.06463361111111" lon="138.69398305555555">
<ele>180</ele>
</trkpt>
<trkpt lat="37.064635833333334" lon="138.69392694444446">
<ele>180</ele>
</trkpt>
<trkpt lat="37.064636388888886" lon="138.6939175">
<ele>180</ele>
</trkpt>
<trkpt lat="37.064636388888886" lon="138.6939175">
<ele>180</ele>
</trkpt>
<trkpt lat="37.064594166666666" lon="138.6939363888889">
<ele>180</ele>
</trkpt>
<trkpt lat="37.064551944444446" lon="138.69395555555556">
<ele>181</ele>
</trkpt>
<trkpt lat="37.06450944444445" lon="138.69397444444445">
<ele>181</ele>
</trkpt>
<trkpt lat="37.06446722222222" lon="138.69399361111113">
<ele>181</ele>
</trkpt>
<trkpt lat="37.064425" lon="138.6940125">
<ele>183</ele>
</trkpt>
<trkpt lat="37.06438277777778" lon="138.69403166666666">
<ele>183</ele>
</trkpt>
<trkpt lat="37.06437888888889" lon="138.69403333333332">
<ele>179</ele>
</trkpt>
<trkpt lat="37.06437888888889" lon="138.69403333333332">
<ele>179</ele>
</trkpt>
<trkpt lat="37.06435555555556" lon="138.693985">
<ele>179</ele>
</trkpt>
<trkpt lat="37.0643325" lon="138.69393694444443">
<ele>181</ele>
</trkpt>
<trkpt lat="37.06430916666667" lon="138.6938886111111">
<ele>180</ele>
</trkpt>
<trkpt lat="37.06428611111111" lon="138.69384055555557">
<ele>180</ele>
</trkpt>
<trkpt lat="37.06426277777778" lon="138.6937922222222">
<ele>179</ele>
</trkpt>
<trkpt lat="37.064239722222226" lon="138.69374416666668">
<ele>179</ele>
</trkpt>
<trkpt lat="37.06421638888889" lon="138.69369583333332">
<ele>182</ele>
</trkpt>
<trkpt lat="37.064193333333336" lon="138.69364777777778">
<ele>182</ele>
</trkpt>
<trkpt lat="37.06417" lon="138.69359944444443">
<ele>182</ele>
</trkpt>
<trkpt lat="37.064146944444445" lon="138.6935513888889">
<ele>182</ele>
</trkpt>
<trkpt lat="37.064123611111114" lon="138.69350305555557">
<ele>182</ele>
</trkpt>
<trkpt lat="37.064100555555555" lon="138.693455">
<ele>182</ele>
</trkpt>
<trkpt lat="37.064077222222224" lon="138.69340666666668">
<ele>182</ele>
</trkpt>
<trkpt lat="37.064054166666665" lon="138.6933586111111">
<ele>182</ele>
</trkpt>
<trkpt lat="37.064030833333334" lon="138.69331027777778">
<ele>182</ele>
</trkpt>
<trkpt lat="37.064007777777775" lon="138.69326194444446">
<ele>182</ele>
</trkpt>
<trkpt lat="37.06399722222222" lon="138.69324055555555">
<ele>182</ele>
</trkpt>
<trkpt lat="37.06399722222222" lon="138.69324055555555">
<ele>182</ele>
</trkpt>
<trkpt lat="37.06402222222222" lon="138.6932875">
<ele>179</ele>
</trkpt>
<trkpt lat="37.06404694444444" lon="138.69333444444445">
<ele>180</ele>
</trkpt>
<trkpt lat="37.06407166666666" lon="138.6933813888889">
<ele>180</ele>
</trkpt>
<trkpt lat="37.06409638888889" lon="138.69342833333334">
<ele>180</ele>
</trkpt>
<trkpt lat="37.064121388888886" lon="138.69347527777776">
<ele>179</ele>
</trkpt>
<trkpt lat="37.064146111111114" lon="138.6935222222222">
<ele>179</ele>
</trkpt>
<trkpt lat="37.064170833333336" lon="138.69356916666666">
<ele>180</ele>
</trkpt>
<trkpt lat="37.06419555555556" lon="138.6936161111111">
<ele>180</ele>
</trkpt>
<trkpt lat="37.06422027777778" lon="138.69366305555556">
<ele>180</ele>
</trkpt>
<trkpt lat="37.06424527777778" lon="138.69371">
<ele>179</ele>
</trkpt>
<trkpt lat="37.06427" lon="138.69375694444443">
<ele>179</ele>
</trkpt>
<trkpt lat="37.06429472222222" lon="138.69380388888888">
<ele>181</ele>
</trkpt>
<trkpt lat="37.06431944444444" lon="138.69385083333333">
<ele>181</ele>
</trkpt>
<trkpt lat="37.064344444444444" lon="138.69389777777778">
<ele>181</ele>
</trkpt>
<trkpt lat="37.064369166666665" lon="138.69394472222223">
<ele>181</ele>
</trkpt>
<trkpt lat="37.06439388888889" lon="138.69399166666668">
<ele>181</ele>
</trkpt>
<trkpt lat="37.06439388888889" lon="138.69399166666668">
<ele>181</ele>
</trkpt>
<trkpt lat="37.06439388888889" lon="138.69399166666668">
<ele>181</ele>
</trkpt>
<trkpt lat="37.064436111111114" lon="138.6939727777778">
<ele>181</ele>
</trkpt>
<trkpt lat="37.06447861111111" lon="138.6939538888889">
<ele>181</ele>
</trkpt>
<trkpt lat="37.06452083333333" lon="138.693935">
<ele>181</ele>
</trkpt>
<trkpt lat="37.06456305555555" lon="138.69391611111112">
<ele>180</ele>
</trkpt>
<trkpt lat="37.06460555555555" lon="138.69389722222223">
<ele>180</ele>
</trkpt>
<trkpt lat="37.06464777777778" lon="138.6938786111111">
<ele>180</ele>
</trkpt>
<trkpt lat="37.06466638888889" lon="138.6938702777778">
<ele>180</ele>
</trkpt>
<trkpt lat="37.06466638888889" lon="138.6938702777778">
<ele>180</ele>
</trkpt>
<trkpt lat="37.0646625" lon="138.69392666666667">
<ele>180</ele>
</trkpt>
<trkpt lat="37.06465861111111" lon="138.69398305555555">
<ele>180</ele>
</trkpt>
<trkpt lat="37.064655" lon="138.69403944444446">
<ele>180</ele>
</trkpt>
<trkpt lat="37.06465111111111" lon="138.69409583333334">
<ele>180</ele>
</trkpt>
<trkpt lat="37.06464722222222" lon="138.69415222222221">
<ele>180</ele>
</trkpt>
<trkpt lat="37.064643333333336" lon="138.69420861111112">
<ele>180</ele>
</trkpt>
<trkpt lat="37.064639444444445" lon="138.694265">
<ele>180</ele>
</trkpt>
<trkpt lat="37.064635833333334" lon="138.69432138888888">
<ele>180</ele>
</trkpt>
<trkpt lat="37.06463194444444" lon="138.6943777777778">
<ele>180</ele>
</trkpt>
<trkpt lat="37.06462805555555" lon="138.69443416666667">
<ele>180</ele>
</trkpt>
<trkpt lat="37.06462416666667" lon="138.69449055555555">
<ele>179</ele>
</trkpt>
<trkpt lat="37.06462055555556" lon="138.6945472222222">
<ele>179</ele>
</trkpt>
<trkpt lat="37.064616666666666" lon="138.69460361111112">
<ele>179</ele>
</trkpt>
<trkpt lat="37.064612777777775" lon="138.69466">
<ele>179</ele>
</trkpt>
<trkpt lat="37.06460888888889" lon="138.69471638888888">
<ele>179</ele>
</trkpt>
<trkpt lat="37.06460527777778" lon="138.69477277777779">
<ele>179</ele>
</trkpt>
<trkpt lat="37.06460138888889" lon="138.69482916666666">
<ele>179</ele>
</trkpt>
<trkpt lat="37.0645975" lon="138.69488555555554">
<ele>179</ele>
</trkpt>
<trkpt lat="37.064593611111114" lon="138.69494194444445">
<ele>179</ele>
</trkpt>
<trkpt lat="37.06458972222222" lon="138.69499833333333">
<ele>179</ele>
</trkpt>
<trkpt lat="37.06458611111111" lon="138.6950547222222">
<ele>179</ele>
</trkpt>
<trkpt lat="37.06458222222222" lon="138.69511111111112">
<ele>179</ele>
</trkpt>
<trkpt lat="37.06457833333333" lon="138.6951675">
<ele>179</ele>
</trkpt>
<trkpt lat="37.064574444444446" lon="138.69522388888888">
<ele>179</ele>
</trkpt>
<trkpt lat="37.064570833333335" lon="138.69528027777778">
<ele>179</ele>
</trkpt>
<trkpt lat="37.064566944444444" lon="138.69533666666666">
<ele>179</ele>
</trkpt>
<trkpt lat="37.06456305555555" lon="138.69539305555554">
<ele>179</ele>
</trkpt>
<trkpt lat="37.06455916666667" lon="138.69544944444445">
<ele>179</ele>
</trkpt>
<trkpt lat="37.06455555555556" lon="138.69550611111111">
<ele>181</ele>
</trkpt>
<trkpt lat="37.06455166666667" lon="138.6955625">
<ele>181</ele>
</trkpt>
<trkpt lat="37.064547777777776" lon="138.6956188888889">
<ele>181</ele>
</trkpt>
<trkpt lat="37.06454388888889" lon="138.69567527777778">
<ele>181</ele>
</trkpt>
<trkpt lat="37.06454027777778" lon="138.69573166666666">
<ele>181</ele>
</trkpt>
<trkpt lat="37.06453638888889" lon="138.69578805555557">
<ele>182</ele>
</trkpt>
<trkpt lat="37.0645325" lon="138.69584444444445">
<ele>182</ele>
</trkpt>
<trkpt lat="37.06452861111111" lon="138.69590083333333">
<ele>183</ele>
</trkpt>
<trkpt lat="37.064524722222224" lon="138.69595722222223">
<ele>183</ele>
</trkpt>
<trkpt lat="37.06452111111111" lon="138.6960136111111">
<ele>183</ele>
</trkpt>
<trkpt lat="37.06452111111111" lon="138.6960136111111">
<ele>183</ele>
</trkpt>
<trkpt lat="37.06453305555556" lon="138.69595944444444">
<ele>183</ele>
</trkpt>
<trkpt lat="37.064545" lon="138.695905">
<ele>183</ele>
</trkpt>
<trkpt lat="37.06455694444445" lon="138.69585083333334">
<ele>181</ele>
</trkpt>
<trkpt lat="37.064568888888886" lon="138.69579666666667">
<ele>181</ele>
</trkpt>
<trkpt lat="37.06458083333333" lon="138.69574222222224">
<ele>180</ele>
</trkpt>
<trkpt lat="37.064592777777776" lon="138.69568805555556">
<ele>180</ele>
</trkpt>
<trkpt lat="37.06460472222222" lon="138.6956338888889">
<ele>180</ele>
</trkpt>
<trkpt lat="37.064616666666666" lon="138.69557944444443">
<ele>180</ele>
</trkpt>
<trkpt lat="37.06462861111111" lon="138.6955252777778">
<ele>179</ele>
</trkpt>
<trkpt lat="37.064640555555556" lon="138.69547111111112">
<ele>179</ele>
</trkpt>
<trkpt lat="37.0646525" lon="138.69541666666666">
<ele>179</ele>
</trkpt>
<trkpt lat="37.064664444444446" lon="138.6953625">
<ele>179</ele>
</trkpt>
<trkpt lat="37.06467638888889" lon="138.69530833333334">
<ele>179</ele>
</trkpt>
<trkpt lat="37.064688333333336" lon="138.69525388888889">
<ele>179</ele>
</trkpt>
<trkpt lat="37.064700277777774" lon="138.6951997222222">
<ele>179</ele>
</trkpt>
<trkpt lat="37.06471222222222" lon="138.69514555555557">
<ele>179</ele>
</trkpt>
<trkpt lat="37.06472083333333" lon="138.69510694444443">
<ele>179</ele>
</trkpt>
<trkpt lat="37.06472083333333" lon="138.69510694444443">
<ele>179</ele>
</trkpt>
<trkpt lat="37.06476555555555" lon="138.69511277777778">
<ele>179</ele>
</trkpt>
<trkpt lat="37.06481027777778" lon="138.69511833333334">
<ele>178</ele>
</trkpt>
<trkpt lat="37.064855" lon="138.69512416666666">
<ele>178</ele>
</trkpt>
<trkpt lat="37.06489944444444" lon="138.69512972222222">
<ele>177</ele>
</trkpt>
<trkpt lat="37.06494416666666" lon="138.69513555555557">
<ele>177</ele>
</trkpt>
<trkpt lat="37.06498888888889" lon="138.6951411111111">
<ele>177</ele>
</trkpt>
<trkpt lat="37.06503361111111" lon="138.69514694444445">
<ele>177</ele>
</trkpt>
<trkpt lat="37.06507805555555" lon="138.6951525">
<ele>177</ele>
</trkpt>
<trkpt lat="37.06507805555555" lon="138.6951525">
<ele>177</ele>
</trkpt>
<trkpt lat="37.06511277777778" lon="138.69518805555555">
<ele>176</ele>
</trkpt>
<trkpt lat="37.06514472222222" lon="138.69522083333334">
<ele>176</ele>
</trkpt>
<trkpt lat="37.06514472222222" lon="138.69522083333334">
<ele>176</ele>
</trkpt>
<trkpt lat="37.06514722222222" lon="138.69527694444446">
<ele>176</ele>
</trkpt>
<trkpt lat="37.06515" lon="138.69533305555555">
<ele>176</ele>
</trkpt>
<trkpt lat="37.0651525" lon="138.69538944444446">
<ele>176</ele>
</trkpt>
<trkpt lat="37.06515527777778" lon="138.69544555555555">
<ele>176</ele>
</trkpt>
<trkpt lat="37.06515805555556" lon="138.69550166666667">
<ele>176</ele>
</trkpt>
<trkpt lat="37.06516055555556" lon="138.69555777777776">
<ele>176</ele>
</trkpt>
<trkpt lat="37.06516333333333" lon="138.69561416666667">
<ele>176</ele>
</trkpt>
<trkpt lat="37.06516583333333" lon="138.69567027777777">
<ele>176</ele>
</trkpt>
<trkpt lat="37.06516861111111" lon="138.6957263888889">
<ele>176</ele>
</trkpt>
<trkpt lat="37.06517138888889" lon="138.69578277777777">
<ele>177</ele>
</trkpt>
<trkpt lat="37.065173888888886" lon="138.6958388888889">
<ele>177</ele>
</trkpt>
<trkpt lat="37.065176666666666" lon="138.695895">
<ele>177</ele>
</trkpt>
<trkpt lat="37.06517916666667" lon="138.6959511111111">
<ele>177</ele>
</trkpt>
<trkpt lat="37.06518194444445" lon="138.6960075">
<ele>177</ele>
</trkpt>
<trkpt lat="37.06518472222222" lon="138.6960636111111">
<ele>177</ele>
</trkpt>
<trkpt lat="37.06518722222222" lon="138.69611972222222">
<ele>177</ele>
</trkpt>
<trkpt lat="37.06519" lon="138.6961761111111">
<ele>177</ele>
</trkpt>
<trkpt lat="37.0651925" lon="138.69623222222222">
<ele>177</ele>
</trkpt>
<trkpt lat="37.065195277777775" lon="138.69628833333334">
<ele>177</ele>
</trkpt>
<trkpt lat="37.065198055555555" lon="138.69634444444443">
<ele>177</ele>
</trkpt>
<trkpt lat="37.065200555555556" lon="138.69640083333334">
<ele>177</ele>
</trkpt>
<trkpt lat="37.065203333333336" lon="138.69645694444444">
<ele>177</ele>
</trkpt>
<trkpt lat="37.06520583333333" lon="138.69651305555556">
<ele>177</ele>
</trkpt>
<trkpt lat="37.06520861111111" lon="138.69656944444444">
<ele>175</ele>
</trkpt>
<trkpt lat="37.06521111111111" lon="138.69662444444444">
<ele>175</ele>
</trkpt>
<trkpt lat="37.065215" lon="138.69665194444445">
<ele>175</ele>
</trkpt>
<trkpt lat="37.06525194444445" lon="138.6966438888889">
<ele>174</ele>
</trkpt>
<trkpt lat="37.06531888888889" lon="138.6966938888889">
<ele>172</ele>
</trkpt>
<trkpt lat="37.06584388888889" lon="138.69719388888888">
<ele>170</ele>
</trkpt>
<trkpt lat="37.06664305555555" lon="138.69793194444443">
<ele>160</ele>
</trkpt>
<trkpt lat="37.06740194444444" lon="138.69866888888888">
<ele>163</ele>
</trkpt>
<trkpt lat="37.06741" lon="138.69866888888888">
<ele>163</ele>
</trkpt>
<trkpt lat="37.067526944444445" lon="138.6987938888889">
<ele>165</ele>
</trkpt>
<trkpt lat="37.067551944444446" lon="138.6989188888889">
<ele>165</ele>
</trkpt>
<trkpt lat="37.067618055555556" lon="138.6991438888889">
<ele>165</ele>
</trkpt>
<trkpt lat="37.06765194444444" lon="138.69923111111112">
<ele>165</ele>
</trkpt>
<trkpt lat="37.068176944444446" lon="138.6993061111111">
<ele>169</ele>
</trkpt>
<trkpt lat="37.068218055555555" lon="138.69934388888888">
<ele>169</ele>
</trkpt>
<trkpt lat="37.06825194444444" lon="138.69955611111112">
<ele>169</ele>
</trkpt>
<trkpt lat="37.068351944444444" lon="138.69989388888888">
<ele>170</ele>
</trkpt>
<trkpt lat="37.068401944444446" lon="138.6998188888889">
<ele>171</ele>
</trkpt>
<trkpt lat="37.068385" lon="138.6997061111111">
<ele>173</ele>
</trkpt>
<trkpt lat="37.06856" lon="138.6996061111111">
<ele>180</ele>
</trkpt>
<trkpt lat="37.06867694444445" lon="138.6994061111111">
<ele>182</ele>
</trkpt>
<trkpt lat="37.068785" lon="138.6991561111111">
<ele>183</ele>
</trkpt>
<trkpt lat="37.06881888888889" lon="138.6991">
<ele>183</ele>
</trkpt>
<trkpt lat="37.06881888888889" lon="138.6991">
<ele>183</ele>
</trkpt>
<trkpt lat="37.068885" lon="138.69899388888888">
<ele>184</ele>
</trkpt>
<trkpt lat="37.06895111111111" lon="138.69896888888888">
<ele>185</ele>
</trkpt>
<trkpt lat="37.06899305555555" lon="138.69899388888888">
<ele>185</ele>
</trkpt>
<trkpt lat="37.06912611111111" lon="138.6991688888889">
<ele>186</ele>
</trkpt>
<trkpt lat="37.06917611111111" lon="138.69919388888889">
<ele>186</ele>
</trkpt>
<trkpt lat="37.069285" lon="138.69921888888888">
<ele>187</ele>
</trkpt>
<trkpt lat="37.069251111111114" lon="138.6990188888889">
<ele>187</ele>
</trkpt>
<trkpt lat="37.06910111111111" lon="138.6981811111111">
<ele>192</ele>
</trkpt>
<trkpt lat="37.069085" lon="138.69775694444445">
<ele>195</ele>
</trkpt>
<trkpt lat="37.069085" lon="138.6974438888889">
<ele>197</ele>
</trkpt>
<trkpt lat="37.069085" lon="138.69663194444445">
<ele>202</ele>
</trkpt>
<trkpt lat="37.069068055555555" lon="138.69628194444445">
<ele>206</ele>
</trkpt>
<trkpt lat="37.06901" lon="138.69585694444444">
<ele>214</ele>
</trkpt>
<trkpt lat="37.06891805555556" lon="138.6953188888889">
<ele>216</ele>
</trkpt>
<trkpt lat="37.06887611111111" lon="138.69485694444444">
<ele>222</ele>
</trkpt>
<trkpt lat="37.06881" lon="138.69463194444444">
<ele>225</ele>
</trkpt>
<trkpt lat="37.06865111111111" lon="138.6943188888889">
<ele>232</ele>
</trkpt>
<trkpt lat="37.06856805555555" lon="138.69413194444445">
<ele>235</ele>
</trkpt>
<trkpt lat="37.068485" lon="138.69383194444444">
<ele>233</ele>
</trkpt>
<trkpt lat="37.06842611111111" lon="138.69368194444445">
<ele>236</ele>
</trkpt>
<trkpt lat="37.068405" lon="138.6936488888889">
<ele>238</ele>
</trkpt>
<trkpt lat="37.068405" lon="138.6936488888889">
<ele>238</ele>
</trkpt>
<trkpt lat="37.068376111111114" lon="138.69360694444444">
<ele>239</ele>
</trkpt>
<trkpt lat="37.068235" lon="138.69345694444445">
<ele>244</ele>
</trkpt>
<trkpt lat="37.06820111111111" lon="138.69340694444443">
<ele>244</ele>
</trkpt>
<trkpt lat="37.06816805555555" lon="138.69334388888888">
<ele>244</ele>
</trkpt>
<trkpt lat="37.06815111111111" lon="138.69325694444444">
<ele>246</ele>
</trkpt>
<trkpt lat="37.06825111111111" lon="138.6926938888889">
<ele>239</ele>
</trkpt>
<trkpt lat="37.06825111111111" lon="138.69260694444444">
<ele>238</ele>
</trkpt>
<trkpt lat="37.068235" lon="138.69250694444443">
<ele>238</ele>
</trkpt>
<trkpt lat="37.06812611111111" lon="138.6922438888889">
<ele>237</ele>
</trkpt>
<trkpt lat="37.06807611111111" lon="138.69215694444443">
<ele>236</ele>
</trkpt>
<trkpt lat="37.068018055555555" lon="138.69210694444445">
<ele>237</ele>
</trkpt>
<trkpt lat="37.06797611111111" lon="138.69208194444445">
<ele>235</ele>
</trkpt>
<trkpt lat="37.06781" lon="138.692045">
<ele>233</ele>
</trkpt>
<trkpt lat="37.067768055555554" lon="138.691995">
<ele>231</ele>
</trkpt>
<trkpt lat="37.06776" lon="138.69195694444446">
<ele>231</ele>
</trkpt>
<trkpt lat="37.067751111111114" lon="138.691895">
<ele>231</ele>
</trkpt>
<trkpt lat="37.067751111111114" lon="138.69173194444446">
<ele>217</ele>
</trkpt>
<trkpt lat="37.067768055555554" lon="138.691645">
<ele>188</ele>
</trkpt>
<trkpt lat="37.06781" lon="138.691545">
<ele>221</ele>
</trkpt>
<trkpt lat="37.06802611111111" lon="138.691195">
<ele>224</ele>
</trkpt>
<trkpt lat="37.06805111111111" lon="138.69113194444444">
<ele>224</ele>
</trkpt>
<trkpt lat="37.068035" lon="138.69103194444443">
<ele>222</ele>
</trkpt>
<trkpt lat="37.06800111111111" lon="138.69085694444445">
<ele>215</ele>
</trkpt>
<trkpt lat="37.06797611111111" lon="138.690795">
<ele>208</ele>
</trkpt>
<trkpt lat="37.06784305555556" lon="138.69065694444444">
<ele>202</ele>
</trkpt>
<trkpt lat="37.067785" lon="138.69063194444445">
<ele>202</ele>
</trkpt>
<trkpt lat="37.06771" lon="138.69063194444445">
<ele>201</ele>
</trkpt>
<trkpt lat="37.067593055555555" lon="138.69068194444444">
<ele>202</ele>
</trkpt>
<trkpt lat="37.06751805555555" lon="138.69077">
<ele>207</ele>
</trkpt>
<trkpt lat="37.06749194444444" lon="138.69083111111112">
<ele>210</ele>
</trkpt>
<trkpt lat="37.06749194444444" lon="138.69083111111112">
<ele>210</ele>
</trkpt>
<trkpt lat="37.06751805555555" lon="138.69077">
<ele>207</ele>
</trkpt>
<trkpt lat="37.067593055555555" lon="138.69068194444444">
<ele>202</ele>
</trkpt>
<trkpt lat="37.06771" lon="138.69063194444445">
<ele>201</ele>
</trkpt>
<trkpt lat="37.067785" lon="138.69063194444445">
<ele>202</ele>
</trkpt>
<trkpt lat="37.06784305555556" lon="138.69065694444444">
<ele>202</ele>
</trkpt>
<trkpt lat="37.06797611111111" lon="138.690795">
<ele>208</ele>
</trkpt>
<trkpt lat="37.06800111111111" lon="138.69085694444445">
<ele>215</ele>
</trkpt>
<trkpt lat="37.068035" lon="138.69103194444443">
<ele>222</ele>
</trkpt>
<trkpt lat="37.06805111111111" lon="138.69113194444444">
<ele>224</ele>
</trkpt>
<trkpt lat="37.06802611111111" lon="138.691195">
<ele>224</ele>
</trkpt>
<trkpt lat="37.06781" lon="138.691545">
<ele>221</ele>
</trkpt>
<trkpt lat="37.067768055555554" lon="138.691645">
<ele>188</ele>
</trkpt>
<trkpt lat="37.067751111111114" lon="138.69173194444446">
<ele>217</ele>
</trkpt>
<trkpt lat="37.067751111111114" lon="138.691895">
<ele>231</ele>
</trkpt>
<trkpt lat="37.06776" lon="138.69195694444446">
<ele>231</ele>
</trkpt>
<trkpt lat="37.067768055555554" lon="138.691995">
<ele>231</ele>
</trkpt>
<trkpt lat="37.06781" lon="138.692045">
<ele>233</ele>
</trkpt>
<trkpt lat="37.06797611111111" lon="138.69208194444445">
<ele>235</ele>
</trkpt>
<trkpt lat="37.068018055555555" lon="138.69210694444445">
<ele>237</ele>
</trkpt>
<trkpt lat="37.06807611111111" lon="138.69215694444443">
<ele>236</ele>
</trkpt>
<trkpt lat="37.06812611111111" lon="138.6922438888889">
<ele>237</ele>
</trkpt>
<trkpt lat="37.068235" lon="138.69250694444443">
<ele>238</ele>
</trkpt>
<trkpt lat="37.06825111111111" lon="138.69260694444444">
<ele>238</ele>
</trkpt>
<trkpt lat="37.06825111111111" lon="138.6926938888889">
<ele>239</ele>
</trkpt>
<trkpt lat="37.06815111111111" lon="138.69325694444444">
<ele>246</ele>
</trkpt>
<trkpt lat="37.06816805555555" lon="138.69334388888888">
<ele>244</ele>
</trkpt>
<trkpt lat="37.06820111111111" lon="138.69340694444443">
<ele>244</ele>
</trkpt>
<trkpt lat="37.068235" lon="138.69345694444445">
<ele>244</ele>
</trkpt>
<trkpt lat="37.068376111111114" lon="138.69360694444444">
<ele>239</ele>
</trkpt>
<trkpt lat="37.06842611111111" lon="138.69368194444445">
<ele>236</ele>
</trkpt>
<trkpt lat="37.068485" lon="138.69383194444444">
<ele>233</ele>
</trkpt>
<trkpt lat="37.06856805555555" lon="138.69413194444445">
<ele>235</ele>
</trkpt>
<trkpt lat="37.06865111111111" lon="138.6943188888889">
<ele>232</ele>
</trkpt>
<trkpt lat="37.06881" lon="138.69463194444444">
<ele>225</ele>
</trkpt>
<trkpt lat="37.06887611111111" lon="138.69485694444444">
<ele>222</ele>
</trkpt>
<trkpt lat="37.06891805555556" lon="138.6953188888889">
<ele>216</ele>
</trkpt>
<trkpt lat="37.06901" lon="138.69585694444444">
<ele>214</ele>
</trkpt>
<trkpt lat="37.069068055555555" lon="138.69628194444445">
<ele>206</ele>
</trkpt>
<trkpt lat="37.069085" lon="138.69663194444445">
<ele>202</ele>
</trkpt>
<trkpt lat="37.069085" lon="138.6974438888889">
<ele>197</ele>
</trkpt>
<trkpt lat="37.069085" lon="138.69775694444445">
<ele>195</ele>
</trkpt>
<trkpt lat="37.06910111111111" lon="138.6981811111111">
<ele>192</ele>
</trkpt>
<trkpt lat="37.069251111111114" lon="138.6990188888889">
<ele>187</ele>
</trkpt>
<trkpt lat="37.06934305555556" lon="138.6990811111111">
<ele>188</ele>
</trkpt>
<trkpt lat="37.06944305555555" lon="138.6992561111111">
<ele>187</ele>
</trkpt>
<trkpt lat="37.07009305555555" lon="138.6999811111111">
<ele>191</ele>
</trkpt>
<trkpt lat="37.070326111111115" lon="138.7002811111111">
<ele>191</ele>
</trkpt>
<trkpt lat="37.07042611111111" lon="138.7004188888889">
<ele>191</ele>
</trkpt>
<trkpt lat="37.070635" lon="138.70081888888888">
<ele>191</ele>
</trkpt>
<trkpt lat="37.07080888888889" lon="138.70108805555554">
<ele>192</ele>
</trkpt>
<trkpt lat="37.07080888888889" lon="138.70108805555554">
<ele>192</ele>
</trkpt>
<trkpt lat="37.07089305555556" lon="138.7012188888889">
<ele>193</ele>
</trkpt>
<trkpt lat="37.07102611111111" lon="138.70136888888888">
<ele>191</ele>
</trkpt>
<trkpt lat="37.07111" lon="138.7015438888889">
<ele>190</ele>
</trkpt>
<trkpt lat="37.07120111111111" lon="138.70193111111112">
<ele>188</ele>
</trkpt>
<trkpt lat="37.071335" lon="138.70236888888888">
<ele>189</ele>
</trkpt>
<trkpt lat="37.07130111111111" lon="138.70250611111112">
<ele>188</ele>
</trkpt>
<trkpt lat="37.07126" lon="138.70261888888888">
<ele>188</ele>
</trkpt>
<trkpt lat="37.07131" lon="138.7026438888889">
<ele>188</ele>
</trkpt>
<trkpt lat="37.07139305555555" lon="138.7026438888889">
<ele>189</ele>
</trkpt>
<trkpt lat="37.071843055555554" lon="138.70249388888888">
<ele>194</ele>
</trkpt>
<trkpt lat="37.07234305555556" lon="138.70228111111112">
<ele>194</ele>
</trkpt>
<trkpt lat="37.07240888888889" lon="138.7022438888889">
<ele>194</ele>
</trkpt>
<trkpt lat="37.07245888888889" lon="138.70216888888888">
<ele>193</ele>
</trkpt>
<trkpt lat="37.072775" lon="138.70133694444445">
<ele>194</ele>
</trkpt>
<trkpt lat="37.072775" lon="138.70133694444445">
<ele>194</ele>
</trkpt>
<trkpt lat="37.07283388888889" lon="138.7011811111111">
<ele>194</ele>
</trkpt>
<trkpt lat="37.07297611111111" lon="138.70113111111112">
<ele>193</ele>
</trkpt>
<trkpt lat="37.07303388888889" lon="138.7011688888889">
<ele>194</ele>
</trkpt>
<trkpt lat="37.07321805555556" lon="138.70136888888888">
<ele>196</ele>
</trkpt>
<trkpt lat="37.07325111111111" lon="138.7014311111111">
<ele>198</ele>
</trkpt>
<trkpt lat="37.07345111111111" lon="138.70159388888888">
<ele>202</ele>
</trkpt>
<trkpt lat="37.073751111111115" lon="138.70170611111112">
<ele>204</ele>
</trkpt>
<trkpt lat="37.07380111111111" lon="138.7016438888889">
<ele>206</ele>
</trkpt>
<trkpt lat="37.073658888888886" lon="138.7008311111111">
<ele>207</ele>
</trkpt>
<trkpt lat="37.07367611111111" lon="138.7006061111111">
<ele>211</ele>
</trkpt>
<trkpt lat="37.07380111111111" lon="138.69965611111112">
<ele>216</ele>
</trkpt>
<trkpt lat="37.07380888888889" lon="138.6994688888889">
<ele>217</ele>
</trkpt>
<trkpt lat="37.07380888888889" lon="138.6993938888889">
<ele>219</ele>
</trkpt>
<trkpt lat="37.07378388888889" lon="138.6992561111111">
<ele>221</ele>
</trkpt>
<trkpt lat="37.073726111111114" lon="138.69910611111112">
<ele>224</ele>
</trkpt>
<trkpt lat="37.07370111111111" lon="138.6990811111111">
<ele>224</ele>
</trkpt>
<trkpt lat="37.07362611111111" lon="138.6990811111111">
<ele>221</ele>
</trkpt>
<trkpt lat="37.07356388888889" lon="138.69909694444445">
<ele>220</ele>
</trkpt>
<trkpt lat="37.07356388888889" lon="138.69909694444445">
<ele>220</ele>
</trkpt>
<trkpt lat="37.07362611111111" lon="138.6990811111111">
<ele>221</ele>
</trkpt>
<trkpt lat="37.07370111111111" lon="138.6990811111111">
<ele>224</ele>
</trkpt>
<trkpt lat="37.073726111111114" lon="138.69910611111112">
<ele>224</ele>
</trkpt>
<trkpt lat="37.07378388888889" lon="138.6992561111111">
<ele>221</ele>
</trkpt>
<trkpt lat="37.07380888888889" lon="138.6993938888889">
<ele>219</ele>
</trkpt>
<trkpt lat="37.07380888888889" lon="138.6994688888889">
<ele>217</ele>
</trkpt>
<trkpt lat="37.07380111111111" lon="138.69965611111112">
<ele>216</ele>
</trkpt>
<trkpt lat="37.07367611111111" lon="138.7006061111111">
<ele>211</ele>
</trkpt>
<trkpt lat="37.073658888888886" lon="138.7008311111111">
<ele>207</ele>
</trkpt>
<trkpt lat="37.07380111111111" lon="138.7016438888889">
<ele>206</ele>
</trkpt>
<trkpt lat="37.073751111111115" lon="138.70170611111112">
<ele>204</ele>
</trkpt>
<trkpt lat="37.07369194444444" lon="138.7017688888889">
<ele>204</ele>
</trkpt>
<trkpt lat="37.07363388888889" lon="138.7017938888889">
<ele>202</ele>
</trkpt>
<trkpt lat="37.07360111111111" lon="138.70183111111112">
<ele>202</ele>
</trkpt>
<trkpt lat="37.07357611111111" lon="138.7018811111111">
<ele>202</ele>
</trkpt>
<trkpt lat="37.07355111111111" lon="138.7021311111111">
<ele>202</ele>
</trkpt>
<trkpt lat="37.07345888888889" lon="138.7024438888889">
<ele>203</ele>
</trkpt>
<trkpt lat="37.07337" lon="138.70278888888888">
<ele>201</ele>
</trkpt>
<trkpt lat="37.07337" lon="138.70278888888888">
<ele>201</ele>
</trkpt>
<trkpt lat="37.07335888888889" lon="138.70283111111112">
<ele>201</ele>
</trkpt>
<trkpt lat="37.07325888888889" lon="138.70330611111112">
<ele>198</ele>
</trkpt>
<trkpt lat="37.07325888888889" lon="138.70340611111112">
<ele>198</ele>
</trkpt>
<trkpt lat="37.07326805555556" lon="138.70349305555555">
<ele>198</ele>
</trkpt>
<trkpt lat="37.07335111111111" lon="138.70386805555555">
<ele>196</ele>
</trkpt>
<trkpt lat="37.07335888888889" lon="138.70399305555554">
<ele>196</ele>
</trkpt>
<trkpt lat="37.07301805555556" lon="138.7039311111111">
<ele>197</ele>
</trkpt>
<trkpt lat="37.07275111111111" lon="138.7039061111111">
<ele>195</ele>
</trkpt>
<trkpt lat="37.07240111111111" lon="138.70389305555557">
<ele>189</ele>
</trkpt>
<trkpt lat="37.07218388888889" lon="138.70391805555556">
<ele>184</ele>
</trkpt>
<trkpt lat="37.07195888888889" lon="138.70396805555555">
<ele>181</ele>
</trkpt>
<trkpt lat="37.07107611111111" lon="138.7042561111111">
<ele>174</ele>
</trkpt>
<trkpt lat="37.07091" lon="138.70429305555555">
<ele>176</ele>
</trkpt>
<trkpt lat="37.070726111111114" lon="138.70431805555555">
<ele>177</ele>
</trkpt>
<trkpt lat="37.07061" lon="138.70430611111112">
<ele>177</ele>
</trkpt>
<trkpt lat="37.070435" lon="138.7042561111111">
<ele>176</ele>
</trkpt>
<trkpt lat="37.07029305555555" lon="138.70420611111112">
<ele>177</ele>
</trkpt>
<trkpt lat="37.070193055555556" lon="138.70414305555556">
<ele>176</ele>
</trkpt>
<trkpt lat="37.06993694444444" lon="138.704485">
<ele>173</ele>
</trkpt>
<trkpt lat="37.06993694444444" lon="138.704485">
<ele>173</ele>
</trkpt>
<trkpt lat="37.069293055555555" lon="138.70534305555555">
<ele>166</ele>
</trkpt>
<trkpt lat="37.069185" lon="138.70546805555554">
<ele>165</ele>
</trkpt>
<trkpt lat="37.06825194444444" lon="138.70624305555555">
<ele>161</ele>
</trkpt>
<trkpt lat="37.067235" lon="138.70711805555555">
<ele>160</ele>
</trkpt>
<trkpt lat="37.06706694444444" lon="138.70682888888888">
<ele>160</ele>
</trkpt>
    </trkseg>
  </trk>
</gpx>