<?xml version="1.0" encoding="UTF-8"?>
<gpx version="1.1"
     creator="KMLtoGPX"
     xmlns="http://www.topografix.com/GPX/1/1">
  <metadata>
    <name>Takahama Otomi Course</name>
    <desc>高浜音海コース</desc>
    <bounds minlat="35.48731111111111" minlon="135.50314805555556" maxlat="35.539365" maxlon="135.5780188888889"/>
  </metadata>
  <trk>
    <name>Takahama Otomi Course</name>
    <trkseg>
<trkpt lat="35.497225" lon="135.57642388888888">
<ele>1</ele>
</trkpt>
<trkpt lat="35.49700194444444" lon="135.57648194444445">
<ele>9</ele>
</trkpt>
<trkpt lat="35.49676888888889" lon="135.57658194444446">
<ele>5</ele>
</trkpt>
<trkpt lat="35.49657694444444" lon="135.57671888888888">
<ele>6</ele>
</trkpt>
<trkpt lat="35.496001944444444" lon="135.57739388888888">
<ele>6</ele>
</trkpt>
<trkpt lat="35.495801944444445" lon="135.57768194444444">
<ele>4</ele>
</trkpt>
<trkpt lat="35.49487694444444" lon="135.5778688888889">
<ele>0</ele>
</trkpt>
<trkpt lat="35.49474388888889" lon="135.57784388888888">
<ele>0</ele>
</trkpt>
<trkpt lat="35.49464388888889" lon="135.5777938888889">
<ele>0</ele>
</trkpt>
<trkpt lat="35.49400305555555" lon="135.57740694444445">
<ele>0</ele>
</trkpt>
<trkpt lat="35.49389388888889" lon="135.5773438888889">
<ele>0</ele>
</trkpt>
<trkpt lat="35.49373611111111" lon="135.57725694444446">
<ele>0</ele>
</trkpt>
<trkpt lat="35.49336888888889" lon="135.57703194444446">
<ele>0</ele>
</trkpt>
<trkpt lat="35.49317694444444" lon="135.57690694444443">
<ele>0</ele>
</trkpt>
<trkpt lat="35.49283611111111" lon="135.57669388888888">
<ele>0</ele>
</trkpt>
<trkpt lat="35.492776944444444" lon="135.57675694444444">
<ele>0</ele>
</trkpt>
<trkpt lat="35.49263611111111" lon="135.57685694444444">
<ele>0</ele>
</trkpt>
<trkpt lat="35.492511111111114" lon="135.57695694444445">
<ele>0</ele>
</trkpt>
<trkpt lat="35.492353055555554" lon="135.57715694444445">
<ele>0</ele>
</trkpt>
<trkpt lat="35.491776944444446" lon="135.5780188888889">
<ele>1</ele>
</trkpt>
<trkpt lat="35.491503055555555" lon="135.57773194444445">
<ele>2</ele>
</trkpt>
<trkpt lat="35.49133194444445" lon="135.57752888888888">
<ele>2</ele>
</trkpt>
<trkpt lat="35.49133111111111" lon="135.57752888888888">
<ele>2</ele>
</trkpt>
<trkpt lat="35.49118611111111" lon="135.57735694444443">
<ele>3</ele>
</trkpt>
<trkpt lat="35.49106111111111" lon="135.5771938888889">
<ele>3</ele>
</trkpt>
<trkpt lat="35.49066888888889" lon="135.57685694444444">
<ele>4</ele>
</trkpt>
<trkpt lat="35.49057805555555" lon="135.5767688888889">
<ele>4</ele>
</trkpt>
<trkpt lat="35.49048611111111" lon="135.57665694444444">
<ele>4</ele>
</trkpt>
<trkpt lat="35.49039388888889" lon="135.57653194444444">
<ele>4</ele>
</trkpt>
<trkpt lat="35.49011888888889" lon="135.5760938888889">
<ele>5</ele>
</trkpt>
<trkpt lat="35.48983611111111" lon="135.57568194444445">
<ele>6</ele>
</trkpt>
<trkpt lat="35.48975305555555" lon="135.57550694444444">
<ele>6</ele>
</trkpt>
<trkpt lat="35.48969388888889" lon="135.57533194444446">
<ele>6</ele>
</trkpt>
<trkpt lat="35.48966111111111" lon="135.57523194444445">
<ele>6</ele>
</trkpt>
<trkpt lat="35.48946888888889" lon="135.57455694444445">
<ele>7</ele>
</trkpt>
<trkpt lat="35.48930305555555" lon="135.5739438888889">
<ele>7</ele>
</trkpt>
<trkpt lat="35.48925305555556" lon="135.57366888888888">
<ele>8</ele>
</trkpt>
<trkpt lat="35.48911888888889" lon="135.57263194444445">
<ele>7</ele>
</trkpt>
<trkpt lat="35.489086111111114" lon="135.57240694444445">
<ele>8</ele>
</trkpt>
<trkpt lat="35.488953055555555" lon="135.57138194444445">
<ele>7</ele>
</trkpt>
<trkpt lat="35.48886111111111" lon="135.570195">
<ele>5</ele>
</trkpt>
<trkpt lat="35.48876888888889" lon="135.569545">
<ele>5</ele>
</trkpt>
<trkpt lat="35.488686111111114" lon="135.568445">
<ele>7</ele>
</trkpt>
<trkpt lat="35.48866" lon="135.5681588888889">
<ele>8</ele>
</trkpt>
<trkpt lat="35.48866" lon="135.5681588888889">
<ele>8</ele>
</trkpt>
<trkpt lat="35.48865305555555" lon="135.56808194444446">
<ele>9</ele>
</trkpt>
<trkpt lat="35.48853611111111" lon="135.56718194444446">
<ele>8</ele>
</trkpt>
<trkpt lat="35.48849388888889" lon="135.566795">
<ele>8</ele>
</trkpt>
<trkpt lat="35.488478055555554" lon="135.56667">
<ele>7</ele>
</trkpt>
<trkpt lat="35.48829388888889" lon="135.566145">
<ele>6</ele>
</trkpt>
<trkpt lat="35.48822805555555" lon="135.56595694444445">
<ele>5</ele>
</trkpt>
<trkpt lat="35.48809388888889" lon="135.56552">
<ele>7</ele>
</trkpt>
<trkpt lat="35.487878055555555" lon="135.56483194444445">
<ele>8</ele>
</trkpt>
<trkpt lat="35.48779388888889" lon="135.564545">
<ele>7</ele>
</trkpt>
<trkpt lat="35.48766888888889" lon="135.564095">
<ele>6</ele>
</trkpt>
<trkpt lat="35.48751111111111" lon="135.56357">
<ele>7</ele>
</trkpt>
<trkpt lat="35.48746888888889" lon="135.56343305555555">
<ele>7</ele>
</trkpt>
<trkpt lat="35.487453055555555" lon="135.56330805555555">
<ele>7</ele>
</trkpt>
<trkpt lat="35.487453055555555" lon="135.56260805555556">
<ele>6</ele>
</trkpt>
<trkpt lat="35.487428055555554" lon="135.562045">
<ele>6</ele>
</trkpt>
<trkpt lat="35.48740305555555" lon="135.56125805555556">
<ele>6</ele>
</trkpt>
<trkpt lat="35.487386111111114" lon="135.56083305555555">
<ele>5</ele>
</trkpt>
<trkpt lat="35.48733611111111" lon="135.560145">
<ele>5</ele>
</trkpt>
<trkpt lat="35.48733611111111" lon="135.559995">
<ele>5</ele>
</trkpt>
<trkpt lat="35.48732805555556" lon="135.55967">
<ele>5</ele>
</trkpt>
<trkpt lat="35.48731111111111" lon="135.55945805555555">
<ele>5</ele>
</trkpt>
<trkpt lat="35.48731111111111" lon="135.55923305555555">
<ele>5</ele>
</trkpt>
<trkpt lat="35.48731111111111" lon="135.55917">
<ele>6</ele>
</trkpt>
<trkpt lat="35.48732805555556" lon="135.55878305555555">
<ele>6</ele>
</trkpt>
<trkpt lat="35.48736888888889" lon="135.55800805555555">
<ele>7</ele>
</trkpt>
<trkpt lat="35.48741111111111" lon="135.55778305555555">
<ele>7</ele>
</trkpt>
<trkpt lat="35.487518888888886" lon="135.557395">
<ele>6</ele>
</trkpt>
<trkpt lat="35.48756111111111" lon="135.557345">
<ele>6</ele>
</trkpt>
<trkpt lat="35.48769388888889" lon="135.556995">
<ele>5</ele>
</trkpt>
<trkpt lat="35.48796888888889" lon="135.5562461111111">
<ele>5</ele>
</trkpt>
<trkpt lat="35.487995" lon="135.55618805555557">
<ele>5</ele>
</trkpt>
<trkpt lat="35.487995" lon="135.55618805555557">
<ele>5</ele>
</trkpt>
<trkpt lat="35.48841888888889" lon="135.5552211111111">
<ele>3</ele>
</trkpt>
<trkpt lat="35.48876111111111" lon="135.55458305555555">
<ele>3</ele>
</trkpt>
<trkpt lat="35.48922694444445" lon="135.55373305555557">
<ele>3</ele>
</trkpt>
<trkpt lat="35.48929388888889" lon="135.5537711111111">
<ele>3</ele>
</trkpt>
<trkpt lat="35.48941111111111" lon="135.55355805555556">
<ele>3</ele>
</trkpt>
<trkpt lat="35.48946888888889" lon="135.55348305555555">
<ele>3</ele>
</trkpt>
<trkpt lat="35.48959388888889" lon="135.55337111111112">
<ele>3</ele>
</trkpt>
<trkpt lat="35.48971888888889" lon="135.55320805555556">
<ele>3</ele>
</trkpt>
<trkpt lat="35.48977694444444" lon="135.55300805555555">
<ele>3</ele>
</trkpt>
<trkpt lat="35.48981111111111" lon="135.5528711111111">
<ele>3</ele>
</trkpt>
<trkpt lat="35.48983611111111" lon="135.55283305555557">
<ele>3</ele>
</trkpt>
<trkpt lat="35.48988611111111" lon="135.55282111111111">
<ele>3</ele>
</trkpt>
<trkpt lat="35.490093888888886" lon="135.55280805555554">
<ele>3</ele>
</trkpt>
<trkpt lat="35.49033611111111" lon="135.5527461111111">
<ele>3</ele>
</trkpt>
<trkpt lat="35.490586111111114" lon="135.5526211111111">
<ele>3</ele>
</trkpt>
<trkpt lat="35.49072694444445" lon="135.55257111111112">
<ele>3</ele>
</trkpt>
<trkpt lat="35.49073611111111" lon="135.5525211111111">
<ele>3</ele>
</trkpt>
<trkpt lat="35.49075194444445" lon="135.55245805555555">
<ele>3</ele>
</trkpt>
<trkpt lat="35.49078611111111" lon="135.5524211111111">
<ele>4</ele>
</trkpt>
<trkpt lat="35.49096888888889" lon="135.5522961111111">
<ele>4</ele>
</trkpt>
<trkpt lat="35.49149388888889" lon="135.5520461111111">
<ele>4</ele>
</trkpt>
<trkpt lat="35.49221111111111" lon="135.5516961111111">
<ele>3</ele>
</trkpt>
<trkpt lat="35.49267694444445" lon="135.5514711111111">
<ele>1</ele>
</trkpt>
<trkpt lat="35.49268305555555" lon="135.55149">
<ele>1</ele>
</trkpt>
<trkpt lat="35.49268305555555" lon="135.55149">
<ele>1</ele>
</trkpt>
<trkpt lat="35.49267694444445" lon="135.5514711111111">
<ele>1</ele>
</trkpt>
<trkpt lat="35.49221111111111" lon="135.5516961111111">
<ele>3</ele>
</trkpt>
<trkpt lat="35.49216888888889" lon="135.5516461111111">
<ele>3</ele>
</trkpt>
<trkpt lat="35.49202694444445" lon="135.5511711111111">
<ele>4</ele>
</trkpt>
<trkpt lat="35.49181111111111" lon="135.55029611111112">
<ele>6</ele>
</trkpt>
<trkpt lat="35.49156111111111" lon="135.54919611111112">
<ele>8</ele>
</trkpt>
<trkpt lat="35.491461111111114" lon="135.5486711111111">
<ele>8</ele>
</trkpt>
<trkpt lat="35.49141111111111" lon="135.54840805555557">
<ele>9</ele>
</trkpt>
<trkpt lat="35.49131888888889" lon="135.5478961111111">
<ele>7</ele>
</trkpt>
<trkpt lat="35.49128611111111" lon="135.5474461111111">
<ele>6</ele>
</trkpt>
<trkpt lat="35.491276944444444" lon="135.54668305555555">
<ele>4</ele>
</trkpt>
<trkpt lat="35.49126111111111" lon="135.54634611111112">
<ele>3</ele>
</trkpt>
<trkpt lat="35.49124388888889" lon="135.54615805555557">
<ele>2</ele>
</trkpt>
<trkpt lat="35.49116111111111" lon="135.54573305555556">
<ele>2</ele>
</trkpt>
<trkpt lat="35.49106111111111" lon="135.54534611111112">
<ele>2</ele>
</trkpt>
<trkpt lat="35.49100611111111" lon="135.54519194444444">
<ele>2</ele>
</trkpt>
<trkpt lat="35.49100611111111" lon="135.54519194444444">
<ele>2</ele>
</trkpt>
<trkpt lat="35.490943888888886" lon="135.5450211111111">
<ele>2</ele>
</trkpt>
<trkpt lat="35.49081888888889" lon="135.5446961111111">
<ele>1</ele>
</trkpt>
<trkpt lat="35.49071111111111" lon="135.5444461111111">
<ele>1</ele>
</trkpt>
<trkpt lat="35.49030194444445" lon="135.5436961111111">
<ele>1</ele>
</trkpt>
<trkpt lat="35.489761111111115" lon="135.5426461111111">
<ele>1</ele>
</trkpt>
<trkpt lat="35.489353055555554" lon="135.5418711111111">
<ele>1</ele>
</trkpt>
<trkpt lat="35.48921111111111" lon="135.54159611111112">
<ele>2</ele>
</trkpt>
<trkpt lat="35.48900305555556" lon="135.5412961111111">
<ele>2</ele>
</trkpt>
<trkpt lat="35.48874388888889" lon="135.54103388888888">
<ele>3</ele>
</trkpt>
<trkpt lat="35.488661111111114" lon="135.54089611111112">
<ele>3</ele>
</trkpt>
<trkpt lat="35.488593888888886" lon="135.5407588888889">
<ele>2</ele>
</trkpt>
<trkpt lat="35.48840305555556" lon="135.54020888888888">
<ele>3</ele>
</trkpt>
<trkpt lat="35.488368888888886" lon="135.5400838888889">
<ele>3</ele>
</trkpt>
<trkpt lat="35.48824388888889" lon="135.5396211111111">
<ele>4</ele>
</trkpt>
<trkpt lat="35.48819388888889" lon="135.5394088888889">
<ele>4</ele>
</trkpt>
<trkpt lat="35.48818611111111" lon="135.53933388888888">
<ele>4</ele>
</trkpt>
<trkpt lat="35.48817805555556" lon="135.53910888888888">
<ele>4</ele>
</trkpt>
<trkpt lat="35.48820305555556" lon="135.5388461111111">
<ele>4</ele>
</trkpt>
<trkpt lat="35.48828611111111" lon="135.53828388888888">
<ele>4</ele>
</trkpt>
<trkpt lat="35.48831888888889" lon="135.5380088888889">
<ele>4</ele>
</trkpt>
<trkpt lat="35.48833611111111" lon="135.5377711111111">
<ele>3</ele>
</trkpt>
<trkpt lat="35.48835305555556" lon="135.53752111111112">
<ele>3</ele>
</trkpt>
<trkpt lat="35.488368888888886" lon="135.53728388888888">
<ele>3</ele>
</trkpt>
<trkpt lat="35.48837805555556" lon="135.5371461111111">
<ele>2</ele>
</trkpt>
<trkpt lat="35.48842805555555" lon="135.53632194444444">
<ele>2</ele>
</trkpt>
<trkpt lat="35.48841111111111" lon="135.5361838888889">
<ele>2</ele>
</trkpt>
<trkpt lat="35.48836111111111" lon="135.5360588888889">
<ele>2</ele>
</trkpt>
<trkpt lat="35.48822805555555" lon="135.53590888888888">
<ele>3</ele>
</trkpt>
<trkpt lat="35.48846805555556" lon="135.535145">
<ele>3</ele>
</trkpt>
<trkpt lat="35.48846805555556" lon="135.535145">
<ele>3</ele>
</trkpt>
<trkpt lat="35.488503055555555" lon="135.53503388888888">
<ele>3</ele>
</trkpt>
<trkpt lat="35.488886111111114" lon="135.53378388888888">
<ele>3</ele>
</trkpt>
<trkpt lat="35.48930305555555" lon="135.53217194444446">
<ele>2</ele>
</trkpt>
<trkpt lat="35.48934388888889" lon="135.53195888888888">
<ele>2</ele>
</trkpt>
<trkpt lat="35.489378055555555" lon="135.53179694444444">
<ele>2</ele>
</trkpt>
<trkpt lat="35.48951888888889" lon="135.5305588888889">
<ele>3</ele>
</trkpt>
<trkpt lat="35.48961111111111" lon="135.52977194444443">
<ele>6</ele>
</trkpt>
<trkpt lat="35.48968611111111" lon="135.5290588888889">
<ele>6</ele>
</trkpt>
<trkpt lat="35.48985305555556" lon="135.52872194444444">
<ele>7</ele>
</trkpt>
<trkpt lat="35.48991111111111" lon="135.52862194444444">
<ele>7</ele>
</trkpt>
<trkpt lat="35.49008611111111" lon="135.5282838888889">
<ele>8</ele>
</trkpt>
<trkpt lat="35.49026111111111" lon="135.52824694444445">
<ele>6</ele>
</trkpt>
<trkpt lat="35.49033611111111" lon="135.52820888888888">
<ele>6</ele>
</trkpt>
<trkpt lat="35.49041888888889" lon="135.52814694444444">
<ele>6</ele>
</trkpt>
<trkpt lat="35.49049388888889" lon="135.52807194444443">
<ele>6</ele>
</trkpt>
<trkpt lat="35.49056111111111" lon="135.52797194444443">
<ele>5</ele>
</trkpt>
<trkpt lat="35.49061888888889" lon="135.52782194444444">
<ele>5</ele>
</trkpt>
<trkpt lat="35.49080305555555" lon="135.52697194444445">
<ele>4</ele>
</trkpt>
<trkpt lat="35.49096888888889" lon="135.5262338888889">
<ele>3</ele>
</trkpt>
<trkpt lat="35.49106888888889" lon="135.52583388888888">
<ele>2</ele>
</trkpt>
<trkpt lat="35.49116111111111" lon="135.52554694444444">
<ele>2</ele>
</trkpt>
<trkpt lat="35.49135305555556" lon="135.52499694444444">
<ele>1</ele>
</trkpt>
<trkpt lat="35.49148611111111" lon="135.5246588888889">
<ele>2</ele>
</trkpt>
<trkpt lat="35.49171888888889" lon="135.5241838888889">
<ele>2</ele>
</trkpt>
<trkpt lat="35.49236111111111" lon="135.52289694444445">
<ele>1</ele>
</trkpt>
<trkpt lat="35.492603055555556" lon="135.52241">
<ele>0</ele>
</trkpt>
<trkpt lat="35.492736111111114" lon="135.522085">
<ele>1</ele>
</trkpt>
<trkpt lat="35.49284388888889" lon="135.521785">
<ele>1</ele>
</trkpt>
<trkpt lat="35.49293611111111" lon="135.52146">
<ele>1</ele>
</trkpt>
<trkpt lat="35.49299388888889" lon="135.52122194444445">
<ele>2</ele>
</trkpt>
<trkpt lat="35.493028055555556" lon="135.521035">
<ele>1</ele>
</trkpt>
<trkpt lat="35.49313611111111" lon="135.52042194444445">
<ele>1</ele>
</trkpt>
<trkpt lat="35.49327805555556" lon="135.51956">
<ele>1</ele>
</trkpt>
<trkpt lat="35.49333611111111" lon="135.51927194444445">
<ele>1</ele>
</trkpt>
<trkpt lat="35.49343611111111" lon="135.518885">
<ele>1</ele>
</trkpt>
<trkpt lat="35.493495" lon="135.518685">
<ele>1</ele>
</trkpt>
<trkpt lat="35.493495" lon="135.518685">
<ele>1</ele>
</trkpt>
<trkpt lat="35.49356888888889" lon="135.518435">
<ele>1</ele>
</trkpt>
<trkpt lat="35.49368611111111" lon="135.51809694444444">
<ele>1</ele>
</trkpt>
<trkpt lat="35.49389388888889" lon="135.51749694444445">
<ele>2</ele>
</trkpt>
<trkpt lat="35.49411111111111" lon="135.51691">
<ele>2</ele>
</trkpt>
<trkpt lat="35.49422805555555" lon="135.51666">
<ele>2</ele>
</trkpt>
<trkpt lat="35.49435305555556" lon="135.516435">
<ele>2</ele>
</trkpt>
<trkpt lat="35.49441888888889" lon="135.516335">
<ele>2</ele>
</trkpt>
<trkpt lat="35.49456111111111" lon="135.51611">
<ele>2</ele>
</trkpt>
<trkpt lat="35.49466888888889" lon="135.51596">
<ele>2</ele>
</trkpt>
<trkpt lat="35.49477805555556" lon="135.51582194444444">
<ele>2</ele>
</trkpt>
<trkpt lat="35.49500305555556" lon="135.51554694444445">
<ele>1</ele>
</trkpt>
<trkpt lat="35.49514388888889" lon="135.515335">
<ele>2</ele>
</trkpt>
<trkpt lat="35.49526111111111" lon="135.51516">
<ele>2</ele>
</trkpt>
<trkpt lat="35.495378055555555" lon="135.514885">
<ele>2</ele>
</trkpt>
<trkpt lat="35.49543611111111" lon="135.51471">
<ele>2</ele>
</trkpt>
<trkpt lat="35.49546888888889" lon="135.51456">
<ele>1</ele>
</trkpt>
<trkpt lat="35.49556111111111" lon="135.51419805555557">
<ele>2</ele>
</trkpt>
<trkpt lat="35.49566111111111" lon="135.51376">
<ele>2</ele>
</trkpt>
<trkpt lat="35.49583611111111" lon="135.51382305555555">
<ele>1</ele>
</trkpt>
<trkpt lat="35.49596888888889" lon="135.513835">
<ele>1</ele>
</trkpt>
<trkpt lat="35.49605305555556" lon="135.51384694444445">
<ele>1</ele>
</trkpt>
<trkpt lat="35.496161111111114" lon="135.513835">
<ele>1</ele>
</trkpt>
<trkpt lat="35.49630305555556" lon="135.51382305555555">
<ele>1</ele>
</trkpt>
<trkpt lat="35.49676888888889" lon="135.51369805555555">
<ele>3</ele>
</trkpt>
<trkpt lat="35.496926944444446" lon="135.51364694444445">
<ele>4</ele>
</trkpt>
<trkpt lat="35.49701888888889" lon="135.51362194444445">
<ele>3</ele>
</trkpt>
<trkpt lat="35.49733611111111" lon="135.51349694444446">
<ele>3</ele>
</trkpt>
<trkpt lat="35.49852694444444" lon="135.512785">
<ele>5</ele>
</trkpt>
<trkpt lat="35.498643888888886" lon="135.512735">
<ele>6</ele>
</trkpt>
<trkpt lat="35.498851944444446" lon="135.512685">
<ele>4</ele>
</trkpt>
<trkpt lat="35.49901888888889" lon="135.51266">
<ele>5</ele>
</trkpt>
<trkpt lat="35.499068888888885" lon="135.51266">
<ele>5</ele>
</trkpt>
<trkpt lat="35.49917694444444" lon="135.51266">
<ele>7</ele>
</trkpt>
<trkpt lat="35.49928611111111" lon="135.51267194444443">
<ele>7</ele>
</trkpt>
<trkpt lat="35.49948611111111" lon="135.51274694444444">
<ele>12</ele>
</trkpt>
<trkpt lat="35.49973611111111" lon="135.51297194444444">
<ele>14</ele>
</trkpt>
<trkpt lat="35.500101944444445" lon="135.51314805555555">
<ele>13</ele>
</trkpt>
<trkpt lat="35.500276944444444" lon="135.513185">
<ele>15</ele>
</trkpt>
<trkpt lat="35.50044388888889" lon="135.51317194444445">
<ele>16</ele>
</trkpt>
<trkpt lat="35.50061111111111" lon="135.51312305555555">
<ele>13</ele>
</trkpt>
<trkpt lat="35.50071111111111" lon="135.51306">
<ele>12</ele>
</trkpt>
<trkpt lat="35.50076611111111" lon="135.513015">
<ele>12</ele>
</trkpt>
<trkpt lat="35.50076611111111" lon="135.513015">
<ele>12</ele>
</trkpt>
<trkpt lat="35.50081888888889" lon="135.51297194444444">
<ele>11</ele>
</trkpt>
<trkpt lat="35.50089388888889" lon="135.51284694444445">
<ele>10</ele>
</trkpt>
<trkpt lat="35.50091888888889" lon="135.51276">
<ele>10</ele>
</trkpt>
<trkpt lat="35.500926944444444" lon="135.51266">
<ele>10</ele>
</trkpt>
<trkpt lat="35.50083611111111" lon="135.51214694444445">
<ele>14</ele>
</trkpt>
<trkpt lat="35.50083611111111" lon="135.51181">
<ele>14</ele>
</trkpt>
<trkpt lat="35.50080194444445" lon="135.511485">
<ele>14</ele>
</trkpt>
<trkpt lat="35.50080194444445" lon="135.51142194444444">
<ele>14</ele>
</trkpt>
<trkpt lat="35.50084388888889" lon="135.51119805555555">
<ele>14</ele>
</trkpt>
<trkpt lat="35.50084388888889" lon="135.51112194444445">
<ele>14</ele>
</trkpt>
<trkpt lat="35.50071111111111" lon="135.51062305555556">
<ele>16</ele>
</trkpt>
<trkpt lat="35.50071111111111" lon="135.51054694444446">
<ele>15</ele>
</trkpt>
<trkpt lat="35.50080194444445" lon="135.51029694444443">
<ele>11</ele>
</trkpt>
<trkpt lat="35.50084388888889" lon="135.51012194444445">
<ele>11</ele>
</trkpt>
<trkpt lat="35.50087694444444" lon="135.509735">
<ele>15</ele>
</trkpt>
<trkpt lat="35.500976944444446" lon="135.50951">
<ele>8</ele>
</trkpt>
<trkpt lat="35.50141888888889" lon="135.508985">
<ele>5</ele>
</trkpt>
<trkpt lat="35.50159388888889" lon="135.508785">
<ele>5</ele>
</trkpt>
<trkpt lat="35.501736111111114" lon="135.50866">
<ele>5</ele>
</trkpt>
<trkpt lat="35.50196888888889" lon="135.50852305555554">
<ele>4</ele>
</trkpt>
<trkpt lat="35.50261111111111" lon="135.50822305555556">
<ele>2</ele>
</trkpt>
<trkpt lat="35.502918888888885" lon="135.50812305555556">
<ele>3</ele>
</trkpt>
<trkpt lat="35.50316888888889" lon="135.50806">
<ele>4</ele>
</trkpt>
<trkpt lat="35.503276944444444" lon="135.508035">
<ele>4</ele>
</trkpt>
<trkpt lat="35.503476944444444" lon="135.50799805555556">
<ele>7</ele>
</trkpt>
<trkpt lat="35.50356" lon="135.50801">
<ele>6</ele>
</trkpt>
<trkpt lat="35.503785" lon="135.50807305555554">
<ele>7</ele>
</trkpt>
<trkpt lat="35.50389388888889" lon="135.508085">
<ele>6</ele>
</trkpt>
<trkpt lat="35.503951944444445" lon="135.508035">
<ele>6</ele>
</trkpt>
<trkpt lat="35.503993888888886" lon="135.507935">
<ele>7</ele>
</trkpt>
<trkpt lat="35.50431888888889" lon="135.507235">
<ele>7</ele>
</trkpt>
<trkpt lat="35.50446" lon="135.50702305555555">
<ele>5</ele>
</trkpt>
<trkpt lat="35.504535" lon="135.50691">
<ele>6</ele>
</trkpt>
<trkpt lat="35.50471" lon="135.50677305555556">
<ele>9</ele>
</trkpt>
<trkpt lat="35.504776944444444" lon="135.50672305555557">
<ele>9</ele>
</trkpt>
<trkpt lat="35.50527694444445" lon="135.50654805555556">
<ele>16</ele>
</trkpt>
<trkpt lat="35.50592694444445" lon="135.50647305555555">
<ele>9</ele>
</trkpt>
<trkpt lat="35.50694305555555" lon="135.50644805555555">
<ele>9</ele>
</trkpt>
<trkpt lat="35.507485" lon="135.5065111111111">
<ele>17</ele>
</trkpt>
<trkpt lat="35.50775111111111" lon="135.50654805555556">
<ele>19</ele>
</trkpt>
<trkpt lat="35.50805111111111" lon="135.5066611111111">
<ele>19</ele>
</trkpt>
<trkpt lat="35.508268055555554" lon="135.5067861111111">
<ele>14</ele>
</trkpt>
<trkpt lat="35.50900111111111" lon="135.50722305555556">
<ele>26</ele>
</trkpt>
<trkpt lat="35.51027611111111" lon="135.50824805555555">
<ele>20</ele>
</trkpt>
<trkpt lat="35.51068388888889" lon="135.50857305555556">
<ele>18</ele>
</trkpt>
<trkpt lat="35.51082611111111" lon="135.50871">
<ele>12</ele>
</trkpt>
<trkpt lat="35.51085805555556" lon="135.50872611111112">
<ele>11</ele>
</trkpt>
<trkpt lat="35.51085805555556" lon="135.50872611111112">
<ele>11</ele>
</trkpt>
<trkpt lat="35.51095111111111" lon="135.50877305555557">
<ele>8</ele>
</trkpt>
<trkpt lat="35.51135111111111" lon="135.50872305555555">
<ele>6</ele>
</trkpt>
<trkpt lat="35.51157611111111" lon="135.50864805555557">
<ele>4</ele>
</trkpt>
<trkpt lat="35.51175888888889" lon="135.50862305555555">
<ele>3</ele>
</trkpt>
<trkpt lat="35.512368055555555" lon="135.50862305555555">
<ele>4</ele>
</trkpt>
<trkpt lat="35.51293388888889" lon="135.50869805555556">
<ele>4</ele>
</trkpt>
<trkpt lat="35.51362611111111" lon="135.50881">
<ele>6</ele>
</trkpt>
<trkpt lat="35.51376694444444" lon="135.508835">
<ele>6</ele>
</trkpt>
<trkpt lat="35.51394194444445" lon="135.50891">
<ele>6</ele>
</trkpt>
<trkpt lat="35.51416694444445" lon="135.50904805555555">
<ele>7</ele>
</trkpt>
<trkpt lat="35.51443388888889" lon="135.509235">
<ele>5</ele>
</trkpt>
<trkpt lat="35.51485888888889" lon="135.50961">
<ele>7</ele>
</trkpt>
<trkpt lat="35.514991944444446" lon="135.50977305555554">
<ele>10</ele>
</trkpt>
<trkpt lat="35.51515" lon="135.510035">
<ele>15</ele>
</trkpt>
<trkpt lat="35.51518388888889" lon="135.510185">
<ele>15</ele>
</trkpt>
<trkpt lat="35.515208888888885" lon="135.51064805555555">
<ele>14</ele>
</trkpt>
<trkpt lat="35.51521694444445" lon="135.51076">
<ele>14</ele>
</trkpt>
<trkpt lat="35.515166944444445" lon="135.51087305555555">
<ele>15</ele>
</trkpt>
<trkpt lat="35.51488388888889" lon="135.51114694444445">
<ele>22</ele>
</trkpt>
<trkpt lat="35.514808888888886" lon="135.51126">
<ele>24</ele>
</trkpt>
<trkpt lat="35.51477611111111" lon="135.511335">
<ele>24</ele>
</trkpt>
<trkpt lat="35.51477611111111" lon="135.51147194444445">
<ele>25</ele>
</trkpt>
<trkpt lat="35.51482611111111" lon="135.51157194444446">
<ele>26</ele>
</trkpt>
<trkpt lat="35.51495111111111" lon="135.51172194444445">
<ele>27</ele>
</trkpt>
<trkpt lat="35.51525888888889" lon="135.51201">
<ele>33</ele>
</trkpt>
<trkpt lat="35.515616944444446" lon="135.512285">
<ele>38</ele>
</trkpt>
<trkpt lat="35.5158" lon="135.51242194444444">
<ele>39</ele>
</trkpt>
<trkpt lat="35.51596694444444" lon="135.51259694444445">
<ele>37</ele>
</trkpt>
<trkpt lat="35.51625" lon="135.513085">
<ele>35</ele>
</trkpt>
<trkpt lat="35.51631694444445" lon="135.51314805555555">
<ele>33</ele>
</trkpt>
<trkpt lat="35.516416944444444" lon="135.51317194444445">
<ele>35</ele>
</trkpt>
<trkpt lat="35.516625" lon="135.513135">
<ele>36</ele>
</trkpt>
<trkpt lat="35.516875" lon="135.51302305555555">
<ele>39</ele>
</trkpt>
<trkpt lat="35.5177" lon="135.512685">
<ele>38</ele>
</trkpt>
<trkpt lat="35.51786694444444" lon="135.51262194444445">
<ele>40</ele>
</trkpt>
<trkpt lat="35.518033055555556" lon="135.51261">
<ele>40</ele>
</trkpt>
<trkpt lat="35.518116944444444" lon="135.512635">
<ele>43</ele>
</trkpt>
<trkpt lat="35.518225" lon="135.512685">
<ele>39</ele>
</trkpt>
<trkpt lat="35.51851694444444" lon="135.512885">
<ele>43</ele>
</trkpt>
<trkpt lat="35.518616944444446" lon="135.51294694444445">
<ele>39</ele>
</trkpt>
<trkpt lat="35.51871694444444" lon="135.512985">
<ele>39</ele>
</trkpt>
<trkpt lat="35.51889111111111" lon="135.51301">
<ele>36</ele>
</trkpt>
<trkpt lat="35.51921611111111" lon="135.512985">
<ele>39</ele>
</trkpt>
<trkpt lat="35.51931611111111" lon="135.51301">
<ele>39</ele>
</trkpt>
<trkpt lat="35.519533055555556" lon="135.51311">
<ele>43</ele>
</trkpt>
<trkpt lat="35.51979111111111" lon="135.51329694444445">
<ele>40</ele>
</trkpt>
<trkpt lat="35.52008305555555" lon="135.51356">
<ele>37</ele>
</trkpt>
<trkpt lat="35.52019111111111" lon="135.513635">
<ele>37</ele>
</trkpt>
<trkpt lat="35.520316111111114" lon="135.51369694444443">
<ele>36</ele>
</trkpt>
<trkpt lat="35.52041611111111" lon="135.513735">
<ele>36</ele>
</trkpt>
<trkpt lat="35.52054111111111" lon="135.51374694444445">
<ele>36</ele>
</trkpt>
<trkpt lat="35.52065805555556" lon="135.51372194444446">
<ele>36</ele>
</trkpt>
<trkpt lat="35.520775" lon="135.51367194444444">
<ele>36</ele>
</trkpt>
<trkpt lat="35.52086611111111" lon="135.51361">
<ele>37</ele>
</trkpt>
<trkpt lat="35.52095805555555" lon="135.51352194444445">
<ele>38</ele>
</trkpt>
<trkpt lat="35.52105805555556" lon="135.513335">
<ele>37</ele>
</trkpt>
<trkpt lat="35.521098888888886" lon="135.51322194444444">
<ele>38</ele>
</trkpt>
<trkpt lat="35.52114111111111" lon="135.512985">
<ele>37</ele>
</trkpt>
<trkpt lat="35.521233055555555" lon="135.512035">
<ele>36</ele>
</trkpt>
<trkpt lat="35.52130805555556" lon="135.51177194444443">
<ele>35</ele>
</trkpt>
<trkpt lat="35.52138305555555" lon="135.51164694444444">
<ele>34</ele>
</trkpt>
<trkpt lat="35.521458055555556" lon="135.511535">
<ele>34</ele>
</trkpt>
<trkpt lat="35.52154888888889" lon="135.51142194444444">
<ele>35</ele>
</trkpt>
<trkpt lat="35.52164888888889" lon="135.51132305555555">
<ele>32</ele>
</trkpt>
<trkpt lat="35.522083055555555" lon="135.51086">
<ele>7</ele>
</trkpt>
<trkpt lat="35.522508055555555" lon="135.51046">
<ele>29</ele>
</trkpt>
<trkpt lat="35.522666111111114" lon="135.51024694444445">
<ele>34</ele>
</trkpt>
<trkpt lat="35.52292388888889" lon="135.50972305555555">
<ele>39</ele>
</trkpt>
<trkpt lat="35.52317388888889" lon="135.50921">
<ele>38</ele>
</trkpt>
<trkpt lat="35.524816111111114" lon="135.50634805555555">
<ele>34</ele>
</trkpt>
<trkpt lat="35.52532388888889" lon="135.50542305555555">
<ele>33</ele>
</trkpt>
<trkpt lat="35.52546611111111" lon="135.5051861111111">
<ele>27</ele>
</trkpt>
<trkpt lat="35.525556944444446" lon="135.50504805555556">
<ele>26</ele>
</trkpt>
<trkpt lat="35.52634" lon="135.50444805555554">
<ele>28</ele>
</trkpt>
<trkpt lat="35.52649" lon="135.5041361111111">
<ele>25</ele>
</trkpt>
<trkpt lat="35.52652388888889" lon="135.5040611111111">
<ele>23</ele>
</trkpt>
<trkpt lat="35.52659888888889" lon="135.50399805555554">
<ele>23</ele>
</trkpt>
<trkpt lat="35.527215" lon="135.50367305555557">
<ele>26</ele>
</trkpt>
<trkpt lat="35.527631944444444" lon="135.50334805555556">
<ele>25</ele>
</trkpt>
<trkpt lat="35.527723055555555" lon="135.50328611111112">
<ele>23</ele>
</trkpt>
<trkpt lat="35.52784" lon="135.50324805555556">
<ele>25</ele>
</trkpt>
<trkpt lat="35.52809" lon="135.50317305555555">
<ele>24</ele>
</trkpt>
<trkpt lat="35.528315" lon="135.50314805555556">
<ele>24</ele>
</trkpt>
<trkpt lat="35.528515" lon="135.50314805555556">
<ele>24</ele>
</trkpt>
<trkpt lat="35.52860694444445" lon="135.50317305555555">
<ele>23</ele>
</trkpt>
<trkpt lat="35.528706944444444" lon="135.50324805555556">
<ele>23</ele>
</trkpt>
<trkpt lat="35.528798055555555" lon="135.50337305555556">
<ele>23</ele>
</trkpt>
<trkpt lat="35.528931944444444" lon="135.50359805555556">
<ele>24</ele>
</trkpt>
<trkpt lat="35.52903194444445" lon="135.50367305555557">
<ele>25</ele>
</trkpt>
<trkpt lat="35.52910694444444" lon="135.5037111111111">
<ele>25</ele>
</trkpt>
<trkpt lat="35.52932305555556" lon="135.50372305555555">
<ele>23</ele>
</trkpt>
<trkpt lat="35.52939805555555" lon="135.50376111111112">
<ele>22</ele>
</trkpt>
<trkpt lat="35.52974805555556" lon="135.50402305555556">
<ele>25</ele>
</trkpt>
<trkpt lat="35.529865" lon="135.50407305555555">
<ele>24</ele>
</trkpt>
<trkpt lat="35.530165" lon="135.5040611111111">
<ele>24</ele>
</trkpt>
<trkpt lat="35.53034805555556" lon="135.50402305555556">
<ele>27</ele>
</trkpt>
<trkpt lat="35.530515" lon="135.50394805555555">
<ele>25</ele>
</trkpt>
<trkpt lat="35.53062305555556" lon="135.50388611111111">
<ele>23</ele>
</trkpt>
<trkpt lat="35.53080611111111" lon="135.50373611111112">
<ele>24</ele>
</trkpt>
<trkpt lat="35.530965" lon="135.50369805555556">
<ele>24</ele>
</trkpt>
<trkpt lat="35.531065" lon="135.50374805555555">
<ele>22</ele>
</trkpt>
<trkpt lat="35.53128111111111" lon="135.50397305555555">
<ele>22</ele>
</trkpt>
<trkpt lat="35.53164805555556" lon="135.50447305555556">
<ele>25</ele>
</trkpt>
<trkpt lat="35.531731111111114" lon="135.50474805555555">
<ele>23</ele>
</trkpt>
<trkpt lat="35.53169" lon="135.50497305555555">
<ele>24</ele>
</trkpt>
<trkpt lat="35.53143111111111" lon="135.50537305555557">
<ele>25</ele>
</trkpt>
<trkpt lat="35.53135611111111" lon="135.505535">
<ele>23</ele>
</trkpt>
<trkpt lat="35.53134" lon="135.505685">
<ele>19</ele>
</trkpt>
<trkpt lat="35.53139" lon="135.50611">
<ele>12</ele>
</trkpt>
<trkpt lat="35.53144805555556" lon="135.506335">
<ele>10</ele>
</trkpt>
<trkpt lat="35.53158111111111" lon="135.506835">
<ele>12</ele>
</trkpt>
<trkpt lat="35.531623055555556" lon="135.50694694444445">
<ele>13</ele>
</trkpt>
<trkpt lat="35.531665" lon="135.50707305555557">
<ele>15</ele>
</trkpt>
<trkpt lat="35.53174805555555" lon="135.50724805555555">
<ele>14</ele>
</trkpt>
<trkpt lat="35.53194" lon="135.507485">
<ele>9</ele>
</trkpt>
<trkpt lat="35.53207305555556" lon="135.50761">
<ele>9</ele>
</trkpt>
<trkpt lat="35.53223111111111" lon="135.507735">
<ele>9</ele>
</trkpt>
<trkpt lat="35.53319805555556" lon="135.50826">
<ele>8</ele>
</trkpt>
<trkpt lat="35.533723055555555" lon="135.50861">
<ele>8</ele>
</trkpt>
<trkpt lat="35.534106111111115" lon="135.508935">
<ele>7</ele>
</trkpt>
<trkpt lat="35.53415611111111" lon="135.50902194444444">
<ele>7</ele>
</trkpt>
<trkpt lat="35.534438888888886" lon="135.50984694444443">
<ele>6</ele>
</trkpt>
<trkpt lat="35.53501388888889" lon="135.5114338888889">
<ele>8</ele>
</trkpt>
<trkpt lat="35.53510611111111" lon="135.5116588888889">
<ele>8</ele>
</trkpt>
<trkpt lat="35.53521388888889" lon="135.51180888888888">
<ele>8</ele>
</trkpt>
<trkpt lat="35.535288888888886" lon="135.51187194444444">
<ele>8</ele>
</trkpt>
<trkpt lat="35.535398055555554" lon="135.51190888888888">
<ele>7</ele>
</trkpt>
<trkpt lat="35.53553111111111" lon="135.51192194444445">
<ele>7</ele>
</trkpt>
<trkpt lat="35.53566388888889" lon="135.5118588888889">
<ele>7</ele>
</trkpt>
<trkpt lat="35.53581388888889" lon="135.51170888888888">
<ele>8</ele>
</trkpt>
<trkpt lat="35.53606388888889" lon="135.51123388888888">
<ele>8</ele>
</trkpt>
<trkpt lat="35.536496944444444" lon="135.5103588888889">
<ele>6</ele>
</trkpt>
<trkpt lat="35.53675611111111" lon="135.50978388888888">
<ele>3</ele>
</trkpt>
<trkpt lat="35.536971944444446" lon="135.50927194444444">
<ele>2</ele>
</trkpt>
<trkpt lat="35.53722194444445" lon="135.5086588888889">
<ele>5</ele>
</trkpt>
<trkpt lat="35.53729694444444" lon="135.50849694444443">
<ele>3</ele>
</trkpt>
<trkpt lat="35.53738888888889" lon="135.5083838888889">
<ele>4</ele>
</trkpt>
<trkpt lat="35.537571944444444" lon="135.5082088888889">
<ele>4</ele>
</trkpt>
<trkpt lat="35.53833888888889" lon="135.5078088888889">
<ele>5</ele>
</trkpt>
<trkpt lat="35.53868" lon="135.507585">
<ele>3</ele>
</trkpt>
<trkpt lat="35.53883" lon="135.50744694444444">
<ele>2</ele>
</trkpt>
<trkpt lat="35.53903" lon="135.50726">
<ele>6</ele>
</trkpt>
<trkpt lat="35.539096944444445" lon="135.507135">
<ele>6</ele>
</trkpt>
<trkpt lat="35.53921388888889" lon="135.50684694444445">
<ele>5</ele>
</trkpt>
<trkpt lat="35.539365" lon="135.5064688888889">
<ele>6</ele>
</trkpt>
    </trkseg>
  </trk>
</gpx>